{
"type": "FeatureCollection",
"name": "bairros_anta_gorda",
"crs": { "type": "name", "properties": { "name": "urn:ogc:def:crs:OGC:1.3:CRS84" } },
"features": [
{ "type": "Feature", "properties": { "code_muni": 4300703.0, "name_muni": "Anta Gorda", "code_state": 43.0, "abbrev_state": "RS", "name_state": "Rio Grande do Sul", "code_region": 4.0, "name_region": "Sul", "year": 2022.0 }, "geometry": { "type": "Polygon", "coordinates": [ [ [ -52.034540153, -29.034165589999912 ], [ -52.03652518, -29.024316809 ], [ -52.041485052, -29.0177842169999 ], [ -52.047022666, -29.018485036999898 ], [ -52.047478831, -29.020025591999989 ], [ -52.050819559988199, -29.021412419771796 ], [ -52.05677882719511, -29.019544889379794 ], [ -52.057861642821202, -29.018694999425495 ], [ -52.055307572946802, -29.018527936443295 ], [ -52.055330673013493, -29.016516030634204 ], [ -52.051920663167493, -29.015036526362294 ], [ -52.053355067309496, -29.011303115582702 ], [ -52.052470114754001, -29.009637710773902 ], [ -52.054169894661797, -29.008447507337301 ], [ -52.057032377926895, -29.010956614582096 ], [ -52.060423687718895, -29.011237115391996 ], [ -52.061569781827892, -29.005682642477304 ], [ -52.0669093511097, -29.006140143258797 ], [ -52.067572721236097, -28.997351154142088 ], [ -52.077629899158701, -28.998321995948103 ], [ -52.078416813970392, -28.989312888783793 ], [ -52.091163548768598, -28.989727974893601 ], [ -52.09204290178279, -28.980435705782501 ], [ -52.069588755692799, -28.979624272202411 ], [ -52.070800028059999, -28.960780779951005 ], [ -52.068670777722595, -28.960675355005495 ], [ -52.069732101775102, -28.943367214718801 ], [ -52.066999563795093, -28.943122024584 ], [ -52.068687076601492, -28.926137806478497 ], [ -52.068601616631703, -28.916353073292296 ], [ -52.066537228018397, -28.916245135269104 ], [ -52.066952523099701, -28.9066052269017 ], [ -52.068987834951898, -28.906794654813702 ], [ -52.070742988428293, -28.887064842147101 ], [ -52.077577066988901, -28.88764486480699 ], [ -52.07899719449339, -28.877664242136891 ], [ -52.010037349, -28.873141964999895 ], [ -52.010205055, -28.88105135 ], [ -52.008862271999895, -28.883507403 ], [ -52.001942089999893, -28.8869100269999 ], [ -51.993893826, -28.887472382999896 ], [ -51.988762638, -28.889641087000012 ], [ -51.989453726, -28.891284121999885 ], [ -52.003555075999891, -28.898770038 ], [ -52.004457327, -28.900819762 ], [ -52.002783899999898, -28.903693625 ], [ -52.000347888, -28.902537765 ], [ -51.99282603599989, -28.902929521 ], [ -51.980213562, -28.900764828 ], [ -51.981391022, -28.904175860999903 ], [ -51.980478693999899, -28.911238656 ], [ -51.976989145999895, -28.913920565999902 ], [ -51.97025484999989, -28.922920688 ], [ -51.968659781, -28.922334134 ], [ -51.967520334, -28.916415187999984 ], [ -51.968555131, -28.907028523999902 ], [ -51.967049468, -28.9057187609999 ], [ -51.960044583999895, -28.909163170999904 ], [ -51.956716963, -28.915451456 ], [ -51.95721637, -28.917315583999901 ], [ -51.965253581, -28.925383445 ], [ -51.959274841, -28.9292745569999 ], [ -51.953939776, -28.929215527999894 ], [ -51.95115380499989, -28.926210959999899 ], [ -51.953042308, -28.911255821999895 ], [ -51.952684738999899, -28.907917594 ], [ -51.950704623999989, -28.907197973999899 ], [ -51.943994577, -28.908132243 ], [ -51.945169209, -28.922772743999893 ], [ -51.942956109, -28.924703830999892 ], [ -51.932953225999903, -28.928165959000012 ], [ -51.930525475, -28.927977596999895 ], [ -51.923685635, -28.922071931999902 ], [ -51.91956981, -28.920939037 ], [ -51.913860434999897, -28.927517274 ], [ -51.913250762, -28.932168482 ], [ -51.919587027, -28.934362606 ], [ -51.92343425, -28.9418074549999 ], [ -51.920855811, -28.945837798 ], [ -51.913631832, -28.9478920409999 ], [ -51.908368189, -28.951730229 ], [ -51.90939587, -28.961245066999897 ], [ -51.906511963, -28.965319988 ], [ -51.908900946999893, -28.965768402 ], [ -51.912421590999898, -28.961748366999899 ], [ -51.9142383289999, -28.953366757 ], [ -51.916265123999892, -28.95196534 ], [ -51.92361571, -28.953858193 ], [ -51.925048257, -28.95971037 ], [ -51.924303112, -28.962255726 ], [ -51.921329664, -28.9643045289999 ], [ -51.913892898, -28.966670848 ], [ -51.905949536, -28.971673344 ], [ -51.908353479, -28.97417288 ], [ -51.922710361999989, -28.974155971999899 ], [ -51.925073083, -28.978197517 ], [ -51.922345952999891, -28.981752354 ], [ -51.90931475299989, -28.984583421 ], [ -51.906966411, -28.986579825 ], [ -51.906416168, -28.989579868 ], [ -51.906856964, -28.990967385 ], [ -51.912712206, -28.9941835189999 ], [ -51.929338796, -28.990137939 ], [ -51.93188939, -28.994310540999901 ], [ -51.928456621999892, -29.000924714999904 ], [ -51.922611129, -29.005022153 ], [ -51.923495387999907, -29.008284521 ], [ -51.922074912, -29.013196064999896 ], [ -51.915088579, -29.015878433 ], [ -51.9188750329999, -29.025349672999894 ], [ -51.917466126, -29.034091713 ], [ -51.913269268, -29.041665126999899 ], [ -51.917841782, -29.049486715999901 ], [ -51.916665966, -29.059956805999906 ], [ -51.917737201, -29.062254348 ], [ -51.926343378, -29.068387925 ], [ -51.92585151, -29.074865524 ], [ -51.954714155, -29.074823006 ], [ -51.955297657999893, -29.073403584999895 ], [ -51.952445342, -29.071662966 ], [ -51.955202256, -29.068242015 ], [ -51.955609277999898, -29.063585945999893 ], [ -51.960346273, -29.061834193 ], [ -51.965554372, -29.053710407 ], [ -51.964823618, -29.051492337999903 ], [ -51.967616559, -29.049382458 ], [ -51.967064049, -29.043211976 ], [ -51.970004621, -29.04217965 ], [ -51.970027902, -29.039101849 ], [ -52.02109725, -29.039677249 ], [ -52.025283584, -29.037325128 ], [ -52.029278302, -29.037839921999897 ], [ -52.03029938, -29.0349352809999 ], [ -52.034540153, -29.034165589999912 ] ] ] } }
]
}
