{
"type": "FeatureCollection",
"name": "bairros_sao_valentim",
"crs": { "type": "name", "properties": { "name": "urn:ogc:def:crs:OGC:1.3:CRS84" } },
"features": [
{ "type": "Feature", "properties": { "code_muni": 4319703.0, "name_muni": "São Valentim", "code_state": 43.0, "abbrev_state": "RS", "name_state": "Rio Grande do Sul", "code_region": 4.0, "name_region": "Sul", "year": 2022.0 }, "geometry": { "type": "Polygon", "coordinates": [ [ [ -52.584723351, -27.590626385999901 ], [ -52.586840815999892, -27.591774875999906 ], [ -52.588690474, -27.589872764999892 ], [ -52.5923399919999, -27.589793411999899 ], [ -52.595694991999899, -27.588025552 ], [ -52.597101675, -27.586053879 ], [ -52.596611305, -27.583518969 ], [ -52.598396104, -27.582232310999895 ], [ -52.604567454999902, -27.584623201999904 ], [ -52.607035007, -27.582201015999896 ], [ -52.612451848, -27.583474199 ], [ -52.614155873999898, -27.581588322 ], [ -52.616908195999891, -27.583731580999899 ], [ -52.616567752, -27.586324025 ], [ -52.619240595, -27.585607149999902 ], [ -52.619865939, -27.582581731999895 ], [ -52.618328157999898, -27.577594022 ], [ -52.632441465999889, -27.577429607999896 ], [ -52.633044275, -27.575943176 ], [ -52.629837434, -27.574506743 ], [ -52.630500355, -27.572421803999895 ], [ -52.638520371, -27.564456817999901 ], [ -52.643156119, -27.570818113 ], [ -52.646517709, -27.571450915999904 ], [ -52.649711279, -27.570424518 ], [ -52.651485726, -27.571406289 ], [ -52.648411350999901, -27.576505874 ], [ -52.649977215, -27.580550678999902 ], [ -52.65454162399989, -27.581991694 ], [ -52.655384376, -27.579411213 ], [ -52.659429476, -27.578416295 ], [ -52.661743937, -27.581068762 ], [ -52.663827875, -27.580019619 ], [ -52.667010812999898, -27.582057778 ], [ -52.664869801, -27.583971706999904 ], [ -52.66743373500001, -27.589048206 ], [ -52.675596796, -27.592914076999897 ], [ -52.67635968, -27.585817673 ], [ -52.669282581999902, -27.578114929 ], [ -52.669567456, -27.577084543 ], [ -52.673828399999898, -27.577913881 ], [ -52.677992924, -27.575808843999901 ], [ -52.678678380999891, -27.570583911 ], [ -52.678244332, -27.568943938 ], [ -52.672836297999901, -27.566431855 ], [ -52.662465268999902, -27.569529202999906 ], [ -52.658895185999896, -27.565551816 ], [ -52.662141636999891, -27.56122598199989 ], [ -52.669485447999897, -27.5600387 ], [ -52.672535382, -27.552975891999896 ], [ -52.670356266999903, -27.547938347999899 ], [ -52.663715661, -27.546223492 ], [ -52.663787977, -27.544682179999903 ], [ -52.669843542, -27.541078764 ], [ -52.663260308, -27.533807841999899 ], [ -52.659981428, -27.537701999 ], [ -52.659436129, -27.540689759 ], [ -52.65909114, -27.538681149 ], [ -52.65531893699989, -27.539692438 ], [ -52.648384013999895, -27.536696903999907 ], [ -52.647559405, -27.534863059 ], [ -52.641456774999902, -27.537252016 ], [ -52.637606983999895, -27.53495724 ], [ -52.636132701999898, -27.538616781 ], [ -52.630071813, -27.540354347999902 ], [ -52.628540039, -27.538646832 ], [ -52.62547613, -27.542148278 ], [ -52.623361773999903, -27.542268099999898 ], [ -52.623436447999893, -27.540241336 ], [ -52.61690529, -27.542557718 ], [ -52.617910513, -27.540817676 ], [ -52.615480968, -27.540547731999897 ], [ -52.614775758999897, -27.53833209 ], [ -52.607474924, -27.53607067 ], [ -52.605367319, -27.536852138 ], [ -52.598673678, -27.533485758 ], [ -52.595886058, -27.535149395 ], [ -52.593212112999893, -27.534570499 ], [ -52.584989572, -27.536496218 ], [ -52.580496416, -27.535805782 ], [ -52.577303609999895, -27.533728028999988 ], [ -52.576762743, -27.529742527999897 ], [ -52.573730091999892, -27.527652482 ], [ -52.574210170999898, -27.526112107 ], [ -52.572425368, -27.525336016 ], [ -52.571975021999897, -27.52189693 ], [ -52.566039556, -27.519884757999897 ], [ -52.565408389, -27.516977523 ], [ -52.56040003, -27.512689381 ], [ -52.560232544, -27.509145112999896 ], [ -52.566081166999901, -27.505177294 ], [ -52.565864436, -27.500283189 ], [ -52.567256678, -27.499421426 ], [ -52.568687736999898, -27.500404852 ], [ -52.574198061999894, -27.489046883 ], [ -52.571986422999892, -27.481498612999896 ], [ -52.576702549999901, -27.477680015 ], [ -52.5772587, -27.475757063999904 ], [ -52.580833614, -27.4744267999999 ], [ -52.5811969169999, -27.472282172999897 ], [ -52.58427567, -27.470060761 ], [ -52.58702512, -27.469065062 ], [ -52.589263775999903, -27.47001109 ], [ -52.592867734, -27.467772554 ], [ -52.582223763999899, -27.458355934999897 ], [ -52.570266508, -27.464149967 ], [ -52.538847357999899, -27.492437545 ], [ -52.534391045999897, -27.487804491 ], [ -52.531850953999893, -27.487195769 ], [ -52.532116695, -27.485242462 ], [ -52.530344592999896, -27.483578039 ], [ -52.531022089, -27.481251932 ], [ -52.52640214, -27.476425632 ], [ -52.5216771, -27.475484118999894 ], [ -52.521968837, -27.478795814 ], [ -52.518542221, -27.482677023 ], [ -52.514693188, -27.483026697 ], [ -52.514766413, -27.485413055 ], [ -52.511978454, -27.486693368 ], [ -52.511366274999894, -27.492105791 ], [ -52.512411087, -27.492903729 ], [ -52.514783909, -27.491650563 ], [ -52.516093138, -27.495297021999903 ], [ -52.508698524, -27.495864916 ], [ -52.507300205, -27.501690236999895 ], [ -52.51174328, -27.503426843999893 ], [ -52.510290813, -27.506663037 ], [ -52.526858088, -27.506713987 ], [ -52.526867366, -27.530247706999898 ], [ -52.512164953, -27.53030504 ], [ -52.511391308, -27.52761436 ], [ -52.506424051, -27.531259444999897 ], [ -52.502959530999902, -27.542475072999896 ], [ -52.500423462999898, -27.544398408999903 ], [ -52.477857716, -27.546020839999986 ], [ -52.476454417, -27.549025279 ], [ -52.4787023109999, -27.548948843999895 ], [ -52.481284006, -27.551472679 ], [ -52.480850389, -27.553476336999896 ], [ -52.482645916, -27.554123909999902 ], [ -52.484463225999896, -27.558643227999905 ], [ -52.487531721, -27.560917828999909 ], [ -52.479607465999898, -27.561228354 ], [ -52.479742078, -27.582980158999902 ], [ -52.4773947589999, -27.584998020999905 ], [ -52.477215656999903, -27.603528028 ], [ -52.480776326, -27.6068466689999 ], [ -52.484045317, -27.607744943999901 ], [ -52.486263713, -27.610564285999892 ], [ -52.498364167, -27.6088659669999 ], [ -52.503806063, -27.609569829999899 ], [ -52.512049938, -27.614121842 ], [ -52.517538773999895, -27.614976355 ], [ -52.523076567, -27.612943082 ], [ -52.525297415999908, -27.614299313999901 ], [ -52.52760661100001, -27.608978011 ], [ -52.530043879999894, -27.607932870999903 ], [ -52.533426162, -27.610016750999897 ], [ -52.534763228, -27.608968021 ], [ -52.535343065999896, -27.611150365999901 ], [ -52.538737346999895, -27.612955453 ], [ -52.540150923999896, -27.609650044 ], [ -52.545425294, -27.607335195 ], [ -52.545507825999898, -27.604998323 ], [ -52.548987666999892, -27.605844058999896 ], [ -52.557255434999902, -27.6028147389999 ], [ -52.559808343, -27.603429515 ], [ -52.560120453, -27.606289295999893 ], [ -52.563754973999899, -27.605151303999904 ], [ -52.565560692, -27.604182904 ], [ -52.568169033999894, -27.598902745 ], [ -52.565927181999903, -27.597197799 ], [ -52.568087804999898, -27.597046862999893 ], [ -52.570422387, -27.594418275 ], [ -52.575360292, -27.594437442999901 ], [ -52.5796721789999, -27.596028992 ], [ -52.580871907, -27.593483345 ], [ -52.584723351, -27.590626385999901 ] ] ] } }
]
}
