{
"type": "FeatureCollection",
"name": "bairros_miraguai",
"crs": { "type": "name", "properties": { "name": "urn:ogc:def:crs:OGC:1.3:CRS84" } },
"features": [
{ "type": "Feature", "properties": { "code_muni": 4312302.0, "name_muni": "Miraguaí", "code_state": 43.0, "abbrev_state": "RS", "name_state": "Rio Grande do Sul", "code_region": 4.0, "name_region": "Sul", "year": 2022.0 }, "geometry": { "type": "Polygon", "coordinates": [ [ [ -53.683907518, -27.484847290999898 ], [ -53.684691648999902, -27.488207439 ], [ -53.677683889, -27.504459094 ], [ -53.670378221, -27.530211837 ], [ -53.664033344, -27.534707034 ], [ -53.659325608999893, -27.540451135999891 ], [ -53.664446602999895, -27.548079792 ], [ -53.668376318, -27.550331458999896 ], [ -53.676283791999893, -27.551256231 ], [ -53.679878343, -27.550245683 ], [ -53.681457157, -27.547876120999902 ], [ -53.6858123, -27.548783469999901 ], [ -53.685895394999903, -27.547220738 ], [ -53.687814633, -27.54621019 ], [ -53.692518911, -27.54728239 ], [ -53.695232916999892, -27.544124091 ], [ -53.696124182999895, -27.546002450999897 ], [ -53.698159352999902, -27.545867085999898 ], [ -53.70103821, -27.547858697 ], [ -53.704075885999899, -27.546885675999903 ], [ -53.706915876, -27.548095251999904 ], [ -53.709113886, -27.546813972999896 ], [ -53.715304500999899, -27.548150201999903 ], [ -53.717540038, -27.551959192 ], [ -53.721879096999892, -27.551129578 ], [ -53.724282165, -27.549763863 ], [ -53.7243991019999, -27.543621496999901 ], [ -53.719284708, -27.535919079999896 ], [ -53.731313451999902, -27.53838246 ], [ -53.739966105999898, -27.537394696 ], [ -53.742477734, -27.536460540999897 ], [ -53.74336565, -27.533258014 ], [ -53.757246618999901, -27.532134213999907 ], [ -53.762288639, -27.530182809999893 ], [ -53.772670215999895, -27.519590815 ], [ -53.772609905, -27.515225621 ], [ -53.775902899, -27.512160469 ], [ -53.783043751, -27.511224974 ], [ -53.790953906, -27.50618865 ], [ -53.793388469999989, -27.506713692999902 ], [ -53.801243675, -27.503434101 ], [ -53.805976098, -27.50326791 ], [ -53.811054305, -27.498564972999898 ], [ -53.81116601, -27.494550755 ], [ -53.80816338599989, -27.488526501 ], [ -53.808479679999898, -27.486027674 ], [ -53.81315631, -27.485600991 ], [ -53.82485486, -27.489049198 ], [ -53.830639377999894, -27.487976998 ], [ -53.833223379999893, -27.481811847999907 ], [ -53.825837263, -27.471691619999898 ], [ -53.827503193, -27.468704203 ], [ -53.835267932, -27.465692660999906 ], [ -53.828915816999903, -27.462136977999904 ], [ -53.827950836999896, -27.45941091 ], [ -53.834424243999898, -27.45775570099989 ], [ -53.841561075999891, -27.454065993 ], [ -53.843713517, -27.4468527669999 ], [ -53.8310454739999, -27.444378666 ], [ -53.827367828, -27.442303959 ], [ -53.825248893, -27.438795184 ], [ -53.822175699999903, -27.439922334999892 ], [ -53.818333203, -27.4472481409999 ], [ -53.817496886999891, -27.442995528 ], [ -53.812814053999901, -27.440473176999902 ], [ -53.806404977999897, -27.443660291999898 ], [ -53.804461616, -27.439270973 ], [ -53.800348388, -27.439076637 ], [ -53.794234167999903, -27.4440409229999 ], [ -53.792324311999899, -27.440868550999898 ], [ -53.790419817, -27.442334785 ], [ -53.787833134, -27.44080824 ], [ -53.783132877, -27.440835045 ], [ -53.778318699, -27.448006722999896 ], [ -53.774327435, -27.4439779309999 ], [ -53.771157322, -27.4436786599999 ], [ -53.767250915, -27.444626612 ], [ -53.759486846999891, -27.450632942 ], [ -53.756419014999892, -27.449247124 ], [ -53.754537303999903, -27.449941372999895 ], [ -53.753966691999892, -27.447801999 ], [ -53.751841726, -27.44737714 ], [ -53.732862446, -27.455285955 ], [ -53.729309744, -27.450717916 ], [ -53.727205920999893, -27.451157314999897 ], [ -53.716057051, -27.446818925999892 ], [ -53.709782001, -27.446144779999901 ], [ -53.707608115, -27.441287713999895 ], [ -53.700122168, -27.446842102999895 ], [ -53.697527911999892, -27.454402521 ], [ -53.6926436749999, -27.457463232999899 ], [ -53.690952786, -27.461266496 ], [ -53.691298043, -27.466715087 ], [ -53.687358021, -27.475489954999901 ], [ -53.687250870999897, -27.480308517 ], [ -53.686160738, -27.480090527999902 ], [ -53.683907518, -27.484847290999898 ] ] ] } }
]
}
