{
"type": "FeatureCollection",
"name": "bairros_ivoti",
"crs": { "type": "name", "properties": { "name": "urn:ogc:def:crs:OGC:1.3:CRS84" } },
"features": [
{ "type": "Feature", "properties": { "code_muni": 4310801.0, "name_muni": "Ivoti", "code_state": 43.0, "abbrev_state": "RS", "name_state": "Rio Grande do Sul", "code_region": 4.0, "name_region": "Sul", "year": 2022.0 }, "geometry": { "type": "Polygon", "coordinates": [ [ [ -51.165915958, -29.621870196999986 ], [ -51.196441057, -29.616456332999988 ], [ -51.193346687, -29.615750432 ], [ -51.188703687, -29.604833422 ], [ -51.192274787, -29.595350466999896 ], [ -51.194837737999897, -29.593992560999887 ], [ -51.19279507999989, -29.583806321999901 ], [ -51.195887665, -29.586887266 ], [ -51.190039756, -29.559334373999892 ], [ -51.197100576, -29.559473625999892 ], [ -51.205298926999895, -29.557228155 ], [ -51.204322913999903, -29.555305529 ], [ -51.201079857, -29.555868357999891 ], [ -51.202507942, -29.551614892 ], [ -51.198826042, -29.548449381999902 ], [ -51.196243537, -29.547337373999898 ], [ -51.193438795, -29.549002067999901 ], [ -51.191536712999891, -29.547247062999904 ], [ -51.187755163, -29.548664698 ], [ -51.186665507, -29.547465062 ], [ -51.184467981999902, -29.547957706 ], [ -51.177622025999895, -29.542247927999899 ], [ -51.170746283, -29.541263347 ], [ -51.165760714, -29.542887344999905 ], [ -51.163825706999901, -29.53930194 ], [ -51.15807195, -29.540053658 ], [ -51.150959042999894, -29.532120791999894 ], [ -51.140339414, -29.534250551 ], [ -51.14085879999989, -29.540396977999901 ], [ -51.116373519, -29.54405975299991 ], [ -51.127689701999905, -29.608786887999898 ], [ -51.129825777999891, -29.608443591 ], [ -51.131829965999891, -29.619170493 ], [ -51.126638204999892, -29.619891293 ], [ -51.129879156999898, -29.638570646999906 ], [ -51.134601691999897, -29.638074043 ], [ -51.133051432999899, -29.628005206999902 ], [ -51.166403091999904, -29.624180462000012 ], [ -51.165915958, -29.621870196999986 ] ] ] } }
]
}
