{
"type": "FeatureCollection",
"name": "bairros_itapuca",
"crs": { "type": "name", "properties": { "name": "urn:ogc:def:crs:OGC:1.3:CRS84" } },
"features": [
{ "type": "Feature", "properties": { "code_muni": 4310579.0, "name_muni": "Itapuca", "code_state": 43.0, "abbrev_state": "RS", "name_state": "Rio Grande do Sul", "code_region": 4.0, "name_region": "Sul", "year": 2022.0 }, "geometry": { "type": "Polygon", "coordinates": [ [ [ -52.071187129, -28.754135398 ], [ -52.079485157, -28.760036202 ], [ -52.078599408999899, -28.762771988999905 ], [ -52.074406806, -28.764277287 ], [ -52.068692179, -28.770957074 ], [ -52.068358159, -28.773633011 ], [ -52.074408325, -28.782317115 ], [ -52.074751155999891, -28.78523272 ], [ -52.071139514, -28.788623194 ], [ -52.066660984, -28.796566109 ], [ -52.065127005, -28.796977098 ], [ -52.0622340319999, -28.794706824999892 ], [ -52.059794511, -28.795282452 ], [ -52.060968628999902, -28.805786668999893 ], [ -52.06333763, -28.809590049 ], [ -52.069257942, -28.805286668 ], [ -52.072449257999899, -28.806456128 ], [ -52.079076398, -28.806201483999903 ], [ -52.080171522999898, -28.80849638 ], [ -52.083192477999901, -28.806223888 ], [ -52.093116935999902, -28.809316602 ], [ -52.098498199999909, -28.809408717999897 ], [ -52.103346068999898, -28.807613374 ], [ -52.108178457, -28.811200743 ], [ -52.112732001, -28.81089374 ], [ -52.12134077799989, -28.806356761 ], [ -52.124993329999896, -28.810522448 ], [ -52.129602613, -28.808123003999984 ], [ -52.131818451, -28.804804541 ], [ -52.136809104, -28.8035755 ], [ -52.135781318999904, -28.807213530999903 ], [ -52.1406447479999, -28.808306159 ], [ -52.142890135, -28.813409030999903 ], [ -52.146081379, -28.809723993 ], [ -52.148559115999902, -28.812365687999893 ], [ -52.1560997139999, -28.811503721 ], [ -52.157905263000011, -28.812593637 ], [ -52.162034053999896, -28.81231345 ], [ -52.165696749999903, -28.813781216999903 ], [ -52.17047522, -28.819826387 ], [ -52.171221677999903, -28.823606907999899 ], [ -52.177798241999895, -28.820828341 ], [ -52.182264395999894, -28.823910297999898 ], [ -52.18620176, -28.821808342999905 ], [ -52.190534426999903, -28.822730618 ], [ -52.197686567999902, -28.819873986999902 ], [ -52.201981976999896, -28.822011320999898 ], [ -52.205279586999893, -28.819127240999894 ], [ -52.206523628, -28.8134384869999 ], [ -52.209207409, -28.812514356 ], [ -52.210387163, -28.810568096999909 ], [ -52.220818893999905, -28.809127402999902 ], [ -52.23092938699989, -28.812006915 ], [ -52.236260863, -28.816400991 ], [ -52.239345143, -28.824362871999902 ], [ -52.2441070799999, -28.828801548999895 ], [ -52.254896115, -28.823404793 ], [ -52.258567829, -28.816425357999901 ], [ -52.26151082, -28.815416022 ], [ -52.264888997, -28.810030115 ], [ -52.270375277, -28.807676721999901 ], [ -52.27861774, -28.813200605 ], [ -52.2835031, -28.813245660999893 ], [ -52.290007580999891, -28.809068743999898 ], [ -52.298474251, -28.806099717999899 ], [ -52.3039750189999, -28.807091710999895 ], [ -52.306238063, -28.809754998 ], [ -52.309965102, -28.811224228999901 ], [ -52.321170815999892, -28.8097286 ], [ -52.327316063, -28.813626864 ], [ -52.329048784999898, -28.81354999500001 ], [ -52.32382455, -28.808497792 ], [ -52.325498336, -28.806399634999899 ], [ -52.320619877, -28.805178113 ], [ -52.319817185, -28.801635690999898 ], [ -52.321200136999892, -28.796780899999899 ], [ -52.319793908999891, -28.795679145999905 ], [ -52.314524783, -28.795916588 ], [ -52.312435195, -28.793363851 ], [ -52.312486845, -28.789457709 ], [ -52.309936071, -28.786232557999899 ], [ -52.304949498, -28.78568388 ], [ -52.307162584, -28.781269024 ], [ -52.305580592999895, -28.776615353999901 ], [ -52.303425949, -28.775333566 ], [ -52.304477544, -28.772055176 ], [ -52.301289348, -28.769211562 ], [ -52.301358010999905, -28.767248658 ], [ -52.295252553, -28.762571328 ], [ -52.295450418, -28.756444383 ], [ -52.293019526, -28.754928934 ], [ -52.296767657, -28.754402501 ], [ -52.298167006, -28.751713964000011 ], [ -52.297019682, -28.750608935999903 ], [ -52.300812876, -28.747983873 ], [ -52.294731, -28.7435612159999 ], [ -52.290473733999896, -28.744378846 ], [ -52.286474082, -28.739697091 ], [ -52.277752447999895, -28.735177086 ], [ -52.276903948, -28.728486597 ], [ -52.27849133, -28.696076198 ], [ -52.26771221, -28.693375059999894 ], [ -52.259981378, -28.686393269 ], [ -52.25982449, -28.682328411999904 ], [ -52.256962606999899, -28.680522681999904 ], [ -52.258747182, -28.686446933999903 ], [ -52.255799368999902, -28.686787803 ], [ -52.250867241, -28.690932161 ], [ -52.246106783999899, -28.699308373 ], [ -52.246077526, -28.706094084 ], [ -52.251583347, -28.710750425 ], [ -52.254229678999899, -28.716948273 ], [ -52.258015987, -28.720841595 ], [ -52.257568074999902, -28.7302576979999 ], [ -52.256177453, -28.735212750999899 ], [ -52.253585874999892, -28.737388418 ], [ -52.24793937, -28.736906764 ], [ -52.246503291, -28.741116924 ], [ -52.247514506, -28.749846453 ], [ -52.241897746999904, -28.7535404509999 ], [ -52.238707976999898, -28.757388519999903 ], [ -52.229813018999906, -28.756135777999905 ], [ -52.226678551, -28.759043448999908 ], [ -52.225790236, -28.762886181999892 ], [ -52.224673717, -28.761450819999897 ], [ -52.210739893, -28.756017293999896 ], [ -52.206452016999897, -28.749269223999899 ], [ -52.20255503, -28.750278261999895 ], [ -52.197673124999902, -28.746385974 ], [ -52.19946404, -28.743455689 ], [ -52.198085995, -28.7421375119999 ], [ -52.194060409, -28.742002632 ], [ -52.188836775, -28.744189644 ], [ -52.178596065, -28.743348523999902 ], [ -52.178631987999907, -28.744759772 ], [ -52.181498303, -28.747926564 ], [ -52.18481394, -28.748983183999897 ], [ -52.186782791, -28.7524309779999 ], [ -52.1838338539999, -28.753608228 ], [ -52.181587034, -28.752083376 ], [ -52.177034255, -28.752036502 ], [ -52.174317443999897, -28.753343855 ], [ -52.171479452, -28.752728211 ], [ -52.167964033, -28.754904098999898 ], [ -52.164892688999892, -28.752173531 ], [ -52.162087701, -28.753712156999903 ], [ -52.161180978999901, -28.752104159999899 ], [ -52.156944026, -28.752789732999908 ], [ -52.153402683, -28.747925553999892 ], [ -52.149197184999899, -28.749562942999894 ], [ -52.148399597, -28.748224259 ], [ -52.144789809, -28.748073755999897 ], [ -52.139445807, -28.745594667 ], [ -52.136734944, -28.74210805 ], [ -52.129140622, -28.743154171 ], [ -52.123227169, -28.7411771169999 ], [ -52.120513178, -28.74190433 ], [ -52.118648785999902, -28.740699483999901 ], [ -52.116451797, -28.741599774999894 ], [ -52.113815395, -28.740683576 ], [ -52.108156975, -28.740940088999906 ], [ -52.088887305, -28.745517407 ], [ -52.088200356999899, -28.743150777 ], [ -52.081551655999895, -28.745421657999898 ], [ -52.078454585, -28.741435066 ], [ -52.072333363, -28.742910211 ], [ -52.068521357, -28.747363978 ], [ -52.068568103, -28.749775669 ], [ -52.071187129, -28.754135398 ] ] ] } }
]
}
