{
"type": "FeatureCollection",
"name": "bairros_nova_araca",
"crs": { "type": "name", "properties": { "name": "urn:ogc:def:crs:OGC:1.3:CRS84" } },
"features": [
{ "type": "Feature", "properties": { "code_muni": 4312807.0, "name_muni": "Nova Araçá", "code_state": 43.0, "abbrev_state": "RS", "name_state": "Rio Grande do Sul", "code_region": 4.0, "name_region": "Sul", "year": 2022.0 }, "geometry": { "type": "Polygon", "coordinates": [ [ [ -51.728833499, -28.6824387999999 ], [ -51.740180037999899, -28.676073604 ], [ -51.746872940999893, -28.677337721999898 ], [ -51.751721841999895, -28.675398933999894 ], [ -51.753212511, -28.676082054999902 ], [ -51.753405248, -28.674866782 ], [ -51.75874197, -28.674803665 ], [ -51.760230328, -28.671317168 ], [ -51.770006258, -28.670599081 ], [ -51.773211524, -28.667866708 ], [ -51.78311101899989, -28.665827486999898 ], [ -51.785821883, -28.667266174 ], [ -51.796451265, -28.667590092 ], [ -51.798918753, -28.670451401 ], [ -51.802992284, -28.670350669 ], [ -51.806578063, -28.673524004999908 ], [ -51.808982266, -28.67364408600001 ], [ -51.812783801, -28.668663775 ], [ -51.816313733, -28.668571901 ], [ -51.827358804, -28.675832311 ], [ -51.829346519, -28.680322401999884 ], [ -51.836402998, -28.679542399999903 ], [ -51.836996827, -28.677585678999904 ], [ -51.839435447, -28.6768823109999 ], [ -51.846794062, -28.676573775999902 ], [ -51.85684954, -28.678648961 ], [ -51.863759003, -28.6757681899999 ], [ -51.8565212889999, -28.669039953 ], [ -51.846094580999903, -28.670551273999887 ], [ -51.848153709, -28.663472247999888 ], [ -51.850500505, -28.661833703 ], [ -51.856809525, -28.661967014 ], [ -51.860474368, -28.658090676 ], [ -51.853715415, -28.6545429 ], [ -51.849316356, -28.648923544999892 ], [ -51.845839125999902, -28.649574539 ], [ -51.842304563, -28.652673278999899 ], [ -51.8395850369999, -28.651963169999899 ], [ -51.831314614, -28.658439631 ], [ -51.828838269999899, -28.65826993 ], [ -51.827639936, -28.655750374 ], [ -51.819668169999893, -28.6525679 ], [ -51.81872821199989, -28.649883507 ], [ -51.812848699, -28.650270258 ], [ -51.812671129, -28.654155903999893 ], [ -51.809763775, -28.651671877999895 ], [ -51.799484908, -28.653055601999906 ], [ -51.792171106999902, -28.64305827 ], [ -51.791851010999892, -28.641434411 ], [ -51.793605430999897, -28.639815832 ], [ -51.792540703, -28.638117758 ], [ -51.789674096999896, -28.638913032999898 ], [ -51.784846537999989, -28.63692336 ], [ -51.785121311999902, -28.633882827 ], [ -51.783464244, -28.632071675 ], [ -51.781266496999898, -28.632840581 ], [ -51.78014818, -28.63056957 ], [ -51.774737079, -28.63301179 ], [ -51.772210861, -28.635715439 ], [ -51.767563789999897, -28.635540503999902 ], [ -51.765803951999892, -28.634124106999899 ], [ -51.762971148, -28.635549501999904 ], [ -51.758597607999896, -28.634682879 ], [ -51.755627515999898, -28.636555616999892 ], [ -51.752067677, -28.634414585999906 ], [ -51.740280954999903, -28.632986565 ], [ -51.734609679999899, -28.628892719 ], [ -51.729955036, -28.628253992999891 ], [ -51.727720851999898, -28.622457395 ], [ -51.723596985, -28.619290597 ], [ -51.722794136999902, -28.615967113 ], [ -51.719531866999908, -28.613332636999903 ], [ -51.720745221, -28.611969825 ], [ -51.715861779, -28.608536103999896 ], [ -51.70658985099989, -28.609647788 ], [ -51.706159226999894, -28.613865216 ], [ -51.701469271999905, -28.614408504 ], [ -51.696455565, -28.619451766999905 ], [ -51.684322377999898, -28.620070037999906 ], [ -51.67453352, -28.622565032 ], [ -51.673541837999892, -28.625216269 ], [ -51.67042837799989, -28.627521311 ], [ -51.668723929, -28.657734322 ], [ -51.678967105, -28.660257734999988 ], [ -51.682393842, -28.663688512 ], [ -51.682814193999896, -28.661697135999905 ], [ -51.686866425999902, -28.664515302 ], [ -51.692787519, -28.664379961 ], [ -51.697379156, -28.673194615999893 ], [ -51.707881708999899, -28.674994316 ], [ -51.711877547, -28.673445684999891 ], [ -51.721665343, -28.682700811 ], [ -51.728833499, -28.6824387999999 ] ] ] } }
]
}
