{
"type": "FeatureCollection",
"name": "bairros_itatiba_do_sul",
"crs": { "type": "name", "properties": { "name": "urn:ogc:def:crs:OGC:1.3:CRS84" } },
"features": [
{ "type": "Feature", "properties": { "code_muni": 4310702.0, "name_muni": "Itatiba do Sul", "code_state": 43.0, "abbrev_state": "RS", "name_state": "Rio Grande do Sul", "code_region": 4.0, "name_region": "Sul", "year": 2022.0 }, "geometry": { "type": "Polygon", "coordinates": [ [ [ -52.495849619999895, -27.395179658 ], [ -52.49684761399989, -27.393236101 ], [ -52.504365874, -27.390713834999897 ], [ -52.503518344, -27.385924526999897 ], [ -52.500342455, -27.3851875729999 ], [ -52.501686051, -27.378216630999894 ], [ -52.506941973, -27.379284389 ], [ -52.509421237, -27.378356279999892 ], [ -52.512772841, -27.381214335 ], [ -52.514485688, -27.377340167999893 ], [ -52.513007193, -27.368980204 ], [ -52.50286777, -27.368837571 ], [ -52.503045495, -27.364419246999901 ], [ -52.505185333, -27.362549201 ], [ -52.498687197, -27.360933905 ], [ -52.498309076999902, -27.359815534999893 ], [ -52.50385353, -27.352812948 ], [ -52.507319604, -27.356114456999901 ], [ -52.511443637999896, -27.353012233999902 ], [ -52.519224337, -27.354006232 ], [ -52.519613079999893, -27.352820247999901 ], [ -52.514827619, -27.350286385999901 ], [ -52.513541237, -27.348070247999896 ], [ -52.522253459999895, -27.345182447999893 ], [ -52.520414123, -27.341066635999898 ], [ -52.526556205, -27.336758185 ], [ -52.524982412999989, -27.334871153999902 ], [ -52.520617552, -27.334652681 ], [ -52.520252722, -27.333283669 ], [ -52.524359169, -27.332941815 ], [ -52.52659147, -27.329888587 ], [ -52.532379975, -27.327117222 ], [ -52.531309327, -27.322554857999897 ], [ -52.535080343999894, -27.3202539 ], [ -52.535141729, -27.316735631 ], [ -52.538840862, -27.30941168 ], [ -52.538505949, -27.307598191 ], [ -52.537089016, -27.307554502 ], [ -52.528623908, -27.309582453 ], [ -52.525743141, -27.309141571999891 ], [ -52.531128504, -27.299997635 ], [ -52.531665487999895, -27.2981147859999 ], [ -52.529631474, -27.295536340999892 ], [ -52.540749343, -27.289565013999905 ], [ -52.5343580219999, -27.28625177 ], [ -52.531470353, -27.287761697999898 ], [ -52.526577056999898, -27.28493571799989 ], [ -52.526263047, -27.283164831 ], [ -52.528383575, -27.280230350999901 ], [ -52.525497764, -27.279081135999899 ], [ -52.528577479, -27.274483007 ], [ -52.530729369, -27.276364328999897 ], [ -52.537911779, -27.2764494739999 ], [ -52.5363770169999, -27.272401094 ], [ -52.537935749, -27.26875318 ], [ -52.533071538999899, -27.267992186 ], [ -52.537340136999902, -27.2638709719999 ], [ -52.536260528999897, -27.260091136 ], [ -52.529147056999896, -27.262686317 ], [ -52.510659431, -27.263733803 ], [ -52.493018295, -27.267153294 ], [ -52.480396535999901, -27.266477256 ], [ -52.476392421, -27.260578150999905 ], [ -52.481566922, -27.2466275469999 ], [ -52.4816214149999, -27.240788026 ], [ -52.479814908, -27.235542764999899 ], [ -52.475406643, -27.232696670999896 ], [ -52.462452103, -27.229209576 ], [ -52.446210135999891, -27.217411952 ], [ -52.435268049999891, -27.216662466999892 ], [ -52.431482418, -27.219063438 ], [ -52.430164866, -27.223724961999899 ], [ -52.438924498999903, -27.240257923999895 ], [ -52.442074843999897, -27.250512917 ], [ -52.441993479, -27.258220369999897 ], [ -52.438194931999895, -27.265375833 ], [ -52.418847907999989, -27.283189225999905 ], [ -52.421852036, -27.28988145999989 ], [ -52.423237883999903, -27.290294811 ], [ -52.422373636, -27.295906693999896 ], [ -52.42403146600001, -27.298295955 ], [ -52.430931975, -27.299897757999894 ], [ -52.434570468999901, -27.303791668 ], [ -52.444953964, -27.306703496999898 ], [ -52.445755848, -27.308165618 ], [ -52.444347025, -27.312529911 ], [ -52.440626721999898, -27.316391028999899 ], [ -52.439637812999898, -27.32105189 ], [ -52.436953184999901, -27.322885081 ], [ -52.435989059999891, -27.325801479999896 ], [ -52.436648507, -27.335961606999895 ], [ -52.438960465, -27.338599952 ], [ -52.433791497, -27.338110544999903 ], [ -52.430218478, -27.341289211999896 ], [ -52.43336749, -27.34567938 ], [ -52.430144728999899, -27.346556053 ], [ -52.430397994, -27.347843396 ], [ -52.435038088999896, -27.353050273 ], [ -52.439173812999989, -27.353938707999902 ], [ -52.442302334, -27.357035611 ], [ -52.442989661999896, -27.360550967999899 ], [ -52.439195399, -27.361519964 ], [ -52.436496188, -27.36059295 ], [ -52.433816023, -27.368381014 ], [ -52.442592436, -27.376581184 ], [ -52.43470359, -27.383149306 ], [ -52.433538588, -27.379812575 ], [ -52.426344897, -27.390465558 ], [ -52.432005265, -27.394282871 ], [ -52.443014237999897, -27.3939115219999 ], [ -52.449201043999899, -27.401409699999892 ], [ -52.447186753, -27.402465446 ], [ -52.44707047299989, -27.407406965999908 ], [ -52.453246609, -27.408599812 ], [ -52.453159259, -27.436987847999891 ], [ -52.449172931, -27.437010943 ], [ -52.449068396, -27.449084173 ], [ -52.45169684199989, -27.448965305999902 ], [ -52.451960364999891, -27.457795065 ], [ -52.445572797999901, -27.455576875 ], [ -52.444807617, -27.475614010999895 ], [ -52.447336505, -27.475522762 ], [ -52.449717617, -27.477297539999899 ], [ -52.449571401999897, -27.482358763 ], [ -52.44060633, -27.4823475429999 ], [ -52.436824186, -27.494590425 ], [ -52.447023454, -27.494434435 ], [ -52.455943499999897, -27.490093712 ], [ -52.458894831999899, -27.490507161 ], [ -52.462237543, -27.49290801 ], [ -52.472424304, -27.492274904999896 ], [ -52.474666683999892, -27.490238754 ], [ -52.485430529, -27.486679588999891 ], [ -52.491357047, -27.487021827 ], [ -52.492829543, -27.488503035999901 ], [ -52.497124471999904, -27.488350968 ], [ -52.5003533289999, -27.4897247329999 ], [ -52.514766413, -27.485413055 ], [ -52.514693188, -27.483026697 ], [ -52.518542221, -27.482677023 ], [ -52.5225583, -27.47807304 ], [ -52.5216771, -27.475484118999894 ], [ -52.517152666, -27.476645049999902 ], [ -52.519218619, -27.469251335 ], [ -52.52299579, -27.468410828999904 ], [ -52.52333206, -27.464968645999896 ], [ -52.526645163999902, -27.465078615 ], [ -52.527631492, -27.463871887 ], [ -52.524424386, -27.457096226 ], [ -52.519850801, -27.458208929 ], [ -52.515057761, -27.455381662 ], [ -52.515223748, -27.454168081 ], [ -52.51987001, -27.4516189889999 ], [ -52.518843745, -27.447185179 ], [ -52.522585125, -27.442520472 ], [ -52.5148544689999, -27.442539367999903 ], [ -52.515955673, -27.437125771999899 ], [ -52.511988136999904, -27.437227838999892 ], [ -52.509060243, -27.434635025 ], [ -52.51081782099989, -27.4276567389999 ], [ -52.514020482, -27.428604001999897 ], [ -52.514921355999896, -27.42537807 ], [ -52.517141668, -27.423920175 ], [ -52.517513209999898, -27.421848908 ], [ -52.514198807999897, -27.418985925999898 ], [ -52.516355932999893, -27.411727579999901 ], [ -52.509698896, -27.413440396999896 ], [ -52.509754864999898, -27.417633832 ], [ -52.504234906, -27.414635157 ], [ -52.506712235999892, -27.410753983999896 ], [ -52.505822330999898, -27.409549852999891 ], [ -52.499918094, -27.409657915 ], [ -52.50180533799989, -27.404469413 ], [ -52.49867656, -27.403276365999904 ], [ -52.499505228, -27.397325807999902 ], [ -52.495849619999895, -27.395179658 ] ] ] } }
]
}
