{
"type": "FeatureCollection",
"name": "bairros_sao_pedro_do_sul",
"crs": { "type": "name", "properties": { "name": "urn:ogc:def:crs:OGC:1.3:CRS84" } },
"features": [
{ "type": "Feature", "properties": { "name": "Schmidt", "code_muni": 4319406.0, "name_muni": "São Pedro do Sul" }, "geometry": { "type": "Polygon", "coordinates": [ [ [ -54.1824339, -29.6124478 ], [ -54.1819927, -29.6116952 ], [ -54.1814831, -29.6107898 ], [ -54.1813531, -29.6105464 ], [ -54.1812618, -29.6103829 ], [ -54.1795653, -29.6109379 ], [ -54.1753821, -29.6123881 ], [ -54.1743726, -29.6127381 ], [ -54.1749251, -29.6135916 ], [ -54.1753837, -29.613409699999988 ], [ -54.175476, -29.6134387 ], [ -54.1767825, -29.6128757 ], [ -54.1772975, -29.6138294 ], [ -54.1789055, -29.6131287 ], [ -54.1793245, -29.6138687 ], [ -54.1797504, -29.6145698 ], [ -54.1805094, -29.6142445 ], [ -54.181243, -29.6139075 ], [ -54.1828752, -29.6131905 ], [ -54.1824339, -29.6124478 ] ] ] } },
{ "type": "Feature", "properties": { "name": "Nova Alemanha", "code_muni": 4319406.0, "name_muni": "São Pedro do Sul" }, "geometry": { "type": "Polygon", "coordinates": [ [ [ -54.1853272, -29.6143144 ], [ -54.1856553, -29.6149032 ], [ -54.1861682, -29.6157654 ], [ -54.1861884, -29.6157987 ], [ -54.1945153, -29.61559 ], [ -54.1946876, -29.6139926 ], [ -54.1928959, -29.6130319 ], [ -54.1918016, -29.613517 ], [ -54.1901761, -29.6121738 ], [ -54.189527, -29.6114089 ], [ -54.1882718, -29.6111618 ], [ -54.1875744, -29.610756 ], [ -54.1877675, -29.6104902 ], [ -54.1873384, -29.610285 ], [ -54.1872525, -29.610424899999988 ], [ -54.1867979, -29.610257 ], [ -54.1852891, -29.6100144 ], [ -54.1819927, -29.6116952 ], [ -54.1824339, -29.6124478 ], [ -54.1828752, -29.6131905 ], [ -54.1828944, -29.6132231 ], [ -54.1847916, -29.6133945 ], [ -54.1853272, -29.6143144 ] ] ] } },
{ "type": "Feature", "properties": { "name": "Oliveira", "code_muni": 4319406.0, "name_muni": "São Pedro do Sul" }, "geometry": { "type": "Polygon", "coordinates": [ [ [ -54.1895032, -29.6190141 ], [ -54.1900059, -29.6189295 ], [ -54.1915736, -29.6182387 ], [ -54.1919412, -29.6181494 ], [ -54.1924115, -29.61814 ], [ -54.1927142, -29.6182246 ], [ -54.1930981, -29.6183844 ], [ -54.1932479, -29.6186287 ], [ -54.1934908, -29.6188614 ], [ -54.1936226, -29.6190442 ], [ -54.1937686, -29.618943499999986 ], [ -54.194372, -29.6185276 ], [ -54.1936898, -29.6178168 ], [ -54.1924131, -29.6173504 ], [ -54.191646, -29.6176209 ], [ -54.1908574, -29.6167069 ], [ -54.1877407, -29.6177282 ], [ -54.1872418, -29.6169261 ], [ -54.1869629, -29.6164737 ], [ -54.1850209, -29.617149899999987 ], [ -54.1836128, -29.6177842 ], [ -54.1834223, -29.6178495 ], [ -54.1820034, -29.6183788 ], [ -54.1819377, -29.6184161 ], [ -54.1822422, -29.6189559 ], [ -54.1829972, -29.6202138 ], [ -54.1837341, -29.6214916 ], [ -54.1845033, -29.6211721 ], [ -54.1852898, -29.6208201 ], [ -54.1855561, -29.621288299999986 ], [ -54.1857481, -29.6205951 ], [ -54.1860992, -29.6204855 ], [ -54.1868489, -29.6201276 ], [ -54.1875945, -29.6197953 ], [ -54.1882926, -29.6194814 ], [ -54.1881658, -29.6192077 ], [ -54.1881068, -29.6190958 ], [ -54.1895032, -29.6190141 ] ] ] } },
{ "type": "Feature", "properties": { "name": "Canto Verde", "code_muni": 4319406.0, "name_muni": "São Pedro do Sul" }, "geometry": { "type": "Polygon", "coordinates": [ [ [ -54.1824289, -29.6248386 ], [ -54.1833899, -29.6244167 ], [ -54.1842503, -29.6240539 ], [ -54.1844734, -29.623969 ], [ -54.1848213, -29.6236157 ], [ -54.1849579, -29.6233861 ], [ -54.1850479, -29.6231272 ], [ -54.1853493, -29.6223731 ], [ -54.1855561, -29.621288299999986 ], [ -54.1852898, -29.6208201 ], [ -54.1845033, -29.6211721 ], [ -54.1837341, -29.6214916 ], [ -54.18294, -29.6218601 ], [ -54.1821717, -29.6222033 ], [ -54.1815783, -29.6224633 ], [ -54.1809091, -29.6227658 ], [ -54.1814496, -29.623688 ], [ -54.1820122, -29.6246918 ], [ -54.1820718, -29.6247804 ], [ -54.1821174, -29.6248503 ], [ -54.1821726, -29.6249495 ], [ -54.1824289, -29.6248386 ] ] ] } },
{ "type": "Feature", "properties": { "name": "Maturino de Oliveira Bello", "code_muni": 4319406.0, "name_muni": "São Pedro do Sul" }, "geometry": { "type": "Polygon", "coordinates": [ [ [ -54.183173, -29.6266986 ], [ -54.1832976, -29.626803 ], [ -54.1835725, -29.6271049 ], [ -54.1923219, -29.6205729 ], [ -54.1935467, -29.6201749 ], [ -54.1936819, -29.6198647 ], [ -54.1937197, -29.619601599999989 ], [ -54.1936732, -29.6193122 ], [ -54.1936226, -29.6190442 ], [ -54.1934908, -29.6188614 ], [ -54.1932479, -29.6186287 ], [ -54.1930981, -29.6183844 ], [ -54.1927142, -29.6182246 ], [ -54.1924115, -29.61814 ], [ -54.1919412, -29.6181494 ], [ -54.1915736, -29.6182387 ], [ -54.1900059, -29.6189295 ], [ -54.1895032, -29.6190141 ], [ -54.1881068, -29.6190958 ], [ -54.1881658, -29.6192077 ], [ -54.1882926, -29.6194814 ], [ -54.1875945, -29.6197953 ], [ -54.1868489, -29.6201276 ], [ -54.1860992, -29.6204855 ], [ -54.1857481, -29.6205951 ], [ -54.1855561, -29.621288299999986 ], [ -54.1853493, -29.6223731 ], [ -54.1850479, -29.6231272 ], [ -54.1849579, -29.6233861 ], [ -54.1848213, -29.6236157 ], [ -54.1844734, -29.623969 ], [ -54.1842503, -29.6240539 ], [ -54.1833899, -29.6244167 ], [ -54.1824289, -29.6248386 ], [ -54.1821726, -29.6249495 ], [ -54.1822234, -29.6250497 ], [ -54.1826123, -29.6257316 ], [ -54.1830697, -29.6264838 ], [ -54.1830776, -29.6265235 ], [ -54.1830828, -29.62659750000001 ], [ -54.1831199, -29.6266735 ], [ -54.183173, -29.6266986 ] ] ] } },
{ "type": "Feature", "properties": { "name": "Gaúcha", "code_muni": 4319406.0, "name_muni": "São Pedro do Sul" }, "geometry": { "type": "Polygon", "coordinates": [ [ [ -54.1936732, -29.6193122 ], [ -54.1937197, -29.619601599999989 ], [ -54.1936819, -29.6198647 ], [ -54.1935467, -29.6201749 ], [ -54.1931467, -29.6207435 ], [ -54.1926386, -29.6214343 ], [ -54.1925899, -29.621721 ], [ -54.1925899, -29.6220452 ], [ -54.1926277, -29.6222708 ], [ -54.1928115, -29.6226233 ], [ -54.1930764, -29.6229522 ], [ -54.1934062, -29.6231261 ], [ -54.1958116, -29.6242196 ], [ -54.1976327, -29.6230305 ], [ -54.20109, -29.6198769 ], [ -54.2006756, -29.6197277 ], [ -54.2002183, -29.619533 ], [ -54.1995277, -29.6192695 ], [ -54.1983381, -29.6187961 ], [ -54.19787, -29.618521 ], [ -54.1973068, -29.6181129 ], [ -54.1965196, -29.6174099 ], [ -54.1961306, -29.6173155 ], [ -54.194372, -29.6185276 ], [ -54.1937686, -29.618943499999986 ], [ -54.1936226, -29.6190442 ], [ -54.1936732, -29.6193122 ] ] ] } },
{ "type": "Feature", "properties": { "name": "Riveira", "code_muni": 4319406.0, "name_muni": "São Pedro do Sul" }, "geometry": { "type": "Polygon", "coordinates": [ [ [ -54.1924453, -29.6278428 ], [ -54.1953421, -29.626276 ], [ -54.1937971, -29.624951700000011 ], [ -54.1889906, -29.6263507 ], [ -54.1861045, -29.6274838 ], [ -54.1854072, -29.628118 ], [ -54.1854876, -29.6282952 ], [ -54.1848734, -29.628674 ], [ -54.1845287, -29.6288046 ], [ -54.1841492, -29.6287778 ], [ -54.1839749, -29.6287382 ], [ -54.1832384, -29.6288908 ], [ -54.1834083, -29.6292419 ], [ -54.18344780000001, -29.6295624 ], [ -54.1834418, -29.6297098 ], [ -54.1834045, -29.6300026 ], [ -54.1833005, -29.6303844 ], [ -54.1831759, -29.6309312 ], [ -54.1830903, -29.6312804 ], [ -54.1829512, -29.6318408 ], [ -54.182613, -29.6333306 ], [ -54.1825074, -29.6336456 ], [ -54.1810045, -29.6357776 ], [ -54.180615, -29.6363998 ], [ -54.1804361, -29.636893799999989 ], [ -54.180495, -29.6372878 ], [ -54.1805616, -29.6375613 ], [ -54.1806053, -29.6375536 ], [ -54.1820937, -29.6372434 ], [ -54.1823519, -29.6371736 ], [ -54.1829548, -29.6370308 ], [ -54.1838652, -29.63681 ], [ -54.1855922, -29.6364761 ], [ -54.1874578, -29.6361677 ], [ -54.1924453, -29.6278428 ] ] ] } },
{ "type": "Feature", "properties": { "name": "Trevo", "code_muni": 4319406.0, "name_muni": "São Pedro do Sul" }, "geometry": { "type": "Polygon", "coordinates": [ [ [ -54.1805616, -29.6375613 ], [ -54.1806108, -29.6377636 ], [ -54.1808739, -29.6380472 ], [ -54.1813792, -29.6383308 ], [ -54.1821476, -29.6384406 ], [ -54.1835266, -29.6384132 ], [ -54.1840318, -29.6385962 ], [ -54.1844845, -29.6389987 ], [ -54.1847687, -29.6394104 ], [ -54.1849266, -29.639904499999986 ], [ -54.1848213, -29.6405815 ], [ -54.1844319, -29.641469 ], [ -54.1841897, -29.6419081 ], [ -54.184074, -29.6425577 ], [ -54.1842845, -29.6431249 ], [ -54.1846424, -29.6435183 ], [ -54.1873898, -29.6450095 ], [ -54.1908109, -29.6459976 ], [ -54.1922821, -29.6464245 ], [ -54.192493, -29.6464784 ], [ -54.1926386, -29.646515199999989 ], [ -54.1983354, -29.6355911 ], [ -54.1957133, -29.6355546 ], [ -54.1953273, -29.6355646 ], [ -54.1948103, -29.6355733 ], [ -54.1939185, -29.6356042 ], [ -54.1923082, -29.6356853 ], [ -54.1912356, -29.6357522 ], [ -54.1910096, -29.6357674 ], [ -54.1906536, -29.6357872 ], [ -54.1903954, -29.635812299999987 ], [ -54.1898371, -29.6358751 ], [ -54.1891234, -29.6359312 ], [ -54.1888645, -29.6359597 ], [ -54.1886962, -29.6359854 ], [ -54.1875033, -29.6361587 ], [ -54.1874578, -29.6361677 ], [ -54.1855922, -29.6364761 ], [ -54.1838652, -29.63681 ], [ -54.1829548, -29.6370308 ], [ -54.1823519, -29.6371736 ], [ -54.1820937, -29.6372434 ], [ -54.1806053, -29.6375536 ], [ -54.1805616, -29.6375613 ] ] ] } },
{ "type": "Feature", "properties": { "name": "Santo Antônio", "code_muni": 4319406.0, "name_muni": "São Pedro do Sul" }, "geometry": { "type": "Polygon", "coordinates": [ [ [ -54.180495, -29.6372878 ], [ -54.1804361, -29.636893799999989 ], [ -54.180615, -29.6363998 ], [ -54.1810045, -29.6357776 ], [ -54.1825074, -29.6336456 ], [ -54.182613, -29.6333306 ], [ -54.1829512, -29.6318408 ], [ -54.1830903, -29.6312804 ], [ -54.1831759, -29.6309312 ], [ -54.1833005, -29.6303844 ], [ -54.1834045, -29.6300026 ], [ -54.1834418, -29.6297098 ], [ -54.18344780000001, -29.6295624 ], [ -54.1834083, -29.6292419 ], [ -54.1832384, -29.6288908 ], [ -54.1827638, -29.6283208 ], [ -54.1825272, -29.628047 ], [ -54.1822152, -29.627689 ], [ -54.1819712, -29.6273974 ], [ -54.1817416, -29.6271114 ], [ -54.1815099, -29.6272553 ], [ -54.181003, -29.6275234 ], [ -54.1810137, -29.6275491 ], [ -54.1795331, -29.6282765 ], [ -54.1790074, -29.6285446 ], [ -54.1787928, -29.6281529 ], [ -54.1738308, -29.6308458 ], [ -54.1721222, -29.6333404 ], [ -54.1724333, -29.633858 ], [ -54.1729514, -29.6337273 ], [ -54.1731682, -29.6336874 ], [ -54.1731578, -29.6337832 ], [ -54.1731464, -29.633891699999989 ], [ -54.1731629, -29.6339961 ], [ -54.1732021, -29.634106 ], [ -54.1732412, -29.6341641 ], [ -54.1732875, -29.6342111 ], [ -54.1734522, -29.6343392 ], [ -54.174299, -29.6350067 ], [ -54.1745481, -29.6351868 ], [ -54.1745254, -29.635205499999987 ], [ -54.1742706, -29.635441 ], [ -54.174901, -29.635991199999985 ], [ -54.1747212, -29.6362733 ], [ -54.1746515, -29.636497100000014 ], [ -54.174791, -29.6370986 ], [ -54.174362, -29.638161 ], [ -54.1743598, -29.6382138 ], [ -54.1743799, -29.6382663 ], [ -54.1744044, -29.6383068 ], [ -54.1745466, -29.6384504 ], [ -54.1746661, -29.6385977 ], [ -54.1746864, -29.6386484 ], [ -54.1746842, -29.6386955 ], [ -54.1746348, -29.6387947 ], [ -54.1745751, -29.6388679 ], [ -54.1744964, -29.638987 ], [ -54.1744391, -29.6390838 ], [ -54.1755232, -29.638744500000012 ], [ -54.175711, -29.6386938 ], [ -54.1762434, -29.6385626 ], [ -54.1764994, -29.638504799999986 ], [ -54.1803062, -29.6376263 ], [ -54.1805616, -29.6375613 ], [ -54.180495, -29.6372878 ] ] ] } },
{ "type": "Feature", "properties": { "name": "Progresso", "code_muni": 4319406.0, "name_muni": "São Pedro do Sul" }, "geometry": { "type": "Polygon", "coordinates": [ [ [ -54.1770923, -29.6261082 ], [ -54.1764135, -29.6246092 ], [ -54.1764835, -29.6245857 ], [ -54.1768992, -29.6243782 ], [ -54.1762716, -29.6232776 ], [ -54.1762488, -29.6232392 ], [ -54.1757539, -29.6234828 ], [ -54.1747206, -29.6239404 ], [ -54.1739447, -29.6226353 ], [ -54.1729966, -29.623045599999987 ], [ -54.1720831, -29.6233892 ], [ -54.1719961, -29.6234642 ], [ -54.1712639, -29.6234245 ], [ -54.1710895, -29.6245507 ], [ -54.1713712, -29.624947099999986 ], [ -54.1716769, -29.6257958 ], [ -54.1721275, -29.626374 ], [ -54.1723529, -29.6265419 ], [ -54.1725245, -29.626747 ], [ -54.173128, -29.6271504 ], [ -54.1738039, -29.6275677 ], [ -54.1740908, -29.6275293 ], [ -54.1770923, -29.6261082 ] ] ] } },
{ "type": "Feature", "properties": { "name": "Linhares", "code_muni": 4319406.0, "name_muni": "São Pedro do Sul" }, "geometry": { "type": "Polygon", "coordinates": [ [ [ -54.1719076, -29.620932 ], [ -54.1721544, -29.6209506 ], [ -54.1722748, -29.6206794 ], [ -54.1681767, -29.6190759 ], [ -54.1632414, -29.620335099999988 ], [ -54.1618413, -29.6272973 ], [ -54.1624967, -29.627435599999988 ], [ -54.1634613, -29.6265745 ], [ -54.1634721, -29.6249051 ], [ -54.1645879, -29.623804599999985 ], [ -54.1681391, -29.623245 ], [ -54.1713738, -29.6215009 ], [ -54.1718727, -29.6210905 ], [ -54.1719076, -29.620932 ] ] ] } },
{ "type": "Feature", "properties": { "name": "Santa Luzia", "code_muni": 4319406.0, "name_muni": "São Pedro do Sul" }, "geometry": { "type": "Polygon", "coordinates": [ [ [ -54.1716447, -29.6095935 ], [ -54.1710064, -29.6075484 ], [ -54.1704029, -29.6055394 ], [ -54.1700837, -29.6044538 ], [ -54.1698584, -29.6036749 ], [ -54.1697364, -29.6028283 ], [ -54.1696297, -29.6014384 ], [ -54.1641963, -29.6143657 ], [ -54.1643733, -29.6167349 ], [ -54.1712827, -29.613297799999987 ], [ -54.1713698, -29.6132208 ], [ -54.1725326, -29.6125469 ], [ -54.1728222, -29.6125632 ], [ -54.1733614, -29.612379 ], [ -54.1731253, -29.6119756 ], [ -54.1730529, -29.6117354 ], [ -54.1728115, -29.6110125 ], [ -54.1724977, -29.6099608 ], [ -54.1718084, -29.610110099999989 ], [ -54.1716447, -29.6095935 ] ] ] } }
]
}
