{
"type": "FeatureCollection",
"name": "bairros_nova_prata",
"crs": { "type": "name", "properties": { "name": "urn:ogc:def:crs:OGC:1.3:CRS84" } },
"features": [
{ "type": "Feature", "properties": { "name": "Rio Branco", "code_muni": 4313300.0, "name_muni": "Nova Prata" }, "geometry": { "type": "Polygon", "coordinates": [ [ [ -51.6213668, -28.7266539 ], [ -51.6221403, -28.7262098 ], [ -51.623003, -28.7256359 ], [ -51.6228797, -28.7254988 ], [ -51.6228486, -28.7254646 ], [ -51.6217799, -28.7241528 ], [ -51.6208774, -28.7228888 ], [ -51.6207926, -28.7227721 ], [ -51.6207121, -28.7230546 ], [ -51.6205582, -28.7234204 ], [ -51.6203339, -28.7237219 ], [ -51.6200365, -28.7240402 ], [ -51.6196207, -28.7243746 ], [ -51.6188228, -28.7248613 ], [ -51.6179151, -28.7251988 ], [ -51.6172211, -28.7255765 ], [ -51.6170946, -28.7256768 ], [ -51.6188872, -28.7280485 ], [ -51.6196865, -28.7275831 ], [ -51.6206413, -28.7270704 ], [ -51.6213668, -28.7266539 ] ] ] } },
{ "type": "Feature", "properties": { "name": "Caravággio", "code_muni": 4313300.0, "name_muni": "Nova Prata" }, "geometry": { "type": "Polygon", "coordinates": [ [ [ -51.6141558, -28.7501979 ], [ -51.6137534, -28.7504895 ], [ -51.6138125, -28.7507105 ], [ -51.6135818, -28.7507387 ], [ -51.6134584, -28.750908 ], [ -51.6117472, -28.7509175 ], [ -51.6123748, -28.7514489 ], [ -51.6128737, -28.7516652 ], [ -51.6131258, -28.7522531 ], [ -51.6133136, -28.7525071 ], [ -51.6131473, -28.7526999 ], [ -51.6129756, -28.7527752 ], [ -51.6119242, -28.7530432 ], [ -51.6116238, -28.7532078 ], [ -51.6108835, -28.7529068 ], [ -51.6092205, -28.7532737 ], [ -51.6089791, -28.754487 ], [ -51.6083702, -28.7546234 ], [ -51.6082929, -28.7546439 ], [ -51.6082326, -28.754638 ], [ -51.6081791, -28.7546215 ], [ -51.6081345, -28.754599 ], [ -51.6077627, -28.7543742 ], [ -51.6076621, -28.7543142 ], [ -51.6075495, -28.7542519 ], [ -51.6068121, -28.7539635 ], [ -51.6065226, -28.7538902 ], [ -51.605114, -28.7536264 ], [ -51.604701, -28.7535606 ], [ -51.6040626, -28.7534218 ], [ -51.6023272, -28.7557944 ], [ -51.6065812, -28.7550749 ], [ -51.6069245, -28.7550749 ], [ -51.6070426, -28.755136 ], [ -51.6076273, -28.755554599999989 ], [ -51.6084802, -28.7556439 ], [ -51.6097087, -28.7554417 ], [ -51.6094565, -28.7572194 ], [ -51.609478, -28.7580095 ], [ -51.6095638, -28.7584797 ], [ -51.6098106, -28.759006400000011 ], [ -51.610111, -28.7595331 ], [ -51.6089523, -28.7608499 ], [ -51.6081798, -28.761433 ], [ -51.6103967, -28.7614342 ], [ -51.6104331, -28.7613861 ], [ -51.6106475, -28.7611556 ], [ -51.6112764, -28.7604137 ], [ -51.611381, -28.7602891 ], [ -51.6115084, -28.7600751 ], [ -51.6116774, -28.7596695 ], [ -51.6117015, -28.7595449 ], [ -51.6117056, -28.7594156 ], [ -51.6116908, -28.7592404 ], [ -51.6116117, -28.7590535 ], [ -51.6114749, -28.7588477 ], [ -51.6112965, -28.7585973 ], [ -51.6111973, -28.7584315 ], [ -51.6125143, -28.7583951 ], [ -51.6123748, -28.758094100000012 ], [ -51.6123104, -28.757746099999988 ], [ -51.6122997, -28.7573229 ], [ -51.6125894, -28.755169 ], [ -51.6130829, -28.7546422 ], [ -51.6138983, -28.7544635 ], [ -51.6144884, -28.7542002 ], [ -51.6150999, -28.7536358 ], [ -51.6155076, -28.7529868 ], [ -51.6155291, -28.7524412 ], [ -51.6154432, -28.7519709 ], [ -51.6152609, -28.7517546 ], [ -51.6150892, -28.7504565 ], [ -51.6144884, -28.75056 ], [ -51.6143918, -28.7501603 ], [ -51.6141558, -28.7501979 ] ] ] } },
{ "type": "Feature", "properties": { "name": "São João Bosco", "code_muni": 4313300.0, "name_muni": "Nova Prata" }, "geometry": { "type": "Polygon", "coordinates": [ [ [ -51.6111973, -28.7584315 ], [ -51.6112965, -28.7585973 ], [ -51.6114749, -28.7588477 ], [ -51.6116117, -28.7590535 ], [ -51.6116908, -28.7592404 ], [ -51.6117056, -28.7594156 ], [ -51.6117015, -28.7595449 ], [ -51.6116774, -28.7596695 ], [ -51.6115084, -28.7600751 ], [ -51.611381, -28.7602891 ], [ -51.6112764, -28.7604137 ], [ -51.6106475, -28.7611556 ], [ -51.6104331, -28.7613861 ], [ -51.6103967, -28.7614342 ], [ -51.6081798, -28.761433 ], [ -51.6074824, -28.7619785 ], [ -51.6072035, -28.7622513 ], [ -51.6069675, -28.7626557 ], [ -51.6068173, -28.7632012 ], [ -51.6061413, -28.7631824 ], [ -51.6061404, -28.7634708 ], [ -51.6061381, -28.7642191 ], [ -51.6061239, -28.76488 ], [ -51.6075675, -28.764942300000012 ], [ -51.6090473, -28.7649715 ], [ -51.6102237, -28.7648047 ], [ -51.6100091, -28.7643345 ], [ -51.6129493, -28.7644622 ], [ -51.6136891, -28.7645508 ], [ -51.6140213, -28.761629 ], [ -51.6156954, -28.7616964 ], [ -51.6166045, -28.7617306 ], [ -51.6168451, -28.7617522 ], [ -51.6172993, -28.758451499999989 ], [ -51.6125143, -28.7583951 ], [ -51.6111973, -28.7584315 ] ] ] } },
{ "type": "Feature", "properties": { "name": "Citadella", "code_muni": 4313300.0, "name_muni": "Nova Prata" }, "geometry": { "type": "Polygon", "coordinates": [ [ [ -51.6190685, -28.7618688 ], [ -51.6183421, -28.7618275 ], [ -51.61763590000001, -28.7618116 ], [ -51.6173771, -28.7617834 ], [ -51.6168451, -28.7617522 ], [ -51.6166045, -28.7617306 ], [ -51.6156954, -28.7616964 ], [ -51.6140213, -28.761629 ], [ -51.6136891, -28.7645508 ], [ -51.6141688, -28.7646138 ], [ -51.614064, -28.7652767 ], [ -51.61403, -28.7655219 ], [ -51.6136354, -28.7654631 ], [ -51.6134155, -28.767424 ], [ -51.614247, -28.7676262 ], [ -51.614365, -28.7674992 ], [ -51.6142899, -28.7674334 ], [ -51.6145524, -28.7672318 ], [ -51.6144448, -28.7670985 ], [ -51.6142523, -28.7668362 ], [ -51.6147794, -28.7664929 ], [ -51.614672, -28.7662581 ], [ -51.6148724, -28.7647109 ], [ -51.6149091, -28.7645027 ], [ -51.6156806, -28.7645485 ], [ -51.6157155, -28.7642734 ], [ -51.6164692, -28.7643681 ], [ -51.6165403, -28.7635986 ], [ -51.616897, -28.7636291 ], [ -51.6168219, -28.7640618 ], [ -51.6172832, -28.7640806 ], [ -51.6173583, -28.7631518 ], [ -51.6181462, -28.7632747 ], [ -51.6188175, -28.7633611 ], [ -51.6191981, -28.763405 ], [ -51.6192037, -28.7633094 ], [ -51.61937, -28.7621901 ], [ -51.6190025, -28.762169 ], [ -51.6190685, -28.7618688 ] ] ] } },
{ "type": "Feature", "properties": { "name": "Basalto", "code_muni": 4313300.0, "name_muni": "Nova Prata" }, "geometry": { "type": "Polygon", "coordinates": [ [ [ -51.61937, -28.7621901 ], [ -51.6192037, -28.7633094 ], [ -51.6191981, -28.763405 ], [ -51.6188175, -28.7633611 ], [ -51.6181462, -28.7632747 ], [ -51.6173583, -28.7631518 ], [ -51.6172832, -28.7640806 ], [ -51.6168219, -28.7640618 ], [ -51.616897, -28.7636291 ], [ -51.6165403, -28.7635986 ], [ -51.6164692, -28.7643681 ], [ -51.6157155, -28.7642734 ], [ -51.6156806, -28.7645485 ], [ -51.6149091, -28.7645027 ], [ -51.6148724, -28.7647109 ], [ -51.614672, -28.7662581 ], [ -51.6147794, -28.7664929 ], [ -51.6142523, -28.7668362 ], [ -51.6144448, -28.7670985 ], [ -51.6145524, -28.7672318 ], [ -51.6142899, -28.7674334 ], [ -51.614365, -28.7674992 ], [ -51.614247, -28.7676262 ], [ -51.6157436, -28.7679318 ], [ -51.6164839, -28.7687547 ], [ -51.6166717, -28.7685737 ], [ -51.6171116, -28.7682469 ], [ -51.6210652, -28.7683738 ], [ -51.6219013, -28.7682095 ], [ -51.6259736, -28.7682187 ], [ -51.6263384, -28.7676638 ], [ -51.6308552, -28.7701513 ], [ -51.6323519, -28.7625052 ], [ -51.6326308, -28.7625005 ], [ -51.633017100000011, -28.7605019 ], [ -51.6327542, -28.760450199999987 ], [ -51.6344065, -28.752074400000012 ], [ -51.6303939, -28.7510209 ], [ -51.6314346, -28.748556499999985 ], [ -51.6143918, -28.7501603 ], [ -51.6144884, -28.75056 ], [ -51.6150892, -28.7504565 ], [ -51.6152609, -28.7517546 ], [ -51.6154432, -28.7519709 ], [ -51.6155291, -28.7524412 ], [ -51.6155076, -28.7529868 ], [ -51.6150999, -28.7536358 ], [ -51.6144884, -28.7542002 ], [ -51.6138983, -28.7544635 ], [ -51.6130829, -28.7546422 ], [ -51.6125894, -28.755169 ], [ -51.6122997, -28.7573229 ], [ -51.6123104, -28.757746099999988 ], [ -51.6123748, -28.758094100000012 ], [ -51.6125143, -28.7583951 ], [ -51.6172993, -28.758451499999989 ], [ -51.6168451, -28.7617522 ], [ -51.6173771, -28.7617834 ], [ -51.61763590000001, -28.7618116 ], [ -51.6183421, -28.7618275 ], [ -51.6190685, -28.7618688 ], [ -51.6190025, -28.762169 ], [ -51.61937, -28.7621901 ] ] ] } },
{ "type": "Feature", "properties": { "name": "Coroados", "code_muni": 4313300.0, "name_muni": "Nova Prata" }, "geometry": { "type": "Polygon", "coordinates": [ [ [ -51.6211081, -28.7768282 ], [ -51.6230929, -28.7714773 ], [ -51.6218054, -28.7718065 ], [ -51.6204429, -28.771439699999984 ], [ -51.6201103, -28.77112 ], [ -51.6199172, -28.7706685 ], [ -51.6192305, -28.770772 ], [ -51.6184741, -28.7710024 ], [ -51.6179902, -28.7711443 ], [ -51.6172041, -28.7717265 ], [ -51.6171281, -28.771781799999989 ], [ -51.6170112, -28.7718571 ], [ -51.6138634, -28.7741528 ], [ -51.6132438, -28.7745819 ], [ -51.612879, -28.7748111 ], [ -51.611837, -28.7755799 ], [ -51.6115755, -28.7758291 ], [ -51.611363, -28.7761605 ], [ -51.6111906, -28.776465 ], [ -51.6111436, -28.7767119 ], [ -51.6111048, -28.7769881 ], [ -51.6211081, -28.7768282 ] ] ] } },
{ "type": "Feature", "properties": { "name": "São Peregrino", "code_muni": 4313300.0, "name_muni": "Nova Prata" }, "geometry": { "type": "Polygon", "coordinates": [ [ [ -51.6084353, -28.7757228 ], [ -51.6084856, -28.7758079 ], [ -51.610221, -28.776398 ], [ -51.6104836, -28.776463400000011 ], [ -51.6105321, -28.7765144 ], [ -51.6111436, -28.7767119 ], [ -51.6111906, -28.776465 ], [ -51.611363, -28.7761605 ], [ -51.6115755, -28.7758291 ], [ -51.611837, -28.7755799 ], [ -51.612879, -28.7748111 ], [ -51.6132438, -28.7745819 ], [ -51.6138634, -28.7741528 ], [ -51.6170112, -28.7718571 ], [ -51.6171281, -28.771781799999989 ], [ -51.6172041, -28.7717265 ], [ -51.6179902, -28.7711443 ], [ -51.618733, -28.770611 ], [ -51.6201291, -28.7695917 ], [ -51.6206978, -28.769187 ], [ -51.6211441, -28.7688616 ], [ -51.6213677, -28.7686959 ], [ -51.6219013, -28.7682095 ], [ -51.6210652, -28.7683738 ], [ -51.6171116, -28.7682469 ], [ -51.6166717, -28.7685737 ], [ -51.6164839, -28.7687547 ], [ -51.6157436, -28.7679318 ], [ -51.614247, -28.7676262 ], [ -51.6134155, -28.767424 ], [ -51.6136354, -28.7654631 ], [ -51.61403, -28.7655219 ], [ -51.614064, -28.7652767 ], [ -51.6141688, -28.7646138 ], [ -51.6136891, -28.7645508 ], [ -51.6129493, -28.7644622 ], [ -51.6100091, -28.7643345 ], [ -51.6102237, -28.7648047 ], [ -51.6090473, -28.7649715 ], [ -51.6091576, -28.765398 ], [ -51.6092031, -28.7656206 ], [ -51.6092736, -28.7659808 ], [ -51.6092514, -28.7663178 ], [ -51.6091788, -28.7666007 ], [ -51.6091308, -28.7666875 ], [ -51.6089723, -28.7669268 ], [ -51.6085622, -28.7673347 ], [ -51.6082441, -28.7675574 ], [ -51.6080982, -28.7676595 ], [ -51.6075225, -28.7681214 ], [ -51.6074151, -28.7682076 ], [ -51.6070487, -28.7686849 ], [ -51.6066329, -28.7693519 ], [ -51.6065326, -28.7695366 ], [ -51.6062849, -28.7699929 ], [ -51.6059832, -28.7706872 ], [ -51.60592, -28.7707864 ], [ -51.6058479, -28.7709327 ], [ -51.6057531, -28.771234 ], [ -51.6057333, -28.7713741 ], [ -51.605739, -28.7715385 ], [ -51.6057685, -28.7716936 ], [ -51.6059016, -28.7720064 ], [ -51.6060105, -28.7721477 ], [ -51.606144, -28.7722814 ], [ -51.6062164, -28.7725424 ], [ -51.6062567, -28.7727869 ], [ -51.6062459, -28.7730643 ], [ -51.6062513, -28.7733746 ], [ -51.6062915, -28.7735792 ], [ -51.6063398, -28.7737931 ], [ -51.6064873, -28.7742069 ], [ -51.6065554, -28.7743698 ], [ -51.6066054, -28.7744467 ], [ -51.6069581, -28.774972500000011 ], [ -51.6071493, -28.775244 ], [ -51.6075108, -28.7757958 ], [ -51.6083246, -28.7754929 ], [ -51.6084353, -28.7757228 ] ] ] } },
{ "type": "Feature", "properties": { "name": "Jardim de São Brás", "code_muni": 4313300.0, "name_muni": "Nova Prata" }, "geometry": { "type": "Polygon", "coordinates": [ [ [ -51.6071493, -28.775244 ], [ -51.6069581, -28.774972500000011 ], [ -51.6066054, -28.7744467 ], [ -51.6065554, -28.7743698 ], [ -51.6064873, -28.7742069 ], [ -51.6063398, -28.7737931 ], [ -51.6062915, -28.7735792 ], [ -51.6062513, -28.7733746 ], [ -51.6062459, -28.7730643 ], [ -51.6062567, -28.7727869 ], [ -51.6062164, -28.7725424 ], [ -51.606144, -28.7722814 ], [ -51.6060105, -28.7721477 ], [ -51.6059016, -28.7720064 ], [ -51.6057685, -28.7716936 ], [ -51.605739, -28.7715385 ], [ -51.6057333, -28.7713741 ], [ -51.6057531, -28.771234 ], [ -51.6058479, -28.7709327 ], [ -51.60592, -28.7707864 ], [ -51.6059832, -28.7706872 ], [ -51.6062849, -28.7699929 ], [ -51.6065326, -28.7695366 ], [ -51.6066329, -28.7693519 ], [ -51.6070487, -28.7686849 ], [ -51.6074151, -28.7682076 ], [ -51.6075225, -28.7681214 ], [ -51.6080982, -28.7676595 ], [ -51.6082441, -28.7675574 ], [ -51.6085622, -28.7673347 ], [ -51.6089723, -28.7669268 ], [ -51.6091308, -28.7666875 ], [ -51.6091788, -28.7666007 ], [ -51.6092514, -28.7663178 ], [ -51.6092736, -28.7659808 ], [ -51.6092031, -28.7656206 ], [ -51.6091576, -28.765398 ], [ -51.6090473, -28.7649715 ], [ -51.6075675, -28.764942300000012 ], [ -51.6061239, -28.76488 ], [ -51.6061381, -28.7642191 ], [ -51.6061404, -28.7634708 ], [ -51.6061413, -28.7631824 ], [ -51.6042101, -28.7631354 ], [ -51.604178, -28.7644615 ], [ -51.6040707, -28.765543 ], [ -51.6042745, -28.7666998 ], [ -51.6042531, -28.7679318 ], [ -51.6039527, -28.7688723 ], [ -51.5954769, -28.7688253 ], [ -51.5954661, -28.7709507 ], [ -51.6022575, -28.7709695 ], [ -51.6013241, -28.7714867 ], [ -51.6006589, -28.772060399999987 ], [ -51.6002941, -28.7733206 ], [ -51.6002727, -28.7742704 ], [ -51.599747, -28.7750415 ], [ -51.597569, -28.7756904 ], [ -51.6002083, -28.7758314 ], [ -51.6006463, -28.7759417 ], [ -51.6007731, -28.7759323 ], [ -51.6009215, -28.775916 ], [ -51.6015601, -28.7758761 ], [ -51.6033019, -28.7758884 ], [ -51.6049138, -28.7758873 ], [ -51.60568, -28.7758973 ], [ -51.6073029, -28.775891 ], [ -51.6075108, -28.7757958 ], [ -51.6071493, -28.775244 ] ] ] } },
{ "type": "Feature", "properties": { "name": "Vila Lenzi", "code_muni": 4313300.0, "name_muni": "Nova Prata" }, "geometry": { "type": "Polygon", "coordinates": [ [ [ -51.6052482, -28.7812691 ], [ -51.6051383, -28.780872 ], [ -51.6049759, -28.780451 ], [ -51.6050671, -28.7801842 ], [ -51.6052938, -28.7797528 ], [ -51.6058141, -28.7790005 ], [ -51.6060582, -28.7786432 ], [ -51.6061896, -28.778488 ], [ -51.6062862, -28.7783893 ], [ -51.6064632, -28.7782764 ], [ -51.6068628, -28.7780907 ], [ -51.6070358, -28.7778638 ], [ -51.6071083, -28.7776934 ], [ -51.607233, -28.7770093 ], [ -51.6073684, -28.7765461 ], [ -51.6075021, -28.7763235 ], [ -51.6076326, -28.7761512 ], [ -51.6076179, -28.7760007 ], [ -51.6075108, -28.7757958 ], [ -51.6073029, -28.775891 ], [ -51.60568, -28.7758973 ], [ -51.6049138, -28.7758873 ], [ -51.6033019, -28.7758884 ], [ -51.6015601, -28.7758761 ], [ -51.6009215, -28.775916 ], [ -51.6007731, -28.7759323 ], [ -51.6006463, -28.7759417 ], [ -51.6002083, -28.7758314 ], [ -51.597569, -28.7756904 ], [ -51.5942967, -28.7766778 ], [ -51.5931702, -28.7766214 ], [ -51.5919685, -28.775869 ], [ -51.5905094, -28.7760571 ], [ -51.5895438, -28.7765837 ], [ -51.5890288, -28.7777216 ], [ -51.5883315, -28.7794425 ], [ -51.5876642, -28.7802821 ], [ -51.5877759, -28.7803113 ], [ -51.5878342, -28.7803247 ], [ -51.5880856, -28.7803624 ], [ -51.5881712, -28.7803696 ], [ -51.5882811, -28.780367699999989 ], [ -51.5883786, -28.7803651 ], [ -51.5884715, -28.7803554 ], [ -51.5886756, -28.7803324 ], [ -51.588876, -28.7803288 ], [ -51.5890838, -28.7803676 ], [ -51.5892072, -28.7804933 ], [ -51.589289, -28.7806955 ], [ -51.5893453, -28.781094 ], [ -51.5893976, -28.7811898 ], [ -51.5894267, -28.7812537 ], [ -51.5894684, -28.781342500000012 ], [ -51.5895284, -28.7814173 ], [ -51.5896024, -28.7814746 ], [ -51.5897443, -28.781553599999988 ], [ -51.5899338, -28.7815734 ], [ -51.5900998, -28.7815808 ], [ -51.590258, -28.7815636 ], [ -51.5903933, -28.7815175 ], [ -51.5905197, -28.7814437 ], [ -51.59060310000001, -28.7813764 ], [ -51.590661, -28.7813152 ], [ -51.590787, -28.7811157 ], [ -51.5909083, -28.7809731 ], [ -51.5910378, -28.7809059 ], [ -51.5912658, -28.7808683 ], [ -51.5915132, -28.7808724 ], [ -51.5916701, -28.7808754 ], [ -51.5918331, -28.7808971 ], [ -51.5919954, -28.7809329 ], [ -51.592155, -28.7809841 ], [ -51.5922415, -28.7810205 ], [ -51.5924943, -28.7811545 ], [ -51.5927719, -28.781297299999984 ], [ -51.5928684, -28.781369 ], [ -51.5930629, -28.781544199999985 ], [ -51.5931997, -28.781648800000013 ], [ -51.5932708, -28.7816958 ], [ -51.5933284, -28.7817205 ], [ -51.593378, -28.7817346 ], [ -51.5934491, -28.7817487 ], [ -51.5935349, -28.7817534 ], [ -51.5936328, -28.7817522 ], [ -51.5941478, -28.7817181 ], [ -51.5942377, -28.7817111 ], [ -51.5943463, -28.7817205 ], [ -51.5944254, -28.781733400000011 ], [ -51.5947661, -28.7818157 ], [ -51.5948814, -28.7818251 ], [ -51.5950866, -28.7818545 ], [ -51.5956029, -28.7819038 ], [ -51.5996423, -28.781652300000015 ], [ -51.6041994, -28.781369 ], [ -51.6052696, -28.781337299999986 ], [ -51.6052482, -28.7812691 ] ] ] } },
{ "type": "Feature", "properties": { "name": "Centro", "code_muni": 4313300.0, "name_muni": "Nova Prata" }, "geometry": { "type": "Polygon", "coordinates": [ [ [ -51.6076179, -28.7760007 ], [ -51.6076326, -28.7761512 ], [ -51.6075021, -28.7763235 ], [ -51.6073684, -28.7765461 ], [ -51.607233, -28.7770093 ], [ -51.6071083, -28.7776934 ], [ -51.6070358, -28.7778638 ], [ -51.6068628, -28.7780907 ], [ -51.6064632, -28.7782764 ], [ -51.6062862, -28.7783893 ], [ -51.6061896, -28.778488 ], [ -51.6060582, -28.7786432 ], [ -51.6058141, -28.7790005 ], [ -51.6052938, -28.7797528 ], [ -51.6050671, -28.7801842 ], [ -51.6049759, -28.780451 ], [ -51.6051383, -28.780872 ], [ -51.6052482, -28.7812691 ], [ -51.6052696, -28.781337299999986 ], [ -51.6041994, -28.781369 ], [ -51.6042028, -28.7813931 ], [ -51.6042678, -28.782637300000022 ], [ -51.6046312, -28.7829453 ], [ -51.6052508, -28.7834342 ], [ -51.6055821, -28.783724599999989 ], [ -51.605224, -28.7837234 ], [ -51.6052589, -28.7860695 ], [ -51.6052482, -28.7862105 ], [ -51.6052133, -28.7869769 ], [ -51.6051918, -28.7878043 ], [ -51.6052139, -28.7888525 ], [ -51.6052052, -28.7891936 ], [ -51.6062218, -28.7891912 ], [ -51.6077238, -28.789198299999988 ], [ -51.6077185, -28.7915912 ], [ -51.6077265, -28.7916589 ], [ -51.6085642, -28.7916659 ], [ -51.609301, -28.7916547 ], [ -51.6101108, -28.7916531 ], [ -51.6101955, -28.7916524 ], [ -51.6114052, -28.7916559 ], [ -51.6119027, -28.7916947 ], [ -51.611892, -28.7914784 ], [ -51.613499, -28.7915265 ], [ -51.6136195, -28.7917278 ], [ -51.6137536, -28.7920522 ], [ -51.613818, -28.7922778 ], [ -51.6137965, -28.7924424 ], [ -51.6137025, -28.792555 ], [ -51.6144776, -28.7926161 ], [ -51.6155183, -28.7927101 ], [ -51.6158831, -28.792917 ], [ -51.6162801, -28.7924657 ], [ -51.6164692, -28.7924515 ], [ -51.6165108, -28.7922612 ], [ -51.6166368, -28.7914761 ], [ -51.6166717, -28.7911446 ], [ -51.6165926, -28.7906921 ], [ -51.6164263, -28.790239600000014 ], [ -51.6161782, -28.7896802 ], [ -51.6159864, -28.7893675 ], [ -51.6155894, -28.7889844 ], [ -51.614888, -28.788584699999987 ], [ -51.6145246, -28.7882545 ], [ -51.61421210000001, -28.787834899999989 ], [ -51.6140485, -28.7874623 ], [ -51.6139694, -28.7870815 ], [ -51.6140345, -28.7865913 ], [ -51.6140954, -28.7860894 ], [ -51.6141397, -28.785979 ], [ -51.6143529, -28.7849411 ], [ -51.61484380000001, -28.783100399999988 ], [ -51.6149805, -28.7827137 ], [ -51.615209900000011, -28.7818274 ], [ -51.6152367, -28.7815406 ], [ -51.6151857, -28.78121860000001 ], [ -51.6150717, -28.7808977 ], [ -51.6149081, -28.780636699999985 ], [ -51.6146788, -28.7803817 ], [ -51.6143261, -28.7800855 ], [ -51.6123332, -28.7787995 ], [ -51.6118746, -28.7784563 ], [ -51.6115983, -28.7781812 ], [ -51.6113743, -28.7779203 ], [ -51.6111919, -28.7775288 ], [ -51.6111343, -28.777235 ], [ -51.6111048, -28.7769881 ], [ -51.6111436, -28.7767119 ], [ -51.6105321, -28.7765144 ], [ -51.6104836, -28.776463400000011 ], [ -51.610221, -28.776398 ], [ -51.6084856, -28.7758079 ], [ -51.6084353, -28.7757228 ], [ -51.6083246, -28.7754929 ], [ -51.6075108, -28.7757958 ], [ -51.6076179, -28.7760007 ] ] ] } },
{ "type": "Feature", "properties": { "name": "Santa Cruz", "code_muni": 4313300.0, "name_muni": "Nova Prata" }, "geometry": { "type": "Polygon", "coordinates": [ [ [ -51.6008627, -28.7877831 ], [ -51.601544, -28.7883755 ], [ -51.6017318, -28.7882862 ], [ -51.6019249, -28.788135799999985 ], [ -51.6021663, -28.7880981 ], [ -51.6023165, -28.7882251 ], [ -51.6023165, -28.7883191 ], [ -51.6025525, -28.7884884 ], [ -51.6026759, -28.7885119 ], [ -51.6028959, -28.7884178 ], [ -51.6037059, -28.7887939 ], [ -51.6040117, -28.7888692 ], [ -51.6052139, -28.7888525 ], [ -51.6051918, -28.7878043 ], [ -51.6052133, -28.7869769 ], [ -51.6052482, -28.7862105 ], [ -51.6052589, -28.7860695 ], [ -51.605224, -28.7837234 ], [ -51.6055821, -28.783724599999989 ], [ -51.6052508, -28.7834342 ], [ -51.6046312, -28.7829453 ], [ -51.6042678, -28.782637300000022 ], [ -51.6042028, -28.7813931 ], [ -51.6041994, -28.781369 ], [ -51.5996423, -28.781652300000015 ], [ -51.5956029, -28.7819038 ], [ -51.5950866, -28.7818545 ], [ -51.5948814, -28.7818251 ], [ -51.5947661, -28.7818157 ], [ -51.5944254, -28.781733400000011 ], [ -51.5943463, -28.7817205 ], [ -51.5942377, -28.7817111 ], [ -51.5941478, -28.7817181 ], [ -51.5936328, -28.7817522 ], [ -51.5935349, -28.7817534 ], [ -51.5934491, -28.7817487 ], [ -51.593378, -28.7817346 ], [ -51.5933284, -28.7817205 ], [ -51.5932708, -28.7816958 ], [ -51.5931997, -28.781648800000013 ], [ -51.5930629, -28.781544199999985 ], [ -51.5928684, -28.781369 ], [ -51.5927719, -28.781297299999984 ], [ -51.5924943, -28.7811545 ], [ -51.5922415, -28.7810205 ], [ -51.592155, -28.7809841 ], [ -51.5919954, -28.7809329 ], [ -51.5918331, -28.7808971 ], [ -51.5916701, -28.7808754 ], [ -51.5915132, -28.7808724 ], [ -51.5912658, -28.7808683 ], [ -51.5910378, -28.7809059 ], [ -51.5909083, -28.7809731 ], [ -51.590787, -28.7811157 ], [ -51.590661, -28.7813152 ], [ -51.59060310000001, -28.7813764 ], [ -51.5905197, -28.7814437 ], [ -51.5903933, -28.7815175 ], [ -51.590258, -28.7815636 ], [ -51.5900998, -28.7815808 ], [ -51.5899338, -28.7815734 ], [ -51.5897443, -28.781553599999988 ], [ -51.5896024, -28.7814746 ], [ -51.5895284, -28.7814173 ], [ -51.5894684, -28.781342500000012 ], [ -51.5894267, -28.7812537 ], [ -51.5893976, -28.7811898 ], [ -51.5893453, -28.781094 ], [ -51.589289, -28.7806955 ], [ -51.5892072, -28.7804933 ], [ -51.5890838, -28.7803676 ], [ -51.588876, -28.7803288 ], [ -51.5886756, -28.7803324 ], [ -51.5884715, -28.7803554 ], [ -51.5883786, -28.7803651 ], [ -51.5882811, -28.780367699999989 ], [ -51.5881712, -28.7803696 ], [ -51.5880856, -28.7803624 ], [ -51.5878342, -28.7803247 ], [ -51.5877759, -28.7803113 ], [ -51.5876642, -28.7802821 ], [ -51.5867543, -28.780947 ], [ -51.5874732, -28.784887 ], [ -51.5943237, -28.7849954 ], [ -51.5945804, -28.7849851 ], [ -51.5948278, -28.784982099999979 ], [ -51.5960723, -28.785691 ], [ -51.5961635, -28.7858649 ], [ -51.5963298, -28.7865279 ], [ -51.5965498, -28.7864338 ], [ -51.5967214, -28.7864667 ], [ -51.5975314, -28.7867347 ], [ -51.5979981, -28.786683 ], [ -51.5984488, -28.7867723 ], [ -51.5987599, -28.7869275 ], [ -51.5990764, -28.786913399999989 ], [ -51.599645, -28.7870826 ], [ -51.6000903, -28.787369399999978 ], [ -51.6002566, -28.7875152 ], [ -51.6004617, -28.7876655 ], [ -51.6005966, -28.7877019 ], [ -51.6008627, -28.7877831 ] ] ] } },
{ "type": "Feature", "properties": { "name": "Sagrada Família", "code_muni": 4313300.0, "name_muni": "Nova Prata" }, "geometry": { "type": "Polygon", "coordinates": [ [ [ -51.5879667, -28.7865326 ], [ -51.588546, -28.7877549 ], [ -51.5890181, -28.7882251 ], [ -51.5896511, -28.7886576 ], [ -51.5908313, -28.7890431 ], [ -51.5923011, -28.7897577 ], [ -51.5932882, -28.790359500000012 ], [ -51.5949726, -28.7917605 ], [ -51.5956915, -28.7925691 ], [ -51.5962601, -28.7935469 ], [ -51.5963674, -28.7942145 ], [ -51.5961743, -28.7946 ], [ -51.5952301, -28.794853799999988 ], [ -51.5945435, -28.7955966 ], [ -51.5943396, -28.796499199999989 ], [ -51.5950263, -28.797477 ], [ -51.5962708, -28.798248 ], [ -51.5982127, -28.7983044 ], [ -51.5992105, -28.7984172 ], [ -51.6005409, -28.7989343 ], [ -51.6013026, -28.7991036 ], [ -51.6025257, -28.7997523 ], [ -51.6028583, -28.8001002 ], [ -51.602869, -28.8006831 ], [ -51.602259, -28.801307 ], [ -51.6034391, -28.801363399999989 ], [ -51.60407630000001, -28.8013951 ], [ -51.6044341, -28.8014152 ], [ -51.6055606, -28.8014531 ], [ -51.607482, -28.8015424 ], [ -51.607561, -28.8015457 ], [ -51.6075827, -28.801446899999988 ], [ -51.6076126, -28.8013916 ], [ -51.607653, -28.8013361 ], [ -51.6076943, -28.799164699999988 ], [ -51.607697, -28.7978414 ], [ -51.6076997, -28.796438099999985 ], [ -51.607689, -28.7953675 ], [ -51.6077198, -28.7953016 ], [ -51.6077312, -28.794506200000011 ], [ -51.607732, -28.7943392 ], [ -51.6077265, -28.7916589 ], [ -51.6077185, -28.7915912 ], [ -51.6077238, -28.789198299999988 ], [ -51.6062218, -28.7891912 ], [ -51.6052052, -28.7891936 ], [ -51.6052139, -28.7888525 ], [ -51.6040117, -28.7888692 ], [ -51.6037059, -28.7887939 ], [ -51.6028959, -28.7884178 ], [ -51.6026759, -28.7885119 ], [ -51.6025525, -28.7884884 ], [ -51.6023165, -28.7883191 ], [ -51.6023165, -28.7882251 ], [ -51.6021663, -28.7880981 ], [ -51.6019249, -28.788135799999985 ], [ -51.6017318, -28.7882862 ], [ -51.601544, -28.7883755 ], [ -51.6008627, -28.7877831 ], [ -51.6005966, -28.7877019 ], [ -51.6004617, -28.7876655 ], [ -51.6002566, -28.7875152 ], [ -51.6000903, -28.787369399999978 ], [ -51.599645, -28.7870826 ], [ -51.5990764, -28.786913399999989 ], [ -51.5987599, -28.7869275 ], [ -51.5984488, -28.7867723 ], [ -51.5979981, -28.786683 ], [ -51.5975314, -28.7867347 ], [ -51.5967214, -28.7864667 ], [ -51.5965498, -28.7864338 ], [ -51.5963298, -28.7865279 ], [ -51.5961635, -28.7858649 ], [ -51.5960723, -28.785691 ], [ -51.5948278, -28.784982099999979 ], [ -51.5945804, -28.7849851 ], [ -51.5943237, -28.7849954 ], [ -51.5874732, -28.784887 ], [ -51.5879667, -28.7865326 ] ] ] } },
{ "type": "Feature", "properties": { "name": "São Cristovão", "code_muni": 4313300.0, "name_muni": "Nova Prata" }, "geometry": { "type": "Polygon", "coordinates": [ [ [ -51.6076126, -28.8013916 ], [ -51.6075827, -28.801446899999988 ], [ -51.607561, -28.8015457 ], [ -51.607482, -28.8015424 ], [ -51.6055606, -28.8014531 ], [ -51.6044341, -28.8014152 ], [ -51.60407630000001, -28.8013951 ], [ -51.6034391, -28.801363399999989 ], [ -51.602259, -28.801307 ], [ -51.6021127, -28.8014775 ], [ -51.6017962, -28.802145 ], [ -51.5935135, -28.8057105 ], [ -51.5924969, -28.8067258 ], [ -51.5922582, -28.8113252 ], [ -51.5932345, -28.814474400000012 ], [ -51.6135442, -28.8146906 ], [ -51.6135871, -28.8117013 ], [ -51.6125408, -28.8116312 ], [ -51.6111428, -28.8116189 ], [ -51.611068, -28.811618099999986 ], [ -51.6110165, -28.8116175 ], [ -51.6093894, -28.8116215 ], [ -51.6086852, -28.8116165 ], [ -51.6077847, -28.8115673 ], [ -51.6002988, -28.8115398 ], [ -51.6005559, -28.810883499999985 ], [ -51.6007476, -28.8103941 ], [ -51.6009225, -28.810016399999988 ], [ -51.6010994, -28.8097524 ], [ -51.6011658, -28.8096695 ], [ -51.6014493, -28.8093442 ], [ -51.6017535, -28.8091083 ], [ -51.6021019, -28.8088564 ], [ -51.6029019, -28.8083587 ], [ -51.603507, -28.8079462 ], [ -51.6038914, -28.8076984 ], [ -51.6052608, -28.80682 ], [ -51.6067201, -28.8058611 ], [ -51.6073073, -28.8054433 ], [ -51.6076189, -28.8051462 ], [ -51.6079194, -28.8048597 ], [ -51.6083026, -28.8044453 ], [ -51.6092894, -28.8030273 ], [ -51.6096193, -28.8023945 ], [ -51.6096903, -28.8022588 ], [ -51.6100413, -28.8015809 ], [ -51.6105046, -28.8016078 ], [ -51.6106088, -28.8016138 ], [ -51.611303, -28.801647 ], [ -51.611451, -28.8016504 ], [ -51.6118518, -28.801673 ], [ -51.6126178, -28.8017037 ], [ -51.6140396, -28.8017673 ], [ -51.6142071, -28.801779 ], [ -51.6152365, -28.8018413 ], [ -51.61549320000001, -28.8018482 ], [ -51.6160524, -28.8018668 ], [ -51.6165101, -28.80188 ], [ -51.6183293, -28.801954 ], [ -51.6188215, -28.8019946 ], [ -51.6192506, -28.8020163 ], [ -51.6196302, -28.8020369 ], [ -51.6202067, -28.8020463 ], [ -51.6205876, -28.8020275 ], [ -51.620925, -28.8019946 ], [ -51.6211014, -28.8019893 ], [ -51.6216497, -28.8020087 ], [ -51.6220137, -28.8020368 ], [ -51.622417, -28.792917 ], [ -51.6172779, -28.7927759 ], [ -51.617294, -28.7926537 ], [ -51.6169265, -28.7924774 ], [ -51.6164692, -28.7924515 ], [ -51.6162801, -28.7924657 ], [ -51.6158831, -28.792917 ], [ -51.6155183, -28.7927101 ], [ -51.6144776, -28.7926161 ], [ -51.6137025, -28.792555 ], [ -51.6137965, -28.7924424 ], [ -51.613818, -28.7922778 ], [ -51.6137536, -28.7920522 ], [ -51.6136195, -28.7917278 ], [ -51.613499, -28.7915265 ], [ -51.611892, -28.7914784 ], [ -51.6119027, -28.7916947 ], [ -51.6114052, -28.7916559 ], [ -51.6101955, -28.7916524 ], [ -51.6101108, -28.7916531 ], [ -51.609301, -28.7916547 ], [ -51.6085642, -28.7916659 ], [ -51.6077265, -28.7916589 ], [ -51.607732, -28.7943392 ], [ -51.6077312, -28.794506200000011 ], [ -51.6077198, -28.7953016 ], [ -51.607689, -28.7953675 ], [ -51.6076997, -28.796438099999985 ], [ -51.607697, -28.7978414 ], [ -51.6076943, -28.799164699999988 ], [ -51.607653, -28.8013361 ], [ -51.6076126, -28.8013916 ] ] ] } },
{ "type": "Feature", "properties": { "name": "Industrial", "code_muni": 4313300.0, "name_muni": "Nova Prata" }, "geometry": { "type": "Polygon", "coordinates": [ [ [ -51.6135871, -28.8117013 ], [ -51.6137749, -28.8074427 ], [ -51.6144615, -28.8075931 ], [ -51.6148531, -28.807983199999985 ], [ -51.6154593, -28.8081289 ], [ -51.6165644, -28.8079644 ], [ -51.6192144, -28.8082746 ], [ -51.6191279, -28.804886199999984 ], [ -51.6216606, -28.8051112 ], [ -51.6220137, -28.8020368 ], [ -51.6216497, -28.8020087 ], [ -51.6211014, -28.8019893 ], [ -51.620925, -28.8019946 ], [ -51.6205876, -28.8020275 ], [ -51.6202067, -28.8020463 ], [ -51.6196302, -28.8020369 ], [ -51.6192506, -28.8020163 ], [ -51.6188215, -28.8019946 ], [ -51.6183293, -28.801954 ], [ -51.6165101, -28.80188 ], [ -51.6160524, -28.8018668 ], [ -51.61549320000001, -28.8018482 ], [ -51.6152365, -28.8018413 ], [ -51.6142071, -28.801779 ], [ -51.6140396, -28.8017673 ], [ -51.6126178, -28.8017037 ], [ -51.6118518, -28.801673 ], [ -51.611451, -28.8016504 ], [ -51.611303, -28.801647 ], [ -51.6106088, -28.8016138 ], [ -51.6105046, -28.8016078 ], [ -51.6100413, -28.8015809 ], [ -51.6096903, -28.8022588 ], [ -51.6096193, -28.8023945 ], [ -51.6092894, -28.8030273 ], [ -51.6083026, -28.8044453 ], [ -51.6079194, -28.8048597 ], [ -51.6076189, -28.8051462 ], [ -51.6073073, -28.8054433 ], [ -51.6067201, -28.8058611 ], [ -51.6052608, -28.80682 ], [ -51.6038914, -28.8076984 ], [ -51.603507, -28.8079462 ], [ -51.6029019, -28.8083587 ], [ -51.6021019, -28.8088564 ], [ -51.6017535, -28.8091083 ], [ -51.6014493, -28.8093442 ], [ -51.6011658, -28.8096695 ], [ -51.6010994, -28.8097524 ], [ -51.6009225, -28.810016399999988 ], [ -51.6007476, -28.8103941 ], [ -51.6005559, -28.810883499999985 ], [ -51.6002988, -28.8115398 ], [ -51.6077847, -28.8115673 ], [ -51.6086852, -28.8116165 ], [ -51.6093894, -28.8116215 ], [ -51.6110165, -28.8116175 ], [ -51.611068, -28.811618099999986 ], [ -51.6111428, -28.8116189 ], [ -51.6125408, -28.8116312 ], [ -51.6135871, -28.8117013 ] ] ] } }
]
}
