{
"type": "FeatureCollection",
"name": "bairros_mato_leitao",
"crs": { "type": "name", "properties": { "name": "urn:ogc:def:crs:OGC:1.3:CRS84" } },
"features": [
{ "type": "Feature", "properties": { "name": "Travessa", "code_muni": 4312153.0, "name_muni": "Mato Leitão" }, "geometry": { "type": "Polygon", "coordinates": [ [ [ -52.1534956, -29.559316200000012 ], [ -52.1489228, -29.5638099 ], [ -52.148922861380299, -29.563809950911924 ], [ -52.153496318072584, -29.559316130971176 ], [ -52.1534956, -29.559316200000012 ] ] ] } },
{ "type": "Feature", "properties": { "name": "Sampaio", "code_muni": 4312153.0, "name_muni": "Mato Leitão" }, "geometry": { "type": "MultiPolygon", "coordinates": [ [ [ [ -52.146858795453035, -29.48141641073029 ], [ -52.146845882, -29.481391566999882 ], [ -52.14682497727209, -29.481395121443622 ], [ -52.146858795453035, -29.48141641073029 ] ] ], [ [ [ -52.1471206, -29.4823839 ], [ -52.147021, -29.4828669 ], [ -52.1469208, -29.483078 ], [ -52.1469439, -29.4832607 ], [ -52.1470685, -29.4833649 ], [ -52.1478015, -29.4834682 ], [ -52.1480012, -29.4834283 ], [ -52.1481521, -29.4831423 ], [ -52.148233908076989, -29.482817263116306 ], [ -52.14789731, -29.483414325999902 ], [ -52.147039492917607, -29.481764046654177 ], [ -52.1471206, -29.4823839 ] ] ], [ [ [ -52.149642089396146, -29.480395570954819 ], [ -52.149592923999897, -29.480406542 ], [ -52.149565251552893, -29.48045563063658 ], [ -52.149642089396146, -29.480395570954819 ] ] ], [ [ [ -52.1513036, -29.4800907 ], [ -52.151616672655067, -29.479954934392879 ], [ -52.150840047306275, -29.480128245532864 ], [ -52.1513036, -29.4800907 ] ] ], [ [ [ -52.1536126, -29.4795159 ], [ -52.153735518066213, -29.479482068525595 ], [ -52.153590268156151, -29.479514485372704 ], [ -52.1536126, -29.4795159 ] ] ], [ [ [ -52.1541498, -29.4792785 ], [ -52.154299660145256, -29.478985622182254 ], [ -52.154010952157719, -29.479386328696116 ], [ -52.1541498, -29.4792785 ] ] ] ] } }
]
}
