{
"type": "FeatureCollection",
"name": "bairros_veranopolis",
"crs": { "type": "name", "properties": { "name": "urn:ogc:def:crs:OGC:1.3:CRS84" } },
"features": [
{ "type": "Feature", "properties": { "name": "Centro", "code_muni": 4322806.0, "name_muni": "Veranópolis" }, "geometry": { "type": "Polygon", "coordinates": [ [ [ -51.5416896, -28.9314804 ], [ -51.5416652, -28.9315688 ], [ -51.5416101, -28.9317565 ], [ -51.5416012, -28.9318379 ], [ -51.5415958, -28.931887499999984 ], [ -51.5415946, -28.9321195 ], [ -51.5415974, -28.9321672 ], [ -51.5416027, -28.9322581 ], [ -51.5416295, -28.9324546 ], [ -51.5418433, -28.9332446 ], [ -51.5418762, -28.9333525 ], [ -51.5420508, -28.933925 ], [ -51.5420973, -28.934077500000011 ], [ -51.542294, -28.934838500000012 ], [ -51.5424174, -28.9351719 ], [ -51.5427178, -28.9357687 ], [ -51.5428801, -28.9360669 ], [ -51.5430973, -28.9364858 ], [ -51.5432288, -28.9367229 ], [ -51.5434062, -28.9370607 ], [ -51.5434169, -28.9370812 ], [ -51.5435383, -28.9373128 ], [ -51.5438041, -28.9378197 ], [ -51.5439516, -28.9380145 ], [ -51.5441354, -28.9381917 ], [ -51.5444532, -28.9384218 ], [ -51.5449691, -28.9387758 ], [ -51.5450002, -28.9387971 ], [ -51.54519890000001, -28.9389335 ], [ -51.5454644, -28.939106 ], [ -51.5456268, -28.9392117 ], [ -51.5467116, -28.9399569 ], [ -51.5468283, -28.9400361 ], [ -51.5472454, -28.9403248 ], [ -51.547924, -28.940762 ], [ -51.5482344, -28.9409634 ], [ -51.5485892, -28.9412268 ], [ -51.5488172, -28.9413829 ], [ -51.5490317, -28.9415366 ], [ -51.5492959, -28.9417056 ], [ -51.5499075, -28.942123400000014 ], [ -51.5502629, -28.9423628 ], [ -51.5504748, -28.9424755 ], [ -51.5507819, -28.9427478 ], [ -51.5509991, -28.9429977 ], [ -51.5511474, -28.9431724 ], [ -51.5512787, -28.943357 ], [ -51.551311, -28.9434025 ], [ -51.5514602, -28.9436613 ], [ -51.5516918, -28.9442065 ], [ -51.5520573, -28.9450925 ], [ -51.5523546, -28.944334 ], [ -51.5524641, -28.9441011 ], [ -51.5525807, -28.9437736 ], [ -51.5525994, -28.9435925 ], [ -51.5525878, -28.9434169 ], [ -51.5525637, -28.9433122 ], [ -51.5525174, -28.9431792 ], [ -51.5522762, -28.9428002 ], [ -51.5519858, -28.9424553 ], [ -51.5513847, -28.9418151 ], [ -51.5512893, -28.9416372 ], [ -51.551233, -28.9414542 ], [ -51.5512081, -28.9413107 ], [ -51.5512408, -28.9410404 ], [ -51.5512714, -28.940834800000012 ], [ -51.5514015, -28.9404616 ], [ -51.551443, -28.9403172 ], [ -51.5514589, -28.9400805 ], [ -51.5515151, -28.9400836 ], [ -51.5523432, -28.9400981 ], [ -51.5532131, -28.940112899999985 ], [ -51.5533536, -28.9401337 ], [ -51.5535361, -28.9401711 ], [ -51.5539123, -28.9401875 ], [ -51.5548659, -28.9402157 ], [ -51.5564397, -28.9401952 ], [ -51.5572943, -28.9401912 ], [ -51.5575838, -28.940191200000012 ], [ -51.5582469, -28.9401945 ], [ -51.5582773, -28.9393101 ], [ -51.5577076, -28.9392115 ], [ -51.5576715, -28.938669 ], [ -51.5574695, -28.9385855 ], [ -51.5573894, -28.9385471 ], [ -51.5567254, -28.9385353 ], [ -51.5533798, -28.9384759 ], [ -51.5532517, -28.9384736 ], [ -51.5532515, -28.9374118 ], [ -51.5532792, -28.9363734 ], [ -51.5532862, -28.9362727 ], [ -51.5532698, -28.9357031 ], [ -51.5533424, -28.9349411 ], [ -51.5533459, -28.9347781 ], [ -51.5533779, -28.9340927 ], [ -51.553383, -28.9340074 ], [ -51.553349, -28.93295190000001 ], [ -51.5533484, -28.9329239 ], [ -51.5497734, -28.932823299999985 ], [ -51.5485624, -28.9327892 ], [ -51.5486186, -28.93163 ], [ -51.5485368, -28.9316285 ], [ -51.5474524, -28.9315917 ], [ -51.5473427, -28.9315936 ], [ -51.5466753, -28.9315841 ], [ -51.5460323, -28.931575 ], [ -51.5454852, -28.9315693 ], [ -51.5453101, -28.9315679 ], [ -51.5448861, -28.9315643 ], [ -51.5432013, -28.931535 ], [ -51.5425434, -28.9315195 ], [ -51.5420848, -28.9315087 ], [ -51.5418136, -28.9314744 ], [ -51.5416896, -28.9314804 ] ] ] } },
{ "type": "Feature", "properties": { "name": "Santa Lúcia", "code_muni": 4322806.0, "name_muni": "Veranópolis" }, "geometry": { "type": "Polygon", "coordinates": [ [ [ -51.5582469, -28.9401945 ], [ -51.5575838, -28.940191200000012 ], [ -51.5572943, -28.9401912 ], [ -51.5564397, -28.9401952 ], [ -51.5548659, -28.9402157 ], [ -51.5539123, -28.9401875 ], [ -51.5535361, -28.9401711 ], [ -51.5533536, -28.9401337 ], [ -51.5532131, -28.940112899999985 ], [ -51.5523432, -28.9400981 ], [ -51.5515151, -28.9400836 ], [ -51.5514589, -28.9400805 ], [ -51.551443, -28.9403172 ], [ -51.5514015, -28.9404616 ], [ -51.5512714, -28.940834800000012 ], [ -51.5512408, -28.9410404 ], [ -51.5512081, -28.9413107 ], [ -51.551233, -28.9414542 ], [ -51.5512893, -28.9416372 ], [ -51.5513847, -28.9418151 ], [ -51.5519858, -28.9424553 ], [ -51.5522762, -28.9428002 ], [ -51.5525174, -28.9431792 ], [ -51.5525637, -28.9433122 ], [ -51.5525878, -28.9434169 ], [ -51.5525994, -28.9435925 ], [ -51.5525807, -28.9437736 ], [ -51.5524641, -28.9441011 ], [ -51.5523546, -28.944334 ], [ -51.5520573, -28.9450925 ], [ -51.55223920000001, -28.9455502 ], [ -51.5579673, -28.9457357 ], [ -51.5582371, -28.9404064 ], [ -51.5582469, -28.9401945 ] ] ] } },
{ "type": "Feature", "properties": { "name": "Valverde", "code_muni": 4322806.0, "name_muni": "Veranópolis" }, "geometry": { "type": "Polygon", "coordinates": [ [ [ -51.5383375, -28.9206575 ], [ -51.5380307, -28.9207098 ], [ -51.537539, -28.920793 ], [ -51.537407, -28.9208115 ], [ -51.5372843, -28.9208251 ], [ -51.5366772, -28.920852 ], [ -51.5334556, -28.920855499999988 ], [ -51.5302845, -28.9208052 ], [ -51.5291482, -28.920772 ], [ -51.5290919, -28.920754699999989 ], [ -51.529052, -28.9207251 ], [ -51.5290248, -28.920691600000012 ], [ -51.529011, -28.9206628 ], [ -51.5290137, -28.9206089 ], [ -51.5287837, -28.9207579 ], [ -51.5287093, -28.9207996 ], [ -51.5285752, -28.920897 ], [ -51.5284693, -28.9209927 ], [ -51.5283861, -28.9210831 ], [ -51.5283412, -28.9211659 ], [ -51.528305, -28.921251 ], [ -51.5282761, -28.9214094 ], [ -51.5282493, -28.9215239 ], [ -51.5282211, -28.921589 ], [ -51.5281869, -28.9216595 ], [ -51.5281367, -28.921734 ], [ -51.5280508, -28.921849 ], [ -51.5278637, -28.9220292 ], [ -51.5276552, -28.9222 ], [ -51.5274891, -28.9222995 ], [ -51.5271825, -28.9224911 ], [ -51.5266782, -28.9227312 ], [ -51.5261156, -28.9230164 ], [ -51.5258876, -28.9231737 ], [ -51.5258293, -28.9232465 ], [ -51.5257699, -28.9233523 ], [ -51.5256865, -28.9238616 ], [ -51.5256288, -28.9242683 ], [ -51.5256402, -28.9244021 ], [ -51.5256784, -28.9245964 ], [ -51.5257367, -28.9248024 ], [ -51.5258769, -28.9251369 ], [ -51.5261364, -28.925395099999989 ], [ -51.5262511, -28.9254891 ], [ -51.5267258, -28.9258025 ], [ -51.5270437, -28.9260607 ], [ -51.5274353, -28.9264457 ], [ -51.5275305, -28.9265654 ], [ -51.5276485, -28.9267309 ], [ -51.5277772, -28.9269522 ], [ -51.527916, -28.9271981 ], [ -51.5280569, -28.9273965 ], [ -51.5281266, -28.9274804 ], [ -51.5281722, -28.9275256 ], [ -51.5289206, -28.9278665 ], [ -51.5294114, -28.9280167 ], [ -51.5297465, -28.9280633 ], [ -51.5295911, -28.9283173 ], [ -51.5269733, -28.9282046 ], [ -51.5268874, -28.9344582 ], [ -51.542294, -28.934838500000012 ], [ -51.5420973, -28.934077500000011 ], [ -51.5420508, -28.933925 ], [ -51.5418762, -28.9333525 ], [ -51.5418433, -28.9332446 ], [ -51.5416295, -28.9324546 ], [ -51.5416027, -28.9322581 ], [ -51.5415974, -28.9321672 ], [ -51.5415946, -28.9321195 ], [ -51.5415958, -28.931887499999984 ], [ -51.5416012, -28.9318379 ], [ -51.5416101, -28.9317565 ], [ -51.5416652, -28.9315688 ], [ -51.5416896, -28.9314804 ], [ -51.5417341, -28.9313736 ], [ -51.5418486, -28.9311598 ], [ -51.5418932, -28.9310855 ], [ -51.5421248, -28.9307 ], [ -51.5422216, -28.9305622 ], [ -51.5423601, -28.9303537 ], [ -51.5425525, -28.9300387 ], [ -51.5426458, -28.929855899999986 ], [ -51.5426969, -28.9297391 ], [ -51.5427505, -28.9295975 ], [ -51.5427781, -28.9294993 ], [ -51.5427944, -28.9294108 ], [ -51.5428107, -28.9292591 ], [ -51.5428168, -28.9290678 ], [ -51.5428071, -28.928919499999985 ], [ -51.5427953, -28.9288435 ], [ -51.5427673, -28.9286937 ], [ -51.5427306, -28.9285839 ], [ -51.5426652, -28.9284145 ], [ -51.542541, -28.928181099999989 ], [ -51.542247, -28.9277019 ], [ -51.5421281, -28.927535 ], [ -51.5419376, -28.9272436 ], [ -51.5418004, -28.9270337 ], [ -51.5417691, -28.9269899 ], [ -51.5415095, -28.9266793 ], [ -51.5414525, -28.9266186 ], [ -51.5413805, -28.9265286 ], [ -51.5413559, -28.9265031 ], [ -51.5412192, -28.926361 ], [ -51.5411148, -28.926255700000013 ], [ -51.5409981, -28.9261433 ], [ -51.5408163, -28.9259715 ], [ -51.5405517, -28.9257603 ], [ -51.5402298, -28.9254985 ], [ -51.5399929, -28.9253289 ], [ -51.5398362, -28.9252168 ], [ -51.5397594, -28.9251687 ], [ -51.5392198, -28.9247776 ], [ -51.5391504, -28.9247201 ], [ -51.5389587, -28.9245646 ], [ -51.53885240000001, -28.9244784 ], [ -51.5386395, -28.9242665 ], [ -51.5384949, -28.9240898 ], [ -51.5383788, -28.9239137 ], [ -51.5383015, -28.9237681 ], [ -51.5382361, -28.9236335 ], [ -51.5381971, -28.9234701 ], [ -51.5381573, -28.9232976 ], [ -51.5381372, -28.9231398 ], [ -51.5381294, -28.9230067 ], [ -51.5381312, -28.9227934 ], [ -51.53813550000001, -28.9227061 ], [ -51.5381565, -28.9225898 ], [ -51.5381958, -28.9224183 ], [ -51.5382201, -28.9223122 ], [ -51.5383161, -28.9219084 ], [ -51.5383788, -28.9216047 ], [ -51.5384714, -28.9210684 ], [ -51.53856, -28.9206198 ], [ -51.5383375, -28.9206575 ] ] ] } },
{ "type": "Feature", "properties": { "name": "Renovação", "code_muni": 4322806.0, "name_muni": "Veranópolis" }, "geometry": { "type": "Polygon", "coordinates": [ [ [ -51.5437532, -28.9426081 ], [ -51.5504533, -28.942748899999987 ], [ -51.5504748, -28.9424755 ], [ -51.5502629, -28.9423628 ], [ -51.5499075, -28.942123400000014 ], [ -51.5492959, -28.9417056 ], [ -51.5490317, -28.9415366 ], [ -51.5488172, -28.9413829 ], [ -51.5485892, -28.9412268 ], [ -51.5482344, -28.9409634 ], [ -51.547924, -28.940762 ], [ -51.5472454, -28.9403248 ], [ -51.5468283, -28.9400361 ], [ -51.5467116, -28.9399569 ], [ -51.5456268, -28.9392117 ], [ -51.5454644, -28.939106 ], [ -51.54519890000001, -28.9389335 ], [ -51.5450002, -28.9387971 ], [ -51.5449691, -28.9387758 ], [ -51.5444532, -28.9384218 ], [ -51.5441354, -28.9381917 ], [ -51.5439516, -28.9380145 ], [ -51.5438041, -28.9378197 ], [ -51.5435383, -28.9373128 ], [ -51.5434169, -28.9370812 ], [ -51.5434062, -28.9370607 ], [ -51.5432288, -28.9367229 ], [ -51.5430973, -28.9364858 ], [ -51.5428801, -28.9360669 ], [ -51.5427178, -28.9357687 ], [ -51.5424174, -28.9351719 ], [ -51.542294, -28.934838500000012 ], [ -51.5268874, -28.9344582 ], [ -51.5267801, -28.9420823 ], [ -51.5356851, -28.9425893 ], [ -51.5387488, -28.9427654 ], [ -51.538952, -28.9427771 ], [ -51.5437532, -28.9426081 ] ] ] } },
{ "type": "Feature", "properties": { "name": "Medianeira", "code_muni": 4322806.0, "name_muni": "Veranópolis" }, "geometry": { "type": "Polygon", "coordinates": [ [ [ -51.5387488, -28.9427654 ], [ -51.5356851, -28.9425893 ], [ -51.534977, -28.9449553 ], [ -51.5351214, -28.9520898 ], [ -51.5463281, -28.9522406 ], [ -51.5465319, -28.9519965 ], [ -51.5526259, -28.9521186 ], [ -51.5530569, -28.9514861 ], [ -51.553676, -28.950705 ], [ -51.5535466, -28.9504804 ], [ -51.5533267, -28.949933 ], [ -51.5532281, -28.9496737 ], [ -51.5534008, -28.9496534 ], [ -51.5537445, -28.9496514 ], [ -51.5541654, -28.9496549 ], [ -51.555878, -28.9497074 ], [ -51.5560951, -28.9496789 ], [ -51.556893, -28.9504051 ], [ -51.5577618, -28.949379 ], [ -51.5579673, -28.9457357 ], [ -51.55223920000001, -28.9455502 ], [ -51.5520573, -28.9450925 ], [ -51.5516918, -28.9442065 ], [ -51.5514602, -28.9436613 ], [ -51.551311, -28.9434025 ], [ -51.5512787, -28.943357 ], [ -51.5511474, -28.9431724 ], [ -51.5509991, -28.9429977 ], [ -51.5507819, -28.9427478 ], [ -51.5504748, -28.9424755 ], [ -51.5504533, -28.942748899999987 ], [ -51.5437532, -28.9426081 ], [ -51.538952, -28.9427771 ], [ -51.5387488, -28.9427654 ] ] ] } },
{ "type": "Feature", "properties": { "name": "Sagrado Coração de Jesus", "code_muni": 4322806.0, "name_muni": "Veranópolis" }, "geometry": { "type": "Polygon", "coordinates": [ [ [ -51.5565017, -28.9546158 ], [ -51.5563725, -28.954202 ], [ -51.5562521, -28.9541235 ], [ -51.5555782, -28.9537204 ], [ -51.5547519, -28.9533559 ], [ -51.5545254, -28.9532135 ], [ -51.5543413, -28.9530463 ], [ -51.5538187, -28.9521479 ], [ -51.5536041, -28.9519461 ], [ -51.5534811, -28.9518427 ], [ -51.5530569, -28.9514861 ], [ -51.5526259, -28.9521186 ], [ -51.5465319, -28.9519965 ], [ -51.5463281, -28.9522406 ], [ -51.5351214, -28.9520898 ], [ -51.5351701, -28.9544937 ], [ -51.5501046, -28.9546064 ], [ -51.5500617, -28.9606331 ], [ -51.5564561, -28.9607458 ], [ -51.5565017, -28.9546158 ] ] ] } },
{ "type": "Feature", "properties": { "name": "Vila Azul", "code_muni": 4322806.0, "name_muni": "Veranópolis" }, "geometry": { "type": "Polygon", "coordinates": [ [ [ -51.5560951, -28.9496789 ], [ -51.555878, -28.9497074 ], [ -51.5541654, -28.9496549 ], [ -51.5537445, -28.9496514 ], [ -51.5534008, -28.9496534 ], [ -51.5532281, -28.9496737 ], [ -51.5533267, -28.949933 ], [ -51.5535466, -28.9504804 ], [ -51.553676, -28.950705 ], [ -51.5530569, -28.9514861 ], [ -51.5534811, -28.9518427 ], [ -51.5536041, -28.9519461 ], [ -51.5538187, -28.9521479 ], [ -51.5543413, -28.9530463 ], [ -51.5545254, -28.9532135 ], [ -51.5547519, -28.9533559 ], [ -51.5555782, -28.9537204 ], [ -51.5562521, -28.9541235 ], [ -51.5563725, -28.954202 ], [ -51.5565017, -28.9546158 ], [ -51.5564561, -28.9607458 ], [ -51.565876, -28.960896 ], [ -51.5659334, -28.9569627 ], [ -51.5622778, -28.9563172 ], [ -51.5618487, -28.9559499 ], [ -51.5614718, -28.9555615 ], [ -51.5612667, -28.9552447 ], [ -51.5609096, -28.954338 ], [ -51.5607819, -28.9540839 ], [ -51.5605308, -28.953760399999986 ], [ -51.5603619, -28.9535966 ], [ -51.5598351, -28.9530854 ], [ -51.5590746, -28.9523819 ], [ -51.5589369, -28.9522692 ], [ -51.5588627, -28.9522014 ], [ -51.5583001, -28.9516878 ], [ -51.5581929, -28.9515899 ], [ -51.5581559, -28.9515562 ], [ -51.5578815, -28.9513057 ], [ -51.5575396, -28.9509936 ], [ -51.556893, -28.9504051 ], [ -51.5560951, -28.9496789 ] ] ] } },
{ "type": "Feature", "properties": { "name": "Distrito Industrial", "code_muni": 4322806.0, "name_muni": "Veranópolis" }, "geometry": { "type": "Polygon", "coordinates": [ [ [ -51.5581929, -28.9515899 ], [ -51.5583001, -28.9516878 ], [ -51.5588627, -28.9522014 ], [ -51.5589369, -28.9522692 ], [ -51.5590746, -28.9523819 ], [ -51.5598351, -28.9530854 ], [ -51.5603619, -28.9535966 ], [ -51.5605308, -28.953760399999986 ], [ -51.5607819, -28.9540839 ], [ -51.5609096, -28.954338 ], [ -51.5612667, -28.9552447 ], [ -51.5614718, -28.9555615 ], [ -51.5618487, -28.9559499 ], [ -51.5622778, -28.9563172 ], [ -51.5659334, -28.9569627 ], [ -51.5658868, -28.9515271 ], [ -51.5581929, -28.9515899 ] ] ] } },
{ "type": "Feature", "properties": { "name": "Por do Sol", "code_muni": 4322806.0, "name_muni": "Veranópolis" }, "geometry": { "type": "Polygon", "coordinates": [ [ [ -51.5575396, -28.9509936 ], [ -51.5578815, -28.9513057 ], [ -51.5581559, -28.9515562 ], [ -51.5581929, -28.9515899 ], [ -51.5658868, -28.9515271 ], [ -51.5659189, -28.9406176 ], [ -51.5654039, -28.9406458 ], [ -51.5647602, -28.941415700000015 ], [ -51.563977, -28.9416035 ], [ -51.5631616, -28.9413875 ], [ -51.562475, -28.9410495 ], [ -51.5616703, -28.9404956 ], [ -51.5582371, -28.9404064 ], [ -51.5579673, -28.9457357 ], [ -51.5577618, -28.949379 ], [ -51.556893, -28.9504051 ], [ -51.5575396, -28.9509936 ] ] ] } },
{ "type": "Feature", "properties": { "name": "Santo Antônio", "code_muni": 4322806.0, "name_muni": "Veranópolis" }, "geometry": { "type": "Polygon", "coordinates": [ [ [ -51.5625348, -28.9369081 ], [ -51.5624898, -28.9361664 ], [ -51.5624053, -28.9351312 ], [ -51.5626958, -28.9350703 ], [ -51.5626054, -28.9341678 ], [ -51.557802, -28.9340587 ], [ -51.5559938, -28.9340183 ], [ -51.5551698, -28.9340269 ], [ -51.5548273, -28.9340271 ], [ -51.5547018, -28.934026899999985 ], [ -51.5538476, -28.9340116 ], [ -51.5534715, -28.9340048 ], [ -51.553383, -28.9340074 ], [ -51.5533779, -28.9340927 ], [ -51.5533459, -28.9347781 ], [ -51.5533424, -28.9349411 ], [ -51.5532698, -28.9357031 ], [ -51.5532862, -28.9362727 ], [ -51.5532792, -28.9363734 ], [ -51.5532515, -28.9374118 ], [ -51.5532517, -28.9384736 ], [ -51.5533798, -28.9384759 ], [ -51.5567254, -28.9385353 ], [ -51.5573894, -28.9385471 ], [ -51.5574695, -28.9385855 ], [ -51.5576715, -28.938669 ], [ -51.5577076, -28.9392115 ], [ -51.5582773, -28.9393101 ], [ -51.5582469, -28.9401945 ], [ -51.5582371, -28.9404064 ], [ -51.5616703, -28.9404956 ], [ -51.562475, -28.9410495 ], [ -51.5631616, -28.9413875 ], [ -51.563977, -28.9416035 ], [ -51.5647602, -28.941415700000015 ], [ -51.5654039, -28.9406458 ], [ -51.5659189, -28.9406176 ], [ -51.5659783, -28.9364463 ], [ -51.5625348, -28.9369081 ] ] ] } },
{ "type": "Feature", "properties": { "name": "Santa Rita", "code_muni": 4322806.0, "name_muni": "Veranópolis" }, "geometry": { "type": "Polygon", "coordinates": [ [ [ -51.5659783, -28.9364463 ], [ -51.5659189, -28.9406176 ], [ -51.5667266, -28.9405591 ], [ -51.5691269, -28.9408054 ], [ -51.5698886, -28.9401576 ], [ -51.5706182, -28.9404299 ], [ -51.5713048, -28.9402421 ], [ -51.5717125, -28.9403078 ], [ -51.5722919, -28.9407773 ], [ -51.5731609, -28.9409369 ], [ -51.5735579, -28.9413218 ], [ -51.5741372, -28.9415378 ], [ -51.5748239, -28.9415753 ], [ -51.5761221, -28.9420823 ], [ -51.5763903, -28.941979 ], [ -51.5765405, -28.940674 ], [ -51.5766907, -28.9402984 ], [ -51.5768194, -28.9402327 ], [ -51.5768624, -28.9397445 ], [ -51.5764055, -28.9396737 ], [ -51.5759397, -28.9397726 ], [ -51.574222, -28.9349508 ], [ -51.5659783, -28.9364463 ] ] ] } },
{ "type": "Feature", "properties": { "name": "Femaçã", "code_muni": 4322806.0, "name_muni": "Veranópolis" }, "geometry": { "type": "Polygon", "coordinates": [ [ [ -51.5534844, -28.9297047 ], [ -51.5534614, -28.9299171 ], [ -51.5534414, -28.9306274 ], [ -51.553432, -28.931197699999984 ], [ -51.5534145, -28.9317077 ], [ -51.5534099, -28.9317796 ], [ -51.5533481, -28.9328638 ], [ -51.5533484, -28.9329239 ], [ -51.553349, -28.93295190000001 ], [ -51.553383, -28.9340074 ], [ -51.5534715, -28.9340048 ], [ -51.5538476, -28.9340116 ], [ -51.5547018, -28.934026899999985 ], [ -51.5548273, -28.9340271 ], [ -51.5551698, -28.9340269 ], [ -51.5559938, -28.9340183 ], [ -51.557802, -28.9340587 ], [ -51.5626054, -28.9341678 ], [ -51.5626958, -28.9350703 ], [ -51.5624053, -28.9351312 ], [ -51.5624898, -28.9361664 ], [ -51.5625348, -28.9369081 ], [ -51.5659783, -28.9364463 ], [ -51.574222, -28.9349508 ], [ -51.5741679, -28.933626 ], [ -51.569196, -28.9345066 ], [ -51.5693092, -28.9323925 ], [ -51.5698242, -28.9325897 ], [ -51.5703499, -28.9325991 ], [ -51.5716696, -28.9315005 ], [ -51.5725815, -28.9311343 ], [ -51.5725842, -28.9294699 ], [ -51.5707173, -28.9294529 ], [ -51.5705944, -28.9294518 ], [ -51.5705538, -28.9290474 ], [ -51.569835, -28.9289089 ], [ -51.5691483, -28.9288995 ], [ -51.5681505, -28.9284487 ], [ -51.5677214, -28.9279698 ], [ -51.5676141, -28.927444 ], [ -51.5682364, -28.9264298 ], [ -51.566788, -28.9261387 ], [ -51.5667987, -28.9251903 ], [ -51.5653396, -28.9251434 ], [ -51.5653074, -28.925857 ], [ -51.5639877, -28.9257631 ], [ -51.5641969, -28.92229570000001 ], [ -51.5638912, -28.9224131 ], [ -51.5637034, -28.9225187 ], [ -51.563478, -28.9226686 ], [ -51.5631107, -28.9229178 ], [ -51.5629712, -28.9230704 ], [ -51.5627646, -28.9233451 ], [ -51.562515, -28.9234975 ], [ -51.5623597, -28.9235883 ], [ -51.5618311, -28.9237896 ], [ -51.5612353, -28.9240095 ], [ -51.5609558, -28.924155100000011 ], [ -51.5607687, -28.9243288 ], [ -51.5603928, -28.9246452 ], [ -51.5602752, -28.9247244 ], [ -51.5601724, -28.9247645 ], [ -51.5600251, -28.92477520000001 ], [ -51.5599001, -28.9247431 ], [ -51.5592684, -28.9243968 ], [ -51.5589337, -28.9242409 ], [ -51.5588285, -28.9241844 ], [ -51.5586904, -28.9240459 ], [ -51.558567, -28.923905 ], [ -51.5584128, -28.9238005 ], [ -51.5581968, -28.9237007 ], [ -51.5579945, -28.9236268 ], [ -51.5577669, -28.9235448 ], [ -51.5573838, -28.9234464 ], [ -51.5572332, -28.9233571 ], [ -51.5570582, -28.9232362 ], [ -51.5569021, -28.9231563 ], [ -51.5567217, -28.923119700000012 ], [ -51.556555, -28.9231224 ], [ -51.5564278, -28.9231493 ], [ -51.5563261, -28.9231903 ], [ -51.5562214, -28.9232437 ], [ -51.5560874, -28.9233416 ], [ -51.5559846, -28.9234656 ], [ -51.5559127, -28.9236015 ], [ -51.5558131, -28.9238456 ], [ -51.5556435, -28.9242278 ], [ -51.5555353, -28.924426 ], [ -51.5554433, -28.9245368 ], [ -51.555295, -28.9246948 ], [ -51.555026, -28.9249286 ], [ -51.554686, -28.925162 ], [ -51.5544348, -28.9252999 ], [ -51.5543558, -28.9253549 ], [ -51.5542943, -28.9254217 ], [ -51.5541969, -28.925611 ], [ -51.554037, -28.926333 ], [ -51.5539592, -28.9265597 ], [ -51.5538972, -28.9267052 ], [ -51.5536257, -28.927170400000012 ], [ -51.552948, -28.9283738 ], [ -51.5528823, -28.92844 ], [ -51.5536248, -28.9286918 ], [ -51.5535877, -28.9295502 ], [ -51.5534844, -28.9297047 ] ] ] } },
{ "type": "Feature", "properties": { "name": "Palugana", "code_muni": 4322806.0, "name_muni": "Veranópolis" }, "geometry": { "type": "Polygon", "coordinates": [ [ [ -51.5533481, -28.9328638 ], [ -51.5534099, -28.9317796 ], [ -51.5534145, -28.9317077 ], [ -51.553432, -28.931197699999984 ], [ -51.5534414, -28.9306274 ], [ -51.5534614, -28.9299171 ], [ -51.5534844, -28.9297047 ], [ -51.5535877, -28.9295502 ], [ -51.5536248, -28.9286918 ], [ -51.5528823, -28.92844 ], [ -51.5528425, -28.9284708 ], [ -51.5527735, -28.9285089 ], [ -51.5526522, -28.928530899999988 ], [ -51.5520615, -28.9285371 ], [ -51.5516661, -28.928521399999983 ], [ -51.549985, -28.9284982 ], [ -51.5498577, -28.9284967 ], [ -51.5487677, -28.9284637 ], [ -51.5486404, -28.9284599 ], [ -51.5481907, -28.9284514 ], [ -51.5481922, -28.9284887 ], [ -51.5481439, -28.9289323 ], [ -51.5476128, -28.9289183 ], [ -51.5476182, -28.9289699 ], [ -51.5476236, -28.9291812 ], [ -51.5476424, -28.9292387 ], [ -51.5477148, -28.9293314 ], [ -51.54803660000001, -28.9295133 ], [ -51.5483652, -28.929788 ], [ -51.5485141, -28.9299429 ], [ -51.5485664, -28.9300556 ], [ -51.5486023, -28.93054 ], [ -51.5486294, -28.9307211 ], [ -51.5486186, -28.93163 ], [ -51.5485624, -28.9327892 ], [ -51.5497734, -28.932823299999985 ], [ -51.5533484, -28.9329239 ], [ -51.5533481, -28.9328638 ] ] ] } },
{ "type": "Feature", "properties": { "name": "São Francisco", "code_muni": 4322806.0, "name_muni": "Veranópolis" }, "geometry": { "type": "Polygon", "coordinates": [ [ [ -51.5481907, -28.9284514 ], [ -51.5475292, -28.9284225 ], [ -51.5474053, -28.9284191 ], [ -51.5467676, -28.928399699999989 ], [ -51.5450706, -28.9283388 ], [ -51.5448008, -28.9283314 ], [ -51.5428603, -28.9282914 ], [ -51.5428313, -28.9282418 ], [ -51.5427894, -28.9281925 ], [ -51.5424836, -28.9278956 ], [ -51.5423469, -28.9277689 ], [ -51.5422814, -28.927718499999987 ], [ -51.542247, -28.9277019 ], [ -51.542541, -28.928181099999989 ], [ -51.5426652, -28.9284145 ], [ -51.5427306, -28.9285839 ], [ -51.5427673, -28.9286937 ], [ -51.5427953, -28.9288435 ], [ -51.5428071, -28.928919499999985 ], [ -51.5428168, -28.9290678 ], [ -51.5428107, -28.9292591 ], [ -51.5427944, -28.9294108 ], [ -51.5427781, -28.9294993 ], [ -51.5427505, -28.9295975 ], [ -51.5426969, -28.9297391 ], [ -51.5426458, -28.929855899999986 ], [ -51.5425525, -28.9300387 ], [ -51.5423601, -28.9303537 ], [ -51.5422216, -28.9305622 ], [ -51.5421248, -28.9307 ], [ -51.5418932, -28.9310855 ], [ -51.5418486, -28.9311598 ], [ -51.5417341, -28.9313736 ], [ -51.5416896, -28.9314804 ], [ -51.5418136, -28.9314744 ], [ -51.5420848, -28.9315087 ], [ -51.5425434, -28.9315195 ], [ -51.5432013, -28.931535 ], [ -51.5448861, -28.9315643 ], [ -51.5453101, -28.9315679 ], [ -51.5454852, -28.9315693 ], [ -51.5460323, -28.931575 ], [ -51.5466753, -28.9315841 ], [ -51.5473427, -28.9315936 ], [ -51.5474524, -28.9315917 ], [ -51.5485368, -28.9316285 ], [ -51.5486186, -28.93163 ], [ -51.5486294, -28.9307211 ], [ -51.5486023, -28.93054 ], [ -51.5485664, -28.9300556 ], [ -51.5485141, -28.9299429 ], [ -51.5483652, -28.929788 ], [ -51.54803660000001, -28.9295133 ], [ -51.5477148, -28.9293314 ], [ -51.5476424, -28.9292387 ], [ -51.5476236, -28.9291812 ], [ -51.5476182, -28.9289699 ], [ -51.5476128, -28.9289183 ], [ -51.5481439, -28.9289323 ], [ -51.5481922, -28.9284887 ], [ -51.5481907, -28.9284514 ] ] ] } },
{ "type": "Feature", "properties": { "name": "São Pelegrino", "code_muni": 4322806.0, "name_muni": "Veranópolis" }, "geometry": { "type": "Polygon", "coordinates": [ [ [ -51.5481734, -28.9218379 ], [ -51.5486026, -28.922561 ], [ -51.5382201, -28.9223122 ], [ -51.5381958, -28.9224183 ], [ -51.5381565, -28.9225898 ], [ -51.53813550000001, -28.9227061 ], [ -51.5381312, -28.9227934 ], [ -51.5381294, -28.9230067 ], [ -51.5381372, -28.9231398 ], [ -51.5381573, -28.9232976 ], [ -51.5381971, -28.9234701 ], [ -51.5382361, -28.9236335 ], [ -51.5383015, -28.9237681 ], [ -51.5383788, -28.9239137 ], [ -51.5384949, -28.9240898 ], [ -51.5386395, -28.9242665 ], [ -51.53885240000001, -28.9244784 ], [ -51.5389587, -28.9245646 ], [ -51.5391504, -28.9247201 ], [ -51.5392198, -28.9247776 ], [ -51.5397594, -28.9251687 ], [ -51.5398362, -28.9252168 ], [ -51.5399929, -28.9253289 ], [ -51.5402298, -28.9254985 ], [ -51.5405517, -28.9257603 ], [ -51.5408163, -28.9259715 ], [ -51.5409981, -28.9261433 ], [ -51.5411148, -28.926255700000013 ], [ -51.5412192, -28.926361 ], [ -51.5413559, -28.9265031 ], [ -51.5413805, -28.9265286 ], [ -51.5414525, -28.9266186 ], [ -51.5415095, -28.9266793 ], [ -51.5417691, -28.9269899 ], [ -51.5418004, -28.9270337 ], [ -51.5419376, -28.9272436 ], [ -51.5421281, -28.927535 ], [ -51.542247, -28.9277019 ], [ -51.5422814, -28.927718499999987 ], [ -51.5423469, -28.9277689 ], [ -51.5424836, -28.9278956 ], [ -51.5427894, -28.9281925 ], [ -51.5428313, -28.9282418 ], [ -51.5428603, -28.9282914 ], [ -51.5448008, -28.9283314 ], [ -51.5450706, -28.9283388 ], [ -51.5467676, -28.928399699999989 ], [ -51.5474053, -28.9284191 ], [ -51.5475292, -28.9284225 ], [ -51.5481907, -28.9284514 ], [ -51.5486404, -28.9284599 ], [ -51.5487677, -28.9284637 ], [ -51.5498577, -28.9284967 ], [ -51.549985, -28.9284982 ], [ -51.5516661, -28.928521399999983 ], [ -51.5520615, -28.9285371 ], [ -51.5526522, -28.928530899999988 ], [ -51.5527735, -28.9285089 ], [ -51.5528425, -28.9284708 ], [ -51.5528823, -28.92844 ], [ -51.552948, -28.9283738 ], [ -51.5536257, -28.927170400000012 ], [ -51.5538972, -28.9267052 ], [ -51.5539592, -28.9265597 ], [ -51.554037, -28.926333 ], [ -51.5541969, -28.925611 ], [ -51.5542943, -28.9254217 ], [ -51.5543558, -28.9253549 ], [ -51.5544348, -28.9252999 ], [ -51.554686, -28.925162 ], [ -51.555026, -28.9249286 ], [ -51.555295, -28.9246948 ], [ -51.5554433, -28.9245368 ], [ -51.5555353, -28.924426 ], [ -51.5556435, -28.9242278 ], [ -51.5558131, -28.9238456 ], [ -51.5559127, -28.9236015 ], [ -51.5559846, -28.9234656 ], [ -51.5560874, -28.9233416 ], [ -51.5562214, -28.9232437 ], [ -51.5563261, -28.9231903 ], [ -51.5564278, -28.9231493 ], [ -51.556555, -28.9231224 ], [ -51.5567217, -28.923119700000012 ], [ -51.5569021, -28.9231563 ], [ -51.5570582, -28.9232362 ], [ -51.5572332, -28.9233571 ], [ -51.5573838, -28.9234464 ], [ -51.5577669, -28.9235448 ], [ -51.5578934, -28.9220078 ], [ -51.5481734, -28.9218379 ] ] ] } },
{ "type": "Feature", "properties": { "name": "Universal", "code_muni": 4322806.0, "name_muni": "Veranópolis" }, "geometry": { "type": "Polygon", "coordinates": [ [ [ -51.5486026, -28.922561 ], [ -51.5481734, -28.9218379 ], [ -51.5578934, -28.9220078 ], [ -51.5579152, -28.92088 ], [ -51.5578938, -28.9179125 ], [ -51.5489245, -28.917781 ], [ -51.5457273, -28.912221299999985 ], [ -51.5457916, -28.9119208 ], [ -51.5447609, -28.9118856 ], [ -51.5446464, -28.9121859 ], [ -51.544587, -28.9125466 ], [ -51.5445349, -28.913596199999986 ], [ -51.5444646, -28.913998 ], [ -51.5441885, -28.9146185 ], [ -51.5441345, -28.9148852 ], [ -51.5441613, -28.9151059 ], [ -51.5442801, -28.9155105 ], [ -51.5398908, -28.9154707 ], [ -51.5379381, -28.9147758 ], [ -51.5366772, -28.920852 ], [ -51.5372843, -28.9208251 ], [ -51.537407, -28.9208115 ], [ -51.537539, -28.920793 ], [ -51.5380307, -28.9207098 ], [ -51.5383375, -28.9206575 ], [ -51.53856, -28.9206198 ], [ -51.5384714, -28.9210684 ], [ -51.5383788, -28.9216047 ], [ -51.5383161, -28.9219084 ], [ -51.5382201, -28.9223122 ], [ -51.5486026, -28.922561 ] ] ] } },
{ "type": "Feature", "properties": { "name": "Sapopema", "code_muni": 4322806.0, "name_muni": "Veranópolis" }, "geometry": { "type": "Polygon", "coordinates": [ [ [ -51.5441613, -28.9151059 ], [ -51.5441345, -28.9148852 ], [ -51.5441885, -28.9146185 ], [ -51.5444646, -28.913998 ], [ -51.5445349, -28.913596199999986 ], [ -51.544587, -28.9125466 ], [ -51.5446464, -28.9121859 ], [ -51.5447609, -28.9118856 ], [ -51.5457916, -28.9119208 ], [ -51.5464568, -28.9100424 ], [ -51.5525723, -28.9076757 ], [ -51.5548468, -28.9011386 ], [ -51.5555549, -28.8989219 ], [ -51.5549541, -28.897024600000016 ], [ -51.553559300000011, -28.8970433 ], [ -51.5519715, -28.894526 ], [ -51.5463281, -28.8944696 ], [ -51.5467572, -28.8969306 ], [ -51.5517998, -28.8969118 ], [ -51.552465, -28.8986965 ], [ -51.5523792, -28.8996733 ], [ -51.551671, -28.9006314 ], [ -51.5487528, -28.9039564 ], [ -51.5481949, -28.905384 ], [ -51.5457702, -28.9074503 ], [ -51.5450621, -28.9071121 ], [ -51.5378094, -28.9073939 ], [ -51.5373588, -28.9092911 ], [ -51.5438175, -28.9089718 ], [ -51.5425086, -28.9101176 ], [ -51.5409208, -28.911958299999984 ], [ -51.5391612, -28.9132919 ], [ -51.5379381, -28.9147758 ], [ -51.5398908, -28.9154707 ], [ -51.5442801, -28.9155105 ], [ -51.5441613, -28.9151059 ] ] ] } }
]
}
