{
"type": "FeatureCollection",
"name": "bairros_sapiranga",
"crs": { "type": "name", "properties": { "name": "urn:ogc:def:crs:OGC:1.3:CRS84" } },
"features": [
{ "type": "Feature", "properties": { "code_muni": 4319901.0, "name_muni": "Sapiranga", "code_state": 43.0, "abbrev_state": "RS", "name_state": "Rio Grande do Sul", "code_region": 4.0, "name_region": "Sul", "year": 2022.0 }, "geometry": { "type": "Polygon", "coordinates": [ [ [ -51.013795710999894, -29.695844638 ], [ -51.007334711999903, -29.650397886999894 ], [ -51.019868862999893, -29.649104119999897 ], [ -51.019778359, -29.6510878879999 ], [ -51.039496351, -29.648763281 ], [ -51.034773576, -29.617783663 ], [ -51.055805504, -29.615634726999907 ], [ -51.048858975, -29.561713052 ], [ -51.046466009, -29.562053915 ], [ -51.043784321, -29.544914828999904 ], [ -51.014016778, -29.548016211999908 ], [ -51.010772093999904, -29.546132650999905 ], [ -51.011699560999901, -29.544542916999902 ], [ -51.008683284999989, -29.542986223 ], [ -51.005047436, -29.544195951999903 ], [ -51.002683046, -29.541653723 ], [ -50.995372763, -29.544504832 ], [ -50.993163164999899, -29.542714960999898 ], [ -50.984882407, -29.5476398439999 ], [ -50.981934822, -29.545412546 ], [ -50.980386482, -29.5464712409999 ], [ -50.976012891, -29.545814291999893 ], [ -50.973362935, -29.546816059 ], [ -50.968067904, -29.544979644 ], [ -50.962051023, -29.548903428999903 ], [ -50.962229587, -29.550575151 ], [ -50.958540942999903, -29.550551275 ], [ -50.953507848, -29.552564477 ], [ -50.95244726899989, -29.554140354 ], [ -50.945930392, -29.553033768 ], [ -50.944628165, -29.557348922999896 ], [ -50.944997083, -29.561664363 ], [ -50.946290931, -29.561800004 ], [ -50.94569067, -29.567630954 ], [ -50.948226910999892, -29.571374183999986 ], [ -50.947352893999891, -29.583360789 ], [ -50.949888567999892, -29.595939434999899 ], [ -50.960218552, -29.595990549 ], [ -50.961913717, -29.608877505 ], [ -50.9559182039999, -29.612154199 ], [ -50.952310226999892, -29.616251685999895 ], [ -50.950967192, -29.620446159 ], [ -50.946837477, -29.621312261 ], [ -50.951972363, -29.624931631 ], [ -50.953770774, -29.637098403 ], [ -50.951262090999897, -29.637061966 ], [ -50.954103349, -29.666417639 ], [ -50.955746517, -29.666240801 ], [ -50.958631271999906, -29.677026326 ], [ -50.96368546, -29.678460319 ], [ -50.952450531, -29.682171757999988 ], [ -50.94459576, -29.690085337 ], [ -50.9415650669999, -29.691183101 ], [ -50.943815639, -29.693425625 ], [ -50.9465044519999, -29.693265289 ], [ -50.947489312999892, -29.690162979 ], [ -50.954326609, -29.687787618 ], [ -50.95664276, -29.68819026099991 ], [ -50.958388633, -29.689213095999907 ], [ -50.957775207999902, -29.693443489999897 ], [ -50.960625337, -29.695781606 ], [ -50.963367801999901, -29.702707765999893 ], [ -50.965375695, -29.701960493999898 ], [ -50.966895687, -29.697916548 ], [ -50.969625875, -29.696841354999894 ], [ -50.97381337, -29.701028087999894 ], [ -50.977870776, -29.702693607 ], [ -50.981040175, -29.702387874 ], [ -50.986005108, -29.704378816 ], [ -50.989187365, -29.702427934999907 ], [ -50.992245747, -29.70571785300001 ], [ -50.996235451, -29.706330441 ], [ -51.004793193, -29.697751719999896 ], [ -51.013795710999894, -29.695844638 ] ] ] } }
]
}
