{
"type": "FeatureCollection",
"name": "bairros_fontoura_xavier",
"crs": { "type": "name", "properties": { "name": "urn:ogc:def:crs:OGC:1.3:CRS84" } },
"features": [
{ "type": "Feature", "properties": { "code_muni": 4308300.0, "name_muni": "Fontoura Xavier", "code_state": 43.0, "abbrev_state": "RS", "name_state": "Rio Grande do Sul", "code_region": 4.0, "name_region": "Sul", "year": 2022.0 }, "geometry": { "type": "Polygon", "coordinates": [ [ [ -52.342463635999891, -29.140628736999908 ], [ -52.351419452, -29.150171570999895 ], [ -52.373066561, -29.143576197999892 ], [ -52.373781440999892, -29.144976695 ], [ -52.369436441999902, -29.150729324999897 ], [ -52.376979029, -29.151904203999901 ], [ -52.386311959999901, -29.147582541 ], [ -52.39291256699989, -29.15109496 ], [ -52.402017482, -29.148838704 ], [ -52.405466641, -29.151587676 ], [ -52.408009062, -29.156955212999897 ], [ -52.412799978, -29.152094167 ], [ -52.42051072, -29.150041127999899 ], [ -52.425106166, -29.146883058999904 ], [ -52.424327854, -29.152353772 ], [ -52.425415142, -29.156478021999895 ], [ -52.427312404, -29.156969359 ], [ -52.431157202999898, -29.14835849 ], [ -52.435102099999895, -29.146797176 ], [ -52.438735212, -29.148446072999892 ], [ -52.444950908, -29.143238693999898 ], [ -52.448899909, -29.135765029 ], [ -52.449073445, -29.131393935999903 ], [ -52.457667554, -29.129695295 ], [ -52.457720005999903, -29.122325288 ], [ -52.461802534, -29.114595629 ], [ -52.463521643, -29.113690733999906 ], [ -52.466726380999901, -29.117295006999896 ], [ -52.469612336999901, -29.110379483 ], [ -52.473841966999892, -29.107485181 ], [ -52.478403634, -29.106447321 ], [ -52.478266921999889, -29.105334442 ], [ -52.472429115999894, -29.102972376 ], [ -52.468555758, -29.098260105999898 ], [ -52.475690289999896, -29.099609633999904 ], [ -52.475113432999898, -29.086050633 ], [ -52.476374544999892, -29.085513799999902 ], [ -52.480774218, -29.087955925 ], [ -52.487499356999891, -29.08473577 ], [ -52.493621976, -29.085550629999897 ], [ -52.495460629, -29.084777443 ], [ -52.499003369, -29.077132462 ], [ -52.495525180999891, -29.076023682 ], [ -52.493399258, -29.077914910999905 ], [ -52.49112373, -29.077450048999896 ], [ -52.488824490999896, -29.067278730999895 ], [ -52.490977477999898, -29.059359402 ], [ -52.487928395, -29.055914414 ], [ -52.488719139, -29.051969582 ], [ -52.490364432, -29.051460378999892 ], [ -52.492887668, -29.053070933 ], [ -52.496814586, -29.050799345 ], [ -52.497172551999903, -29.049056956 ], [ -52.492230267, -29.047506851 ], [ -52.493953701, -29.044368963999904 ], [ -52.492664810999891, -29.040218546999895 ], [ -52.495238838, -29.037605256999896 ], [ -52.494266313, -29.028211983999888 ], [ -52.491852506, -29.025539158 ], [ -52.495454134999896, -29.023610318999896 ], [ -52.490963732999894, -29.018177346999895 ], [ -52.49187142999989, -29.0174550569999 ], [ -52.497765501999893, -29.019037437 ], [ -52.498866471, -29.017157199999893 ], [ -52.491789313, -29.01151944 ], [ -52.49229518, -29.009765181 ], [ -52.496740791, -29.008347301000011 ], [ -52.49704286, -29.006625020999909 ], [ -52.496034155, -29.001148106 ], [ -52.49098738, -28.991896774999901 ], [ -52.494655092, -28.990496370999896 ], [ -52.498698667, -28.985377211 ], [ -52.498304448999896, -28.982972397 ], [ -52.493950415, -28.9816887819999 ], [ -52.499326240999899, -28.976168641 ], [ -52.497512701999902, -28.970583511 ], [ -52.501196906, -28.970542512999899 ], [ -52.499768999, -28.964753324 ], [ -52.502805506999898, -28.959655235 ], [ -52.501008084, -28.954736053 ], [ -52.503822667999891, -28.9498492459999 ], [ -52.503571144, -28.947578626999888 ], [ -52.498297926, -28.942482707999901 ], [ -52.496289187999899, -28.943847681 ], [ -52.495635549, -28.948120729 ], [ -52.494482069999897, -28.948220593 ], [ -52.486024235999899, -28.940366093 ], [ -52.486035699, -28.935767444 ], [ -52.487576587, -28.93370277 ], [ -52.492849287999903, -28.932035313 ], [ -52.490484896999895, -28.929073472 ], [ -52.490978939999899, -28.925130615999901 ], [ -52.488199338, -28.923232143999893 ], [ -52.488247531999903, -28.921677503999902 ], [ -52.496341566, -28.919328884 ], [ -52.498014725, -28.917660661999893 ], [ -52.494763874999897, -28.91587434 ], [ -52.490178145, -28.916762085 ], [ -52.487292362999895, -28.908627241 ], [ -52.485317085, -28.907513534 ], [ -52.482960142, -28.909517594 ], [ -52.482131312999989, -28.908759534 ], [ -52.486954521, -28.901803728999894 ], [ -52.481684083999902, -28.902006951 ], [ -52.474191102, -28.905816579 ], [ -52.468353530999906, -28.906776006 ], [ -52.466647141, -28.90350101 ], [ -52.464635922, -28.904362141 ], [ -52.459065643, -28.90360937 ], [ -52.459184337, -28.899392631999905 ], [ -52.449093165, -28.900799569 ], [ -52.446200462, -28.897912995999899 ], [ -52.447166056, -28.896004518 ], [ -52.441863313999903, -28.894951036999906 ], [ -52.440795148999889, -28.893494469 ], [ -52.439130786, -28.893306516999893 ], [ -52.436175229, -28.896081298999903 ], [ -52.432957782999893, -28.892115417999904 ], [ -52.432003441999903, -28.894829467 ], [ -52.428123792, -28.896311473 ], [ -52.427844417, -28.894438229999903 ], [ -52.424620800999897, -28.893145812999897 ], [ -52.418828597, -28.892479916 ], [ -52.4174410809999, -28.893849202999895 ], [ -52.416650771, -28.891402542 ], [ -52.415312378, -28.891156786 ], [ -52.41552023, -28.885638592 ], [ -52.412314636, -28.886221495 ], [ -52.411454792, -28.883976049 ], [ -52.409092345, -28.882987490999906 ], [ -52.406001581999895, -28.883975725 ], [ -52.403833571, -28.881136538 ], [ -52.402219435999903, -28.882104274 ], [ -52.399860124, -28.881120105 ], [ -52.398574020999902, -28.882288338 ], [ -52.394885269, -28.881489444 ], [ -52.390527372999898, -28.885261318999902 ], [ -52.384001617, -28.8832781 ], [ -52.37797542, -28.883337427999901 ], [ -52.36524802, -28.876475114999899 ], [ -52.36244863, -28.877891647 ], [ -52.3566809, -28.875681802 ], [ -52.350391989999899, -28.877925081999894 ], [ -52.346439507999889, -28.876721139 ], [ -52.343968845999903, -28.878337056 ], [ -52.342979616, -28.882853186 ], [ -52.342260345999897, -28.880759709 ], [ -52.339156989999893, -28.88037603 ], [ -52.337920561, -28.8768364929999 ], [ -52.335404997, -28.875216051999907 ], [ -52.330834545, -28.876068813 ], [ -52.325945556, -28.872039201999904 ], [ -52.325616615999891, -28.870433084999895 ], [ -52.323590276999902, -28.872202076999901 ], [ -52.318438081, -28.872259701 ], [ -52.318263554999902, -28.873993958 ], [ -52.31343979, -28.874593101999896 ], [ -52.312319245, -28.876625813 ], [ -52.310753213999902, -28.875775422999901 ], [ -52.308191746, -28.878659603999896 ], [ -52.304502479, -28.878319194999989 ], [ -52.299422981, -28.875593308 ], [ -52.291069745999891, -28.877609284999895 ], [ -52.289693647999989, -28.878879040999898 ], [ -52.293176053, -28.888294421999909 ], [ -52.28963048899989, -28.886612289 ], [ -52.286180378, -28.888738762999896 ], [ -52.281406467999901, -28.886381408 ], [ -52.278723673999892, -28.886919969 ], [ -52.281017173, -28.893955316999904 ], [ -52.289230516, -28.895811567999896 ], [ -52.27819053, -28.899966449 ], [ -52.277832422, -28.901657688999904 ], [ -52.2811350489999, -28.905219577 ], [ -52.2803366589999, -28.91246712 ], [ -52.270836628, -28.917754978999891 ], [ -52.26558821, -28.922284224 ], [ -52.266044845, -28.925660064999892 ], [ -52.271854472, -28.928239656 ], [ -52.27318508, -28.931191913 ], [ -52.27046013599989, -28.932651598999893 ], [ -52.260750574, -28.932590592999905 ], [ -52.26235770999989, -28.938503345 ], [ -52.265529855, -28.938170806999885 ], [ -52.267213978, -28.939601449 ], [ -52.267651551, -28.945423317999904 ], [ -52.266570374, -28.947390240999901 ], [ -52.262830547, -28.947605424999896 ], [ -52.2574286, -28.951997897 ], [ -52.261214091999896, -28.96023447399989 ], [ -52.2598294699999, -28.961125812 ], [ -52.25840026, -28.959898621 ], [ -52.255220516999891, -28.959908852 ], [ -52.248769812, -28.96486012 ], [ -52.246213855, -28.962734161999901 ], [ -52.243942580999892, -28.962773999 ], [ -52.242383656999891, -28.966440175999903 ], [ -52.244546524, -28.969849152999906 ], [ -52.240957, -28.9718038409999 ], [ -52.236899748, -28.9684737339999 ], [ -52.234368236, -28.968724673999908 ], [ -52.2347516459999, -28.972069849 ], [ -52.239878034, -28.973774157 ], [ -52.239120727999897, -28.975532189 ], [ -52.231597044999894, -28.974018257999898 ], [ -52.228662023482102, -28.970135531088999 ], [ -52.227136869080603, -28.970940699041588 ], [ -52.230792454635605, -28.987366221467894 ], [ -52.229754876639795, -28.989301952057193 ], [ -52.22480623735121, -28.988890825870001 ], [ -52.224309035915603, -28.990694831078809 ], [ -52.232509284592794, -28.997248375001401 ], [ -52.221966854152903, -29.002361189763992 ], [ -52.214640695499391, -29.011305453089101 ], [ -52.220736225599602, -29.010967889614498 ], [ -52.224243860727498, -29.014857225844608 ], [ -52.229066274651494, -29.015886828817393 ], [ -52.229765739170901, -29.017099169817691 ], [ -52.219817447946809, -29.0249508549886 ], [ -52.214739833285904, -29.027436862166592 ], [ -52.2179078424331, -29.031616874235795 ], [ -52.222749231411896, -29.0342329567893 ], [ -52.226047865936302, -29.037805492104592 ], [ -52.229576676125291, -29.034963083897594 ], [ -52.23547157, -29.034800315 ], [ -52.286073581, -29.021178178 ], [ -52.2876681179999, -29.014755385999901 ], [ -52.297225586, -29.010537166999896 ], [ -52.298491085, -29.005097760999899 ], [ -52.303685682, -29.00379142 ], [ -52.30594494, -29.005358757 ], [ -52.306931243999891, -29.013485787 ], [ -52.311093050999894, -29.015234845999899 ], [ -52.311664761, -29.017006387 ], [ -52.312157882, -29.015405173 ], [ -52.314647749, -29.014868137 ], [ -52.31611322, -29.01552694 ], [ -52.317388434, -29.019184385999896 ], [ -52.320158533, -29.018842888999984 ], [ -52.322675938, -29.015206685999896 ], [ -52.324400689, -29.0185665989999 ], [ -52.327815863999895, -29.0198548299999 ], [ -52.328675411999903, -29.02244983 ], [ -52.330204537, -29.020057715 ], [ -52.331983094999899, -29.0223889919999 ], [ -52.33358605, -29.022298828 ], [ -52.32975024, -29.030870087 ], [ -52.333814559, -29.03057236 ], [ -52.3330784199999, -29.0322337859999 ], [ -52.334566380999902, -29.035222613 ], [ -52.335880206999896, -29.034287252 ], [ -52.336913014999901, -29.035252580999988 ], [ -52.335882789, -29.038029797 ], [ -52.337822554, -29.044934473999902 ], [ -52.334939914999893, -29.046105687 ], [ -52.334655085, -29.049006679999895 ], [ -52.337748963, -29.050420592 ], [ -52.33810554, -29.053030959000012 ], [ -52.335840775999898, -29.05715043 ], [ -52.336568503, -29.059093387 ], [ -52.331557484, -29.063903055 ], [ -52.327179288000011, -29.064857947 ], [ -52.327390264, -29.068392893 ], [ -52.324234030999889, -29.069222184999898 ], [ -52.323551954, -29.070814755999894 ], [ -52.322738758, -29.0778376489999 ], [ -52.318518595999898, -29.077241839 ], [ -52.316325505999899, -29.081102046999899 ], [ -52.318789538, -29.084719354 ], [ -52.313861, -29.084650313999905 ], [ -52.310939015, -29.087076077999892 ], [ -52.314175422999902, -29.090131305999908 ], [ -52.312294173999902, -29.092857905 ], [ -52.312640443, -29.09543661 ], [ -52.30847374, -29.095049505 ], [ -52.305671935, -29.099833612999891 ], [ -52.302378646, -29.102433076 ], [ -52.297483026, -29.103995564999888 ], [ -52.296994057999896, -29.1068604559999 ], [ -52.294727095, -29.106511446999892 ], [ -52.294198711, -29.108832814 ], [ -52.292393031, -29.109791227 ], [ -52.291776022, -29.111875127 ], [ -52.294235321, -29.11439867 ], [ -52.289860110999903, -29.116759436999896 ], [ -52.291333341, -29.118703094 ], [ -52.289632218999891, -29.121216951 ], [ -52.289691832, -29.125500433999893 ], [ -52.286417136, -29.124857894999895 ], [ -52.283197765999901, -29.127814981 ], [ -52.284422280999898, -29.128646965 ], [ -52.287491694, -29.127916789 ], [ -52.290455420999898, -29.129658493 ], [ -52.293002263999902, -29.133063536 ], [ -52.294127389, -29.13768169 ], [ -52.287961766, -29.138742329 ], [ -52.285754179, -29.144125232 ], [ -52.286656604, -29.148089343 ], [ -52.284381304, -29.150725652999895 ], [ -52.289590688, -29.152025269 ], [ -52.286257188, -29.154317066 ], [ -52.286692759999902, -29.155509668 ], [ -52.292198004999896, -29.15460036 ], [ -52.290711816999902, -29.159119384 ], [ -52.292362559, -29.16391292 ], [ -52.299251888, -29.164064584 ], [ -52.300338603999897, -29.152699593 ], [ -52.310487826, -29.158495225 ], [ -52.314535412999895, -29.154876827 ], [ -52.316038084999896, -29.146506132999896 ], [ -52.31990667, -29.1453820639999 ], [ -52.322672046, -29.146932073999899 ], [ -52.324552652, -29.156199398999906 ], [ -52.32731724699989, -29.156297074 ], [ -52.333936702999893, -29.147728324 ], [ -52.342463635999891, -29.140628736999908 ] ] ] } }
]
}
