{
"type": "FeatureCollection",
"name": "bairros_picada_cafe",
"crs": { "type": "name", "properties": { "name": "urn:ogc:def:crs:OGC:1.3:CRS84" } },
"features": [
{ "type": "Feature", "properties": { "name": "BR 116", "code_muni": 4314423.0, "name_muni": "Picada Café" }, "geometry": { "type": "MultiPolygon", "coordinates": [ [ [ [ -51.127518202976105, -29.398527659963786 ], [ -51.127549963, -29.398473317000015 ], [ -51.126669498020092, -29.398385114610228 ], [ -51.127518202976105, -29.398527659963786 ] ] ], [ [ [ -51.1273831, -29.3986719 ], [ -51.127253, -29.3987993 ], [ -51.1271498, -29.3989068 ], [ -51.1270747, -29.3990435 ], [ -51.1269328, -29.3993679 ], [ -51.1268931, -29.3994604 ], [ -51.1268707, -29.3995484 ], [ -51.126847272687044, -29.399675639385116 ], [ -51.127508614738872, -29.398544065896637 ], [ -51.1273831, -29.3986719 ] ] ], [ [ [ -51.1253337, -29.4022359 ], [ -51.1251465, -29.4024093 ], [ -51.12498, -29.402602 ], [ -51.1248323, -29.402783 ], [ -51.1247469, -29.4028966 ], [ -51.1246249, -29.4030827 ], [ -51.1245089, -29.4032688 ], [ -51.1244442, -29.4033835 ], [ -51.124322, -29.403624 ], [ -51.1242446, -29.403786599999986 ], [ -51.1241792, -29.4039355 ], [ -51.1241395, -29.4041289 ], [ -51.124134, -29.404247099999989 ], [ -51.124139, -29.4043491 ], [ -51.1241564, -29.4044402 ], [ -51.1242047, -29.404536 ], [ -51.1242543, -29.404641099999989 ], [ -51.1242785, -29.4046925 ], [ -51.1243455, -29.4047755 ], [ -51.124434, -29.4048666 ], [ -51.124493, -29.4049321 ], [ -51.124514341325892, -29.404952879718859 ], [ -51.124258429, -29.404104945 ], [ -51.125364029735131, -29.402213403376095 ], [ -51.1253337, -29.4022359 ] ] ], [ [ [ -51.1250174, -29.4051949 ], [ -51.125118, -29.405216 ], [ -51.1252776, -29.4052241 ], [ -51.1253983, -29.4052253 ], [ -51.1255042, -29.4052253 ], [ -51.125574395461264, -29.405214960206173 ], [ -51.124915585559727, -29.405173018478152 ], [ -51.1250174, -29.4051949 ] ] ] ] } }
]
}
