{
"type": "FeatureCollection",
"name": "bairros_vila_maria",
"crs": { "type": "name", "properties": { "name": "urn:ogc:def:crs:OGC:1.3:CRS84" } },
"features": [
{ "type": "Feature", "properties": { "code_muni": 4323408.0, "name_muni": "Vila Maria", "code_state": 43.0, "abbrev_state": "RS", "name_state": "Rio Grande do Sul", "code_region": 4.0, "name_region": "Sul", "year": 2022.0 }, "geometry": { "type": "Polygon", "coordinates": [ [ [ -52.13890142, -28.632651752 ], [ -52.131501254999897, -28.623420578 ], [ -52.130256758, -28.614581624 ], [ -52.134264892, -28.612417837 ], [ -52.137694935, -28.616637754999903 ], [ -52.143481764999898, -28.616601635999899 ], [ -52.14718325, -28.608243532999897 ], [ -52.158209754, -28.602142607 ], [ -52.163684125, -28.608384035 ], [ -52.169040707, -28.610191965 ], [ -52.173720686, -28.608088365 ], [ -52.174977471, -28.605483055 ], [ -52.178393462, -28.603368585999895 ], [ -52.175472403, -28.599741921 ], [ -52.171620715, -28.59802761 ], [ -52.173715538, -28.59005744 ], [ -52.170110151, -28.585418392 ], [ -52.171082273, -28.579578157 ], [ -52.167839245, -28.569628214 ], [ -52.174208499, -28.571644392999893 ], [ -52.177294602000011, -28.570100974 ], [ -52.179122332, -28.563509908999904 ], [ -52.181226648999896, -28.56174214 ], [ -52.187505004999899, -28.565291756 ], [ -52.189813404999896, -28.569091305 ], [ -52.192557235, -28.564470589999903 ], [ -52.194705449, -28.569100519 ], [ -52.193535369, -28.571833494 ], [ -52.195729344, -28.573732618 ], [ -52.197955712999892, -28.571996882 ], [ -52.198234031, -28.566941884999903 ], [ -52.201901263, -28.567320654 ], [ -52.202953787999895, -28.565233713999898 ], [ -52.201374906999895, -28.562929717 ], [ -52.201334677, -28.556940466999887 ], [ -52.207166558, -28.558270537999903 ], [ -52.209792601999894, -28.55710455 ], [ -52.212864760999892, -28.550520323999901 ], [ -52.221654572, -28.55255528 ], [ -52.224950368, -28.549645057 ], [ -52.235413875999903, -28.548401251 ], [ -52.234585471999893, -28.537101178999901 ], [ -52.240598351, -28.53875148 ], [ -52.244318063, -28.534743917 ], [ -52.2429723609999, -28.530428179 ], [ -52.238519767999897, -28.529540628999893 ], [ -52.237494817, -28.527580682999897 ], [ -52.242133903, -28.522643328999902 ], [ -52.24689569399991, -28.524156266 ], [ -52.254860128, -28.520192247 ], [ -52.251887658, -28.518539341 ], [ -52.250152797999903, -28.514519044999894 ], [ -52.243196177, -28.517918506999905 ], [ -52.244352831, -28.510264972 ], [ -52.24018871, -28.510635099999895 ], [ -52.238555976, -28.509478251 ], [ -52.244314120999903, -28.506187121 ], [ -52.241625745, -28.500988033999903 ], [ -52.234232119, -28.505209507 ], [ -52.232243637, -28.504933794 ], [ -52.228902804, -28.501038493999896 ], [ -52.225796720999902, -28.502236534 ], [ -52.220123005999902, -28.502058641 ], [ -52.219598405999903, -28.499779476 ], [ -52.227944147, -28.496481397 ], [ -52.226400355, -28.494790645 ], [ -52.225810598999892, -28.490110251 ], [ -52.229353884, -28.486134111 ], [ -52.227236439, -28.485651887 ], [ -52.222804507, -28.487307976 ], [ -52.211740698, -28.4827645 ], [ -52.207985870999892, -28.488166243999988 ], [ -52.205534762999896, -28.487304933 ], [ -52.197065865, -28.489135968 ], [ -52.19893508, -28.496173337 ], [ -52.196009833999895, -28.496036236999906 ], [ -52.186002544, -28.499607848 ], [ -52.18231166, -28.496874046999899 ], [ -52.18038520399989, -28.489068974 ], [ -52.178485624, -28.4895297529999 ], [ -52.170312635, -28.485653983 ], [ -52.170349479, -28.482569461 ], [ -52.166298849, -28.4823877279999 ], [ -52.1648776339999, -28.477632796 ], [ -52.156906702, -28.4777270989999 ], [ -52.1555499689999, -28.476693906 ], [ -52.151953589, -28.479706649 ], [ -52.149421055999895, -28.476405008 ], [ -52.136000205, -28.476516757 ], [ -52.133333149999899, -28.482812523 ], [ -52.137991614, -28.485139596 ], [ -52.139221807, -28.487560374999894 ], [ -52.129200638, -28.505460073999895 ], [ -52.127175690999891, -28.503156354999891 ], [ -52.127760391, -28.500995007 ], [ -52.126114302, -28.496103132 ], [ -52.120619066, -28.495965057 ], [ -52.117289679999892, -28.4937974159999 ], [ -52.111544502999891, -28.497377309999898 ], [ -52.109913416, -28.500801316 ], [ -52.104824721999897, -28.502252213 ], [ -52.099061519, -28.495903556 ], [ -52.095395944, -28.49644039 ], [ -52.089885191, -28.494271293999898 ], [ -52.088560470999901, -28.495623763 ], [ -52.089645689999898, -28.502973395 ], [ -52.091923299, -28.504702990999895 ], [ -52.092098314999895, -28.506501382999897 ], [ -52.087965474, -28.507716984 ], [ -52.087176344999897, -28.510742100999899 ], [ -52.092544769, -28.512858818 ], [ -52.097140812, -28.512483041999896 ], [ -52.095719255999896, -28.514610863 ], [ -52.096565185, -28.523654705 ], [ -52.094158117999903, -28.525801166 ], [ -52.093188688999902, -28.530101049999892 ], [ -52.094439742, -28.532353816999898 ], [ -52.090253636999897, -28.535674024999899 ], [ -52.097121125999891, -28.540738468 ], [ -52.094285102999898, -28.5444297989999 ], [ -52.094888828, -28.547010193999903 ], [ -52.098704177999892, -28.548042940999892 ], [ -52.091649023999892, -28.62882321 ], [ -52.088216898, -28.630071121 ], [ -52.092565061999892, -28.633290585999902 ], [ -52.100162945, -28.629935525999894 ], [ -52.099629746999909, -28.635207196 ], [ -52.102466998999901, -28.637222446999896 ], [ -52.101695086999889, -28.6396414499999 ], [ -52.105884193, -28.649682649999892 ], [ -52.111087179, -28.653250290999903 ], [ -52.110345150999891, -28.655810737 ], [ -52.103838107999906, -28.655492862999886 ], [ -52.101533046, -28.656649830999989 ], [ -52.10007228699989, -28.668963985999895 ], [ -52.102284416, -28.664863636 ], [ -52.107396182999899, -28.667480745 ], [ -52.111771051999895, -28.671767728 ], [ -52.1207664309999, -28.671283064 ], [ -52.121087918999891, -28.668003284 ], [ -52.124931787, -28.671688065999898 ], [ -52.133538103, -28.673002105 ], [ -52.139847789, -28.671288472 ], [ -52.147572306, -28.66689955 ], [ -52.156744374, -28.649675073 ], [ -52.155763087, -28.638990724999907 ], [ -52.156794991, -28.637479428999903 ], [ -52.150269092, -28.634393096999904 ], [ -52.145111686, -28.63487557 ], [ -52.13890142, -28.632651752 ] ] ] } }
]
}
