{
"type": "FeatureCollection",
"name": "bairros_estrela_velha",
"crs": { "type": "name", "properties": { "name": "urn:ogc:def:crs:OGC:1.3:CRS84" } },
"features": [
{ "type": "Feature", "properties": { "code_muni": 4307815.0, "name_muni": "Estrela Velha", "code_state": 43.0, "abbrev_state": "RS", "name_state": "Rio Grande do Sul", "code_region": 4.0, "name_region": "Sul", "year": 2022.0 }, "geometry": { "type": "Polygon", "coordinates": [ [ [ -53.157800044999902, -29.134739144 ], [ -53.155967464999897, -29.132446676 ], [ -53.147203772, -29.129971607999899 ], [ -53.141421874999899, -29.130789052999901 ], [ -53.135113229999895, -29.136332890999903 ], [ -53.130070689, -29.143386737999901 ], [ -53.122578677, -29.146754379 ], [ -53.121889753999902, -29.144978927999901 ], [ -53.118553005, -29.146141558999904 ], [ -53.117555452, -29.14537267 ], [ -53.115098144999898, -29.148005204999905 ], [ -53.099403738, -29.141192217 ], [ -53.097717314, -29.138950743 ], [ -53.094265576999895, -29.139856685 ], [ -53.095554735, -29.146849884999902 ], [ -53.091302895999902, -29.147311896 ], [ -53.091467219, -29.150012257999894 ], [ -53.088630853, -29.151251504 ], [ -53.088365594, -29.154636387 ], [ -53.084132064, -29.156006756999904 ], [ -53.08285305, -29.161367621999901 ], [ -53.079451016999897, -29.161902722 ], [ -53.078178890999901, -29.163924718 ], [ -53.073134341999896, -29.165576031999905 ], [ -53.068981903, -29.169164857999899 ], [ -53.072535231, -29.177789698 ], [ -53.06391967, -29.181810619 ], [ -53.065563174, -29.185918617 ], [ -53.068541548, -29.188215167 ], [ -53.071443266, -29.189164868 ], [ -53.077915853, -29.187530126 ], [ -53.07944831399989, -29.188507251 ], [ -53.073211778, -29.195488474999888 ], [ -53.073611900999893, -29.202946761 ], [ -53.075872637, -29.202682325 ], [ -53.081225751, -29.198742915 ], [ -53.094229369999901, -29.196509555 ], [ -53.094472133, -29.197633365999906 ], [ -53.086567698, -29.20299845400001 ], [ -53.0866574, -29.2089918 ], [ -53.089320444, -29.211711904 ], [ -53.092720826999901, -29.212577210999896 ], [ -53.094934260999892, -29.2074459 ], [ -53.098414897999895, -29.207421027999899 ], [ -53.105974241, -29.215890638000012 ], [ -53.105120088, -29.217703807 ], [ -53.100644944999893, -29.220354138999905 ], [ -53.100272577999895, -29.222315460999894 ], [ -53.102884963, -29.222314302999987 ], [ -53.106962021, -29.219950863 ], [ -53.111388669, -29.22049622 ], [ -53.115543499, -29.225440283 ], [ -53.118710799, -29.232913816999908 ], [ -53.129839107999906, -29.228248241999903 ], [ -53.134827319, -29.228106603999898 ], [ -53.133856986999895, -29.232930208 ], [ -53.126965353999893, -29.239010517999905 ], [ -53.126069013999896, -29.246554149 ], [ -53.120459807, -29.247820057 ], [ -53.119785361, -29.249081662 ], [ -53.120419630999891, -29.250284107 ], [ -53.133332432, -29.2515479969999 ], [ -53.137376151, -29.253443019 ], [ -53.13704116799989, -29.255808511999906 ], [ -53.133568171, -29.258408177 ], [ -53.123682233, -29.262213152999898 ], [ -53.124347851, -29.264022494 ], [ -53.136594424, -29.267344005 ], [ -53.144699169, -29.266304263999903 ], [ -53.146560311, -29.267373694999904 ], [ -53.145294553, -29.275701259 ], [ -53.14198679, -29.281037876 ], [ -53.144270526, -29.293078280999989 ], [ -53.14137575, -29.307636295999906 ], [ -53.141668165999903, -29.313193748999904 ], [ -53.144106673, -29.313416136999898 ], [ -53.147457415, -29.310996293999885 ], [ -53.150001711, -29.311646106999898 ], [ -53.152711376, -29.321063611999904 ], [ -53.158363597999909, -29.328226452 ], [ -53.161570259, -29.326031762999897 ], [ -53.162020356, -29.321039131 ], [ -53.164593899, -29.320572474 ], [ -53.16754027, -29.3223958889999 ], [ -53.169657408, -29.3253321 ], [ -53.167018648999893, -29.333773198999893 ], [ -53.168450903, -29.335103065999906 ], [ -53.172560798999896, -29.334061812999884 ], [ -53.176011973999891, -29.327623613999904 ], [ -53.178761266, -29.325335492 ], [ -53.184455377999903, -29.324801557999908 ], [ -53.193209834, -29.326379443 ], [ -53.193888564, -29.328682919 ], [ -53.190967714999893, -29.336243293999896 ], [ -53.18337045, -29.336606488 ], [ -53.171605948, -29.339268772 ], [ -53.168047699999903, -29.341671339999902 ], [ -53.171180394, -29.345167037 ], [ -53.188692647, -29.348501083 ], [ -53.192095259, -29.352650826999902 ], [ -53.195102349, -29.364045893 ], [ -53.197224922, -29.364324813999897 ], [ -53.204411981, -29.358079046999901 ], [ -53.219911403, -29.351556430999892 ], [ -53.23104324, -29.350119024 ], [ -53.230253677, -29.346702133999891 ], [ -53.231407975, -29.343792036 ], [ -53.239481048999892, -29.340353203999896 ], [ -53.241808891999895, -29.336091368 ], [ -53.240629795, -29.332827766 ], [ -53.238514881999897, -29.332302406999904 ], [ -53.234000684, -29.333727062 ], [ -53.2323898779999, -29.3328344459999 ], [ -53.227946424, -29.326100418 ], [ -53.2291403629999, -29.323150299 ], [ -53.234561771, -29.32038582 ], [ -53.236300726, -29.318135785 ], [ -53.23000052, -29.309230108999898 ], [ -53.240327158999897, -29.299734335 ], [ -53.24572317, -29.296578350999912 ], [ -53.247618555, -29.292100891 ], [ -53.247525939999896, -29.288091693 ], [ -53.24510132599989, -29.285179672 ], [ -53.237658306999897, -29.283820961999908 ], [ -53.237817908999901, -29.278910491 ], [ -53.241237196, -29.270424923999901 ], [ -53.240227607999891, -29.264578664999892 ], [ -53.236878432, -29.262499071 ], [ -53.2344618609999, -29.263162719 ], [ -53.229086896, -29.267425026999895 ], [ -53.224870704999901, -29.273308146 ], [ -53.222732123, -29.274003181999902 ], [ -53.214286772, -29.273405481999902 ], [ -53.210266904, -29.270203828 ], [ -53.208997331, -29.266714708999899 ], [ -53.210779790999894, -29.264116502 ], [ -53.227050048, -29.254549553999897 ], [ -53.230036995, -29.254227447999895 ], [ -53.235601372, -29.257189873999899 ], [ -53.237581722999892, -29.256849922 ], [ -53.237617794, -29.2515638859999 ], [ -53.233565516999896, -29.249928844 ], [ -53.231962376999903, -29.247788716999896 ], [ -53.232741132999905, -29.245366578999903 ], [ -53.239233026, -29.241007308 ], [ -53.24701699, -29.24036051 ], [ -53.249380190999894, -29.2384633469999 ], [ -53.247753019999898, -29.221833235 ], [ -53.249425679, -29.211669139 ], [ -53.248061397999898, -29.20907677500001 ], [ -53.243406428999897, -29.206896328 ], [ -53.24248711, -29.199195244999903 ], [ -53.245499789999897, -29.193620903999896 ], [ -53.24803789, -29.192298091999906 ], [ -53.250477805999893, -29.193040096999898 ], [ -53.253411155, -29.196856193 ], [ -53.260315406, -29.197143285 ], [ -53.26566653, -29.193776187 ], [ -53.266560356999904, -29.190666013999902 ], [ -53.259673334999903, -29.187968512999905 ], [ -53.257911147, -29.184812891 ], [ -53.257566077, -29.177762317 ], [ -53.250783011, -29.178310952999887 ], [ -53.244417609, -29.175866398 ], [ -53.243113659999892, -29.168632649999907 ], [ -53.243766289, -29.16724879700001 ], [ -53.247281185, -29.166927573 ], [ -53.25166575, -29.170144023 ], [ -53.255148054999893, -29.169648292 ], [ -53.258675917999895, -29.162377402999898 ], [ -53.2580609, -29.152841628 ], [ -53.26143675, -29.144295021999895 ], [ -53.258472734, -29.139432164999988 ], [ -53.253025256999891, -29.1361234089999 ], [ -53.240370282, -29.137861152 ], [ -53.235234257999899, -29.141432522999899 ], [ -53.218860992, -29.13774023600001 ], [ -53.216849167, -29.135659815999894 ], [ -53.213584748, -29.13627854 ], [ -53.208097414, -29.139985733999904 ], [ -53.205166736, -29.137007463 ], [ -53.196306642, -29.137479696 ], [ -53.194944717999903, -29.133688725 ], [ -53.191086312, -29.133249597 ], [ -53.190783911, -29.130529533999901 ], [ -53.188449421, -29.132464109 ], [ -53.186138725, -29.130322786 ], [ -53.183276258, -29.131829140999987 ], [ -53.176090815, -29.131487458 ], [ -53.169956942999896, -29.133157422 ], [ -53.163685689, -29.137174584 ], [ -53.157800044999902, -29.134739144 ] ] ] } }
]
}
