{
"type": "FeatureCollection",
"name": "bairros_taquari",
"crs": { "type": "name", "properties": { "name": "urn:ogc:def:crs:OGC:1.3:CRS84" } },
"features": [
{ "type": "Feature", "properties": { "name": "Colônia Vinte de Setembro", "code_muni": 4321303.0, "name_muni": "Taquari" }, "geometry": { "type": "Polygon", "coordinates": [ [ [ -51.8639016, -29.7880167 ], [ -51.8659884, -29.7886778 ], [ -51.8670023, -29.7896275 ], [ -51.8674046, -29.7901443 ], [ -51.868692, -29.7905354 ], [ -51.8703282, -29.790959 ], [ -51.8717498, -29.7920205 ], [ -51.8731606, -29.793417099999989 ], [ -51.8736595, -29.793626599999985 ], [ -51.8751464, -29.7936723 ], [ -51.8749319, -29.7928157 ], [ -51.8747316, -29.7915982 ], [ -51.8710578, -29.787434799999986 ], [ -51.8727388, -29.7776295 ], [ -51.8721829, -29.7776744 ], [ -51.8718021, -29.7777052 ], [ -51.8716647, -29.7777248 ], [ -51.8715171, -29.7777686 ], [ -51.8713414, -29.7778309 ], [ -51.8712314, -29.7778699 ], [ -51.8708693, -29.7780126 ], [ -51.8707549, -29.7780577 ], [ -51.8705803, -29.7781265 ], [ -51.8704113, -29.7781824 ], [ -51.8687195, -29.778783 ], [ -51.8686541, -29.7788045 ], [ -51.8680741, -29.7789949 ], [ -51.867595, -29.7791695 ], [ -51.8672946, -29.779244 ], [ -51.8671228, -29.77926750000001 ], [ -51.8670478, -29.7792777 ], [ -51.8667443, -29.779291499999989 ], [ -51.8658113, -29.7792825 ], [ -51.8650294, -29.7792751 ], [ -51.8647759, -29.7792726 ], [ -51.8642584, -29.7792677 ], [ -51.8642234, -29.7787307 ], [ -51.8641774, -29.7785379 ], [ -51.8641655, -29.7784883 ], [ -51.8641504, -29.77842510000001 ], [ -51.8641041, -29.7782825 ], [ -51.8640177, -29.7780467 ], [ -51.8639243, -29.7779251 ], [ -51.8638359, -29.7778262 ], [ -51.8616559, -29.7783902 ], [ -51.8608218, -29.7786256 ], [ -51.8602598, -29.7787842 ], [ -51.8600728, -29.778492 ], [ -51.8600209, -29.7783758 ], [ -51.859945, -29.7780173 ], [ -51.8598703, -29.77766440000001 ], [ -51.859829, -29.7775225 ], [ -51.8597703, -29.7773036 ], [ -51.859653, -29.7771592 ], [ -51.8594827, -29.7770108 ], [ -51.8590629, -29.7767146 ], [ -51.8587933, -29.7765708 ], [ -51.8585794, -29.7765109 ], [ -51.8583106, -29.7764719 ], [ -51.8579745, -29.776438 ], [ -51.8569466, -29.7763345 ], [ -51.8567307, -29.7769171 ], [ -51.8566476, -29.7773327 ], [ -51.8566704, -29.777725 ], [ -51.8566994, -29.7780587 ], [ -51.8567079, -29.7781568 ], [ -51.8567897, -29.778584 ], [ -51.8570043, -29.7793092 ], [ -51.8570928, -29.7796072 ], [ -51.8571351, -29.7799849 ], [ -51.8571652, -29.780302 ], [ -51.8571585, -29.7809225 ], [ -51.8571492, -29.7812589 ], [ -51.857136, -29.781517099999984 ], [ -51.8571264, -29.7817047 ], [ -51.8571592, -29.7821278 ], [ -51.8572467, -29.7824746 ], [ -51.8573543, -29.7828605 ], [ -51.8576159, -29.7836066 ], [ -51.8579216, -29.7844481 ], [ -51.8579402, -29.7844982 ], [ -51.8581402, -29.7850359 ], [ -51.8582247, -29.785299 ], [ -51.8582963, -29.7854987 ], [ -51.8583106, -29.7855387 ], [ -51.8583253, -29.78564 ], [ -51.8583199, -29.7857995 ], [ -51.8583052, -29.7859543 ], [ -51.8582999, -29.7860875 ], [ -51.8582838, -29.7863745 ], [ -51.8582428, -29.7871092 ], [ -51.8582207, -29.7871444 ], [ -51.8587343, -29.787394 ], [ -51.8592032, -29.787641099999988 ], [ -51.8597616, -29.7879446 ], [ -51.8611658, -29.7886825 ], [ -51.8618953, -29.7890316 ], [ -51.86235, -29.7893744 ], [ -51.8623734, -29.7893281 ], [ -51.8624026, -29.7892745 ], [ -51.8626698, -29.7887954 ], [ -51.8631327, -29.788094 ], [ -51.8631902, -29.7880068 ], [ -51.8639016, -29.7880167 ] ] ] } },
{ "type": "Feature", "properties": { "name": "Santo Antônio", "code_muni": 4321303.0, "name_muni": "Taquari" }, "geometry": { "type": "Polygon", "coordinates": [ [ [ -51.8579686, -29.788864 ], [ -51.8578881, -29.7894355 ], [ -51.8578123, -29.7901047 ], [ -51.8578053, -29.7901411 ], [ -51.8603906, -29.7903881 ], [ -51.86039, -29.7904219 ], [ -51.8603584, -29.7920973 ], [ -51.8603718, -29.7927071 ], [ -51.8604805, -29.7927354 ], [ -51.8613321, -29.792976 ], [ -51.861379, -29.7929929 ], [ -51.861432, -29.7930062 ], [ -51.8621508, -29.7932099 ], [ -51.8622856, -29.7932402 ], [ -51.8623399, -29.7932402 ], [ -51.8623915, -29.7932216 ], [ -51.8624365, -29.7931861 ], [ -51.862472, -29.7931197 ], [ -51.8629293, -29.7918738 ], [ -51.8632297, -29.7912471 ], [ -51.8632935, -29.7912839 ], [ -51.8638847, -29.7916247 ], [ -51.8641149, -29.7917574 ], [ -51.8645079, -29.7919644 ], [ -51.8647559, -29.792095 ], [ -51.8649974, -29.792234 ], [ -51.8654335, -29.7924832 ], [ -51.8657184, -29.792646 ], [ -51.8658717, -29.7927258 ], [ -51.865692, -29.7922032 ], [ -51.8653567, -29.7916678 ], [ -51.865169, -29.7913966 ], [ -51.8648216, -29.7910993 ], [ -51.8646533, -29.7909695 ], [ -51.8645348, -29.7908764 ], [ -51.864557, -29.7907444 ], [ -51.8639908, -29.7896025 ], [ -51.8635771, -29.7887756 ], [ -51.8631902, -29.7880068 ], [ -51.8631327, -29.788094 ], [ -51.8626698, -29.7887954 ], [ -51.8624026, -29.7892745 ], [ -51.8623734, -29.7893281 ], [ -51.86235, -29.7893744 ], [ -51.8618953, -29.7890316 ], [ -51.8611658, -29.7886825 ], [ -51.8597616, -29.7879446 ], [ -51.8592032, -29.787641099999988 ], [ -51.8587343, -29.787394 ], [ -51.8582207, -29.7871444 ], [ -51.8582023, -29.787177 ], [ -51.8581734, -29.7873097 ], [ -51.8580672, -29.7881553 ], [ -51.8580507, -29.7882841 ], [ -51.8579686, -29.788864 ] ] ] } },
{ "type": "Feature", "properties": { "name": "União", "code_muni": 4321303.0, "name_muni": "Taquari" }, "geometry": { "type": "Polygon", "coordinates": [ [ [ -51.8553883, -29.784234 ], [ -51.8564156, -29.7854887 ], [ -51.8569225, -29.7861102 ], [ -51.8572551, -29.7864222 ], [ -51.8578666, -29.7868877 ], [ -51.8582207, -29.7871444 ], [ -51.8582428, -29.7871092 ], [ -51.8582838, -29.7863745 ], [ -51.8582999, -29.7860875 ], [ -51.8583052, -29.7859543 ], [ -51.8583199, -29.7857995 ], [ -51.8583253, -29.78564 ], [ -51.8583106, -29.7855387 ], [ -51.8582963, -29.7854987 ], [ -51.8582247, -29.785299 ], [ -51.8581402, -29.7850359 ], [ -51.8579402, -29.7844982 ], [ -51.8579216, -29.7844481 ], [ -51.8576159, -29.7836066 ], [ -51.8573543, -29.7828605 ], [ -51.8572467, -29.7824746 ], [ -51.8571592, -29.7821278 ], [ -51.8571264, -29.7817047 ], [ -51.857136, -29.781517099999984 ], [ -51.8571492, -29.7812589 ], [ -51.8571585, -29.7809225 ], [ -51.8571652, -29.780302 ], [ -51.8571351, -29.7799849 ], [ -51.8570928, -29.7796072 ], [ -51.8570043, -29.7793092 ], [ -51.8567897, -29.778584 ], [ -51.8567079, -29.7781568 ], [ -51.8566994, -29.7780587 ], [ -51.8566704, -29.777725 ], [ -51.8566476, -29.7773327 ], [ -51.8567307, -29.7769171 ], [ -51.8544988, -29.7769982 ], [ -51.8543797, -29.7770026 ], [ -51.8540582, -29.7770339 ], [ -51.85375410000001, -29.777069699999984 ], [ -51.852966, -29.7771544 ], [ -51.852889, -29.7771626 ], [ -51.8511826, -29.7773459 ], [ -51.8509908, -29.7773175 ], [ -51.8508377, -29.7774504 ], [ -51.8509077, -29.7775853 ], [ -51.8513757, -29.7789053 ], [ -51.8518344, -29.7797119 ], [ -51.8520235, -29.7800041 ], [ -51.853211, -29.7815202 ], [ -51.8535697, -29.7819223 ], [ -51.8544964, -29.783134 ], [ -51.855249, -29.7840836 ], [ -51.8553883, -29.784234 ] ] ] } },
{ "type": "Feature", "properties": { "name": "Léo Alvim Faller", "code_muni": 4321303.0, "name_muni": "Taquari" }, "geometry": { "type": "Polygon", "coordinates": [ [ [ -51.8419492, -29.7861922 ], [ -51.8425003, -29.786014 ], [ -51.8426207, -29.7859762 ], [ -51.8429318, -29.7858841 ], [ -51.8431627, -29.7858086 ], [ -51.8442229, -29.785519 ], [ -51.8443818, -29.7855178 ], [ -51.8445743, -29.7855516 ], [ -51.8466275, -29.786076499999986 ], [ -51.8475801, -29.7863395 ], [ -51.8486673, -29.7866397 ], [ -51.8493252, -29.7868214 ], [ -51.8497503, -29.7869354 ], [ -51.8500467, -29.7870763 ], [ -51.850111, -29.7863442 ], [ -51.8502485, -29.784711200000014 ], [ -51.8529692, -29.7847417 ], [ -51.8538192, -29.7847513 ], [ -51.8541108, -29.7847969 ], [ -51.8544125, -29.7846078 ], [ -51.8545941, -29.784494 ], [ -51.8548452, -29.784336700000011 ], [ -51.855202, -29.784113 ], [ -51.855249, -29.7840836 ], [ -51.8544964, -29.783134 ], [ -51.8535697, -29.7819223 ], [ -51.853211, -29.7815202 ], [ -51.8520235, -29.7800041 ], [ -51.8518344, -29.7797119 ], [ -51.8513757, -29.7789053 ], [ -51.8509077, -29.7775853 ], [ -51.8508377, -29.7774504 ], [ -51.8506086, -29.7773862 ], [ -51.8505241, -29.7774363 ], [ -51.8503075, -29.7774695 ], [ -51.8502612, -29.7774719 ], [ -51.8498374, -29.7774936 ], [ -51.8488852, -29.7775426 ], [ -51.8479583, -29.7775902 ], [ -51.846939, -29.7776426 ], [ -51.8463369, -29.777673499999985 ], [ -51.8461559, -29.7776828 ], [ -51.844197, -29.7777835 ], [ -51.8438541, -29.7778011 ], [ -51.8433003, -29.7778296 ], [ -51.8427874, -29.7778559 ], [ -51.8405736, -29.7779697 ], [ -51.8402988, -29.7780414 ], [ -51.8401599, -29.7781399 ], [ -51.8400467, -29.7783105 ], [ -51.8400541, -29.7785433 ], [ -51.8408082, -29.782094 ], [ -51.8414646, -29.7851863 ], [ -51.8415479, -29.7855789 ], [ -51.8416971, -29.7862817 ], [ -51.8419492, -29.7861922 ] ] ] } },
{ "type": "Feature", "properties": { "name": "Prado", "code_muni": 4321303.0, "name_muni": "Taquari" }, "geometry": { "type": "Polygon", "coordinates": [ [ [ -51.8521911, -29.7952652 ], [ -51.8550879, -29.7959635 ], [ -51.8573034, -29.796592 ], [ -51.8584621, -29.7970342 ], [ -51.8586123, -29.797388 ], [ -51.8586592, -29.7976359 ], [ -51.8589283, -29.7977461 ], [ -51.8590656, -29.7978023 ], [ -51.8593727, -29.7979304 ], [ -51.8594703, -29.797988 ], [ -51.8595152, -29.797875 ], [ -51.859539, -29.7978338 ], [ -51.861379, -29.7929929 ], [ -51.8613321, -29.792976 ], [ -51.8604805, -29.7927354 ], [ -51.8603718, -29.7927071 ], [ -51.8603584, -29.7920973 ], [ -51.86039, -29.7904219 ], [ -51.8603906, -29.7903881 ], [ -51.8578053, -29.7901411 ], [ -51.8578123, -29.7901047 ], [ -51.8578881, -29.7894355 ], [ -51.8579686, -29.788864 ], [ -51.8580507, -29.7882841 ], [ -51.8580672, -29.7881553 ], [ -51.8581734, -29.7873097 ], [ -51.8582023, -29.787177 ], [ -51.8582207, -29.7871444 ], [ -51.8578666, -29.7868877 ], [ -51.8572551, -29.7864222 ], [ -51.8569225, -29.7861102 ], [ -51.8564156, -29.7854887 ], [ -51.8553883, -29.784234 ], [ -51.855249, -29.7840836 ], [ -51.855202, -29.784113 ], [ -51.8548452, -29.784336700000011 ], [ -51.8545941, -29.784494 ], [ -51.8544125, -29.7846078 ], [ -51.8541108, -29.7847969 ], [ -51.8538192, -29.7847513 ], [ -51.8529692, -29.7847417 ], [ -51.8502485, -29.784711200000014 ], [ -51.850111, -29.7863442 ], [ -51.8500467, -29.7870763 ], [ -51.8497503, -29.7869354 ], [ -51.8493252, -29.7868214 ], [ -51.8486673, -29.7866397 ], [ -51.8475801, -29.7863395 ], [ -51.8466275, -29.786076499999986 ], [ -51.8445743, -29.7855516 ], [ -51.8443818, -29.7855178 ], [ -51.8442229, -29.785519 ], [ -51.8431627, -29.7858086 ], [ -51.8429318, -29.7858841 ], [ -51.8426207, -29.7859762 ], [ -51.8425003, -29.786014 ], [ -51.8419492, -29.7861922 ], [ -51.8416971, -29.7862817 ], [ -51.8430724, -29.7929572 ], [ -51.8432744, -29.7939379 ], [ -51.8521911, -29.7952652 ] ] ] } },
{ "type": "Feature", "properties": { "name": "Centro", "code_muni": 4321303.0, "name_muni": "Taquari" }, "geometry": { "type": "Polygon", "coordinates": [ [ [ -51.8757043, -29.7942868 ], [ -51.8751464, -29.7936723 ], [ -51.8736595, -29.793626599999985 ], [ -51.8731606, -29.793417099999989 ], [ -51.8717498, -29.7920205 ], [ -51.8703282, -29.790959 ], [ -51.868692, -29.7905354 ], [ -51.8674046, -29.7901443 ], [ -51.8670023, -29.7896275 ], [ -51.8659884, -29.7886778 ], [ -51.8639016, -29.7880167 ], [ -51.8631902, -29.7880068 ], [ -51.8635771, -29.7887756 ], [ -51.8639908, -29.7896025 ], [ -51.864557, -29.7907444 ], [ -51.8645348, -29.7908764 ], [ -51.8646533, -29.7909695 ], [ -51.8648216, -29.7910993 ], [ -51.865169, -29.7913966 ], [ -51.8653567, -29.7916678 ], [ -51.865692, -29.7922032 ], [ -51.8658717, -29.7927258 ], [ -51.8657184, -29.792646 ], [ -51.8654335, -29.7924832 ], [ -51.8649974, -29.792234 ], [ -51.8647559, -29.792095 ], [ -51.8645079, -29.7919644 ], [ -51.8641149, -29.7917574 ], [ -51.8638847, -29.7916247 ], [ -51.8632935, -29.7912839 ], [ -51.8632297, -29.7912471 ], [ -51.8629293, -29.7918738 ], [ -51.862472, -29.7931197 ], [ -51.8624365, -29.7931861 ], [ -51.8623915, -29.7932216 ], [ -51.8623399, -29.7932402 ], [ -51.8622856, -29.7932402 ], [ -51.8621508, -29.7932099 ], [ -51.861432, -29.7930062 ], [ -51.861379, -29.7929929 ], [ -51.859539, -29.7978338 ], [ -51.8595152, -29.797875 ], [ -51.8594703, -29.797988 ], [ -51.8595609, -29.7980249 ], [ -51.8608037, -29.7985309 ], [ -51.8614957, -29.7987904 ], [ -51.8625404, -29.799096499999987 ], [ -51.8629954, -29.7992268 ], [ -51.8626477, -29.8001334 ], [ -51.8622165, -29.8013554 ], [ -51.862081, -29.8017621 ], [ -51.861946, -29.802116 ], [ -51.8618225, -29.8025603 ], [ -51.86172590000001, -29.8028881 ], [ -51.8616478, -29.8031256 ], [ -51.8615622, -29.803285199999987 ], [ -51.8615164, -29.8033704 ], [ -51.8612107, -29.8036971 ], [ -51.8622384, -29.8033238 ], [ -51.8618109, -29.8049086 ], [ -51.8611919, -29.8048202 ], [ -51.8618636, -29.8053503 ], [ -51.8619996, -29.8054139 ], [ -51.8621201, -29.8054476 ], [ -51.8621887, -29.8054624 ], [ -51.8623639, -29.804998600000015 ], [ -51.8629527, -29.8049528 ], [ -51.8630588, -29.8049618 ], [ -51.8636523, -29.8050675 ], [ -51.8639429, -29.8051837 ], [ -51.8642705, -29.8053565 ], [ -51.8649055, -29.8059064 ], [ -51.8651678, -29.8051961 ], [ -51.8654238, -29.8044828 ], [ -51.8657042, -29.8038112 ], [ -51.8659572, -29.8031523 ], [ -51.8660589, -29.8031995 ], [ -51.86629, -29.8033515 ], [ -51.8665979, -29.8036691 ], [ -51.866858, -29.8039134 ], [ -51.8675467, -29.8045602 ], [ -51.8675536, -29.8046205 ], [ -51.8673037, -29.8049883 ], [ -51.8672666, -29.805054 ], [ -51.8681768, -29.8055096 ], [ -51.8684691, -29.8056518 ], [ -51.8686091, -29.805337599999987 ], [ -51.8688419, -29.8048458 ], [ -51.8690707, -29.804362 ], [ -51.8691495, -29.8041467 ], [ -51.8692145, -29.8039688 ], [ -51.869576, -29.8030073 ], [ -51.8697754, -29.8025381 ], [ -51.8702929, -29.801338699999988 ], [ -51.8705291, -29.8008253 ], [ -51.8707654, -29.8001055 ], [ -51.8718303, -29.7993776 ], [ -51.8719463, -29.7992983 ], [ -51.8720113, -29.7992539 ], [ -51.8724391, -29.7989615 ], [ -51.8757043, -29.7942868 ] ] ] } },
{ "type": "Feature", "properties": { "name": "Olaria", "code_muni": 4321303.0, "name_muni": "Taquari" }, "geometry": { "type": "Polygon", "coordinates": [ [ [ -51.8744738, -29.8020482 ], [ -51.8747581, -29.8018504 ], [ -51.8753939, -29.8014746 ], [ -51.8783122, -29.8004341 ], [ -51.878172, -29.800238 ], [ -51.8780218, -29.7996309 ], [ -51.8780218, -29.7991207 ], [ -51.8782363, -29.7985249 ], [ -51.8783436, -29.7973034 ], [ -51.8780861, -29.7964654 ], [ -51.8778501, -29.7960558 ], [ -51.8775068, -29.7957578 ], [ -51.8764339, -29.7948268 ], [ -51.8757043, -29.7942868 ], [ -51.8724391, -29.7989615 ], [ -51.8720113, -29.7992539 ], [ -51.8719463, -29.7992983 ], [ -51.8718303, -29.7993776 ], [ -51.8707654, -29.8001055 ], [ -51.87106, -29.8003989 ], [ -51.8712449, -29.8006735 ], [ -51.8713509, -29.8008686 ], [ -51.871396, -29.800975499999986 ], [ -51.8714375, -29.8010937 ], [ -51.8714968, -29.8012826 ], [ -51.8716451, -29.8017189 ], [ -51.8716728, -29.8018002 ], [ -51.8716798, -29.8018209 ], [ -51.8717581, -29.8020512 ], [ -51.8717853, -29.8020687 ], [ -51.8721678, -29.8023149 ], [ -51.8722487, -29.8023657 ], [ -51.8724448, -29.8024889 ], [ -51.8735229, -29.8031384 ], [ -51.8744738, -29.8020482 ] ] ] } },
{ "type": "Feature", "properties": { "name": "Praia", "code_muni": 4321303.0, "name_muni": "Taquari" }, "geometry": { "type": "Polygon", "coordinates": [ [ [ -51.8683145, -29.8059911 ], [ -51.8682126, -29.8062148 ], [ -51.8681477, -29.8063407 ], [ -51.8683137, -29.8062422 ], [ -51.8686036, -29.8060701 ], [ -51.8690023, -29.805755499999989 ], [ -51.8697137, -29.8051941 ], [ -51.8725771, -29.8084917 ], [ -51.874148, -29.8080302 ], [ -51.8765933, -29.8077888 ], [ -51.879202, -29.8077902 ], [ -51.878644, -29.8066402 ], [ -51.878585, -29.8064443 ], [ -51.8784261, -29.8059807 ], [ -51.8784724, -29.8049488 ], [ -51.8787299, -29.80353370000001 ], [ -51.8789015, -29.8032246 ], [ -51.8791805, -29.8030682 ], [ -51.8796955, -29.803124 ], [ -51.8801246, -29.8033177 ], [ -51.8806396, -29.8035709 ], [ -51.88102580000001, -29.8035597 ], [ -51.8811761, -29.8035411 ], [ -51.8813692, -29.8033922 ], [ -51.8813906, -29.8027517 ], [ -51.8813692, -29.8023048 ], [ -51.8811975, -29.801884 ], [ -51.8808542, -29.8015488 ], [ -51.8798457, -29.8011578 ], [ -51.878923, -29.8009343 ], [ -51.8785368, -29.8007481 ], [ -51.8783122, -29.8004341 ], [ -51.8753939, -29.8014746 ], [ -51.8747581, -29.8018504 ], [ -51.8744738, -29.8020482 ], [ -51.8735229, -29.8031384 ], [ -51.8724448, -29.8024889 ], [ -51.8722487, -29.8023657 ], [ -51.8721678, -29.8023149 ], [ -51.8717853, -29.8020687 ], [ -51.8717581, -29.8020512 ], [ -51.8716798, -29.8018209 ], [ -51.8716728, -29.8018002 ], [ -51.8716451, -29.8017189 ], [ -51.8714968, -29.8012826 ], [ -51.8714375, -29.8010937 ], [ -51.871396, -29.800975499999986 ], [ -51.8713509, -29.8008686 ], [ -51.8712449, -29.8006735 ], [ -51.87106, -29.8003989 ], [ -51.8707654, -29.8001055 ], [ -51.8705291, -29.8008253 ], [ -51.8702929, -29.801338699999988 ], [ -51.8697754, -29.8025381 ], [ -51.869576, -29.8030073 ], [ -51.8692145, -29.8039688 ], [ -51.8691495, -29.8041467 ], [ -51.8690707, -29.804362 ], [ -51.8688419, -29.8048458 ], [ -51.8686091, -29.805337599999987 ], [ -51.8684691, -29.8056518 ], [ -51.8683145, -29.8059911 ] ] ] } },
{ "type": "Feature", "properties": { "name": "Caleira", "code_muni": 4321303.0, "name_muni": "Taquari" }, "geometry": { "type": "Polygon", "coordinates": [ [ [ -51.8646755, -29.8129998 ], [ -51.8676243, -29.810775 ], [ -51.871509, -29.8088282 ], [ -51.8725771, -29.8084917 ], [ -51.8697137, -29.8051941 ], [ -51.8690023, -29.805755499999989 ], [ -51.8686036, -29.8060701 ], [ -51.8683137, -29.8062422 ], [ -51.8681477, -29.8063407 ], [ -51.8682126, -29.8062148 ], [ -51.8683145, -29.8059911 ], [ -51.8684691, -29.8056518 ], [ -51.8681768, -29.8055096 ], [ -51.8672666, -29.805054 ], [ -51.8673037, -29.8049883 ], [ -51.8675536, -29.8046205 ], [ -51.8675467, -29.8045602 ], [ -51.866858, -29.8039134 ], [ -51.8665979, -29.8036691 ], [ -51.86629, -29.8033515 ], [ -51.8660589, -29.8031995 ], [ -51.8659572, -29.8031523 ], [ -51.8657042, -29.8038112 ], [ -51.8654238, -29.8044828 ], [ -51.8651678, -29.8051961 ], [ -51.8649055, -29.8059064 ], [ -51.8647434, -29.8063355 ], [ -51.8645929, -29.8067338 ], [ -51.8642814, -29.8075293 ], [ -51.8642079, -29.8077512 ], [ -51.8641599, -29.8079798 ], [ -51.8641373, -29.8081817 ], [ -51.864352, -29.8087553 ], [ -51.8643617, -29.8087812 ], [ -51.8646755, -29.8129998 ] ] ] } },
{ "type": "Feature", "properties": { "name": "São João", "code_muni": 4321303.0, "name_muni": "Taquari" }, "geometry": { "type": "Polygon", "coordinates": [ [ [ -51.8615345, -29.8154359 ], [ -51.8646755, -29.8129998 ], [ -51.8643617, -29.8087812 ], [ -51.864352, -29.8087553 ], [ -51.8641373, -29.8081817 ], [ -51.8641599, -29.8079798 ], [ -51.8642079, -29.8077512 ], [ -51.8642814, -29.8075293 ], [ -51.8645929, -29.8067338 ], [ -51.8647434, -29.8063355 ], [ -51.8649055, -29.8059064 ], [ -51.8642705, -29.8053565 ], [ -51.8639429, -29.8051837 ], [ -51.8636523, -29.8050675 ], [ -51.8630588, -29.8049618 ], [ -51.8629527, -29.8049528 ], [ -51.8623639, -29.804998600000015 ], [ -51.8621887, -29.8054624 ], [ -51.8621418, -29.8056014 ], [ -51.8619892, -29.8057763 ], [ -51.8616464, -29.8063265 ], [ -51.8614319, -29.8065589 ], [ -51.8611799, -29.806751099999985 ], [ -51.86042350000001, -29.8071898 ], [ -51.8593971, -29.8070412 ], [ -51.8594739, -29.8073168 ], [ -51.8594996, -29.807613199999988 ], [ -51.8595181, -29.8079595 ], [ -51.8595193, -29.808273500000016 ], [ -51.8570216, -29.8188286 ], [ -51.8615345, -29.8154359 ] ] ] } },
{ "type": "Feature", "properties": { "name": "Passo da Aldeia", "code_muni": 4321303.0, "name_muni": "Taquari" }, "geometry": { "type": "Polygon", "coordinates": [ [ [ -51.86042350000001, -29.8071898 ], [ -51.8611799, -29.806751099999985 ], [ -51.8614319, -29.8065589 ], [ -51.8616464, -29.8063265 ], [ -51.8619892, -29.8057763 ], [ -51.8621418, -29.8056014 ], [ -51.8621887, -29.8054624 ], [ -51.8621201, -29.8054476 ], [ -51.8619996, -29.8054139 ], [ -51.8618636, -29.8053503 ], [ -51.8611919, -29.8048202 ], [ -51.8618109, -29.8049086 ], [ -51.8622384, -29.8033238 ], [ -51.8612107, -29.8036971 ], [ -51.8615164, -29.8033704 ], [ -51.8615622, -29.803285199999987 ], [ -51.8616478, -29.8031256 ], [ -51.86172590000001, -29.8028881 ], [ -51.8618225, -29.8025603 ], [ -51.861946, -29.802116 ], [ -51.862081, -29.8017621 ], [ -51.8622165, -29.8013554 ], [ -51.8626477, -29.8001334 ], [ -51.8629954, -29.7992268 ], [ -51.8625404, -29.799096499999987 ], [ -51.8614957, -29.7987904 ], [ -51.8608037, -29.7985309 ], [ -51.8595609, -29.7980249 ], [ -51.8594703, -29.797988 ], [ -51.8593727, -29.7979304 ], [ -51.8590656, -29.7978023 ], [ -51.8589283, -29.7977461 ], [ -51.8586592, -29.7976359 ], [ -51.8586874, -29.7977884 ], [ -51.85902, -29.7985891 ], [ -51.8590897, -29.7990313 ], [ -51.8589449, -29.7996877 ], [ -51.8587089, -29.8004045 ], [ -51.858666, -29.8006838 ], [ -51.8587089, -29.8016893 ], [ -51.8583892, -29.801740899999988 ], [ -51.8566767, -29.801795 ], [ -51.8522072, -29.802462 ], [ -51.8530655, -29.8092208 ], [ -51.8570216, -29.8188286 ], [ -51.8595193, -29.808273500000016 ], [ -51.8595181, -29.8079595 ], [ -51.8594996, -29.807613199999988 ], [ -51.8594739, -29.8073168 ], [ -51.8593971, -29.8070412 ], [ -51.86042350000001, -29.8071898 ] ] ] } },
{ "type": "Feature", "properties": { "name": "Coqueiros", "code_muni": 4321303.0, "name_muni": "Taquari" }, "geometry": { "type": "Polygon", "coordinates": [ [ [ -51.8427256, -29.8230824 ], [ -51.848119, -29.8217533 ], [ -51.8570216, -29.8188286 ], [ -51.8530655, -29.8092208 ], [ -51.8522072, -29.802462 ], [ -51.8566767, -29.801795 ], [ -51.8583892, -29.801740899999988 ], [ -51.8587089, -29.8016893 ], [ -51.858666, -29.8006838 ], [ -51.8587089, -29.8004045 ], [ -51.8589449, -29.7996877 ], [ -51.8590897, -29.7990313 ], [ -51.85902, -29.7985891 ], [ -51.8586874, -29.7977884 ], [ -51.8586592, -29.7976359 ], [ -51.8586123, -29.797388 ], [ -51.8584621, -29.7970342 ], [ -51.8573034, -29.796592 ], [ -51.8550879, -29.7959635 ], [ -51.8521911, -29.7952652 ], [ -51.8432744, -29.7939379 ], [ -51.8435134, -29.7951052 ], [ -51.8439532, -29.7972529 ], [ -51.8439855, -29.7974103 ], [ -51.8440029, -29.7974956 ], [ -51.8441044, -29.7979913 ], [ -51.8442305, -29.7986068 ], [ -51.8444722, -29.799787 ], [ -51.8446811, -29.8008073 ], [ -51.8448503, -29.8016337 ], [ -51.8449813, -29.8022734 ], [ -51.8452213, -29.803445 ], [ -51.8453394, -29.8040219 ], [ -51.8331528, -29.8099283 ], [ -51.841706768428949, -29.823534093203197 ], [ -51.84199533654413, -29.82345982403185 ], [ -51.8427256, -29.8230824 ] ] ] } }
]
}
