{
"type": "FeatureCollection",
"name": "bairros_nova_ramada",
"crs": { "type": "name", "properties": { "name": "urn:ogc:def:crs:OGC:1.3:CRS84" } },
"features": [
{ "type": "Feature", "properties": { "code_muni": 4313334.0, "name_muni": "Nova Ramada", "code_state": 43.0, "abbrev_state": "RS", "name_state": "Rio Grande do Sul", "code_region": 4.0, "name_region": "Sul", "year": 2022.0 }, "geometry": { "type": "Polygon", "coordinates": [ [ [ -53.709542109, -28.163014973 ], [ -53.716377466, -28.16243335 ], [ -53.71688485, -28.151234968 ], [ -53.71841927, -28.14881586 ], [ -53.72189573299989, -28.150580466 ], [ -53.737201172, -28.15218537 ], [ -53.736173137, -28.151093542 ], [ -53.73683288, -28.143056664 ], [ -53.745633112999897, -28.141438229999892 ], [ -53.754008051, -28.133076662 ], [ -53.75778058, -28.133626029 ], [ -53.757909529999893, -28.137349113 ], [ -53.759613362, -28.140028125 ], [ -53.755483335999891, -28.14275621 ], [ -53.755818856, -28.143802375999901 ], [ -53.762093899, -28.141794115 ], [ -53.762502797, -28.143812007999891 ], [ -53.766225665, -28.144486646 ], [ -53.764731673, -28.143495545999901 ], [ -53.770496775, -28.138327015 ], [ -53.773040032, -28.127269790999897 ], [ -53.786877723, -28.129443287 ], [ -53.784428778999896, -28.1201047989999 ], [ -53.786264493, -28.113412052999895 ], [ -53.781621652, -28.106543415 ], [ -53.789826424999902, -28.1023829929999 ], [ -53.801719625, -28.102337534999894 ], [ -53.800463825, -28.099435485 ], [ -53.794519121, -28.095689755 ], [ -53.791377624999903, -28.086169163 ], [ -53.796068007, -28.064310416999898 ], [ -53.80282827, -28.059073698 ], [ -53.814222821, -28.055704292 ], [ -53.785384796999899, -28.04474526 ], [ -53.7770889889999, -28.039993275 ], [ -53.771515593999901, -28.033749265 ], [ -53.767906635, -28.026635524999989 ], [ -53.758044879999893, -28.018303276 ], [ -53.753481631999897, -27.995482452 ], [ -53.748581112999901, -27.992252229 ], [ -53.747883472999902, -27.990116117999907 ], [ -53.742853607, -27.991540272999899 ], [ -53.73592266, -27.989751892 ], [ -53.728227695, -27.983294122 ], [ -53.723467059, -27.9825064999999 ], [ -53.713025606, -27.984544209 ], [ -53.705298330999895, -27.988086908999897 ], [ -53.69994380899989, -27.986070436 ], [ -53.69541459, -27.987682795999905 ], [ -53.684023248999893, -28.004805083999901 ], [ -53.675874651999898, -28.005421467 ], [ -53.673567714999891, -28.008772817 ], [ -53.677077145999895, -28.012335006999901 ], [ -53.6775524829999, -28.018524267 ], [ -53.675795051, -28.020970083 ], [ -53.675562143, -28.025623824 ], [ -53.669867853, -28.027310577 ], [ -53.663471913, -28.026880341 ], [ -53.65917638, -28.035183287999899 ], [ -53.651363265, -28.036106197 ], [ -53.64252106, -28.033883558 ], [ -53.63840957, -28.036013075 ], [ -53.632315954, -28.036276635 ], [ -53.622144456999891, -28.033378604999893 ], [ -53.61766535, -28.030701244999907 ], [ -53.6076211399999, -28.0336099519999 ], [ -53.603105209, -28.040139454999984 ], [ -53.599011264999902, -28.038064216 ], [ -53.590120925, -28.037433193 ], [ -53.585545993, -28.039089744 ], [ -53.590608274, -28.041711716999902 ], [ -53.595820424, -28.047684408999892 ], [ -53.597858379999892, -28.05338775 ], [ -53.599924953, -28.053467393999895 ], [ -53.601162372, -28.056387449999907 ], [ -53.604014741, -28.057219236 ], [ -53.616281027999896, -28.083812481999903 ], [ -53.619117871999897, -28.085502765999902 ], [ -53.622737593, -28.092091136 ], [ -53.622346504999896, -28.09907931 ], [ -53.620574892, -28.101574309999901 ], [ -53.623541202999903, -28.109108654 ], [ -53.625819734999894, -28.111515766 ], [ -53.622760278, -28.115208091999897 ], [ -53.623830185, -28.118724786 ], [ -53.616873399, -28.122752536 ], [ -53.6184137, -28.126461263 ], [ -53.617383429, -28.130243611 ], [ -53.618766337999901, -28.134499591 ], [ -53.617305057, -28.138164506999903 ], [ -53.619416873, -28.140133407999901 ], [ -53.618505108, -28.143496973 ], [ -53.61992192, -28.145691484999904 ], [ -53.620685345, -28.143009854999899 ], [ -53.624695182, -28.139293594 ], [ -53.638716761, -28.132658127 ], [ -53.647610824, -28.146205503 ], [ -53.654735108999894, -28.152711123 ], [ -53.655399003999896, -28.155540682 ], [ -53.661843362999903, -28.151223821 ], [ -53.6637252579999, -28.151687573999904 ], [ -53.668449541, -28.146279563999897 ], [ -53.668384827999908, -28.143764229999899 ], [ -53.66592425999989, -28.142066218 ], [ -53.673197648, -28.139521976 ], [ -53.676298277999898, -28.141088098 ], [ -53.677326509, -28.144971193999901 ], [ -53.679605277999897, -28.146149742 ], [ -53.678936178999891, -28.149251837999902 ], [ -53.683423051, -28.146887305 ], [ -53.687960088, -28.14910291599989 ], [ -53.69013724, -28.148501017999902 ], [ -53.692000156999896, -28.150080957999897 ], [ -53.693433966, -28.147753251 ], [ -53.69465597, -28.148506579999903 ], [ -53.696462997, -28.152978346999902 ], [ -53.69582997, -28.155395062 ], [ -53.700582799, -28.161031333 ], [ -53.69983169599989, -28.163263709 ], [ -53.70164709999991, -28.167453760999898 ], [ -53.708997048, -28.167675781 ], [ -53.709542109, -28.163014973 ] ] ] } }
]
}
