{
"type": "FeatureCollection",
"name": "bairros_sao_jorge",
"crs": { "type": "name", "properties": { "name": "urn:ogc:def:crs:OGC:1.3:CRS84" } },
"features": [
{ "type": "Feature", "properties": { "code_muni": 4318440.0, "name_muni": "São Jorge", "code_state": 43.0, "abbrev_state": "RS", "name_state": "Rio Grande do Sul", "code_region": 4.0, "name_region": "Sul", "year": 2022.0 }, "geometry": { "type": "Polygon", "coordinates": [ [ [ -51.67741577, -28.464016961 ], [ -51.672237308, -28.465692593 ], [ -51.65680413, -28.464889706999898 ], [ -51.654538319, -28.465880661 ], [ -51.654207321999891, -28.469060757 ], [ -51.651455862, -28.470538012 ], [ -51.641682002, -28.465613297999901 ], [ -51.6353327859999, -28.466036362 ], [ -51.63289975, -28.468600142999907 ], [ -51.633169683999903, -28.471265302999903 ], [ -51.621978322, -28.476139921 ], [ -51.617776854999903, -28.483201005999899 ], [ -51.618516442, -28.486550986999902 ], [ -51.616853427, -28.488989594 ], [ -51.618805296999895, -28.495403874 ], [ -51.614901908, -28.4975380079999 ], [ -51.615562634, -28.501288783999897 ], [ -51.613482925, -28.503201401999895 ], [ -51.616956531, -28.50593636 ], [ -51.618183412, -28.513106832999895 ], [ -51.622120407, -28.513014618999904 ], [ -51.622902290999896, -28.515203953 ], [ -51.626004496999904, -28.510838533 ], [ -51.630829000999903, -28.511835823 ], [ -51.63314955, -28.513927851999906 ], [ -51.634640545, -28.512524853999899 ], [ -51.6382659289999, -28.512553438999898 ], [ -51.652308224, -28.519398327 ], [ -51.652536289, -28.52303287 ], [ -51.654307378999903, -28.524146217 ], [ -51.659524675999897, -28.521810054 ], [ -51.66300553699989, -28.521932488999909 ], [ -51.664516197, -28.518068171 ], [ -51.676160063999902, -28.520722565 ], [ -51.68354303599989, -28.517685709 ], [ -51.685234481999899, -28.519994311999898 ], [ -51.699060559, -28.520459241 ], [ -51.701278918, -28.526428666999902 ], [ -51.707587889, -28.529574133 ], [ -51.711651344, -28.526420695 ], [ -51.720835015, -28.527719374 ], [ -51.731218472, -28.524801531 ], [ -51.7277676429999, -28.528991149 ], [ -51.736076257, -28.528805028 ], [ -51.740629790999897, -28.530796143 ], [ -51.743463616, -28.530228918 ], [ -51.74428597, -28.531697752999897 ], [ -51.739544904, -28.533007128 ], [ -51.741864678, -28.54098491 ], [ -51.741507876999897, -28.543552077999902 ], [ -51.73926217799989, -28.544796537 ], [ -51.740438615, -28.548585703 ], [ -51.74713723699989, -28.552248973 ], [ -51.749073199, -28.560509136999897 ], [ -51.758155644999903, -28.560454802 ], [ -51.761440283, -28.5586324339999 ], [ -51.764359132, -28.558768712999893 ], [ -51.767738639, -28.555711718999905 ], [ -51.771179788, -28.556486662999898 ], [ -51.774590056, -28.553593996 ], [ -51.783300842, -28.552188090999898 ], [ -51.785474784, -28.549426979 ], [ -51.787888406, -28.549715493999898 ], [ -51.793032450999895, -28.546521561 ], [ -51.794358680999899, -28.540723210999907 ], [ -51.796645621, -28.539230055 ], [ -51.797367376999901, -28.532108286 ], [ -51.786269568, -28.531043428 ], [ -51.789738745, -28.526515420999907 ], [ -51.7955560199999, -28.523275978 ], [ -51.794114275, -28.520776784 ], [ -51.791683105999894, -28.519660773999906 ], [ -51.788532276, -28.522269362 ], [ -51.785989569, -28.522005919 ], [ -51.787392532999903, -28.515685158999897 ], [ -51.782351424, -28.513179556999901 ], [ -51.780191787, -28.506522819999898 ], [ -51.778371181, -28.504767369 ], [ -51.779898445999891, -28.503518533 ], [ -51.783218643999895, -28.503872252 ], [ -51.78816045, -28.500612574999899 ], [ -51.790343027999896, -28.487964400999903 ], [ -51.783225340999905, -28.487371098 ], [ -51.777381068, -28.493664749999898 ], [ -51.773850437, -28.493368603 ], [ -51.774009131999897, -28.48584075 ], [ -51.775702674999899, -28.484518809999905 ], [ -51.780947136, -28.485495226 ], [ -51.776042285, -28.478891141 ], [ -51.775856462, -28.475434672999903 ], [ -51.781195556999897, -28.478507984 ], [ -51.784744984, -28.474510984999899 ], [ -51.780405980999895, -28.469720864999896 ], [ -51.774828098999897, -28.467470304 ], [ -51.771418582, -28.469255641 ], [ -51.771328577, -28.475054457999899 ], [ -51.761254951, -28.473460197 ], [ -51.763338569, -28.46892853 ], [ -51.770675296, -28.467306511999904 ], [ -51.772203578999893, -28.464548217999894 ], [ -51.77643711, -28.461688448 ], [ -51.772721998, -28.460759981 ], [ -51.769417625, -28.4577737339999 ], [ -51.761829677, -28.458075682999901 ], [ -51.762285914, -28.454709549 ], [ -51.764121730999904, -28.452775641999892 ], [ -51.763370074, -28.449560968 ], [ -51.756158759999899, -28.449283251999901 ], [ -51.753640151, -28.450277647999904 ], [ -51.751699288999909, -28.448690867 ], [ -51.747217086, -28.451648975999891 ], [ -51.744764635, -28.449720699999894 ], [ -51.742694034, -28.450684214 ], [ -51.738153408999899, -28.449708839 ], [ -51.72344429, -28.452792303 ], [ -51.719973738, -28.455236068 ], [ -51.713158219, -28.454668904999895 ], [ -51.710279135, -28.455824139 ], [ -51.708431097, -28.458619316999901 ], [ -51.701532965, -28.459777932 ], [ -51.697692495999902, -28.463396744999987 ], [ -51.690070746999901, -28.463453022 ], [ -51.687121857, -28.466701341 ], [ -51.67741577, -28.464016961 ] ] ] } }
]
}
