{
"type": "FeatureCollection",
"name": "bairros_almirante_tamandare_do_sul",
"crs": { "type": "name", "properties": { "name": "urn:ogc:def:crs:OGC:1.3:CRS84" } },
"features": [
{ "type": "Feature", "properties": { "code_muni": 4300471.0, "name_muni": "Almirante Tamandaré do Sul", "code_state": 43.0, "abbrev_state": "RS", "name_state": "Rio Grande do Sul", "code_region": 4.0, "name_region": "Sul", "year": 2022.0 }, "geometry": { "type": "Polygon", "coordinates": [ [ [ -52.971359155999899, -28.135428768999901 ], [ -52.97406635, -28.127261858999905 ], [ -52.971904622999901, -28.124460358 ], [ -52.975198846999902, -28.125593007 ], [ -52.977698023, -28.131461085999899 ], [ -52.981082430999891, -28.130836646 ], [ -52.984691145999903, -28.124120739 ], [ -52.985953542999894, -28.125608003 ], [ -52.985517635999898, -28.128337761999905 ], [ -52.988144432999903, -28.131089254 ], [ -52.990297865999899, -28.130924675999907 ], [ -52.992661675, -28.126440623999894 ], [ -52.990126077999896, -28.121451346999898 ], [ -52.994691579999895, -28.120631342 ], [ -52.994048004, -28.117829571 ], [ -52.999197329, -28.118017925999897 ], [ -52.999670556999895, -28.114404154999892 ], [ -52.997893667, -28.112748138 ], [ -53.001592554, -28.106552108999907 ], [ -53.007090509, -28.114466193999892 ], [ -53.007768258999903, -28.120445074999989 ], [ -53.009276902, -28.121194948 ], [ -53.01023939, -28.113699461999897 ], [ -53.008258396, -28.109874831999907 ], [ -53.008805539, -28.102388972 ], [ -53.023143849999897, -28.105464836 ], [ -53.021034963, -28.102802509999908 ], [ -53.012168736, -28.097181810999896 ], [ -53.010247246999903, -28.093216879 ], [ -53.011731267, -28.091061199 ], [ -53.017524487999893, -28.089458841 ], [ -53.017364646, -28.086786940999989 ], [ -53.014999842999899, -28.085797328 ], [ -53.007397241, -28.089324607 ], [ -53.005084855, -28.088613105 ], [ -53.003787766999892, -28.083184598999903 ], [ -53.000956666, -28.080270406999897 ], [ -53.006082552, -28.078059134999901 ], [ -53.006463711, -28.075999276999902 ], [ -53.00054435, -28.076121424 ], [ -52.989809184, -28.080636346999899 ], [ -52.982493857, -28.077601184999903 ], [ -52.986165432, -28.076115231 ], [ -52.987879248, -28.073781950999901 ], [ -52.98722706, -28.07096654 ], [ -52.984064235999902, -28.069978635 ], [ -52.984135771, -28.06886304499989 ], [ -52.989263670999897, -28.068589604 ], [ -52.992905747, -28.072950924999908 ], [ -53.00056774, -28.069857053 ], [ -52.998494137, -28.060777614999896 ], [ -52.992080844, -28.060829942999902 ], [ -52.994516635, -28.057609507999906 ], [ -53.000404935999903, -28.058756888999888 ], [ -53.009005914999896, -28.065608914999899 ], [ -53.005495709999899, -28.0543916039999 ], [ -53.007024865999895, -28.051777423 ], [ -53.0115239309999, -28.050548677999902 ], [ -53.008320705999893, -28.04800083 ], [ -53.009596681999895, -28.043992889 ], [ -53.019148701999896, -28.045224531 ], [ -53.026099216, -28.043551503999904 ], [ -53.016514485999892, -28.037199277999893 ], [ -53.010749932, -28.040311673 ], [ -53.007926315, -28.039549864 ], [ -53.006256145999892, -28.034260441 ], [ -53.009773146, -28.0291343 ], [ -53.008916266, -28.027227534 ], [ -53.005262519, -28.027138656 ], [ -53.004271966, -28.030875361 ], [ -52.998187669999901, -28.037626356 ], [ -52.992516592, -28.033373185 ], [ -52.986860691999901, -28.033316569 ], [ -52.985433606, -28.034930206 ], [ -52.986091309, -28.0388910469999 ], [ -52.982134366, -28.042378753 ], [ -52.978684562999902, -28.040287013 ], [ -52.979069791, -28.034598871 ], [ -52.972897902999897, -28.032961280999896 ], [ -52.969628064999903, -28.037122338 ], [ -52.973653461, -28.0424391399999 ], [ -52.973684360999989, -28.046434777999895 ], [ -52.967278344, -28.050226809 ], [ -52.964469115999989, -28.049357057999906 ], [ -52.966431903999897, -28.046114443 ], [ -52.96695669, -28.040719936999899 ], [ -52.96568961, -28.034644375 ], [ -52.962727279, -28.033518626999989 ], [ -52.960866487, -28.036001446999908 ], [ -52.958526161, -28.033661548999905 ], [ -52.956235347, -28.035743646999894 ], [ -52.95625132899989, -28.040667577 ], [ -52.954399402, -28.042478624 ], [ -52.947688946, -28.041219759999901 ], [ -52.9417199069999, -28.046396176 ], [ -52.941532498999891, -28.048430584999892 ], [ -52.944605462, -28.049514737 ], [ -52.940508582999897, -28.057036016 ], [ -52.938252284, -28.052135356 ], [ -52.929790318999899, -28.048289822 ], [ -52.927925632, -28.048883160999896 ], [ -52.926293948, -28.05166187 ], [ -52.929533508, -28.055879172999902 ], [ -52.924840393999894, -28.056202659999901 ], [ -52.922098779999892, -28.059010278999899 ], [ -52.90860622, -28.058317440999907 ], [ -52.907228179999898, -28.052775347 ], [ -52.904051752, -28.052122946999887 ], [ -52.899636056, -28.0557741279999 ], [ -52.90464227199989, -28.063013747999907 ], [ -52.903084600999897, -28.066111052999904 ], [ -52.900717261, -28.065829903999898 ], [ -52.897139207999899, -28.0686516879999 ], [ -52.8932200409999, -28.068065522 ], [ -52.895308521999894, -28.063205577 ], [ -52.892616226, -28.054950706999904 ], [ -52.888363795, -28.054628398 ], [ -52.886197643999893, -28.058481281999903 ], [ -52.891958101999897, -28.063140655 ], [ -52.882641043, -28.064250027 ], [ -52.883399299, -28.069615741999904 ], [ -52.881110303, -28.070531662999905 ], [ -52.876687788, -28.065733292999894 ], [ -52.869277220999898, -28.06631943 ], [ -52.864951967, -28.071091851999892 ], [ -52.865945256, -28.076076691 ], [ -52.86824147, -28.078986046999905 ], [ -52.865226671999892, -28.082490952999901 ], [ -52.867918038, -28.085483811999897 ], [ -52.864757294999897, -28.092395447999898 ], [ -52.862903463999899, -28.092455032 ], [ -52.86180195299989, -28.089243902 ], [ -52.856973465, -28.091221283 ], [ -52.856332731999906, -28.088298130999895 ], [ -52.853690093, -28.088708935999897 ], [ -52.855547911, -28.094331441999906 ], [ -52.853316076999896, -28.099034236 ], [ -52.853748341, -28.094337574 ], [ -52.852292131, -28.093252312999905 ], [ -52.850478764999899, -28.097544302999896 ], [ -52.847066632999891, -28.089906094 ], [ -52.845178158, -28.095031956 ], [ -52.837133743, -28.097122768 ], [ -52.835398552999891, -28.096699701 ], [ -52.833062485, -28.093088297999902 ], [ -52.83169517999989, -28.093983484 ], [ -52.833356793, -28.097067584999902 ], [ -52.827170195999891, -28.101108187 ], [ -52.829099863, -28.103644623 ], [ -52.823525070999892, -28.105170249 ], [ -52.823715144999902, -28.109541946 ], [ -52.819953521999892, -28.109192456 ], [ -52.821185936999903, -28.106123683 ], [ -52.819116584, -28.104495793 ], [ -52.817163729, -28.104931123 ], [ -52.818147821, -28.106509962 ], [ -52.816270076, -28.108363181999902 ], [ -52.818023659999902, -28.1111836319999 ], [ -52.815684526, -28.112589258999897 ], [ -52.817925557, -28.113925907 ], [ -52.811725549, -28.118358153 ], [ -52.811198246999894, -28.1216997729999 ], [ -52.806973703, -28.121301231 ], [ -52.805765815, -28.123395108999897 ], [ -52.807939400999892, -28.131439524 ], [ -52.814058551, -28.140452701999898 ], [ -52.818326015, -28.151452457999898 ], [ -52.820944128999891, -28.152660345999902 ], [ -52.823789104999896, -28.159208696 ], [ -52.827425032999898, -28.163191049 ], [ -52.822651728, -28.167115153999895 ], [ -52.823136109, -28.169334725999899 ], [ -52.821254525, -28.173555313 ], [ -52.822522968, -28.183461502999894 ], [ -52.825134949999892, -28.1894335 ], [ -52.824981664999896, -28.195699804 ], [ -52.8275708789999, -28.198375034 ], [ -52.827427039, -28.2002612809999 ], [ -52.832525480999905, -28.2087507009999 ], [ -52.833433038, -28.218037936 ], [ -52.83749256, -28.223137639 ], [ -52.840262464, -28.240215190999905 ], [ -52.843544736999895, -28.243505464999902 ], [ -52.847353515, -28.244760151 ], [ -52.847810066, -28.246842747 ], [ -52.850548687, -28.248413129 ], [ -52.852877618, -28.247898565 ], [ -52.855500041, -28.250816716 ], [ -52.857972589, -28.24772919 ], [ -52.860588833999891, -28.247694176 ], [ -52.862797917, -28.245695165 ], [ -52.866231172, -28.24683433 ], [ -52.867345911, -28.251759859999897 ], [ -52.863250337, -28.252999826 ], [ -52.864346336, -28.256801032999892 ], [ -52.8634138319999, -28.2595875059999 ], [ -52.86537878, -28.259681422999989 ], [ -52.868589891999903, -28.253430276 ], [ -52.86998719, -28.253128757 ], [ -52.868962888999896, -28.256036315999907 ], [ -52.870842557999893, -28.256576956999908 ], [ -52.873033419, -28.252302030999896 ], [ -52.876414613, -28.250445634 ], [ -52.876013654, -28.249569977 ], [ -52.879688410999989, -28.248815608 ], [ -52.882446686, -28.245776282999891 ], [ -52.880637215, -28.239756169 ], [ -52.882583532999895, -28.234445263999898 ], [ -52.88094239, -28.230915925 ], [ -52.882227338, -28.223131512999899 ], [ -52.873931335999892, -28.217513848 ], [ -52.8730843, -28.214180836 ], [ -52.8772130629999, -28.209605457999903 ], [ -52.877216573999902, -28.207141054 ], [ -52.881529709999896, -28.209962283 ], [ -52.887195256, -28.2040332619999 ], [ -52.892657372, -28.2017294 ], [ -52.893899076, -28.193993670999905 ], [ -52.898531845, -28.190513277 ], [ -52.903230095, -28.188901928 ], [ -52.904497083, -28.177617434 ], [ -52.906710597, -28.176872839999898 ], [ -52.908748229, -28.179139593999896 ], [ -52.912235922, -28.178256142 ], [ -52.914422515, -28.181244599 ], [ -52.913714018, -28.184399137 ], [ -52.916186204, -28.185713622 ], [ -52.918184024, -28.182668871 ], [ -52.921863637999891, -28.180745972999905 ], [ -52.922080644999895, -28.182244136 ], [ -52.92862339899991, -28.186415478 ], [ -52.928926863999898, -28.187995483 ], [ -52.931741106999894, -28.184783169 ], [ -52.934860790999892, -28.184059735999902 ], [ -52.935594922, -28.186999487 ], [ -52.938314461999902, -28.188786143999902 ], [ -52.940267691, -28.185814901999905 ], [ -52.940428987, -28.182448425 ], [ -52.941552735, -28.180901042999892 ], [ -52.945364108, -28.18037112 ], [ -52.945200244, -28.177996350999898 ], [ -52.948161287999902, -28.173612826999889 ], [ -52.956970603999892, -28.175722443 ], [ -52.9600538, -28.171982514 ], [ -52.963511213999901, -28.177648897 ], [ -52.967081473999897, -28.17607255 ], [ -52.968628973, -28.171867032 ], [ -52.978159048999899, -28.173612165999899 ], [ -52.982945588999897, -28.1690471379999 ], [ -52.983666107, -28.166290647 ], [ -52.982270136999894, -28.164562365999895 ], [ -52.977784485, -28.1642727239999 ], [ -52.975270071999901, -28.16196128 ], [ -52.976727423999897, -28.158826871 ], [ -52.974617791999897, -28.155830009999899 ], [ -52.974974678, -28.151605558 ], [ -52.977439177999891, -28.151215243 ], [ -52.979484834999901, -28.149039785 ], [ -52.977300570999894, -28.144908255 ], [ -52.979446157, -28.142595491999906 ], [ -52.975227742, -28.138604859999894 ], [ -52.978836703999903, -28.133326445 ], [ -52.977763329, -28.132302489 ], [ -52.971359155999899, -28.135428768999901 ] ] ] } }
]
}
