{
"type": "FeatureCollection",
"name": "bairros_maximiliano_de_almeida",
"crs": { "type": "name", "properties": { "name": "urn:ogc:def:crs:OGC:1.3:CRS84" } },
"features": [
{ "type": "Feature", "properties": { "code_muni": 4312203.0, "name_muni": "Maximiliano de Almeida", "code_state": 43.0, "abbrev_state": "RS", "name_state": "Rio Grande do Sul", "code_region": 4.0, "name_region": "Sul", "year": 2022.0 }, "geometry": { "type": "Polygon", "coordinates": [ [ [ -51.757351449999902, -27.562576667 ], [ -51.736663462, -27.570634670999901 ], [ -51.73695328, -27.573440159 ], [ -51.75099905, -27.578285626 ], [ -51.7608842, -27.578325291999896 ], [ -51.762621657, -27.579057760999898 ], [ -51.762595591, -27.581140123 ], [ -51.758277516, -27.584175296999906 ], [ -51.74383783, -27.601631975 ], [ -51.743386729999898, -27.603968089 ], [ -51.747484191, -27.608063027 ], [ -51.759147551999902, -27.609872670999902 ], [ -51.762747829, -27.611149360999899 ], [ -51.763500215, -27.613164878 ], [ -51.762887329, -27.614554945 ], [ -51.7607653909999, -27.614864408 ], [ -51.75200111, -27.613809933 ], [ -51.750747941, -27.615882321999894 ], [ -51.752327478, -27.619063168 ], [ -51.752265513999895, -27.624278541 ], [ -51.757295825, -27.627800213999901 ], [ -51.756022610999899, -27.629857888999904 ], [ -51.752675176, -27.629968794 ], [ -51.74054448, -27.625652337 ], [ -51.737901619, -27.628562482999904 ], [ -51.739620577, -27.635894994 ], [ -51.737032923, -27.642115487999895 ], [ -51.745781668999904, -27.643832823 ], [ -51.752971666, -27.647691925999897 ], [ -51.752664663, -27.652940295 ], [ -51.750480707999891, -27.655398965 ], [ -51.745581985999891, -27.651047494 ], [ -51.7276615, -27.652587071 ], [ -51.723938496, -27.655917573 ], [ -51.726132984999893, -27.658513458999899 ], [ -51.746503828, -27.659127375 ], [ -51.755696085, -27.663668346999899 ], [ -51.754648410999899, -27.667164737 ], [ -51.757006953, -27.669814244 ], [ -51.7665088259999, -27.667570967 ], [ -51.842910225, -27.676637419 ], [ -51.84344155, -27.675755367 ], [ -51.892773007, -27.679053328999903 ], [ -51.888028495, -27.664342487999903 ], [ -51.892666516, -27.655812782999895 ], [ -51.899347207999895, -27.648546054999905 ], [ -51.897410822, -27.647355758999897 ], [ -51.891086297999898, -27.648789654 ], [ -51.876134025999903, -27.660460575999899 ], [ -51.870970666999895, -27.66076658 ], [ -51.871191314, -27.657279011 ], [ -51.878064692, -27.650820963999898 ], [ -51.880714602999902, -27.643227338 ], [ -51.889962638, -27.638158879999899 ], [ -51.891215316999897, -27.634984614 ], [ -51.887768599, -27.6318778 ], [ -51.868865907, -27.631568953999903 ], [ -51.868499002, -27.627911787 ], [ -51.872648367, -27.622267214 ], [ -51.884196516, -27.6256045559999 ], [ -51.886643165, -27.624418632 ], [ -51.8923210519999, -27.616362007 ], [ -51.893539065, -27.610480063 ], [ -51.899412217, -27.6051836789999 ], [ -51.900048846999894, -27.603782467 ], [ -51.898713868999891, -27.602014058999895 ], [ -51.888150720999903, -27.598660503 ], [ -51.88269571, -27.592737466 ], [ -51.884945503, -27.587519899 ], [ -51.891665105, -27.578965764999989 ], [ -51.882117262, -27.568067898 ], [ -51.878859849, -27.561867916 ], [ -51.847774165, -27.5635117469999 ], [ -51.849746156, -27.559711218 ], [ -51.856040703, -27.555673383999896 ], [ -51.856698573, -27.551104655999897 ], [ -51.852191665, -27.547756116999899 ], [ -51.840385365, -27.54450897 ], [ -51.840270276, -27.541282323 ], [ -51.844185099, -27.539244869 ], [ -51.855813892, -27.538522563999898 ], [ -51.861495056, -27.53685551 ], [ -51.862298263, -27.533179305 ], [ -51.855563323999903, -27.530465067 ], [ -51.852414387, -27.530840461 ], [ -51.846825509, -27.533599174 ], [ -51.828149399, -27.538482124999987 ], [ -51.827993305999897, -27.533857558 ], [ -51.832659924, -27.526011183 ], [ -51.837070836999899, -27.522232975 ], [ -51.831491141, -27.515448826999901 ], [ -51.825286917, -27.512695951999891 ], [ -51.818255717999889, -27.514023204 ], [ -51.808133461999901, -27.524518863 ], [ -51.802251438, -27.528370638 ], [ -51.797050515, -27.53056185 ], [ -51.790575133999901, -27.530951876 ], [ -51.785329334, -27.527256055999896 ], [ -51.785235147, -27.521009076999988 ], [ -51.788004875, -27.514809876999895 ], [ -51.779796082, -27.514243133 ], [ -51.777333870999897, -27.515313341 ], [ -51.775833871, -27.518066754999904 ], [ -51.77724074199989, -27.527189904 ], [ -51.774462881, -27.530292706 ], [ -51.771325888, -27.529759898 ], [ -51.77141669, -27.525660694999903 ], [ -51.769574647, -27.524028260999987 ], [ -51.763546628, -27.526886565 ], [ -51.750352876, -27.526972432 ], [ -51.741035785, -27.529182975 ], [ -51.737272018999896, -27.536519309 ], [ -51.738699577, -27.537760255 ], [ -51.747376448, -27.537837 ], [ -51.755783682, -27.535537419 ], [ -51.767622059, -27.539589516 ], [ -51.767122087, -27.543232921 ], [ -51.761450654, -27.544778938 ], [ -51.749843067, -27.542949925999899 ], [ -51.747711815999899, -27.544129555 ], [ -51.745861544, -27.546820087 ], [ -51.745766073, -27.549659917999989 ], [ -51.74723066, -27.550835538999898 ], [ -51.756534491, -27.548465689999908 ], [ -51.768571391, -27.553084733999988 ], [ -51.768387122, -27.554534950999898 ], [ -51.757351449999902, -27.562576667 ] ] ] } }
]
}
