{
"type": "FeatureCollection",
"name": "bairros_taquara",
"crs": { "type": "name", "properties": { "name": "urn:ogc:def:crs:OGC:1.3:CRS84" } },
"features": [
{ "type": "Feature", "properties": { "name": "Lajeadinho", "code_muni": 4321204.0, "name_muni": "Taquara" }, "geometry": { "type": "MultiPolygon", "coordinates": [ [ [ [ -50.751605288267385, -29.583000006354407 ], [ -50.751477956, -29.58279923 ], [ -50.749226234704302, -29.583000019804636 ], [ -50.751605288267385, -29.583000006354407 ] ] ], [ [ [ -50.7527308, -29.5851448 ], [ -50.7529762, -29.5860673 ], [ -50.753113, -29.5864638 ], [ -50.7532203, -29.5866901 ], [ -50.7534349, -29.5869886 ], [ -50.7544072, -29.5881188 ], [ -50.7545647, -29.5883199 ], [ -50.7547011, -29.5884918 ], [ -50.7551297, -29.5889933 ], [ -50.7553231, -29.5893182 ], [ -50.7554412, -29.5896079 ], [ -50.7555163, -29.5898692 ], [ -50.7555404, -29.5901024 ], [ -50.7555364, -29.5905444 ], [ -50.7555283, -29.591566 ], [ -50.7554814, -29.5918937 ], [ -50.7553902, -29.5921223 ], [ -50.7548605, -29.593215 ], [ -50.754662, -29.5937292 ], [ -50.755570362088235, -29.593754920464313 ], [ -50.756669815999892, -29.590984964 ], [ -50.752584299453183, -29.584543671617048 ], [ -50.7527308, -29.5851448 ] ] ] ] } },
{ "type": "Feature", "properties": { "name": "Centro", "code_muni": 4321204.0, "name_muni": "Taquara" }, "geometry": { "type": "Polygon", "coordinates": [ [ [ -50.784269, -29.6437106 ], [ -50.7826941, -29.6438291 ], [ -50.7823869, -29.6441459 ], [ -50.7821842, -29.6445317 ], [ -50.7821417, -29.644549 ], [ -50.7808204, -29.644535 ], [ -50.780097, -29.6445409 ], [ -50.7794686, -29.6445992 ], [ -50.7780958, -29.644733 ], [ -50.777124, -29.6448159 ], [ -50.7764728, -29.6448698 ], [ -50.7758965, -29.6449256 ], [ -50.7758459, -29.6449312 ], [ -50.775787, -29.644937699999986 ], [ -50.7758002, -29.6465877 ], [ -50.7757962, -29.6481563 ], [ -50.7758182, -29.648789 ], [ -50.7758279, -29.6491306 ], [ -50.7758488, -29.6494647 ], [ -50.7758673, -29.6497846 ], [ -50.7759245, -29.6501657 ], [ -50.7759647, -29.6503617 ], [ -50.7760679, -29.6507845 ], [ -50.7761834, -29.651166 ], [ -50.7762987, -29.651486 ], [ -50.7763627, -29.6516482 ], [ -50.776946, -29.6529396 ], [ -50.7770561, -29.6529125 ], [ -50.7778443, -29.6528225 ], [ -50.7790894, -29.6526839 ], [ -50.779752, -29.6526158 ], [ -50.7799147, -29.6525991 ], [ -50.7807118, -29.6525147 ], [ -50.7815543, -29.6524391 ], [ -50.7815923, -29.6526932 ], [ -50.7824492, -29.6529655 ], [ -50.782964, -29.6531339 ], [ -50.7833621, -29.6532668 ], [ -50.7842446, -29.6535359 ], [ -50.7842831, -29.6537802 ], [ -50.7843587, -29.654338 ], [ -50.7857533, -29.65416 ], [ -50.785662, -29.6535936 ], [ -50.7855074, -29.652513699999986 ], [ -50.7853927, -29.6515977 ], [ -50.785256, -29.6506903 ], [ -50.7851739, -29.6500507 ], [ -50.7850856, -29.6494074 ], [ -50.7848857, -29.6481093 ], [ -50.7848065, -29.6475418 ], [ -50.7847095, -29.646806 ], [ -50.7845708, -29.6458597 ], [ -50.784269, -29.6437106 ] ] ] } },
{ "type": "Feature", "properties": { "name": "Morro do Leôncio", "code_muni": 4321204.0, "name_muni": "Taquara" }, "geometry": { "type": "Polygon", "coordinates": [ [ [ -50.7833621, -29.6532668 ], [ -50.782964, -29.6531339 ], [ -50.7824492, -29.6529655 ], [ -50.7815923, -29.6526932 ], [ -50.7815543, -29.6524391 ], [ -50.7807118, -29.6525147 ], [ -50.7799147, -29.6525991 ], [ -50.779752, -29.6526158 ], [ -50.7790894, -29.6526839 ], [ -50.7778443, -29.6528225 ], [ -50.7770561, -29.6529125 ], [ -50.776946, -29.6529396 ], [ -50.7772266, -29.6535557 ], [ -50.77751640000001, -29.6541961 ], [ -50.7777581, -29.6547112 ], [ -50.7780847, -29.6554426 ], [ -50.7782486, -29.6558179 ], [ -50.7787337, -29.6568691 ], [ -50.7789976, -29.6574485 ], [ -50.7792592, -29.6580059 ], [ -50.779548, -29.6586585 ], [ -50.7797922, -29.6592117 ], [ -50.779915, -29.659449 ], [ -50.7799029, -29.6594665 ], [ -50.7799163, -29.6594939 ], [ -50.7800262, -29.6596915 ], [ -50.78019, -29.6599542 ], [ -50.780231, -29.6600166 ], [ -50.7802355, -29.6600527 ], [ -50.7802288, -29.6601422 ], [ -50.780713, -29.66005 ], [ -50.7825208, -29.6599987 ], [ -50.7828936, -29.6599451 ], [ -50.7832852, -29.6598717 ], [ -50.7837895, -29.6597389 ], [ -50.7842347, -29.659592 ], [ -50.7845941, -29.659445 ], [ -50.7846326, -29.6590992 ], [ -50.784791, -29.65769 ], [ -50.7847971, -29.6574356 ], [ -50.784785, -29.6572721 ], [ -50.7846295, -29.65629190000001 ], [ -50.7844715, -29.6550642 ], [ -50.7843587, -29.654338 ], [ -50.7842831, -29.6537802 ], [ -50.7842446, -29.6535359 ], [ -50.7833621, -29.6532668 ] ] ] } },
{ "type": "Feature", "properties": { "name": "Recreio", "code_muni": 4321204.0, "name_muni": "Taquara" }, "geometry": { "type": "Polygon", "coordinates": [ [ [ -50.7948316, -29.6532454 ], [ -50.794769, -29.6532129 ], [ -50.7946869, -29.6532118 ], [ -50.7892826, -29.6537744 ], [ -50.7857533, -29.65416 ], [ -50.7843587, -29.654338 ], [ -50.7844715, -29.6550642 ], [ -50.7846295, -29.65629190000001 ], [ -50.784785, -29.6572721 ], [ -50.7847971, -29.6574356 ], [ -50.784791, -29.65769 ], [ -50.7846326, -29.6590992 ], [ -50.7845941, -29.659445 ], [ -50.7862759, -29.6587576 ], [ -50.7885369, -29.6578357 ], [ -50.7898123, -29.6573109 ], [ -50.7912019, -29.6567378 ], [ -50.7916438, -29.6565382 ], [ -50.7919969, -29.65635 ], [ -50.7924665, -29.6560578 ], [ -50.7928867, -29.6557607 ], [ -50.7932885, -29.6554315 ], [ -50.7936241, -29.6551206 ], [ -50.7939532, -29.6547765 ], [ -50.7942919, -29.654364499999986 ], [ -50.7945515, -29.6539904 ], [ -50.7949876, -29.6533319 ], [ -50.7949368, -29.6532986 ], [ -50.7948316, -29.6532454 ] ] ] } },
{ "type": "Feature", "properties": { "name": "Santa Terezinha", "code_muni": 4321204.0, "name_muni": "Taquara" }, "geometry": { "type": "Polygon", "coordinates": [ [ [ -50.7729788, -29.6560161 ], [ -50.7720275, -29.6561205 ], [ -50.7719544, -29.6561279 ], [ -50.7709502, -29.656224 ], [ -50.7706627, -29.6562599 ], [ -50.7698228, -29.6563584 ], [ -50.7689254, -29.6564764 ], [ -50.7680512, -29.6565661 ], [ -50.7681344, -29.6571448 ], [ -50.7681898, -29.657568700000013 ], [ -50.7682693, -29.65820170000001 ], [ -50.7683247, -29.6585895 ], [ -50.7683421, -29.6587033 ], [ -50.7685073, -29.659856099999988 ], [ -50.7685805, -29.6603557 ], [ -50.7687446, -29.6614749 ], [ -50.768767, -29.6616054 ], [ -50.7688831, -29.6623079 ], [ -50.7689965, -29.6630026 ], [ -50.7690976, -29.6636412 ], [ -50.7692491, -29.6646288 ], [ -50.7693092, -29.6646424 ], [ -50.7693625, -29.6646702 ], [ -50.7694814, -29.6647465 ], [ -50.7695461, -29.6647986 ], [ -50.7695831, -29.6648681 ], [ -50.7695868, -29.6649446 ], [ -50.7695566, -29.6650166 ], [ -50.7695091, -29.6650953 ], [ -50.7704744, -29.6649313 ], [ -50.7707428, -29.6649027 ], [ -50.77138570000001, -29.6648309 ], [ -50.7715274, -29.6648163 ], [ -50.7718306, -29.664790899999989 ], [ -50.7724452, -29.66474 ], [ -50.7741129, -29.6645953 ], [ -50.7743254, -29.6645781 ], [ -50.7763917, -29.6643683 ], [ -50.7766724, -29.66434 ], [ -50.7780746, -29.6641696 ], [ -50.7786747, -29.6641098 ], [ -50.7797501, -29.6640027 ], [ -50.7802364, -29.663957799999988 ], [ -50.7807129, -29.6638707 ], [ -50.7805183, -29.6622688 ], [ -50.7803709, -29.661237 ], [ -50.7803214, -29.660895599999989 ], [ -50.7802443, -29.6603868 ], [ -50.7802288, -29.6601422 ], [ -50.7802355, -29.6600527 ], [ -50.780231, -29.6600166 ], [ -50.78019, -29.6599542 ], [ -50.7800262, -29.6596915 ], [ -50.7799163, -29.6594939 ], [ -50.7799029, -29.6594665 ], [ -50.779915, -29.659449 ], [ -50.7797922, -29.6592117 ], [ -50.779548, -29.6586585 ], [ -50.7792592, -29.6580059 ], [ -50.7789976, -29.6574485 ], [ -50.7787337, -29.6568691 ], [ -50.7782486, -29.6558179 ], [ -50.7780847, -29.6554426 ], [ -50.7779982, -29.6554673 ], [ -50.7761086, -29.6556778 ], [ -50.7748145, -29.6558248 ], [ -50.7739556, -29.6559214 ], [ -50.7734248, -29.6559646 ], [ -50.7729788, -29.6560161 ] ] ] } },
{ "type": "Feature", "properties": { "name": "Petrópolis", "code_muni": 4321204.0, "name_muni": "Taquara" }, "geometry": { "type": "Polygon", "coordinates": [ [ [ -50.7748236, -29.6466727 ], [ -50.7730082, -29.6468041 ], [ -50.7712716, -29.6469379 ], [ -50.7709191, -29.6469612 ], [ -50.7705722, -29.646985499999989 ], [ -50.7698499, -29.6470435 ], [ -50.7696586, -29.6470536 ], [ -50.7688536, -29.6471135 ], [ -50.7679581, -29.6471812 ], [ -50.7677098, -29.6482179 ], [ -50.767568, -29.6486375 ], [ -50.7673319, -29.6498707 ], [ -50.7671376, -29.6505399 ], [ -50.7672304, -29.6513313 ], [ -50.7673156, -29.6518782 ], [ -50.7674106, -29.6524339 ], [ -50.7675508, -29.6531607 ], [ -50.7675999, -29.6534987 ], [ -50.7676769, -29.6540285 ], [ -50.7677733, -29.654626399999987 ], [ -50.767875, -29.6552962 ], [ -50.7679482, -29.6558534 ], [ -50.7680512, -29.6565661 ], [ -50.7689254, -29.6564764 ], [ -50.7698228, -29.6563584 ], [ -50.7706627, -29.6562599 ], [ -50.7709502, -29.656224 ], [ -50.7719544, -29.6561279 ], [ -50.7720275, -29.6561205 ], [ -50.7729788, -29.6560161 ], [ -50.7734248, -29.6559646 ], [ -50.7739556, -29.6559214 ], [ -50.7748145, -29.6558248 ], [ -50.7761086, -29.6556778 ], [ -50.7779982, -29.6554673 ], [ -50.7780847, -29.6554426 ], [ -50.7777581, -29.6547112 ], [ -50.77751640000001, -29.6541961 ], [ -50.7772266, -29.6535557 ], [ -50.776946, -29.6529396 ], [ -50.7763627, -29.6516482 ], [ -50.7762987, -29.651486 ], [ -50.7761834, -29.651166 ], [ -50.7760679, -29.6507845 ], [ -50.7759647, -29.6503617 ], [ -50.7759245, -29.6501657 ], [ -50.7758673, -29.6497846 ], [ -50.7758488, -29.6494647 ], [ -50.7758279, -29.6491306 ], [ -50.7758182, -29.648789 ], [ -50.7757962, -29.6481563 ], [ -50.7758002, -29.6465877 ], [ -50.775734, -29.6465923 ], [ -50.7756915, -29.6465953 ], [ -50.7748236, -29.6466727 ] ] ] } },
{ "type": "Feature", "properties": { "name": "Jardim do Prado", "code_muni": 4321204.0, "name_muni": "Taquara" }, "geometry": { "type": "Polygon", "coordinates": [ [ [ -50.7954734, -29.6525898 ], [ -50.7960186, -29.6517627 ], [ -50.7964042, -29.6511383 ], [ -50.7959989, -29.6508524 ], [ -50.7959265, -29.6504561 ], [ -50.7958728, -29.6496472 ], [ -50.795575, -29.6448615 ], [ -50.7950924, -29.6449172 ], [ -50.7943796, -29.6449868 ], [ -50.793506, -29.645072 ], [ -50.7920215, -29.6452131 ], [ -50.7904791, -29.6453643 ], [ -50.788277, -29.6455427 ], [ -50.7864223, -29.6457032 ], [ -50.7845708, -29.6458597 ], [ -50.7847095, -29.646806 ], [ -50.7848065, -29.6475418 ], [ -50.7848857, -29.6481093 ], [ -50.7850856, -29.6494074 ], [ -50.7851739, -29.6500507 ], [ -50.785256, -29.6506903 ], [ -50.7853927, -29.6515977 ], [ -50.7855074, -29.652513699999986 ], [ -50.785662, -29.6535936 ], [ -50.7857533, -29.65416 ], [ -50.7892826, -29.6537744 ], [ -50.7946869, -29.6532118 ], [ -50.794769, -29.6532129 ], [ -50.7948316, -29.6532454 ], [ -50.7949368, -29.6532986 ], [ -50.7949876, -29.6533319 ], [ -50.7954734, -29.6525898 ] ] ] } },
{ "type": "Feature", "properties": { "name": "Nossa Senhora de Fátima", "code_muni": 4321204.0, "name_muni": "Taquara" }, "geometry": { "type": "Polygon", "coordinates": [ [ [ -50.7857359, -29.6403242 ], [ -50.7840154, -29.6404665 ], [ -50.7823642, -29.6406113 ], [ -50.7822653, -29.6406379 ], [ -50.7821179, -29.6407398 ], [ -50.7824026, -29.6409131 ], [ -50.7826149, -29.6409958 ], [ -50.7830326, -29.6410919 ], [ -50.7832427, -29.6411497 ], [ -50.7833727, -29.6412187 ], [ -50.7834524, -29.641322 ], [ -50.7835004, -29.641605799999986 ], [ -50.7839766, -29.6415696 ], [ -50.7840976, -29.6425124 ], [ -50.7841908, -29.6431072 ], [ -50.784269, -29.6437106 ], [ -50.7845708, -29.6458597 ], [ -50.7864223, -29.6457032 ], [ -50.788277, -29.6455427 ], [ -50.7904791, -29.6453643 ], [ -50.7920215, -29.6452131 ], [ -50.793506, -29.645072 ], [ -50.7943796, -29.6449868 ], [ -50.7950924, -29.6449172 ], [ -50.795575, -29.6448615 ], [ -50.7954786, -29.643295 ], [ -50.7954544, -29.6428032 ], [ -50.7955241, -29.6418567 ], [ -50.7957521, -29.6404906 ], [ -50.7935382, -29.6407088 ], [ -50.793014, -29.6407656 ], [ -50.7925456, -29.6408095 ], [ -50.7918148, -29.6408649 ], [ -50.7917405, -29.6408678 ], [ -50.7910305, -29.6409087 ], [ -50.7909421, -29.6409147 ], [ -50.7901681, -29.6409851 ], [ -50.7892425, -29.64106940000001 ], [ -50.789182, -29.6404571 ], [ -50.7872982, -29.6406338 ], [ -50.7872471, -29.6401678 ], [ -50.7872435, -29.6401297 ], [ -50.7871418, -29.6401637 ], [ -50.7870269, -29.6401957 ], [ -50.786887, -29.6402159 ], [ -50.7866837, -29.6402337 ], [ -50.7865562, -29.6402423 ], [ -50.7864763, -29.6402464 ], [ -50.7857359, -29.6403242 ] ] ] } },
{ "type": "Feature", "properties": { "name": "Sagrada Família", "code_muni": 4321204.0, "name_muni": "Taquara" }, "geometry": { "type": "Polygon", "coordinates": [ [ [ -50.7760381, -29.640782200000011 ], [ -50.7756954, -29.6408164 ], [ -50.7757428, -29.6410687 ], [ -50.7757777, -29.6413018 ], [ -50.775775, -29.643635 ], [ -50.7757769, -29.6437646 ], [ -50.775787, -29.644937699999986 ], [ -50.7758459, -29.6449312 ], [ -50.7758965, -29.6449256 ], [ -50.7764728, -29.6448698 ], [ -50.777124, -29.6448159 ], [ -50.7780958, -29.644733 ], [ -50.7794686, -29.6445992 ], [ -50.780097, -29.6445409 ], [ -50.7808204, -29.644535 ], [ -50.7821417, -29.644549 ], [ -50.7821842, -29.6445317 ], [ -50.7823869, -29.6441459 ], [ -50.7826941, -29.6438291 ], [ -50.784269, -29.6437106 ], [ -50.7841908, -29.6431072 ], [ -50.7840976, -29.6425124 ], [ -50.7839766, -29.6415696 ], [ -50.7835004, -29.641605799999986 ], [ -50.7834524, -29.641322 ], [ -50.7833727, -29.6412187 ], [ -50.7832427, -29.6411497 ], [ -50.7830326, -29.6410919 ], [ -50.7826149, -29.6409958 ], [ -50.7824026, -29.6409131 ], [ -50.7821179, -29.6407398 ], [ -50.7797871, -29.6412758 ], [ -50.7793129, -29.6413531 ], [ -50.7784974, -29.6414102 ], [ -50.7776735, -29.6414677 ], [ -50.7772583, -29.641498800000011 ], [ -50.7767744, -29.6415351 ], [ -50.7766905, -29.6407334 ], [ -50.7760381, -29.640782200000011 ] ] ] } },
{ "type": "Feature", "properties": { "name": "Morro da Cruz", "code_muni": 4321204.0, "name_muni": "Taquara" }, "geometry": { "type": "Polygon", "coordinates": [ [ [ -50.7752029, -29.6390451 ], [ -50.77524050000001, -29.639148 ], [ -50.7754423, -29.6398067 ], [ -50.7756355, -29.6404976 ], [ -50.7756954, -29.6408164 ], [ -50.7760381, -29.640782200000011 ], [ -50.7766905, -29.6407334 ], [ -50.7767744, -29.6415351 ], [ -50.7772583, -29.641498800000011 ], [ -50.7776735, -29.6414677 ], [ -50.7784974, -29.6414102 ], [ -50.7793129, -29.6413531 ], [ -50.7797871, -29.6412758 ], [ -50.7821179, -29.6407398 ], [ -50.7812572, -29.6400618 ], [ -50.7808329, -29.6394115 ], [ -50.7806572, -29.6391612 ], [ -50.780315, -29.6386786 ], [ -50.7800666, -29.6383064 ], [ -50.7798351, -29.6380074 ], [ -50.779582, -29.6377834 ], [ -50.7795004, -29.6377308 ], [ -50.7794478, -29.637697 ], [ -50.7793259, -29.6376185 ], [ -50.7792005, -29.6375176 ], [ -50.7791127, -29.637421099999987 ], [ -50.7790635, -29.6372793 ], [ -50.7790698, -29.637162 ], [ -50.7790957, -29.636979399999987 ], [ -50.779134, -29.6368308 ], [ -50.7791575, -29.6366726 ], [ -50.779161, -29.6365438 ], [ -50.7791554, -29.6364331 ], [ -50.7791338, -29.6363292 ], [ -50.7790878, -29.6361856 ], [ -50.7790256, -29.6360416 ], [ -50.7788248, -29.6356952 ], [ -50.7787676, -29.6355262 ], [ -50.7787195, -29.6351802 ], [ -50.7787047, -29.6350354 ], [ -50.778648, -29.6349426 ], [ -50.7785888, -29.634885 ], [ -50.7785134, -29.6348229 ], [ -50.7783945, -29.6347722 ], [ -50.7780416, -29.6346539 ], [ -50.7777843, -29.634549 ], [ -50.7775922, -29.6344436 ], [ -50.7773407, -29.6342742 ], [ -50.7771451, -29.6340822 ], [ -50.7769456, -29.633867 ], [ -50.7768275, -29.6337289 ], [ -50.7766554, -29.6333482 ], [ -50.776591, -29.6331151 ], [ -50.7765075, -29.6326575 ], [ -50.7764914, -29.6324174 ], [ -50.7765148, -29.6318795 ], [ -50.7765454, -29.6316147 ], [ -50.7765923, -29.6313151 ], [ -50.7766445, -29.6310016 ], [ -50.776671, -29.6307975 ], [ -50.7766737, -29.6306 ], [ -50.7766241, -29.6302875 ], [ -50.7765717, -29.6300864 ], [ -50.7765472, -29.6300356 ], [ -50.77651680000001, -29.6299994 ], [ -50.7764636, -29.6299708 ], [ -50.7763414, -29.6299369 ], [ -50.7763918, -29.6301766 ], [ -50.7764059, -29.630426199999988 ], [ -50.7763922, -29.6306558 ], [ -50.776359, -29.6308276 ], [ -50.7762994, -29.6310356 ], [ -50.7758624, -29.632158 ], [ -50.7758097, -29.6323253 ], [ -50.7757662, -29.6324777 ], [ -50.7757531, -29.6326585 ], [ -50.7757337, -29.6338045 ], [ -50.7757347, -29.6339289 ], [ -50.7757416, -29.634772 ], [ -50.7757127, -29.6350638 ], [ -50.7756824, -29.6352689 ], [ -50.7755991, -29.6354819 ], [ -50.7754598, -29.6356813 ], [ -50.7750785, -29.6360631 ], [ -50.7748811, -29.6362693 ], [ -50.774753, -29.6364732 ], [ -50.7746853, -29.63662 ], [ -50.7746555, -29.636772 ], [ -50.7746285, -29.636929099999985 ], [ -50.774628, -29.637130699999986 ], [ -50.7746697, -29.637318400000012 ], [ -50.7750188, -29.6384538 ], [ -50.7752029, -29.6390451 ] ] ] } },
{ "type": "Feature", "properties": { "name": "Fogão Gaúcho", "code_muni": 4321204.0, "name_muni": "Taquara" }, "geometry": { "type": "Polygon", "coordinates": [ [ [ -50.7990426, -29.6328176 ], [ -50.7989709, -29.6327991 ], [ -50.7989143, -29.6327845 ], [ -50.7954381, -29.633062 ], [ -50.7917319, -29.6334222 ], [ -50.7880998, -29.6337741 ], [ -50.7849476, -29.6339619 ], [ -50.7836318, -29.6340939 ], [ -50.7782738, -29.634554 ], [ -50.7781517, -29.6345913 ], [ -50.7780416, -29.6346539 ], [ -50.7783945, -29.6347722 ], [ -50.7785134, -29.6348229 ], [ -50.7785888, -29.634885 ], [ -50.778648, -29.6349426 ], [ -50.7787047, -29.6350354 ], [ -50.7787195, -29.6351802 ], [ -50.7787676, -29.6355262 ], [ -50.7788248, -29.6356952 ], [ -50.7790256, -29.6360416 ], [ -50.7790878, -29.6361856 ], [ -50.7791338, -29.6363292 ], [ -50.7791554, -29.6364331 ], [ -50.779161, -29.6365438 ], [ -50.7791575, -29.6366726 ], [ -50.779134, -29.6368308 ], [ -50.7790957, -29.636979399999987 ], [ -50.7790698, -29.637162 ], [ -50.7790635, -29.6372793 ], [ -50.7791127, -29.637421099999987 ], [ -50.7792005, -29.6375176 ], [ -50.7793259, -29.6376185 ], [ -50.7794478, -29.637697 ], [ -50.7795004, -29.6377308 ], [ -50.779582, -29.6377834 ], [ -50.7798351, -29.6380074 ], [ -50.7800666, -29.6383064 ], [ -50.780315, -29.6386786 ], [ -50.7806572, -29.6391612 ], [ -50.7808329, -29.6394115 ], [ -50.7812572, -29.6400618 ], [ -50.7821179, -29.6407398 ], [ -50.7822653, -29.6406379 ], [ -50.7823642, -29.6406113 ], [ -50.7840154, -29.6404665 ], [ -50.7857359, -29.6403242 ], [ -50.7864763, -29.6402464 ], [ -50.7865562, -29.6402423 ], [ -50.7866837, -29.6402337 ], [ -50.786887, -29.6402159 ], [ -50.7870269, -29.6401957 ], [ -50.7871418, -29.6401637 ], [ -50.7872435, -29.6401297 ], [ -50.7872471, -29.6401678 ], [ -50.7872982, -29.6406338 ], [ -50.789182, -29.6404571 ], [ -50.7892425, -29.64106940000001 ], [ -50.7901681, -29.6409851 ], [ -50.7909421, -29.6409147 ], [ -50.7910305, -29.6409087 ], [ -50.7917405, -29.6408678 ], [ -50.7918148, -29.6408649 ], [ -50.7925456, -29.6408095 ], [ -50.793014, -29.6407656 ], [ -50.7935382, -29.6407088 ], [ -50.7957521, -29.6404906 ], [ -50.7958782, -29.6398926 ], [ -50.7960404, -29.6393518 ], [ -50.7962805, -29.638685 ], [ -50.7979354, -29.6353943 ], [ -50.7992008, -29.632875 ], [ -50.7990426, -29.6328176 ] ] ] } },
{ "type": "Feature", "properties": { "name": "Eldorado", "code_muni": 4321204.0, "name_muni": "Taquara" }, "geometry": { "type": "Polygon", "coordinates": [ [ [ -50.7917319, -29.6334222 ], [ -50.7954381, -29.633062 ], [ -50.7989143, -29.6327845 ], [ -50.7989709, -29.6327991 ], [ -50.7990426, -29.6328176 ], [ -50.7992008, -29.632875 ], [ -50.7998706, -29.6315663 ], [ -50.8005184, -29.6302093 ], [ -50.8006069, -29.6299773 ], [ -50.8010487, -29.6290523 ], [ -50.8012055, -29.6287454 ], [ -50.8013414, -29.6284777 ], [ -50.8009046, -29.6283511 ], [ -50.7876277, -29.629391 ], [ -50.7880998, -29.6337741 ], [ -50.7917319, -29.6334222 ] ] ] } },
{ "type": "Feature", "properties": { "name": "Santa Maria", "code_muni": 4321204.0, "name_muni": "Taquara" }, "geometry": { "type": "Polygon", "coordinates": [ [ [ -50.8035672, -29.6177934 ], [ -50.8035492, -29.6181729 ], [ -50.8035718, -29.6185369 ], [ -50.8035973, -29.6190409 ], [ -50.8036321, -29.619568599999987 ], [ -50.803674, -29.6199036 ], [ -50.8036492, -29.6200181 ], [ -50.8039087, -29.6220955 ], [ -50.803957, -29.6226236 ], [ -50.8039436, -29.6229046 ], [ -50.8039154, -29.6231435 ], [ -50.8038644, -29.6233785 ], [ -50.8037209, -29.623737 ], [ -50.8035994, -29.6239866 ], [ -50.8030903, -29.6249985 ], [ -50.8028573, -29.6254787 ], [ -50.8013414, -29.6284777 ], [ -50.8012055, -29.6287454 ], [ -50.8010487, -29.6290523 ], [ -50.8006069, -29.6299773 ], [ -50.8005184, -29.6302093 ], [ -50.7998706, -29.6315663 ], [ -50.7992008, -29.632875 ], [ -50.7979354, -29.6353943 ], [ -50.7962805, -29.638685 ], [ -50.7960404, -29.6393518 ], [ -50.7958782, -29.6398926 ], [ -50.7957521, -29.6404906 ], [ -50.7955241, -29.6418567 ], [ -50.7954544, -29.6428032 ], [ -50.7954786, -29.643295 ], [ -50.795575, -29.6448615 ], [ -50.7958728, -29.6496472 ], [ -50.7959265, -29.6504561 ], [ -50.7959989, -29.6508524 ], [ -50.7964042, -29.6511383 ], [ -50.796546, -29.6509235 ], [ -50.7975009, -29.649512 ], [ -50.7978925, -29.6489642 ], [ -50.7986811, -29.6480458 ], [ -50.7996038, -29.6473581 ], [ -50.8010843, -29.6465166 ], [ -50.8019947, -29.6459818 ], [ -50.802440696083444, -29.645708781767485 ], [ -50.801253244899712, -29.644122192137488 ], [ -50.8011629, -29.6440741 ], [ -50.8009212, -29.6438164 ], [ -50.8006718, -29.6434478 ], [ -50.8006777, -29.6432795 ], [ -50.8008008, -29.6431511 ], [ -50.8011345, -29.6430233 ], [ -50.801160583061126, -29.643007442787347 ], [ -50.802683849215029, -29.641269661388183 ], [ -50.802719082280454, -29.641141186860537 ], [ -50.803393531237653, -29.636722223031711 ], [ -50.8033723, -29.6366836 ], [ -50.803347, -29.6362373 ], [ -50.803526335593986, -29.635852046819462 ], [ -50.803541326344991, -29.635753821696003 ], [ -50.80356, -29.6352615 ], [ -50.8036678, -29.634941 ], [ -50.803882831811514, -29.634676030212127 ], [ -50.809143441913655, -29.626108029340948 ], [ -50.8091605, -29.6260243 ], [ -50.80928, -29.6258156 ], [ -50.8094072, -29.6256932 ], [ -50.8096181, -29.6254753 ], [ -50.8098364, -29.625474 ], [ -50.8100993, -29.6255673 ], [ -50.810325, -29.6257494 ], [ -50.810407026006416, -29.6259367001621 ], [ -50.810993305999894, -29.625977995999989 ], [ -50.809253072394114, -29.624594235589441 ], [ -50.8088498, -29.6244279 ], [ -50.8086577, -29.6241556 ], [ -50.808510680092525, -29.623557435649847 ], [ -50.80831902672692, -29.622925496305079 ], [ -50.808034, -29.6222611 ], [ -50.8077876, -29.6220263 ], [ -50.8070523, -29.6207968 ], [ -50.8068704, -29.6202822 ], [ -50.807000450899693, -29.618577530707984 ], [ -50.806754241, -29.617765618 ], [ -50.803559688564611, -29.61706778213799 ], [ -50.8035672, -29.6177934 ] ] ] } },
{ "type": "Feature", "properties": { "name": "Ronda", "code_muni": 4321204.0, "name_muni": "Taquara" }, "geometry": { "type": "Polygon", "coordinates": [ [ [ -50.8011294, -29.6601559 ], [ -50.8011906, -29.6600265 ], [ -50.801215253347372, -29.659993463802589 ], [ -50.802295487, -29.656632953999988 ], [ -50.80230624071887, -29.656623278498451 ], [ -50.8023048, -29.6566144 ], [ -50.8024013, -29.6563907 ], [ -50.8025788, -29.6562267 ], [ -50.802880561947475, -29.656106537367545 ], [ -50.80726829, -29.652158454 ], [ -50.802440696083444, -29.645708781767485 ], [ -50.8019947, -29.6459818 ], [ -50.8010843, -29.6465166 ], [ -50.7996038, -29.6473581 ], [ -50.7986811, -29.6480458 ], [ -50.7978925, -29.6489642 ], [ -50.7975009, -29.649512 ], [ -50.796546, -29.6509235 ], [ -50.7964042, -29.6511383 ], [ -50.7960186, -29.6517627 ], [ -50.7954734, -29.6525898 ], [ -50.7949876, -29.6533319 ], [ -50.7945515, -29.6539904 ], [ -50.7942919, -29.654364499999986 ], [ -50.7939532, -29.6547765 ], [ -50.7936241, -29.6551206 ], [ -50.7932885, -29.6554315 ], [ -50.7928867, -29.6557607 ], [ -50.7924665, -29.6560578 ], [ -50.7919969, -29.65635 ], [ -50.7916438, -29.6565382 ], [ -50.7912019, -29.6567378 ], [ -50.7898123, -29.6573109 ], [ -50.7885369, -29.6578357 ], [ -50.7862759, -29.6587576 ], [ -50.7845941, -29.659445 ], [ -50.7842347, -29.659592 ], [ -50.7837895, -29.6597389 ], [ -50.7832852, -29.6598717 ], [ -50.7828936, -29.6599451 ], [ -50.7825208, -29.6599987 ], [ -50.780713, -29.66005 ], [ -50.7802288, -29.6601422 ], [ -50.7802443, -29.6603868 ], [ -50.7803214, -29.660895599999989 ], [ -50.7803709, -29.661237 ], [ -50.7805183, -29.6622688 ], [ -50.7807996, -29.6622522 ], [ -50.7827999, -29.6620108 ], [ -50.7837364, -29.6618948 ], [ -50.7846657, -29.6617747 ], [ -50.7856477, -29.6616386 ], [ -50.7865435, -29.6615267 ], [ -50.7874796, -29.6614125 ], [ -50.7901766, -29.6611143 ], [ -50.7918704, -29.6609323 ], [ -50.7935267, -29.660761 ], [ -50.7967101, -29.6604322 ], [ -50.7968445, -29.6604359 ], [ -50.7969532, -29.660479 ], [ -50.797102, -29.6605477 ], [ -50.797253, -29.6605862 ], [ -50.797491, -29.6605816 ], [ -50.797908, -29.6605408 ], [ -50.7986926, -29.6604662 ], [ -50.8001833, -29.6602869 ], [ -50.8011294, -29.6601559 ] ] ] } },
{ "type": "Feature", "properties": { "name": "Cruzeiro do Sul", "code_muni": 4321204.0, "name_muni": "Taquara" }, "geometry": { "type": "Polygon", "coordinates": [ [ [ -50.7816678, -29.6681258 ], [ -50.7818797, -29.6681375 ], [ -50.7820433, -29.6682167 ], [ -50.7821882, -29.6683706 ], [ -50.7823652, -29.6684871 ], [ -50.7825261, -29.6684778 ], [ -50.7826334, -29.6684311 ], [ -50.7829553, -29.668342599999988 ], [ -50.783186, -29.6683333 ], [ -50.7833469, -29.6683799 ], [ -50.7835186, -29.6685104 ], [ -50.7836366, -29.6685617 ], [ -50.7839906, -29.66862230000001 ], [ -50.7845753, -29.6686269 ], [ -50.7846826, -29.6686456 ], [ -50.7847953, -29.6686735 ], [ -50.7848918, -29.668724799999989 ], [ -50.7851172, -29.6689439 ], [ -50.78544440000001, -29.669549799999988 ], [ -50.7856482, -29.669792199999986 ], [ -50.7857394, -29.669969300000016 ], [ -50.7857394, -29.6702956 ], [ -50.7856911, -29.6703795 ], [ -50.7856643, -29.67051 ], [ -50.7856268, -29.6707477 ], [ -50.7856268, -29.6709015 ], [ -50.785659, -29.671008699999987 ], [ -50.7857126, -29.6710926 ], [ -50.7859594, -29.6712884 ], [ -50.7859218, -29.6714748 ], [ -50.7858253, -29.6716426 ], [ -50.7857287, -29.6719083 ], [ -50.7857341, -29.6721087 ], [ -50.7858199, -29.672407 ], [ -50.7858843, -29.672980299999988 ], [ -50.7860345, -29.6734464 ], [ -50.7860452, -29.6736515 ], [ -50.7860023, -29.6737447 ], [ -50.7858574, -29.6738939 ], [ -50.7858682, -29.6739964 ], [ -50.7860613, -29.6743413 ], [ -50.7861632, -29.6743833 ], [ -50.7863832, -29.67436 ], [ -50.7865495, -29.674607 ], [ -50.7867587, -29.6748447 ], [ -50.786705, -29.6749239 ], [ -50.7862705, -29.6752129 ], [ -50.7862544, -29.6753061 ], [ -50.7862866, -29.6753947 ], [ -50.7864529, -29.6755345 ], [ -50.7865548, -29.6755718 ], [ -50.7867801, -29.6755858 ], [ -50.7869494, -29.6756516 ], [ -50.7871216, -29.6753261 ], [ -50.7873929, -29.6752738 ], [ -50.7876943, -29.675386 ], [ -50.787944, -29.6756329 ], [ -50.7880559, -29.6758611 ], [ -50.7879741, -29.6763212 ], [ -50.7879224, -29.6770544 ], [ -50.7880688, -29.6775631 ], [ -50.7883013, -29.678012 ], [ -50.7882841, -29.6786928 ], [ -50.7881119, -29.6792277 ], [ -50.7878406, -29.679792500000012 ], [ -50.7876168, -29.6806117 ], [ -50.7875737, -29.6812513 ], [ -50.7877416, -29.6814196 ], [ -50.7881205, -29.6814683 ], [ -50.7884735, -29.6813523 ], [ -50.7890849, -29.68127 ], [ -50.7895025, -29.6813074 ], [ -50.789847, -29.6814832 ], [ -50.7907339, -29.6820929 ], [ -50.7911257, -29.6825642 ], [ -50.7912118, -29.6830879 ], [ -50.7911085, -29.6834096 ], [ -50.7905014, -29.684109 ], [ -50.789791, -29.6849506 ], [ -50.7896016, -29.6854892 ], [ -50.7895413, -29.6861475 ], [ -50.7899029, -29.6869816 ], [ -50.7904583, -29.6876175 ], [ -50.7906521, -29.6880775 ], [ -50.7913323, -29.6885675 ], [ -50.7917198, -29.6886161 ], [ -50.7922838, -29.6883618 ], [ -50.7925206, -29.6880775 ], [ -50.7925508, -29.6869405 ], [ -50.7924431, -29.6863233 ], [ -50.7925077, -29.6856052 ], [ -50.7926455, -29.6851975 ], [ -50.7928522, -29.684834699999989 ], [ -50.7930976, -29.6846252 ], [ -50.7934678, -29.6844943 ], [ -50.7938898, -29.6845541 ], [ -50.794471, -29.6846925 ], [ -50.7954785, -29.685089 ], [ -50.7965634, -29.6855603 ], [ -50.7975537, -29.6858595 ], [ -50.7982512, -29.6858745 ], [ -50.7991122, -29.6855453 ], [ -50.7998958, -29.685306 ], [ -50.8006191, -29.6855005 ], [ -50.8010239, -29.6857473 ], [ -50.8017386, -29.6860615 ], [ -50.8023241, -29.6865104 ], [ -50.8036846, -29.687206100000012 ], [ -50.8040377, -29.6872285 ], [ -50.804528500000011, -29.6873332 ], [ -50.8054498, -29.6872659 ], [ -50.80595790000001, -29.6869368 ], [ -50.8069878, -29.6864251 ], [ -50.8083744, -29.685849 ], [ -50.8095199, -29.6856714 ], [ -50.8102119, -29.6856946 ], [ -50.8107216, -29.6857542 ], [ -50.810503781954317, -29.685157634884103 ], [ -50.808954236, -29.683551117999986 ], [ -50.808720092255065, -29.683577692498972 ], [ -50.8086183, -29.6835982 ], [ -50.8075833, -29.6839563 ], [ -50.8071055, -29.6839107 ], [ -50.8066132, -29.6839642 ], [ -50.8063603, -29.6838911 ], [ -50.806289459925935, -29.683853535506497 ], [ -50.806178798, -29.683866092999907 ], [ -50.806125037661978, -29.683766346762976 ], [ -50.8059986, -29.6836993 ], [ -50.8056384, -29.6830804 ], [ -50.805459212372149, -29.68253096496974 ], [ -50.803298997999896, -29.678522641 ], [ -50.802219956349376, -29.67856830493611 ], [ -50.8018354, -29.6787664 ], [ -50.8013231, -29.678895 ], [ -50.8006877, -29.6789239 ], [ -50.8000302, -29.678815699999987 ], [ -50.799717282864989, -29.678674181520613 ], [ -50.799641519, -29.678677385999894 ], [ -50.799605254120991, -29.678623515634616 ], [ -50.7994343, -29.6785462 ], [ -50.7992309, -29.6782672 ], [ -50.7988984, -29.6779628 ], [ -50.7985408, -29.677493 ], [ -50.7981461, -29.6771685 ], [ -50.7976216, -29.6767277 ], [ -50.7972503, -29.6759721 ], [ -50.7970905, -29.6754646 ], [ -50.797153873813819, -29.674981909014125 ], [ -50.796304861999893, -29.673720601999896 ], [ -50.796288895920668, -29.673496333282976 ], [ -50.796184, -29.673316 ], [ -50.796264454953715, -29.673153019564811 ], [ -50.795942672777187, -29.668632847833283 ], [ -50.7958728, -29.6685757 ], [ -50.7958309, -29.6683805 ], [ -50.7958835, -29.668207500000012 ], [ -50.7960713, -29.6680396 ], [ -50.7961249, -29.6678346 ], [ -50.7961965, -29.6676851 ], [ -50.79643, -29.6675867 ], [ -50.7969199, -29.6675627 ], [ -50.797551, -29.667619399999985 ], [ -50.797811161202979, -29.667586902881272 ], [ -50.801749813999891, -29.666222122 ], [ -50.80099697, -29.660672495 ], [ -50.80103019279013, -29.660569146872682 ], [ -50.8010301, -29.6603658 ], [ -50.8011294, -29.6601559 ], [ -50.8001833, -29.6602869 ], [ -50.7986926, -29.6604662 ], [ -50.797908, -29.6605408 ], [ -50.797491, -29.6605816 ], [ -50.797253, -29.6605862 ], [ -50.797102, -29.6605477 ], [ -50.7969532, -29.660479 ], [ -50.7968445, -29.6604359 ], [ -50.7967101, -29.6604322 ], [ -50.7935267, -29.660761 ], [ -50.7918704, -29.6609323 ], [ -50.7901766, -29.6611143 ], [ -50.7874796, -29.6614125 ], [ -50.7865435, -29.6615267 ], [ -50.7856477, -29.6616386 ], [ -50.7846657, -29.6617747 ], [ -50.7837364, -29.6618948 ], [ -50.7827999, -29.6620108 ], [ -50.7807996, -29.6622522 ], [ -50.7805183, -29.6622688 ], [ -50.7807129, -29.6638707 ], [ -50.780721, -29.6639476 ], [ -50.7807319, -29.6640107 ], [ -50.7807451, -29.6640624 ], [ -50.780778, -29.664123 ], [ -50.7807887, -29.6641638 ], [ -50.7808504, -29.6646515 ], [ -50.7808899, -29.6649516 ], [ -50.7809543, -29.6653519 ], [ -50.7809785, -29.6654632 ], [ -50.7810214, -29.6656082 ], [ -50.7809719, -29.6656062 ], [ -50.7809328, -29.6657233 ], [ -50.7812069, -29.6670281 ], [ -50.7813356, -29.6678434 ], [ -50.7813671, -29.6680577 ], [ -50.7814559, -29.6680419 ], [ -50.7816678, -29.6681258 ] ] ] } },
{ "type": "Feature", "properties": { "name": "Empresa", "code_muni": 4321204.0, "name_muni": "Taquara" }, "geometry": { "type": "Polygon", "coordinates": [ [ [ -50.7720226, -29.668557 ], [ -50.7738455, -29.6823123 ], [ -50.774093, -29.6822436 ], [ -50.7748115, -29.6821378 ], [ -50.7757309, -29.682307 ], [ -50.7760354, -29.6825451 ], [ -50.7760841, -29.6828307 ], [ -50.7759684, -29.6832857 ], [ -50.7760354, -29.6835237 ], [ -50.776011, -29.683857 ], [ -50.7757005, -29.6845658 ], [ -50.7756518, -29.684793200000016 ], [ -50.7758344, -29.6849255 ], [ -50.7762972, -29.68495720000001 ], [ -50.7768817, -29.684862 ], [ -50.7772653, -29.6846081 ], [ -50.7774662, -29.6842801 ], [ -50.7775576, -29.6838252 ], [ -50.777454, -29.6831904 ], [ -50.7774662, -29.682471 ], [ -50.7775819, -29.6822383 ], [ -50.777795, -29.6821483 ], [ -50.7781238, -29.6821854 ], [ -50.779098, -29.6827249 ], [ -50.779579, -29.6827937 ], [ -50.7803828, -29.6828149 ], [ -50.7810708, -29.6826562 ], [ -50.7813813, -29.6824657 ], [ -50.7816066, -29.6821378 ], [ -50.7815762, -29.6817463 ], [ -50.7812352, -29.6809052 ], [ -50.7811134, -29.6803498 ], [ -50.7812047, -29.6799266 ], [ -50.7811378, -29.6796991 ], [ -50.7808699, -29.6796515 ], [ -50.7806933, -29.6798208 ], [ -50.7804376, -29.6801805 ], [ -50.7800418, -29.680709499999985 ], [ -50.7797069, -29.6809846 ], [ -50.7793233, -29.6810375 ], [ -50.778824, -29.6808259 ], [ -50.7783552, -29.6803974 ], [ -50.778069, -29.679752 ], [ -50.7780812, -29.678990299999988 ], [ -50.7781908, -29.6786781 ], [ -50.7786253, -29.6781436 ], [ -50.7790347, -29.6779607 ], [ -50.7793118, -29.677778 ], [ -50.779962, -29.6776152 ], [ -50.7804984, -29.6774508 ], [ -50.7812291, -29.6772921 ], [ -50.7822703, -29.6769694 ], [ -50.7828061, -29.6767102 ], [ -50.783208, -29.676620299999986 ], [ -50.7835307, -29.6767261 ], [ -50.7839569, -29.6769694 ], [ -50.784517, -29.6771652 ], [ -50.7852051, -29.6772445 ], [ -50.7858931, -29.677191599999986 ], [ -50.7864776, -29.6770276 ], [ -50.7868551, -29.6767049 ], [ -50.786958, -29.6761753 ], [ -50.7869494, -29.6756516 ], [ -50.7867801, -29.6755858 ], [ -50.7865548, -29.6755718 ], [ -50.7864529, -29.6755345 ], [ -50.7862866, -29.6753947 ], [ -50.7862544, -29.6753061 ], [ -50.7862705, -29.6752129 ], [ -50.786705, -29.6749239 ], [ -50.7867587, -29.6748447 ], [ -50.7865495, -29.674607 ], [ -50.7863832, -29.67436 ], [ -50.7861632, -29.6743833 ], [ -50.7860613, -29.6743413 ], [ -50.7858682, -29.6739964 ], [ -50.7858574, -29.6738939 ], [ -50.7860023, -29.6737447 ], [ -50.7860452, -29.6736515 ], [ -50.7860345, -29.6734464 ], [ -50.7858843, -29.672980299999988 ], [ -50.7858199, -29.672407 ], [ -50.7857341, -29.6721087 ], [ -50.7857287, -29.6719083 ], [ -50.7858253, -29.6716426 ], [ -50.7859218, -29.6714748 ], [ -50.7859594, -29.6712884 ], [ -50.7857126, -29.6710926 ], [ -50.785659, -29.671008699999987 ], [ -50.7856268, -29.6709015 ], [ -50.7856268, -29.6707477 ], [ -50.7856643, -29.67051 ], [ -50.7856911, -29.6703795 ], [ -50.7857394, -29.6702956 ], [ -50.7857394, -29.669969300000016 ], [ -50.7856482, -29.669792199999986 ], [ -50.78544440000001, -29.669549799999988 ], [ -50.7851172, -29.6689439 ], [ -50.7848918, -29.668724799999989 ], [ -50.7847953, -29.6686735 ], [ -50.7846826, -29.6686456 ], [ -50.7845753, -29.6686269 ], [ -50.7839906, -29.66862230000001 ], [ -50.7836366, -29.6685617 ], [ -50.7835186, -29.6685104 ], [ -50.7833469, -29.6683799 ], [ -50.783186, -29.6683333 ], [ -50.7829553, -29.668342599999988 ], [ -50.7826334, -29.6684311 ], [ -50.7825261, -29.6684778 ], [ -50.7823652, -29.6684871 ], [ -50.7821882, -29.6683706 ], [ -50.7820433, -29.6682167 ], [ -50.7818797, -29.6681375 ], [ -50.7816678, -29.6681258 ], [ -50.7814559, -29.6680419 ], [ -50.7813671, -29.6680577 ], [ -50.7813356, -29.6678434 ], [ -50.7812069, -29.6670281 ], [ -50.7809328, -29.6657233 ], [ -50.7809719, -29.6656062 ], [ -50.7810214, -29.6656082 ], [ -50.7809785, -29.6654632 ], [ -50.7809543, -29.6653519 ], [ -50.7808899, -29.6649516 ], [ -50.7808504, -29.6646515 ], [ -50.7807887, -29.6641638 ], [ -50.780778, -29.664123 ], [ -50.7807451, -29.6640624 ], [ -50.7807319, -29.6640107 ], [ -50.780721, -29.6639476 ], [ -50.7807129, -29.6638707 ], [ -50.7802364, -29.663957799999988 ], [ -50.7797501, -29.6640027 ], [ -50.7786747, -29.6641098 ], [ -50.7780746, -29.6641696 ], [ -50.7766724, -29.66434 ], [ -50.7763917, -29.6643683 ], [ -50.7743254, -29.6645781 ], [ -50.7741129, -29.6645953 ], [ -50.7724452, -29.66474 ], [ -50.7718306, -29.664790899999989 ], [ -50.7715274, -29.6648163 ], [ -50.7715291, -29.66487 ], [ -50.7720226, -29.668557 ] ] ] } },
{ "type": "Feature", "properties": { "name": "Ideal", "code_muni": 4321204.0, "name_muni": "Taquara" }, "geometry": { "type": "Polygon", "coordinates": [ [ [ -50.7533918, -29.6668522 ], [ -50.7533358, -29.6679138 ], [ -50.7528874, -29.6680112 ], [ -50.751576, -29.669141 ], [ -50.751576, -29.6695305 ], [ -50.7514204, -29.6698148 ], [ -50.7517997, -29.6706823 ], [ -50.7514204, -29.6710809 ], [ -50.7515773, -29.6718405 ], [ -50.7521601, -29.6725417 ], [ -50.7525465, -29.6741997 ], [ -50.7528775, -29.6748985 ], [ -50.7528327, -29.6753465 ], [ -50.753012, -29.6755218 ], [ -50.7533113, -29.6765151 ], [ -50.7537551, -29.6769695 ], [ -50.7542148, -29.6769282 ], [ -50.754944, -29.6770109 ], [ -50.7551183, -29.6769282 ], [ -50.7556358, -29.6771649 ], [ -50.7556925, -29.6771908 ], [ -50.7565376, -29.6775164 ], [ -50.7567489, -29.6778117 ], [ -50.7567661, -29.6780505 ], [ -50.7568144, -29.6781974 ], [ -50.7570582, -29.6783687 ], [ -50.7572994, -29.6784152 ], [ -50.7577452, -29.6786736 ], [ -50.7578739, -29.6786923 ], [ -50.7584367, -29.6786344 ], [ -50.7588809, -29.6787142 ], [ -50.7592213, -29.6787824 ], [ -50.7595853, -29.6787156 ], [ -50.7597552, -29.6786559 ], [ -50.7600898, -29.6786123 ], [ -50.7603991, -29.6787858 ], [ -50.7606768, -29.679008 ], [ -50.7609248, -29.6791028 ], [ -50.7612062, -29.679064 ], [ -50.7613588, -29.679068 ], [ -50.7614328, -29.679145 ], [ -50.7614481, -29.6792589 ], [ -50.7613541, -29.6793819 ], [ -50.7612624, -29.6795242 ], [ -50.7612379, -29.6796708 ], [ -50.7613094, -29.6798057 ], [ -50.7615451, -29.6798206 ], [ -50.7617451, -29.6799875 ], [ -50.7618847, -29.6800516 ], [ -50.7620768, -29.6800748 ], [ -50.7622444, -29.6801735 ], [ -50.7624072, -29.6802644 ], [ -50.7626889, -29.680324 ], [ -50.7629815, -29.6804764 ], [ -50.7632985, -29.6806624 ], [ -50.7637529, -29.6806483 ], [ -50.76402010000001, -29.6805935 ], [ -50.7643289, -29.6805866 ], [ -50.7645327, -29.6806889 ], [ -50.7646638, -29.6808677 ], [ -50.7647473, -29.6810523 ], [ -50.7650005, -29.681438 ], [ -50.7657428, -29.6810027 ], [ -50.7661447, -29.6809128 ], [ -50.76646740000001, -29.6810344 ], [ -50.7669058, -29.6814206 ], [ -50.7677826, -29.6819919 ], [ -50.7682514, -29.6826373 ], [ -50.7685619, -29.6828753 ], [ -50.768842, -29.6829335 ], [ -50.7690916, -29.6828171 ], [ -50.7692987, -29.6825526 ], [ -50.7692865, -29.6820713 ], [ -50.7693778, -29.6814259 ], [ -50.7695057, -29.6809921 ], [ -50.769804, -29.680717 ], [ -50.770145, -29.680637699999984 ], [ -50.7704738, -29.6807752 ], [ -50.7708087, -29.6810979 ], [ -50.7714054, -29.6814788 ], [ -50.7721847, -29.6818438 ], [ -50.7730615, -29.6822881 ], [ -50.7736278, -29.6823728 ], [ -50.7738455, -29.6823123 ], [ -50.7720226, -29.668557 ], [ -50.7715291, -29.66487 ], [ -50.7715274, -29.6648163 ], [ -50.77138570000001, -29.6648309 ], [ -50.7707428, -29.6649027 ], [ -50.7704744, -29.6649313 ], [ -50.7695091, -29.6650953 ], [ -50.7692962, -29.6651152 ], [ -50.768924, -29.6651541 ], [ -50.7686684, -29.665180499999988 ], [ -50.7683378, -29.6652025 ], [ -50.7680036, -29.6652229 ], [ -50.7675174, -29.6652543 ], [ -50.7669988, -29.6652665 ], [ -50.7665104, -29.6652679 ], [ -50.7661536, -29.665272 ], [ -50.7658784, -29.6652844 ], [ -50.7653163, -29.6653364 ], [ -50.7634956, -29.665529599999985 ], [ -50.7631565, -29.6655677 ], [ -50.7613317, -29.6657914 ], [ -50.7611885, -29.6658182 ], [ -50.7604248, -29.6659924 ], [ -50.760295, -29.6660183 ], [ -50.7598894, -29.6660803 ], [ -50.7593009, -29.6661524 ], [ -50.7589442, -29.6661683 ], [ -50.7576896, -29.6662241 ], [ -50.7574864, -29.666241 ], [ -50.7573182, -29.666262699999987 ], [ -50.7564161, -29.6663788 ], [ -50.755128, -29.6665445 ], [ -50.7549497, -29.6665603 ], [ -50.7546747, -29.6665801 ], [ -50.7539168, -29.6666607 ], [ -50.7537185, -29.6666818 ], [ -50.7534612, -29.6666301 ], [ -50.7533918, -29.6668522 ] ] ] } },
{ "type": "Feature", "properties": { "name": "Medianeira", "code_muni": 4321204.0, "name_muni": "Taquara" }, "geometry": { "type": "Polygon", "coordinates": [ [ [ -50.7537185, -29.6666818 ], [ -50.7539168, -29.6666607 ], [ -50.7546747, -29.6665801 ], [ -50.7549497, -29.6665603 ], [ -50.755128, -29.6665445 ], [ -50.7564161, -29.6663788 ], [ -50.7573182, -29.666262699999987 ], [ -50.7574864, -29.666241 ], [ -50.7576896, -29.6662241 ], [ -50.7589442, -29.6661683 ], [ -50.7593009, -29.6661524 ], [ -50.7598894, -29.6660803 ], [ -50.760295, -29.6660183 ], [ -50.7604248, -29.6659924 ], [ -50.7611885, -29.6658182 ], [ -50.7613317, -29.6657914 ], [ -50.7631565, -29.6655677 ], [ -50.7634956, -29.665529599999985 ], [ -50.7653163, -29.6653364 ], [ -50.7658784, -29.6652844 ], [ -50.7661536, -29.665272 ], [ -50.7665104, -29.6652679 ], [ -50.7669988, -29.6652665 ], [ -50.7675174, -29.6652543 ], [ -50.7680036, -29.6652229 ], [ -50.7683378, -29.6652025 ], [ -50.7686684, -29.665180499999988 ], [ -50.768924, -29.6651541 ], [ -50.7692962, -29.6651152 ], [ -50.7695091, -29.6650953 ], [ -50.7695566, -29.6650166 ], [ -50.7695868, -29.6649446 ], [ -50.7695831, -29.6648681 ], [ -50.7695461, -29.6647986 ], [ -50.7694814, -29.6647465 ], [ -50.7693625, -29.6646702 ], [ -50.7693092, -29.6646424 ], [ -50.7692491, -29.6646288 ], [ -50.7690976, -29.6636412 ], [ -50.7689965, -29.6630026 ], [ -50.7688831, -29.6623079 ], [ -50.768767, -29.6616054 ], [ -50.7687446, -29.6614749 ], [ -50.7685805, -29.6603557 ], [ -50.7685073, -29.659856099999988 ], [ -50.7683421, -29.6587033 ], [ -50.7683247, -29.6585895 ], [ -50.7682693, -29.65820170000001 ], [ -50.7666883, -29.6583601 ], [ -50.7658088, -29.6584562 ], [ -50.7649252, -29.6585581 ], [ -50.7640846, -29.6586461 ], [ -50.7631645, -29.6587519 ], [ -50.7622858, -29.6588503 ], [ -50.7613753, -29.6589576 ], [ -50.7605283, -29.6590577 ], [ -50.7596274, -29.6591771 ], [ -50.7583839, -29.6593225 ], [ -50.7573496, -29.6594656 ], [ -50.7567213, -29.659539 ], [ -50.7560755, -29.6596136 ], [ -50.7546727, -29.6597837 ], [ -50.7540458, -29.659849 ], [ -50.7531419, -29.6599271 ], [ -50.7530412, -29.6598693 ], [ -50.7530462, -29.660132 ], [ -50.7530938, -29.660386799999987 ], [ -50.752856, -29.660738 ], [ -50.7525726, -29.6609086 ], [ -50.7525964, -29.6612254 ], [ -50.7528104, -29.6614664 ], [ -50.7530878, -29.6616524 ], [ -50.7535713, -29.6617419 ], [ -50.7536584, -29.6619141 ], [ -50.7533256, -29.661996699999989 ], [ -50.7531908, -29.6620932 ], [ -50.7533176, -29.6623962 ], [ -50.7535633, -29.6629747 ], [ -50.753809, -29.6633328 ], [ -50.7541428, -29.6640667 ], [ -50.7539523, -29.6648556 ], [ -50.7539971, -29.6653329 ], [ -50.7536048, -29.6661705 ], [ -50.7534612, -29.6666301 ], [ -50.7537185, -29.6666818 ] ] ] } },
{ "type": "Feature", "properties": { "name": "Mundo Novo", "code_muni": 4321204.0, "name_muni": "Taquara" }, "geometry": { "type": "Polygon", "coordinates": [ [ [ -50.7533819, -29.654026 ], [ -50.7531546, -29.6541087 ], [ -50.7529581, -29.6541483 ], [ -50.7526792, -29.654167 ], [ -50.7526153, -29.6541994 ], [ -50.7526856, -29.6543403 ], [ -50.7528603, -29.6545053 ], [ -50.7530743, -29.6548015 ], [ -50.7530584, -29.6550632 ], [ -50.7527097, -29.655318 ], [ -50.7527573, -29.6555385 ], [ -50.752575, -29.6556693 ], [ -50.7525829, -29.6557657 ], [ -50.7527414, -29.6557382 ], [ -50.7529871, -29.6558553 ], [ -50.7532407, -29.6558208 ], [ -50.7534479, -29.6561768 ], [ -50.753773, -29.656498200000016 ], [ -50.7537057, -29.656956 ], [ -50.75356, -29.6573943 ], [ -50.7533022, -29.6575599 ], [ -50.7531789, -29.6579982 ], [ -50.7532013, -29.6582904 ], [ -50.7528763, -29.6587385 ], [ -50.7527054, -29.6592022 ], [ -50.7530383, -29.6597187 ], [ -50.7530412, -29.6598693 ], [ -50.7531419, -29.6599271 ], [ -50.7540458, -29.659849 ], [ -50.7546727, -29.6597837 ], [ -50.7560755, -29.6596136 ], [ -50.7567213, -29.659539 ], [ -50.7573496, -29.6594656 ], [ -50.7583839, -29.6593225 ], [ -50.7596274, -29.6591771 ], [ -50.7605283, -29.6590577 ], [ -50.7613753, -29.6589576 ], [ -50.7622858, -29.6588503 ], [ -50.7631645, -29.6587519 ], [ -50.7640846, -29.6586461 ], [ -50.7649252, -29.6585581 ], [ -50.7658088, -29.6584562 ], [ -50.7666883, -29.6583601 ], [ -50.7682693, -29.65820170000001 ], [ -50.7681898, -29.657568700000013 ], [ -50.7681344, -29.6571448 ], [ -50.7680512, -29.6565661 ], [ -50.7679482, -29.6558534 ], [ -50.767875, -29.6552962 ], [ -50.7677733, -29.654626399999987 ], [ -50.7676769, -29.6540285 ], [ -50.7675999, -29.6534987 ], [ -50.7675508, -29.6531607 ], [ -50.7660365, -29.6533257 ], [ -50.7645326, -29.6534948 ], [ -50.7630349, -29.653629 ], [ -50.7615717, -29.6538144 ], [ -50.7588315, -29.6541093 ], [ -50.7579847, -29.6542068 ], [ -50.7569677, -29.6543238 ], [ -50.7569432, -29.6537532 ], [ -50.7568348, -29.6532266 ], [ -50.7547123, -29.6534514 ], [ -50.7545313, -29.6534677 ], [ -50.7533819, -29.654026 ] ] ] } },
{ "type": "Feature", "properties": { "name": "Tucanos", "code_muni": 4321204.0, "name_muni": "Taquara" }, "geometry": { "type": "Polygon", "coordinates": [ [ [ -50.755004, -29.6475714 ], [ -50.7546872, -29.6474225 ], [ -50.7538962, -29.647134399999988 ], [ -50.7536629, -29.6470924 ], [ -50.7533605, -29.6470749 ], [ -50.7532679, -29.6470598 ], [ -50.7532581, -29.6471438 ], [ -50.7533458, -29.6473792 ], [ -50.7537045, -29.6478468 ], [ -50.7533234, -29.6484507 ], [ -50.7531225, -29.6493686 ], [ -50.7528372, -29.6498645 ], [ -50.7528689, -29.6504293 ], [ -50.7528689, -29.6511732 ], [ -50.7526311, -29.6521095 ], [ -50.7528609, -29.6526743 ], [ -50.7530115, -29.6531151 ], [ -50.7529085, -29.6535353 ], [ -50.7525512, -29.6537408 ], [ -50.752603, -29.6540904 ], [ -50.7526153, -29.6541994 ], [ -50.7526792, -29.654167 ], [ -50.7529581, -29.6541483 ], [ -50.7531546, -29.6541087 ], [ -50.7533819, -29.654026 ], [ -50.7545313, -29.6534677 ], [ -50.7547123, -29.6534514 ], [ -50.7568348, -29.6532266 ], [ -50.7569432, -29.6537532 ], [ -50.7569677, -29.6543238 ], [ -50.7579847, -29.6542068 ], [ -50.7588315, -29.6541093 ], [ -50.7615717, -29.6538144 ], [ -50.7630349, -29.653629 ], [ -50.7645326, -29.6534948 ], [ -50.7660365, -29.6533257 ], [ -50.7675508, -29.6531607 ], [ -50.7674106, -29.6524339 ], [ -50.7673156, -29.6518782 ], [ -50.7672304, -29.6513313 ], [ -50.7671376, -29.6505399 ], [ -50.7673319, -29.6498707 ], [ -50.767568, -29.6486375 ], [ -50.7677098, -29.6482179 ], [ -50.7679581, -29.6471812 ], [ -50.7675058, -29.6472078 ], [ -50.7658524, -29.6474811 ], [ -50.7552977, -29.6477547 ], [ -50.755004, -29.6475714 ] ] ] } },
{ "type": "Feature", "properties": { "name": "Santa Rosa", "code_muni": 4321204.0, "name_muni": "Taquara" }, "geometry": { "type": "Polygon", "coordinates": [ [ [ -50.7423198, -29.624518 ], [ -50.7427597, -29.6246579 ], [ -50.7431674, -29.6250636 ], [ -50.743162, -29.625324799999987 ], [ -50.7430011, -29.62553 ], [ -50.7428402, -29.6257351 ], [ -50.7428509, -29.6258844 ], [ -50.7431245, -29.6260755 ], [ -50.7433391, -29.62629 ], [ -50.7434893, -29.6266817 ], [ -50.7438648, -29.6272693 ], [ -50.7439077, -29.6274512 ], [ -50.7438111, -29.627661 ], [ -50.7435966, -29.6279734 ], [ -50.7435322, -29.6282858 ], [ -50.7436127, -29.628444399999985 ], [ -50.7436878, -29.6285516 ], [ -50.7436127, -29.6286915 ], [ -50.7435483, -29.6290086 ], [ -50.7435805, -29.6294469 ], [ -50.7434624, -29.6300578 ], [ -50.7434303, -29.63055670000001 ], [ -50.7431781, -29.6309018 ], [ -50.7430816, -29.6312188 ], [ -50.7432693, -29.6318157 ], [ -50.7433552, -29.6321701 ], [ -50.7435483, -29.6325291 ], [ -50.7439667, -29.6327203 ], [ -50.7440579, -29.6329534 ], [ -50.7439506, -29.6331912 ], [ -50.7438058, -29.6332891 ], [ -50.7435215, -29.6333824 ], [ -50.7433391, -29.6334337 ], [ -50.7432371, -29.6335363 ], [ -50.7432962, -29.6337787 ], [ -50.7431674, -29.6340352 ], [ -50.7430655, -29.6342963 ], [ -50.7430816, -29.6344921 ], [ -50.7433873, -29.634692600000012 ], [ -50.7434678, -29.6350423 ], [ -50.7434249, -29.6353501 ], [ -50.7432801, -29.6354154 ], [ -50.7429636, -29.6354666 ], [ -50.7428455, -29.635793 ], [ -50.7428777, -29.6358443 ], [ -50.7430065, -29.6360495 ], [ -50.7429904, -29.636236 ], [ -50.7430065, -29.636567 ], [ -50.7430548, -29.6367162 ], [ -50.7432318, -29.636818800000011 ], [ -50.7434195, -29.636982 ], [ -50.7435751, -29.6371545 ], [ -50.7438809, -29.6374996 ], [ -50.7442671, -29.6380078 ], [ -50.7445675, -29.6383388 ], [ -50.7448626, -29.6384554 ], [ -50.7450825, -29.6384507 ], [ -50.7453936, -29.6383948 ], [ -50.7456994, -29.6384367 ], [ -50.745914, -29.6387025 ], [ -50.7460857, -29.6390802 ], [ -50.7463378, -29.6397283 ], [ -50.7464075, -29.6401759 ], [ -50.7463431, -29.6404696 ], [ -50.7462734, -29.64074470000001 ], [ -50.7464075, -29.640987099999982 ], [ -50.7469815, -29.6414534 ], [ -50.7472551, -29.6418543 ], [ -50.747534, -29.6421108 ], [ -50.7477754, -29.6422087 ], [ -50.7478935, -29.6424278 ], [ -50.7478398, -29.6425164 ], [ -50.7476896, -29.6427215 ], [ -50.7477701, -29.6429174 ], [ -50.7480168, -29.6431318 ], [ -50.7484728, -29.643360300000012 ], [ -50.7489824, -29.6433976 ], [ -50.7492936, -29.6434862 ], [ -50.7495457, -29.6434628 ], [ -50.7497174, -29.6433836 ], [ -50.7502806, -29.6432484 ], [ -50.7506132, -29.6431971 ], [ -50.7509297, -29.6432903 ], [ -50.751155, -29.6435328 ], [ -50.7513106, -29.6440177 ], [ -50.7513428, -29.6443953 ], [ -50.7516164, -29.6448336 ], [ -50.751611, -29.645267100000012 ], [ -50.7515748, -29.6454504 ], [ -50.7517542, -29.6462297 ], [ -50.7525388, -29.646444 ], [ -50.7532769, -29.6469829 ], [ -50.7532679, -29.6470598 ], [ -50.7533605, -29.6470749 ], [ -50.7536629, -29.6470924 ], [ -50.7538962, -29.647134399999988 ], [ -50.7546872, -29.6474225 ], [ -50.755004, -29.6475714 ], [ -50.7552977, -29.6477547 ], [ -50.7658524, -29.6474811 ], [ -50.7675058, -29.6472078 ], [ -50.7679581, -29.6471812 ], [ -50.7688536, -29.6471135 ], [ -50.7696586, -29.6470536 ], [ -50.7698499, -29.6470435 ], [ -50.7705722, -29.646985499999989 ], [ -50.7709191, -29.6469612 ], [ -50.7712716, -29.6469379 ], [ -50.7730082, -29.6468041 ], [ -50.7748236, -29.6466727 ], [ -50.7756915, -29.6465953 ], [ -50.775734, -29.6465923 ], [ -50.7758002, -29.6465877 ], [ -50.775787, -29.644937699999986 ], [ -50.7757769, -29.6437646 ], [ -50.775775, -29.643635 ], [ -50.7757777, -29.6413018 ], [ -50.7757428, -29.6410687 ], [ -50.7756954, -29.6408164 ], [ -50.7756355, -29.6404976 ], [ -50.7754423, -29.6398067 ], [ -50.77524050000001, -29.639148 ], [ -50.7752029, -29.6390451 ], [ -50.7750188, -29.6384538 ], [ -50.7725261, -29.638624 ], [ -50.7717867, -29.6386396 ], [ -50.7702058, -29.6385772 ], [ -50.7702863, -29.6381201 ], [ -50.7703737, -29.6375792 ], [ -50.7703854, -29.6369238 ], [ -50.7703602, -29.6363908 ], [ -50.7702093, -29.6352279 ], [ -50.7699956, -29.6337673 ], [ -50.7697969, -29.6324261 ], [ -50.7696714, -29.6315792 ], [ -50.7693694, -29.6310036 ], [ -50.7691257, -29.630539 ], [ -50.7690844, -29.6304603 ], [ -50.7687943, -29.6299075 ], [ -50.7685902, -29.629518300000012 ], [ -50.7684065, -29.629368 ], [ -50.7677408, -29.6288231 ], [ -50.7671184, -29.6283137 ], [ -50.7668603, -29.6281024 ], [ -50.7668055, -29.6280576 ], [ -50.7660108, -29.6268572 ], [ -50.765125, -29.625906 ], [ -50.765112, -29.6256909 ], [ -50.7654246, -29.6247623 ], [ -50.7653725, -29.6244792 ], [ -50.7650729, -29.624298 ], [ -50.7645648, -29.6241735 ], [ -50.7643955, -29.623981 ], [ -50.7644346, -29.6237205 ], [ -50.7645518, -29.6234148 ], [ -50.7644997, -29.6231543 ], [ -50.7642522, -29.6229844 ], [ -50.76395260000001, -29.6229958 ], [ -50.7637311, -29.6230637 ], [ -50.7635618, -29.623075 ], [ -50.7633794, -29.6230071 ], [ -50.7633403, -29.6228599 ], [ -50.7632752, -29.6226221 ], [ -50.763171, -29.6224748 ], [ -50.7629235, -29.6222484 ], [ -50.7586384, -29.6163338 ], [ -50.7423198, -29.624518 ] ] ] } },
{ "type": "Feature", "properties": { "name": "Km 4", "code_muni": 4321204.0, "name_muni": "Taquara" }, "geometry": { "type": "Polygon", "coordinates": [ [ [ -50.7666636, -29.6127521 ], [ -50.7586384, -29.6163338 ], [ -50.7629235, -29.6222484 ], [ -50.763171, -29.6224748 ], [ -50.7632752, -29.6226221 ], [ -50.7633403, -29.6228599 ], [ -50.7633794, -29.6230071 ], [ -50.7635618, -29.623075 ], [ -50.7637311, -29.6230637 ], [ -50.76395260000001, -29.6229958 ], [ -50.7642522, -29.6229844 ], [ -50.7644997, -29.6231543 ], [ -50.7645518, -29.6234148 ], [ -50.7644346, -29.6237205 ], [ -50.7643955, -29.623981 ], [ -50.7645648, -29.6241735 ], [ -50.7650729, -29.624298 ], [ -50.7653725, -29.6244792 ], [ -50.7654246, -29.6247623 ], [ -50.765112, -29.6256909 ], [ -50.765125, -29.625906 ], [ -50.7660108, -29.6268572 ], [ -50.7668055, -29.6280576 ], [ -50.7668603, -29.6281024 ], [ -50.7671184, -29.6283137 ], [ -50.7677408, -29.6288231 ], [ -50.7684065, -29.629368 ], [ -50.7685902, -29.629518300000012 ], [ -50.7687943, -29.6299075 ], [ -50.7690844, -29.6304603 ], [ -50.7691257, -29.630539 ], [ -50.7693694, -29.6310036 ], [ -50.7696714, -29.6315792 ], [ -50.7697969, -29.6324261 ], [ -50.7699956, -29.6337673 ], [ -50.7702093, -29.6352279 ], [ -50.7703602, -29.6363908 ], [ -50.7703854, -29.6369238 ], [ -50.7703737, -29.6375792 ], [ -50.7702863, -29.6381201 ], [ -50.7702058, -29.6385772 ], [ -50.7717867, -29.6386396 ], [ -50.7725261, -29.638624 ], [ -50.7750188, -29.6384538 ], [ -50.7746697, -29.637318400000012 ], [ -50.774628, -29.637130699999986 ], [ -50.7746285, -29.636929099999985 ], [ -50.7746555, -29.636772 ], [ -50.7746853, -29.63662 ], [ -50.774753, -29.6364732 ], [ -50.7748811, -29.6362693 ], [ -50.7750785, -29.6360631 ], [ -50.7754598, -29.6356813 ], [ -50.7755991, -29.6354819 ], [ -50.7756824, -29.6352689 ], [ -50.7757127, -29.6350638 ], [ -50.7757416, -29.634772 ], [ -50.7757347, -29.6339289 ], [ -50.7757337, -29.6338045 ], [ -50.7757531, -29.6326585 ], [ -50.7757662, -29.6324777 ], [ -50.7758097, -29.6323253 ], [ -50.7758624, -29.632158 ], [ -50.7762994, -29.6310356 ], [ -50.776359, -29.6308276 ], [ -50.7763922, -29.6306558 ], [ -50.7764059, -29.630426199999988 ], [ -50.7763918, -29.6301766 ], [ -50.7763414, -29.6299369 ], [ -50.7764636, -29.6299708 ], [ -50.77651680000001, -29.6299994 ], [ -50.7765472, -29.6300356 ], [ -50.7765717, -29.6300864 ], [ -50.7766241, -29.6302875 ], [ -50.7766737, -29.6306 ], [ -50.776671, -29.6307975 ], [ -50.7766445, -29.6310016 ], [ -50.7765923, -29.6313151 ], [ -50.7765454, -29.6316147 ], [ -50.7765148, -29.6318795 ], [ -50.7764914, -29.6324174 ], [ -50.7765075, -29.6326575 ], [ -50.776591, -29.6331151 ], [ -50.7766554, -29.6333482 ], [ -50.7768275, -29.6337289 ], [ -50.7769456, -29.633867 ], [ -50.7771451, -29.6340822 ], [ -50.7773407, -29.6342742 ], [ -50.7775922, -29.6344436 ], [ -50.7777843, -29.634549 ], [ -50.7780416, -29.6346539 ], [ -50.7781517, -29.6345913 ], [ -50.7782738, -29.634554 ], [ -50.7836318, -29.6340939 ], [ -50.7817294, -29.6124316 ], [ -50.7666636, -29.6127521 ] ] ] } },
{ "type": "Feature", "properties": { "name": "Picada Francesa", "code_muni": 4321204.0, "name_muni": "Taquara" }, "geometry": { "type": "Polygon", "coordinates": [ [ [ -50.803674, -29.6199036 ], [ -50.8036321, -29.619568599999987 ], [ -50.8035973, -29.6190409 ], [ -50.8035718, -29.6185369 ], [ -50.8035492, -29.6181729 ], [ -50.8035672, -29.6177934 ], [ -50.803559688564611, -29.61706778213799 ], [ -50.782291551307608, -29.612419646745064 ], [ -50.7817294, -29.6124316 ], [ -50.7836318, -29.6340939 ], [ -50.7849476, -29.6339619 ], [ -50.7880998, -29.6337741 ], [ -50.7876277, -29.629391 ], [ -50.8009046, -29.6283511 ], [ -50.8013414, -29.6284777 ], [ -50.8028573, -29.6254787 ], [ -50.8030903, -29.6249985 ], [ -50.8035994, -29.6239866 ], [ -50.8037209, -29.623737 ], [ -50.8038644, -29.6233785 ], [ -50.8039154, -29.6231435 ], [ -50.8039436, -29.6229046 ], [ -50.803957, -29.6226236 ], [ -50.8039087, -29.6220955 ], [ -50.8036492, -29.6200181 ], [ -50.803674, -29.6199036 ] ] ] } }
]
}
