{
"type": "FeatureCollection",
"name": "bairros_santa_maria_do_herval",
"crs": { "type": "name", "properties": { "name": "urn:ogc:def:crs:OGC:1.3:CRS84" } },
"features": [
{ "type": "Feature", "properties": { "code_muni": 4316956.0, "name_muni": "Santa Maria do Herval", "code_state": 43.0, "abbrev_state": "RS", "name_state": "Rio Grande do Sul", "code_region": 4.0, "name_region": "Sul", "year": 2022.0 }, "geometry": { "type": "Polygon", "coordinates": [ [ [ -50.968643256, -29.519494971 ], [ -51.016856275999899, -29.51488763 ], [ -51.017362095, -29.519897603999897 ], [ -51.03272895899989, -29.517826597999896 ], [ -51.032990422999902, -29.514154446 ], [ -51.026487464999903, -29.502714726 ], [ -51.028659612999896, -29.4980546799999 ], [ -51.032083763999893, -29.497246135999891 ], [ -51.032055962999898, -29.493532392 ], [ -51.038245601, -29.491425154999909 ], [ -51.0432807339999, -29.491381146 ], [ -51.042176668, -29.493657496 ], [ -51.046244862, -29.493923305999889 ], [ -51.047961583, -29.496185066 ], [ -51.049900186999899, -29.495971013 ], [ -51.051264105, -29.492162036 ], [ -51.054658138, -29.491511031 ], [ -51.054155404, -29.488805070999891 ], [ -51.062072525, -29.482698453 ], [ -51.06112504, -29.481186619 ], [ -51.062485264, -29.4797743949999 ], [ -51.059587318, -29.474911470999892 ], [ -51.062067091999893, -29.472905243 ], [ -51.060928411, -29.4701946499999 ], [ -51.063704737, -29.467512801999899 ], [ -51.012456399, -29.476040168999901 ], [ -51.008402081, -29.445899912999906 ], [ -51.042499901, -29.439440963 ], [ -51.019639878, -29.436973877 ], [ -51.012011456, -29.426323404999899 ], [ -51.009479652, -29.427624255999891 ], [ -51.007536679999902, -29.425037792999902 ], [ -51.0042199439999, -29.424335239 ], [ -51.002690685999902, -29.414891253 ], [ -50.993173761, -29.402079897 ], [ -50.994340802999893, -29.395835126999895 ], [ -50.992382016, -29.387423845999905 ], [ -50.991050554, -29.387216226 ], [ -50.984923551999891, -29.39076788900001 ], [ -50.981324468, -29.39040072499991 ], [ -50.95678032099989, -29.425372496 ], [ -50.947574657, -29.425526626 ], [ -50.946351205, -29.42367648 ], [ -50.943987983999897, -29.425068907 ], [ -50.939931532999893, -29.424547262 ], [ -50.935403631, -29.427652241 ], [ -50.93492571, -29.431904002 ], [ -50.929714415, -29.435336664 ], [ -50.928428786, -29.438296815999902 ], [ -50.920033471999901, -29.438591970999898 ], [ -50.916507002999893, -29.440596630999902 ], [ -50.916348053, -29.443186829999895 ], [ -50.909732248, -29.450948802 ], [ -50.9103024469999, -29.501646493999903 ], [ -50.907415662999902, -29.500212673 ], [ -50.908148219999894, -29.517996851 ], [ -50.912089229999893, -29.545233531999898 ], [ -50.905660978, -29.546094501 ], [ -50.900054182, -29.550485018 ], [ -50.943421311, -29.546975091 ], [ -50.939954681, -29.542353590999898 ], [ -50.947813262999901, -29.540867987 ], [ -50.94653006, -29.533106377 ], [ -50.961888673, -29.530563261999905 ], [ -50.963964077, -29.52915039 ], [ -50.963135063, -29.523827148 ], [ -50.968006422, -29.524993492 ], [ -50.968643256, -29.519494971 ] ] ] } }
]
}
