{
"type": "FeatureCollection",
"name": "bairros_cachoeirinha",
"crs": { "type": "name", "properties": { "name": "urn:ogc:def:crs:OGC:1.3:CRS84" } },
"features": [
{ "type": "Feature", "properties": { "code_muni": 4303103.0, "name_muni": "Cachoeirinha", "code_state": 43.0, "abbrev_state": "RS", "name_state": "Rio Grande do Sul", "code_region": 4.0, "name_region": "Sul", "year": 2022.0 }, "geometry": { "type": "Polygon", "coordinates": [ [ [ -51.090981182, -29.96298238 ], [ -51.096074629, -29.96586024199998 ], [ -51.101713294, -29.964061021 ], [ -51.105430047, -29.965011337 ], [ -51.112784564, -29.958051406 ], [ -51.12004601, -29.958045581 ], [ -51.124977281, -29.954447183 ], [ -51.127352937999895, -29.954458179 ], [ -51.126232678, -29.952662698 ], [ -51.127702052, -29.947728159 ], [ -51.125109031, -29.939247733999906 ], [ -51.125974987999903, -29.933060438999988 ], [ -51.114598832, -29.919219741999903 ], [ -51.113768846, -29.916033609999904 ], [ -51.109643918, -29.911986519 ], [ -51.109510217, -29.909229415 ], [ -51.106451076, -29.908133743999901 ], [ -51.107473357999901, -29.90569948 ], [ -51.106013735, -29.9024490259999 ], [ -51.123095425, -29.86639481 ], [ -51.121813247, -29.865796207 ], [ -51.111887372, -29.870248643 ], [ -51.107915728, -29.870530478 ], [ -51.105746073, -29.872339215999901 ], [ -51.103949152, -29.871889634999892 ], [ -51.103888129, -29.869774204 ], [ -51.100782154999898, -29.868477476 ], [ -51.091614639999904, -29.878011068 ], [ -51.086381597999903, -29.878553252 ], [ -51.077887268, -29.885451857 ], [ -51.065877819, -29.890972304999902 ], [ -51.065453041, -29.900004125999896 ], [ -51.062997094, -29.906008955999894 ], [ -51.073915512, -29.922972345999895 ], [ -51.076527912999893, -29.931829123999893 ], [ -51.074002447999902, -29.966959979 ], [ -51.07825853, -29.9652301899999 ], [ -51.079296433, -29.967883497999903 ], [ -51.0830867499999, -29.968582689 ], [ -51.081136543, -29.971396559 ], [ -51.0841454769999, -29.972379176999901 ], [ -51.090090973, -29.966829262 ], [ -51.088343471, -29.9641843859999 ], [ -51.090981182, -29.96298238 ] ] ] } }
]
}
