{
"type": "FeatureCollection",
"name": "bairros_nova_santa_rita",
"crs": { "type": "name", "properties": { "name": "urn:ogc:def:crs:OGC:1.3:CRS84" } },
"features": [
{ "type": "Feature", "properties": { "code_muni": 4313375.0, "name_muni": "Nova Santa Rita", "code_state": 43.0, "abbrev_state": "RS", "name_state": "Rio Grande do Sul", "code_region": 4.0, "name_region": "Sul", "year": 2022.0 }, "geometry": { "type": "Polygon", "coordinates": [ [ [ -51.282996404999892, -29.932212819 ], [ -51.291555056999989, -29.929276236 ], [ -51.300737285, -29.930257834 ], [ -51.30677455499989, -29.932426060999898 ], [ -51.3103247, -29.9315491 ], [ -51.315002874999898, -29.923964496999901 ], [ -51.321962691999893, -29.918489805 ], [ -51.327532947999899, -29.909633472999907 ], [ -51.347585411, -29.900093094999903 ], [ -51.3539586959999, -29.895084439 ], [ -51.364911212, -29.893117957 ], [ -51.367631859, -29.889212264 ], [ -51.367357421, -29.884132405999893 ], [ -51.364247034, -29.878773270999901 ], [ -51.363460217, -29.866100448999902 ], [ -51.353573258, -29.843896642999908 ], [ -51.355887308, -29.841240769 ], [ -51.370259237, -29.836410725999897 ], [ -51.372172711, -29.833732143 ], [ -51.371933434, -29.828760250999895 ], [ -51.370356489999899, -29.826577578999903 ], [ -51.36694906, -29.825652298 ], [ -51.359256859, -29.831037618 ], [ -51.356294122, -29.830672744 ], [ -51.35063744, -29.822937994 ], [ -51.349949706, -29.818647765 ], [ -51.35451088299989, -29.807738249999897 ], [ -51.361055716, -29.802840569 ], [ -51.367409176, -29.800127911999898 ], [ -51.366489116, -29.796151390999988 ], [ -51.357056715999896, -29.796943353 ], [ -51.35577008699989, -29.795080101999893 ], [ -51.360143377, -29.788653098999902 ], [ -51.365459046, -29.788045858 ], [ -51.366402268999899, -29.783355356999898 ], [ -51.362872863, -29.780155462 ], [ -51.361704607, -29.775872819 ], [ -51.354598653, -29.769808992 ], [ -51.342633131999897, -29.768069873999899 ], [ -51.341052259, -29.763782406 ], [ -51.333716201, -29.756642676 ], [ -51.331099886999894, -29.757572739 ], [ -51.3300366839999, -29.760654718 ], [ -51.326802891999897, -29.761853543 ], [ -51.325889023999899, -29.766080862 ], [ -51.321481246, -29.766612962 ], [ -51.318801145999892, -29.76968915 ], [ -51.315261115999903, -29.771029336 ], [ -51.313093339, -29.776366239 ], [ -51.309029372999895, -29.776940947999901 ], [ -51.30734454, -29.775678937999903 ], [ -51.302162135999893, -29.781834434 ], [ -51.297767273, -29.782294728 ], [ -51.291578028999893, -29.779578186 ], [ -51.290945622, -29.781297864 ], [ -51.287102042999898, -29.781955950999908 ], [ -51.277557072, -29.781574791 ], [ -51.273333517, -29.779528585 ], [ -51.268002700999894, -29.7812274949999 ], [ -51.257083845999901, -29.776888867 ], [ -51.257766101999891, -29.774505534999903 ], [ -51.255190765, -29.773995713 ], [ -51.250741922, -29.775773726 ], [ -51.246188120999896, -29.780249823 ], [ -51.239832384999893, -29.779627834999893 ], [ -51.226893796, -29.782134099 ], [ -51.2244743259999, -29.784036933 ], [ -51.221873665, -29.790072439 ], [ -51.215301816, -29.793875328999892 ], [ -51.211692402, -29.793983449999892 ], [ -51.209956814, -29.79139176 ], [ -51.206464189, -29.79027625 ], [ -51.203070419, -29.793451029 ], [ -51.200262725, -29.79215175 ], [ -51.195776765999902, -29.796058226 ], [ -51.1953530219999, -29.801951804999906 ], [ -51.192630961, -29.803403362 ], [ -51.197953222, -29.810845888 ], [ -51.196950824999895, -29.813949507 ], [ -51.192529883, -29.818252700999892 ], [ -51.191501161, -29.823804376999899 ], [ -51.190639432, -29.8247534559999 ], [ -51.185690059, -29.824510258 ], [ -51.184379125, -29.823208431 ], [ -51.184324765, -29.818763436 ], [ -51.182336619, -29.816853035999898 ], [ -51.181714867, -29.820348692 ], [ -51.179620371999896, -29.8217456409999 ], [ -51.183026217, -29.826095286999902 ], [ -51.181169069, -29.829576327 ], [ -51.182222585, -29.832711898999907 ], [ -51.18442378, -29.833716266 ], [ -51.190921547, -29.8319413689999 ], [ -51.186816279, -29.837312171999901 ], [ -51.188050615, -29.840209033 ], [ -51.19097158999989, -29.838878216 ], [ -51.19290776, -29.832826528999885 ], [ -51.194706421, -29.831684552 ], [ -51.199239835, -29.834421387 ], [ -51.194344068, -29.838054584 ], [ -51.194049801999903, -29.840359967 ], [ -51.195432366, -29.841555043 ], [ -51.202688789, -29.835709741 ], [ -51.204590112999895, -29.836304432 ], [ -51.205323743, -29.84021295 ], [ -51.211053751999899, -29.843865461999897 ], [ -51.216706582, -29.841398897 ], [ -51.225873831999898, -29.842948512 ], [ -51.228349007, -29.844624196 ], [ -51.231326894999896, -29.850814688999897 ], [ -51.230244956, -29.859626637 ], [ -51.233861600999894, -29.866136115 ], [ -51.234810626, -29.872489613 ], [ -51.245909307, -29.87914441 ], [ -51.249575388, -29.88410111 ], [ -51.247448887, -29.902688989999891 ], [ -51.248698826, -29.906611703 ], [ -51.246120907, -29.911576162 ], [ -51.240678982, -29.916376119999889 ], [ -51.240566831, -29.918225623 ], [ -51.244094221, -29.923064199999892 ], [ -51.23899297, -29.927804449999904 ], [ -51.233496537, -29.938739687 ], [ -51.245656252999908, -29.932624765999886 ], [ -51.256619622, -29.932829719 ], [ -51.267316153, -29.935152574 ], [ -51.271477497, -29.932971986 ], [ -51.282996404999892, -29.932212819 ] ] ] } }
]
}
