{
"type": "FeatureCollection",
"name": "bairros_unistalda",
"crs": { "type": "name", "properties": { "name": "urn:ogc:def:crs:OGC:1.3:CRS84" } },
"features": [
{ "type": "Feature", "properties": { "name": "Democratino da Silva Ribeiro", "code_muni": 4322376.0, "name_muni": "Unistalda" }, "geometry": { "type": "Polygon", "coordinates": [ [ [ -55.1528467, -29.0494708 ], [ -55.152716, -29.0500872 ], [ -55.1638257, -29.0480977 ], [ -55.1639651, -29.0455558 ], [ -55.1539015, -29.0446273 ], [ -55.1537853, -29.0457962 ], [ -55.1537554, -29.0458471 ], [ -55.1535, -29.0460412 ], [ -55.1533869, -29.0464646 ], [ -55.1531288, -29.0477807 ], [ -55.1529625, -29.048718699999984 ], [ -55.1528467, -29.0494708 ] ] ] } },
{ "type": "Feature", "properties": { "name": "Emiliano Trindade Prestes", "code_muni": 4322376.0, "name_muni": "Unistalda" }, "geometry": { "type": "Polygon", "coordinates": [ [ [ -55.1366648, -29.0502446 ], [ -55.1377366, -29.0499484 ], [ -55.1378884, -29.0499092 ], [ -55.1388967, -29.049626 ], [ -55.1396516, -29.0494401 ], [ -55.1400999, -29.0493709 ], [ -55.1407112, -29.0492574 ], [ -55.1416756, -29.0491241 ], [ -55.1420988, -29.0490969 ], [ -55.1425484, -29.0490986 ], [ -55.1429716, -29.0491175 ], [ -55.1433675, -29.0491715 ], [ -55.144733, -29.0494521 ], [ -55.1452624, -29.0495099 ], [ -55.1458635, -29.0495076 ], [ -55.146645, -29.049389800000011 ], [ -55.14745520000001, -29.0492002 ], [ -55.1479148, -29.0491095 ], [ -55.1481889, -29.0490956 ], [ -55.148265, -29.0485283 ], [ -55.1485204, -29.0470884 ], [ -55.1487986, -29.0457695 ], [ -55.1489327, -29.0453784 ], [ -55.1485684, -29.0454264 ], [ -55.1480639, -29.0455803 ], [ -55.1475946, -29.0457341 ], [ -55.1456938, -29.0466573 ], [ -55.145201, -29.0468522 ], [ -55.1446612, -29.0470061 ], [ -55.1441215, -29.0470574 ], [ -55.1417162, -29.0471189 ], [ -55.1411412, -29.0471189 ], [ -55.1404959, -29.0469651 ], [ -55.1383886, -29.0464254 ], [ -55.1381727, -29.0463701 ], [ -55.1377034, -29.0463188 ], [ -55.1372927, -29.0463393 ], [ -55.1368938, -29.0464111 ], [ -55.1364479, -29.0465855 ], [ -55.1355444, -29.0469958 ], [ -55.1351807, -29.0471189 ], [ -55.1347114, -29.04716 ], [ -55.1342303, -29.0471189 ], [ -55.1332916, -29.0469753 ], [ -55.132834, -29.0469548 ], [ -55.1323882, -29.0469753 ], [ -55.1319892, -29.0471292 ], [ -55.1315903, -29.0472933 ], [ -55.1312618, -29.047498399999988 ], [ -55.1310036, -29.0477446 ], [ -55.1340644, -29.050968 ], [ -55.1366648, -29.0502446 ] ] ] } },
{ "type": "Feature", "properties": { "name": "Bertoldo Trindade", "code_muni": 4322376.0, "name_muni": "Unistalda" }, "geometry": { "type": "Polygon", "coordinates": [ [ [ -55.139773, -29.0504823 ], [ -55.1414467, -29.0501447 ], [ -55.1431257, -29.05014 ], [ -55.143115, -29.0519665 ], [ -55.1470954, -29.0519384 ], [ -55.1470712, -29.050222 ], [ -55.1483131, -29.0500902 ], [ -55.1489139, -29.0501652 ], [ -55.1495255, -29.050409 ], [ -55.1501585, -29.0506154 ], [ -55.1511241, -29.0506529 ], [ -55.1526154, -29.050531 ], [ -55.152716, -29.0500872 ], [ -55.1528467, -29.0494708 ], [ -55.1525832, -29.0494667 ], [ -55.1521589, -29.0495518 ], [ -55.1518932, -29.0495883 ], [ -55.1514946, -29.0496069 ], [ -55.1510695, -29.0495998 ], [ -55.1504529, -29.0495166 ], [ -55.1492845, -29.0492657 ], [ -55.1485706, -29.0491268 ], [ -55.1481889, -29.0490956 ], [ -55.1479148, -29.0491095 ], [ -55.14745520000001, -29.0492002 ], [ -55.146645, -29.049389800000011 ], [ -55.1458635, -29.0495076 ], [ -55.1452624, -29.0495099 ], [ -55.144733, -29.0494521 ], [ -55.1433675, -29.0491715 ], [ -55.1429716, -29.0491175 ], [ -55.1425484, -29.0490986 ], [ -55.1420988, -29.0490969 ], [ -55.1416756, -29.0491241 ], [ -55.1407112, -29.0492574 ], [ -55.1400999, -29.0493709 ], [ -55.1396516, -29.0494401 ], [ -55.1388967, -29.049626 ], [ -55.1378884, -29.0499092 ], [ -55.1377366, -29.0499484 ], [ -55.1366648, -29.0502446 ], [ -55.1340644, -29.050968 ], [ -55.1325153, -29.0513889 ], [ -55.1318402, -29.0515769 ], [ -55.131813, -29.0525227 ], [ -55.139773, -29.0504823 ] ] ] } }
]
}
