{
"type": "FeatureCollection",
"name": "bairros_sao_paulo_das_missoes",
"crs": { "type": "name", "properties": { "name": "urn:ogc:def:crs:OGC:1.3:CRS84" } },
"features": [
{ "type": "Feature", "properties": { "code_muni": 4319307.0, "name_muni": "São Paulo das Missões", "code_state": 43.0, "abbrev_state": "RS", "name_state": "Rio Grande do Sul", "code_region": 4.0, "name_region": "Sul", "year": 2022.0 }, "geometry": { "type": "Polygon", "coordinates": [ [ [ -54.928047982999892, -28.05583911 ], [ -54.981093766999898, -28.056102155 ], [ -54.986097597, -28.054155567 ], [ -54.989833776, -28.054466315 ], [ -54.99217935, -28.052757522 ], [ -54.9935949219999, -28.053261198 ], [ -54.996900981, -28.047905804 ], [ -55.006430093999903, -28.043314692999989 ], [ -55.007402844, -28.041173339999901 ], [ -55.016386108999903, -28.038093850999886 ], [ -55.017768914, -28.03953997199989 ], [ -55.023324631, -28.029032389 ], [ -55.022485978, -28.028638018 ], [ -55.029072184, -28.021621426 ], [ -55.026667244999899, -28.0192645999999 ], [ -55.029735136999903, -28.016271332 ], [ -55.031064672, -28.019635004999902 ], [ -55.046708983, -28.002382198 ], [ -55.057487384, -28.0021436 ], [ -55.067765913, -28.007691528999899 ], [ -55.067086931999896, -28.011569294 ], [ -55.073249773, -28.011505192 ], [ -55.079570837999896, -27.942181677999901 ], [ -55.048533459999902, -27.941962240999903 ], [ -55.04858115199989, -27.922799007 ], [ -55.0326484839999, -27.922556631 ], [ -55.031799283999902, -27.924391044999897 ], [ -55.021863763999896, -27.924581498 ], [ -55.021716134, -27.922279027999895 ], [ -55.020604816999899, -27.922294484 ], [ -55.018626406, -27.924968196999902 ], [ -55.016242722, -27.924948808 ], [ -55.01649324999989, -27.916540246 ], [ -55.006367516, -27.916307017 ], [ -55.006497376, -27.907612270999891 ], [ -55.003872816, -27.9075375749999 ], [ -55.003172429999893, -27.909069460999905 ], [ -54.997820404, -27.908872352999897 ], [ -54.988268507, -27.904743179 ], [ -54.9755364929999, -27.9094232529999 ], [ -54.979589263, -27.914984631 ], [ -54.978085283, -27.918446006 ], [ -54.973589977, -27.918979349 ], [ -54.96874287299989, -27.916973672 ], [ -54.966490119, -27.918337439 ], [ -54.964746932, -27.922253347 ], [ -54.967445734, -27.927284212 ], [ -54.968901038, -27.935123029999907 ], [ -54.961665728, -27.936614049 ], [ -54.957128393999895, -27.934339829 ], [ -54.952315117999902, -27.93578767 ], [ -54.942418588, -27.93001972 ], [ -54.939355319999891, -27.93017423 ], [ -54.93941933, -27.935877033999891 ], [ -54.941571242, -27.939548124999902 ], [ -54.941135102, -27.947997277999896 ], [ -54.937686266, -27.947147149999985 ], [ -54.936338269, -27.943159540999897 ], [ -54.93043018, -27.939765948999895 ], [ -54.932191443, -27.9467798979999 ], [ -54.9242364199999, -27.951498747 ], [ -54.907819952, -27.94921224 ], [ -54.911391769, -27.955836947 ], [ -54.92064234, -27.95602115 ], [ -54.921769593, -27.959733464 ], [ -54.914951894999902, -27.960079814 ], [ -54.909912256, -27.967419446999902 ], [ -54.903902813999899, -27.971516143999988 ], [ -54.900916313, -27.964488463999903 ], [ -54.898574993999901, -27.962475332999908 ], [ -54.897210964, -27.965326042999905 ], [ -54.897722578, -27.968015711 ], [ -54.894905313, -27.97228797 ], [ -54.91018486, -27.984980483999902 ], [ -54.911874919, -27.989729666999896 ], [ -54.901325965999895, -27.99449012 ], [ -54.899812402, -27.989912956 ], [ -54.891975339999902, -27.990729637 ], [ -54.886010531999901, -27.9887616779999 ], [ -54.882796704, -27.992521971 ], [ -54.883916996, -27.99690756 ], [ -54.877045251, -27.997619922999899 ], [ -54.876530996, -27.999599045 ], [ -54.873352257, -28.001529483999899 ], [ -54.869550407, -28.000553393 ], [ -54.864950171, -27.997076137 ], [ -54.861358039, -27.998117932 ], [ -54.872995968999902, -28.008887425999902 ], [ -54.876163249999898, -28.017027442999989 ], [ -54.874232438, -28.017195893 ], [ -54.870576146, -28.014865196 ], [ -54.86658892899991, -28.009381176 ], [ -54.866378117999894, -28.045716876 ], [ -54.906609124999896, -28.045987796 ], [ -54.906530685999897, -28.057615326 ], [ -54.928007833, -28.057554883 ], [ -54.928047982999892, -28.05583911 ] ] ] } }
]
}
