{
"type": "FeatureCollection",
"name": "bairros_viadutos",
"crs": { "type": "name", "properties": { "name": "urn:ogc:def:crs:OGC:1.3:CRS84" } },
"features": [
{ "type": "Feature", "properties": { "code_muni": 4322905.0, "name_muni": "Viadutos", "code_state": 43.0, "abbrev_state": "RS", "name_state": "Rio Grande do Sul", "code_region": 4.0, "name_region": "Sul", "year": 2022.0 }, "geometry": { "type": "Polygon", "coordinates": [ [ [ -52.002446982, -27.634965012999899 ], [ -52.010653162, -27.634870157 ], [ -52.012343297, -27.637143371 ], [ -52.006445878, -27.639393615 ], [ -52.008827408999892, -27.643181246 ], [ -52.006750630999896, -27.647862231 ], [ -52.008338065, -27.649548202999899 ], [ -52.013259273999893, -27.650360705 ], [ -52.019235769, -27.643640853 ], [ -52.026999192999902, -27.643312669 ], [ -52.03399143, -27.63922372 ], [ -52.037355003, -27.644090288 ], [ -52.041202783, -27.645516362 ], [ -52.041122373, -27.595102772 ], [ -52.042886321, -27.595105965999906 ], [ -52.048700676, -27.589693863 ], [ -52.056067409, -27.591277537999897 ], [ -52.061278955, -27.589104087 ], [ -52.065653363, -27.590290926 ], [ -52.066337932, -27.586319373 ], [ -52.069215954, -27.585321055 ], [ -52.054217902999895, -27.5425287539999 ], [ -52.065955942999899, -27.542602286 ], [ -52.065684779, -27.534672381999901 ], [ -52.076828679999892, -27.53442896 ], [ -52.076706809, -27.529367684 ], [ -52.078757117, -27.528592736 ], [ -52.075115347999898, -27.526567615 ], [ -52.076169503999893, -27.518993419 ], [ -52.079238693, -27.517779141999895 ], [ -52.083891299999891, -27.520403562 ], [ -52.08791846, -27.520045782999894 ], [ -52.088763977, -27.518803423999895 ], [ -52.085392705999901, -27.515254062999897 ], [ -52.077207089, -27.514980616999896 ], [ -52.07416548, -27.513104509999895 ], [ -52.074861993, -27.512228247999897 ], [ -52.079456491, -27.513459098999892 ], [ -52.082971761, -27.511143058999892 ], [ -52.0881673969999, -27.510277206 ], [ -52.088796296999902, -27.507683162 ], [ -52.086166593, -27.506219837999904 ], [ -52.07833535, -27.506561201 ], [ -52.0750483469999, -27.504722328 ], [ -52.079584656, -27.50176733 ], [ -52.079995917, -27.496325875 ], [ -52.073573377999899, -27.491600154 ], [ -52.067031189, -27.491726899 ], [ -52.066647964, -27.453918304999892 ], [ -52.02880665299989, -27.454530307 ], [ -52.029751216, -27.435938101 ], [ -52.020079022999894, -27.432289996999899 ], [ -52.014336854, -27.434477197 ], [ -52.011506462999897, -27.43888164 ], [ -52.010255727, -27.444316245 ], [ -52.011097850999896, -27.446773022999899 ], [ -52.006022344, -27.450484017999901 ], [ -52.004528218, -27.453734634999901 ], [ -52.001191035, -27.454772064999894 ], [ -51.997863426, -27.453427952 ], [ -51.99445471300001, -27.456793462 ], [ -51.995298321999897, -27.459880024 ], [ -51.992048794, -27.462541395 ], [ -51.994431431999899, -27.4646190089999 ], [ -51.99711468, -27.464961619999897 ], [ -51.998053216999899, -27.48714827 ], [ -51.988506931, -27.486800511999895 ], [ -51.988582107, -27.499700011999892 ], [ -51.979088788999903, -27.4995526 ], [ -51.970643987, -27.505477475 ], [ -51.970831227, -27.503933995 ], [ -51.956369026999901, -27.512366353999901 ], [ -51.955629358999893, -27.523131072999902 ], [ -51.958069285, -27.52520655 ], [ -51.961176705999897, -27.524746044 ], [ -51.963610054999897, -27.530371101 ], [ -51.962580585, -27.532831390999899 ], [ -51.965587607, -27.534369281999901 ], [ -51.966921365, -27.538035979 ], [ -51.970610754999896, -27.539533224 ], [ -51.970049574, -27.543071196 ], [ -51.972538076, -27.542704258999898 ], [ -51.975844359999897, -27.546663039999903 ], [ -51.97516861, -27.548890415999892 ], [ -51.970877277999897, -27.552851228999895 ], [ -51.967117827, -27.563597140999896 ], [ -51.969013392, -27.569112317 ], [ -51.971205095999899, -27.567184067 ], [ -51.975037835, -27.577199145 ], [ -51.968884096999894, -27.580474151 ], [ -51.964237038, -27.580742621 ], [ -51.94866066, -27.588361704 ], [ -51.944106346, -27.580542729999905 ], [ -51.937069239, -27.578891346 ], [ -51.916166295, -27.592497613 ], [ -51.911135121, -27.595197733 ], [ -51.907337841, -27.59553929 ], [ -51.898569635999891, -27.594494008 ], [ -51.895922672, -27.590298993 ], [ -51.900159366, -27.585868971 ], [ -51.90020234699989, -27.583400643999909 ], [ -51.896811482, -27.578547618 ], [ -51.891665105, -27.578965764999989 ], [ -51.884945503, -27.587519899 ], [ -51.88269571, -27.592737466 ], [ -51.888150720999903, -27.598660503 ], [ -51.898713868999891, -27.602014058999895 ], [ -51.900048846999894, -27.603782467 ], [ -51.893539065, -27.610480063 ], [ -51.8923210519999, -27.616362007 ], [ -51.886643165, -27.624418632 ], [ -51.884196516, -27.6256045559999 ], [ -51.872648367, -27.622267214 ], [ -51.869506403999893, -27.625811926 ], [ -51.868865907, -27.631568953999903 ], [ -51.887768599, -27.6318778 ], [ -51.891215316999897, -27.634984614 ], [ -51.889962638, -27.638158879999899 ], [ -51.880714602999902, -27.643227338 ], [ -51.878064692, -27.650820963999898 ], [ -51.871191314, -27.657279011 ], [ -51.870970666999895, -27.66076658 ], [ -51.876134025999903, -27.660460575999899 ], [ -51.891086297999898, -27.648789654 ], [ -51.897410822, -27.647355758999897 ], [ -51.899347207999895, -27.648546054999905 ], [ -51.896401657, -27.652158390999901 ], [ -51.907025585, -27.651160852 ], [ -51.908117596, -27.6544401089999 ], [ -51.947175907, -27.665401256999893 ], [ -51.946804071, -27.666855316999904 ], [ -51.973479214, -27.673016622 ], [ -51.982150104, -27.720391060999894 ], [ -51.988597182, -27.716756333 ], [ -51.997557914, -27.699117697999988 ], [ -52.001260037999899, -27.694466932 ], [ -52.001355739, -27.685685409 ], [ -51.997176466, -27.686298356999899 ], [ -51.996364663999898, -27.685219307999901 ], [ -51.9959431629999, -27.669312598 ], [ -51.990795712, -27.669263832 ], [ -51.990693657999891, -27.648980648 ], [ -51.988853199999895, -27.647618848 ], [ -51.987131485, -27.639090852 ], [ -52.001873217, -27.640535488 ], [ -52.002446982, -27.634965012999899 ] ] ] } }
]
}
