{
"type": "FeatureCollection",
"name": "bairros_pantano_grande",
"crs": { "type": "name", "properties": { "name": "urn:ogc:def:crs:OGC:1.3:CRS84" } },
"features": [
{ "type": "Feature", "properties": { "code_muni": 4313953.0, "name_muni": "Pantano Grande", "code_state": 43.0, "abbrev_state": "RS", "name_state": "Rio Grande do Sul", "code_region": 4.0, "name_region": "Sul", "year": 2022.0 }, "geometry": { "type": "Polygon", "coordinates": [ [ [ -52.314303735999893, -30.343412753999903 ], [ -52.319379759, -30.346749122999903 ], [ -52.324139073, -30.356296867 ], [ -52.333943093, -30.359823069 ], [ -52.341494472, -30.358538317 ], [ -52.345277524, -30.359184182 ], [ -52.347934818999896, -30.357552037999895 ], [ -52.351240815, -30.35798607700001 ], [ -52.356985338999898, -30.362024796 ], [ -52.368721291999989, -30.364463396 ], [ -52.370313283, -30.367583877 ], [ -52.377182491, -30.369876202999908 ], [ -52.384463693, -30.376743049 ], [ -52.393431088999897, -30.376579407 ], [ -52.399350644, -30.378347554999898 ], [ -52.402214812, -30.380796014999902 ], [ -52.405085151, -30.380438758 ], [ -52.414364309999897, -30.375612078999886 ], [ -52.417005992, -30.3716118 ], [ -52.416306199, -30.369005011 ], [ -52.418903155, -30.362983028999988 ], [ -52.501503737, -30.362347773 ], [ -52.504444833, -30.359193239 ], [ -52.509070429, -30.35216164199991 ], [ -52.507272804, -30.338330326999895 ], [ -52.510816260999896, -30.326236509999895 ], [ -52.506900823, -30.32117189 ], [ -52.507485829, -30.315919559999912 ], [ -52.505227927999989, -30.314032257999902 ], [ -52.507176974999901, -30.311326242999897 ], [ -52.505868495999898, -30.309642787 ], [ -52.507444221, -30.304806708999894 ], [ -52.513270646, -30.300606996999896 ], [ -52.517295492999892, -30.291947421 ], [ -52.5172355999999, -30.283766415999899 ], [ -52.520361662, -30.279309355999896 ], [ -52.523225921999902, -30.279058486999901 ], [ -52.5355447869999, -30.269424571999892 ], [ -52.532580212, -30.264702329999988 ], [ -52.532610115, -30.259756554 ], [ -52.53409082799989, -30.258578993 ], [ -52.532754850999893, -30.256382298999903 ], [ -52.533680015999899, -30.252865256 ], [ -52.537435376, -30.247823111999892 ], [ -52.535555335, -30.245322738 ], [ -52.535519400999902, -30.238917804 ], [ -52.538640734999895, -30.234832669999903 ], [ -52.534119921, -30.228832213999986 ], [ -52.534886295, -30.224440306 ], [ -52.5320340809999, -30.218534181999896 ], [ -52.536562961999898, -30.20683003800001 ], [ -52.538251666, -30.205365206 ], [ -52.536852403999902, -30.202079222 ], [ -52.537767199, -30.200337884 ], [ -52.535830229999895, -30.1968988799999 ], [ -52.537079481, -30.193325858 ], [ -52.540350396999891, -30.191594519 ], [ -52.552096233, -30.189793659 ], [ -52.5528310239999, -30.187765209 ], [ -52.551402207, -30.18513294 ], [ -52.556493046, -30.180830016999906 ], [ -52.556113887, -30.175856198 ], [ -52.557959188, -30.172136173999906 ], [ -52.552153562999898, -30.169046266 ], [ -52.553192018999894, -30.162920062999895 ], [ -52.550622731, -30.158857369 ], [ -52.54395602999989, -30.155089272999898 ], [ -52.544836672, -30.145734262 ], [ -52.543716047, -30.141323104 ], [ -52.540272843, -30.137108918 ], [ -52.536027528, -30.135011565 ], [ -52.531924353, -30.128511525 ], [ -52.527240788, -30.1257704299999 ], [ -52.526268478, -30.122478290999894 ], [ -52.522310537, -30.120865366 ], [ -52.520066164999896, -30.118130694999891 ], [ -52.522001378, -30.116050978 ], [ -52.521003386, -30.113733502999899 ], [ -52.523337458999897, -30.109736229 ], [ -52.523270942999901, -30.104022626999885 ], [ -52.5254582439999, -30.103039727 ], [ -52.524664066999897, -30.101462346999899 ], [ -52.509321887999896, -30.093773402999904 ], [ -52.506780553999903, -30.096708307 ], [ -52.507900642, -30.104471334 ], [ -52.50709831599989, -30.10787062 ], [ -52.502264086, -30.112129538 ], [ -52.494938142, -30.112195542999892 ], [ -52.487447039, -30.108185233 ], [ -52.480912614, -30.108078285 ], [ -52.475151578, -30.105381543 ], [ -52.4760773739999, -30.101511296999895 ], [ -52.489014864999902, -30.098641029 ], [ -52.491228877, -30.096392701 ], [ -52.491630185, -30.094766619 ], [ -52.489091171, -30.090827590999901 ], [ -52.471542125, -30.092614346999895 ], [ -52.448064256, -30.086956571 ], [ -52.440705104, -30.091168936 ], [ -52.436877997, -30.091229004999892 ], [ -52.431683345999893, -30.089984714 ], [ -52.4192724339999, -30.082933693000012 ], [ -52.418866261999895, -30.078795327 ], [ -52.417686812999889, -30.081531981999895 ], [ -52.411588391999899, -30.084177714 ], [ -52.409401918, -30.0869427 ], [ -52.404816416, -30.08455749699991 ], [ -52.397378674, -30.086205019 ], [ -52.394706848999903, -30.0818676009999 ], [ -52.392463243, -30.081981786 ], [ -52.389924476, -30.083922293999908 ], [ -52.38714691, -30.084206621 ], [ -52.387196270999901, -30.089091061 ], [ -52.38404703899991, -30.091741871999904 ], [ -52.382621781, -30.096952694 ], [ -52.378057903, -30.102466616 ], [ -52.372594367, -30.114089532 ], [ -52.375601538999895, -30.119105244 ], [ -52.377329163, -30.12787774600001 ], [ -52.370084546, -30.131754601 ], [ -52.363507564, -30.133380109 ], [ -52.351031683, -30.1417532749999 ], [ -52.341679136, -30.158947280999897 ], [ -52.335555596999896, -30.162612614 ], [ -52.334515236, -30.164901033 ], [ -52.331367277, -30.161140771 ], [ -52.331653549, -30.157396167999899 ], [ -52.333563211999895, -30.156380547 ], [ -52.331016352999903, -30.153745347 ], [ -52.333271861999897, -30.150371177 ], [ -52.331171737, -30.145565394999903 ], [ -52.327529005, -30.143487095 ], [ -52.310774115, -30.141727698999901 ], [ -52.30744146699989, -30.143042121 ], [ -52.30167884, -30.139560407 ], [ -52.294666424, -30.137555742 ], [ -52.289454274, -30.138548568 ], [ -52.284430455999896, -30.137049049 ], [ -52.265812503999904, -30.141559204 ], [ -52.256514421, -30.142065591999891 ], [ -52.256799521999895, -30.146217984 ], [ -52.259049478, -30.148200385999896 ], [ -52.260874975, -30.148405854 ], [ -52.261505578, -30.146957681999901 ], [ -52.26595315, -30.148116778 ], [ -52.265469245, -30.148956343 ], [ -52.267871447999894, -30.151031698999898 ], [ -52.271342563, -30.151705150999899 ], [ -52.27255765000001, -30.151438857 ], [ -52.271944493, -30.14963155 ], [ -52.281068801999893, -30.147987251 ], [ -52.281983453, -30.152293055 ], [ -52.286150542, -30.150968548 ], [ -52.288173796, -30.152952919 ], [ -52.291521933999903, -30.153304072 ], [ -52.292725436, -30.156419483 ], [ -52.294283531, -30.156309866 ], [ -52.293074998, -30.16143847 ], [ -52.294076487, -30.1697199 ], [ -52.284641123, -30.180644874999899 ], [ -52.27783296, -30.18304847 ], [ -52.277518318, -30.185196204 ], [ -52.279890561999899, -30.187564074 ], [ -52.278304972999891, -30.191492567999894 ], [ -52.279889861, -30.194892667 ], [ -52.278884355999892, -30.196633614999897 ], [ -52.280404958, -30.198837887 ], [ -52.279766338999899, -30.201517985999892 ], [ -52.281816847999899, -30.202700158 ], [ -52.284261721, -30.207795260999905 ], [ -52.283181526, -30.212517741999893 ], [ -52.285753488999895, -30.218507331999895 ], [ -52.280518496, -30.222888597999898 ], [ -52.281904491, -30.224254158 ], [ -52.281197102, -30.225383942999905 ], [ -52.278234031999901, -30.227062214999901 ], [ -52.276048328999899, -30.231994651 ], [ -52.276828979, -30.239297391 ], [ -52.272986628, -30.242445725 ], [ -52.278727652, -30.252448963999896 ], [ -52.279391876, -30.257385465 ], [ -52.277824220999896, -30.2635471299999 ], [ -52.272703647, -30.263367883999901 ], [ -52.269756626999893, -30.267611020999894 ], [ -52.267553161, -30.267911075999987 ], [ -52.266456666, -30.269507287 ], [ -52.261592236, -30.269284995 ], [ -52.259724156999894, -30.270601249 ], [ -52.253654513999898, -30.269705191 ], [ -52.253059561, -30.265504534999902 ], [ -52.248947003, -30.265327876999908 ], [ -52.243659415, -30.262150208 ], [ -52.237906961, -30.262908078 ], [ -52.234981763999897, -30.267067717 ], [ -52.232224970999894, -30.262512274 ], [ -52.224448674, -30.25588945 ], [ -52.209760587999902, -30.259599087 ], [ -52.208056688999903, -30.265694809 ], [ -52.203229007999902, -30.266893968 ], [ -52.204529032, -30.273984044 ], [ -52.203225061999902, -30.276010637999892 ], [ -52.199265054, -30.279128026 ], [ -52.19539864, -30.279900892999908 ], [ -52.194222468, -30.284299180999898 ], [ -52.185813469, -30.288325089999894 ], [ -52.187107059, -30.2944646669999 ], [ -52.184797174, -30.300097987999912 ], [ -52.179779359999891, -30.305175977 ], [ -52.175205962999897, -30.315195671 ], [ -52.173964194999897, -30.326248302 ], [ -52.169465069, -30.321507657 ], [ -52.166816357999892, -30.321677097 ], [ -52.165805178, -30.323092323 ], [ -52.163194145, -30.322243152999899 ], [ -52.158698393999892, -30.325808012 ], [ -52.158000205, -30.330438972 ], [ -52.153528329, -30.334584742999894 ], [ -52.160232246, -30.3378265539999 ], [ -52.158928763999903, -30.345507075999905 ], [ -52.162033983, -30.345101639999903 ], [ -52.164066229999889, -30.346563177999901 ], [ -52.16361597, -30.35011996 ], [ -52.166551808, -30.360865786 ], [ -52.171993287, -30.363354349 ], [ -52.170956632999903, -30.370531886 ], [ -52.174997505, -30.376757727 ], [ -52.178036445, -30.378235821 ], [ -52.179786427, -30.386383821 ], [ -52.17890534, -30.389620810999904 ], [ -52.180255112999895, -30.391413497 ], [ -52.177980092, -30.392934732999898 ], [ -52.178756463999896, -30.396858557 ], [ -52.177006624999891, -30.399456648999895 ], [ -52.17855144100001, -30.403193691999896 ], [ -52.174388652999895, -30.408264233 ], [ -52.175633329999989, -30.413756559 ], [ -52.173557617, -30.421476863999899 ], [ -52.1638708, -30.429395136 ], [ -52.158723112, -30.442726268999895 ], [ -52.163829899999897, -30.444298809 ], [ -52.169386529, -30.441978925999901 ], [ -52.172077144999896, -30.4425838659999 ], [ -52.183865330999893, -30.449113403999895 ], [ -52.188915627, -30.445333715999901 ], [ -52.197909100999894, -30.445992052999898 ], [ -52.201534236, -30.447547185 ], [ -52.206378604, -30.445247459 ], [ -52.212784399, -30.447805408 ], [ -52.219139247, -30.446140015 ], [ -52.222862138, -30.440202628999884 ], [ -52.227859028, -30.436386381 ], [ -52.232027640999902, -30.437140008 ], [ -52.233927675, -30.435987032999897 ], [ -52.234794385, -30.433416814999898 ], [ -52.2328536529999, -30.426957812999895 ], [ -52.252150344, -30.417953865 ], [ -52.251209837, -30.413432096 ], [ -52.25849884, -30.407644986 ], [ -52.256696215, -30.402662635 ], [ -52.263781147, -30.394638609 ], [ -52.261798649, -30.388938767999885 ], [ -52.264807838, -30.386128936 ], [ -52.261226190999899, -30.382717462 ], [ -52.263680581, -30.373493569999901 ], [ -52.265909006, -30.373035252 ], [ -52.268833029999897, -30.368882229999905 ], [ -52.27157668, -30.368817524999898 ], [ -52.272449596999891, -30.370177323999901 ], [ -52.27311947, -30.368765765 ], [ -52.277633788999907, -30.368053335999903 ], [ -52.281431774999895, -30.364751144 ], [ -52.280979492, -30.362951419999902 ], [ -52.284841628, -30.361558278 ], [ -52.288739808999892, -30.356415591 ], [ -52.290332044, -30.347108552 ], [ -52.297946324999891, -30.342288241999892 ], [ -52.297789485999893, -30.338489387 ], [ -52.29960912699989, -30.334005571 ], [ -52.305589607999899, -30.336766197 ], [ -52.303793259, -30.341781596 ], [ -52.304255542, -30.344408386999895 ], [ -52.314303735999893, -30.343412753999903 ] ] ] } }
]
}
