{
"type": "FeatureCollection",
"name": "bairros_sao_martinho",
"crs": { "type": "name", "properties": { "name": "urn:ogc:def:crs:OGC:1.3:CRS84" } },
"features": [
{ "type": "Feature", "properties": { "name": "Nossa Senhora das Graças", "code_muni": 4319109.0, "name_muni": "São Martinho" }, "geometry": { "type": "Polygon", "coordinates": [ [ [ -53.9669284, -27.7026119 ], [ -53.9614653, -27.7038753 ], [ -53.9588687, -27.7024353 ], [ -53.9579985, -27.702819 ], [ -53.9597327, -27.7053319 ], [ -53.9593092, -27.7056164 ], [ -53.9587124, -27.706094 ], [ -53.9570694, -27.7077414 ], [ -53.9574932, -27.7080335 ], [ -53.9577113, -27.7081686 ], [ -53.957773, -27.7082101 ], [ -53.9594481, -27.706495 ], [ -53.959611700000011, -27.7063656 ], [ -53.9598902, -27.7062078 ], [ -53.9602205, -27.706031899999989 ], [ -53.9606055, -27.7058048 ], [ -53.9618634, -27.705272 ], [ -53.9620866, -27.7052156 ], [ -53.9626432, -27.7050731 ], [ -53.963299, -27.704992499999985 ], [ -53.963766, -27.7049968 ], [ -53.9640115, -27.7049956 ], [ -53.9644116, -27.7049895 ], [ -53.9645496, -27.7049904 ], [ -53.965466, -27.7049984 ], [ -53.9663485, -27.7050089 ], [ -53.9670133, -27.7050061 ], [ -53.9673998, -27.7049956 ], [ -53.9680576, -27.7049702 ], [ -53.9684591, -27.7049707 ], [ -53.9688764, -27.7049678 ], [ -53.9692971, -27.7049651 ], [ -53.9690001, -27.7048512 ], [ -53.9688443, -27.7046318 ], [ -53.9685453, -27.7043029 ], [ -53.967699, -27.703508599999989 ], [ -53.9675635, -27.703391 ], [ -53.9674978, -27.7032936 ], [ -53.9674884, -27.703179699999989 ], [ -53.9669284, -27.7026119 ] ] ] } },
{ "type": "Feature", "properties": { "name": "Santo Antônio", "code_muni": 4319109.0, "name_muni": "São Martinho" }, "geometry": { "type": "Polygon", "coordinates": [ [ [ -53.9674978, -27.7032936 ], [ -53.9675635, -27.703391 ], [ -53.967699, -27.703508599999989 ], [ -53.9685453, -27.7043029 ], [ -53.9688443, -27.7046318 ], [ -53.9690001, -27.7048512 ], [ -53.9692971, -27.7049651 ], [ -53.9695681, -27.7049579 ], [ -53.9698552, -27.7049279 ], [ -53.9702616, -27.7049149 ], [ -53.9707961, -27.7048711 ], [ -53.9709454, -27.704840799999989 ], [ -53.9710146, -27.7048228 ], [ -53.9712294, -27.7047669 ], [ -53.9713155, -27.7047166 ], [ -53.9714841, -27.704637399999989 ], [ -53.9718824, -27.7043956 ], [ -53.9722057, -27.7042073 ], [ -53.9726087, -27.7039633 ], [ -53.9729856, -27.7036819 ], [ -53.9732806, -27.7034254 ], [ -53.9736049, -27.7031058 ], [ -53.9738872, -27.7027797 ], [ -53.9739536, -27.7026933 ], [ -53.9741023, -27.702511 ], [ -53.9741351, -27.7024708 ], [ -53.9742807, -27.7022705 ], [ -53.9744805, -27.7019379 ], [ -53.9750026, -27.7008631 ], [ -53.9747882, -27.7008043 ], [ -53.9745295, -27.7009801 ], [ -53.9739686, -27.7009296 ], [ -53.9733678, -27.7009391 ], [ -53.9733656, -27.6997818 ], [ -53.97279, -27.6998977 ], [ -53.9680782, -27.7005796 ], [ -53.9667829, -27.7007649 ], [ -53.9668134, -27.7016725 ], [ -53.9668814, -27.7025198 ], [ -53.9669284, -27.7026119 ], [ -53.9674884, -27.703179699999989 ], [ -53.9674978, -27.7032936 ] ] ] } },
{ "type": "Feature", "properties": { "name": "Esquina Blassi", "code_muni": 4319109.0, "name_muni": "São Martinho" }, "geometry": { "type": "Polygon", "coordinates": [ [ [ -53.9750026, -27.7008631 ], [ -53.9752831, -27.7002935 ], [ -53.9758847, -27.6991771 ], [ -53.976039, -27.6989024 ], [ -53.9767315, -27.6976262 ], [ -53.9774342, -27.696732 ], [ -53.9779438, -27.6962108 ], [ -53.9783406, -27.6958949 ], [ -53.9787241, -27.6956139 ], [ -53.979541500000011, -27.6951677 ], [ -53.9799299, -27.6949472 ], [ -53.9797176, -27.6941811 ], [ -53.979482, -27.6942828 ], [ -53.978608, -27.6947686 ], [ -53.9778825, -27.6952641 ], [ -53.9775273, -27.6955618 ], [ -53.9761749, -27.6953884 ], [ -53.9732283, -27.6962202 ], [ -53.9740357, -27.6966619 ], [ -53.9726838, -27.6985213 ], [ -53.97280760000001, -27.6989923 ], [ -53.97279, -27.6998977 ], [ -53.9733656, -27.6997818 ], [ -53.9733678, -27.7009391 ], [ -53.9739686, -27.7009296 ], [ -53.9745295, -27.7009801 ], [ -53.9747882, -27.7008043 ], [ -53.9750026, -27.7008631 ] ] ] } },
{ "type": "Feature", "properties": { "name": "Novo", "code_muni": 4319109.0, "name_muni": "São Martinho" }, "geometry": { "type": "Polygon", "coordinates": [ [ [ -53.9763147, -27.7063073 ], [ -53.9775795, -27.7057454 ], [ -53.9784064, -27.7053351 ], [ -53.9788812, -27.705186 ], [ -53.9784747, -27.7047288 ], [ -53.9781047, -27.7044582 ], [ -53.9779961, -27.7040903 ], [ -53.9779428, -27.7033497 ], [ -53.9778915, -27.7030599 ], [ -53.9777115, -27.7030503 ], [ -53.976618, -27.7029347 ], [ -53.9757941, -27.7026531 ], [ -53.975755, -27.7010231 ], [ -53.9759842, -27.6998394 ], [ -53.9765838, -27.6986349 ], [ -53.9768609, -27.6981601 ], [ -53.9772779, -27.6974901 ], [ -53.9775061, -27.6971944 ], [ -53.9780235, -27.6966407 ], [ -53.9783625, -27.6963361 ], [ -53.9786744, -27.6960906 ], [ -53.9793341, -27.6956478 ], [ -53.9800944, -27.6952247 ], [ -53.9799299, -27.6949472 ], [ -53.979541500000011, -27.6951677 ], [ -53.9787241, -27.6956139 ], [ -53.9783406, -27.6958949 ], [ -53.9779438, -27.6962108 ], [ -53.9774342, -27.696732 ], [ -53.9767315, -27.6976262 ], [ -53.976039, -27.6989024 ], [ -53.9758847, -27.6991771 ], [ -53.9752831, -27.7002935 ], [ -53.9750026, -27.7008631 ], [ -53.9744805, -27.7019379 ], [ -53.9742807, -27.7022705 ], [ -53.9741351, -27.7024708 ], [ -53.9741023, -27.702511 ], [ -53.9739536, -27.7026933 ], [ -53.9738872, -27.7027797 ], [ -53.9736049, -27.7031058 ], [ -53.9732806, -27.7034254 ], [ -53.9729856, -27.7036819 ], [ -53.9726087, -27.7039633 ], [ -53.9722057, -27.7042073 ], [ -53.9718824, -27.7043956 ], [ -53.9714841, -27.704637399999989 ], [ -53.9713155, -27.7047166 ], [ -53.9712294, -27.7047669 ], [ -53.9710146, -27.7048228 ], [ -53.9709454, -27.704840799999989 ], [ -53.9710022, -27.7048712 ], [ -53.9710582, -27.7049597 ], [ -53.9710428, -27.7050889 ], [ -53.9710109, -27.7051598 ], [ -53.9709666, -27.7052582 ], [ -53.9702836, -27.7065703 ], [ -53.9702136, -27.7068674 ], [ -53.9700644, -27.7073747 ], [ -53.969979, -27.7078704 ], [ -53.9698515, -27.7086304 ], [ -53.9698367, -27.7087112 ], [ -53.9699206, -27.7087242 ], [ -53.9700754, -27.7087619 ], [ -53.9709184, -27.7089104 ], [ -53.9708628, -27.7097468 ], [ -53.9706436, -27.7097935 ], [ -53.9708416, -27.7102928 ], [ -53.9710682, -27.7108115 ], [ -53.9713564, -27.7115775 ], [ -53.9716213, -27.7121829 ], [ -53.9718451, -27.7126963 ], [ -53.9718901, -27.7128229 ], [ -53.972028, -27.7131507 ], [ -53.9723315, -27.713909 ], [ -53.9728791, -27.7137765 ], [ -53.9718229, -27.7115173 ], [ -53.9738508, -27.7108887 ], [ -53.974989, -27.7105171 ], [ -53.9754712, -27.71035 ], [ -53.9749955, -27.709108499999989 ], [ -53.9750241, -27.7080715 ], [ -53.9762713, -27.7077396 ], [ -53.9763147, -27.7063073 ] ] ] } },
{ "type": "Feature", "properties": { "name": "Centro", "code_muni": 4319109.0, "name_muni": "São Martinho" }, "geometry": { "type": "Polygon", "coordinates": [ [ [ -53.9688764, -27.7049678 ], [ -53.9684591, -27.7049707 ], [ -53.9680576, -27.7049702 ], [ -53.9673998, -27.7049956 ], [ -53.9670133, -27.7050061 ], [ -53.9663485, -27.7050089 ], [ -53.965466, -27.7049984 ], [ -53.9645496, -27.7049904 ], [ -53.9644116, -27.7049895 ], [ -53.9640115, -27.7049956 ], [ -53.963766, -27.7049968 ], [ -53.963299, -27.704992499999985 ], [ -53.9626432, -27.7050731 ], [ -53.9620866, -27.7052156 ], [ -53.9618634, -27.705272 ], [ -53.9606055, -27.7058048 ], [ -53.9602205, -27.706031899999989 ], [ -53.9598902, -27.7062078 ], [ -53.959611700000011, -27.7063656 ], [ -53.9594481, -27.706495 ], [ -53.957773, -27.7082101 ], [ -53.9578378, -27.7082199 ], [ -53.9578834, -27.708211 ], [ -53.9579289, -27.7081971 ], [ -53.9581691, -27.7080418 ], [ -53.9583024, -27.7079698 ], [ -53.9585177, -27.7087578 ], [ -53.9587206, -27.7094912 ], [ -53.9587427, -27.7095593 ], [ -53.9590457, -27.7106087 ], [ -53.9590713, -27.7107164 ], [ -53.9591684, -27.7110695 ], [ -53.9591736, -27.7111514 ], [ -53.9591573, -27.7112454 ], [ -53.9590834, -27.7114319 ], [ -53.9589063, -27.7119542 ], [ -53.9585352, -27.7131169 ], [ -53.9583391, -27.7143137 ], [ -53.9582804, -27.7146597 ], [ -53.9587949, -27.714783199999989 ], [ -53.9589959, -27.7136476 ], [ -53.9632854, -27.7134532 ], [ -53.9649534, -27.713257 ], [ -53.9657956, -27.7130698 ], [ -53.9660067, -27.7125342 ], [ -53.9667106, -27.7124134 ], [ -53.9673182, -27.7123155 ], [ -53.9674321, -27.7122971 ], [ -53.9679294, -27.7122182 ], [ -53.9682677, -27.7121677 ], [ -53.9690503, -27.7120196 ], [ -53.9692908, -27.712005 ], [ -53.9698112, -27.7119124 ], [ -53.9701196, -27.7118507 ], [ -53.9713564, -27.7115775 ], [ -53.9710682, -27.7108115 ], [ -53.9708416, -27.7102928 ], [ -53.9706436, -27.7097935 ], [ -53.9708628, -27.7097468 ], [ -53.9709184, -27.7089104 ], [ -53.9700754, -27.7087619 ], [ -53.9699206, -27.7087242 ], [ -53.9698367, -27.7087112 ], [ -53.9698515, -27.7086304 ], [ -53.969979, -27.7078704 ], [ -53.9700644, -27.7073747 ], [ -53.9702136, -27.7068674 ], [ -53.9702836, -27.7065703 ], [ -53.9709666, -27.7052582 ], [ -53.9710109, -27.7051598 ], [ -53.9710428, -27.7050889 ], [ -53.9710582, -27.7049597 ], [ -53.9710022, -27.7048712 ], [ -53.9709454, -27.704840799999989 ], [ -53.9707961, -27.7048711 ], [ -53.9702616, -27.7049149 ], [ -53.9698552, -27.7049279 ], [ -53.9695681, -27.7049579 ], [ -53.9692971, -27.7049651 ], [ -53.9688764, -27.7049678 ] ] ] } },
{ "type": "Feature", "properties": { "name": "Jardim", "code_muni": 4319109.0, "name_muni": "São Martinho" }, "geometry": { "type": "Polygon", "coordinates": [ [ [ -53.9701196, -27.7118507 ], [ -53.9698112, -27.7119124 ], [ -53.9692908, -27.712005 ], [ -53.9690503, -27.7120196 ], [ -53.9682677, -27.7121677 ], [ -53.9679294, -27.7122182 ], [ -53.9674321, -27.7122971 ], [ -53.9673182, -27.7123155 ], [ -53.9667106, -27.7124134 ], [ -53.9660067, -27.7125342 ], [ -53.9657956, -27.7130698 ], [ -53.965719, -27.7132429 ], [ -53.9656402, -27.7137902 ], [ -53.9655056, -27.7140853 ], [ -53.9655348, -27.7143633 ], [ -53.9653919, -27.714765299999989 ], [ -53.9656813, -27.7153487 ], [ -53.9718901, -27.7128229 ], [ -53.9718451, -27.7126963 ], [ -53.9716213, -27.7121829 ], [ -53.9713564, -27.7115775 ], [ -53.9701196, -27.7118507 ] ] ] } },
{ "type": "Feature", "properties": { "name": "Nichele", "code_muni": 4319109.0, "name_muni": "São Martinho" }, "geometry": { "type": "Polygon", "coordinates": [ [ [ -53.9565548, -27.7094426 ], [ -53.9561865, -27.7098109 ], [ -53.9560698, -27.7099276 ], [ -53.9544887, -27.71149 ], [ -53.9540054, -27.7119934 ], [ -53.9536086, -27.7123879 ], [ -53.9534493, -27.7125468 ], [ -53.9533064, -27.7126843 ], [ -53.9529921, -27.7130019 ], [ -53.9513321, -27.7146906 ], [ -53.9513058, -27.7148268 ], [ -53.9517291, -27.7153573 ], [ -53.9537977, -27.7153275 ], [ -53.954291, -27.7143572 ], [ -53.9582804, -27.7146597 ], [ -53.9583391, -27.7143137 ], [ -53.9585352, -27.7131169 ], [ -53.9589063, -27.7119542 ], [ -53.9590834, -27.7114319 ], [ -53.9591573, -27.7112454 ], [ -53.9591736, -27.7111514 ], [ -53.9591684, -27.7110695 ], [ -53.9590713, -27.7107164 ], [ -53.9590457, -27.7106087 ], [ -53.9587427, -27.7095593 ], [ -53.9587206, -27.7094912 ], [ -53.9585177, -27.7087578 ], [ -53.9583024, -27.7079698 ], [ -53.9581691, -27.7080418 ], [ -53.9579289, -27.7081971 ], [ -53.9578834, -27.708211 ], [ -53.9578378, -27.7082199 ], [ -53.957773, -27.7082101 ], [ -53.9565548, -27.7094426 ] ] ] } },
{ "type": "Feature", "properties": { "name": "Friski", "code_muni": 4319109.0, "name_muni": "São Martinho" }, "geometry": { "type": "Polygon", "coordinates": [ [ [ -53.9506435, -27.7141338 ], [ -53.9507809, -27.7142038 ], [ -53.9510498, -27.7145434 ], [ -53.9511551, -27.7146167 ], [ -53.9513321, -27.7146906 ], [ -53.9529921, -27.7130019 ], [ -53.9533064, -27.7126843 ], [ -53.9534493, -27.7125468 ], [ -53.9536086, -27.7123879 ], [ -53.9540054, -27.7119934 ], [ -53.9544887, -27.71149 ], [ -53.9560698, -27.7099276 ], [ -53.9561865, -27.7098109 ], [ -53.9565548, -27.7094426 ], [ -53.957773, -27.7082101 ], [ -53.9577113, -27.7081686 ], [ -53.9574932, -27.7080335 ], [ -53.9570694, -27.7077414 ], [ -53.9534999, -27.7113296 ], [ -53.9518184, -27.7102764 ], [ -53.9517419, -27.7108675 ], [ -53.95157, -27.7119983 ], [ -53.9514072, -27.7131377 ], [ -53.9511584, -27.7130771 ], [ -53.9509026, -27.7129916 ], [ -53.9506107, -27.7128503 ], [ -53.9498521, -27.713384 ], [ -53.9504587, -27.7141528 ], [ -53.9506435, -27.7141338 ] ] ] } }
]
}
