{
"type": "FeatureCollection",
"name": "bairros_rondinha",
"crs": { "type": "name", "properties": { "name": "urn:ogc:def:crs:OGC:1.3:CRS84" } },
"features": [
{ "type": "Feature", "properties": { "code_muni": 4316204.0, "name_muni": "Rondinha", "code_state": 43.0, "abbrev_state": "RS", "name_state": "Rio Grande do Sul", "code_region": 4.0, "name_region": "Sul", "year": 2022.0 }, "geometry": { "type": "Polygon", "coordinates": [ [ [ -52.913372820999896, -27.885691691 ], [ -52.923653513, -27.887382015 ], [ -52.926445852, -27.883948903 ], [ -52.922741550999902, -27.882037829999906 ], [ -52.926699610999904, -27.880049358999905 ], [ -52.935451457999903, -27.883406964 ], [ -52.94020244099989, -27.88079893 ], [ -52.943220391, -27.871103443 ], [ -52.945148872999894, -27.869942509999898 ], [ -52.94692233099989, -27.870002078 ], [ -52.949243429, -27.873083084 ], [ -52.949233111999895, -27.875309877999904 ], [ -52.944465095999895, -27.879932031999903 ], [ -52.944313260999891, -27.881241907999893 ], [ -52.946012735, -27.882143669999891 ], [ -52.950103724, -27.878016186 ], [ -52.958079907999895, -27.874508079999892 ], [ -52.95909354, -27.870986835999897 ], [ -52.962744058999903, -27.872814427 ], [ -52.965939739, -27.870792904 ], [ -52.970627154999903, -27.871764554 ], [ -52.9688927139999, -27.875194784 ], [ -52.970841129, -27.875878844999892 ], [ -52.97130119, -27.877595748 ], [ -52.977954716999896, -27.873951188 ], [ -52.977612241, -27.871598149 ], [ -52.978845201, -27.870498351 ], [ -52.981125205999895, -27.870579275 ], [ -52.98124232, -27.872823267999902 ], [ -52.982844847, -27.8740117 ], [ -52.987102019, -27.87279424 ], [ -52.984713848, -27.8688426319999 ], [ -52.985738736, -27.864449626999892 ], [ -52.990518536, -27.864316856999896 ], [ -52.992908107999895, -27.858683170999903 ], [ -52.987198032, -27.857225655 ], [ -52.996139012, -27.850525483 ], [ -52.992525041, -27.849486756 ], [ -52.9909607929999, -27.844847386 ], [ -52.988627514, -27.842577241999908 ], [ -52.9987617049999, -27.839669892 ], [ -52.988757972, -27.838471787999904 ], [ -52.986910721, -27.837229298 ], [ -52.988674722, -27.834750052999901 ], [ -53.005023916, -27.833158067999896 ], [ -53.007477783, -27.832009039999903 ], [ -53.00873689, -27.829511458999907 ], [ -53.008156393, -27.826816589999989 ], [ -53.011171375999901, -27.824327072 ], [ -53.01534097, -27.823338153 ], [ -53.014859724, -27.818403563999897 ], [ -53.01715732, -27.816750649 ], [ -53.0207737859999, -27.815946204999896 ], [ -53.02708831199989, -27.820226311999896 ], [ -53.032541909, -27.816908901 ], [ -53.0327907449999, -27.814828091 ], [ -53.022688688, -27.812129429 ], [ -53.021869911, -27.808700237 ], [ -53.017114187999894, -27.807449253999899 ], [ -53.019137691, -27.804815074 ], [ -53.017572749, -27.80287952 ], [ -53.013138094999903, -27.803087309 ], [ -53.012430369, -27.801628348999902 ], [ -53.010082666, -27.801122845999899 ], [ -53.009018258, -27.798693543 ], [ -53.002900202, -27.796195492 ], [ -53.001765265, -27.793087581 ], [ -52.976446353, -27.788949757 ], [ -52.976967312999903, -27.787063266 ], [ -52.972770359, -27.781032651 ], [ -52.98341106, -27.770870924 ], [ -52.984279007999902, -27.767320367 ], [ -52.986827816, -27.767393205 ], [ -52.985584797999891, -27.765667881999903 ], [ -52.985929362, -27.762314687 ], [ -52.982750269, -27.76348691 ], [ -52.980545667999898, -27.762085618 ], [ -52.977825352, -27.762684527 ], [ -52.972610539, -27.7595951499999 ], [ -52.972070072, -27.76119004 ], [ -52.970031730999892, -27.761543921999902 ], [ -52.970209425999897, -27.763143247 ], [ -52.97421987, -27.765068820999904 ], [ -52.973236432, -27.771054705 ], [ -52.965032606, -27.769890910999909 ], [ -52.959511762, -27.77263221 ], [ -52.954610639, -27.772286648 ], [ -52.952844351, -27.771643468 ], [ -52.952609791, -27.769651189999895 ], [ -52.947452324, -27.76696735 ], [ -52.942737544999893, -27.770149021999899 ], [ -52.941663166, -27.768573488999895 ], [ -52.942582532999893, -27.765089481 ], [ -52.94018778399991, -27.76367798 ], [ -52.934829271, -27.766177715 ], [ -52.930697019, -27.764636258999893 ], [ -52.927242583999899, -27.759677482 ], [ -52.917402522, -27.752795596999903 ], [ -52.917408829999893, -27.744567488 ], [ -52.912191433, -27.738316871999896 ], [ -52.906280548, -27.7458126719999 ], [ -52.894779114, -27.75083734 ], [ -52.890792271, -27.75547756 ], [ -52.887429415, -27.756382631 ], [ -52.882391949999892, -27.760836384999898 ], [ -52.881503277, -27.767782333 ], [ -52.878306935, -27.768333011 ], [ -52.881662755, -27.773616994 ], [ -52.881675657999899, -27.777216371999906 ], [ -52.868846877, -27.776035559 ], [ -52.869682471, -27.770483336 ], [ -52.858870009, -27.772460781999897 ], [ -52.857903345999894, -27.783706225999904 ], [ -52.8551318889999, -27.782578891 ], [ -52.853950794999903, -27.7974813 ], [ -52.858327037, -27.798705846 ], [ -52.859589679, -27.800241147999895 ], [ -52.8624805749999, -27.799983462999904 ], [ -52.86175248099989, -27.805967788 ], [ -52.857675054, -27.805058007999907 ], [ -52.855394020999896, -27.803082058999987 ], [ -52.84833089099989, -27.804882983 ], [ -52.845115848, -27.803339396 ], [ -52.83679168, -27.80879517499989 ], [ -52.822531751, -27.80779554 ], [ -52.824540494, -27.812109329 ], [ -52.824301175999892, -27.821418864999895 ], [ -52.823317540999902, -27.819636597999896 ], [ -52.816496904, -27.821764548 ], [ -52.818606412, -27.830365116999904 ], [ -52.813397631, -27.829732163999896 ], [ -52.810232772999896, -27.831384071999896 ], [ -52.80333911199989, -27.827954485 ], [ -52.795922032, -27.828762508999894 ], [ -52.792529378, -27.826394181 ], [ -52.781266791999897, -27.826508175 ], [ -52.777799563, -27.839075072999901 ], [ -52.780769573, -27.846561328 ], [ -52.780126528, -27.851403553999898 ], [ -52.760150773, -27.873122641 ], [ -52.758023363999897, -27.880146576999902 ], [ -52.7703515809999, -27.903240438999909 ], [ -52.772148834999896, -27.915446935 ], [ -52.781290145, -27.911539177 ], [ -52.790530810999904, -27.913524368 ], [ -52.794319992999903, -27.913189233 ], [ -52.796129306999902, -27.910398594999904 ], [ -52.793647536, -27.906477916 ], [ -52.796468242999893, -27.90044204 ], [ -52.803084709, -27.895204227 ], [ -52.806116172, -27.89607955 ], [ -52.811594764999896, -27.892940963999898 ], [ -52.815880596999897, -27.887939545999892 ], [ -52.8217233519999, -27.891343353 ], [ -52.822031518, -27.889428653 ], [ -52.825273437, -27.889342626 ], [ -52.83161947, -27.892543686999893 ], [ -52.841357178999893, -27.887369194 ], [ -52.847365275, -27.888371454 ], [ -52.8479834729999, -27.886004527 ], [ -52.846809084, -27.883925782999899 ], [ -52.85167984799989, -27.882299917 ], [ -52.853970698999902, -27.879244900999904 ], [ -52.856809937, -27.879466065 ], [ -52.857885214, -27.885293791 ], [ -52.861729403, -27.882763998 ], [ -52.872647253, -27.884514791 ], [ -52.875791899, -27.881830901999891 ], [ -52.878596181, -27.88131507 ], [ -52.8824212009999, -27.881975917 ], [ -52.882904384, -27.884572100999893 ], [ -52.886069501, -27.884229573 ], [ -52.886096404999897, -27.882593041999904 ], [ -52.887994796, -27.882569565 ], [ -52.887574008999891, -27.885185509999896 ], [ -52.889188598, -27.885010850999901 ], [ -52.888859929, -27.886365242 ], [ -52.890335434999898, -27.886784056 ], [ -52.890601579, -27.885284791999897 ], [ -52.897179993999899, -27.882956421 ], [ -52.897331435, -27.881340731 ], [ -52.900013134999895, -27.8819892389999 ], [ -52.901137228, -27.885425998 ], [ -52.903182494, -27.884336977 ], [ -52.904774421999903, -27.885602911 ], [ -52.906944477, -27.888770926999896 ], [ -52.904019051, -27.889511040999899 ], [ -52.904515089, -27.890581488999896 ], [ -52.910521496999898, -27.889289182 ], [ -52.913372820999896, -27.885691691 ] ] ] } }
]
}
