{
"type": "FeatureCollection",
"name": "bairros_sao_leopoldo",
"crs": { "type": "name", "properties": { "name": "urn:ogc:def:crs:OGC:1.3:CRS84" } },
"features": [
{ "type": "Feature", "properties": { "name": "Liberdade", "code_muni": 4318705.0, "name_muni": "São Leopoldo" }, "geometry": { "type": "MultiPolygon", "coordinates": [ [ [ [ -51.143079, -29.7303161 ], [ -51.1441652, -29.729655199999989 ], [ -51.1444585, -29.7294899 ], [ -51.1448708, -29.7292903 ], [ -51.1454084, -29.7289391 ], [ -51.1457668, -29.7287491 ], [ -51.1461124, -29.7285839 ], [ -51.1464137, -29.728391099999985 ], [ -51.14658826672035, -29.728152938320694 ], [ -51.142703603200026, -29.730504455587784 ], [ -51.143079, -29.7303161 ] ] ], [ [ [ -51.1467144, -29.7279152 ], [ -51.1467842, -29.7277362 ], [ -51.1468008, -29.7276617 ], [ -51.146814769328579, -29.727598723531099 ], [ -51.146634758360065, -29.728066331632405 ], [ -51.1467144, -29.7279152 ] ] ], [ [ [ -51.146911, -29.727425 ], [ -51.1469269, -29.7273313 ], [ -51.146920924201915, -29.727322966636116 ], [ -51.146828095553374, -29.72756410628779 ], [ -51.146911, -29.727425 ] ] ], [ [ [ -51.1475718, -29.725706 ], [ -51.147566503150578, -29.725645921708004 ], [ -51.147522188074575, -29.725761042547759 ], [ -51.1475718, -29.725706 ] ] ], [ [ [ -51.1471891, -29.7202901 ], [ -51.1472707, -29.7202251 ], [ -51.1472402, -29.7198355 ], [ -51.1472949, -29.7195946 ], [ -51.1473657, -29.7193518 ], [ -51.1473757, -29.7192159 ], [ -51.1473815, -29.7191635 ], [ -51.1473424, -29.7190261 ], [ -51.1473639, -29.7189516 ], [ -51.1473271, -29.718893 ], [ -51.1472475, -29.7188556 ], [ -51.1470864, -29.7187798 ], [ -51.146979139381337, -29.718677164319629 ], [ -51.147147577169278, -29.720349749082153 ], [ -51.1471891, -29.7202901 ] ] ] ] } },
{ "type": "Feature", "properties": { "name": "Santo Afonso", "code_muni": 4318705.0, "name_muni": "São Leopoldo" }, "geometry": { "type": "MultiPolygon", "coordinates": [ [ [ [ -51.087170337579366, -29.734522877234436 ], [ -51.08715191399989, -29.734497512 ], [ -51.087131682787202, -29.734500223433447 ], [ -51.087170337579366, -29.734522877234436 ] ] ], [ [ [ -51.0891278, -29.7378989 ], [ -51.0893814, -29.7380631 ], [ -51.0899399, -29.7382279 ], [ -51.0908823, -29.7376909 ], [ -51.0914402, -29.7370723 ], [ -51.091494493227806, -29.736109143380364 ], [ -51.089831343999897, -29.738186337999899 ], [ -51.088866914211195, -29.736858625477492 ], [ -51.0891278, -29.7378989 ] ] ], [ [ [ -51.0931053, -29.7369531 ], [ -51.0941096, -29.7381977 ], [ -51.095043375470574, -29.73855491449358 ], [ -51.093004129842186, -29.736497509551892 ], [ -51.0931053, -29.7369531 ] ] ], [ [ [ -51.0953369, -29.7386672 ], [ -51.0958262, -29.7384734 ], [ -51.096135977483229, -29.73772190617273 ], [ -51.095208380764412, -29.738618036085729 ], [ -51.0953369, -29.7386672 ] ] ], [ [ [ -51.097458479463583, -29.736459888342331 ], [ -51.097442837999907, -29.73645934 ], [ -51.097438071872133, -29.736463944667229 ], [ -51.097458479463583, -29.736459888342331 ] ] ], [ [ [ -51.0997143, -29.7367295 ], [ -51.100594088724272, -29.736569775852065 ], [ -51.098192569449189, -29.736485621227398 ], [ -51.0997143, -29.7367295 ] ] ], [ [ [ -51.1048212, -29.7364537 ], [ -51.1052847, -29.7359469 ], [ -51.1053791, -29.735619 ], [ -51.105874693939114, -29.734539537171162 ], [ -51.104496937101473, -29.736569659415352 ], [ -51.1048212, -29.7364537 ] ] ], [ [ [ -51.1065035, -29.7338005 ], [ -51.106713221045794, -29.733303921753876 ], [ -51.105909612157106, -29.734488083985809 ], [ -51.1065035, -29.7338005 ] ] ], [ [ [ -51.1067868, -29.7324962 ], [ -51.106582206157732, -29.732270111896444 ], [ -51.106786799998382, -29.732815414262351 ], [ -51.1067868, -29.7324962 ] ] ], [ [ [ -51.105230462777598, -29.728579555211436 ], [ -51.10519845399989, -29.728581843 ], [ -51.105217536380842, -29.728632707353192 ], [ -51.105230462777598, -29.728579555211436 ] ] ], [ [ [ -51.1080399, -29.7285982 ], [ -51.108881, -29.7283373 ], [ -51.109207080382937, -29.728299568279915 ], [ -51.109200804999894, -29.728295718999981 ], [ -51.107436828998651, -29.728421838960593 ], [ -51.1080399, -29.7285982 ] ] ], [ [ [ -51.1100998, -29.72901550000001 ], [ -51.110706864465847, -29.729219509225096 ], [ -51.109439506660806, -29.728442136658135 ], [ -51.1100998, -29.72901550000001 ] ] ], [ [ [ -51.112460895980533, -29.730577685757112 ], [ -51.112506041999893, -29.730323047999889 ], [ -51.112438298474721, -29.730281497895771 ], [ -51.112460895980533, -29.730577685757112 ] ] ], [ [ [ -51.11131, -29.7336812 ], [ -51.1109925, -29.734381800000012 ], [ -51.1110354, -29.7350228 ], [ -51.1112757, -29.7354923 ], [ -51.111564386729349, -29.735634011152637 ], [ -51.11202927366233, -29.733012105916469 ], [ -51.11131, -29.7336812 ] ] ], [ [ [ -51.1116705, -29.7356861 ], [ -51.1121512, -29.7356563 ], [ -51.1130438, -29.7352166 ], [ -51.1134129, -29.7346948 ], [ -51.113516078948791, -29.734503283198691 ], [ -51.111573165166988, -29.735638320314507 ], [ -51.1116705, -29.7356861 ] ] ], [ [ [ -51.113576, -29.7355817 ], [ -51.1132756, -29.736178 ], [ -51.1134043, -29.7365283 ], [ -51.113420977217181, -29.736531035798084 ], [ -51.11366865739857, -29.735420748648931 ], [ -51.113576, -29.7355817 ] ] ], [ [ [ -51.1137219, -29.7365804 ], [ -51.113978404996111, -29.736478756402473 ], [ -51.113473470049541, -29.736539646919642 ], [ -51.1137219, -29.7365804 ] ] ], [ [ [ -51.1149235, -29.7365804 ], [ -51.1147776, -29.7371617 ], [ -51.1149493, -29.7376238 ], [ -51.1156788, -29.7376685 ], [ -51.11658, -29.7379666 ], [ -51.1173525, -29.7387119 ], [ -51.117485990187006, -29.738725430659361 ], [ -51.114884522, -29.736369481999901 ], [ -51.114747277104989, -29.73638603364698 ], [ -51.1149235, -29.7365804 ] ] ], [ [ [ -51.1178675, -29.7387641 ], [ -51.117915619969843, -29.738722314762612 ], [ -51.117810524143522, -29.738758325072752 ], [ -51.1178675, -29.7387641 ] ] ], [ [ [ -51.1233864, -29.7380561 ], [ -51.1234036, -29.7384287 ], [ -51.1242791, -29.7389131 ], [ -51.125238751757792, -29.73919650536233 ], [ -51.123460963, -29.738349198000019 ], [ -51.123674150861014, -29.737951975529871 ], [ -51.1233864, -29.7380561 ] ] ], [ [ [ -51.126394955471397, -29.739793512071437 ], [ -51.126405071, -29.739752360999898 ], [ -51.126385235174219, -29.739742907589093 ], [ -51.126394955471397, -29.739793512071437 ] ] ], [ [ [ -51.1258498, -29.74129790000001 ], [ -51.1256953, -29.7419836 ], [ -51.125837234145607, -29.742062329976886 ], [ -51.126198405553893, -29.740593091714008 ], [ -51.1258498, -29.74129790000001 ] ] ], [ [ [ -51.1274119, -29.743198299999989 ], [ -51.1278668, -29.7434591 ], [ -51.1284418, -29.7432356 ], [ -51.1290354, -29.743229 ], [ -51.12948260000001, -29.7434233 ], [ -51.1295028, -29.7431537 ], [ -51.12954224332433, -29.742975686054294 ], [ -51.129265368999896, -29.743261214 ], [ -51.126925262673353, -29.742556299856911 ], [ -51.1274119, -29.743198299999989 ] ] ], [ [ [ -51.1321414, -29.7405904 ], [ -51.1322071, -29.7407511 ], [ -51.132317, -29.7408407 ], [ -51.1324301, -29.7407798 ], [ -51.1327013, -29.7403978 ], [ -51.1333474, -29.7397576 ], [ -51.1335773, -29.7393893 ], [ -51.1340332, -29.7389935 ], [ -51.1345049, -29.7384566 ], [ -51.1347546, -29.7381089 ], [ -51.135377, -29.7373792 ], [ -51.1368732, -29.7356828 ], [ -51.1371211, -29.7353932 ], [ -51.1375215, -29.7349457 ], [ -51.1382112, -29.7342367 ], [ -51.1386275, -29.733758200000011 ], [ -51.1393331, -29.7329011 ], [ -51.139402076534274, -29.732806250276997 ], [ -51.132036674255282, -29.740403193094775 ], [ -51.1321414, -29.7405904 ] ] ] ] } },
{ "type": "Feature", "properties": { "name": "Boa Saúde", "code_muni": 4318705.0, "name_muni": "São Leopoldo" }, "geometry": { "type": "MultiPolygon", "coordinates": [ [ [ [ -51.1655994, -29.6945103 ], [ -51.167, -29.695 ], [ -51.167120095172386, -29.694978169871852 ], [ -51.16688476, -29.693903120999906 ], [ -51.161213733981185, -29.692976974800771 ], [ -51.1655994, -29.6945103 ] ] ], [ [ [ -51.178668241378467, -29.688063338265486 ], [ -51.177566067, -29.688234619 ], [ -51.1782451411976, -29.691189064647673 ], [ -51.178668241378467, -29.688063338265486 ] ] ], [ [ [ -51.1764532, -29.6814785 ], [ -51.1764938, -29.6814221 ], [ -51.1765194, -29.681357 ], [ -51.1766947, -29.6804001 ], [ -51.1767924, -29.6796144 ], [ -51.1768304, -29.6793805 ], [ -51.1770281, -29.6783152 ], [ -51.1769852, -29.678167899999984 ], [ -51.1759292, -29.6755938 ], [ -51.175886754498151, -29.675409287840314 ], [ -51.1764566969999, -29.681683946 ], [ -51.176550724155526, -29.681858736201761 ], [ -51.1764532, -29.6814785 ] ] ] ] } },
{ "type": "Feature", "properties": { "name": "Primavera", "code_muni": 4318705.0, "name_muni": "São Leopoldo" }, "geometry": { "type": "MultiPolygon", "coordinates": [ [ [ [ -51.1587192, -29.7136393 ], [ -51.1590274, -29.7126054 ], [ -51.159275, -29.711374599999985 ], [ -51.15930600093337, -29.711136292573592 ], [ -51.158138099938618, -29.714937677035898 ], [ -51.1582669, -29.7149327 ], [ -51.1587192, -29.7136393 ] ] ], [ [ [ -51.1593675, -29.7103673 ], [ -51.1589942, -29.7076131 ], [ -51.1588149, -29.7062924 ], [ -51.1588013, -29.7062057 ], [ -51.1586391, -29.705169499999986 ], [ -51.158561974541662, -29.704794130479563 ], [ -51.15937158586113, -29.710460997266875 ], [ -51.1593675, -29.7103673 ] ] ], [ [ [ -51.158486851163573, -29.70406616653182 ], [ -51.158467674, -29.704134032000013 ], [ -51.158478253944871, -29.704208091462174 ], [ -51.158486851163573, -29.70406616653182 ] ] ], [ [ [ -51.1602426, -29.6977472 ], [ -51.160234, -29.6966512 ], [ -51.1601911, -29.695093 ], [ -51.1600108, -29.6940939 ], [ -51.1598134, -29.6934079 ], [ -51.159556037149258, -29.692723598849881 ], [ -51.160217462103134, -29.697910669502424 ], [ -51.1602426, -29.6977472 ] ] ] ] } },
{ "type": "Feature", "properties": { "name": "Lomba Grande", "code_muni": 4318705.0, "name_muni": "São Leopoldo" }, "geometry": { "type": "MultiPolygon", "coordinates": [ [ [ [ -51.08617790000001, -29.7510248 ], [ -51.086167331735147, -29.751016710888674 ], [ -51.08641696, -29.7513025609999 ], [ -51.086414066107743, -29.751325815381755 ], [ -51.0864764, -29.75130290000001 ], [ -51.08617790000001, -29.7510248 ] ] ], [ [ [ -51.0858407, -29.750613199999989 ], [ -51.085752290196353, -29.750541440848519 ], [ -51.085860154308094, -29.750664958156218 ], [ -51.0858407, -29.750613199999989 ] ] ], [ [ [ -51.0840824, -29.748484399999988 ], [ -51.083955945732228, -29.748406431564586 ], [ -51.083939531999903, -29.748465556999989 ], [ -51.084170654433763, -29.748730233525947 ], [ -51.0840824, -29.748484399999988 ] ] ], [ [ [ -51.0840292, -29.7481969 ], [ -51.0840823, -29.7480859 ], [ -51.084063425660609, -29.748019266324693 ], [ -51.084011186961497, -29.748207441456561 ], [ -51.0840292, -29.7481969 ] ] ], [ [ [ -51.084656966961141, -29.746402730507235 ], [ -51.0844920649999, -29.746475186999891 ], [ -51.08439169813672, -29.746836741017649 ], [ -51.084656966961141, -29.746402730507235 ] ] ], [ [ [ -51.0870199, -29.7446047 ], [ -51.0870291, -29.7432305 ], [ -51.086555596264382, -29.742519992833074 ], [ -51.086997873796449, -29.744627376309957 ], [ -51.0870199, -29.7446047 ] ] ], [ [ [ -51.0864402, -29.7419522 ], [ -51.086435646359028, -29.741948434575654 ], [ -51.086441757201527, -29.741977552746754 ], [ -51.0864402, -29.7419522 ] ] ], [ [ [ -51.0862561, -29.7400906 ], [ -51.0861097, -29.7388674 ], [ -51.0863721, -29.7384128 ], [ -51.086694, -29.7382219 ], [ -51.0872841, -29.7380449 ], [ -51.0876221, -29.7380169 ], [ -51.0879922, -29.7380309 ], [ -51.0882872, -29.7380355 ], [ -51.0885313, -29.7381101 ], [ -51.0888344, -29.7381357 ], [ -51.0891278, -29.7378989 ], [ -51.088866914211195, -29.736858625477492 ], [ -51.087170337579366, -29.734522877234436 ], [ -51.087131682787202, -29.734500223433447 ], [ -51.084934444999895, -29.734794683 ], [ -51.086175164251266, -29.740707220923799 ], [ -51.0862561, -29.7400906 ] ] ] ] } },
{ "type": "Feature", "properties": { "name": "Scharlau", "code_muni": 4318705.0, "name_muni": "São Leopoldo" }, "geometry": { "type": "Polygon", "coordinates": [ [ [ -51.1678744, -29.7241401 ], [ -51.1677559, -29.7234841 ], [ -51.1675509, -29.7216526 ], [ -51.1675281, -29.7208462 ], [ -51.1675281, -29.719871200000018 ], [ -51.167519, -29.7186821 ], [ -51.1673869, -29.717520299999986 ], [ -51.1672958, -29.7170282 ], [ -51.1672229, -29.7165817 ], [ -51.167232, -29.7161854 ], [ -51.1672821, -29.71556570000001 ], [ -51.1675965, -29.7146545 ], [ -51.1675555, -29.7131146 ], [ -51.1674689, -29.7117159 ], [ -51.166667, -29.7104448 ], [ -51.1666078, -29.7102626 ], [ -51.1665987, -29.709971 ], [ -51.1666078, -29.7098616 ], [ -51.1665395, -29.709697599999988 ], [ -51.1664256, -29.7094197 ], [ -51.166503, -29.7091919 ], [ -51.1666033, -29.708955 ], [ -51.1666898, -29.7087044 ], [ -51.1666716, -29.7083946 ], [ -51.1665805, -29.7077932 ], [ -51.1670543, -29.705661 ], [ -51.167109, -29.7046587 ], [ -51.1666534, -29.7033465 ], [ -51.1659427, -29.7019797 ], [ -51.1655053, -29.7010139 ], [ -51.1657422, -29.6996653 ], [ -51.1649768, -29.6975331 ], [ -51.1655053, -29.696385 ], [ -51.1655994, -29.6945103 ], [ -51.161213733981185, -29.692976974800771 ], [ -51.159553772, -29.692705833999984 ], [ -51.159556037149258, -29.692723598849881 ], [ -51.1598134, -29.6934079 ], [ -51.1600108, -29.6940939 ], [ -51.1601911, -29.695093 ], [ -51.160234, -29.6966512 ], [ -51.1602426, -29.6977472 ], [ -51.160217462103134, -29.697910669502424 ], [ -51.160220159999902, -29.697931825999895 ], [ -51.158486851163573, -29.70406616653182 ], [ -51.158478253944871, -29.704208091462174 ], [ -51.158561974541662, -29.704794130479563 ], [ -51.1586391, -29.705169499999986 ], [ -51.1588013, -29.7062057 ], [ -51.1588149, -29.7062924 ], [ -51.1589942, -29.7076131 ], [ -51.1593675, -29.7103673 ], [ -51.15937158586113, -29.710460997266875 ], [ -51.159416623, -29.710776215 ], [ -51.15930600093337, -29.711136292573592 ], [ -51.159275, -29.711374599999985 ], [ -51.1590274, -29.7126054 ], [ -51.1587192, -29.7136393 ], [ -51.1582669, -29.7149327 ], [ -51.158138099938618, -29.714937677035898 ], [ -51.157696328, -29.71637551700001 ], [ -51.148015441024739, -29.716739653970102 ], [ -51.1487642, -29.7239055 ], [ -51.149377, -29.7297896 ], [ -51.1497349, -29.7334139 ], [ -51.1505206, -29.7415486 ], [ -51.15086, -29.7445852 ], [ -51.1555367, -29.7428289 ], [ -51.1625302, -29.7402775 ], [ -51.1632711, -29.7399895 ], [ -51.1640002, -29.739403899999989 ], [ -51.1640728, -29.73934 ], [ -51.1631134, -29.7385326 ], [ -51.1626171, -29.7380451 ], [ -51.1605597, -29.7357898 ], [ -51.1602636, -29.7353821 ], [ -51.1601836, -29.7351855 ], [ -51.1601087, -29.7350017 ], [ -51.1600176, -29.7345597 ], [ -51.1600586, -29.7342362 ], [ -51.1603114, -29.7335916 ], [ -51.1606805, -29.7331724 ], [ -51.1610419, -29.7327709 ], [ -51.161402, -29.7323708 ], [ -51.1627956, -29.7308225 ], [ -51.1630405, -29.7305504 ], [ -51.1636419, -29.7298306 ], [ -51.1639095, -29.729564799999984 ], [ -51.1643161, -29.7291609 ], [ -51.1649175, -29.7285412 ], [ -51.1652091, -29.7283362 ], [ -51.1655417, -29.7281768 ], [ -51.1659745, -29.7280674 ], [ -51.1662661, -29.7279809 ], [ -51.1665577, -29.7277667 ], [ -51.1677195, -29.727015 ], [ -51.1678243, -29.7269603 ], [ -51.1679382, -29.7269466 ], [ -51.1680156, -29.7269239 ], [ -51.1680885, -29.7268829 ], [ -51.1680976, -29.726769 ], [ -51.1681477, -29.7261129 ], [ -51.1680047, -29.7250806 ], [ -51.1679377, -29.7245972 ], [ -51.1679134, -29.7244214 ], [ -51.1678744, -29.7241401 ] ] ] } },
{ "type": "Feature", "properties": { "name": "Boa Vista", "code_muni": 4318705.0, "name_muni": "São Leopoldo" }, "geometry": { "type": "Polygon", "coordinates": [ [ [ -51.193470888042064, -29.680370086139241 ], [ -51.188265953218504, -29.678519212793365 ], [ -51.1879477, -29.6784325 ], [ -51.187853772862169, -29.678372629898995 ], [ -51.184086621999896, -29.677032846000014 ], [ -51.183911104160629, -29.67691124661269 ], [ -51.1833233, -29.6766275 ], [ -51.1820816, -29.675769600000013 ], [ -51.1815252, -29.6753455 ], [ -51.1810247, -29.6749583 ], [ -51.1805254, -29.6745795 ], [ -51.180469520747906, -29.674526798461237 ], [ -51.17708698, -29.672183059 ], [ -51.17585066, -29.675011885999908 ], [ -51.175886754498151, -29.675409287840314 ], [ -51.1759292, -29.6755938 ], [ -51.1769852, -29.678167899999984 ], [ -51.1770281, -29.6783152 ], [ -51.1768304, -29.6793805 ], [ -51.1767924, -29.6796144 ], [ -51.1766947, -29.6804001 ], [ -51.1765194, -29.681357 ], [ -51.1764938, -29.6814221 ], [ -51.1764532, -29.6814785 ], [ -51.176550724155526, -29.681858736201761 ], [ -51.179794511, -29.687888303 ], [ -51.178668241378467, -29.688063338265486 ], [ -51.1782451411976, -29.691189064647673 ], [ -51.178685617, -29.693105344999896 ], [ -51.167224628, -29.695455685 ], [ -51.167120095172386, -29.694978169871852 ], [ -51.167, -29.695 ], [ -51.1655994, -29.6945103 ], [ -51.1655053, -29.696385 ], [ -51.1649768, -29.6975331 ], [ -51.1657422, -29.6996653 ], [ -51.1655053, -29.7010139 ], [ -51.1659427, -29.7019797 ], [ -51.1666534, -29.7033465 ], [ -51.167109, -29.7046587 ], [ -51.1670543, -29.705661 ], [ -51.1665805, -29.7077932 ], [ -51.1666716, -29.7083946 ], [ -51.1666898, -29.7087044 ], [ -51.1666033, -29.708955 ], [ -51.166503, -29.7091919 ], [ -51.1664256, -29.7094197 ], [ -51.1665395, -29.709697599999988 ], [ -51.1666078, -29.7098616 ], [ -51.1665987, -29.709971 ], [ -51.1666078, -29.7102626 ], [ -51.166667, -29.7104448 ], [ -51.1674689, -29.7117159 ], [ -51.1675555, -29.7131146 ], [ -51.1675965, -29.7146545 ], [ -51.1672821, -29.71556570000001 ], [ -51.167232, -29.7161854 ], [ -51.1672229, -29.7165817 ], [ -51.1672958, -29.7170282 ], [ -51.1673869, -29.717520299999986 ], [ -51.167519, -29.7186821 ], [ -51.1675281, -29.719871200000018 ], [ -51.1675281, -29.7208462 ], [ -51.1675509, -29.7216526 ], [ -51.1677559, -29.7234841 ], [ -51.1678744, -29.7241401 ], [ -51.1679134, -29.7244214 ], [ -51.1679377, -29.7245972 ], [ -51.169494, -29.7225501 ], [ -51.1702116, -29.7216138 ], [ -51.1705738, -29.7212482 ], [ -51.1708802, -29.7209806 ], [ -51.1710135, -29.7208689 ], [ -51.1717037, -29.7203655 ], [ -51.1827292, -29.7127501 ], [ -51.1832236, -29.7123902 ], [ -51.1835903, -29.7120759 ], [ -51.1839548, -29.7117045 ], [ -51.1841165, -29.7115177 ], [ -51.1843626, -29.711176 ], [ -51.1845197, -29.710923199999989 ], [ -51.1846701, -29.7106065 ], [ -51.1849662, -29.7098856 ], [ -51.1855016, -29.7085245 ], [ -51.1856724, -29.7081622 ], [ -51.1859549, -29.7076839 ], [ -51.1861667, -29.70739 ], [ -51.18640820000001, -29.707087 ], [ -51.1867157, -29.7067681 ], [ -51.1871075, -29.7064332 ], [ -51.1875062, -29.7061348 ], [ -51.187898, -29.7058888 ], [ -51.1884379, -29.7056132 ], [ -51.1889618, -29.7053945 ], [ -51.1893833, -29.7052532 ], [ -51.1900598, -29.7050892 ], [ -51.1931602, -29.7045516 ], [ -51.196661, -29.7037817 ], [ -51.1968792, -29.7034793 ], [ -51.1969972, -29.703258 ], [ -51.197112321225177, -29.703041802941428 ], [ -51.197246789001966, -29.702330374864768 ], [ -51.197233832224796, -29.702063141886356 ], [ -51.194088457430709, -29.696617314928822 ], [ -51.1938985, -29.6965307 ], [ -51.1928559, -29.6964502 ], [ -51.192782111065597, -29.694355340912757 ], [ -51.192416365, -29.693722020999893 ], [ -51.192284577, -29.684248576999895 ], [ -51.192412344155933, -29.683856272823263 ], [ -51.1924052, -29.6836534 ], [ -51.192634325423015, -29.683174680291035 ], [ -51.193202005995722, -29.6814315760837 ], [ -51.1931938, -29.6813977 ], [ -51.193347692713672, -29.680984224422353 ], [ -51.193539723, -29.680394561999901 ], [ -51.193518918047531, -29.680387164323111 ], [ -51.1934972, -29.6803894 ], [ -51.193470888042064, -29.680370086139241 ] ] ] } },
{ "type": "Feature", "properties": { "name": "Campina", "code_muni": 4318705.0, "name_muni": "São Leopoldo" }, "geometry": { "type": "Polygon", "coordinates": [ [ [ -51.1632711, -29.7399895 ], [ -51.1625302, -29.7402775 ], [ -51.1555367, -29.7428289 ], [ -51.15086, -29.7445852 ], [ -51.1513486, -29.7501321 ], [ -51.1519238, -29.7580983 ], [ -51.1519876, -29.7591369 ], [ -51.1522856, -29.7590705 ], [ -51.1539765, -29.7582508 ], [ -51.1552412, -29.7577833 ], [ -51.1575642, -29.7569245 ], [ -51.1614266, -29.7563806 ], [ -51.1629973, -29.7564029 ], [ -51.1643448, -29.756909599999986 ], [ -51.1657012, -29.757344 ], [ -51.1661129, -29.7574759 ], [ -51.166894, -29.7573642 ], [ -51.1672373, -29.7569394 ], [ -51.167512, -29.7562316 ], [ -51.1680098, -29.7553001 ], [ -51.1686278, -29.7547487 ], [ -51.1693831, -29.7542271 ], [ -51.169323, -29.754016199999985 ], [ -51.1692731, -29.753840700000012 ], [ -51.1692457, -29.7536813 ], [ -51.1692366, -29.753499 ], [ -51.1692503, -29.7532849 ], [ -51.169264, -29.7531983 ], [ -51.1693277, -29.7530799 ], [ -51.1694052, -29.7529159 ], [ -51.1694052, -29.7528293 ], [ -51.169382400000011, -29.7526881 ], [ -51.1693596, -29.7525149 ], [ -51.1694417, -29.7520775 ], [ -51.1695783, -29.7516857 ], [ -51.169797, -29.7514033 ], [ -51.1700373, -29.7509386 ], [ -51.1690427, -29.7472079 ], [ -51.1689587, -29.7468928 ], [ -51.1676921, -29.74215 ], [ -51.1674962, -29.7416762 ], [ -51.167384, -29.7415144 ], [ -51.1672593, -29.7413345 ], [ -51.1665486, -29.7408971 ], [ -51.1641816, -29.7393831 ], [ -51.1640728, -29.73934 ], [ -51.1640002, -29.739403899999989 ], [ -51.1632711, -29.7399895 ] ] ] } },
{ "type": "Feature", "properties": { "name": "Rio dos Sinos", "code_muni": 4318705.0, "name_muni": "São Leopoldo" }, "geometry": { "type": "Polygon", "coordinates": [ [ [ -51.1519238, -29.7580983 ], [ -51.1513486, -29.7501321 ], [ -51.15086, -29.7445852 ], [ -51.1500073, -29.7449151 ], [ -51.1496935, -29.7451249 ], [ -51.14761330000001, -29.7461234 ], [ -51.147393, -29.7464119 ], [ -51.1465661, -29.7467912 ], [ -51.1461945, -29.7469793 ], [ -51.1458663, -29.7472084 ], [ -51.1456303, -29.7474263 ], [ -51.1454329, -29.7477578 ], [ -51.1452438, -29.7481416 ], [ -51.1450269, -29.7481738 ], [ -51.1451358, -29.749043 ], [ -51.1452265, -29.749795 ], [ -51.1452847, -29.7505089 ], [ -51.1452766, -29.750885 ], [ -51.1452177, -29.7512533 ], [ -51.1451285, -29.7516163 ], [ -51.1449642, -29.7520368 ], [ -51.1447194, -29.7524867 ], [ -51.1443684, -29.752917 ], [ -51.1433995, -29.753916 ], [ -51.1430461, -29.7543352 ], [ -51.1426745, -29.754947899999987 ], [ -51.1426164, -29.7550579 ], [ -51.1424428, -29.755516 ], [ -51.1421095, -29.7563542 ], [ -51.1421097, -29.7563542 ], [ -51.142289, -29.7564169 ], [ -51.1442604, -29.7570959 ], [ -51.1460743, -29.7581603 ], [ -51.1462775, -29.7582732 ], [ -51.1479085, -29.7593074 ], [ -51.1483684, -29.759497 ], [ -51.1494493, -29.7597028 ], [ -51.1519876, -29.7591369 ], [ -51.1519238, -29.7580983 ] ] ] } },
{ "type": "Feature", "properties": { "name": "Santos Dumont", "code_muni": 4318705.0, "name_muni": "São Leopoldo" }, "geometry": { "type": "Polygon", "coordinates": [ [ [ -51.1470864, -29.7187798 ], [ -51.1472475, -29.7188556 ], [ -51.1473271, -29.718893 ], [ -51.1473639, -29.7189516 ], [ -51.1473424, -29.7190261 ], [ -51.1473815, -29.7191635 ], [ -51.1473757, -29.7192159 ], [ -51.1473657, -29.7193518 ], [ -51.1472949, -29.7195946 ], [ -51.1472402, -29.7198355 ], [ -51.1472707, -29.7202251 ], [ -51.1471891, -29.7202901 ], [ -51.147147577169278, -29.720349749082153 ], [ -51.14765722899989, -29.725410235 ], [ -51.147566503150578, -29.725645921708004 ], [ -51.1475718, -29.725706 ], [ -51.147522188074575, -29.725761042547759 ], [ -51.146920924201915, -29.727322966636116 ], [ -51.1469269, -29.7273313 ], [ -51.146911, -29.727425 ], [ -51.146828095553374, -29.72756410628779 ], [ -51.146814769328579, -29.727598723531099 ], [ -51.1468008, -29.7276617 ], [ -51.1467842, -29.7277362 ], [ -51.1467144, -29.7279152 ], [ -51.146634758360065, -29.728066331632405 ], [ -51.146605414, -29.728142557999888 ], [ -51.14658826672035, -29.728152938320694 ], [ -51.1464137, -29.728391099999985 ], [ -51.1461124, -29.7285839 ], [ -51.1457668, -29.7287491 ], [ -51.1454084, -29.7289391 ], [ -51.1448708, -29.7292903 ], [ -51.1444585, -29.7294899 ], [ -51.1441652, -29.729655199999989 ], [ -51.143079, -29.7303161 ], [ -51.142703603200026, -29.730504455587784 ], [ -51.140113904, -29.732071962999978 ], [ -51.139402076534274, -29.732806250276997 ], [ -51.1393331, -29.7329011 ], [ -51.1386275, -29.733758200000011 ], [ -51.1382112, -29.7342367 ], [ -51.1375215, -29.7349457 ], [ -51.1371211, -29.7353932 ], [ -51.1368732, -29.7356828 ], [ -51.135377, -29.7373792 ], [ -51.1347546, -29.7381089 ], [ -51.1345049, -29.7384566 ], [ -51.1340332, -29.7389935 ], [ -51.1335773, -29.7393893 ], [ -51.1333474, -29.7397576 ], [ -51.1327013, -29.7403978 ], [ -51.1324301, -29.7407798 ], [ -51.132317, -29.7408407 ], [ -51.1322071, -29.7407511 ], [ -51.1321414, -29.7405904 ], [ -51.132036674255282, -29.740403193094775 ], [ -51.130174092519553, -29.742324080355065 ], [ -51.1304637, -29.7424939 ], [ -51.1307156, -29.7427247 ], [ -51.1309568, -29.7432303 ], [ -51.1310919, -29.7453213 ], [ -51.1312741, -29.7461215 ], [ -51.1316457, -29.7468901 ], [ -51.1336893, -29.7504577 ], [ -51.1340681, -29.7508941 ], [ -51.1343924, -29.7511598 ], [ -51.1366109, -29.752301500000012 ], [ -51.1370881, -29.7525988 ], [ -51.1374669, -29.7530131 ], [ -51.1379551, -29.7539176 ], [ -51.1381736, -29.75414210000001 ], [ -51.1384104, -29.7542939 ], [ -51.1411079, -29.755019599999986 ], [ -51.1421539, -29.7554107 ], [ -51.1424428, -29.755516 ], [ -51.1426164, -29.7550579 ], [ -51.1426745, -29.754947899999987 ], [ -51.1430461, -29.7543352 ], [ -51.1433995, -29.753916 ], [ -51.1443684, -29.752917 ], [ -51.1447194, -29.7524867 ], [ -51.1449642, -29.7520368 ], [ -51.1451285, -29.7516163 ], [ -51.1452177, -29.7512533 ], [ -51.1452766, -29.750885 ], [ -51.1452847, -29.7505089 ], [ -51.1452265, -29.749795 ], [ -51.1451358, -29.749043 ], [ -51.1450269, -29.7481738 ], [ -51.1452438, -29.7481416 ], [ -51.1454329, -29.7477578 ], [ -51.1456303, -29.7474263 ], [ -51.1458663, -29.7472084 ], [ -51.1461945, -29.7469793 ], [ -51.1465661, -29.7467912 ], [ -51.147393, -29.7464119 ], [ -51.14761330000001, -29.7461234 ], [ -51.1496935, -29.7451249 ], [ -51.1500073, -29.7449151 ], [ -51.15086, -29.7445852 ], [ -51.1505206, -29.7415486 ], [ -51.1497349, -29.7334139 ], [ -51.149377, -29.7297896 ], [ -51.1487642, -29.7239055 ], [ -51.148015441024739, -29.716739653970102 ], [ -51.146788671, -29.716785747 ], [ -51.146979139381337, -29.718677164319629 ], [ -51.1470864, -29.7187798 ] ] ] } },
{ "type": "Feature", "properties": { "name": "São José", "code_muni": 4318705.0, "name_muni": "São Leopoldo" }, "geometry": { "type": "Polygon", "coordinates": [ [ [ -51.1417262, -29.7578615 ], [ -51.14192, -29.757364 ], [ -51.1414678, -29.7572623 ], [ -51.1376225, -29.7608342 ], [ -51.1337773, -29.7605061 ], [ -51.1328408, -29.762475 ], [ -51.1327232, -29.7627715 ], [ -51.1319631, -29.7633323 ], [ -51.1312058, -29.763664 ], [ -51.1301395, -29.7640916 ], [ -51.1291009, -29.7644645 ], [ -51.1284258, -29.7646761 ], [ -51.1283066, -29.7647077 ], [ -51.1276768, -29.7648539 ], [ -51.1275227, -29.7648925 ], [ -51.1271219, -29.7650705 ], [ -51.1268396, -29.7653237 ], [ -51.1267299, -29.7654689 ], [ -51.1263456, -29.7661487 ], [ -51.1263236, -29.766257 ], [ -51.1287452, -29.767160199999985 ], [ -51.1289046, -29.767235399999986 ], [ -51.1290777, -29.7673333 ], [ -51.131841, -29.7700305 ], [ -51.13435590000001, -29.7702469 ], [ -51.1348684, -29.7701444 ], [ -51.13575, -29.7696751 ], [ -51.1370439, -29.7693471 ], [ -51.1372148, -29.769308400000014 ], [ -51.1374881, -29.7692924 ], [ -51.1376863, -29.7693266 ], [ -51.1407442, -29.77002 ], [ -51.141841, -29.7702375 ], [ -51.1410566, -29.7689324 ], [ -51.140175, -29.7672464 ], [ -51.1400186, -29.7667114 ], [ -51.1399628, -29.766156 ], [ -51.1399949, -29.7656256 ], [ -51.1402231, -29.764242499999988 ], [ -51.1403765, -29.7632273 ], [ -51.1405069, -29.7624329 ], [ -51.1405963, -29.7622073 ], [ -51.1408801, -29.7614903 ], [ -51.1411978, -29.7607474 ], [ -51.1415225, -29.7599982 ], [ -51.1416318, -29.759617699999989 ], [ -51.1416042, -29.7594225 ], [ -51.1415954, -29.7593467 ], [ -51.1415806, -29.7589264 ], [ -51.1416053, -29.758427199999989 ], [ -51.1417262, -29.7578615 ] ] ] } },
{ "type": "Feature", "properties": { "name": "Rio Branco", "code_muni": 4318705.0, "name_muni": "São Leopoldo" }, "geometry": { "type": "Polygon", "coordinates": [ [ [ -51.1250146, -29.7701868 ], [ -51.1248167, -29.7707093 ], [ -51.1246524, -29.7712106 ], [ -51.1245002, -29.7716404 ], [ -51.1244922, -29.7716628 ], [ -51.12437, -29.7721701 ], [ -51.1242292, -29.7726977 ], [ -51.1240839, -29.7729897 ], [ -51.1236825, -29.7735217 ], [ -51.123618, -29.7736052 ], [ -51.1234217, -29.7735498 ], [ -51.1233752, -29.7736721 ], [ -51.1232705, -29.7738457 ], [ -51.123145, -29.7739869 ], [ -51.1219424, -29.7753347 ], [ -51.1218911, -29.7753922 ], [ -51.1219362, -29.7754205 ], [ -51.1219993, -29.775458199999985 ], [ -51.1220968, -29.7755234 ], [ -51.1222433, -29.7755802 ], [ -51.1224067, -29.7756062 ], [ -51.1227902, -29.775864399999989 ], [ -51.122982, -29.7759936 ], [ -51.1239703, -29.7767208 ], [ -51.1262817, -29.778308299999988 ], [ -51.126324, -29.7783818 ], [ -51.126327, -29.7783874 ], [ -51.1263767, -29.7784492 ], [ -51.1264204, -29.7784899 ], [ -51.1264485, -29.7785161 ], [ -51.1304856, -29.7745728 ], [ -51.1315892, -29.7735023 ], [ -51.1316452, -29.773542799999987 ], [ -51.1322895, -29.7740513 ], [ -51.1329885, -29.7745209 ], [ -51.1336612, -29.7749887 ], [ -51.1338003, -29.7750601 ], [ -51.1339147, -29.7751284 ], [ -51.1343612, -29.7753981 ], [ -51.1350528, -29.7757287 ], [ -51.135775, -29.7759535 ], [ -51.1364366, -29.7761679 ], [ -51.1362234, -29.7750285 ], [ -51.1361448, -29.7746824 ], [ -51.1361402, -29.7746561 ], [ -51.1360524, -29.7741732 ], [ -51.1360413, -29.7739371 ], [ -51.1360627, -29.773489 ], [ -51.1360749, -29.7732028 ], [ -51.1361226, -29.772475 ], [ -51.1362245, -29.7714385 ], [ -51.1362462, -29.7708968 ], [ -51.1362308, -29.7707663 ], [ -51.1361725, -29.7705661 ], [ -51.136022, -29.7701656 ], [ -51.1358401, -29.7697058 ], [ -51.13575, -29.7696751 ], [ -51.1348684, -29.7701444 ], [ -51.13435590000001, -29.7702469 ], [ -51.131841, -29.7700305 ], [ -51.1290777, -29.7673333 ], [ -51.1289046, -29.767235399999986 ], [ -51.1287452, -29.767160199999985 ], [ -51.1263236, -29.766257 ], [ -51.1260982, -29.7661742 ], [ -51.1260982, -29.7661744 ], [ -51.1260337, -29.7663038 ], [ -51.1258228, -29.7667368 ], [ -51.1257898, -29.7668141 ], [ -51.1257727, -29.766876199999988 ], [ -51.1257453, -29.7669292 ], [ -51.1257122, -29.7670074 ], [ -51.1256249, -29.7672016 ], [ -51.1255103, -29.7673653 ], [ -51.1254486, -29.7675321 ], [ -51.1254818, -29.7676228 ], [ -51.1254083, -29.7677361 ], [ -51.1252042, -29.767835 ], [ -51.1251235, -29.767971 ], [ -51.1250997, -29.7682223 ], [ -51.1251828, -29.7683583 ], [ -51.1252421, -29.7684119 ], [ -51.1252659, -29.7685623 ], [ -51.1251923, -29.7688878 ], [ -51.1249811, -29.769215299999988 ], [ -51.1247556, -29.7696727 ], [ -51.1250146, -29.7701868 ] ] ] } },
{ "type": "Feature", "properties": { "name": "Santo André", "code_muni": 4318705.0, "name_muni": "São Leopoldo" }, "geometry": { "type": "Polygon", "coordinates": [ [ [ -51.1136316, -29.7647362 ], [ -51.1133109, -29.765034 ], [ -51.1132566, -29.7651096 ], [ -51.1131325, -29.7652633 ], [ -51.1130024, -29.7654245 ], [ -51.1126256, -29.76600950000001 ], [ -51.1125854, -29.7661469 ], [ -51.1124258, -29.7667767 ], [ -51.1122434, -29.7674449 ], [ -51.1122152, -29.7675416 ], [ -51.1120798, -29.7681318 ], [ -51.1119095, -29.7686708 ], [ -51.111503, -29.7693083 ], [ -51.1110929, -29.7707845 ], [ -51.1110793, -29.7711262 ], [ -51.109871, -29.775474899999988 ], [ -51.1100467, -29.7755482 ], [ -51.11076280000001, -29.7758625 ], [ -51.1122474, -29.7765179 ], [ -51.1125572, -29.7766436 ], [ -51.1146074, -29.7774026 ], [ -51.1137922, -29.7782398 ], [ -51.1134678, -29.7785852 ], [ -51.1140712, -29.7789934 ], [ -51.1144093, -29.7791171 ], [ -51.1148162, -29.7792408 ], [ -51.11556, -29.7794306 ], [ -51.1157711, -29.7794477 ], [ -51.1173096, -29.7794312 ], [ -51.1183506, -29.7793771 ], [ -51.1192276, -29.7784478 ], [ -51.1202802, -29.7772736 ], [ -51.1209779, -29.7764679 ], [ -51.1218911, -29.7753922 ], [ -51.1219424, -29.7753347 ], [ -51.123145, -29.7739869 ], [ -51.1232705, -29.7738457 ], [ -51.1233752, -29.7736721 ], [ -51.1234217, -29.7735498 ], [ -51.123618, -29.7736052 ], [ -51.1236825, -29.7735217 ], [ -51.1240839, -29.7729897 ], [ -51.1242292, -29.7726977 ], [ -51.12437, -29.7721701 ], [ -51.1244922, -29.7716628 ], [ -51.1245002, -29.7716404 ], [ -51.1246524, -29.7712106 ], [ -51.1248167, -29.7707093 ], [ -51.1250146, -29.7701868 ], [ -51.1247556, -29.7696727 ], [ -51.1249811, -29.769215299999988 ], [ -51.1251923, -29.7688878 ], [ -51.1252659, -29.7685623 ], [ -51.1252421, -29.7684119 ], [ -51.1251828, -29.7683583 ], [ -51.1250997, -29.7682223 ], [ -51.1251235, -29.767971 ], [ -51.1252042, -29.767835 ], [ -51.1254083, -29.7677361 ], [ -51.1254818, -29.7676228 ], [ -51.1254486, -29.7675321 ], [ -51.1255103, -29.7673653 ], [ -51.1256249, -29.7672016 ], [ -51.1257122, -29.7670074 ], [ -51.1257453, -29.7669292 ], [ -51.1257727, -29.766876199999988 ], [ -51.1257898, -29.7668141 ], [ -51.1258228, -29.7667368 ], [ -51.1260337, -29.7663038 ], [ -51.1260982, -29.7661744 ], [ -51.1260982, -29.7661742 ], [ -51.1249432, -29.7657501 ], [ -51.1244033, -29.7656362 ], [ -51.1240775, -29.765602 ], [ -51.1237677, -29.7655998 ], [ -51.1232985, -29.7656271 ], [ -51.1226333, -29.765741 ], [ -51.1222346, -29.7658777 ], [ -51.1196787, -29.7667274 ], [ -51.1194327, -29.7667547 ], [ -51.1191696, -29.766757 ], [ -51.118837, -29.7666921 ], [ -51.1184509, -29.7665224 ], [ -51.1167538, -29.7657205 ], [ -51.1157059, -29.765383400000012 ], [ -51.1144575, -29.7649847 ], [ -51.1139404, -29.764766 ], [ -51.1137257, -29.7646282 ], [ -51.1136827, -29.764682 ], [ -51.1136316, -29.7647362 ] ] ] } },
{ "type": "Feature", "properties": { "name": "Pinheiros", "code_muni": 4318705.0, "name_muni": "São Leopoldo" }, "geometry": { "type": "Polygon", "coordinates": [ [ [ -51.1328408, -29.762475 ], [ -51.1337773, -29.7605061 ], [ -51.1274087, -29.7598849 ], [ -51.126983, -29.7581221 ], [ -51.125589, -29.7582905 ], [ -51.1256994, -29.7591748 ], [ -51.1172219, -29.7586667 ], [ -51.1165239, -29.7601472 ], [ -51.1164417, -29.7603216 ], [ -51.1149202, -29.762836 ], [ -51.1148002, -29.7630271 ], [ -51.1147765, -29.7630649 ], [ -51.1141779, -29.7639214 ], [ -51.1137481, -29.7645945 ], [ -51.1137257, -29.7646282 ], [ -51.1139404, -29.764766 ], [ -51.1144575, -29.7649847 ], [ -51.1157059, -29.765383400000012 ], [ -51.1167538, -29.7657205 ], [ -51.1184509, -29.7665224 ], [ -51.118837, -29.7666921 ], [ -51.1191696, -29.766757 ], [ -51.1194327, -29.7667547 ], [ -51.1196787, -29.7667274 ], [ -51.1222346, -29.7658777 ], [ -51.1226333, -29.765741 ], [ -51.1232985, -29.7656271 ], [ -51.1237677, -29.7655998 ], [ -51.1240775, -29.765602 ], [ -51.1244033, -29.7656362 ], [ -51.1249432, -29.7657501 ], [ -51.1260982, -29.7661742 ], [ -51.1263236, -29.766257 ], [ -51.1263456, -29.7661487 ], [ -51.1267299, -29.7654689 ], [ -51.1268396, -29.7653237 ], [ -51.1271219, -29.7650705 ], [ -51.1275227, -29.7648925 ], [ -51.1276768, -29.7648539 ], [ -51.1283066, -29.7647077 ], [ -51.1284258, -29.7646761 ], [ -51.1291009, -29.7644645 ], [ -51.1301395, -29.7640916 ], [ -51.1312058, -29.763664 ], [ -51.1319631, -29.7633323 ], [ -51.1327232, -29.7627715 ], [ -51.1328408, -29.762475 ] ] ] } },
{ "type": "Feature", "properties": { "name": "Feitoria", "code_muni": 4318705.0, "name_muni": "São Leopoldo" }, "geometry": { "type": "Polygon", "coordinates": [ [ [ -51.0888344, -29.7381357 ], [ -51.0885313, -29.7381101 ], [ -51.0882872, -29.7380355 ], [ -51.0879922, -29.7380309 ], [ -51.0876221, -29.7380169 ], [ -51.0872841, -29.7380449 ], [ -51.086694, -29.7382219 ], [ -51.0863721, -29.7384128 ], [ -51.0861097, -29.7388674 ], [ -51.0862561, -29.7400906 ], [ -51.086175164251266, -29.740707220923799 ], [ -51.086435646359028, -29.741948434575654 ], [ -51.0864402, -29.7419522 ], [ -51.086441757201527, -29.741977552746754 ], [ -51.086555596264382, -29.742519992833074 ], [ -51.0870291, -29.7432305 ], [ -51.0870199, -29.7446047 ], [ -51.086997873796449, -29.744627376309957 ], [ -51.087141365, -29.74531107 ], [ -51.084656966961141, -29.746402730507235 ], [ -51.08439169813672, -29.746836741017649 ], [ -51.084063425660609, -29.748019266324693 ], [ -51.0840823, -29.7480859 ], [ -51.0840292, -29.7481969 ], [ -51.084011186961497, -29.748207441456561 ], [ -51.083955945732228, -29.748406431564586 ], [ -51.0840824, -29.748484399999988 ], [ -51.084170654433763, -29.748730233525947 ], [ -51.085752290196353, -29.750541440848519 ], [ -51.0858407, -29.750613199999989 ], [ -51.085860154308094, -29.750664958156218 ], [ -51.086167331735147, -29.751016710888674 ], [ -51.08617790000001, -29.7510248 ], [ -51.0864764, -29.75130290000001 ], [ -51.0864342, -29.7515882 ], [ -51.0864855, -29.7527359 ], [ -51.0862405, -29.7533282 ], [ -51.0866973, -29.7542112 ], [ -51.0867193, -29.7555097 ], [ -51.08617790000001, -29.7563771 ], [ -51.0860052, -29.7573735 ], [ -51.0865754, -29.7583646 ], [ -51.0867079, -29.7593551 ], [ -51.0872601, -29.7608633 ], [ -51.0870226, -29.7616046 ], [ -51.0870963, -29.7621812 ], [ -51.0870776, -29.7624425 ], [ -51.0869086, -29.76278940000001 ], [ -51.086863643545428, -29.762836393997418 ], [ -51.083963061791934, -29.76923087883198 ], [ -51.084186, -29.769156 ], [ -51.084409, -29.769101 ], [ -51.0846528, -29.7690492 ], [ -51.085088, -29.76896 ], [ -51.0854613, -29.768846 ], [ -51.08573, -29.768764 ], [ -51.08648, -29.76861 ], [ -51.08729, -29.76852 ], [ -51.087473, -29.768468 ], [ -51.088033, -29.768203 ], [ -51.088701, -29.767937 ], [ -51.089022, -29.767821 ], [ -51.089288, -29.767764 ], [ -51.0894387, -29.7677534 ], [ -51.08983, -29.767726 ], [ -51.090176, -29.767749 ], [ -51.090571, -29.767859 ], [ -51.090833, -29.7679141 ], [ -51.090966, -29.767942 ], [ -51.091411, -29.76806 ], [ -51.0916994, -29.76816 ], [ -51.0924071, -29.7684052 ], [ -51.0927228, -29.7683601 ], [ -51.0928072, -29.7683381 ], [ -51.0931289, -29.7682341 ], [ -51.0935286, -29.768078099999986 ], [ -51.0938006, -29.7679462 ], [ -51.09389010000001, -29.7679089 ], [ -51.0939763, -29.7678793 ], [ -51.0940524, -29.7678668 ], [ -51.0941691, -29.7678607 ], [ -51.0943683, -29.7678583 ], [ -51.0948488, -29.767844 ], [ -51.0953884, -29.7677651 ], [ -51.0958135, -29.7677162 ], [ -51.0959584, -29.7676999 ], [ -51.096366, -29.767651 ], [ -51.096535, -29.7675974 ], [ -51.0968193, -29.7674473 ], [ -51.0971615, -29.7672135 ], [ -51.0974309, -29.7670293 ], [ -51.097569, -29.7669711 ], [ -51.0976566, -29.766957799999986 ], [ -51.0978439, -29.7669292 ], [ -51.0983375, -29.766899 ], [ -51.0986111, -29.7669281 ], [ -51.0988109, -29.7669886 ], [ -51.0992374, -29.7671935 ], [ -51.0994157, -29.7673355 ], [ -51.1001104, -29.7682063 ], [ -51.100207, -29.7683786 ], [ -51.1004135, -29.768907099999989 ], [ -51.1005141, -29.7690223 ], [ -51.1007381, -29.7691667 ], [ -51.1011149, -29.7693413 ], [ -51.102802, -29.7698442 ], [ -51.1035624, -29.769928 ], [ -51.1043597, -29.7699106 ], [ -51.1044717, -29.7699234 ], [ -51.1046061, -29.7698719 ], [ -51.1047587, -29.7698174 ], [ -51.1049115, -29.7697209 ], [ -51.1051878, -29.769502 ], [ -51.1054375, -29.7692491 ], [ -51.1055947, -29.7690898 ], [ -51.1056371, -29.7689851 ], [ -51.1056358, -29.7688011 ], [ -51.1056156, -29.7686777 ], [ -51.1055151, -29.768057299999988 ], [ -51.1054574, -29.7676824 ], [ -51.1054655, -29.767419300000011 ], [ -51.1054775, -29.7672517 ], [ -51.1055553, -29.76710030000001 ], [ -51.1057069, -29.766943199999986 ], [ -51.1060906, -29.766650399999989 ], [ -51.1062664, -29.7665437 ], [ -51.106516, -29.7663956 ], [ -51.1066761, -29.7663136 ], [ -51.1067556, -29.766289 ], [ -51.1074345, -29.766012100000012 ], [ -51.1098423, -29.7653754 ], [ -51.1100547, -29.7653308 ], [ -51.1102147, -29.7652993 ], [ -51.1104678, -29.7652493 ], [ -51.1108004, -29.7652098 ], [ -51.1121187, -29.76519 ], [ -51.1126235, -29.7651506 ], [ -51.1126913, -29.765143400000017 ], [ -51.1130414, -29.7650886 ], [ -51.1133109, -29.765034 ], [ -51.1136316, -29.7647362 ], [ -51.1136827, -29.764682 ], [ -51.1137257, -29.7646282 ], [ -51.1137481, -29.7645945 ], [ -51.1141779, -29.7639214 ], [ -51.1147765, -29.7630649 ], [ -51.1148002, -29.7630271 ], [ -51.1149202, -29.762836 ], [ -51.1164417, -29.7603216 ], [ -51.1165239, -29.7601472 ], [ -51.1172219, -29.7586667 ], [ -51.1129837, -29.758055 ], [ -51.1112889, -29.747539799999984 ], [ -51.1035619, -29.7486332 ], [ -51.101566623787271, -29.736603843225677 ], [ -51.100594088724272, -29.736569775852065 ], [ -51.0997143, -29.7367295 ], [ -51.098192569449189, -29.736485621227398 ], [ -51.097458479463583, -29.736459888342331 ], [ -51.097438071872133, -29.736463944667229 ], [ -51.096135977483229, -29.73772190617273 ], [ -51.0958262, -29.7384734 ], [ -51.0953369, -29.7386672 ], [ -51.095208380764412, -29.738618036085729 ], [ -51.095156050999897, -29.73866859 ], [ -51.095043375470574, -29.73855491449358 ], [ -51.0941096, -29.7381977 ], [ -51.0931053, -29.7369531 ], [ -51.093004129842186, -29.736497509551892 ], [ -51.091997064999902, -29.735481434 ], [ -51.091494493227806, -29.736109143380364 ], [ -51.0914402, -29.7370723 ], [ -51.0908823, -29.7376909 ], [ -51.0899399, -29.7382279 ], [ -51.0893814, -29.7380631 ], [ -51.0891278, -29.7378989 ], [ -51.0888344, -29.7381357 ] ] ] } },
{ "type": "Feature", "properties": { "name": "Morro do Espelho", "code_muni": 4318705.0, "name_muni": "São Leopoldo" }, "geometry": { "type": "Polygon", "coordinates": [ [ [ -51.1407442, -29.77002 ], [ -51.1376863, -29.7693266 ], [ -51.1374881, -29.7692924 ], [ -51.1372148, -29.769308400000014 ], [ -51.1370439, -29.7693471 ], [ -51.13575, -29.7696751 ], [ -51.1358401, -29.7697058 ], [ -51.136022, -29.7701656 ], [ -51.1361725, -29.7705661 ], [ -51.1362308, -29.7707663 ], [ -51.1362462, -29.7708968 ], [ -51.1362245, -29.7714385 ], [ -51.1361226, -29.772475 ], [ -51.1360749, -29.7732028 ], [ -51.1360627, -29.773489 ], [ -51.1360413, -29.7739371 ], [ -51.1360524, -29.7741732 ], [ -51.1361402, -29.7746561 ], [ -51.1361448, -29.7746824 ], [ -51.1362234, -29.7750285 ], [ -51.1364366, -29.7761679 ], [ -51.1365992, -29.7771592 ], [ -51.1366045, -29.7774468 ], [ -51.1365402, -29.7777203 ], [ -51.1364946, -29.7778902 ], [ -51.1361608, -29.7788886 ], [ -51.1361216, -29.7797163 ], [ -51.1361273, -29.7803193 ], [ -51.1361257, -29.7804106 ], [ -51.1361092, -29.7805355 ], [ -51.1360785, -29.7808886 ], [ -51.13578, -29.7814077 ], [ -51.1352534, -29.782285099999985 ], [ -51.1349076, -29.7828626 ], [ -51.1348477, -29.7829511 ], [ -51.1345903, -29.7834611 ], [ -51.1345796, -29.7835299 ], [ -51.1414017, -29.7837828 ], [ -51.1416669, -29.7839666 ], [ -51.1427976, -29.7813059 ], [ -51.142969, -29.7806482 ], [ -51.143185, -29.779459 ], [ -51.1433084, -29.7789739 ], [ -51.1434952, -29.7784705 ], [ -51.1438074, -29.777458 ], [ -51.1438688, -29.7769488 ], [ -51.1438743, -29.7764531 ], [ -51.1437658, -29.7753336 ], [ -51.1436577, -29.77435 ], [ -51.1434765, -29.7733749 ], [ -51.1432864, -29.7727772 ], [ -51.1429005, -29.7720003 ], [ -51.1423059, -29.7710087 ], [ -51.1421508, -29.7707502 ], [ -51.141841, -29.7702375 ], [ -51.1407442, -29.77002 ] ] ] } },
{ "type": "Feature", "properties": { "name": "Centro", "code_muni": 4318705.0, "name_muni": "São Leopoldo" }, "geometry": { "type": "Polygon", "coordinates": [ [ [ -51.1442676, -29.7792603 ], [ -51.1459011, -29.7790007 ], [ -51.1468117, -29.7788552 ], [ -51.147489, -29.7787528 ], [ -51.1477548, -29.7786917 ], [ -51.1477937, -29.7786722 ], [ -51.1479145, -29.7781219 ], [ -51.1478576, -29.7770239 ], [ -51.1477027, -29.7736479 ], [ -51.1478143, -29.773247 ], [ -51.1484157, -29.7717276 ], [ -51.1484316, -29.7716046 ], [ -51.1541084, -29.7724497 ], [ -51.1540261, -29.7721705 ], [ -51.1537963, -29.7713904 ], [ -51.1533385, -29.7697981 ], [ -51.1532473, -29.769445 ], [ -51.1532246, -29.7691603 ], [ -51.1532359, -29.7688801 ], [ -51.1533043, -29.7685224 ], [ -51.1536095, -29.7672331 ], [ -51.1539057, -29.7659483 ], [ -51.1539512, -29.7656727 ], [ -51.1539717, -29.7654198 ], [ -51.1539672, -29.7651305 ], [ -51.1539193, -29.7647296 ], [ -51.1538601, -29.7645245 ], [ -51.1537508, -29.7642671 ], [ -51.1535594, -29.7638981 ], [ -51.1524068, -29.7618957 ], [ -51.1521824, -29.761440100000016 ], [ -51.1521106, -29.7611372 ], [ -51.1521049, -29.7610921 ], [ -51.1520537, -29.7606838 ], [ -51.1519876, -29.7591369 ], [ -51.1494493, -29.7597028 ], [ -51.1483684, -29.759497 ], [ -51.1479085, -29.7593074 ], [ -51.1462775, -29.7582732 ], [ -51.1460743, -29.7581603 ], [ -51.1442604, -29.7570959 ], [ -51.142289, -29.7564169 ], [ -51.1422889, -29.756416899999987 ], [ -51.14192, -29.757364 ], [ -51.1417262, -29.7578615 ], [ -51.1416053, -29.758427199999989 ], [ -51.1415806, -29.7589264 ], [ -51.1415954, -29.7593467 ], [ -51.1416042, -29.7594225 ], [ -51.1416318, -29.759617699999989 ], [ -51.1415225, -29.7599982 ], [ -51.1411978, -29.7607474 ], [ -51.1408801, -29.7614903 ], [ -51.1405963, -29.7622073 ], [ -51.1405069, -29.7624329 ], [ -51.1403765, -29.7632273 ], [ -51.1402231, -29.764242499999988 ], [ -51.1399949, -29.7656256 ], [ -51.1399628, -29.766156 ], [ -51.1400186, -29.7667114 ], [ -51.140175, -29.7672464 ], [ -51.1410566, -29.7689324 ], [ -51.141841, -29.7702375 ], [ -51.1421508, -29.7707502 ], [ -51.1423059, -29.7710087 ], [ -51.1429005, -29.7720003 ], [ -51.1432864, -29.7727772 ], [ -51.1434765, -29.7733749 ], [ -51.1436577, -29.77435 ], [ -51.1437658, -29.7753336 ], [ -51.1438743, -29.7764531 ], [ -51.1438688, -29.7769488 ], [ -51.1438074, -29.777458 ], [ -51.1434952, -29.7784705 ], [ -51.1433084, -29.7789739 ], [ -51.143185, -29.779459 ], [ -51.1433137, -29.7794255 ], [ -51.1434388, -29.779393 ], [ -51.1442676, -29.7792603 ] ] ] } },
{ "type": "Feature", "properties": { "name": "Padre Reus", "code_muni": 4318705.0, "name_muni": "São Leopoldo" }, "geometry": { "type": "Polygon", "coordinates": [ [ [ -51.1433137, -29.7794255 ], [ -51.143185, -29.779459 ], [ -51.142969, -29.7806482 ], [ -51.1427976, -29.7813059 ], [ -51.1416669, -29.7839666 ], [ -51.1415783, -29.7841928 ], [ -51.1410025, -29.7857061 ], [ -51.1404596, -29.7868986 ], [ -51.1403666, -29.7870518 ], [ -51.1441684, -29.7887283 ], [ -51.1443882, -29.7884709 ], [ -51.1454657, -29.7865597 ], [ -51.1460511, -29.7853933 ], [ -51.1462584, -29.7845596 ], [ -51.1468507, -29.7823226 ], [ -51.1477937, -29.7786722 ], [ -51.1477548, -29.7786917 ], [ -51.147489, -29.7787528 ], [ -51.1468117, -29.7788552 ], [ -51.1459011, -29.7790007 ], [ -51.1442676, -29.7792603 ], [ -51.1434388, -29.779393 ], [ -51.1433137, -29.7794255 ] ] ] } },
{ "type": "Feature", "properties": { "name": "Santa Tereza", "code_muni": 4318705.0, "name_muni": "São Leopoldo" }, "geometry": { "type": "Polygon", "coordinates": [ [ [ -51.1414017, -29.7837828 ], [ -51.1345796, -29.7835299 ], [ -51.1338877, -29.7836005 ], [ -51.1332659, -29.7837429 ], [ -51.1328046, -29.78395020000001 ], [ -51.1321075, -29.7843842 ], [ -51.1292372, -29.787088099999988 ], [ -51.1277533, -29.7884183 ], [ -51.1277778, -29.7885243 ], [ -51.1278221, -29.7886551 ], [ -51.1280564, -29.7892371 ], [ -51.1283302, -29.7899174 ], [ -51.1286595, -29.7907356 ], [ -51.1291516, -29.7906632 ], [ -51.1298407, -29.7905024 ], [ -51.1312122, -29.7923633 ], [ -51.1312965, -29.7924735 ], [ -51.1316133, -29.7929668 ], [ -51.1319678, -29.7936406 ], [ -51.1321801, -29.794122 ], [ -51.1322915, -29.7943655 ], [ -51.1323608, -29.7945566 ], [ -51.132436, -29.7947103 ], [ -51.1325071, -29.7946933 ], [ -51.1332708, -29.7945859 ], [ -51.1348926, -29.794325299999986 ], [ -51.1350395, -29.7943271 ], [ -51.1352163, -29.793712 ], [ -51.1354784, -29.7930896 ], [ -51.1357525, -29.7926285 ], [ -51.1360894, -29.7921567 ], [ -51.1363609, -29.7918777 ], [ -51.1377987, -29.790598399999986 ], [ -51.1382736, -29.7901078 ], [ -51.1398314, -29.7879245 ], [ -51.1403666, -29.7870518 ], [ -51.1404596, -29.7868986 ], [ -51.1410025, -29.7857061 ], [ -51.1415783, -29.7841928 ], [ -51.1416669, -29.7839666 ], [ -51.1414017, -29.7837828 ] ] ] } },
{ "type": "Feature", "properties": { "name": "Jardim América", "code_muni": 4318705.0, "name_muni": "São Leopoldo" }, "geometry": { "type": "Polygon", "coordinates": [ [ [ -51.1257089, -29.7828559 ], [ -51.1258939, -29.7833904 ], [ -51.125958, -29.7835599 ], [ -51.1260023, -29.7836568 ], [ -51.1262343, -29.7842374 ], [ -51.1262968, -29.7844132 ], [ -51.1264747, -29.7848974 ], [ -51.1265127, -29.7850383 ], [ -51.1266939, -29.7855307 ], [ -51.1268518, -29.7859248 ], [ -51.1269444, -29.7861937 ], [ -51.1271605, -29.786773199999988 ], [ -51.1274141, -29.7874965 ], [ -51.1277283, -29.7883322 ], [ -51.1277533, -29.7884183 ], [ -51.1292372, -29.787088099999988 ], [ -51.1321075, -29.7843842 ], [ -51.1328046, -29.78395020000001 ], [ -51.1332659, -29.7837429 ], [ -51.1338877, -29.7836005 ], [ -51.1345796, -29.7835299 ], [ -51.1345903, -29.7834611 ], [ -51.1348477, -29.7829511 ], [ -51.1349076, -29.7828626 ], [ -51.1352534, -29.782285099999985 ], [ -51.13578, -29.7814077 ], [ -51.1360785, -29.7808886 ], [ -51.1361092, -29.7805355 ], [ -51.1361257, -29.7804106 ], [ -51.1361273, -29.7803193 ], [ -51.1361216, -29.7797163 ], [ -51.1361608, -29.7788886 ], [ -51.1364946, -29.7778902 ], [ -51.1365402, -29.7777203 ], [ -51.1366045, -29.7774468 ], [ -51.1365992, -29.7771592 ], [ -51.1364366, -29.7761679 ], [ -51.135775, -29.7759535 ], [ -51.1350528, -29.7757287 ], [ -51.1343612, -29.7753981 ], [ -51.1339147, -29.7751284 ], [ -51.1338003, -29.7750601 ], [ -51.1336612, -29.7749887 ], [ -51.1329885, -29.7745209 ], [ -51.1322895, -29.7740513 ], [ -51.1316452, -29.773542799999987 ], [ -51.1315892, -29.7735023 ], [ -51.1304856, -29.7745728 ], [ -51.1264485, -29.7785161 ], [ -51.123893, -29.7809899 ], [ -51.1234753, -29.7812705 ], [ -51.1217631, -29.7824205 ], [ -51.1218699, -29.7824205 ], [ -51.1220629, -29.7825941 ], [ -51.1224867, -29.7829815 ], [ -51.1226625, -29.7830693 ], [ -51.1227778, -29.783127 ], [ -51.1229239, -29.7831701 ], [ -51.123266, -29.783208 ], [ -51.123521, -29.7831833 ], [ -51.123869, -29.7831075 ], [ -51.1241075, -29.7830152 ], [ -51.1244188, -29.7828291 ], [ -51.124764, -29.7825452 ], [ -51.1248804, -29.7824373 ], [ -51.125299, -29.782044 ], [ -51.1257089, -29.7828559 ] ] ] } },
{ "type": "Feature", "properties": { "name": "Vicentina", "code_muni": 4318705.0, "name_muni": "São Leopoldo" }, "geometry": { "type": "Polygon", "coordinates": [ [ [ -51.1695013, -29.7649142 ], [ -51.1666655, -29.7665583 ], [ -51.1561495, -29.7726547 ], [ -51.1560009, -29.7727192 ], [ -51.1557316, -29.772681 ], [ -51.1543897, -29.7724906 ], [ -51.1541084, -29.7724497 ], [ -51.1543841, -29.7734543 ], [ -51.1549217, -29.7752949 ], [ -51.155449, -29.7771834 ], [ -51.1555139, -29.7773953 ], [ -51.1555914, -29.7776128 ], [ -51.1556848, -29.7778338 ], [ -51.15586480000001, -29.7781743 ], [ -51.1560447, -29.7784112 ], [ -51.1562395, -29.7786436 ], [ -51.1565698, -29.7789921 ], [ -51.1593592, -29.7816164 ], [ -51.1613411, -29.7834638 ], [ -51.1622591, -29.7843363 ], [ -51.1625211, -29.7846484 ], [ -51.1626783, -29.7848739 ], [ -51.1628537, -29.7851929 ], [ -51.1629721, -29.7855027 ], [ -51.1630963, -29.7859571 ], [ -51.1631771, -29.7864047 ], [ -51.16342, -29.787856 ], [ -51.1642208, -29.788371 ], [ -51.164619, -29.78865 ], [ -51.1652026, -29.7890327 ], [ -51.1653028, -29.7891015 ], [ -51.1656115, -29.7893192 ], [ -51.1665842, -29.7899643 ], [ -51.1675717, -29.7906197 ], [ -51.1676113, -29.7906441 ], [ -51.1724865, -29.7879067 ], [ -51.1760644, -29.7858976 ], [ -51.1793963, -29.783885 ], [ -51.1779523, -29.7816733 ], [ -51.1787177, -29.7802701 ], [ -51.1788817, -29.7777734 ], [ -51.1778247, -29.7753678 ], [ -51.1697365, -29.765346 ], [ -51.1697338, -29.7651893 ], [ -51.1695882, -29.7650247 ], [ -51.1695013, -29.7649142 ] ] ] } },
{ "type": "Feature", "properties": { "name": "Fião", "code_muni": 4318705.0, "name_muni": "São Leopoldo" }, "geometry": { "type": "Polygon", "coordinates": [ [ [ -51.1484316, -29.7716046 ], [ -51.1484157, -29.7717276 ], [ -51.1478143, -29.773247 ], [ -51.1477027, -29.7736479 ], [ -51.1478576, -29.7770239 ], [ -51.1479145, -29.7781219 ], [ -51.1477937, -29.7786722 ], [ -51.1478651, -29.778631699999984 ], [ -51.1484291, -29.7783413 ], [ -51.14880320000001, -29.7781417 ], [ -51.1493177, -29.7778792 ], [ -51.1507102, -29.7771688 ], [ -51.1507975, -29.7771243 ], [ -51.1509671, -29.7770312 ], [ -51.1530446, -29.7778349 ], [ -51.1535435, -29.777926 ], [ -51.1540059, -29.7779215 ], [ -51.1555914, -29.7776128 ], [ -51.1555139, -29.7773953 ], [ -51.155449, -29.7771834 ], [ -51.1549217, -29.7752949 ], [ -51.1543841, -29.7734543 ], [ -51.1541084, -29.7724497 ], [ -51.1484316, -29.7716046 ] ] ] } },
{ "type": "Feature", "properties": { "name": "Cristo Rei", "code_muni": 4318705.0, "name_muni": "São Leopoldo" }, "geometry": { "type": "Polygon", "coordinates": [ [ [ -51.1488529, -29.7989865 ], [ -51.1546509, -29.7988654 ], [ -51.155852744456553, -29.799111556368992 ], [ -51.160786382584654, -29.799136629742012 ], [ -51.1604035, -29.7971181 ], [ -51.16012, -29.7955137 ], [ -51.1596608, -29.7931389 ], [ -51.1596349, -29.792995 ], [ -51.1598786, -29.7929472 ], [ -51.1604663, -29.7927285 ], [ -51.160783, -29.7925508 ], [ -51.1619129, -29.7917216 ], [ -51.1638149, -29.790215899999989 ], [ -51.16342, -29.787856 ], [ -51.1631771, -29.7864047 ], [ -51.1630963, -29.7859571 ], [ -51.1629721, -29.7855027 ], [ -51.1628537, -29.7851929 ], [ -51.1626783, -29.7848739 ], [ -51.1625211, -29.7846484 ], [ -51.1622591, -29.7843363 ], [ -51.1613411, -29.7834638 ], [ -51.1593592, -29.7816164 ], [ -51.1565698, -29.7789921 ], [ -51.1562395, -29.7786436 ], [ -51.1560447, -29.7784112 ], [ -51.15586480000001, -29.7781743 ], [ -51.1556848, -29.7778338 ], [ -51.1555914, -29.7776128 ], [ -51.1540059, -29.7779215 ], [ -51.1535435, -29.777926 ], [ -51.1530446, -29.7778349 ], [ -51.1509671, -29.7770312 ], [ -51.1507975, -29.7771243 ], [ -51.1507102, -29.7771688 ], [ -51.1493177, -29.7778792 ], [ -51.14880320000001, -29.7781417 ], [ -51.1484291, -29.7783413 ], [ -51.1478651, -29.778631699999984 ], [ -51.1477937, -29.7786722 ], [ -51.1468507, -29.7823226 ], [ -51.1462584, -29.7845596 ], [ -51.1460511, -29.7853933 ], [ -51.1454657, -29.7865597 ], [ -51.1443882, -29.7884709 ], [ -51.1441684, -29.7887283 ], [ -51.1437663, -29.7890655 ], [ -51.1435226, -29.7893251 ], [ -51.1433722, -29.7896281 ], [ -51.1432925, -29.7901543 ], [ -51.1432674, -29.7913548 ], [ -51.1433403, -29.7923617 ], [ -51.1434702, -29.7934688 ], [ -51.1437276, -29.7938675 ], [ -51.1442971, -29.7948539 ], [ -51.1449304, -29.7957149 ], [ -51.1449805, -29.7960384 ], [ -51.1449645, -29.7962844 ], [ -51.1448529, -29.7967241 ], [ -51.1448187, -29.7970817 ], [ -51.1448392, -29.797382399999986 ], [ -51.1449577, -29.7977036 ], [ -51.1452288, -29.7980112 ], [ -51.145534, -29.79828 ], [ -51.1457123, -29.7983867 ], [ -51.1458996, -29.7984466 ], [ -51.1462344, -29.7984602 ], [ -51.1467186, -29.7983392 ], [ -51.147099, -29.7982777 ], [ -51.1474384, -29.7982709 ], [ -51.1476252, -29.798311900000012 ], [ -51.1478166, -29.7983939 ], [ -51.1487347, -29.7989926 ], [ -51.1488529, -29.7989865 ] ] ] } },
{ "type": "Feature", "properties": { "name": "São João Batista", "code_muni": 4318705.0, "name_muni": "São Leopoldo" }, "geometry": { "type": "Polygon", "coordinates": [ [ [ -51.1676113, -29.7906441 ], [ -51.1675717, -29.7906197 ], [ -51.1665842, -29.7899643 ], [ -51.1656115, -29.7893192 ], [ -51.1653028, -29.7891015 ], [ -51.1652026, -29.7890327 ], [ -51.164619, -29.78865 ], [ -51.1642208, -29.788371 ], [ -51.16342, -29.787856 ], [ -51.1638149, -29.790215899999989 ], [ -51.1619129, -29.7917216 ], [ -51.160783, -29.7925508 ], [ -51.1604663, -29.7927285 ], [ -51.1598786, -29.7929472 ], [ -51.1596349, -29.792995 ], [ -51.1596608, -29.7931389 ], [ -51.16012, -29.7955137 ], [ -51.1604035, -29.7971181 ], [ -51.160786382584654, -29.799136629742012 ], [ -51.162093979559089, -29.799143244243464 ], [ -51.1649213, -29.7973019 ], [ -51.1649984, -29.7972519 ], [ -51.164847248869513, -29.79631055944569 ], [ -51.164217776, -29.794225791 ], [ -51.168106659735358, -29.793633168518546 ], [ -51.1676113, -29.7906441 ] ] ] } },
{ "type": "Feature", "properties": { "name": "São Miguel", "code_muni": 4318705.0, "name_muni": "São Leopoldo" }, "geometry": { "type": "Polygon", "coordinates": [ [ [ -51.1520537, -29.7606838 ], [ -51.1521049, -29.7610921 ], [ -51.1521106, -29.7611372 ], [ -51.1521824, -29.761440100000016 ], [ -51.1524068, -29.7618957 ], [ -51.1535594, -29.7638981 ], [ -51.1537508, -29.7642671 ], [ -51.1538601, -29.7645245 ], [ -51.1539193, -29.7647296 ], [ -51.1539672, -29.7651305 ], [ -51.1539717, -29.7654198 ], [ -51.1539512, -29.7656727 ], [ -51.1539057, -29.7659483 ], [ -51.1536095, -29.7672331 ], [ -51.1533043, -29.7685224 ], [ -51.1532359, -29.7688801 ], [ -51.1532246, -29.7691603 ], [ -51.1532473, -29.769445 ], [ -51.1533385, -29.7697981 ], [ -51.1537963, -29.7713904 ], [ -51.1540261, -29.7721705 ], [ -51.1541084, -29.7724497 ], [ -51.1543897, -29.7724906 ], [ -51.1557316, -29.772681 ], [ -51.1560009, -29.7727192 ], [ -51.1561495, -29.7726547 ], [ -51.1666655, -29.7665583 ], [ -51.1695013, -29.7649142 ], [ -51.1694295, -29.7648229 ], [ -51.169184, -29.7645335 ], [ -51.1691659, -29.764528 ], [ -51.1683209, -29.76334 ], [ -51.1680521, -29.7630302 ], [ -51.1678379, -29.7628616 ], [ -51.1675782, -29.7627021 ], [ -51.1664438, -29.762105300000016 ], [ -51.1661978, -29.7619504 ], [ -51.1660246, -29.7617226 ], [ -51.1659335, -29.7615358 ], [ -51.165888, -29.7613353 ], [ -51.1658652, -29.7610984 ], [ -51.1657861, -29.7593728 ], [ -51.1657535, -29.7586624 ], [ -51.1657194, -29.7578546 ], [ -51.1657012, -29.757344 ], [ -51.1643448, -29.756909599999986 ], [ -51.1629973, -29.7564029 ], [ -51.1614266, -29.7563806 ], [ -51.1575642, -29.7569245 ], [ -51.1552412, -29.7577833 ], [ -51.1539765, -29.7582508 ], [ -51.1522856, -29.7590705 ], [ -51.1519876, -29.7591369 ], [ -51.1520537, -29.7606838 ] ] ] } },
{ "type": "Feature", "properties": { "name": "Campestre", "code_muni": 4318705.0, "name_muni": "São Leopoldo" }, "geometry": { "type": "Polygon", "coordinates": [ [ [ -51.0916994, -29.76816 ], [ -51.091411, -29.76806 ], [ -51.090966, -29.767942 ], [ -51.090833, -29.7679141 ], [ -51.090571, -29.767859 ], [ -51.090176, -29.767749 ], [ -51.08983, -29.767726 ], [ -51.0894387, -29.7677534 ], [ -51.089288, -29.767764 ], [ -51.089022, -29.767821 ], [ -51.088701, -29.767937 ], [ -51.088033, -29.768203 ], [ -51.087473, -29.768468 ], [ -51.08729, -29.76852 ], [ -51.08648, -29.76861 ], [ -51.08573, -29.768764 ], [ -51.0854613, -29.768846 ], [ -51.085088, -29.76896 ], [ -51.0846528, -29.7690492 ], [ -51.084409, -29.769101 ], [ -51.084186, -29.769156 ], [ -51.083963061791934, -29.76923087883198 ], [ -51.0839035888322, -29.769361980896459 ], [ -51.0839062, -29.7695203 ], [ -51.0839152, -29.7697185 ], [ -51.0838455, -29.7698093 ], [ -51.0837624, -29.7699117 ], [ -51.0837221, -29.7700817 ], [ -51.0836524, -29.7703355 ], [ -51.0834566, -29.7706568 ], [ -51.0833493, -29.7707266 ], [ -51.083266137773265, -29.770767153423513 ], [ -51.082234265429612, -29.773041683000436 ], [ -51.0907501, -29.7908266 ], [ -51.1046169, -29.7851975 ], [ -51.1075465, -29.783981 ], [ -51.1078706, -29.7838312 ], [ -51.1083941, -29.7836084 ], [ -51.1105961, -29.7826133 ], [ -51.1106465, -29.7825902 ], [ -51.1115363, -29.782045 ], [ -51.1116498, -29.7819711 ], [ -51.112714, -29.7813729 ], [ -51.1130868, -29.781184199999988 ], [ -51.1148785, -29.7804449 ], [ -51.1183506, -29.7793771 ], [ -51.1173096, -29.7794312 ], [ -51.1157711, -29.7794477 ], [ -51.11556, -29.7794306 ], [ -51.1148162, -29.7792408 ], [ -51.1144093, -29.7791171 ], [ -51.1140712, -29.7789934 ], [ -51.1134678, -29.7785852 ], [ -51.1137922, -29.7782398 ], [ -51.1146074, -29.7774026 ], [ -51.1125572, -29.7766436 ], [ -51.1122474, -29.7765179 ], [ -51.11076280000001, -29.7758625 ], [ -51.1100467, -29.7755482 ], [ -51.109871, -29.775474899999988 ], [ -51.1110793, -29.7711262 ], [ -51.1110929, -29.7707845 ], [ -51.111503, -29.7693083 ], [ -51.1119095, -29.7686708 ], [ -51.1120798, -29.7681318 ], [ -51.1122152, -29.7675416 ], [ -51.1122434, -29.7674449 ], [ -51.1124258, -29.7667767 ], [ -51.1125854, -29.7661469 ], [ -51.1126256, -29.76600950000001 ], [ -51.1130024, -29.7654245 ], [ -51.1131325, -29.7652633 ], [ -51.1132566, -29.7651096 ], [ -51.1133109, -29.765034 ], [ -51.1130414, -29.7650886 ], [ -51.1126913, -29.765143400000017 ], [ -51.1126235, -29.7651506 ], [ -51.1121187, -29.76519 ], [ -51.1108004, -29.7652098 ], [ -51.1104678, -29.7652493 ], [ -51.1102147, -29.7652993 ], [ -51.1100547, -29.7653308 ], [ -51.1098423, -29.7653754 ], [ -51.1074345, -29.766012100000012 ], [ -51.1067556, -29.766289 ], [ -51.1066761, -29.7663136 ], [ -51.106516, -29.7663956 ], [ -51.1062664, -29.7665437 ], [ -51.1060906, -29.766650399999989 ], [ -51.1057069, -29.766943199999986 ], [ -51.1055553, -29.76710030000001 ], [ -51.1054775, -29.7672517 ], [ -51.1054655, -29.767419300000011 ], [ -51.1054574, -29.7676824 ], [ -51.1055151, -29.768057299999988 ], [ -51.1056156, -29.7686777 ], [ -51.1056358, -29.7688011 ], [ -51.1056371, -29.7689851 ], [ -51.1055947, -29.7690898 ], [ -51.1054375, -29.7692491 ], [ -51.1051878, -29.769502 ], [ -51.1049115, -29.7697209 ], [ -51.1047587, -29.7698174 ], [ -51.1046061, -29.7698719 ], [ -51.1044717, -29.7699234 ], [ -51.1043597, -29.7699106 ], [ -51.1035624, -29.769928 ], [ -51.102802, -29.7698442 ], [ -51.1011149, -29.7693413 ], [ -51.1007381, -29.7691667 ], [ -51.1005141, -29.7690223 ], [ -51.1004135, -29.768907099999989 ], [ -51.100207, -29.7683786 ], [ -51.1001104, -29.7682063 ], [ -51.0994157, -29.7673355 ], [ -51.0992374, -29.7671935 ], [ -51.0988109, -29.7669886 ], [ -51.0986111, -29.7669281 ], [ -51.0983375, -29.766899 ], [ -51.0978439, -29.7669292 ], [ -51.0976566, -29.766957799999986 ], [ -51.097569, -29.7669711 ], [ -51.0974309, -29.7670293 ], [ -51.0971615, -29.7672135 ], [ -51.0968193, -29.7674473 ], [ -51.096535, -29.7675974 ], [ -51.096366, -29.767651 ], [ -51.0959584, -29.7676999 ], [ -51.0958135, -29.7677162 ], [ -51.0953884, -29.7677651 ], [ -51.0948488, -29.767844 ], [ -51.0943683, -29.7678583 ], [ -51.0941691, -29.7678607 ], [ -51.0940524, -29.7678668 ], [ -51.0939763, -29.7678793 ], [ -51.09389010000001, -29.7679089 ], [ -51.0938006, -29.7679462 ], [ -51.0935286, -29.768078099999986 ], [ -51.0931289, -29.7682341 ], [ -51.0928072, -29.7683381 ], [ -51.0927228, -29.7683601 ], [ -51.0924071, -29.7684052 ], [ -51.0916994, -29.76816 ] ] ] } },
{ "type": "Feature", "properties": { "name": "Fazenda São Borja", "code_muni": 4318705.0, "name_muni": "São Leopoldo" }, "geometry": { "type": "Polygon", "coordinates": [ [ [ -51.1229684, -29.8005533 ], [ -51.1227435, -29.7990906 ], [ -51.122201, -29.7957593 ], [ -51.1265, -29.7910194 ], [ -51.1268386, -29.790944 ], [ -51.1273529, -29.7909077 ], [ -51.1277931, -29.7908402 ], [ -51.1286595, -29.7907356 ], [ -51.1283302, -29.7899174 ], [ -51.1280564, -29.7892371 ], [ -51.1278221, -29.7886551 ], [ -51.1277778, -29.7885243 ], [ -51.1277533, -29.7884183 ], [ -51.1277283, -29.7883322 ], [ -51.1274141, -29.7874965 ], [ -51.1271605, -29.786773199999988 ], [ -51.1269444, -29.7861937 ], [ -51.1268518, -29.7859248 ], [ -51.1266939, -29.7855307 ], [ -51.1265127, -29.7850383 ], [ -51.1264747, -29.7848974 ], [ -51.1262968, -29.7844132 ], [ -51.1262343, -29.7842374 ], [ -51.1260023, -29.7836568 ], [ -51.125958, -29.7835599 ], [ -51.1258939, -29.7833904 ], [ -51.1257089, -29.7828559 ], [ -51.125299, -29.782044 ], [ -51.1248804, -29.7824373 ], [ -51.124764, -29.7825452 ], [ -51.1244188, -29.7828291 ], [ -51.1241075, -29.7830152 ], [ -51.123869, -29.7831075 ], [ -51.123521, -29.7831833 ], [ -51.123266, -29.783208 ], [ -51.1229239, -29.7831701 ], [ -51.1227778, -29.783127 ], [ -51.1226625, -29.7830693 ], [ -51.1224867, -29.7829815 ], [ -51.1220629, -29.7825941 ], [ -51.1218699, -29.7824205 ], [ -51.1217631, -29.7824205 ], [ -51.1234753, -29.7812705 ], [ -51.123893, -29.7809899 ], [ -51.1264485, -29.7785161 ], [ -51.1264204, -29.7784899 ], [ -51.1263767, -29.7784492 ], [ -51.126327, -29.7783874 ], [ -51.126324, -29.7783818 ], [ -51.1262817, -29.778308299999988 ], [ -51.1239703, -29.7767208 ], [ -51.122982, -29.7759936 ], [ -51.1227902, -29.775864399999989 ], [ -51.1224067, -29.7756062 ], [ -51.1222433, -29.7755802 ], [ -51.1220968, -29.7755234 ], [ -51.1219993, -29.775458199999985 ], [ -51.1219362, -29.7754205 ], [ -51.1218911, -29.7753922 ], [ -51.1209779, -29.7764679 ], [ -51.1202802, -29.7772736 ], [ -51.1192276, -29.7784478 ], [ -51.1183506, -29.7793771 ], [ -51.1148785, -29.7804449 ], [ -51.1130868, -29.781184199999988 ], [ -51.112714, -29.7813729 ], [ -51.1116498, -29.7819711 ], [ -51.1115363, -29.782045 ], [ -51.1106465, -29.7825902 ], [ -51.1105961, -29.7826133 ], [ -51.1083941, -29.7836084 ], [ -51.1078706, -29.7838312 ], [ -51.1075465, -29.783981 ], [ -51.1046169, -29.7851975 ], [ -51.0907501, -29.7908266 ], [ -51.098816291265258, -29.805894512993511 ], [ -51.115466580979444, -29.803442699979339 ], [ -51.1229684, -29.8005533 ] ] ] } },
{ "type": "Feature", "properties": { "name": "Duque de Caxias", "code_muni": 4318705.0, "name_muni": "São Leopoldo" }, "geometry": { "type": "Polygon", "coordinates": [ [ [ -51.136704837159279, -29.799313075307854 ], [ -51.136731912, -29.799012642 ], [ -51.146076441597309, -29.799061327956927 ], [ -51.1483199, -29.7990029 ], [ -51.1487347, -29.7989926 ], [ -51.1478166, -29.7983939 ], [ -51.1476252, -29.798311900000012 ], [ -51.1474384, -29.7982709 ], [ -51.147099, -29.7982777 ], [ -51.1467186, -29.7983392 ], [ -51.1462344, -29.7984602 ], [ -51.1458996, -29.7984466 ], [ -51.1457123, -29.7983867 ], [ -51.145534, -29.79828 ], [ -51.1452288, -29.7980112 ], [ -51.1449577, -29.7977036 ], [ -51.1448392, -29.797382399999986 ], [ -51.1448187, -29.7970817 ], [ -51.1448529, -29.7967241 ], [ -51.1449645, -29.7962844 ], [ -51.1449805, -29.7960384 ], [ -51.1449304, -29.7957149 ], [ -51.1442971, -29.7948539 ], [ -51.1437276, -29.7938675 ], [ -51.1434702, -29.7934688 ], [ -51.1433403, -29.7923617 ], [ -51.1432674, -29.7913548 ], [ -51.1432925, -29.7901543 ], [ -51.1433722, -29.7896281 ], [ -51.1435226, -29.7893251 ], [ -51.1437663, -29.7890655 ], [ -51.1441684, -29.7887283 ], [ -51.1403666, -29.7870518 ], [ -51.1398314, -29.7879245 ], [ -51.1382736, -29.7901078 ], [ -51.1377987, -29.790598399999986 ], [ -51.1363609, -29.7918777 ], [ -51.1360894, -29.7921567 ], [ -51.1357525, -29.7926285 ], [ -51.1354784, -29.7930896 ], [ -51.1352163, -29.793712 ], [ -51.1350395, -29.7943271 ], [ -51.1348926, -29.794325299999986 ], [ -51.1332708, -29.7945859 ], [ -51.1325071, -29.7946933 ], [ -51.132436, -29.7947103 ], [ -51.1323608, -29.7945566 ], [ -51.1322915, -29.7943655 ], [ -51.1321801, -29.794122 ], [ -51.1319678, -29.7936406 ], [ -51.1316133, -29.7929668 ], [ -51.1312965, -29.7924735 ], [ -51.1312122, -29.7923633 ], [ -51.1298407, -29.7905024 ], [ -51.1291516, -29.7906632 ], [ -51.1286595, -29.7907356 ], [ -51.1277931, -29.7908402 ], [ -51.1273529, -29.7909077 ], [ -51.1268386, -29.790944 ], [ -51.1265, -29.7910194 ], [ -51.122201, -29.7957593 ], [ -51.1227435, -29.7990906 ], [ -51.1229684, -29.8005533 ], [ -51.1253472, -29.8003188 ], [ -51.1255248, -29.8017283 ], [ -51.1269976, -29.8015429 ], [ -51.1277767, -29.8014557 ], [ -51.1275949, -29.8001251 ], [ -51.1318891, -29.7997588 ], [ -51.1358331, -29.7993378 ], [ -51.136704837159279, -29.799313075307854 ] ] ] } },
{ "type": "Feature", "properties": { "name": "Arroio da Manteiga", "code_muni": 4318705.0, "name_muni": "São Leopoldo" }, "geometry": { "type": "Polygon", "coordinates": [ [ [ -51.1641816, -29.7393831 ], [ -51.1665486, -29.7408971 ], [ -51.1672593, -29.7413345 ], [ -51.167384, -29.7415144 ], [ -51.1674962, -29.7416762 ], [ -51.1676921, -29.74215 ], [ -51.1689587, -29.7468928 ], [ -51.1847134, -29.7449519 ], [ -51.1847134, -29.7463187 ], [ -51.187119, -29.7462094 ], [ -51.1871555, -29.7498541 ], [ -51.1984543, -29.7498177 ], [ -51.1977982, -29.738774 ], [ -51.208603490577509, -29.738649143515097 ], [ -51.209460664999902, -29.730051128 ], [ -51.206841257289327, -29.725467266274585 ], [ -51.2056028, -29.7248641 ], [ -51.2038052, -29.7245685 ], [ -51.2041048, -29.7229364 ], [ -51.204271569625575, -29.722405313358454 ], [ -51.196699565, -29.715350281999989 ], [ -51.196630694663412, -29.715205857029762 ], [ -51.1965875, -29.7151779 ], [ -51.196560040998598, -29.715057691846575 ], [ -51.195328974999896, -29.712475992 ], [ -51.196224762173244, -29.707737354971542 ], [ -51.1961926, -29.7077145 ], [ -51.1961789, -29.7073715 ], [ -51.196317911041575, -29.707244579807849 ], [ -51.196507535946168, -29.706241413190241 ], [ -51.1964241, -29.7059757 ], [ -51.1965375, -29.7046693 ], [ -51.1966056, -29.704169 ], [ -51.196661, -29.7037817 ], [ -51.1931602, -29.7045516 ], [ -51.1900598, -29.7050892 ], [ -51.1893833, -29.7052532 ], [ -51.1889618, -29.7053945 ], [ -51.1884379, -29.7056132 ], [ -51.187898, -29.7058888 ], [ -51.1875062, -29.7061348 ], [ -51.1871075, -29.7064332 ], [ -51.1867157, -29.7067681 ], [ -51.18640820000001, -29.707087 ], [ -51.1861667, -29.70739 ], [ -51.1859549, -29.7076839 ], [ -51.1856724, -29.7081622 ], [ -51.1855016, -29.7085245 ], [ -51.1849662, -29.7098856 ], [ -51.1846701, -29.7106065 ], [ -51.1845197, -29.710923199999989 ], [ -51.1843626, -29.711176 ], [ -51.1841165, -29.7115177 ], [ -51.1839548, -29.7117045 ], [ -51.1835903, -29.7120759 ], [ -51.1832236, -29.7123902 ], [ -51.1827292, -29.7127501 ], [ -51.1717037, -29.7203655 ], [ -51.1710135, -29.7208689 ], [ -51.1708802, -29.7209806 ], [ -51.1705738, -29.7212482 ], [ -51.1702116, -29.7216138 ], [ -51.169494, -29.7225501 ], [ -51.1679377, -29.7245972 ], [ -51.1680047, -29.7250806 ], [ -51.1681477, -29.7261129 ], [ -51.1680976, -29.726769 ], [ -51.1680885, -29.7268829 ], [ -51.1680156, -29.7269239 ], [ -51.1679382, -29.7269466 ], [ -51.1678243, -29.7269603 ], [ -51.1677195, -29.727015 ], [ -51.1665577, -29.7277667 ], [ -51.1662661, -29.7279809 ], [ -51.1659745, -29.7280674 ], [ -51.1655417, -29.7281768 ], [ -51.1652091, -29.7283362 ], [ -51.1649175, -29.7285412 ], [ -51.1643161, -29.7291609 ], [ -51.1639095, -29.729564799999984 ], [ -51.1636419, -29.7298306 ], [ -51.1630405, -29.7305504 ], [ -51.1627956, -29.7308225 ], [ -51.161402, -29.7323708 ], [ -51.1610419, -29.7327709 ], [ -51.1606805, -29.7331724 ], [ -51.1603114, -29.7335916 ], [ -51.1600586, -29.7342362 ], [ -51.1600176, -29.7345597 ], [ -51.1601087, -29.7350017 ], [ -51.1601836, -29.7351855 ], [ -51.1602636, -29.7353821 ], [ -51.1605597, -29.7357898 ], [ -51.1626171, -29.7380451 ], [ -51.1631134, -29.7385326 ], [ -51.1640728, -29.73934 ], [ -51.1641816, -29.7393831 ] ] ] } },
{ "type": "Feature", "properties": { "name": "Lago Azul", "code_muni": 4318705.0, "name_muni": "São Leopoldo" }, "geometry": { "type": "Polygon", "coordinates": [ [ [ -51.1934972, -29.6803894 ], [ -51.193518918047531, -29.680387164323111 ], [ -51.193470888042064, -29.680370086139241 ], [ -51.1934972, -29.6803894 ] ] ] } },
{ "type": "Feature", "properties": { "name": "Encosta do Sol", "code_muni": 4318705.0, "name_muni": "São Leopoldo" }, "geometry": { "type": "MultiPolygon", "coordinates": [ [ [ [ -51.1805254, -29.6745795 ], [ -51.1810247, -29.6749583 ], [ -51.1815252, -29.6753455 ], [ -51.1820816, -29.675769600000013 ], [ -51.1833233, -29.6766275 ], [ -51.183911104160629, -29.67691124661269 ], [ -51.180469520747906, -29.674526798461237 ], [ -51.1805254, -29.6745795 ] ] ], [ [ [ -51.1879477, -29.6784325 ], [ -51.188265953218504, -29.678519212793365 ], [ -51.187853772862169, -29.678372629898995 ], [ -51.1879477, -29.6784325 ] ] ] ] } },
{ "type": "Feature", "properties": { "name": "Horto Florestal", "code_muni": 4318705.0, "name_muni": "São Leopoldo" }, "geometry": { "type": "MultiPolygon", "coordinates": [ [ [ [ -51.1650269, -29.7978642 ], [ -51.1650166, -29.7977991 ], [ -51.1649213, -29.7973019 ], [ -51.162093979559089, -29.799143244243464 ], [ -51.16521434438377, -29.799158976394935 ], [ -51.1650269, -29.7978642 ] ] ], [ [ [ -51.1546509, -29.7988654 ], [ -51.1488529, -29.7989865 ], [ -51.1487347, -29.7989926 ], [ -51.1483199, -29.7990029 ], [ -51.146076441597309, -29.799061327956927 ], [ -51.155852744456553, -29.799111556368992 ], [ -51.1546509, -29.7988654 ] ] ] ] } },
{ "type": "Feature", "properties": { "name": "Vargas", "code_muni": 4318705.0, "name_muni": "São Leopoldo" }, "geometry": { "type": "Polygon", "coordinates": [ [ [ -51.1359319, -29.8003958 ], [ -51.1359515, -29.7999258 ], [ -51.1359277, -29.799687 ], [ -51.1358331, -29.7993378 ], [ -51.1318891, -29.7997588 ], [ -51.1275949, -29.8001251 ], [ -51.1277767, -29.8014557 ], [ -51.1269976, -29.8015429 ], [ -51.1255248, -29.8017283 ], [ -51.1253472, -29.8003188 ], [ -51.1229684, -29.8005533 ], [ -51.115466580979444, -29.803442699979339 ], [ -51.135927640771932, -29.800426701776875 ], [ -51.1359319, -29.8003958 ] ] ] } },
{ "type": "Feature", "properties": { "name": "Zoológico", "code_muni": 4318705.0, "name_muni": "São Leopoldo" }, "geometry": { "type": "MultiPolygon", "coordinates": [ [ [ [ -51.1904888, -29.7779499 ], [ -51.1895705, -29.7782106 ], [ -51.1888366, -29.7781827 ], [ -51.1841515, -29.7810127 ], [ -51.1793963, -29.783885 ], [ -51.1760644, -29.7858976 ], [ -51.1724865, -29.7879067 ], [ -51.1676113, -29.7906441 ], [ -51.168106659735358, -29.793633168518546 ], [ -51.168178052, -29.793622287999909 ], [ -51.167823376999905, -29.790628203 ], [ -51.1908453039999, -29.7778316 ], [ -51.190767406533865, -29.77782900159594 ], [ -51.1904888, -29.7779499 ] ] ], [ [ [ -51.165590482568625, -29.799160867820856 ], [ -51.165708090999892, -29.799161458999897 ], [ -51.16543870012714, -29.798269320283151 ], [ -51.165590482568625, -29.799160867820856 ] ] ] ] } },
{ "type": "Feature", "properties": { "name": "São José", "code_muni": 4318705.0, "name_muni": "São Leopoldo" }, "geometry": { "type": "Polygon", "coordinates": [ [ [ -51.1358331, -29.7993378 ], [ -51.1359277, -29.799687 ], [ -51.1359515, -29.7999258 ], [ -51.1359319, -29.8003958 ], [ -51.135927640771932, -29.800426701776875 ], [ -51.136613594, -29.800325533 ], [ -51.136704837159279, -29.799313075307854 ], [ -51.1358331, -29.7993378 ] ] ] } },
{ "type": "Feature", "properties": { "name": "Portão Velho", "code_muni": 4318705.0, "name_muni": "São Leopoldo" }, "geometry": { "type": "MultiPolygon", "coordinates": [ [ [ [ -51.1931938, -29.6813977 ], [ -51.193202005995722, -29.6814315760837 ], [ -51.193347692713672, -29.680984224422353 ], [ -51.1931938, -29.6813977 ] ] ], [ [ [ -51.1924052, -29.6836534 ], [ -51.192412344155933, -29.683856272823263 ], [ -51.192634325423015, -29.683174680291035 ], [ -51.1924052, -29.6836534 ] ] ], [ [ [ -51.1928559, -29.6964502 ], [ -51.1938985, -29.6965307 ], [ -51.194088457430709, -29.696617314928822 ], [ -51.192782111065597, -29.694355340912757 ], [ -51.1928559, -29.6964502 ] ] ], [ [ [ -51.197246789001966, -29.702330374864768 ], [ -51.197281651, -29.702145929 ], [ -51.197233832224796, -29.702063141886356 ], [ -51.197246789001966, -29.702330374864768 ] ] ], [ [ [ -51.1969972, -29.703258 ], [ -51.1968792, -29.7034793 ], [ -51.196661, -29.7037817 ], [ -51.1966056, -29.704169 ], [ -51.1965375, -29.7046693 ], [ -51.1964241, -29.7059757 ], [ -51.196507535946168, -29.706241413190241 ], [ -51.197112321225177, -29.703041802941428 ], [ -51.1969972, -29.703258 ] ] ], [ [ [ -51.1961789, -29.7073715 ], [ -51.1961926, -29.7077145 ], [ -51.196224762173244, -29.707737354971542 ], [ -51.196317911041575, -29.707244579807849 ], [ -51.1961789, -29.7073715 ] ] ], [ [ [ -51.1965875, -29.7151779 ], [ -51.196630694663412, -29.715205857029762 ], [ -51.196560040998598, -29.715057691846575 ], [ -51.1965875, -29.7151779 ] ] ], [ [ [ -51.2041048, -29.7229364 ], [ -51.2038052, -29.7245685 ], [ -51.2056028, -29.7248641 ], [ -51.206841257289327, -29.725467266274585 ], [ -51.206025091, -29.724038909999901 ], [ -51.204271569625575, -29.722405313358454 ], [ -51.2041048, -29.7229364 ] ] ] ] } }
]
}
