{
"type": "FeatureCollection",
"name": "bairros_sobradinho",
"crs": { "type": "name", "properties": { "name": "urn:ogc:def:crs:OGC:1.3:CRS84" } },
"features": [
{ "type": "Feature", "properties": { "code_muni": 4320701.0, "name_muni": "Sobradinho", "code_state": 43.0, "abbrev_state": "RS", "name_state": "Rio Grande do Sul", "code_region": 4.0, "name_region": "Sul", "year": 2022.0 }, "geometry": { "type": "Polygon", "coordinates": [ [ [ -52.976793644438402, -29.428178310855706 ], [ -52.975279663537798, -29.4293570848413 ], [ -52.978029026214294, -29.436045683746698 ], [ -52.981034788881999, -29.436294314041199 ], [ -52.983083213920303, -29.4380380559729 ], [ -52.990477745268997, -29.435021193738496 ], [ -53.012527034557891, -29.453629617344301 ], [ -53.008998678, -29.456848158999904 ], [ -53.012595851871701, -29.463508786703308 ], [ -53.016497904552097, -29.463767406607904 ], [ -53.019805020456303, -29.461693452566305 ], [ -53.0239451588428, -29.462967127847396 ], [ -53.032310902279491, -29.457142075232792 ], [ -53.040065059589892, -29.459191055249295 ], [ -53.044737977178897, -29.456724731524101 ], [ -53.047768713871903, -29.451574532566202 ], [ -53.047706416, -29.454783233999905 ], [ -53.050375684999892, -29.457732349 ], [ -53.048879821, -29.4591731639999 ], [ -53.051050554, -29.459322165999893 ], [ -53.055632269999897, -29.462733144 ], [ -53.065962161999899, -29.461061340999905 ], [ -53.070744502, -29.461866114 ], [ -53.072369255999895, -29.46016614 ], [ -53.07975076, -29.460834412999901 ], [ -53.084878611, -29.456464739999902 ], [ -53.084863799999908, -29.459148426 ], [ -53.09084932, -29.459831740999988 ], [ -53.089477022, -29.461580582 ], [ -53.0912622929999, -29.462654567999902 ], [ -53.091188929999902, -29.465101502 ], [ -53.092966797, -29.465857872 ], [ -53.092591824999893, -29.468603152999894 ], [ -53.09483054, -29.466868727 ], [ -53.086310367999907, -29.413510007 ], [ -53.083073909999897, -29.371921722 ], [ -53.075536859, -29.371769039999897 ], [ -53.070641404, -29.373538339999985 ], [ -53.070298641, -29.371222678 ], [ -53.068180955999907, -29.371240139999898 ], [ -53.069294086, -29.368655493999896 ], [ -53.065417189, -29.366587506 ], [ -53.065123126999893, -29.36300606 ], [ -53.0606645679999, -29.361050222 ], [ -53.058529463, -29.361689672999898 ], [ -53.0563031249999, -29.360737642999904 ], [ -53.054588141, -29.362530767 ], [ -53.05076329, -29.361478901999899 ], [ -53.050690545999892, -29.360353931999988 ], [ -53.049447742, -29.361082915999898 ], [ -53.049549462, -29.358101915 ], [ -53.046129188999899, -29.355042563 ], [ -53.04373373, -29.355943399999902 ], [ -53.040245956, -29.354343630999903 ], [ -53.037333228, -29.354543964999895 ], [ -53.029979953, -29.359632368 ], [ -53.013345527999903, -29.362405026 ], [ -53.018077682999902, -29.358377528999899 ], [ -53.020516984, -29.358176456 ], [ -53.026135648, -29.350893543 ], [ -53.02785789, -29.345321441999893 ], [ -53.023896695, -29.339446963999901 ], [ -53.024465458, -29.33707539700001 ], [ -53.012897105, -29.346103152999902 ], [ -53.010029361, -29.345233919 ], [ -53.007228289999901, -29.347477426999898 ], [ -53.002982152999891, -29.347618075 ], [ -53.000653324, -29.349672816999909 ], [ -52.997574573999891, -29.347320461 ], [ -52.994329259, -29.349046148 ], [ -52.991014445, -29.349034656999901 ], [ -52.989763684, -29.344500185 ], [ -52.985253574999909, -29.344686085 ], [ -52.984304731, -29.347637802 ], [ -52.986915844, -29.348825888 ], [ -52.984650713, -29.355014312 ], [ -52.982027651999893, -29.356568512 ], [ -52.978595702, -29.355060113 ], [ -52.974294562999894, -29.358495736999895 ], [ -52.970608281, -29.357499381 ], [ -52.968764805, -29.358315086999898 ], [ -52.9685395119999, -29.361356163 ], [ -52.972437879, -29.362782713999898 ], [ -52.971975491, -29.366673561 ], [ -52.970091055, -29.368677945999899 ], [ -52.968222023, -29.367717189 ], [ -52.966899325, -29.370898613 ], [ -52.971947353, -29.372549685 ], [ -52.9661706159999, -29.375227595999899 ], [ -52.96940407999989, -29.378388349 ], [ -52.968116498, -29.379711707999903 ], [ -52.968298473999901, -29.382708111999893 ], [ -52.964936693, -29.384480860999908 ], [ -52.968449253999893, -29.384610920999901 ], [ -52.9693479969999, -29.386815403 ], [ -52.963981046999898, -29.389937496 ], [ -52.964449169, -29.392135052999901 ], [ -52.961500942, -29.393422879 ], [ -52.961450216999893, -29.395474771999908 ], [ -52.95984916, -29.396488884999908 ], [ -52.957630912999903, -29.395382718999901 ], [ -52.955911891, -29.396846912999901 ], [ -52.952896934, -29.396578796 ], [ -52.950332471, -29.397992068999898 ], [ -52.945410318, -29.39473813 ], [ -52.938593375615191, -29.394932888616395 ], [ -52.9371537618117, -29.410053828358809 ], [ -52.94229730102969, -29.410999511443393 ], [ -52.950098076520391, -29.407789516748007 ], [ -52.954835371596396, -29.407882753108396 ], [ -52.959139783570294, -29.412278181529494 ], [ -52.962478533239697, -29.410767530498902 ], [ -52.963637328005191, -29.412230453392603 ], [ -52.96376719293589, -29.422743962989596 ], [ -52.965489845690804, -29.4256076512033 ], [ -52.971470292239495, -29.4285379368173 ], [ -52.976793644438402, -29.428178310855706 ] ] ] } }
]
}
