{
"type": "FeatureCollection",
"name": "bairros_tuparendi",
"crs": { "type": "name", "properties": { "name": "urn:ogc:def:crs:OGC:1.3:CRS84" } },
"features": [
{ "type": "Feature", "properties": { "code_muni": 4322301.0, "name_muni": "Tuparendi", "code_state": 43.0, "abbrev_state": "RS", "name_state": "Rio Grande do Sul", "code_region": 4.0, "name_region": "Sul", "year": 2022.0 }, "geometry": { "type": "Polygon", "coordinates": [ [ [ -54.532619742999891, -27.656114746999908 ], [ -54.530348467999893, -27.659243922 ], [ -54.526750365999902, -27.656029788 ], [ -54.52648078, -27.648411014 ], [ -54.52464859, -27.645017743 ], [ -54.511863031, -27.6434980679999 ], [ -54.506635867999897, -27.644968314 ], [ -54.505740757999909, -27.647764492 ], [ -54.507762178, -27.649238834999899 ], [ -54.519767278, -27.64867277 ], [ -54.518122674, -27.656442207999898 ], [ -54.49979981, -27.651003069 ], [ -54.499472308999891, -27.647843162 ], [ -54.496077981, -27.646385344999896 ], [ -54.488895801, -27.650168428 ], [ -54.493536288, -27.661248728 ], [ -54.492174404, -27.665156420999899 ], [ -54.489689224, -27.666528739999904 ], [ -54.484260092999889, -27.666642566999908 ], [ -54.483499531999897, -27.671850225999897 ], [ -54.480185348, -27.673544712 ], [ -54.477555757999895, -27.668590634999905 ], [ -54.48386115999989, -27.660521217999904 ], [ -54.479799963999909, -27.65400019 ], [ -54.477008051, -27.660566627 ], [ -54.469376904999891, -27.662352348 ], [ -54.465770463999895, -27.665858586999896 ], [ -54.456428089, -27.667697166 ], [ -54.457310558, -27.671752327 ], [ -54.463315619999896, -27.672582436 ], [ -54.465220442, -27.674793236 ], [ -54.462230265, -27.683472536999901 ], [ -54.460183015, -27.683096737 ], [ -54.458976111, -27.678105993 ], [ -54.454319649999903, -27.676711798999989 ], [ -54.449042206999891, -27.677859703 ], [ -54.448035326, -27.677037271 ], [ -54.448732999999891, -27.672144032999903 ], [ -54.4477796319999, -27.671008292999904 ], [ -54.436788148999895, -27.678394289 ], [ -54.436752892, -27.679979005999904 ], [ -54.44589933, -27.682472967 ], [ -54.439345891999899, -27.6906181579999 ], [ -54.439288381, -27.692966367999894 ], [ -54.441194982, -27.693129054999901 ], [ -54.443961859, -27.689923034999893 ], [ -54.448629970999896, -27.687365954 ], [ -54.454647077999901, -27.689445302 ], [ -54.447507737, -27.69332989 ], [ -54.451805811, -27.700112751999896 ], [ -54.45564744699989, -27.71380206 ], [ -54.4524655, -27.716005301999907 ], [ -54.442797017, -27.706750063999898 ], [ -54.433898129999896, -27.714273498 ], [ -54.4374295, -27.721038432999894 ], [ -54.436494475, -27.724333301999899 ], [ -54.439018347999898, -27.727827491 ], [ -54.437659278999895, -27.729568894 ], [ -54.438079252, -27.735939328 ], [ -54.441172232, -27.740390904 ], [ -54.445394692, -27.756392013 ], [ -54.453938572, -27.768298252 ], [ -54.45704409599989, -27.783625795 ], [ -54.462038341, -27.784388845 ], [ -54.463690879999902, -27.782638108 ], [ -54.470805793999894, -27.790720125 ], [ -54.4738643969999, -27.789613281 ], [ -54.474821695999907, -27.786678166999895 ], [ -54.482032871999891, -27.779755423 ], [ -54.487184258, -27.778896345 ], [ -54.491916601, -27.774668183999893 ], [ -54.49749961, -27.774197918 ], [ -54.499480583, -27.770544263 ], [ -54.506040963, -27.765385872 ], [ -54.514139911, -27.763960917 ], [ -54.517346526, -27.762224511999904 ], [ -54.519174985999896, -27.76317057099989 ], [ -54.526796397999895, -27.761026573 ], [ -54.533017308, -27.761733659999908 ], [ -54.538719008, -27.757928800999895 ], [ -54.543260067999896, -27.757432777 ], [ -54.550107913, -27.769665381999989 ], [ -54.5473066979999, -27.773895100999901 ], [ -54.542131108, -27.777712686 ], [ -54.544786372, -27.7785441619999 ], [ -54.5449233699999, -27.781399635 ], [ -54.551017198999894, -27.784419179999901 ], [ -54.5532458449999, -27.788120831999901 ], [ -54.577894569, -27.796555468 ], [ -54.586094588, -27.796499271 ], [ -54.593759904, -27.793097103 ], [ -54.594554289, -27.790644660999902 ], [ -54.603878095, -27.786903622999901 ], [ -54.604840189999891, -27.783635551 ], [ -54.614592777, -27.785044437 ], [ -54.620428710999896, -27.781399872 ], [ -54.620417196999909, -27.778834494 ], [ -54.617172503999903, -27.777936726 ], [ -54.615948344999893, -27.776036385999905 ], [ -54.616890987, -27.770838151 ], [ -54.6233382469999, -27.770292176999899 ], [ -54.623659489, -27.766313991999894 ], [ -54.626934015, -27.762023762 ], [ -54.632329178, -27.763661359 ], [ -54.637248885, -27.755747567 ], [ -54.63103963399989, -27.749734674 ], [ -54.624977594, -27.750733146999902 ], [ -54.62149893, -27.752791787 ], [ -54.613729981999896, -27.750628301999907 ], [ -54.6185356679999, -27.748966385 ], [ -54.623999856999895, -27.749503117999989 ], [ -54.638409215, -27.744419288999897 ], [ -54.64518141, -27.746970452 ], [ -54.644706707999894, -27.73646006 ], [ -54.642583924, -27.734032632 ], [ -54.638186824999899, -27.732886215 ], [ -54.642893192, -27.731602915999897 ], [ -54.650021704, -27.723044919 ], [ -54.647844923, -27.721064492 ], [ -54.639219774, -27.718544559999895 ], [ -54.638647481, -27.715869859999898 ], [ -54.641407617, -27.715865220999902 ], [ -54.643977236999902, -27.713809415999897 ], [ -54.651293095, -27.711904574999899 ], [ -54.646564841999989, -27.705533419999902 ], [ -54.646717206999902, -27.703860609999893 ], [ -54.657866978999905, -27.701969052 ], [ -54.660773272, -27.697335064999905 ], [ -54.662681619999894, -27.697717576999903 ], [ -54.665025521, -27.703383168 ], [ -54.667409732, -27.701968509 ], [ -54.669888236, -27.685800061 ], [ -54.678266432, -27.687177342 ], [ -54.678604516, -27.685020074 ], [ -54.671059323, -27.677106164 ], [ -54.664847959, -27.677013679 ], [ -54.661089486, -27.673444333 ], [ -54.663195827, -27.671504994 ], [ -54.680564749, -27.667537427999893 ], [ -54.68136542, -27.665747484999891 ], [ -54.667361110999899, -27.661151952999894 ], [ -54.658567889, -27.664346044 ], [ -54.656343745, -27.658942341999897 ], [ -54.664694816, -27.655294281999893 ], [ -54.676154277, -27.654599511 ], [ -54.679570581, -27.651240691999895 ], [ -54.679160274, -27.648655367999904 ], [ -54.670041714, -27.648042726 ], [ -54.667762826999891, -27.64569111 ], [ -54.664277785, -27.654207288999896 ], [ -54.662521736, -27.654250885 ], [ -54.660191719, -27.652210891 ], [ -54.662654664999891, -27.649234825999901 ], [ -54.661386686999897, -27.646504864 ], [ -54.658308571, -27.6452399359999 ], [ -54.655481519, -27.650720851 ], [ -54.65748945099989, -27.653829065 ], [ -54.653117551, -27.652483526 ], [ -54.649364733, -27.657790002999899 ], [ -54.652212544999898, -27.659655388 ], [ -54.651727426, -27.661764724999987 ], [ -54.645111, -27.660183123 ], [ -54.64147461399989, -27.662279081999891 ], [ -54.642649909999911, -27.657705789 ], [ -54.631546850999896, -27.651293954999989 ], [ -54.6201195, -27.638716665999901 ], [ -54.617707872, -27.640167635 ], [ -54.61462691, -27.639902486 ], [ -54.614515169, -27.631146225999903 ], [ -54.604815523999896, -27.629684574999899 ], [ -54.59990506, -27.621621396 ], [ -54.596793235, -27.606025261999896 ], [ -54.592805986, -27.602060993999899 ], [ -54.593591257, -27.598299411 ], [ -54.585153411, -27.597016310999901 ], [ -54.583562959999902, -27.594347801 ], [ -54.583784089999895, -27.590542476999897 ], [ -54.582252036999897, -27.589285346999901 ], [ -54.577871257, -27.591191380999891 ], [ -54.580725902, -27.597957564999891 ], [ -54.579475064, -27.599931736 ], [ -54.5723420099999, -27.602229919 ], [ -54.565258840999896, -27.601964738999989 ], [ -54.563300071, -27.6032336919999 ], [ -54.567982774, -27.609316207999896 ], [ -54.564950118999896, -27.614111302 ], [ -54.568015077, -27.615424538 ], [ -54.574513377, -27.615430565999894 ], [ -54.579663584999899, -27.618135896 ], [ -54.582781646999905, -27.621766309 ], [ -54.580991245, -27.625131557 ], [ -54.571669782, -27.626756058 ], [ -54.562406981, -27.635409087 ], [ -54.556587592, -27.635178085999897 ], [ -54.557704921, -27.631119151999901 ], [ -54.547920559, -27.626527966 ], [ -54.545806921999898, -27.626912595 ], [ -54.543874516999892, -27.6323986149999 ], [ -54.538092062, -27.630562235 ], [ -54.532586357999897, -27.63394851 ], [ -54.528225235, -27.634148372 ], [ -54.524952203999902, -27.631771258 ], [ -54.521576873, -27.635783402999905 ], [ -54.529232034999893, -27.641440386999893 ], [ -54.536449366999904, -27.644847161 ], [ -54.54260262, -27.652060397 ], [ -54.541874275999895, -27.653973606 ], [ -54.53875641, -27.655523430999896 ], [ -54.532619742999891, -27.656114746999908 ] ] ] } }
]
}
