{
"type": "FeatureCollection",
"name": "bairros_sao_pedro_das_missoes",
"crs": { "type": "name", "properties": { "name": "urn:ogc:def:crs:OGC:1.3:CRS84" } },
"features": [
{ "type": "Feature", "properties": { "code_muni": 4319364.0, "name_muni": "São Pedro das Missões", "code_state": 43.0, "abbrev_state": "RS", "name_state": "Rio Grande do Sul", "code_region": 4.0, "name_region": "Sul", "year": 2022.0 }, "geometry": { "type": "Polygon", "coordinates": [ [ [ -53.268890255, -27.835720653 ], [ -53.275005385, -27.83587399 ], [ -53.27280185099989, -27.832779075 ], [ -53.272854590999899, -27.829587744 ], [ -53.2751049, -27.825786246999904 ], [ -53.273449634, -27.8205619629999 ], [ -53.275628873, -27.812142743 ], [ -53.2750192, -27.80690139 ], [ -53.2778042959999, -27.800256611999902 ], [ -53.277244418, -27.796223772 ], [ -53.279289919999897, -27.792880404999888 ], [ -53.278413595, -27.788515652999902 ], [ -53.283229584, -27.781361569 ], [ -53.282362888, -27.7750541089999 ], [ -53.287149036999899, -27.773278666999904 ], [ -53.288961884999893, -27.767997474 ], [ -53.292512923999894, -27.764034479 ], [ -53.2915241809999, -27.755562809 ], [ -53.295414182999892, -27.749372751 ], [ -53.290190842, -27.748877326999899 ], [ -53.287513651, -27.7457021459999 ], [ -53.283062597, -27.745133417 ], [ -53.279639715, -27.748750956 ], [ -53.274309039999899, -27.751670707 ], [ -53.273335092, -27.753720648 ], [ -53.274543530999892, -27.757808753999896 ], [ -53.274113723, -27.764317565999903 ], [ -53.269360881999901, -27.762633002 ], [ -53.266100157, -27.755225274999898 ], [ -53.263875895, -27.754142198 ], [ -53.264130275, -27.752178681 ], [ -53.270501757, -27.752095865999895 ], [ -53.265171256, -27.731933252 ], [ -53.260440608, -27.727881244999892 ], [ -53.257041509, -27.726813305999901 ], [ -53.255119465999897, -27.728115556 ], [ -53.253476268, -27.732772805 ], [ -53.246523786, -27.74047826 ], [ -53.243525999, -27.746741404 ], [ -53.248458072999902, -27.746521942 ], [ -53.24836492, -27.748271106999894 ], [ -53.252353882, -27.75070292 ], [ -53.246321728999902, -27.754950059 ], [ -53.240520782, -27.75007719 ], [ -53.236944679, -27.749864405 ], [ -53.227721188, -27.744412624999896 ], [ -53.215556738, -27.745695007999903 ], [ -53.211975343999903, -27.747793378 ], [ -53.200790728, -27.745386708999902 ], [ -53.199712201999894, -27.744043189 ], [ -53.201928579, -27.739289767999892 ], [ -53.205145895, -27.736057109999894 ], [ -53.202470107999901, -27.736096758 ], [ -53.197492514, -27.732888991 ], [ -53.195659642, -27.733197783 ], [ -53.19256666, -27.742650851 ], [ -53.188391905999893, -27.742649884999899 ], [ -53.179464776, -27.749481246 ], [ -53.179928043, -27.759673302999904 ], [ -53.177872949999902, -27.762218351999902 ], [ -53.178467734, -27.766094757 ], [ -53.181083446999892, -27.768623306999903 ], [ -53.182745708, -27.775075891 ], [ -53.185991774999891, -27.777879680999899 ], [ -53.183595953999891, -27.782952973 ], [ -53.18061783799989, -27.784728308 ], [ -53.18148095, -27.78640366 ], [ -53.182930223, -27.785412439 ], [ -53.186843342, -27.788886082 ], [ -53.189272270999894, -27.787692112999906 ], [ -53.188649708, -27.7900905 ], [ -53.190062542, -27.791412600999902 ], [ -53.188889898, -27.792044582999896 ], [ -53.190422579, -27.794177689 ], [ -53.198716503, -27.792886049999893 ], [ -53.19974177599989, -27.794773381 ], [ -53.198720943999902, -27.797953644 ], [ -53.203662037999898, -27.79989067 ], [ -53.202898085999891, -27.803479400999901 ], [ -53.2044804189999, -27.806238866999884 ], [ -53.207522341, -27.8050688659999 ], [ -53.210559581, -27.805941677999986 ], [ -53.213588369, -27.8086993759999 ], [ -53.212977677, -27.810633231999905 ], [ -53.215980944, -27.809904071999899 ], [ -53.216025292, -27.812067245 ], [ -53.218039309999902, -27.810591596999899 ], [ -53.220318628, -27.810756076 ], [ -53.220645106999903, -27.813076043999988 ], [ -53.228769542, -27.817395158999908 ], [ -53.230955921, -27.822129326 ], [ -53.243300521, -27.825491991 ], [ -53.262543498999889, -27.8370829949999 ], [ -53.268430237, -27.838442326999893 ], [ -53.268890255, -27.835720653 ] ] ] } }
]
}
