{
"type": "FeatureCollection",
"name": "bairros_senador_salgado_filho",
"crs": { "type": "name", "properties": { "name": "urn:ogc:def:crs:OGC:1.3:CRS84" } },
"features": [
{ "type": "Feature", "properties": { "code_muni": 4320321.0, "name_muni": "Senador Salgado Filho", "code_state": 43.0, "abbrev_state": "RS", "name_state": "Rio Grande do Sul", "code_region": 4.0, "name_region": "Sul", "year": 2022.0 }, "geometry": { "type": "Polygon", "coordinates": [ [ [ -54.554009328999904, -28.11234701 ], [ -54.560993777, -28.112389286999903 ], [ -54.561009144, -28.102327021999901 ], [ -54.574454316, -28.10240269 ], [ -54.574423418, -28.093307936 ], [ -54.584726649999894, -28.0936657 ], [ -54.585060590999902, -28.014717662 ], [ -54.595043409, -28.013976154 ], [ -54.595609139, -27.966319967999898 ], [ -54.595412391, -27.943813682 ], [ -54.59447041, -27.943616118 ], [ -54.585835723999899, -27.948584914 ], [ -54.582845662, -27.951890131 ], [ -54.57939673, -27.959491479999901 ], [ -54.575222566, -27.959613648 ], [ -54.573330150999894, -27.962044571 ], [ -54.566761563999897, -27.965437841 ], [ -54.565061436999898, -27.970740846999902 ], [ -54.557000162, -27.979872235999892 ], [ -54.533646902, -27.980234653 ], [ -54.527631160999896, -27.9826909179999 ], [ -54.515430696999893, -27.982842374 ], [ -54.504249664, -27.9760583 ], [ -54.496055124, -27.969530044 ], [ -54.495145271, -27.967260868 ], [ -54.491591680999896, -27.965883799 ], [ -54.488652941999895, -27.970382367999903 ], [ -54.487064970999896, -27.970320108 ], [ -54.479357047999898, -27.976650747999905 ], [ -54.481692290999895, -27.978601123 ], [ -54.481248282, -27.980472693 ], [ -54.475483386999898, -27.984233980999896 ], [ -54.473343281, -27.983382930999902 ], [ -54.464468013, -27.990736408 ], [ -54.456022369, -28.006578493999903 ], [ -54.458348278, -28.022004192999901 ], [ -54.461506905, -28.0285922539999 ], [ -54.470323799, -28.026720168999901 ], [ -54.478894501999896, -28.029349071 ], [ -54.483782021, -28.036609895 ], [ -54.484044046, -28.041703933999898 ], [ -54.486356207, -28.044840264 ], [ -54.486290032999889, -28.050138171 ], [ -54.491100453999891, -28.05536641 ], [ -54.491823337, -28.058454916 ], [ -54.503726105999903, -28.058452289999899 ], [ -54.505513111, -28.064709061 ], [ -54.509805575, -28.067838536999897 ], [ -54.512169856, -28.072069609 ], [ -54.514613649999909, -28.071905188 ], [ -54.514117432, -28.075589407999907 ], [ -54.519741564, -28.078828065 ], [ -54.51560623599989, -28.092925319999903 ], [ -54.522284863, -28.091451459 ], [ -54.52801937999989, -28.092709495 ], [ -54.531444200999893, -28.099909036999989 ], [ -54.53236465, -28.114226349 ], [ -54.544497817, -28.114402194 ], [ -54.544194013, -28.115725789 ], [ -54.554009389, -28.116507338 ], [ -54.554009328999904, -28.11234701 ] ] ] } }
]
}
