{
"type": "FeatureCollection",
"name": "bairros_taquarucu_do_sul",
"crs": { "type": "name", "properties": { "name": "urn:ogc:def:crs:OGC:1.3:CRS84" } },
"features": [
{ "type": "Feature", "properties": { "code_muni": 4321329.0, "name_muni": "Taquaruçu do Sul", "code_state": 43.0, "abbrev_state": "RS", "name_state": "Rio Grande do Sul", "code_region": 4.0, "name_region": "Sul", "year": 2022.0 }, "geometry": { "type": "Polygon", "coordinates": [ [ [ -53.437103725, -27.388195451999902 ], [ -53.43691990299989, -27.401217661 ], [ -53.425117928, -27.4014944319999 ], [ -53.424316867999892, -27.4145920029999 ], [ -53.427567595, -27.420070802999906 ], [ -53.427108991, -27.423599136999901 ], [ -53.492504913999902, -27.450223944999902 ], [ -53.495107526, -27.449150496999895 ], [ -53.498877657, -27.450263255 ], [ -53.500141501, -27.458478910999894 ], [ -53.50170844, -27.460302898999899 ], [ -53.50446282, -27.459710812 ], [ -53.506011433, -27.457494555 ], [ -53.505574614999901, -27.4497349 ], [ -53.507561939, -27.443676765 ], [ -53.513533716, -27.443954028 ], [ -53.515482323, -27.442467308999898 ], [ -53.512275041999892, -27.439892339 ], [ -53.506338457, -27.438120737 ], [ -53.504281423999899, -27.435793308 ], [ -53.505646412, -27.4338534359999 ], [ -53.520713306999902, -27.432049773999903 ], [ -53.526434929999901, -27.434873162 ], [ -53.527988257999894, -27.438018867 ], [ -53.533167524, -27.428745847999906 ], [ -53.536947423999905, -27.426472611 ], [ -53.545236814, -27.429358785 ], [ -53.544248104, -27.435166276 ], [ -53.547304665, -27.431942845 ], [ -53.547608441, -27.426645686 ], [ -53.5362525849999, -27.421639613 ], [ -53.535768467, -27.418181708 ], [ -53.545586831, -27.420693018999895 ], [ -53.55237171999989, -27.4136561729999 ], [ -53.555964791999898, -27.415392202 ], [ -53.557806531, -27.420663724999908 ], [ -53.562396196999899, -27.418003407 ], [ -53.564895142, -27.411273687999898 ], [ -53.57183213, -27.404968215999901 ], [ -53.570941853, -27.403515273 ], [ -53.562495436999903, -27.402565848999892 ], [ -53.550783022, -27.394414477999899 ], [ -53.548001365999902, -27.3965176029999 ], [ -53.542708287, -27.389692576999895 ], [ -53.538727353, -27.392817728 ], [ -53.537040014999903, -27.392708206 ], [ -53.531982776999904, -27.387449277 ], [ -53.516645428999901, -27.395105741999899 ], [ -53.512929664, -27.393277134 ], [ -53.510535988999898, -27.394080942 ], [ -53.506776644, -27.390938984999902 ], [ -53.499443626, -27.39026222 ], [ -53.498175197, -27.385915181 ], [ -53.488805919999898, -27.389309495 ], [ -53.480652845, -27.387622532 ], [ -53.478583060999895, -27.386383904 ], [ -53.480127614, -27.384057794999897 ], [ -53.477645347, -27.381975651999898 ], [ -53.475519903, -27.3764908489999 ], [ -53.47067817899989, -27.371710462 ], [ -53.467126177, -27.370621254999904 ], [ -53.467069061, -27.365662195 ], [ -53.463224609999891, -27.364688187 ], [ -53.46053395699991, -27.351140820999888 ], [ -53.45698228700001, -27.350691399 ], [ -53.451592531, -27.353684213999905 ], [ -53.451981491, -27.356960487 ], [ -53.4437884929999, -27.362273425999902 ], [ -53.442042498, -27.364666652 ], [ -53.444318511999903, -27.368493042 ], [ -53.437306426, -27.371261365 ], [ -53.436181116999897, -27.374742308999895 ], [ -53.433437305, -27.377019334999904 ], [ -53.432599587, -27.381063391999902 ], [ -53.430536049999894, -27.382537892 ], [ -53.433500017, -27.386955951999898 ], [ -53.437103725, -27.388195451999902 ] ] ] } }
]
}
