{
"type": "FeatureCollection",
"name": "bairros_lavras_do_sul",
"crs": { "type": "name", "properties": { "name": "urn:ogc:def:crs:OGC:1.3:CRS84" } },
"features": [
{ "type": "Feature", "properties": { "code_muni": 4311502.0, "name_muni": "Lavras do Sul", "code_state": 43.0, "abbrev_state": "RS", "name_state": "Rio Grande do Sul", "code_region": 4.0, "name_region": "Sul", "year": 2022.0 }, "geometry": { "type": "Polygon", "coordinates": [ [ [ -53.813924616999898, -30.760308794 ], [ -53.805736962, -30.762933312 ], [ -53.80353866, -30.765322984 ], [ -53.806563663, -30.768427673000012 ], [ -53.804316609, -30.775757482 ], [ -53.806269421, -30.781300431 ], [ -53.805188423999894, -30.787906778 ], [ -53.79210531199989, -30.793000728 ], [ -53.785474151, -30.799905453 ], [ -53.779085874, -30.797517088999893 ], [ -53.772353863, -30.799687344999903 ], [ -53.768483827999894, -30.797833225 ], [ -53.768386167, -30.788883543999901 ], [ -53.763057475, -30.784323392 ], [ -53.762936102, -30.778860732999902 ], [ -53.760829563, -30.776098585999897 ], [ -53.757660746999903, -30.775013924999897 ], [ -53.750578245, -30.777407001 ], [ -53.748517132, -30.776204279 ], [ -53.747263472, -30.772640792999901 ], [ -53.739926919, -30.775855405 ], [ -53.73677164, -30.779479538 ], [ -53.735155848, -30.782791951 ], [ -53.737400538, -30.784862967 ], [ -53.732795726999903, -30.783587171 ], [ -53.7250484099999, -30.787868935999889 ], [ -53.722194284, -30.786713722999899 ], [ -53.718874684999903, -30.792957323999893 ], [ -53.713488658, -30.798225745999989 ], [ -53.707142744999899, -30.801095206 ], [ -53.705762589, -30.808583042999903 ], [ -53.702215205999892, -30.812527423999892 ], [ -53.701119862, -30.8159497239999 ], [ -53.690537803, -30.814204808999907 ], [ -53.68598438, -30.811990318 ], [ -53.684455242, -30.812708187999888 ], [ -53.684331076, -30.813927362999898 ], [ -53.687168186999891, -30.815926717 ], [ -53.69102386, -30.825924487999902 ], [ -53.688446101, -30.824734017 ], [ -53.680126774, -30.835698932999897 ], [ -53.672810002999896, -30.839937988 ], [ -53.672397267999891, -30.842348828 ], [ -53.667201534, -30.842735158 ], [ -53.66428396, -30.846926322999899 ], [ -53.66710584, -30.848651867999905 ], [ -53.666688608, -30.851705782999893 ], [ -53.680901370999898, -30.855271912 ], [ -53.686974674999895, -30.851412753 ], [ -53.690343821999903, -30.854781612 ], [ -53.690851858, -30.857738595999894 ], [ -53.693911667999899, -30.857551038999905 ], [ -53.699422168999895, -30.852336099999899 ], [ -53.701053228, -30.853980568999898 ], [ -53.699883934, -30.859157906 ], [ -53.706490691999896, -30.865002510999901 ], [ -53.717504466, -30.869499899999909 ], [ -53.720780219999902, -30.875008142999896 ], [ -53.726427956999899, -30.872858172 ], [ -53.72926827, -30.874269418 ], [ -53.729984439, -30.876184 ], [ -53.733063349, -30.875702417999896 ], [ -53.735200882999891, -30.873772075 ], [ -53.735322605, -30.870574825999885 ], [ -53.731807989999901, -30.864987977999892 ], [ -53.732666149, -30.8635826719999 ], [ -53.734759735, -30.863848549999901 ], [ -53.738052538, -30.869916525 ], [ -53.744011913, -30.872214952 ], [ -53.747531535999897, -30.875063984999905 ], [ -53.754744490999897, -30.8760357479999 ], [ -53.75932838499989, -30.880027469 ], [ -53.761381963, -30.889013120999898 ], [ -53.763211812999891, -30.890032103 ], [ -53.765958934, -30.88632458 ], [ -53.768020238, -30.886340919 ], [ -53.775131742, -30.890896708999893 ], [ -53.783509459, -30.890820797999901 ], [ -53.780558224999893, -30.895755028999897 ], [ -53.782592840999897, -30.902118266999896 ], [ -53.788822834, -30.9045143 ], [ -53.796008446, -30.909748240999896 ], [ -53.804815686, -30.907070347999891 ], [ -53.810677125, -30.903168109 ], [ -53.813405697999897, -30.903421018 ], [ -53.818102138, -30.908503101 ], [ -53.822225612999901, -30.905759624 ], [ -53.829717854, -30.906093509999902 ], [ -53.835422977, -30.908559668999899 ], [ -53.841111129999902, -30.915774434 ], [ -53.843711821999904, -30.91258733 ], [ -53.847497094999895, -30.911010691999902 ], [ -53.850880347, -30.913610510999902 ], [ -53.8570784509999, -30.913059186999899 ], [ -53.859426907999897, -30.910261138 ], [ -53.859505194999898, -30.907513815999902 ], [ -53.862157684, -30.907016074 ], [ -53.864325714, -30.909561025999903 ], [ -53.863879244, -30.912369297999891 ], [ -53.865576112, -30.916064645999892 ], [ -53.869487838999895, -30.915190132 ], [ -53.873258378999893, -30.909467262 ], [ -53.879624953, -30.911065323999892 ], [ -53.884278959, -30.913763762 ], [ -53.887206438, -30.916991799 ], [ -53.887124931, -30.918693748 ], [ -53.884579741, -30.920284382 ], [ -53.878871675, -30.919435819999897 ], [ -53.875162815, -30.922734407999901 ], [ -53.870140626, -30.923717121 ], [ -53.86968143699989, -30.925178751999987 ], [ -53.878753084, -30.930511904 ], [ -53.887854811999901, -30.931553774999895 ], [ -53.888896816999903, -30.938910232 ], [ -53.894831219, -30.945390424 ], [ -53.897749516, -30.945699433999899 ], [ -53.901479606999899, -30.942215323 ], [ -53.905023884999892, -30.94223872 ], [ -53.910960417, -30.936528070999898 ], [ -53.9138782859999, -30.935904080999901 ], [ -53.917355882, -30.938976653999902 ], [ -53.923435888, -30.939812914 ], [ -53.924776312999896, -30.941192811 ], [ -53.924135639, -30.942843940999985 ], [ -53.926700395, -30.947077454999896 ], [ -53.925389352, -30.953533889 ], [ -53.931179266999891, -30.956016609 ], [ -53.934991082, -30.960469786 ], [ -53.93486517, -30.964018055999905 ], [ -53.932771982, -30.965267108 ], [ -53.924422568999894, -30.96518673 ], [ -53.919305585, -30.956117977000012 ], [ -53.913237506, -30.958352725999898 ], [ -53.914924887, -30.965175413999908 ], [ -53.933157068, -30.971416904 ], [ -53.940643443999903, -30.978276389 ], [ -53.941765986, -30.9811740059999 ], [ -53.9517917599999, -30.979238012999904 ], [ -53.954545127, -30.976688258 ], [ -53.956630805, -30.978081606999989 ], [ -53.952729424, -30.979866125999905 ], [ -53.953994502999898, -30.981047252999904 ], [ -53.962717384, -30.980031747999895 ], [ -53.965508181, -30.983267865999899 ], [ -53.973492629, -30.980141741999894 ], [ -53.975972116, -30.982193292 ], [ -53.972314399, -30.985556881 ], [ -53.975807732, -30.986437899 ], [ -53.978337332, -30.98541913 ], [ -53.988452196, -30.988862319 ], [ -53.989784051999891, -30.987599684 ], [ -53.99321172, -30.987666654999909 ], [ -53.991600725999895, -30.984884907 ], [ -53.993778281999901, -30.985061814999899 ], [ -53.9954324999999, -30.982954897999903 ], [ -53.999070421999903, -30.983820860000012 ], [ -54.005213400999899, -30.98000816 ], [ -54.00695438, -30.980838785999893 ], [ -54.007719454, -30.978567598 ], [ -54.011986077, -30.976236598 ], [ -54.014578017, -30.976436567999897 ], [ -54.014461454999903, -30.974009394999893 ], [ -54.018041118, -30.972123838999899 ], [ -54.021061748, -30.975324454 ], [ -54.020269669, -30.972035116 ], [ -54.02514952, -30.971352372999892 ], [ -54.025342752, -30.969767583 ], [ -54.034500234999896, -30.962640838 ], [ -54.039881713999897, -30.961504616 ], [ -54.041794718999896, -30.963276374 ], [ -54.04789063, -30.96346277 ], [ -54.052441852999891, -30.96206927 ], [ -54.05387802, -30.962337465 ], [ -54.054290841999901, -30.964962012999905 ], [ -54.059240979, -30.963814342 ], [ -54.061016044, -30.965302661 ], [ -54.063929285, -30.961025033999896 ], [ -54.070591444999899, -30.961363411 ], [ -54.071802159, -30.959615636 ], [ -54.075224135, -30.960299184 ], [ -54.075248141, -30.957543663 ], [ -54.081638703, -30.957501 ], [ -54.082599473, -30.952616240999898 ], [ -54.086480686, -30.953264019999907 ], [ -54.091427112, -30.964639819 ], [ -54.093426963, -30.966411652 ], [ -54.099772588, -30.966884047999891 ], [ -54.103433300999896, -30.969162238 ], [ -54.10933592899989, -30.973825943999895 ], [ -54.110746527999908, -30.978858599 ], [ -54.11897149899989, -30.981333488 ], [ -54.129533602, -30.979183874999901 ], [ -54.133868003000011, -30.980261810999902 ], [ -54.138393817, -30.979707748 ], [ -54.142972562999901, -30.974668005999892 ], [ -54.146754455999897, -30.973863724999898 ], [ -54.150624262, -30.969087886000011 ], [ -54.164599992, -30.959153745 ], [ -54.165794788, -30.952831246 ], [ -54.17162196399989, -30.953380153 ], [ -54.180647984, -30.958064384 ], [ -54.19126463, -30.947966945 ], [ -54.193235005, -30.947869308 ], [ -54.196072796, -30.948731823999893 ], [ -54.201210546, -30.954919526 ], [ -54.207140567, -30.952533482 ], [ -54.205826186, -30.947206772 ], [ -54.208928745, -30.943697659000012 ], [ -54.212827660999892, -30.944081851 ], [ -54.213870167, -30.9423041599999 ], [ -54.221841519999899, -30.942102216 ], [ -54.22457661, -30.943758913999901 ], [ -54.226077601, -30.939468353999896 ], [ -54.22478734, -30.938113144999896 ], [ -54.226436935, -30.9356488 ], [ -54.237691817, -30.929764916 ], [ -54.241500712999901, -30.931145985999905 ], [ -54.241675834, -30.935874667999901 ], [ -54.243642461, -30.936892002 ], [ -54.246812557999895, -30.93630783 ], [ -54.249944332, -30.933878232 ], [ -54.258692051, -30.937837792 ], [ -54.261024365, -30.93741369 ], [ -54.263510587, -30.933214509 ], [ -54.27839341, -30.934152934999901 ], [ -54.280134502999893, -30.924804811999895 ], [ -54.282783497, -30.92369504 ], [ -54.285580942, -30.9243283869999 ], [ -54.289223455, -30.927280544 ], [ -54.292215673, -30.922068572999898 ], [ -54.297263732, -30.923427155 ], [ -54.298577181, -30.926255399 ], [ -54.300507535999898, -30.926919284 ], [ -54.305673213, -30.925006736999901 ], [ -54.309939641, -30.918774825 ], [ -54.316296765999901, -30.917962998999897 ], [ -54.328342686, -30.912806208999889 ], [ -54.332965267, -30.913337376 ], [ -54.333966212, -30.912073848 ], [ -54.333038168, -30.906294637 ], [ -54.3347381029999, -30.90421753 ], [ -54.340451792999893, -30.9048809 ], [ -54.346948706, -30.908927897999899 ], [ -54.348791661, -30.907417562 ], [ -54.344642802999893, -30.896280372 ], [ -54.346625910999897, -30.894536081999899 ], [ -54.347346269, -30.890399529 ], [ -54.349703892, -30.889303602 ], [ -54.357343194, -30.896977417 ], [ -54.358587132, -30.895092473 ], [ -54.361594527, -30.894624101 ], [ -54.365339419, -30.898051877999901 ], [ -54.367806071, -30.897573162 ], [ -54.367613419999898, -30.893963137 ], [ -54.365126206999896, -30.888998536 ], [ -54.369606538, -30.886502701 ], [ -54.371746339, -30.8794630249999 ], [ -54.376950214, -30.881370069 ], [ -54.378590801, -30.888486314 ], [ -54.38476464, -30.892436756999903 ], [ -54.379249336, -30.89794962 ], [ -54.38359009, -30.905030778 ], [ -54.3880035, -30.899622065 ], [ -54.390539205, -30.900711225 ], [ -54.392401640999893, -30.899310251 ], [ -54.389279777999896, -30.894495069 ], [ -54.403357449999902, -30.891371741999905 ], [ -54.402424039, -30.886255993 ], [ -54.40490844, -30.885138825 ], [ -54.410004692, -30.891997561 ], [ -54.41205407599989, -30.892349130999897 ], [ -54.413367174, -30.8912445469999 ], [ -54.413114975, -30.889019302999902 ], [ -54.414668166, -30.8883080959999 ], [ -54.418557208, -30.8913144529999 ], [ -54.423652765, -30.886788951 ], [ -54.42738566, -30.887320562 ], [ -54.432555232, -30.891026693999905 ], [ -54.437425978, -30.890341065 ], [ -54.435655698999902, -30.885809256 ], [ -54.43619788, -30.883597617 ], [ -54.43957847, -30.883483355 ], [ -54.442228964, -30.884938213999892 ], [ -54.446091937999896, -30.88193675 ], [ -54.44375737, -30.8786832709999 ], [ -54.434888440999892, -30.874086288999898 ], [ -54.434899249999908, -30.872774794 ], [ -54.436634183, -30.871879615 ], [ -54.443058432, -30.876329733 ], [ -54.446521633, -30.877173797 ], [ -54.449239494, -30.874478342 ], [ -54.446239766, -30.868701706 ], [ -54.448559625, -30.869056278999899 ], [ -54.454337192, -30.874888081999988 ], [ -54.461783593999897, -30.875944991 ], [ -54.467278859, -30.875288484 ], [ -54.469068537999895, -30.877526998999894 ], [ -54.468303131, -30.881843859999904 ], [ -54.471350105999896, -30.883670098 ], [ -54.474601027999903, -30.883353354 ], [ -54.477223134, -30.887624424 ], [ -54.4800543429999, -30.888687287 ], [ -54.483833459, -30.887100193 ], [ -54.486772250999898, -30.87840238 ], [ -54.49669977699989, -30.879849294999907 ], [ -54.503097507999897, -30.878387761999889 ], [ -54.509649268, -30.871684911999989 ], [ -54.513117458, -30.865141008 ], [ -54.530108248, -30.867907419999899 ], [ -54.535668385999898, -30.871746727 ], [ -54.539323538, -30.869777004 ], [ -54.543980008999903, -30.869427405 ], [ -54.546020562, -30.864897289999899 ], [ -54.539069282999897, -30.86190034 ], [ -54.5369568469999, -30.859771469999892 ], [ -54.539011398999889, -30.856412146 ], [ -54.538637418999897, -30.847675491 ], [ -54.540226097, -30.846303302 ], [ -54.542574175, -30.846875253 ], [ -54.545857349, -30.8456816899999 ], [ -54.543844311, -30.839453082 ], [ -54.545254402999895, -30.837222009 ], [ -54.549148814, -30.83751403 ], [ -54.552065631999902, -30.8395896769999 ], [ -54.556518779, -30.837415832 ], [ -54.555806566999898, -30.834452332 ], [ -54.551674674, -30.832827516999892 ], [ -54.551436668999898, -30.831602760999903 ], [ -54.554700144, -30.826728143 ], [ -54.558846855, -30.823729329999892 ], [ -54.558000233, -30.815046149 ], [ -54.560171596, -30.813193162999902 ], [ -54.566542904, -30.8129489949999 ], [ -54.579784104999902, -30.807097112 ], [ -54.582369577999891, -30.807125207999896 ], [ -54.581239211, -30.8023155879999 ], [ -54.578900916999899, -30.801489929 ], [ -54.577744846, -30.799155384999896 ], [ -54.579044132999989, -30.798014011999985 ], [ -54.582671314, -30.797901248999903 ], [ -54.586584006, -30.799208592 ], [ -54.590772197, -30.797193523 ], [ -54.592388513999907, -30.793255377999987 ], [ -54.596000857999989, -30.790937906 ], [ -54.595894982999894, -30.787492879 ], [ -54.597482672, -30.785066496999907 ], [ -54.601324755, -30.7829687999999 ], [ -54.608382897999896, -30.782297285 ], [ -54.611636448999896, -30.779535490999908 ], [ -54.629255524, -30.787288368 ], [ -54.63137198, -30.786288624999909 ], [ -54.631184675, -30.783844310999893 ], [ -54.633343838, -30.780607454999888 ], [ -54.641666076, -30.777319470999892 ], [ -54.644666865, -30.777863805999989 ], [ -54.653260293999899, -30.775378286 ], [ -54.655922996, -30.776901791999901 ], [ -54.654496514, -30.7786777499999 ], [ -54.655508873, -30.780535191 ], [ -54.658150803, -30.781129732 ], [ -54.660174766999901, -30.78011105 ], [ -54.660471963, -30.777584942 ], [ -54.66030412, -30.776106577999897 ], [ -54.657499834, -30.774508114 ], [ -54.659596991999891, -30.771374867 ], [ -54.657410043, -30.770827654 ], [ -54.660575302, -30.766715752 ], [ -54.663619598, -30.766934724 ], [ -54.66401801699989, -30.76821618 ], [ -54.666252132999908, -30.767728486999889 ], [ -54.667524313999891, -30.769681010999896 ], [ -54.671353538999895, -30.771151291 ], [ -54.673024897999895, -30.770399411 ], [ -54.6736864659999, -30.765349493 ], [ -54.676113916, -30.762201637 ], [ -54.680897515, -30.76097881 ], [ -54.683195536, -30.758926486999901 ], [ -54.682804484, -30.754130999 ], [ -54.685736861999892, -30.751869643 ], [ -54.69176443, -30.754109693 ], [ -54.692633187, -30.7558323179999 ], [ -54.698776, -30.756618359999898 ], [ -54.699050712, -30.758789707999892 ], [ -54.704460266, -30.759394524999898 ], [ -54.707017290999893, -30.757126613 ], [ -54.708735438, -30.759125004999898 ], [ -54.710089367, -30.755606265 ], [ -54.711962426, -30.756651295 ], [ -54.712826911, -30.755757214 ], [ -54.711329967, -30.753874918999905 ], [ -54.7130202, -30.750805285 ], [ -54.712125286999893, -30.747841842 ], [ -54.717752718, -30.744662085999892 ], [ -54.717091718999903, -30.743118874999901 ], [ -54.711469232, -30.741420757999894 ], [ -54.711968332, -30.739281268999893 ], [ -54.713932375, -30.736985806 ], [ -54.717717858, -30.736578887 ], [ -54.721385641, -30.733693015 ], [ -54.720688813, -30.731822606 ], [ -54.718731278, -30.730879182 ], [ -54.716918253, -30.731538622 ], [ -54.715427443, -30.728890561999894 ], [ -54.713118671, -30.729578838 ], [ -54.713230334999892, -30.730563169999989 ], [ -54.711304339, -30.730346444 ], [ -54.7113794159999, -30.728057747 ], [ -54.717435556999895, -30.723984516 ], [ -54.712661759999889, -30.722398997 ], [ -54.714313937, -30.720617553999894 ], [ -54.716144215, -30.721611359 ], [ -54.720161994, -30.716719420999905 ], [ -54.719652757999896, -30.714081286999892 ], [ -54.723237468, -30.714592627999892 ], [ -54.718435393999989, -30.707733672 ], [ -54.715377877, -30.710015391999892 ], [ -54.712725096, -30.709148757 ], [ -54.711950938, -30.7065084339999 ], [ -54.708319765999903, -30.707018058999907 ], [ -54.707909129, -30.704964711999903 ], [ -54.705998456, -30.70606379 ], [ -54.703237978999894, -30.703850904 ], [ -54.700435411999891, -30.704464055 ], [ -54.699600857, -30.707434228999908 ], [ -54.696748274, -30.706625166 ], [ -54.696168211, -30.708563903 ], [ -54.693370547, -30.70828212299989 ], [ -54.691613197, -30.707199209 ], [ -54.6920874589999, -30.704904777 ], [ -54.690698139999903, -30.704772368 ], [ -54.68984071900001, -30.706331921999897 ], [ -54.68703910499989, -30.704596952 ], [ -54.688340814999897, -30.700771114 ], [ -54.683213897, -30.700243472999897 ], [ -54.679948333, -30.697204729 ], [ -54.679294708, -30.693748182 ], [ -54.68204441599989, -30.690392865 ], [ -54.683984255, -30.691215186 ], [ -54.690373416999897, -30.688778532 ], [ -54.692507631, -30.6900678169999 ], [ -54.691374894, -30.685194178 ], [ -54.692710206, -30.683502179999891 ], [ -54.696067198, -30.682709442 ], [ -54.693719399, -30.679994432999894 ], [ -54.695185497, -30.677344715999901 ], [ -54.691409189, -30.678142367 ], [ -54.690720907, -30.675425673999893 ], [ -54.691965939999903, -30.673529413000011 ], [ -54.681984181, -30.670832060999892 ], [ -54.680951051, -30.672314012999902 ], [ -54.679101268, -30.672373302 ], [ -54.673583314, -30.6697078179999 ], [ -54.673756548999989, -30.6680554 ], [ -54.675693436, -30.667628631 ], [ -54.674128953, -30.6660835509999 ], [ -54.674008081, -30.66265035 ], [ -54.671248837, -30.660931929999901 ], [ -54.671889972, -30.659643299 ], [ -54.67535244, -30.658808162 ], [ -54.677576395, -30.655137262 ], [ -54.675574048, -30.650014521999893 ], [ -54.678610041999903, -30.651058534999901 ], [ -54.67940944, -30.649448837 ], [ -54.677797148, -30.646699 ], [ -54.675757022, -30.646770955 ], [ -54.673670742, -30.645001274 ], [ -54.675922758, -30.640900007 ], [ -54.675080878, -30.6398463579999 ], [ -54.678609014999893, -30.642246201 ], [ -54.681749528, -30.63501844 ], [ -54.684545924, -30.638536805999905 ], [ -54.686076736, -30.638159828 ], [ -54.6896843809999, -30.628650106999899 ], [ -54.681381683, -30.628672224 ], [ -54.681354583, -30.622570456999902 ], [ -54.683865253, -30.613837813 ], [ -54.679143640999889, -30.611397425999893 ], [ -54.676737220999897, -30.611628246 ], [ -54.675787625999902, -30.60508838 ], [ -54.630752263, -30.614545448999909 ], [ -54.6302655389999, -30.616204759 ], [ -54.626967696999891, -30.617487087 ], [ -54.619649019, -30.617439174 ], [ -54.613547046999898, -30.620466308999902 ], [ -54.612037782, -30.622444264 ], [ -54.608130052999989, -30.62317516500001 ], [ -54.603018263, -30.6225017269999 ], [ -54.591528422999893, -30.61699011 ], [ -54.588358776999904, -30.616621139 ], [ -54.586600076, -30.61380224 ], [ -54.585472885999899, -30.614007559999909 ], [ -54.585510751999891, -30.615794235 ], [ -54.583767169999895, -30.6160005089999 ], [ -54.580584089, -30.6117961379999 ], [ -54.579024875, -30.613006345 ], [ -54.573358812, -30.613007086999989 ], [ -54.567570088, -30.614685825 ], [ -54.564601701, -30.617159378999894 ], [ -54.562128518, -30.616012833 ], [ -54.56119957499989, -30.613896258 ], [ -54.559065470999897, -30.613841405 ], [ -54.558073845, -30.616054646 ], [ -54.55319532, -30.61519062799989 ], [ -54.552948439, -30.616526628 ], [ -54.550721375, -30.616640706999895 ], [ -54.551170688999903, -30.618816217 ], [ -54.547711729999889, -30.62150524 ], [ -54.544721919, -30.621396928 ], [ -54.543024778, -30.619679412 ], [ -54.540271732, -30.620500867 ], [ -54.539479062999902, -30.618618988999987 ], [ -54.533623298, -30.615275994999902 ], [ -54.526617805999898, -30.614084143 ], [ -54.522920384, -30.617130668 ], [ -54.521409220999892, -30.621228186999897 ], [ -54.516917104999891, -30.622605424 ], [ -54.514796259, -30.625480378 ], [ -54.510692594, -30.625009478 ], [ -54.504015674999891, -30.631349494999892 ], [ -54.495946397, -30.631569938 ], [ -54.4917180899999, -30.628966597999987 ], [ -54.488661921999899, -30.629592376999899 ], [ -54.485395954, -30.628525819999894 ], [ -54.483523863999892, -30.626888452999911 ], [ -54.484182464, -30.62362438 ], [ -54.474908242, -30.622384951999901 ], [ -54.46585823, -30.623920412 ], [ -54.457234066999902, -30.620474709999893 ], [ -54.45581688, -30.620743068 ], [ -54.453597213, -30.626512800999894 ], [ -54.448492867, -30.626800201 ], [ -54.4417268239999, -30.623391248 ], [ -54.437370987, -30.623567426 ], [ -54.431911552, -30.630301965999905 ], [ -54.425438845, -30.634976719999909 ], [ -54.422360762, -30.63526006 ], [ -54.418556549999892, -30.640126020999986 ], [ -54.414560529, -30.639978266999886 ], [ -54.41002005, -30.645040254 ], [ -54.407751022, -30.649766647999989 ], [ -54.409907209, -30.654892236 ], [ -54.406070418, -30.660032134999899 ], [ -54.406836687, -30.661875225 ], [ -54.405498192, -30.66342452899989 ], [ -54.402732828, -30.663108409 ], [ -54.401135446, -30.664902911 ], [ -54.40144989, -30.666758248999901 ], [ -54.396551852999892, -30.668292250000011 ], [ -54.39705427, -30.670201144 ], [ -54.391607826, -30.671915228999989 ], [ -54.390265489999891, -30.674160727999901 ], [ -54.38490374, -30.672317706999898 ], [ -54.376943229999902, -30.674612270999898 ], [ -54.3739468919999, -30.676972434999989 ], [ -54.374528851, -30.682018329 ], [ -54.372848657, -30.682032181999901 ], [ -54.371119505, -30.68670947 ], [ -54.367549895, -30.688580435999896 ], [ -54.362539561999895, -30.694015506 ], [ -54.36404335799989, -30.697560648 ], [ -54.360704266, -30.702898042999905 ], [ -54.356627561, -30.703059934999899 ], [ -54.356319637999903, -30.708176887 ], [ -54.353290343, -30.715375851 ], [ -54.349691702, -30.719135174 ], [ -54.353295765, -30.722876798999891 ], [ -54.352271741, -30.730974046 ], [ -54.346296992, -30.737084869999908 ], [ -54.337116185, -30.73738685599989 ], [ -54.332967101, -30.734849444 ], [ -54.330056989999896, -30.73517708399989 ], [ -54.323260059999903, -30.728229916 ], [ -54.32364612, -30.723461926 ], [ -54.322021489, -30.718735013999886 ], [ -54.316419756, -30.7227265769999 ], [ -54.310075677, -30.730781345 ], [ -54.308273905, -30.731247456999892 ], [ -54.29398804600001, -30.727228849 ], [ -54.290842117999901, -30.727226915999903 ], [ -54.286896624, -30.730826530999906 ], [ -54.278871395, -30.73015129 ], [ -54.274333757, -30.733548847 ], [ -54.270752503, -30.734028109 ], [ -54.264337589, -30.738066928 ], [ -54.263010940999898, -30.744043518000012 ], [ -54.260158562999898, -30.746224873 ], [ -54.2567835, -30.745898761 ], [ -54.247742765999902, -30.749945533999895 ], [ -54.24113842, -30.747086033999896 ], [ -54.236470373, -30.746701356 ], [ -54.232444255, -30.743119602 ], [ -54.223019437999895, -30.746687288 ], [ -54.215995584, -30.751020618 ], [ -54.213594869, -30.753993049 ], [ -54.214956664999903, -30.755826353 ], [ -54.213844779999903, -30.757909086 ], [ -54.210414682, -30.759285722 ], [ -54.210182544, -30.758201002 ], [ -54.20278013, -30.7580062279999 ], [ -54.199194962, -30.758715336 ], [ -54.196685099, -30.760750451 ], [ -54.196617538999895, -30.759371407999904 ], [ -54.194309688, -30.758534229 ], [ -54.188520844, -30.761497695999907 ], [ -54.183547132999898, -30.762111869 ], [ -54.18280708, -30.764029647 ], [ -54.176479483, -30.767492134999909 ], [ -54.176147630999893, -30.769384962999901 ], [ -54.171477658, -30.773084873999895 ], [ -54.165759986999902, -30.773386355999893 ], [ -54.160382657, -30.777364582 ], [ -54.157333090999892, -30.777871628 ], [ -54.155933451999893, -30.773465291 ], [ -54.150246325, -30.76657628 ], [ -54.142540117, -30.761881086999903 ], [ -54.138630399, -30.754450194 ], [ -54.138563785, -30.746585776 ], [ -54.145389746, -30.734944368999898 ], [ -54.141159107, -30.718052819 ], [ -54.136600943, -30.71064777 ], [ -54.13247118, -30.707623133 ], [ -54.126133631, -30.705200354999903 ], [ -54.117287382, -30.705695727 ], [ -54.109106622, -30.703961996 ], [ -54.099775678999897, -30.699028335 ], [ -54.09430041600001, -30.698530912 ], [ -54.086436347, -30.700816646 ], [ -54.0801296449999, -30.695894854999899 ], [ -54.073865118999898, -30.694804438999903 ], [ -54.061173193999892, -30.686908582999902 ], [ -54.058499297, -30.686922442 ], [ -54.052827836999896, -30.692471295 ], [ -54.037651734999891, -30.700161646 ], [ -54.034182455, -30.695317947999989 ], [ -54.02771655, -30.692518768 ], [ -54.018161297999903, -30.693464854 ], [ -54.017396216, -30.6817470199999 ], [ -54.014022036999989, -30.666284334999901 ], [ -54.005057914, -30.650345602 ], [ -54.002538323, -30.648197991 ], [ -53.99530856, -30.6472408979999 ], [ -53.98581394699989, -30.639920393999912 ], [ -53.981277281, -30.6394210079999 ], [ -53.9783209, -30.630256109999902 ], [ -53.987147977999896, -30.617667883 ], [ -53.986597501999903, -30.616261587999904 ], [ -53.979327457, -30.6106483 ], [ -53.975186508, -30.609677007999895 ], [ -53.96841278999991, -30.601302127999904 ], [ -53.966547595, -30.594352525 ], [ -53.9637930439999, -30.590947574 ], [ -53.959454055, -30.589708726 ], [ -53.95314200099989, -30.5917487739999 ], [ -53.942003456, -30.580964267 ], [ -53.941786319, -30.577956838 ], [ -53.939933853, -30.576144741999897 ], [ -53.934626226, -30.575048936999984 ], [ -53.932292525, -30.566956622 ], [ -53.920623830999894, -30.547935407 ], [ -53.911724675, -30.540916444999898 ], [ -53.904457517, -30.538228697 ], [ -53.902554962, -30.532715014 ], [ -53.890958067, -30.520744960999895 ], [ -53.882098925, -30.516324531 ], [ -53.882242480999899, -30.506132647 ], [ -53.887827463, -30.500516128 ], [ -53.887276083, -30.497188063999896 ], [ -53.880607759, -30.494377717 ], [ -53.878670008, -30.488776121999901 ], [ -53.871816803999891, -30.48143154 ], [ -53.858893216, -30.476278419 ], [ -53.854471546, -30.477528287 ], [ -53.8509069959999, -30.480751730999902 ], [ -53.847458385, -30.481471121 ], [ -53.836084147, -30.487892943 ], [ -53.841413562, -30.493525153 ], [ -53.839100722, -30.496465882999892 ], [ -53.8330949429999, -30.498637457 ], [ -53.825154487, -30.506494728999904 ], [ -53.825627961999899, -30.511805087 ], [ -53.818287687999891, -30.518988820999898 ], [ -53.804847518, -30.521274392999892 ], [ -53.794981096, -30.518374068 ], [ -53.786013506, -30.517492843999907 ], [ -53.76429816599989, -30.519566591999894 ], [ -53.756159013999898, -30.518032655 ], [ -53.750666138, -30.514557915999902 ], [ -53.745566669, -30.513360667 ], [ -53.743914689, -30.515587758 ], [ -53.745828501999895, -30.518813533 ], [ -53.74235698, -30.523149055 ], [ -53.742048183999891, -30.526056565 ], [ -53.748973565, -30.533146454 ], [ -53.748365905999897, -30.535227146999905 ], [ -53.744708612999894, -30.535502364 ], [ -53.74292588, -30.540163208 ], [ -53.738940864999989, -30.541718483999905 ], [ -53.738766571, -30.545318998 ], [ -53.736197107, -30.548984135 ], [ -53.738412964, -30.549323253999901 ], [ -53.7387548089999, -30.55477123 ], [ -53.740405231999894, -30.55535994 ], [ -53.740429491, -30.565433721 ], [ -53.73745013, -30.565911227999901 ], [ -53.738217937999899, -30.569952905 ], [ -53.753811887, -30.577681132 ], [ -53.751676331999896, -30.580739418 ], [ -53.753590222999897, -30.582886242 ], [ -53.755380094, -30.582555872999897 ], [ -53.758356587, -30.585926849999986 ], [ -53.758320133, -30.588433481 ], [ -53.762784157999896, -30.587351157999901 ], [ -53.764254189, -30.592542215 ], [ -53.767739849, -30.593408102 ], [ -53.76897466, -30.597684941999894 ], [ -53.774096889, -30.599322069 ], [ -53.773011951999891, -30.606686919 ], [ -53.775559078999891, -30.607799911 ], [ -53.7805455929999, -30.606547405 ], [ -53.787012988, -30.607097555999896 ], [ -53.777369359, -30.615582871999901 ], [ -53.777484027, -30.616973969 ], [ -53.782537018, -30.618841559 ], [ -53.78252514, -30.620422764 ], [ -53.774338292, -30.620683029 ], [ -53.774833102999899, -30.622293973999898 ], [ -53.778549214, -30.624606793999902 ], [ -53.782734278, -30.623914795 ], [ -53.783086222999898, -30.627921208 ], [ -53.779508061999891, -30.627686079999901 ], [ -53.779091314, -30.629775329 ], [ -53.78521266, -30.628545319999901 ], [ -53.786537021999891, -30.630115192999899 ], [ -53.78893931399989, -30.62910706 ], [ -53.792150542999899, -30.63219981 ], [ -53.793578372, -30.631294662999899 ], [ -53.792671562, -30.623639666 ], [ -53.802083529999905, -30.627262371 ], [ -53.800314038, -30.629028508 ], [ -53.79778636399989, -30.627688724999892 ], [ -53.796074424, -30.628828899 ], [ -53.803732525, -30.632972788 ], [ -53.799126137, -30.635523851999899 ], [ -53.798444951, -30.638554449 ], [ -53.79563649499989, -30.639177862999901 ], [ -53.793397491, -30.636895851 ], [ -53.791512226, -30.638497515 ], [ -53.787501633, -30.638811234999903 ], [ -53.788329542, -30.641852351999905 ], [ -53.797573513, -30.643254360999897 ], [ -53.79834876, -30.647209065 ], [ -53.800299472999903, -30.648814942999891 ], [ -53.797986174999899, -30.652002669 ], [ -53.800978718999893, -30.655908462999896 ], [ -53.7988300069999, -30.660161721 ], [ -53.799781137, -30.662907991999905 ], [ -53.794707068, -30.67125444 ], [ -53.797436322, -30.671529324999902 ], [ -53.798070321999901, -30.676264026 ], [ -53.797256488999899, -30.677192724 ], [ -53.79410300099989, -30.676115282999898 ], [ -53.796388055, -30.684739323 ], [ -53.797866418999895, -30.68547947 ], [ -53.801288389, -30.683032205 ], [ -53.803035848, -30.684887579 ], [ -53.802691752, -30.686787575 ], [ -53.797029268999893, -30.689533563999898 ], [ -53.797469446, -30.694661224999908 ], [ -53.796344684, -30.695954738999902 ], [ -53.797353109, -30.698886914999893 ], [ -53.801017439, -30.701157502999894 ], [ -53.797257461999898, -30.705693255 ], [ -53.805581128, -30.711544622 ], [ -53.811461510999898, -30.708942909 ], [ -53.813845688, -30.7144467369999 ], [ -53.813416255999989, -30.717886341999897 ], [ -53.807432295999895, -30.722450729999903 ], [ -53.803894961, -30.729181545 ], [ -53.808411405, -30.731537988999904 ], [ -53.808901775, -30.733321056 ], [ -53.814507087, -30.738146744999902 ], [ -53.817705256999901, -30.738866559 ], [ -53.816274888, -30.744244038 ], [ -53.820612238, -30.746855066 ], [ -53.821468924, -30.748936244999985 ], [ -53.820905582, -30.751430383 ], [ -53.815553069, -30.7531222389999 ], [ -53.813924616999898, -30.760308794 ] ] ] } }
]
}
