{
"type": "FeatureCollection",
"name": "bairros_minas_do_leao",
"crs": { "type": "name", "properties": { "name": "urn:ogc:def:crs:OGC:1.3:CRS84" } },
"features": [
{ "type": "Feature", "properties": { "name": "Santa Albina", "code_muni": 4312252.0, "name_muni": "Minas do Leão" }, "geometry": { "type": "Polygon", "coordinates": [ [ [ -52.0398649, -30.1431302 ], [ -52.0409919, -30.1433497 ], [ -52.0447291, -30.1440301 ], [ -52.0454316, -30.1441603 ], [ -52.0463, -30.1443208 ], [ -52.047084, -30.1444741 ], [ -52.0474954, -30.1445491 ], [ -52.0477657, -30.1441473 ], [ -52.0493984, -30.1410728 ], [ -52.0497989, -30.140245600000011 ], [ -52.0513273, -30.1374687 ], [ -52.0523256, -30.135767 ], [ -52.0492311, -30.1353244 ], [ -52.0492219, -30.1353567 ], [ -52.0490956, -30.1362704 ], [ -52.0468993, -30.1359255 ], [ -52.0449603, -30.135589 ], [ -52.0450696, -30.1351001 ], [ -52.0429407, -30.1347345 ], [ -52.0413792, -30.134374599999987 ], [ -52.0413929, -30.1345788 ], [ -52.041525, -30.1350266 ], [ -52.0414605, -30.1355778 ], [ -52.04124, -30.135950200000014 ], [ -52.0409505, -30.1362503 ], [ -52.0407611, -30.1365969 ], [ -52.0406372, -30.1373961 ], [ -52.0406655, -30.1380327 ], [ -52.0405675, -30.1386256 ], [ -52.0403459, -30.1392185 ], [ -52.0402244, -30.1400725 ], [ -52.0403973, -30.1402497 ], [ -52.0405672, -30.1405332 ], [ -52.0406355, -30.1408606 ], [ -52.0407338, -30.1411016 ], [ -52.0406795, -30.1417323 ], [ -52.0404619, -30.1421515 ], [ -52.039794, -30.1429788 ], [ -52.0398649, -30.1431302 ] ] ] } },
{ "type": "Feature", "properties": { "name": "São José", "code_muni": 4312252.0, "name_muni": "Minas do Leão" }, "geometry": { "type": "Polygon", "coordinates": [ [ [ -52.039794, -30.1429788 ], [ -52.0395641, -30.143212 ], [ -52.0390229, -30.143368 ], [ -52.0384988, -30.1438286 ], [ -52.0383183, -30.1447499 ], [ -52.0385417, -30.1454483 ], [ -52.0384816, -30.1460278 ], [ -52.0372225, -30.1471009 ], [ -52.0363289, -30.14719 ], [ -52.037183, -30.1478502 ], [ -52.0372649, -30.1479429 ], [ -52.0374378, -30.1481668 ], [ -52.0374774, -30.1482698 ], [ -52.037631, -30.1485402 ], [ -52.0377383, -30.148634 ], [ -52.0378456, -30.148144699999989 ], [ -52.0379454, -30.147819 ], [ -52.0382295, -30.147248199999986 ], [ -52.0384236, -30.1469387 ], [ -52.0390217, -30.1473515 ], [ -52.0396172, -30.147747 ], [ -52.0400651, -30.1479662 ], [ -52.0405935, -30.1481129 ], [ -52.0411307, -30.1481991 ], [ -52.0417985, -30.1479511 ], [ -52.0420741, -30.1477644 ], [ -52.042256, -30.1475125 ], [ -52.0440441, -30.1482445 ], [ -52.0442292, -30.1482955 ], [ -52.0443741, -30.1483349 ], [ -52.04448, -30.1484312 ], [ -52.0446181, -30.1487675 ], [ -52.0447187, -30.1488 ], [ -52.0450554, -30.1488985 ], [ -52.0474954, -30.1445491 ], [ -52.047084, -30.1444741 ], [ -52.0463, -30.1443208 ], [ -52.0454316, -30.1441603 ], [ -52.0447291, -30.1440301 ], [ -52.0409919, -30.1433497 ], [ -52.0398649, -30.1431302 ], [ -52.039794, -30.1429788 ] ] ] } },
{ "type": "Feature", "properties": { "name": "Recreio", "code_muni": 4312252.0, "name_muni": "Minas do Leão" }, "geometry": { "type": "Polygon", "coordinates": [ [ [ -52.0435667, -30.1536253 ], [ -52.0450554, -30.1488985 ], [ -52.0447187, -30.1488 ], [ -52.0446181, -30.1487675 ], [ -52.04448, -30.1484312 ], [ -52.0443741, -30.1483349 ], [ -52.0442292, -30.1482955 ], [ -52.0440441, -30.1482445 ], [ -52.042256, -30.1475125 ], [ -52.0420741, -30.1477644 ], [ -52.0417985, -30.1479511 ], [ -52.0411307, -30.1481991 ], [ -52.0405935, -30.1481129 ], [ -52.0400651, -30.1479662 ], [ -52.0396172, -30.147747 ], [ -52.0390217, -30.1473515 ], [ -52.0384236, -30.1469387 ], [ -52.0382295, -30.147248199999986 ], [ -52.0379454, -30.147819 ], [ -52.0378456, -30.148144699999989 ], [ -52.0377383, -30.148634 ], [ -52.037631, -30.1485402 ], [ -52.0374774, -30.1482698 ], [ -52.0374378, -30.1481668 ], [ -52.0372649, -30.1479429 ], [ -52.037183, -30.1478502 ], [ -52.0363289, -30.14719 ], [ -52.0341123, -30.1496566 ], [ -52.0329031, -30.1508819 ], [ -52.0324048, -30.1517437 ], [ -52.0320611, -30.1518477 ], [ -52.0307037, -30.1520854 ], [ -52.0305062, -30.1524765 ], [ -52.030171, -30.1531403 ], [ -52.0299775, -30.1538087 ], [ -52.0300955, -30.1541241 ], [ -52.0303959, -30.1543653 ], [ -52.0306856, -30.1546621 ], [ -52.0309324, -30.15498680000001 ], [ -52.031147, -30.1552188 ], [ -52.0313186, -30.1554043 ], [ -52.0318658, -30.1556084 ], [ -52.0320428, -30.1559006 ], [ -52.0321769, -30.1565964 ], [ -52.0322359, -30.1570324 ], [ -52.0322037, -30.1577884 ], [ -52.0435667, -30.1536253 ] ] ] } },
{ "type": "Feature", "properties": { "name": "Coréia", "code_muni": 4312252.0, "name_muni": "Minas do Leão" }, "geometry": { "type": "Polygon", "coordinates": [ [ [ -52.0204032, -30.1416665 ], [ -52.0207787, -30.14265 ], [ -52.0218194, -30.143225199999989 ], [ -52.0221841, -30.148643400000015 ], [ -52.0227313, -30.1501742 ], [ -52.0242334, -30.151621399999989 ], [ -52.0298016, -30.1519925 ], [ -52.0305062, -30.1524765 ], [ -52.0307037, -30.1520854 ], [ -52.0320611, -30.1518477 ], [ -52.0324048, -30.1517437 ], [ -52.0329031, -30.1508819 ], [ -52.0341123, -30.1496566 ], [ -52.0363289, -30.14719 ], [ -52.0372225, -30.1471009 ], [ -52.0384816, -30.1460278 ], [ -52.0385417, -30.1454483 ], [ -52.0383183, -30.1447499 ], [ -52.0384988, -30.1438286 ], [ -52.0390229, -30.143368 ], [ -52.0395641, -30.143212 ], [ -52.039794, -30.1429788 ], [ -52.0395137, -30.143076699999988 ], [ -52.0385792, -30.1428934 ], [ -52.0321029, -30.1416855 ], [ -52.0283519, -30.1410124 ], [ -52.0270175, -30.1407561 ], [ -52.02629060000001, -30.1406134 ], [ -52.0256281, -30.1404789 ], [ -52.0247648, -30.1403156 ], [ -52.0220232, -30.1397969 ], [ -52.0203909, -30.1395109 ], [ -52.0204032, -30.1416665 ] ] ] } },
{ "type": "Feature", "properties": { "name": "São Miguel", "code_muni": 4312252.0, "name_muni": "Minas do Leão" }, "geometry": { "type": "Polygon", "coordinates": [ [ [ -52.02629060000001, -30.1406134 ], [ -52.0270175, -30.1407561 ], [ -52.0283519, -30.1410124 ], [ -52.0321029, -30.1416855 ], [ -52.0385792, -30.1428934 ], [ -52.0395137, -30.143076699999988 ], [ -52.039794, -30.1429788 ], [ -52.0404619, -30.1421515 ], [ -52.0406795, -30.1417323 ], [ -52.0407338, -30.1411016 ], [ -52.0406355, -30.1408606 ], [ -52.0405672, -30.1405332 ], [ -52.0403973, -30.1402497 ], [ -52.0402244, -30.1400725 ], [ -52.0403459, -30.1392185 ], [ -52.0405675, -30.1386256 ], [ -52.0406655, -30.1380327 ], [ -52.0406372, -30.1373961 ], [ -52.0407611, -30.1365969 ], [ -52.0409505, -30.1362503 ], [ -52.04124, -30.135950200000014 ], [ -52.0414605, -30.1355778 ], [ -52.041525, -30.1350266 ], [ -52.0413929, -30.1345788 ], [ -52.0413792, -30.134374599999987 ], [ -52.0417042, -30.1336246 ], [ -52.038492, -30.133455 ], [ -52.0348227, -30.1351901 ], [ -52.0326018, -30.135329299999984 ], [ -52.0303702, -30.135951 ], [ -52.028836, -30.1369345 ], [ -52.0256281, -30.1404789 ], [ -52.02629060000001, -30.1406134 ] ] ] } },
{ "type": "Feature", "properties": { "name": "Centro", "code_muni": 4312252.0, "name_muni": "Minas do Leão" }, "geometry": { "type": "Polygon", "coordinates": [ [ [ -52.0429407, -30.1347345 ], [ -52.0450696, -30.1351001 ], [ -52.0449603, -30.135589 ], [ -52.0468993, -30.1359255 ], [ -52.0490956, -30.1362704 ], [ -52.0492219, -30.1353567 ], [ -52.0492311, -30.1353244 ], [ -52.0523256, -30.135767 ], [ -52.0531163, -30.1341254 ], [ -52.0539454, -30.132204700000013 ], [ -52.0541883, -30.1321374 ], [ -52.0591704, -30.1219327 ], [ -52.0434875, -30.1193059 ], [ -52.0435723, -30.1201461 ], [ -52.04375060000001, -30.1208303 ], [ -52.0442387, -30.1214976 ], [ -52.0439592, -30.1227062 ], [ -52.0441901, -30.123431299999989 ], [ -52.0442873, -30.1244612 ], [ -52.0438863, -30.124923599999985 ], [ -52.0432424, -30.1248501 ], [ -52.0429629, -30.1249131 ], [ -52.0426834, -30.1262924 ], [ -52.0416628, -30.12795280000001 ], [ -52.0417339, -30.1290776 ], [ -52.0421634, -30.1293006 ], [ -52.0424556, -30.129612599999987 ], [ -52.0422322, -30.1308164 ], [ -52.0422837, -30.1311582 ], [ -52.0430398, -30.1314703 ], [ -52.0433319, -30.131931 ], [ -52.042868, -30.1328375 ], [ -52.0420084, -30.1332931 ], [ -52.0417042, -30.1336246 ], [ -52.0413792, -30.134374599999987 ], [ -52.0429407, -30.1347345 ] ] ] } }
]
}
