{
"type": "FeatureCollection",
"name": "bairros_tapes",
"crs": { "type": "name", "properties": { "name": "urn:ogc:def:crs:OGC:1.3:CRS84" } },
"features": [
{ "type": "Feature", "properties": { "code_muni": 4321105.0, "name_muni": "Tapes", "code_state": 43.0, "abbrev_state": "RS", "name_state": "Rio Grande do Sul", "code_region": 4.0, "name_region": "Sul", "year": 2022.0 }, "geometry": { "type": "Polygon", "coordinates": [ [ [ -51.389468908, -30.664619557 ], [ -51.396099136, -30.701846090999901 ], [ -51.398130615, -30.710142309999988 ], [ -51.400189493, -30.712861172 ], [ -51.404192547, -30.738021504 ], [ -51.405830506, -30.756750616 ], [ -51.403805250999895, -30.766771417 ], [ -51.404277100999892, -30.782928484 ], [ -51.402858701, -30.783796236999894 ], [ -51.395942404, -30.808262514 ], [ -51.395785079999897, -30.820248044999989 ], [ -51.390580096999905, -30.840293655 ], [ -51.3817156389999, -30.860942973 ], [ -51.3726968, -30.872535238 ], [ -51.369010214, -30.874354512 ], [ -51.37602792, -30.877418722 ], [ -51.390084229, -30.879893460999899 ], [ -51.397614948, -30.878067938999894 ], [ -51.409195775999891, -30.878485839999907 ], [ -51.414890176, -30.875922955 ], [ -51.429384233999897, -30.875192694 ], [ -51.435959501999896, -30.873458629 ], [ -51.4385904929999, -30.870968317999903 ], [ -51.443538297, -30.870555787999898 ], [ -51.447032664999902, -30.872464592999986 ], [ -51.453613541, -30.869870337999902 ], [ -51.460038789999892, -30.870191668 ], [ -51.467485951, -30.873916627 ], [ -51.47660683, -30.882375755999899 ], [ -51.479837265, -30.882458246999892 ], [ -51.488130783, -30.87610810599989 ], [ -51.486495266, -30.871507971 ], [ -51.489914055, -30.870595775 ], [ -51.490417652, -30.868666646 ], [ -51.492359776999891, -30.869497403 ], [ -51.495642878999895, -30.867172162 ], [ -51.500733024999903, -30.852796435 ], [ -51.514798086, -30.83933617 ], [ -51.523473962, -30.835593226 ], [ -51.522563848999901, -30.833914412999906 ], [ -51.529903085999898, -30.815708919 ], [ -51.533969769, -30.814389563 ], [ -51.531976991, -30.810482938999893 ], [ -51.534462757, -30.8015655049999 ], [ -51.549295489, -30.792160345999896 ], [ -51.551789511, -30.78911657 ], [ -51.556248368999903, -30.78895249399989 ], [ -51.560010597, -30.787270492999902 ], [ -51.580252856999891, -30.773121686999989 ], [ -51.581178480999903, -30.767425584 ], [ -51.590118622, -30.760216746 ], [ -51.600347685, -30.756745672 ], [ -51.601094237, -30.755411887 ], [ -51.613107477, -30.755603442999984 ], [ -51.616698416, -30.749609897 ], [ -51.630336728, -30.74482476 ], [ -51.607692711, -30.719870431999901 ], [ -51.591149937999894, -30.714933989 ], [ -51.58482567, -30.710722325999892 ], [ -51.581463229, -30.706505133 ], [ -51.572350855, -30.677871255 ], [ -51.563275495, -30.657017547999896 ], [ -51.559587388, -30.644352844 ], [ -51.556358385, -30.639685879 ], [ -51.551379149, -30.63649972 ], [ -51.544959916, -30.621725750999897 ], [ -51.539877453, -30.605884925999899 ], [ -51.538840745999899, -30.59342758 ], [ -51.536327985, -30.58890896 ], [ -51.525536867, -30.577108735 ], [ -51.519157229, -30.559626877 ], [ -51.508776193, -30.540213718 ], [ -51.500299013999893, -30.532918799 ], [ -51.498704448, -30.521406237999891 ], [ -51.491306909999892, -30.502596344 ], [ -51.487077514, -30.499966088 ], [ -51.483421158999896, -30.499650361 ], [ -51.479651474, -30.499931908999894 ], [ -51.472732951, -30.503357572 ], [ -51.465229526, -30.498424477999897 ], [ -51.448879738999899, -30.495786852 ], [ -51.446204098, -30.494313588999898 ], [ -51.439694343, -30.494276152999895 ], [ -51.421061145, -30.483106339 ], [ -51.405825675999893, -30.487604352999902 ], [ -51.398465562999895, -30.486573361999906 ], [ -51.392211147, -30.489127090999901 ], [ -51.394553028, -30.494448098 ], [ -51.396857945, -30.495494859 ], [ -51.275904775, -30.470741281 ], [ -51.265383366, -30.479774596 ], [ -51.2654056599999, -30.483260381 ], [ -51.279154847, -30.510403582 ], [ -51.2984131649999, -30.559087538 ], [ -51.303348572999901, -30.588550052 ], [ -51.302229989999901, -30.634448130999893 ], [ -51.293099729999895, -30.707675636 ], [ -51.294882757, -30.731355925999893 ], [ -51.294141287999892, -30.751557818 ], [ -51.281142797, -30.801667755 ], [ -51.282434795, -30.812538998 ], [ -51.2903502509999, -30.81752137 ], [ -51.29432797, -30.818825971 ], [ -51.298649128, -30.816344972 ], [ -51.287759175, -30.810477843999905 ], [ -51.28511944, -30.807256531999901 ], [ -51.284291833999895, -30.802455829999897 ], [ -51.287297811, -30.797513581 ], [ -51.298081004, -30.791908581 ], [ -51.311773214, -30.788636561 ], [ -51.319089322, -30.785528966 ], [ -51.331207946999903, -30.778481892999896 ], [ -51.31809393, -30.78351514 ], [ -51.305486318, -30.784318614 ], [ -51.300502951999903, -30.780041931 ], [ -51.293955342999901, -30.770891354999893 ], [ -51.293350275, -30.764775513 ], [ -51.296452955999897, -30.750668403 ], [ -51.297039621, -30.73999227 ], [ -51.302972947999898, -30.722066353999896 ], [ -51.306482048, -30.715494059 ], [ -51.316599089, -30.704147678 ], [ -51.314342153, -30.7009258809999 ], [ -51.316926289, -30.697346111999902 ], [ -51.313957629999891, -30.688503027 ], [ -51.319155614, -30.682161707 ], [ -51.319432155999891, -30.679899163 ], [ -51.316590187, -30.676558069 ], [ -51.318694127, -30.6712509 ], [ -51.319443933999892, -30.663492463999894 ], [ -51.3168550789999, -30.654332716999903 ], [ -51.318835447, -30.646147076 ], [ -51.327610912, -30.638017291 ], [ -51.33461263800001, -30.633788454999898 ], [ -51.347887295, -30.6315137469999 ], [ -51.364097236, -30.633240532999899 ], [ -51.371645048999895, -30.636096976 ], [ -51.380929806, -30.64347321 ], [ -51.385764776, -30.651480712999987 ], [ -51.386964535999901, -30.655022691999896 ], [ -51.385675561, -30.662234468999898 ], [ -51.389468908, -30.664619557 ] ] ] } }
]
}
