{
"type": "FeatureCollection",
"name": "bairros_ponte_preta",
"crs": { "type": "name", "properties": { "name": "urn:ogc:def:crs:OGC:1.3:CRS84" } },
"features": [
{ "type": "Feature", "properties": { "code_muni": 4314787.0, "name_muni": "Ponte Preta", "code_state": 43.0, "abbrev_state": "RS", "name_state": "Rio Grande do Sul", "code_region": 4.0, "name_region": "Sul", "year": 2022.0 }, "geometry": { "type": "Polygon", "coordinates": [ [ [ -52.519543728, -27.69202567 ], [ -52.522105513, -27.696107673 ], [ -52.522703916999902, -27.701513037 ], [ -52.524343367, -27.701520587999905 ], [ -52.525703184999891, -27.692307890999899 ], [ -52.528449096, -27.688499865 ], [ -52.524238389999894, -27.685807011 ], [ -52.525470798999891, -27.681684269 ], [ -52.535358545, -27.687723166999902 ], [ -52.542661997, -27.686966507 ], [ -52.542399535999898, -27.690468956 ], [ -52.546633595999893, -27.694812622 ], [ -52.5477815469999, -27.693952192 ], [ -52.545468656, -27.691446761999906 ], [ -52.546902561, -27.686828791 ], [ -52.549585002999898, -27.687449671 ], [ -52.551986224, -27.692174576 ], [ -52.561517587, -27.68891932 ], [ -52.565382779999901, -27.689347363 ], [ -52.56935334, -27.684105756 ], [ -52.575873841, -27.683413231 ], [ -52.573723424, -27.680697897999899 ], [ -52.568059879, -27.680987758999905 ], [ -52.567050342999899, -27.678257043 ], [ -52.564759781, -27.679694981999898 ], [ -52.559440486, -27.679014531999901 ], [ -52.557255434999902, -27.6028147389999 ], [ -52.548987666999892, -27.605844058999896 ], [ -52.545507825999898, -27.604998323 ], [ -52.545425294, -27.607335195 ], [ -52.540150923999896, -27.609650044 ], [ -52.538737346999895, -27.612955453 ], [ -52.535343065999896, -27.611150365999901 ], [ -52.534763228, -27.608968021 ], [ -52.533426162, -27.610016750999897 ], [ -52.530043879999894, -27.607932870999903 ], [ -52.52760661100001, -27.608978011 ], [ -52.525297415999908, -27.614299313999901 ], [ -52.523076567, -27.612943082 ], [ -52.517538773999895, -27.614976355 ], [ -52.512049938, -27.614121842 ], [ -52.503806063, -27.609569829999899 ], [ -52.498364167, -27.6088659669999 ], [ -52.486263713, -27.610564285999892 ], [ -52.484045317, -27.607744943999901 ], [ -52.480776326, -27.6068466689999 ], [ -52.477215656999903, -27.603528028 ], [ -52.477144338999892, -27.610956261 ], [ -52.465360960999902, -27.6108707 ], [ -52.465299461, -27.631411135 ], [ -52.445025624, -27.631382986999899 ], [ -52.445083849999889, -27.651415730999904 ], [ -52.4470879, -27.650886928 ], [ -52.447932674, -27.674049620999902 ], [ -52.457929893, -27.673724358 ], [ -52.457960269, -27.68283263 ], [ -52.47826759, -27.682223823 ], [ -52.479664586, -27.718333301 ], [ -52.481742369, -27.717664586 ], [ -52.482796349999902, -27.719417392 ], [ -52.48590955, -27.718783107 ], [ -52.488241248999891, -27.72060221 ], [ -52.490324789999903, -27.719754297999899 ], [ -52.491386485, -27.720865683999904 ], [ -52.490497702, -27.723177423 ], [ -52.492589725999899, -27.725032639999895 ], [ -52.495250179, -27.722131152 ], [ -52.493512630999902, -27.719056414 ], [ -52.494376884, -27.716160643 ], [ -52.491928043, -27.717916793 ], [ -52.490178783, -27.715335406 ], [ -52.495523332999895, -27.714865776999893 ], [ -52.50031722499989, -27.712763257999899 ], [ -52.507912765, -27.714455793999903 ], [ -52.503503657, -27.707691107999892 ], [ -52.507449847, -27.705777656 ], [ -52.507536129999892, -27.703535637999899 ], [ -52.498078487, -27.698083176999894 ], [ -52.496936284, -27.695161997999893 ], [ -52.501308491, -27.693135137 ], [ -52.511061256999902, -27.691391621 ], [ -52.512634519, -27.694849642 ], [ -52.511799601, -27.700715118999902 ], [ -52.514728131, -27.700994667 ], [ -52.517596157, -27.69945009 ], [ -52.519543728, -27.69202567 ] ] ] } }
]
}
