{
"type": "FeatureCollection",
"name": "bairros_tres_passos",
"crs": { "type": "name", "properties": { "name": "urn:ogc:def:crs:OGC:1.3:CRS84" } },
"features": [
{ "type": "Feature", "properties": { "name": "Centro", "code_muni": 4321907.0, "name_muni": "Três Passos" }, "geometry": { "type": "Polygon", "coordinates": [ [ [ -53.9334285, -27.4480597 ], [ -53.9334221, -27.4481048 ], [ -53.9333504, -27.4496102 ], [ -53.9333339, -27.4499555 ], [ -53.9324837, -27.4503934 ], [ -53.9324206, -27.4504259 ], [ -53.9320185, -27.4502999 ], [ -53.9314773, -27.4501304 ], [ -53.9308666, -27.4499328 ], [ -53.9307216, -27.4498859 ], [ -53.9306664, -27.449882 ], [ -53.930594, -27.449894 ], [ -53.9286983, -27.450314 ], [ -53.9290027, -27.4513886 ], [ -53.9278078, -27.4512256 ], [ -53.9264153, -27.4510255 ], [ -53.9266237, -27.4521228 ], [ -53.9265763, -27.4535307 ], [ -53.9257115, -27.4537361 ], [ -53.9250083, -27.4537933 ], [ -53.9240139, -27.4538758 ], [ -53.9224301, -27.4537229 ], [ -53.9219047, -27.4547342 ], [ -53.9218848, -27.4547795 ], [ -53.9214935, -27.4558176 ], [ -53.9214556, -27.4559124 ], [ -53.9218284, -27.4560985 ], [ -53.9224904, -27.4564242 ], [ -53.9227063, -27.456532 ], [ -53.9227576, -27.4565859 ], [ -53.9227814, -27.4566388 ], [ -53.9228531, -27.4570517 ], [ -53.9228852, -27.4572891 ], [ -53.9229293, -27.4577089 ], [ -53.9229553, -27.4580053 ], [ -53.92297, -27.4581809 ], [ -53.9229725, -27.4582576 ], [ -53.9231026, -27.4599384 ], [ -53.9231067, -27.4599867 ], [ -53.9231134, -27.4600596 ], [ -53.9231593, -27.4607564 ], [ -53.9231657, -27.4608612 ], [ -53.9232306, -27.4608616 ], [ -53.9232774, -27.4608632 ], [ -53.9244832, -27.4608876 ], [ -53.9245422, -27.4608876 ], [ -53.9245985, -27.460886399999989 ], [ -53.9246484, -27.460886 ], [ -53.9246899, -27.4608856 ], [ -53.9254023, -27.4609043 ], [ -53.925674, -27.4609204 ], [ -53.9260874, -27.4609747 ], [ -53.9263335, -27.4610223 ], [ -53.9266676, -27.4610839 ], [ -53.9265425, -27.4588745 ], [ -53.92714380000001, -27.4588846 ], [ -53.9277462, -27.4589128 ], [ -53.9277512, -27.4582239 ], [ -53.9280513, -27.4582286 ], [ -53.9280895, -27.4582292 ], [ -53.9281507, -27.4582302 ], [ -53.928237, -27.4582577 ], [ -53.9290353, -27.4582823 ], [ -53.9309739, -27.458368 ], [ -53.9338817, -27.4585278 ], [ -53.9369273, -27.4586809 ], [ -53.9369092, -27.45865 ], [ -53.936953, -27.4578545 ], [ -53.9370199, -27.4570495 ], [ -53.9370461, -27.456861 ], [ -53.9370851, -27.4563216 ], [ -53.9370853, -27.4562993 ], [ -53.9370894, -27.4558715 ], [ -53.9370952, -27.4555747 ], [ -53.9370976, -27.4548921 ], [ -53.9370732, -27.4547612 ], [ -53.9369685, -27.454627599999988 ], [ -53.9365149, -27.454049 ], [ -53.9364848, -27.4540107 ], [ -53.9364547, -27.4539723 ], [ -53.9366072, -27.4539379 ], [ -53.9370987, -27.4538535 ], [ -53.938086, -27.453854 ], [ -53.9389769, -27.4538913 ], [ -53.9390865, -27.4539009 ], [ -53.9390941, -27.4534748 ], [ -53.9391616, -27.453075 ], [ -53.9392126, -27.4522205 ], [ -53.9396371, -27.4511674 ], [ -53.9389733, -27.4505887 ], [ -53.9389573, -27.4505747 ], [ -53.9389041, -27.4505318 ], [ -53.9388345, -27.4504642 ], [ -53.9399689, -27.4493952 ], [ -53.9398281, -27.4493714 ], [ -53.9389118, -27.4492382 ], [ -53.9364047, -27.4488739 ], [ -53.9334285, -27.4480597 ] ] ] } },
{ "type": "Feature", "properties": { "name": "Operário", "code_muni": 4321907.0, "name_muni": "Três Passos" }, "geometry": { "type": "Polygon", "coordinates": [ [ [ -53.930594, -27.449894 ], [ -53.9306664, -27.449882 ], [ -53.9307216, -27.4498859 ], [ -53.9308666, -27.4499328 ], [ -53.9314773, -27.4501304 ], [ -53.9320185, -27.4502999 ], [ -53.9324206, -27.4504259 ], [ -53.9324837, -27.4503934 ], [ -53.9333339, -27.4499555 ], [ -53.9333504, -27.4496102 ], [ -53.9334221, -27.4481048 ], [ -53.9334285, -27.4480597 ], [ -53.9364047, -27.4488739 ], [ -53.9364099, -27.4488291 ], [ -53.9364528, -27.448265 ], [ -53.9364485, -27.4480544 ], [ -53.9364095, -27.4479883 ], [ -53.9363509, -27.4479553 ], [ -53.9361928, -27.4479096 ], [ -53.9358947, -27.4464199 ], [ -53.9353006, -27.4455511 ], [ -53.9315844, -27.4395406 ], [ -53.9298785, -27.4395072 ], [ -53.9278239, -27.4407403 ], [ -53.9282812, -27.4413164 ], [ -53.9290027, -27.4422935 ], [ -53.9284301, -27.4427208 ], [ -53.9278346, -27.4439538 ], [ -53.927958, -27.4460009 ], [ -53.9286983, -27.450314 ], [ -53.930594, -27.449894 ] ] ] } },
{ "type": "Feature", "properties": { "name": "Webers", "code_muni": 4321907.0, "name_muni": "Três Passos" }, "geometry": { "type": "Polygon", "coordinates": [ [ [ -53.9353006, -27.4455511 ], [ -53.9358947, -27.4464199 ], [ -53.9361928, -27.4479096 ], [ -53.9363509, -27.4479553 ], [ -53.9364095, -27.4479883 ], [ -53.9364485, -27.4480544 ], [ -53.9364528, -27.448265 ], [ -53.9364099, -27.4488291 ], [ -53.9364047, -27.4488739 ], [ -53.9389118, -27.4492382 ], [ -53.9398281, -27.4493714 ], [ -53.9399689, -27.4493952 ], [ -53.9401594, -27.4492738 ], [ -53.9405778, -27.449131 ], [ -53.9405295, -27.4490215 ], [ -53.940547, -27.4489251 ], [ -53.9406569, -27.4488144 ], [ -53.9411612, -27.448411 ], [ -53.9420129, -27.447700799999989 ], [ -53.9420858, -27.4476408 ], [ -53.9421655, -27.4475754 ], [ -53.9426935, -27.4471417 ], [ -53.9430347, -27.446865 ], [ -53.9425907, -27.4461076 ], [ -53.9421415, -27.4453916 ], [ -53.941644, -27.4445525 ], [ -53.9412296, -27.4438515 ], [ -53.9409568, -27.4433207 ], [ -53.9386497, -27.4398336 ], [ -53.9380968, -27.4389978 ], [ -53.9377695, -27.4391978 ], [ -53.9375389, -27.439269199999984 ], [ -53.9374209, -27.4392835 ], [ -53.9371104, -27.4395093 ], [ -53.9370346, -27.4395644 ], [ -53.9365625, -27.4396501 ], [ -53.9364606, -27.4397072 ], [ -53.9363426, -27.4399024 ], [ -53.936128, -27.4400357 ], [ -53.9357686, -27.440040499999988 ], [ -53.9353985, -27.4399214 ], [ -53.9351463, -27.4399119 ], [ -53.9347547, -27.4397786 ], [ -53.9342558, -27.439764299999986 ], [ -53.9337033, -27.4397072 ], [ -53.9331347, -27.4396834 ], [ -53.9322281, -27.4395501 ], [ -53.9317077, -27.4395548 ], [ -53.9315844, -27.4395406 ], [ -53.9353006, -27.4455511 ] ] ] } },
{ "type": "Feature", "properties": { "name": "Ildo Meneghetti", "code_muni": 4321907.0, "name_muni": "Três Passos" }, "geometry": { "type": "Polygon", "coordinates": [ [ [ -53.940547, -27.4489251 ], [ -53.9405295, -27.4490215 ], [ -53.9405778, -27.449131 ], [ -53.9420597, -27.4486841 ], [ -53.9438179, -27.4481242 ], [ -53.948072, -27.4498215 ], [ -53.9481943, -27.4495178 ], [ -53.9485708, -27.4485669 ], [ -53.9488256, -27.4476005 ], [ -53.9510894, -27.4491143 ], [ -53.9517975, -27.4474672 ], [ -53.9512771, -27.447222 ], [ -53.9503708, -27.4467292 ], [ -53.951422, -27.4447536 ], [ -53.9520389, -27.4450107 ], [ -53.9522588, -27.4445727 ], [ -53.9537072, -27.4457058 ], [ -53.9559816, -27.444001 ], [ -53.9567006, -27.4404785 ], [ -53.9531601, -27.4393787 ], [ -53.9512571, -27.438778 ], [ -53.9508708, -27.4387038 ], [ -53.9386497, -27.4398336 ], [ -53.9409568, -27.4433207 ], [ -53.9412296, -27.4438515 ], [ -53.941644, -27.4445525 ], [ -53.9421415, -27.4453916 ], [ -53.9425907, -27.4461076 ], [ -53.9430347, -27.446865 ], [ -53.9426935, -27.4471417 ], [ -53.9421655, -27.4475754 ], [ -53.9420858, -27.4476408 ], [ -53.9420129, -27.447700799999989 ], [ -53.9411612, -27.448411 ], [ -53.9406569, -27.4488144 ], [ -53.940547, -27.4489251 ] ] ] } },
{ "type": "Feature", "properties": { "name": "Promorar", "code_muni": 4321907.0, "name_muni": "Três Passos" }, "geometry": { "type": "Polygon", "coordinates": [ [ [ -53.9487792, -27.4312013 ], [ -53.9488886, -27.4313649 ], [ -53.9489351, -27.4314344 ], [ -53.9492118, -27.4317485 ], [ -53.9493983, -27.4320514 ], [ -53.9496732, -27.4323371 ], [ -53.9498073, -27.4320943 ], [ -53.9505449, -27.4316038 ], [ -53.9502633, -27.431311 ], [ -53.9509955, -27.4302374 ], [ -53.9501774, -27.4286161 ], [ -53.9487565, -27.429106 ], [ -53.948662, -27.4291396 ], [ -53.9481735, -27.4292927 ], [ -53.9476339, -27.4295085 ], [ -53.9474453, -27.4295869 ], [ -53.9478453, -27.429888099999989 ], [ -53.9480037, -27.4300332 ], [ -53.9481551, -27.4302062 ], [ -53.9486603, -27.431026 ], [ -53.9487792, -27.4312013 ] ] ] } },
{ "type": "Feature", "properties": { "name": "Padre Gonzales", "code_muni": 4321907.0, "name_muni": "Três Passos" }, "geometry": { "type": "Polygon", "coordinates": [ [ [ -53.9503728, -27.4342744 ], [ -53.9504714, -27.434575 ], [ -53.9506468, -27.4351795 ], [ -53.95073270000001, -27.4355747 ], [ -53.9507943, -27.4359294 ], [ -53.950814, -27.4362632 ], [ -53.9508524, -27.4366237 ], [ -53.9508872, -27.4369031 ], [ -53.9509169, -27.4373064 ], [ -53.9509427, -27.437644 ], [ -53.9509419, -27.437843 ], [ -53.9509362, -27.4379891 ], [ -53.9508708, -27.4387038 ], [ -53.9512571, -27.438778 ], [ -53.9531601, -27.4393787 ], [ -53.9539123, -27.4374761 ], [ -53.9542343, -27.437585 ], [ -53.9542758, -27.437580199999989 ], [ -53.954304, -27.4375612 ], [ -53.9549571, -27.4358877 ], [ -53.9551637, -27.4353878 ], [ -53.9553058, -27.4354413 ], [ -53.958149, -27.4356604 ], [ -53.9581919, -27.4354033 ], [ -53.9612979, -27.4356746 ], [ -53.9609277, -27.4382789 ], [ -53.9621186, -27.4395263 ], [ -53.9641611, -27.4407951 ], [ -53.9643192, -27.4405922 ], [ -53.9645232, -27.440394 ], [ -53.9646935, -27.4403106 ], [ -53.9649121, -27.4401738 ], [ -53.9652836, -27.4398964 ], [ -53.9656819, -27.4395715 ], [ -53.9667159, -27.4388002 ], [ -53.9667696, -27.4388776 ], [ -53.9668621, -27.4389835 ], [ -53.9668764, -27.4391912 ], [ -53.9669113, -27.4393269 ], [ -53.9669649, -27.4394316 ], [ -53.9670615, -27.4395613 ], [ -53.9672635, -27.4397359 ], [ -53.9679802, -27.4402689 ], [ -53.9706266, -27.4382408 ], [ -53.9702189, -27.4377933 ], [ -53.9726114, -27.4358413 ], [ -53.9714795, -27.434951 ], [ -53.971163, -27.4345701 ], [ -53.9709528, -27.4343032 ], [ -53.9704522, -27.4337864 ], [ -53.9702008, -27.4335613 ], [ -53.9697401, -27.4332024 ], [ -53.9716083, -27.4315443 ], [ -53.9708787, -27.4313063 ], [ -53.9703557, -27.4311456 ], [ -53.970243, -27.4310777 ], [ -53.9699373, -27.4308337 ], [ -53.9701921, -27.4305849 ], [ -53.9698702, -27.4303564 ], [ -53.9706373, -27.4297755 ], [ -53.9689502, -27.4285019 ], [ -53.9689824, -27.4270115 ], [ -53.9687598, -27.4268651 ], [ -53.9682327, -27.4268592 ], [ -53.9673883, -27.4267804 ], [ -53.9622878, -27.4263114 ], [ -53.9621684, -27.4263007 ], [ -53.9616077, -27.4262485 ], [ -53.9612325, -27.4262234 ], [ -53.9609813, -27.426245399999988 ], [ -53.9607441, -27.4262862 ], [ -53.9605566, -27.4263459 ], [ -53.9603761, -27.4264213 ], [ -53.960054, -27.4265847 ], [ -53.9583486, -27.4276663 ], [ -53.9559157, -27.4292092 ], [ -53.9552591, -27.4295943 ], [ -53.9549321, -27.4297493 ], [ -53.9533434, -27.4304021 ], [ -53.9519123, -27.430979700000012 ], [ -53.9517198, -27.4310605 ], [ -53.9509011, -27.4314071 ], [ -53.9505449, -27.4316038 ], [ -53.9498073, -27.4320943 ], [ -53.9496732, -27.4323371 ], [ -53.9497376, -27.4326323 ], [ -53.9503049, -27.4340653 ], [ -53.9503728, -27.4342744 ] ] ] } },
{ "type": "Feature", "properties": { "name": "Frei Olimpio", "code_muni": 4321907.0, "name_muni": "Três Passos" }, "geometry": { "type": "Polygon", "coordinates": [ [ [ -53.9229473, -27.4515995 ], [ -53.9226561, -27.4528411 ], [ -53.9224301, -27.4537229 ], [ -53.9240139, -27.4538758 ], [ -53.9250083, -27.4537933 ], [ -53.9257115, -27.4537361 ], [ -53.9265763, -27.4535307 ], [ -53.9266237, -27.4521228 ], [ -53.9264153, -27.4510255 ], [ -53.9278078, -27.4512256 ], [ -53.9290027, -27.4513886 ], [ -53.9286983, -27.450314 ], [ -53.927958, -27.4460009 ], [ -53.9251766, -27.4464782 ], [ -53.9250855, -27.4466511 ], [ -53.9250054, -27.4467883 ], [ -53.9248463, -27.447159 ], [ -53.9246669, -27.4477136 ], [ -53.9245482, -27.4481715 ], [ -53.9244851, -27.4483597 ], [ -53.9244194, -27.4485565 ], [ -53.9242499, -27.448912 ], [ -53.9241613, -27.4490441 ], [ -53.9235881, -27.4500211 ], [ -53.922894, -27.4510185 ], [ -53.9229473, -27.4515995 ] ] ] } },
{ "type": "Feature", "properties": { "name": "Sulserra", "code_muni": 4321907.0, "name_muni": "Três Passos" }, "geometry": { "type": "Polygon", "coordinates": [ [ [ -53.9156681, -27.4545963 ], [ -53.9165142, -27.4544101 ], [ -53.9166297, -27.4544025 ], [ -53.9174162, -27.4545463 ], [ -53.9177027, -27.4545964 ], [ -53.9184509, -27.4547268 ], [ -53.9192802, -27.4548474 ], [ -53.920319, -27.4553488 ], [ -53.9205954, -27.4554832 ], [ -53.9208267, -27.4555932 ], [ -53.9214556, -27.4559124 ], [ -53.9214935, -27.4558176 ], [ -53.9218848, -27.4547795 ], [ -53.9219047, -27.4547342 ], [ -53.9224301, -27.4537229 ], [ -53.9226561, -27.4528411 ], [ -53.9229473, -27.4515995 ], [ -53.922894, -27.4510185 ], [ -53.92254, -27.4474101 ], [ -53.9206195, -27.4472196 ], [ -53.9148784, -27.4520622 ], [ -53.9140442, -27.4522261 ], [ -53.9142207, -27.4525899 ], [ -53.9143174, -27.4527919 ], [ -53.9144944, -27.45327 ], [ -53.9146436, -27.4536521 ], [ -53.9148263, -27.4540658 ], [ -53.91511950000001, -27.4547247 ], [ -53.9156681, -27.4545963 ] ] ] } },
{ "type": "Feature", "properties": { "name": "Érico Veríssimo", "code_muni": 4321907.0, "name_muni": "Três Passos" }, "geometry": { "type": "Polygon", "coordinates": [ [ [ -53.9401594, -27.4492738 ], [ -53.9399689, -27.4493952 ], [ -53.9388345, -27.4504642 ], [ -53.9389041, -27.4505318 ], [ -53.9389573, -27.4505747 ], [ -53.9389733, -27.4505887 ], [ -53.9396371, -27.4511674 ], [ -53.9392126, -27.4522205 ], [ -53.9391616, -27.453075 ], [ -53.9390941, -27.4534748 ], [ -53.9390865, -27.4539009 ], [ -53.9389769, -27.4538913 ], [ -53.938086, -27.453854 ], [ -53.9370987, -27.4538535 ], [ -53.9366072, -27.4539379 ], [ -53.9364547, -27.4539723 ], [ -53.9364848, -27.4540107 ], [ -53.9365149, -27.454049 ], [ -53.9369685, -27.454627599999988 ], [ -53.9370732, -27.4547612 ], [ -53.9370976, -27.4548921 ], [ -53.9370952, -27.4555747 ], [ -53.9370894, -27.4558715 ], [ -53.9370853, -27.4562993 ], [ -53.9370851, -27.4563216 ], [ -53.9370461, -27.456861 ], [ -53.9370199, -27.4570495 ], [ -53.936953, -27.4578545 ], [ -53.9369092, -27.45865 ], [ -53.9369273, -27.4586809 ], [ -53.9369521, -27.458718 ], [ -53.9370003, -27.45879 ], [ -53.9369976, -27.4588326 ], [ -53.9369958, -27.4588611 ], [ -53.9368996, -27.4603806 ], [ -53.9371336, -27.4603982 ], [ -53.9370268, -27.4619345 ], [ -53.936984, -27.4627369 ], [ -53.9369372, -27.4628058 ], [ -53.9368303, -27.4628863 ], [ -53.9368869, -27.463456 ], [ -53.9370391, -27.4633818 ], [ -53.9374918, -27.4631064 ], [ -53.9379296, -27.462777 ], [ -53.9381766, -27.4625616 ], [ -53.93824, -27.4625064 ], [ -53.9382662, -27.4624835 ], [ -53.9399361, -27.4610273 ], [ -53.9404006, -27.4606244 ], [ -53.9417959, -27.4594142 ], [ -53.9422641, -27.4590405 ], [ -53.9423387, -27.458981 ], [ -53.9428496, -27.4585111 ], [ -53.9430024, -27.4583511 ], [ -53.9431877, -27.4581572 ], [ -53.9435517, -27.4577463 ], [ -53.9438424, -27.4573337 ], [ -53.9440483, -27.4569769 ], [ -53.9445287, -27.4558812 ], [ -53.9447865, -27.4553542 ], [ -53.9451498, -27.4547418 ], [ -53.9452745, -27.4545315 ], [ -53.94536, -27.454407499999988 ], [ -53.9454863, -27.4542068 ], [ -53.9456455, -27.4539535 ], [ -53.9463084, -27.4529513 ], [ -53.9474496, -27.4511007 ], [ -53.9479665, -27.4500835 ], [ -53.948072, -27.4498215 ], [ -53.9438179, -27.4481242 ], [ -53.9420597, -27.4486841 ], [ -53.9405778, -27.449131 ], [ -53.9401594, -27.4492738 ] ] ] } },
{ "type": "Feature", "properties": { "name": "Santa Inês", "code_muni": 4321907.0, "name_muni": "Três Passos" }, "geometry": { "type": "Polygon", "coordinates": [ [ [ -53.9265417, -27.4667374 ], [ -53.92657, -27.4668505 ], [ -53.9265767, -27.4674015 ], [ -53.9265458, -27.4677156 ], [ -53.9266569, -27.4694653 ], [ -53.9266974, -27.4695873 ], [ -53.9293581, -27.4681719 ], [ -53.9295675, -27.4680605 ], [ -53.93152, -27.4670219 ], [ -53.9329119, -27.4669466 ], [ -53.9329209, -27.466835 ], [ -53.9329236, -27.4667932 ], [ -53.9329538, -27.4663326 ], [ -53.9329778, -27.4659651 ], [ -53.9354038, -27.4658034 ], [ -53.9386976, -27.4660699 ], [ -53.9388692, -27.4630617 ], [ -53.9381766, -27.4625616 ], [ -53.9379296, -27.462777 ], [ -53.9374918, -27.4631064 ], [ -53.9370391, -27.4633818 ], [ -53.9368869, -27.463456 ], [ -53.9368303, -27.4628863 ], [ -53.9369372, -27.4628058 ], [ -53.936984, -27.4627369 ], [ -53.9370268, -27.4619345 ], [ -53.9371336, -27.4603982 ], [ -53.9368996, -27.4603806 ], [ -53.9369958, -27.4588611 ], [ -53.9369976, -27.4588326 ], [ -53.9370003, -27.45879 ], [ -53.9369521, -27.458718 ], [ -53.9369273, -27.4586809 ], [ -53.9338817, -27.4585278 ], [ -53.9309739, -27.458368 ], [ -53.9290353, -27.4582823 ], [ -53.928237, -27.4582577 ], [ -53.9281507, -27.4582302 ], [ -53.9280895, -27.4582292 ], [ -53.9280513, -27.4582286 ], [ -53.9277512, -27.4582239 ], [ -53.9277462, -27.4589128 ], [ -53.92714380000001, -27.4588846 ], [ -53.9265425, -27.4588745 ], [ -53.9266676, -27.4610839 ], [ -53.9263335, -27.4610223 ], [ -53.9260874, -27.4609747 ], [ -53.925674, -27.4609204 ], [ -53.9254023, -27.4609043 ], [ -53.9246899, -27.4608856 ], [ -53.9246484, -27.460886 ], [ -53.9245664, -27.462024 ], [ -53.9245478, -27.4622394 ], [ -53.9245017, -27.4623696 ], [ -53.9245419, -27.4623925 ], [ -53.9249944, -27.4626644 ], [ -53.9254166, -27.4629258 ], [ -53.9257878, -27.4631549 ], [ -53.9258057, -27.4632447 ], [ -53.9260736, -27.4644862 ], [ -53.9261742, -27.4649882 ], [ -53.9262695, -27.4656389 ], [ -53.9262922, -27.4657658 ], [ -53.9264411, -27.4663357 ], [ -53.9265417, -27.4667374 ] ] ] } },
{ "type": "Feature", "properties": { "name": "Glória", "code_muni": 4321907.0, "name_muni": "Três Passos" }, "geometry": { "type": "Polygon", "coordinates": [ [ [ -53.9156681, -27.4545963 ], [ -53.91511950000001, -27.4547247 ], [ -53.9139631, -27.4549682 ], [ -53.9136203, -27.4601698 ], [ -53.9136055, -27.4603003 ], [ -53.9138987, -27.4603368 ], [ -53.9142861, -27.4603878 ], [ -53.9146431, -27.4604639 ], [ -53.9149057, -27.4605056 ], [ -53.9154462, -27.4605479 ], [ -53.9157117, -27.4605693 ], [ -53.9159893, -27.4605978 ], [ -53.9164587, -27.460699 ], [ -53.9168899, -27.4608287 ], [ -53.9171112, -27.4608674 ], [ -53.9176705, -27.4609115 ], [ -53.917901, -27.4609297 ], [ -53.9189209, -27.461026 ], [ -53.9190611, -27.4611018 ], [ -53.920653, -27.4621815 ], [ -53.9216441, -27.4629143 ], [ -53.9227411, -27.4637354 ], [ -53.92285, -27.4633614 ], [ -53.9229987, -27.4629221 ], [ -53.9231438, -27.4625013 ], [ -53.923211, -27.4622124 ], [ -53.923232, -27.4619864 ], [ -53.9232101, -27.4615999 ], [ -53.9231713, -27.460950499999988 ], [ -53.9231657, -27.4608612 ], [ -53.9231593, -27.4607564 ], [ -53.9231134, -27.4600596 ], [ -53.9231067, -27.4599867 ], [ -53.9231026, -27.4599384 ], [ -53.9229725, -27.4582576 ], [ -53.92297, -27.4581809 ], [ -53.9229553, -27.4580053 ], [ -53.9229293, -27.4577089 ], [ -53.9228852, -27.4572891 ], [ -53.9228531, -27.4570517 ], [ -53.9227814, -27.4566388 ], [ -53.9227576, -27.4565859 ], [ -53.9227063, -27.456532 ], [ -53.9224904, -27.4564242 ], [ -53.9218284, -27.4560985 ], [ -53.9214556, -27.4559124 ], [ -53.9208267, -27.4555932 ], [ -53.9205954, -27.4554832 ], [ -53.920319, -27.4553488 ], [ -53.9192802, -27.4548474 ], [ -53.9184509, -27.4547268 ], [ -53.9177027, -27.4545964 ], [ -53.9174162, -27.4545463 ], [ -53.9166297, -27.4544025 ], [ -53.9165142, -27.4544101 ], [ -53.9156681, -27.4545963 ] ] ] } },
{ "type": "Feature", "properties": { "name": "Pindorama", "code_muni": 4321907.0, "name_muni": "Três Passos" }, "geometry": { "type": "Polygon", "coordinates": [ [ [ -53.917901, -27.4609297 ], [ -53.9176705, -27.4609115 ], [ -53.9171112, -27.4608674 ], [ -53.9168899, -27.4608287 ], [ -53.9164587, -27.460699 ], [ -53.9159893, -27.4605978 ], [ -53.9157117, -27.4605693 ], [ -53.9154462, -27.4605479 ], [ -53.9149057, -27.4605056 ], [ -53.9146431, -27.4604639 ], [ -53.9142861, -27.4603878 ], [ -53.9138987, -27.4603368 ], [ -53.9136055, -27.4603003 ], [ -53.9126544, -27.4679711 ], [ -53.9188519, -27.4735354 ], [ -53.9191563, -27.4735853 ], [ -53.9213812, -27.4735663 ], [ -53.9223093, -27.4731998 ], [ -53.9266974, -27.4695873 ], [ -53.9266569, -27.4694653 ], [ -53.9265458, -27.4677156 ], [ -53.9265767, -27.4674015 ], [ -53.92657, -27.4668505 ], [ -53.9265417, -27.4667374 ], [ -53.9264411, -27.4663357 ], [ -53.9262922, -27.4657658 ], [ -53.9262695, -27.4656389 ], [ -53.9261742, -27.4649882 ], [ -53.9260736, -27.4644862 ], [ -53.9258057, -27.4632447 ], [ -53.9257878, -27.4631549 ], [ -53.9254166, -27.4629258 ], [ -53.9249944, -27.4626644 ], [ -53.9245419, -27.4623925 ], [ -53.9245017, -27.4623696 ], [ -53.9245478, -27.4622394 ], [ -53.9245664, -27.462024 ], [ -53.9246484, -27.460886 ], [ -53.9245985, -27.460886399999989 ], [ -53.9245422, -27.4608876 ], [ -53.9244832, -27.4608876 ], [ -53.9232774, -27.4608632 ], [ -53.9232306, -27.4608616 ], [ -53.9231657, -27.4608612 ], [ -53.9231713, -27.460950499999988 ], [ -53.9232101, -27.4615999 ], [ -53.923232, -27.4619864 ], [ -53.923211, -27.4622124 ], [ -53.9231438, -27.4625013 ], [ -53.9229987, -27.4629221 ], [ -53.92285, -27.4633614 ], [ -53.9227411, -27.4637354 ], [ -53.9216441, -27.4629143 ], [ -53.920653, -27.4621815 ], [ -53.9190611, -27.4611018 ], [ -53.9189209, -27.461026 ], [ -53.917901, -27.4609297 ] ] ] } },
{ "type": "Feature", "properties": { "name": "Bela Vista", "code_muni": 4321907.0, "name_muni": "Três Passos" }, "geometry": { "type": "Polygon", "coordinates": [ [ [ -53.9056206, -27.4795583 ], [ -53.9033997, -27.4779877 ], [ -53.9019942, -27.477645 ], [ -53.9006531, -27.4782162 ], [ -53.8998914, -27.4787777 ], [ -53.8986576, -27.4790371 ], [ -53.8978636, -27.4822472 ], [ -53.8970751, -27.4837367 ], [ -53.8958788, -27.485340499999989 ], [ -53.89609990000001, -27.4855241 ], [ -53.8953285, -27.4863776 ], [ -53.8955217, -27.4868188 ], [ -53.8956956, -27.4869674 ], [ -53.8957223, -27.4870136 ], [ -53.89574, -27.487063 ], [ -53.8957434, -27.487118899999988 ], [ -53.8961213, -27.4869114 ], [ -53.8974431, -27.4862544 ], [ -53.8980101, -27.485975 ], [ -53.9000237, -27.4849855 ], [ -53.9011317, -27.4844123 ], [ -53.9022233, -27.4837954 ], [ -53.9030495, -27.4832876 ], [ -53.9038372, -27.4827767 ], [ -53.9041598, -27.4825749 ], [ -53.905538, -27.4817016 ], [ -53.9065108, -27.4811188 ], [ -53.906908, -27.4808808 ], [ -53.906902, -27.4807388 ], [ -53.9068957, -27.4803107 ], [ -53.9068351, -27.4798132 ], [ -53.9068866, -27.4790966 ], [ -53.9056206, -27.4795583 ] ] ] } }
]
}
