{
"type": "FeatureCollection",
"name": "bairros_sao_jose_do_herval",
"crs": { "type": "name", "properties": { "name": "urn:ogc:def:crs:OGC:1.3:CRS84" } },
"features": [
{ "type": "Feature", "properties": { "code_muni": 4318465.0, "name_muni": "São José do Herval", "code_state": 43.0, "abbrev_state": "RS", "name_state": "Rio Grande do Sul", "code_region": 4.0, "name_region": "Sul", "year": 2022.0 }, "geometry": { "type": "Polygon", "coordinates": [ [ [ -52.335885111, -29.05726734 ], [ -52.33810554, -29.053030959000012 ], [ -52.337360318, -29.049682435 ], [ -52.334655085, -29.049006679999895 ], [ -52.334939914999893, -29.046105687 ], [ -52.337822554, -29.044934473999902 ], [ -52.335882789, -29.038029797 ], [ -52.336913014999901, -29.035252580999988 ], [ -52.335880206999896, -29.034287252 ], [ -52.334566380999902, -29.035222613 ], [ -52.3330784199999, -29.0322337859999 ], [ -52.333814559, -29.03057236 ], [ -52.32975024, -29.030870087 ], [ -52.33358605, -29.022298828 ], [ -52.331983094999899, -29.0223889919999 ], [ -52.330204537, -29.020057715 ], [ -52.328675411999903, -29.02244983 ], [ -52.327815863999895, -29.0198548299999 ], [ -52.324400689, -29.0185665989999 ], [ -52.322675938, -29.015206685999896 ], [ -52.320158533, -29.018842888999984 ], [ -52.317388434, -29.019184385999896 ], [ -52.31611322, -29.01552694 ], [ -52.314647749, -29.014868137 ], [ -52.312157882, -29.015405173 ], [ -52.311664761, -29.017006387 ], [ -52.311093050999894, -29.015234845999899 ], [ -52.306931243999891, -29.013485787 ], [ -52.30594494, -29.005358757 ], [ -52.303685682, -29.00379142 ], [ -52.298491085, -29.005097760999899 ], [ -52.297225586, -29.010537166999896 ], [ -52.2876681179999, -29.014755385999901 ], [ -52.286073581, -29.021178178 ], [ -52.23547157, -29.034800315 ], [ -52.229576676125291, -29.034963083897594 ], [ -52.226144666215802, -29.037488691189903 ], [ -52.228137046968492, -29.040707575483886 ], [ -52.22688744336039, -29.041888978894992 ], [ -52.2212400270543, -29.041761378526601 ], [ -52.215589448238809, -29.039472134416602 ], [ -52.215382235140694, -29.046579117437304 ], [ -52.221231227028802, -29.047842196084101 ], [ -52.222775631488098, -29.049861801915501 ], [ -52.218644019558596, -29.053672212917505 ], [ -52.213245203970303, -29.049435000683097 ], [ -52.209182617240195, -29.050697529328705 ], [ -52.210382995705992, -29.054873416385796 ], [ -52.209810994054493, -29.062142237373603 ], [ -52.213516629753997, -29.064139568140693 ], [ -52.215228234696099, -29.061789961356602 ], [ -52.217366640870402, -29.061671161013493 ], [ -52.22377897188499, -29.068147017211395 ], [ -52.212390226501697, -29.072517192330007 ], [ -52.204974417589398, -29.0723787294299 ], [ -52.207603012679307, -29.080468015286893 ], [ -52.211602624227602, -29.078413209353901 ], [ -52.22159505307939, -29.076648804259495 ], [ -52.214244420999897, -29.082366177 ], [ -52.207762788140499, -29.084181901010197 ], [ -52.206560209668297, -29.085752430544893 ], [ -52.210763596804995, -29.090346318809097 ], [ -52.212262626133295, -29.094574456017288 ], [ -52.224714137, -29.099831435999896 ], [ -52.246892870999893, -29.101982957 ], [ -52.251597156999892, -29.109834898 ], [ -52.252217491, -29.118724046999908 ], [ -52.255488570999894, -29.120288301999896 ], [ -52.264946133, -29.119146379 ], [ -52.268282297, -29.117574010999892 ], [ -52.269235662, -29.1188139399999 ], [ -52.271729488999895, -29.118696364999895 ], [ -52.281055847999895, -29.124928192 ], [ -52.28239282, -29.126719562999899 ], [ -52.281645716, -29.12857353 ], [ -52.283850397, -29.130409378 ], [ -52.287703482, -29.130577700999893 ], [ -52.288779474, -29.12927451 ], [ -52.290455420999898, -29.129658493 ], [ -52.287491694, -29.127916789 ], [ -52.284422280999898, -29.128646965 ], [ -52.283197765999901, -29.127814981 ], [ -52.286417136, -29.124857894999895 ], [ -52.289691832, -29.125500433999893 ], [ -52.289632218999891, -29.121216951 ], [ -52.291333341, -29.118703094 ], [ -52.289860110999903, -29.116759436999896 ], [ -52.294235321, -29.11439867 ], [ -52.291776022, -29.111875127 ], [ -52.292393031, -29.109791227 ], [ -52.294198711, -29.108832814 ], [ -52.294727095, -29.106511446999892 ], [ -52.296994057999896, -29.1068604559999 ], [ -52.297483026, -29.103995564999888 ], [ -52.302378646, -29.102433076 ], [ -52.305671935, -29.099833612999891 ], [ -52.30847374, -29.095049505 ], [ -52.312640443, -29.09543661 ], [ -52.312294173999902, -29.092857905 ], [ -52.314175422999902, -29.090131305999908 ], [ -52.310939015, -29.087076077999892 ], [ -52.313861, -29.084650313999905 ], [ -52.318789538, -29.084719354 ], [ -52.316325505999899, -29.081102046999899 ], [ -52.318518595999898, -29.077241839 ], [ -52.322738758, -29.0778376489999 ], [ -52.324234030999889, -29.069222184999898 ], [ -52.327390264, -29.068392893 ], [ -52.327179288000011, -29.064857947 ], [ -52.331557484, -29.063903055 ], [ -52.336568503, -29.059093387 ], [ -52.335885111, -29.05726734 ] ] ] } }
]
}
