{
"type": "FeatureCollection",
"name": "bairros_capivari_do_sul",
"crs": { "type": "name", "properties": { "name": "urn:ogc:def:crs:OGC:1.3:CRS84" } },
"features": [
{ "type": "Feature", "properties": { "code_muni": 4304671.0, "name_muni": "Capivari do Sul", "code_state": 43.0, "abbrev_state": "RS", "name_state": "Rio Grande do Sul", "code_region": 4.0, "name_region": "Sul", "year": 2022.0 }, "geometry": { "type": "Polygon", "coordinates": [ [ [ -50.528693281999892, -30.213393902999904 ], [ -50.529324776, -30.209262158999884 ], [ -50.534114121999899, -30.207123875999986 ], [ -50.535201996999895, -30.20353948 ], [ -50.537326919999892, -30.202943045 ], [ -50.541322537, -30.207793491 ], [ -50.543539021999898, -30.238244865 ], [ -50.542626344, -30.2523344109999 ], [ -50.544395436999899, -30.253200278 ], [ -50.545902634999898, -30.251245514999894 ], [ -50.549755483, -30.251710144999912 ], [ -50.54925767, -30.248973457 ], [ -50.552122687999891, -30.249920325999899 ], [ -50.553528614999891, -30.252017553 ], [ -50.560468789, -30.251681544999901 ], [ -50.568281202, -30.246591301 ], [ -50.568704547, -30.243385766999893 ], [ -50.570766244, -30.241158587 ], [ -50.573077435, -30.243026931999989 ], [ -50.572965489, -30.240145363 ], [ -50.577391094999896, -30.235355314999904 ], [ -50.577567324, -30.233989984999905 ], [ -50.575454968, -30.234002452999984 ], [ -50.575623387999897, -30.233162361 ], [ -50.581343268, -30.228437474 ], [ -50.580818495999893, -30.2245050719999 ], [ -50.585503358, -30.222010678999901 ], [ -50.586042659, -30.218405194999896 ], [ -50.59050546, -30.212547566999898 ], [ -50.592621278, -30.204437841 ], [ -50.595699195, -30.200567395999904 ], [ -50.595015068999899, -30.198922841 ], [ -50.596492337, -30.194944141999901 ], [ -50.601946372, -30.192231963 ], [ -50.598227848, -30.196015685 ], [ -50.604319236, -30.19564794 ], [ -50.607356183, -30.197670533 ], [ -50.6109557139999, -30.197742782 ], [ -50.612897588, -30.200013675 ], [ -50.617462409, -30.200207092 ], [ -50.620819581, -30.198406254 ], [ -50.621493730999894, -30.119873863 ], [ -50.622640554, -30.119730279 ], [ -50.631104826999902, -30.072999310999897 ], [ -50.635094523, -30.067852156999901 ], [ -50.63561515, -30.055477846 ], [ -50.639272492, -30.057860601999895 ], [ -50.645336052999895, -30.05875536 ], [ -50.645871958, -30.060820425 ], [ -50.653467771, -30.058672010999896 ], [ -50.658063873999907, -30.04672548 ], [ -50.651011330999893, -30.041724219999903 ], [ -50.456568299, -30.051718837 ], [ -50.418806479999894, -30.096537971 ], [ -50.415190455, -30.102825406 ], [ -50.394914137999891, -30.094112751 ], [ -50.385760567, -30.095087218999904 ], [ -50.383990901999894, -30.087738067 ], [ -50.378934906, -30.080813090999989 ], [ -50.366982041999989, -30.075898444 ], [ -50.364738244, -30.078739186 ], [ -50.369144573, -30.081690538 ], [ -50.372709395, -30.0887622 ], [ -50.374115500999892, -30.099419592999894 ], [ -50.377313676999989, -30.108026594 ], [ -50.374632123, -30.112547833 ], [ -50.380450273, -30.115461208999903 ], [ -50.387435717, -30.124554318 ], [ -50.387321240999903, -30.130998260999892 ], [ -50.381532869, -30.137731316999989 ], [ -50.386549677999895, -30.143326901 ], [ -50.388372101999892, -30.151669700999896 ], [ -50.393904577999891, -30.154769954999896 ], [ -50.394239157, -30.157892091 ], [ -50.398908365999894, -30.15750043 ], [ -50.380465902, -30.172991533999905 ], [ -50.376400895, -30.183195923 ], [ -50.368795661, -30.19055121 ], [ -50.363310438, -30.194445863999892 ], [ -50.356914399999901, -30.19676068 ], [ -50.362757266, -30.205550713 ], [ -50.380463683, -30.211100232 ], [ -50.390299582999894, -30.211061094999899 ], [ -50.4136959739999, -30.220556663 ], [ -50.412173783, -30.216258728999897 ], [ -50.412257505999889, -30.209892295 ], [ -50.418952894, -30.210829436 ], [ -50.437387085999895, -30.208639197 ], [ -50.436768749, -30.206826312 ], [ -50.447263203, -30.199783941 ], [ -50.451899235, -30.200189598 ], [ -50.452985519, -30.202548587 ], [ -50.4564535499999, -30.204265334999896 ], [ -50.47163539, -30.205101469999899 ], [ -50.477061627999902, -30.201654936 ], [ -50.480238121, -30.204711485 ], [ -50.48557951, -30.206240690999902 ], [ -50.491225977999896, -30.209833549999903 ], [ -50.503221493999902, -30.213645071999988 ], [ -50.510174221999897, -30.214531302999898 ], [ -50.52051912, -30.22139678 ], [ -50.524384902, -30.222048991000012 ], [ -50.525484773999892, -30.21754936 ], [ -50.528693281999892, -30.213393902999904 ] ] ] } }
]
}
