{
"type": "FeatureCollection",
"name": "bairros_dezesseis_de_novembro",
"crs": { "type": "name", "properties": { "name": "urn:ogc:def:crs:OGC:1.3:CRS84" } },
"features": [
{ "type": "Feature", "properties": { "code_muni": 4306353.0, "name_muni": "Dezesseis de Novembro", "code_state": 43.0, "abbrev_state": "RS", "name_state": "Rio Grande do Sul", "code_region": 4.0, "name_region": "Sul", "year": 2022.0 }, "geometry": { "type": "Polygon", "coordinates": [ [ [ -55.114459568, -28.261664396 ], [ -55.138290756999893, -28.253312708 ], [ -55.137004599, -28.237934856 ], [ -55.14328775, -28.2332828689999 ], [ -55.144025875, -28.230649381 ], [ -55.140371875, -28.222089676999889 ], [ -55.136026603999902, -28.219288280999898 ], [ -55.130766087, -28.209269153 ], [ -55.146246987, -28.186817431 ], [ -55.134999616999892, -28.169777871999901 ], [ -55.127208861, -28.16262789 ], [ -55.126391968999897, -28.160283986 ], [ -55.127636964, -28.159170213 ], [ -55.127608379, -28.155986734999892 ], [ -55.125445957, -28.152411811 ], [ -55.125374633, -28.147164261999901 ], [ -55.127044468999898, -28.142840871 ], [ -55.140167311, -28.135900778 ], [ -55.142499578, -28.130536935 ], [ -55.140657394, -28.123563819 ], [ -55.144338498, -28.118126974999893 ], [ -55.146702691, -28.118050592 ], [ -55.152004072, -28.11446082 ], [ -55.15271777800001, -28.111615291 ], [ -55.151716448999892, -28.109015074999906 ], [ -55.152752149, -28.105992947999887 ], [ -55.151511622, -28.105686336999987 ], [ -55.150218036, -28.101520063999896 ], [ -55.151947021999902, -28.0982838309999 ], [ -55.144963200999889, -28.097864043 ], [ -55.131260555, -28.089423892 ], [ -55.12765231, -28.083513614 ], [ -55.129869066, -28.075984852 ], [ -55.111801203, -28.076524843 ], [ -55.115564288, -28.083323306 ], [ -55.116367564, -28.093879549 ], [ -55.112136163999899, -28.099319932 ], [ -55.10302186, -28.096640771999901 ], [ -55.101319707999892, -28.097513853 ], [ -55.101789524, -28.105003285 ], [ -55.105691046999901, -28.111036823999903 ], [ -55.105690898, -28.114733771 ], [ -55.104108031, -28.117745484999901 ], [ -55.09515161, -28.124440407999899 ], [ -55.089072507, -28.126981123999901 ], [ -55.08612657, -28.126631443 ], [ -55.066855787, -28.111384444999889 ], [ -55.060583228, -28.111977259 ], [ -55.049892165, -28.117695531 ], [ -55.050337082999896, -28.122617085999906 ], [ -55.065460687, -28.133748329 ], [ -55.066885575999891, -28.143626684 ], [ -55.064754198999893, -28.146873325999891 ], [ -55.061129294, -28.148485333999897 ], [ -55.057018878999891, -28.148515662 ], [ -55.054323772, -28.146605861 ], [ -55.052684757, -28.141590056 ], [ -55.043855506999897, -28.136783658999899 ], [ -55.035934336, -28.137837712 ], [ -55.031213884999893, -28.141627919 ], [ -55.0307670299999, -28.145644462 ], [ -55.03725213300001, -28.15258003 ], [ -55.040004014, -28.162368979999901 ], [ -55.044997203, -28.171753547 ], [ -55.036247445, -28.179063314 ], [ -55.032446568999902, -28.179867269999903 ], [ -55.025310014, -28.176514258999905 ], [ -55.019832832, -28.183019048999906 ], [ -55.017927148999902, -28.192283901999897 ], [ -55.020936805, -28.198092567999904 ], [ -55.026037271, -28.199725665 ], [ -55.03215381, -28.205660759999898 ], [ -55.03616877, -28.216059624 ], [ -55.034340431, -28.220211210999896 ], [ -55.026333631999897, -28.229553037999903 ], [ -55.012217158999903, -28.234497046999898 ], [ -55.009628382, -28.238745069999901 ], [ -54.992537603, -28.249635955 ], [ -54.990779118, -28.259597927 ], [ -54.998024636, -28.265115755 ], [ -55.007929722, -28.269290883999897 ], [ -55.011682757, -28.274599985999906 ], [ -55.014627751, -28.275597696 ], [ -55.018177131999899, -28.280762853999903 ], [ -55.016805411999897, -28.287234096 ], [ -55.024156306, -28.293939741 ], [ -55.027719141, -28.295085 ], [ -55.037337088, -28.295101611 ], [ -55.040885853, -28.2992872 ], [ -55.043766794, -28.300517528999908 ], [ -55.049056714, -28.306396618999901 ], [ -55.051634587, -28.313169778 ], [ -55.056200904, -28.315470430999895 ], [ -55.056648173, -28.321930626 ], [ -55.060585072, -28.320871538999896 ], [ -55.07509907299989, -28.312476348 ], [ -55.078053144, -28.305007777 ], [ -55.077656816999891, -28.293501026999898 ], [ -55.080558152, -28.289354864 ], [ -55.101659959999893, -28.271883175 ], [ -55.106367295, -28.270044276 ], [ -55.114459568, -28.261664396 ] ] ] } }
]
}
