{
"type": "FeatureCollection",
"name": "bairros_sao_vicente_do_sul",
"crs": { "type": "name", "properties": { "name": "urn:ogc:def:crs:OGC:1.3:CRS84" } },
"features": [
{ "type": "Feature", "properties": { "code_muni": 4319802.0, "name_muni": "São Vicente do Sul", "code_state": 43.0, "abbrev_state": "RS", "name_state": "Rio Grande do Sul", "code_region": 4.0, "name_region": "Sul", "year": 2022.0 }, "geometry": { "type": "Polygon", "coordinates": [ [ [ -54.471950209999896, -29.665755638 ], [ -54.472128223, -29.674687414999909 ], [ -54.468194147, -29.6752926569999 ], [ -54.467873724, -29.676431937 ], [ -54.47493192, -29.6815943 ], [ -54.474753907, -29.687112686999985 ], [ -54.476186907999903, -29.690187852999898 ], [ -54.473908348, -29.692377407 ], [ -54.475439255, -29.694976389 ], [ -54.476614137999896, -29.695332413999903 ], [ -54.478999504999898, -29.693231867 ], [ -54.480868637, -29.693676898 ], [ -54.4821503269999, -29.700517028 ], [ -54.485692775, -29.702955800000012 ], [ -54.47570627399989, -29.7065205 ], [ -54.474299975, -29.711237830999899 ], [ -54.484001657, -29.718149165999911 ], [ -54.487472899999901, -29.7172057 ], [ -54.488979470999901, -29.713943320999903 ], [ -54.494789214, -29.716155425999901 ], [ -54.495198643, -29.711549353 ], [ -54.497957836, -29.712265853 ], [ -54.50157148999989, -29.71620883 ], [ -54.497441599999902, -29.716867475999905 ], [ -54.499413089, -29.720970665 ], [ -54.496992119, -29.7229110009999 ], [ -54.496978768, -29.725082753 ], [ -54.493013538999897, -29.7250427 ], [ -54.490467961, -29.728157919 ], [ -54.495826136999902, -29.7320741939999 ], [ -54.4971256279999, -29.735247267 ], [ -54.496377976, -29.738629504 ], [ -54.498193703, -29.7372855099999 ], [ -54.499208374, -29.73813997 ], [ -54.496072047, -29.740468049999905 ], [ -54.497445302999893, -29.742968324999897 ], [ -54.49440943, -29.746017793 ], [ -54.49298665, -29.745016608999894 ], [ -54.493249406, -29.742532427999905 ], [ -54.491989966999896, -29.742532427999905 ], [ -54.492186277, -29.749526535 ], [ -54.49487822, -29.750400581 ], [ -54.503102398, -29.747134052 ], [ -54.504797835, -29.750659455999902 ], [ -54.511774735999893, -29.752329834 ], [ -54.513762207, -29.754640405 ], [ -54.518511785, -29.752738077999904 ], [ -54.519921850999893, -29.754565788 ], [ -54.516917597, -29.757695521999899 ], [ -54.521576412999892, -29.760901841 ], [ -54.528644982999893, -29.760363029 ], [ -54.530046599999899, -29.757744545 ], [ -54.531484554, -29.763819435999892 ], [ -54.529137463, -29.766822541 ], [ -54.531570740999896, -29.770227346999903 ], [ -54.535109243, -29.770797785999903 ], [ -54.536713602, -29.774104548 ], [ -54.54262299, -29.776279345 ], [ -54.546170405999895, -29.779835674 ], [ -54.552596754, -29.778195663 ], [ -54.553176106, -29.779782194999893 ], [ -54.551072613, -29.782661128000012 ], [ -54.553497998, -29.781841112999899 ], [ -54.5552528589999, -29.778855232 ], [ -54.556509607, -29.779095885999894 ], [ -54.559566801999893, -29.784497227 ], [ -54.555555904999899, -29.787153331999892 ], [ -54.555894603, -29.789684654 ], [ -54.564201615999892, -29.793321201 ], [ -54.565039447999901, -29.797956015 ], [ -54.575904766, -29.800198001 ], [ -54.575146908, -29.804208558 ], [ -54.570279222999901, -29.803533242 ], [ -54.571261733, -29.806850222 ], [ -54.570226055, -29.80785177 ], [ -54.56843534, -29.807464068999902 ], [ -54.567731205, -29.805021877999891 ], [ -54.565473905, -29.805487480999904 ], [ -54.567275938, -29.810388105 ], [ -54.570538832999894, -29.810285066999896 ], [ -54.572036235, -29.811673282999898 ], [ -54.5755123449999, -29.811156323 ], [ -54.578471496, -29.814783955999903 ], [ -54.581840649, -29.814168951999907 ], [ -54.587438079, -29.815274176999903 ], [ -54.593724801, -29.820192437999903 ], [ -54.598818510999898, -29.82145159 ], [ -54.606661040999903, -29.816730762 ], [ -54.606291607999893, -29.814481093 ], [ -54.601253390999901, -29.812359592 ], [ -54.602162527, -29.809560877 ], [ -54.604515587, -29.808544782999896 ], [ -54.608722572, -29.81203872 ], [ -54.615105112, -29.809216582 ], [ -54.6174217619999, -29.809574246999901 ], [ -54.619846126, -29.815474722 ], [ -54.624221717999902, -29.814479767 ], [ -54.626557694, -29.811053822 ], [ -54.629533723999899, -29.814364704999893 ], [ -54.634531942, -29.814907736999903 ], [ -54.640065884, -29.817391982999897 ], [ -54.642458671999989, -29.81529646 ], [ -54.640324455, -29.811622854999889 ], [ -54.643255951999897, -29.810380268 ], [ -54.645560433, -29.805897591 ], [ -54.655008629, -29.807404748 ], [ -54.657294534999899, -29.811945131999899 ], [ -54.666020562, -29.808908319999897 ], [ -54.671689198, -29.810155827 ], [ -54.675702231999892, -29.807920082999907 ], [ -54.678538870999894, -29.808678013 ], [ -54.680965613999902, -29.81170293 ], [ -54.683347539, -29.812023122 ], [ -54.687010825, -29.808620544 ], [ -54.689889756999897, -29.814605694 ], [ -54.696628064, -29.81771636699991 ], [ -54.697742202, -29.824619566999985 ], [ -54.702224140999895, -29.826181289 ], [ -54.704306932, -29.829555871 ], [ -54.706967264999896, -29.829325685999901 ], [ -54.710461202, -29.825983272 ], [ -54.711905125, -29.826865669 ], [ -54.712564142, -29.830479764 ], [ -54.720138538999898, -29.828856340999895 ], [ -54.720212138, -29.824699785 ], [ -54.723561147999895, -29.823936047 ], [ -54.724466720999899, -29.825912393 ], [ -54.721642758, -29.829941651 ], [ -54.723238626, -29.831304949 ], [ -54.727780663, -29.825829913999904 ], [ -54.73336117, -29.826221577 ], [ -54.736032899, -29.823327166999899 ], [ -54.738141361, -29.824552879 ], [ -54.736222869, -29.829053143 ], [ -54.737102471, -29.831019176 ], [ -54.741639241, -29.831429178 ], [ -54.745005229, -29.833189902 ], [ -54.746791016, -29.83252549 ], [ -54.747135974999892, -29.828833545 ], [ -54.753928263, -29.829930068 ], [ -54.755580672999898, -29.826170734 ], [ -54.760779473, -29.829608849 ], [ -54.761590027999901, -29.832852134999904 ], [ -54.764186442, -29.8339999 ], [ -54.768463595999897, -29.834070747999899 ], [ -54.77404101, -29.831782901999908 ], [ -54.775726928, -29.828482282 ], [ -54.779560043999894, -29.829717861999899 ], [ -54.789284241, -29.829815907 ], [ -54.792654963, -29.833513575 ], [ -54.801245627, -29.838539607 ], [ -54.80818393, -29.840155024999895 ], [ -54.809730902, -29.8455185679999 ], [ -54.813955714, -29.844555952999894 ], [ -54.822663817, -29.847947389 ], [ -54.824312741, -29.846565858 ], [ -54.824682827999894, -29.842558401 ], [ -54.827789880999894, -29.841917373999902 ], [ -54.826101765, -29.846356649 ], [ -54.826590709999891, -29.849618947999893 ], [ -54.833190193, -29.856209836999902 ], [ -54.835338250999889, -29.855407656999898 ], [ -54.837432830999902, -29.849542835 ], [ -54.843110478, -29.849970664 ], [ -54.84594121, -29.845000250999892 ], [ -54.850507493, -29.843146213 ], [ -54.85114722, -29.841270976 ], [ -54.848779212, -29.838793630999898 ], [ -54.849135737, -29.837527969999901 ], [ -54.8574516629999, -29.837474491 ], [ -54.862647374999895, -29.830152172999895 ], [ -54.868864964999901, -29.828752325 ], [ -54.869387144, -29.826624668 ], [ -54.8668190819999, -29.823546941 ], [ -54.872617336, -29.8209845599999 ], [ -54.874175643999891, -29.813528323 ], [ -54.878803005, -29.811933990999904 ], [ -54.877890212, -29.805669267999988 ], [ -54.882824959999901, -29.807000776999896 ], [ -54.887421976, -29.806675259 ], [ -54.90313350799989, -29.81169847 ], [ -54.909384632, -29.809535366 ], [ -54.909245977999895, -29.80681476 ], [ -54.906687265999892, -29.804534912 ], [ -54.906780679999891, -29.801515195 ], [ -54.908291461, -29.800514291 ], [ -54.912301987, -29.803005730999899 ], [ -54.912281585, -29.810209212 ], [ -54.918870840999894, -29.810369431 ], [ -54.920946571999892, -29.802860001999903 ], [ -54.9206143769999, -29.795988447 ], [ -54.924286576, -29.787788390999896 ], [ -54.928875955, -29.784021357 ], [ -54.936712822999894, -29.782174067 ], [ -54.949191535, -29.785845645999892 ], [ -54.958085067999896, -29.777787888 ], [ -54.967397405, -29.776705649 ], [ -54.982195014999895, -29.780640080999891 ], [ -55.007632048999895, -29.779013565999897 ], [ -55.015004435, -29.781873123 ], [ -55.039660547, -29.784849376999894 ], [ -55.04412257500001, -29.783642471 ], [ -55.05051130399989, -29.778862693 ], [ -55.053789412, -29.774344254 ], [ -55.055559987, -29.76713275 ], [ -55.061364947999891, -29.76384561 ], [ -55.06705840099989, -29.764129965999892 ], [ -55.068984289, -29.766114749999904 ], [ -55.070461107, -29.776667545 ], [ -55.073767743, -29.779014719 ], [ -55.077647396, -29.779376263 ], [ -55.0837331, -29.776967882000012 ], [ -55.090613619, -29.777794109999899 ], [ -55.095392894, -29.776985426999904 ], [ -55.098441256999891, -29.773420847 ], [ -55.09795415699989, -29.769218883999901 ], [ -55.08397142, -29.765427889 ], [ -55.079500631, -29.761870523 ], [ -55.080890113, -29.757637686999903 ], [ -55.087012853, -29.755263813999896 ], [ -55.090674725, -29.754863908999901 ], [ -55.097987852, -29.756439954 ], [ -55.112467195, -29.764680752999901 ], [ -55.121739418999894, -29.766961237 ], [ -55.131649949, -29.765184758 ], [ -55.135928239999906, -29.761298645 ], [ -55.135429105999897, -29.757127312000012 ], [ -55.127656879, -29.751743797 ], [ -55.126409044, -29.74916791 ], [ -55.12694383, -29.730370173 ], [ -55.129082975, -29.719603143 ], [ -55.1241985939999, -29.703541728999905 ], [ -55.126159476999902, -29.697694731999896 ], [ -55.128904712999898, -29.69633994 ], [ -55.139671743, -29.696464724 ], [ -55.144056991, -29.695074279000011 ], [ -55.141494690999899, -29.693640081 ], [ -55.138101696, -29.693388749 ], [ -55.133420621, -29.695085246000012 ], [ -55.131347123999902, -29.693797165 ], [ -55.131535624, -29.691189585 ], [ -55.134174619, -29.688362089999899 ], [ -55.134017535999895, -29.685974427 ], [ -55.127828463, -29.684654929 ], [ -55.126383298, -29.683021265 ], [ -55.128837179999898, -29.679635329999893 ], [ -55.133502182, -29.678709452 ], [ -55.134036342999899, -29.67625231300001 ], [ -55.132255808, -29.673688341999899 ], [ -55.126558095, -29.675219603 ], [ -55.124991224, -29.67005605 ], [ -55.120255, -29.669085659 ], [ -55.124243399, -29.664705542 ], [ -55.124884392, -29.6615361889999 ], [ -55.118688129, -29.657405347999902 ], [ -55.102592091, -29.658402447 ], [ -55.095078231999899, -29.661037638999989 ], [ -55.093297697, -29.658580501 ], [ -55.094544072, -29.648965610999902 ], [ -55.091980100999898, -29.647291907 ], [ -55.088240976999892, -29.647096049 ], [ -55.074904768, -29.658776359999898 ], [ -55.076970189, -29.672290621999899 ], [ -55.071913469, -29.675281921 ], [ -55.072055911999897, -29.68026742 ], [ -55.063046403, -29.682840293 ], [ -55.061515143, -29.684763271 ], [ -55.061586363999893, -29.688609227 ], [ -55.063509342, -29.690781479999906 ], [ -55.0627971279999, -29.693915221999902 ], [ -55.059770218, -29.693986444000011 ], [ -55.055603765999898, -29.691921023 ], [ -55.053075405999891, -29.692526405 ], [ -55.049801276, -29.695114542999903 ], [ -55.049498467, -29.698694814 ], [ -55.045081018, -29.702960859 ], [ -55.03934545899989, -29.706109182 ], [ -55.031009304999898, -29.705378878 ], [ -55.024632992, -29.706758981 ], [ -55.02074941099989, -29.706224543 ], [ -55.015422848, -29.707525007999902 ], [ -55.0104169479999, -29.710606932 ], [ -55.003914622, -29.709965607 ], [ -54.993208051999893, -29.705877158 ], [ -54.988683146, -29.699695495 ], [ -54.982554926, -29.702394405999907 ], [ -54.978172537, -29.701521490999905 ], [ -54.977424324, -29.698902745999895 ], [ -54.980915984, -29.694204146999901 ], [ -54.979864923, -29.691906065 ], [ -54.973825776999895, -29.695486797999894 ], [ -54.9633864259999, -29.696471054 ], [ -54.9504495199999, -29.686836335999903 ], [ -54.943362352, -29.676285714999899 ], [ -54.938394210999896, -29.677140447999893 ], [ -54.933800016, -29.680879908999902 ], [ -54.932268618, -29.673294145999893 ], [ -54.923952769, -29.662917142 ], [ -54.916545074999902, -29.662685651999894 ], [ -54.906911512, -29.668045546 ], [ -54.894072697, -29.663794134999893 ], [ -54.883246067, -29.663455803 ], [ -54.879043625999898, -29.664729 ], [ -54.870549707, -29.670124508 ], [ -54.864976129999896, -29.670747751 ], [ -54.859224482999899, -29.669002669 ], [ -54.855378180999892, -29.662966110999907 ], [ -54.855342567, -29.656996329 ], [ -54.854007044999896, -29.656568961999898 ], [ -54.849074518, -29.661430261 ], [ -54.836360350999897, -29.665962131999901 ], [ -54.832668618999897, -29.666146152999897 ], [ -54.825370106, -29.656885052 ], [ -54.827292641, -29.643956895 ], [ -54.826420379999895, -29.639960513999903 ], [ -54.823843649, -29.636800792 ], [ -54.81973156, -29.635074071 ], [ -54.816536235999891, -29.638207091 ], [ -54.813910552, -29.638712201 ], [ -54.810279097, -29.6337278519999 ], [ -54.805775379999901, -29.63156945 ], [ -54.804351279999899, -29.626852119 ], [ -54.799998875, -29.622780083 ], [ -54.798000683999902, -29.623817006 ], [ -54.797982883, -29.628302920999904 ], [ -54.794461676, -29.629554567999893 ], [ -54.778330303, -29.621556246999901 ], [ -54.775553308, -29.618352022 ], [ -54.777831868, -29.613576837 ], [ -54.776336563, -29.61092445000001 ], [ -54.767275727, -29.6101589969999 ], [ -54.763270446, -29.613327619 ], [ -54.754387622, -29.612815833 ], [ -54.754476629, -29.608899558 ], [ -54.75150382, -29.603314415999897 ], [ -54.74381368, -29.600056787 ], [ -54.7438848849999, -29.596420882 ], [ -54.747845663, -29.595317205 ], [ -54.748967142, -29.593278961 ], [ -54.746617377, -29.590206021 ], [ -54.736052335, -29.589431665999893 ], [ -54.727489933999891, -29.594740889 ], [ -54.720663154, -29.594182374999892 ], [ -54.718055271, -29.589901174 ], [ -54.710320628, -29.589556274999911 ], [ -54.706270844, -29.588423670999894 ], [ -54.703867675, -29.585637775 ], [ -54.701580215, -29.585693404 ], [ -54.69795321, -29.581455594 ], [ -54.696935201, -29.576165284999892 ], [ -54.683103629999898, -29.569200545999905 ], [ -54.683804553999899, -29.566997640999901 ], [ -54.682379079, -29.566890142 ], [ -54.682051131, -29.565003901 ], [ -54.67635473099989, -29.565715951 ], [ -54.672458482, -29.562123436 ], [ -54.666318164, -29.562355964999888 ], [ -54.663914995, -29.560388927 ], [ -54.658552368, -29.560880687 ], [ -54.657671207, -29.562890002999897 ], [ -54.654687271999897, -29.563653230999901 ], [ -54.649834326, -29.568472394 ], [ -54.644968902, -29.568116894999893 ], [ -54.642695905, -29.570026078999902 ], [ -54.637776085, -29.571209861999904 ], [ -54.636519984, -29.5728770599999 ], [ -54.632859601999897, -29.572769696000012 ], [ -54.627355122, -29.550541498 ], [ -54.622255063999894, -29.547194863 ], [ -54.611111481, -29.544902952 ], [ -54.607088399, -29.542789054 ], [ -54.603127620999899, -29.541892316 ], [ -54.600457433, -29.543102801 ], [ -54.59317227199989, -29.537858108 ], [ -54.591369895, -29.53251217 ], [ -54.587346813, -29.5287427549999 ], [ -54.583265876, -29.53101464 ], [ -54.5817705709999, -29.534520373 ], [ -54.578013950999903, -29.535223523 ], [ -54.572854709999902, -29.533626763 ], [ -54.569377409, -29.53089533 ], [ -54.569785934, -29.540194685 ], [ -54.567218066999892, -29.542761600999892 ], [ -54.560237798999893, -29.539414776999902 ], [ -54.556494625, -29.542982792 ], [ -54.554189463999897, -29.541972104 ], [ -54.549272114, -29.542830022 ], [ -54.542872793999891, -29.548373325999901 ], [ -54.542690494999903, -29.55043576 ], [ -54.551843130999892, -29.566970134 ], [ -54.561805965, -29.568765192999908 ], [ -54.565469021, -29.56759828 ], [ -54.568391705, -29.568529538 ], [ -54.570648897, -29.572160273 ], [ -54.572882510999897, -29.582264026 ], [ -54.571771947999899, -29.584762793 ], [ -54.568212856999892, -29.584923264999905 ], [ -54.566071971, -29.587890998 ], [ -54.564062404, -29.588427469 ], [ -54.566378756999896, -29.592090127999896 ], [ -54.5630141729999, -29.598159208 ], [ -54.561423445999893, -29.598325440999901 ], [ -54.558879283, -29.601618367999897 ], [ -54.554264315, -29.601613667 ], [ -54.550001768, -29.604199611999892 ], [ -54.542991241, -29.603629794 ], [ -54.541839582, -29.605149958 ], [ -54.5426399259999, -29.608539231999895 ], [ -54.539549435, -29.611316422999895 ], [ -54.53689013, -29.611081591 ], [ -54.534483721, -29.6132939 ], [ -54.532175776, -29.612511961999903 ], [ -54.525871486, -29.614186758 ], [ -54.521688089999905, -29.618740623999901 ], [ -54.514719350999897, -29.622505149999899 ], [ -54.511818894, -29.628527285 ], [ -54.503642, -29.627853 ], [ -54.496444885, -29.633357374 ], [ -54.4912884519999, -29.633589005 ], [ -54.492274632, -29.637336385 ], [ -54.490827330999892, -29.637103829999898 ], [ -54.489273091, -29.638914479999986 ], [ -54.489918764, -29.640014405999985 ], [ -54.486297607, -29.639527476999898 ], [ -54.48397460199989, -29.643657016 ], [ -54.478918808999893, -29.646348701 ], [ -54.479163414, -29.647474538 ], [ -54.477888848, -29.647672574999905 ], [ -54.47878589, -29.651461234 ], [ -54.471389471, -29.652331269999902 ], [ -54.46952924, -29.651341075999891 ], [ -54.464268971, -29.655648977999903 ], [ -54.463770536, -29.659814470999898 ], [ -54.471950209999896, -29.665755638 ] ] ] } }
]
}
