{
"type": "FeatureCollection",
"name": "bairros_barao_de_cotegipe",
"crs": { "type": "name", "properties": { "name": "urn:ogc:def:crs:OGC:1.3:CRS84" } },
"features": [
{ "type": "Feature", "properties": { "code_muni": 4301701.0, "name_muni": "Barão de Cotegipe", "code_state": 43.0, "abbrev_state": "RS", "name_state": "Rio Grande do Sul", "code_region": 4.0, "name_region": "Sul", "year": 2022.0 }, "geometry": { "type": "Polygon", "coordinates": [ [ [ -52.44725597, -27.662753935 ], [ -52.4470879, -27.650886928 ], [ -52.445083849999889, -27.651415730999904 ], [ -52.445025624, -27.631382986999899 ], [ -52.465299461, -27.631411135 ], [ -52.465360960999902, -27.6108707 ], [ -52.477144338999892, -27.610956261 ], [ -52.4773947589999, -27.584998020999905 ], [ -52.479742078, -27.582980158999902 ], [ -52.479607465999898, -27.561228354 ], [ -52.487531721, -27.560917828999909 ], [ -52.484463225999896, -27.558643227999905 ], [ -52.482645916, -27.554123909999902 ], [ -52.480850389, -27.553476336999896 ], [ -52.481284006, -27.551472679 ], [ -52.4787023109999, -27.548948843999895 ], [ -52.476454417, -27.549025279 ], [ -52.477857716, -27.546020839999986 ], [ -52.500423462999898, -27.544398408999903 ], [ -52.502959530999902, -27.542475072999896 ], [ -52.506424051, -27.531259444999897 ], [ -52.511391308, -27.52761436 ], [ -52.512164953, -27.53030504 ], [ -52.526867366, -27.530247706999898 ], [ -52.526858088, -27.506713987 ], [ -52.510290813, -27.506663037 ], [ -52.51174328, -27.503426843999893 ], [ -52.507300205, -27.501690236999895 ], [ -52.507502916, -27.497092705999901 ], [ -52.508698524, -27.495864916 ], [ -52.516093138, -27.495297021999903 ], [ -52.514783909, -27.491650563 ], [ -52.512411087, -27.492903729 ], [ -52.511366274999894, -27.492105791 ], [ -52.511978454, -27.486693368 ], [ -52.5003533289999, -27.4897247329999 ], [ -52.497124471999904, -27.488350968 ], [ -52.492829543, -27.488503035999901 ], [ -52.491357047, -27.487021827 ], [ -52.485430529, -27.486679588999891 ], [ -52.474666683999892, -27.490238754 ], [ -52.472424304, -27.492274904999896 ], [ -52.462237543, -27.49290801 ], [ -52.458894831999899, -27.490507161 ], [ -52.455943499999897, -27.490093712 ], [ -52.447023454, -27.494434435 ], [ -52.434566132, -27.495004745999896 ], [ -52.428729642, -27.489708490999895 ], [ -52.427104546, -27.4897903909999 ], [ -52.425476805999899, -27.487075548999908 ], [ -52.426228621999904, -27.481568658999901 ], [ -52.415057741999895, -27.481321497 ], [ -52.415117239, -27.477979795999904 ], [ -52.407588825999902, -27.478075378 ], [ -52.406797129, -27.480620103 ], [ -52.400935734, -27.480608829999902 ], [ -52.399076175999895, -27.479034574 ], [ -52.374295994, -27.493749215 ], [ -52.374361017999895, -27.4974682 ], [ -52.372994801999894, -27.499388409999892 ], [ -52.368018621, -27.498517008 ], [ -52.363569249, -27.500729572999894 ], [ -52.355041812, -27.497966237 ], [ -52.350773762, -27.497982888 ], [ -52.348880849999901, -27.509461003999895 ], [ -52.344154418, -27.50935793 ], [ -52.343997298, -27.527615963 ], [ -52.349141542, -27.527655458 ], [ -52.349124813999907, -27.560195338 ], [ -52.3439802, -27.560214432999899 ], [ -52.342195612, -27.660973027999901 ], [ -52.393551379, -27.662086412999901 ], [ -52.39360563199989, -27.659196065999907 ], [ -52.395590653999896, -27.658388886999905 ], [ -52.40351952, -27.661774769 ], [ -52.408704211, -27.661274024 ], [ -52.409493102999903, -27.663077354999903 ], [ -52.44725597, -27.662753935 ] ] ] } }
]
}
