{
"type": "FeatureCollection",
"name": "bairros_agudo",
"crs": { "type": "name", "properties": { "name": "urn:ogc:def:crs:OGC:1.3:CRS84" } },
"features": [
{ "type": "Feature", "properties": { "code_muni": 4300109.0, "name_muni": "Agudo", "code_state": 43.0, "abbrev_state": "RS", "name_state": "Rio Grande do Sul", "code_region": 4.0, "name_region": "Sul", "year": 2022.0 }, "geometry": { "type": "Polygon", "coordinates": [ [ [ -53.267021907999897, -29.782229453999904 ], [ -53.271127363999895, -29.781530152999895 ], [ -53.279868904999894, -29.784478814999908 ], [ -53.289636969, -29.785726052 ], [ -53.290966812, -29.78469152199991 ], [ -53.291081592, -29.779662984 ], [ -53.289178503, -29.776191103 ], [ -53.283783813, -29.77268241 ], [ -53.28432498, -29.765311665999896 ], [ -53.282506929, -29.760891216999902 ], [ -53.273424072999894, -29.756694733 ], [ -53.271541817999896, -29.752047784999906 ], [ -53.2678895, -29.748780539999888 ], [ -53.258882979, -29.748795132999902 ], [ -53.253882323, -29.746486589 ], [ -53.254929064, -29.737240755999895 ], [ -53.253932106, -29.729508257 ], [ -53.257074404, -29.727616015 ], [ -53.26640087, -29.729488612999901 ], [ -53.274090204999901, -29.723191882 ], [ -53.278975665, -29.722577945999891 ], [ -53.280711966999895, -29.723859162999904 ], [ -53.283707477, -29.733088632000012 ], [ -53.285486928999894, -29.734262222 ], [ -53.289178987, -29.7332797729999 ], [ -53.29133473799989, -29.730012571 ], [ -53.285794489999894, -29.714456751999901 ], [ -53.285470029, -29.704426751 ], [ -53.286872197, -29.699826621999893 ], [ -53.283138443, -29.69747152 ], [ -53.281554250999896, -29.6920318529999 ], [ -53.282913634, -29.689062545999899 ], [ -53.28765802399991, -29.685583548999901 ], [ -53.294578269999903, -29.673326347999904 ], [ -53.298122331999892, -29.671059311 ], [ -53.302165273999897, -29.671596717999901 ], [ -53.303690537, -29.682576202 ], [ -53.307191428, -29.684779585999902 ], [ -53.3122019159999, -29.685611539 ], [ -53.31759812, -29.683732512999892 ], [ -53.325135598, -29.676338912999892 ], [ -53.33014489, -29.67346105 ], [ -53.337016299, -29.67230985 ], [ -53.34611180799989, -29.673011586 ], [ -53.351929895999895, -29.671506188 ], [ -53.355369399, -29.668218909 ], [ -53.35994943, -29.653325227 ], [ -53.351135317999891, -29.64465139 ], [ -53.350809954999896, -29.642078187 ], [ -53.354303549, -29.639140708 ], [ -53.360421058999989, -29.639682906 ], [ -53.3618942109999, -29.636720341999894 ], [ -53.358052239999893, -29.631355417999899 ], [ -53.348498666999902, -29.62556238799991 ], [ -53.343814643, -29.626078771 ], [ -53.339410695, -29.628291466 ], [ -53.335351789, -29.633126395 ], [ -53.329528017, -29.635091668 ], [ -53.319476263999896, -29.62982083 ], [ -53.315848192, -29.623165291 ], [ -53.306906241, -29.616528912 ], [ -53.304591865, -29.616311121 ], [ -53.300748644, -29.61844969 ], [ -53.297280699999902, -29.623770995 ], [ -53.287067308, -29.616187450999984 ], [ -53.286562706, -29.613508161 ], [ -53.289665634, -29.609329061 ], [ -53.304614113, -29.602538594 ], [ -53.309070587, -29.599230336999902 ], [ -53.310200919, -29.591499626 ], [ -53.306787025999903, -29.588070021 ], [ -53.305538404999893, -29.58455334 ], [ -53.306457162, -29.579702919999896 ], [ -53.316442048999896, -29.575073571 ], [ -53.323736138999898, -29.575465447999896 ], [ -53.326853566999894, -29.574444743999901 ], [ -53.328758275, -29.5665580739999 ], [ -53.334982832, -29.556211303999902 ], [ -53.334256833, -29.552996089 ], [ -53.332733646, -29.552082711 ], [ -53.3250672409999, -29.550825215 ], [ -53.320790644999896, -29.5487754389999 ], [ -53.310008206, -29.537858266999905 ], [ -53.31160829, -29.52278566 ], [ -53.307541859, -29.516137489 ], [ -53.296881122999892, -29.507855013 ], [ -53.29407406699989, -29.499177874999905 ], [ -53.298739267, -29.495491176 ], [ -53.298842435, -29.490094255 ], [ -53.290830972, -29.482843744 ], [ -53.280802611, -29.478256698999907 ], [ -53.281694638, -29.474288518 ], [ -53.290859649, -29.463908977 ], [ -53.2941680879999, -29.452569547999897 ], [ -53.293290392999893, -29.450107467 ], [ -53.29137312599989, -29.4484725259999 ], [ -53.288873907, -29.448706387999891 ], [ -53.2836021419999, -29.453008391 ], [ -53.279556627, -29.454106114 ], [ -53.263186116999989, -29.449358801999903 ], [ -53.261626255999893, -29.447544987 ], [ -53.256131061, -29.447845486999903 ], [ -53.253707835999897, -29.450221683999896 ], [ -53.2506309, -29.450360471999897 ], [ -53.249090044, -29.451873690999896 ], [ -53.248955319999901, -29.455890133 ], [ -53.246519728999893, -29.455984627 ], [ -53.245614160999899, -29.457859544 ], [ -53.242274956, -29.458022812 ], [ -53.235307119, -29.465320004 ], [ -53.230153717999897, -29.464727371 ], [ -53.227383635, -29.466212465 ], [ -53.226895606, -29.465039569999909 ], [ -53.224494997, -29.464975989 ], [ -53.225899817, -29.466789327 ], [ -53.225074929, -29.468430912999988 ], [ -53.220119640999897, -29.46712997 ], [ -53.211642867, -29.470606451 ], [ -53.204387144, -29.468688658 ], [ -53.202312465, -29.465963546 ], [ -53.197409544, -29.465657120999897 ], [ -53.192299125, -29.467860775 ], [ -53.184327493999895, -29.467352080999898 ], [ -53.180116085, -29.470922072999894 ], [ -53.136956171, -29.494827749 ], [ -53.128396717, -29.49639124 ], [ -53.129180796, -29.498766227999987 ], [ -53.126241149999892, -29.499778067 ], [ -53.125941145, -29.502527540999893 ], [ -53.115613778999901, -29.505795283999895 ], [ -53.096590615, -29.516419657 ], [ -53.096563062, -29.520218242999892 ], [ -53.094817491, -29.523373665999898 ], [ -53.095875634, -29.52479176 ], [ -53.093840322999903, -29.528730028 ], [ -53.08659097, -29.529790004999899 ], [ -53.082799345999902, -29.526978202 ], [ -53.076879686, -29.528497867999892 ], [ -53.070392763, -29.534834133999897 ], [ -53.06948163, -29.537669378 ], [ -53.051703749, -29.540611766 ], [ -53.037992349, -29.547442227 ], [ -53.034074705, -29.550251799 ], [ -53.032357942, -29.5533809729999 ], [ -53.028480999, -29.553960947999911 ], [ -53.040294693, -29.555117372 ], [ -53.043969864, -29.553635001 ], [ -53.048672114999903, -29.554775323999902 ], [ -53.054086963, -29.559678784 ], [ -53.058128272, -29.569588548999899 ], [ -53.068823521, -29.564555441 ], [ -53.072886464, -29.55946355 ], [ -53.075334482, -29.558750812 ], [ -53.083061492999903, -29.558061036 ], [ -53.087895224, -29.559178634 ], [ -53.0932495919999, -29.558167044 ], [ -53.099298575, -29.5591039779999 ], [ -53.101349811, -29.557962275 ], [ -53.105690409, -29.558970346 ], [ -53.136526223, -29.559071496999895 ], [ -53.136671435, -29.608219937999888 ], [ -53.145248055, -29.608177122 ], [ -53.145064756999894, -29.612648557999901 ], [ -53.15052926, -29.612560963 ], [ -53.150693835, -29.626549082999901 ], [ -53.153920588999895, -29.626439798 ], [ -53.154095438, -29.632578797 ], [ -53.186833655, -29.631960806999899 ], [ -53.187561504, -29.669662243999891 ], [ -53.203859171, -29.669470659 ], [ -53.204131491999902, -29.693260627 ], [ -53.213302440999897, -29.701537115 ], [ -53.208184371, -29.710735959000012 ], [ -53.209664119, -29.713131741 ], [ -53.209946349999896, -29.719587007 ], [ -53.220831507999897, -29.730577673 ], [ -53.216903315, -29.739397708 ], [ -53.213219287, -29.740689306 ], [ -53.20929661, -29.745506548 ], [ -53.209531763, -29.750321504999896 ], [ -53.20709332, -29.752498994 ], [ -53.208973801, -29.758838402 ], [ -53.206817766, -29.761233166999897 ], [ -53.202913543, -29.76187815 ], [ -53.197778673, -29.764878123999893 ], [ -53.190171318, -29.764250831 ], [ -53.185386901999898, -29.766943047 ], [ -53.182843073999898, -29.765044707 ], [ -53.176006602, -29.763475073999892 ], [ -53.172254086999892, -29.767390143999904 ], [ -53.169307251, -29.76849657 ], [ -53.176823747, -29.770254701999896 ], [ -53.181408438999902, -29.775704823999899 ], [ -53.183215343, -29.782817466 ], [ -53.188649332999901, -29.793338623 ], [ -53.188763282, -29.803539803999985 ], [ -53.193735669, -29.8143967399999 ], [ -53.194452861999892, -29.825688375999984 ], [ -53.199540189999901, -29.835915699999902 ], [ -53.202763079, -29.836484343999899 ], [ -53.208280887999891, -29.833653587999894 ], [ -53.209784270999897, -29.82625304 ], [ -53.216374163, -29.827229363999901 ], [ -53.226927013, -29.826406025 ], [ -53.230357934, -29.81824897 ], [ -53.234532481, -29.815234254 ], [ -53.250950568999897, -29.809123763999896 ], [ -53.264930464, -29.801808584 ], [ -53.272065883, -29.801731375 ], [ -53.2759225, -29.799761821999898 ], [ -53.277418214, -29.797540581 ], [ -53.276563468999896, -29.793488141999902 ], [ -53.269797496, -29.789757986 ], [ -53.266338565999895, -29.786288050999897 ], [ -53.265704302999907, -29.784334929 ], [ -53.267021907999897, -29.782229453999904 ] ] ] } }
]
}
