{
"type": "FeatureCollection",
"name": "bairros_seberi",
"crs": { "type": "name", "properties": { "name": "urn:ogc:def:crs:OGC:1.3:CRS84" } },
"features": [
{ "type": "Feature", "properties": { "name": "Centro", "code_muni": 4320206.0, "name_muni": "Seberi" }, "geometry": { "type": "Polygon", "coordinates": [ [ [ -53.4014708, -27.4730757 ], [ -53.4011776, -27.4733733 ], [ -53.4005451, -27.4739777 ], [ -53.4000036, -27.474476 ], [ -53.3996165, -27.474868 ], [ -53.3990358, -27.4756319 ], [ -53.3988572, -27.47601 ], [ -53.3986901, -27.476453 ], [ -53.3985039, -27.4771098 ], [ -53.3969705, -27.4774951 ], [ -53.3965199, -27.4776914 ], [ -53.3961752, -27.4779032 ], [ -53.3960961, -27.4779521 ], [ -53.3959915, -27.4780519 ], [ -53.3959204, -27.4781495 ], [ -53.3957863, -27.4782971 ], [ -53.3954644, -27.4785065 ], [ -53.3952119, -27.4787137 ], [ -53.3948207, -27.4790347 ], [ -53.393749, -27.4799124 ], [ -53.3974844, -27.4831327 ], [ -53.3979265, -27.4835403 ], [ -53.3987261, -27.4842679 ], [ -53.3976674, -27.4852345 ], [ -53.3974237, -27.4854138 ], [ -53.3962387, -27.4857635 ], [ -53.3953205, -27.4860602 ], [ -53.3961252, -27.4868967 ], [ -53.3961946, -27.4869695 ], [ -53.3968975, -27.4877065 ], [ -53.3976841, -27.4884357 ], [ -53.3977118, -27.4884644 ], [ -53.399328, -27.4879656 ], [ -53.399904, -27.4877629 ], [ -53.4000826, -27.4876548 ], [ -53.40099270000001, -27.4868297 ], [ -53.4013002, -27.4865086 ], [ -53.4015587, -27.4862144 ], [ -53.4023103, -27.4851606 ], [ -53.4023491, -27.4851105 ], [ -53.4032973, -27.4838102 ], [ -53.40386, -27.483053 ], [ -53.4039341, -27.482948 ], [ -53.4043617, -27.483402 ], [ -53.4050278, -27.4839017 ], [ -53.4059037, -27.484507 ], [ -53.4060724, -27.4845652 ], [ -53.4062773, -27.4846028 ], [ -53.4066403, -27.4845946 ], [ -53.4082542, -27.484383 ], [ -53.4085142, -27.4843616 ], [ -53.4090225, -27.4843198 ], [ -53.4076095, -27.4825565 ], [ -53.40843, -27.4783037 ], [ -53.4080155, -27.4781451 ], [ -53.4076048, -27.4779877 ], [ -53.4071855, -27.4778669 ], [ -53.4069107, -27.4777843 ], [ -53.4066451, -27.4777447 ], [ -53.4063555, -27.477738699999989 ], [ -53.405689, -27.4760554 ], [ -53.4045732, -27.4760935 ], [ -53.4020072, -27.4722529 ], [ -53.4014708, -27.4730757 ] ] ] } },
{ "type": "Feature", "properties": { "name": "São José", "code_muni": 4320206.0, "name_muni": "Seberi" }, "geometry": { "type": "Polygon", "coordinates": [ [ [ -53.3935654, -27.4800627 ], [ -53.3932865, -27.4803102 ], [ -53.3927018, -27.4807766 ], [ -53.3922619, -27.4811288 ], [ -53.3916182, -27.4816249 ], [ -53.391366, -27.4818855 ], [ -53.3909851, -27.4822472 ], [ -53.3920419, -27.483099 ], [ -53.3878255, -27.4869633 ], [ -53.3880454, -27.4870918 ], [ -53.3881849, -27.4870918 ], [ -53.3887804, -27.4867491 ], [ -53.3890834, -27.4865945 ], [ -53.3892283, -27.4865588 ], [ -53.3893785, -27.486585 ], [ -53.3897352, -27.4867587 ], [ -53.3898988, -27.4868872 ], [ -53.3899471, -27.487018 ], [ -53.3899337, -27.4872203 ], [ -53.3899418, -27.4873797 ], [ -53.3900276, -27.4876938 ], [ -53.3901644, -27.487703299999989 ], [ -53.3903897, -27.4874795 ], [ -53.3911265, -27.4865074 ], [ -53.3915793, -27.4868687 ], [ -53.3924641, -27.4875683 ], [ -53.3937219, -27.4869122 ], [ -53.395138, -27.4861218 ], [ -53.3953205, -27.4860602 ], [ -53.3962387, -27.4857635 ], [ -53.3974237, -27.4854138 ], [ -53.3976674, -27.4852345 ], [ -53.3987261, -27.4842679 ], [ -53.3979265, -27.4835403 ], [ -53.3974844, -27.4831327 ], [ -53.393749, -27.4799124 ], [ -53.3935654, -27.4800627 ] ] ] } },
{ "type": "Feature", "properties": { "name": "São Luiz", "code_muni": 4320206.0, "name_muni": "Seberi" }, "geometry": { "type": "Polygon", "coordinates": [ [ [ -53.4085142, -27.4843616 ], [ -53.4082542, -27.484383 ], [ -53.4066403, -27.4845946 ], [ -53.4062773, -27.4846028 ], [ -53.4060724, -27.4845652 ], [ -53.4059037, -27.484507 ], [ -53.4050278, -27.4839017 ], [ -53.4043617, -27.483402 ], [ -53.4039341, -27.482948 ], [ -53.40386, -27.483053 ], [ -53.4032973, -27.4838102 ], [ -53.4023491, -27.4851105 ], [ -53.4023103, -27.4851606 ], [ -53.4015587, -27.4862144 ], [ -53.4013002, -27.4865086 ], [ -53.4017651, -27.4869335 ], [ -53.405925, -27.4894284 ], [ -53.4090225, -27.4843198 ], [ -53.4085142, -27.4843616 ] ] ] } },
{ "type": "Feature", "properties": { "name": "Nossa Senhora Aparecida", "code_muni": 4320206.0, "name_muni": "Seberi" }, "geometry": { "type": "Polygon", "coordinates": [ [ [ -53.3956085, -27.4901069 ], [ -53.3967021, -27.4909817 ], [ -53.3967442, -27.4910154 ], [ -53.396973, -27.4912048 ], [ -53.3971265, -27.4913449 ], [ -53.397823, -27.4919126 ], [ -53.3981677, -27.4921936 ], [ -53.4009434, -27.494249 ], [ -53.4020682, -27.4945779 ], [ -53.4024918, -27.4947194 ], [ -53.402516, -27.4946415 ], [ -53.405925, -27.4894284 ], [ -53.4017651, -27.4869335 ], [ -53.4013002, -27.4865086 ], [ -53.40099270000001, -27.4868297 ], [ -53.4000826, -27.4876548 ], [ -53.399904, -27.4877629 ], [ -53.399328, -27.4879656 ], [ -53.3977118, -27.4884644 ], [ -53.3975305, -27.4885203 ], [ -53.3964304, -27.489004 ], [ -53.3951053, -27.4897069 ], [ -53.3956085, -27.4901069 ] ] ] } },
{ "type": "Feature", "properties": { "name": "Boca da Picada", "code_muni": 4320206.0, "name_muni": "Seberi" }, "geometry": { "type": "Polygon", "coordinates": [ [ [ -53.3865484, -27.4894888 ], [ -53.3862005, -27.4902181 ], [ -53.3860657, -27.4905006 ], [ -53.3886623, -27.4910654 ], [ -53.3874607, -27.4953005 ], [ -53.3841241, -27.5014007 ], [ -53.3838987, -27.5026188 ], [ -53.38396310000001, -27.5032564 ], [ -53.3856309, -27.5048311 ], [ -53.386551, -27.503732 ], [ -53.3873624, -27.5023886 ], [ -53.3884673, -27.5001018 ], [ -53.388821, -27.4994233 ], [ -53.3894509, -27.4981365 ], [ -53.3901729, -27.4981653 ], [ -53.3903225, -27.4981778 ], [ -53.390924, -27.4982544 ], [ -53.3915718, -27.498359 ], [ -53.3927052, -27.4986672 ], [ -53.3929594, -27.4987401 ], [ -53.3938122, -27.4946914 ], [ -53.3978355, -27.4941299 ], [ -53.4009434, -27.494249 ], [ -53.3981677, -27.4921936 ], [ -53.397823, -27.4919126 ], [ -53.3971265, -27.4913449 ], [ -53.396973, -27.4912048 ], [ -53.3967442, -27.4910154 ], [ -53.3967021, -27.4909817 ], [ -53.3956085, -27.4901069 ], [ -53.3951053, -27.4897069 ], [ -53.3964304, -27.489004 ], [ -53.3975305, -27.4885203 ], [ -53.3977118, -27.4884644 ], [ -53.3976841, -27.4884357 ], [ -53.3968975, -27.4877065 ], [ -53.3961946, -27.4869695 ], [ -53.3961252, -27.4868967 ], [ -53.3953205, -27.4860602 ], [ -53.395138, -27.4861218 ], [ -53.3937219, -27.4869122 ], [ -53.3924641, -27.4875683 ], [ -53.3915793, -27.4868687 ], [ -53.3911265, -27.4865074 ], [ -53.3903897, -27.4874795 ], [ -53.3901644, -27.487703299999989 ], [ -53.3900276, -27.4876938 ], [ -53.3899418, -27.4873797 ], [ -53.3899337, -27.4872203 ], [ -53.3899471, -27.487018 ], [ -53.3898988, -27.4868872 ], [ -53.3897352, -27.4867587 ], [ -53.3893785, -27.486585 ], [ -53.3892283, -27.4865588 ], [ -53.3890834, -27.4865945 ], [ -53.3887804, -27.4867491 ], [ -53.3881849, -27.4870918 ], [ -53.3880454, -27.4870918 ], [ -53.3878255, -27.4869633 ], [ -53.3866321, -27.4893193 ], [ -53.3865484, -27.4894888 ] ] ] } }
]
}
