{
"type": "FeatureCollection",
"name": "bairros_butia",
"crs": { "type": "name", "properties": { "name": "urn:ogc:def:crs:OGC:1.3:CRS84" } },
"features": [
{ "type": "Feature", "properties": { "code_muni": 4302709.0, "name_muni": "Butiá", "code_state": 43.0, "abbrev_state": "RS", "name_state": "Rio Grande do Sul", "code_region": 4.0, "name_region": "Sul", "year": 2022.0 }, "geometry": { "type": "Polygon", "coordinates": [ [ [ -51.993532387999892, -30.200340459 ], [ -52.017306676, -30.139396222 ], [ -52.013272588999897, -30.124438255 ], [ -51.980093499, -30.067215960999903 ], [ -51.97515949599989, -30.064754814 ], [ -51.97286673299989, -30.061570387 ], [ -51.970584015999989, -30.027792199 ], [ -52.015539738, -30.041819201999896 ], [ -52.01499939099989, -29.988689055 ], [ -52.006933194999903, -29.949631729 ], [ -52.001477173999895, -29.955544491 ], [ -52.003769028, -29.967570829 ], [ -52.002871818999893, -29.970825456999901 ], [ -51.996842198, -29.972765751999908 ], [ -51.988906734, -29.970119779 ], [ -51.985760495, -29.96581242 ], [ -51.984592560999893, -29.9572957849999 ], [ -51.9890142839999, -29.949549002 ], [ -51.984444901, -29.942275446999897 ], [ -51.97899258199989, -29.939610068 ], [ -51.971693752, -29.938310300999902 ], [ -51.966103644, -29.9378102639999 ], [ -51.95682613199989, -29.940176603999895 ], [ -51.952937972, -29.939124303 ], [ -51.95013887399989, -29.938061768999898 ], [ -51.947441013999892, -29.931314804 ], [ -51.945110051, -29.930924092999899 ], [ -51.940693025, -29.931884169999893 ], [ -51.944590138, -29.946283810999898 ], [ -51.939308205, -29.948859003999903 ], [ -51.920381425, -29.9501102199999 ], [ -51.908602723999891, -29.952418284 ], [ -51.90758399899989, -29.949066351999889 ], [ -51.90578046799989, -29.947917678999904 ], [ -51.898680188999897, -29.946845192 ], [ -51.887405613999903, -29.950489542999893 ], [ -51.868133734, -29.960041302 ], [ -51.847598669, -29.957013057 ], [ -51.839804607, -29.953713099 ], [ -51.819405729, -29.952988605 ], [ -51.795330115, -29.9542736 ], [ -51.782155042999896, -29.959387451999898 ], [ -51.785473246, -29.960540685 ], [ -51.795180105, -29.960317446 ], [ -51.79784196299989, -29.963565022999894 ], [ -51.815991137, -29.972011811999899 ], [ -51.823215206, -29.971539771 ], [ -51.824687298, -29.968662164 ], [ -51.829611193999895, -29.967064234 ], [ -51.837845601, -29.9697777649999 ], [ -51.8398897, -29.974110069999902 ], [ -51.84486539200001, -29.973905671999905 ], [ -51.846223440999893, -29.970138587999905 ], [ -51.847533139999904, -29.970146459 ], [ -51.852601589999892, -29.984691939 ], [ -51.849237060999897, -29.99224989 ], [ -51.8460922, -29.994412374 ], [ -51.847956192, -30.000738161 ], [ -51.852669084, -30.008848138 ], [ -51.850147542999899, -30.015830045000012 ], [ -51.855736475, -30.02793107 ], [ -51.85526659, -30.031501669 ], [ -51.857951482, -30.038717227999886 ], [ -51.863389573999896, -30.040598363 ], [ -51.867826234999896, -30.038745019 ], [ -51.871299721, -30.039299931999896 ], [ -51.871897729999908, -30.034222653000011 ], [ -51.873671209, -30.032072609 ], [ -51.88073646, -30.031554404 ], [ -51.883603117, -30.029428126 ], [ -51.886998909999896, -30.029626064999903 ], [ -51.900464534, -30.035948461 ], [ -51.905716562999899, -30.043301477999908 ], [ -51.907031796999895, -30.05191737 ], [ -51.912429136, -30.054679635 ], [ -51.833675805, -30.113938348 ], [ -51.84580119000001, -30.123361825 ], [ -51.852154804, -30.12510255 ], [ -51.857702698, -30.13210427 ], [ -51.858753516, -30.141506983999907 ], [ -51.85709170699991, -30.160558497 ], [ -51.842339862999893, -30.1688042329999 ], [ -51.842836202999891, -30.173903712 ], [ -51.851639839, -30.173284313999893 ], [ -51.859374773999896, -30.175261104999901 ], [ -51.861852827, -30.173032663 ], [ -51.866316538, -30.172327981 ], [ -51.874236585999896, -30.176477463 ], [ -51.879065678, -30.177236423999897 ], [ -51.885089572, -30.189731141 ], [ -51.896105683, -30.196863594 ], [ -51.900271227, -30.197864563999893 ], [ -51.922378554, -30.209406682 ], [ -51.921494531, -30.214200038999898 ], [ -51.923154368, -30.21885695 ], [ -51.927365731, -30.222038314 ], [ -51.926054214, -30.224186346 ], [ -51.926628068, -30.226941326 ], [ -51.937700186, -30.231423741999897 ], [ -51.948040557, -30.232214536 ], [ -51.949098455999902, -30.233256413999989 ], [ -51.948417111, -30.236545366 ], [ -51.95076574, -30.238330654 ], [ -51.959922085999899, -30.239184984 ], [ -51.963451858, -30.237975572 ], [ -51.967362648999902, -30.240361073999985 ], [ -51.966295508, -30.244446736999986 ], [ -51.967652609, -30.24697114 ], [ -51.97224344099989, -30.24768883 ], [ -51.972055881, -30.252569093 ], [ -51.9707615519999, -30.253705142999895 ], [ -51.97198673, -30.254821580999899 ], [ -51.97755574, -30.253467499999896 ], [ -51.976657121999899, -30.250512001999912 ], [ -51.977769059, -30.248584913999899 ], [ -51.984997649, -30.248887434 ], [ -51.986230737, -30.251149136 ], [ -51.985128813999893, -30.254984636999904 ], [ -51.987520849, -30.258515825 ], [ -51.987090802, -30.261052259999893 ], [ -51.985600554, -30.261758902999905 ], [ -51.987459348999892, -30.264485615999902 ], [ -51.9864095, -30.266273058 ], [ -51.987154158999893, -30.2696111929999 ], [ -51.98993325299989, -30.27176585 ], [ -51.992597933, -30.271427961 ], [ -51.998982935999898, -30.273330131 ], [ -51.994431348, -30.279201499 ], [ -51.996941943, -30.280777467 ], [ -51.995961135, -30.287297715 ], [ -52.000573201999899, -30.28701832 ], [ -52.003910431, -30.290089321999986 ], [ -52.008283825, -30.289793394999901 ], [ -52.013786368, -30.293202779 ], [ -52.007045906, -30.299186531 ], [ -52.011068496, -30.304183195000011 ], [ -52.007595717, -30.306443472 ], [ -52.007635357, -30.307927515999904 ], [ -52.011255981, -30.313228275 ], [ -52.014049277, -30.323627722 ], [ -52.013484665, -30.326199163999899 ], [ -52.017895408, -30.329599959999907 ], [ -52.025499522, -30.331079337999899 ], [ -52.024185375999892, -30.335198709999894 ], [ -52.032318711, -30.346226636 ], [ -52.030124298, -30.352435785999905 ], [ -52.030690358999898, -30.354141475999906 ], [ -52.03386764, -30.355429241 ], [ -52.035738297, -30.361456952 ], [ -52.033193958, -30.3659592079999 ], [ -52.032315825999909, -30.373076421999894 ], [ -52.030584265999892, -30.374486893 ], [ -52.037091750999899, -30.397427901999897 ], [ -52.096319819, -30.4050649929999 ], [ -52.158723112, -30.442726268999895 ], [ -52.1638708, -30.429395136 ], [ -52.173557617, -30.421476863999899 ], [ -52.175633329999989, -30.413756559 ], [ -52.174388652999895, -30.408264233 ], [ -52.17855144100001, -30.403193691999896 ], [ -52.177006624999891, -30.399456648999895 ], [ -52.178756463999896, -30.396858557 ], [ -52.177980092, -30.392934732999898 ], [ -52.180255112999895, -30.391413497 ], [ -52.17890534, -30.389620810999904 ], [ -52.179786427, -30.386383821 ], [ -52.178036445, -30.378235821 ], [ -52.174997505, -30.376757727 ], [ -52.170956632999903, -30.370531886 ], [ -52.171993287, -30.363354349 ], [ -52.166551808, -30.360865786 ], [ -52.16361597, -30.35011996 ], [ -52.164066229999889, -30.346563177999901 ], [ -52.162033983, -30.345101639999903 ], [ -52.158928763999903, -30.345507075999905 ], [ -52.160232246, -30.3378265539999 ], [ -52.153518199, -30.333794603999902 ], [ -52.158000205, -30.330438972 ], [ -52.158698393999892, -30.325808012 ], [ -52.163194145, -30.322243152999899 ], [ -52.158717119, -30.316579899 ], [ -52.162651106999895, -30.313450836999898 ], [ -52.165625377, -30.31315347 ], [ -52.167255113, -30.310734151 ], [ -52.164506428, -30.309253609999907 ], [ -52.164849789999899, -30.306618774 ], [ -52.169417127, -30.308035471 ], [ -52.171124929, -30.307113324999893 ], [ -52.172619311999902, -30.295723327 ], [ -52.170396061, -30.292782068 ], [ -52.172972612, -30.2886119 ], [ -52.170686271, -30.284148374 ], [ -52.174660409999895, -30.280946405 ], [ -52.177075338999899, -30.276944329999903 ], [ -52.175998944, -30.2752329919999 ], [ -52.172934945999899, -30.277183341 ], [ -52.170421621999893, -30.273986427 ], [ -52.16768668, -30.275341528 ], [ -52.165980665999903, -30.274799097 ], [ -52.165736255999896, -30.263237778 ], [ -52.164215071999905, -30.261766322 ], [ -52.166475424999895, -30.25539585 ], [ -52.164387468, -30.254063464999891 ], [ -52.160084614, -30.255373904 ], [ -52.158873709, -30.254271086999907 ], [ -52.159438705999889, -30.250555353 ], [ -52.156104349, -30.247588341 ], [ -52.151978948999989, -30.246700544 ], [ -52.151861342, -30.242214071 ], [ -52.146467313999892, -30.240283732 ], [ -52.145389856, -30.236518673 ], [ -52.139033825999896, -30.232125085999911 ], [ -52.138589115999899, -30.229202703999899 ], [ -52.136290976999909, -30.227603986 ], [ -52.135981134, -30.217207775 ], [ -52.140026045999903, -30.213799466 ], [ -52.154329057, -30.210519556999902 ], [ -52.157494479, -30.207045093 ], [ -52.160745074, -30.205736155 ], [ -52.16292477, -30.199614344999905 ], [ -52.15875941, -30.191323038999897 ], [ -52.156115521999894, -30.193370962999904 ], [ -52.129692175999899, -30.196939737 ], [ -52.108438734999901, -30.190653171999898 ], [ -52.103003203, -30.195948678 ], [ -52.0919113429999, -30.200016466 ], [ -52.086380296, -30.213124121 ], [ -52.079649441, -30.216520276 ], [ -52.077096974, -30.214387950999892 ], [ -52.072948444, -30.213352191 ], [ -52.0691363, -30.209351576999904 ], [ -52.057760846999898, -30.205864939 ], [ -52.0522267549999, -30.205643994 ], [ -52.042721910999902, -30.208874367 ], [ -52.034920842, -30.209555814999892 ], [ -52.01759014999989, -30.202406133999901 ], [ -51.993532387999892, -30.200340459 ] ] ] } }
]
}
