{
"type": "FeatureCollection",
"name": "bairros_boa_vista_do_burica",
"crs": { "type": "name", "properties": { "name": "urn:ogc:def:crs:OGC:1.3:CRS84" } },
"features": [
{ "type": "Feature", "properties": { "code_muni": 4302204.0, "name_muni": "Boa Vista do Buricá", "code_state": 43.0, "abbrev_state": "RS", "name_state": "Rio Grande do Sul", "code_region": 4.0, "name_region": "Sul", "year": 2022.0 }, "geometry": { "type": "Polygon", "coordinates": [ [ [ -54.132037811, -27.715216368 ], [ -54.139331266999896, -27.712998969 ], [ -54.138506789, -27.707859491 ], [ -54.140048868, -27.705404848999898 ], [ -54.144046762, -27.705065428 ], [ -54.148956043999895, -27.707747916 ], [ -54.156295427, -27.708803487999898 ], [ -54.159174565999898, -27.713766399999894 ], [ -54.166903417, -27.71065312 ], [ -54.163151995, -27.707212389999896 ], [ -54.164529203, -27.702091741999897 ], [ -54.157775472, -27.693775827 ], [ -54.150093515, -27.698752885 ], [ -54.141153916, -27.702502473 ], [ -54.140076011, -27.701614003 ], [ -54.140038386, -27.695690855999903 ], [ -54.149759652999897, -27.695235302 ], [ -54.145816721, -27.687163918 ], [ -54.155806522, -27.684265594999896 ], [ -54.159755704, -27.68506374 ], [ -54.16658425899989, -27.69187635 ], [ -54.169907405999894, -27.691416918 ], [ -54.168862127999894, -27.681645331 ], [ -54.163567618999892, -27.674330735 ], [ -54.165974107, -27.671247165999898 ], [ -54.169472265, -27.676411308 ], [ -54.170780624, -27.676310304 ], [ -54.171257458, -27.671210757 ], [ -54.175772119, -27.667774258999895 ], [ -54.175981174999897, -27.665734206 ], [ -54.172871179, -27.66451863 ], [ -54.165814967, -27.653229629 ], [ -54.150866318999896, -27.654495707 ], [ -54.144176541, -27.651016929 ], [ -54.144646328, -27.649898833999895 ], [ -54.1504904889999, -27.650845456 ], [ -54.161145276, -27.649433744 ], [ -54.1648566, -27.644677142 ], [ -54.156980607, -27.642478535 ], [ -54.143394343999894, -27.643351165999892 ], [ -54.142271551, -27.642068645999899 ], [ -54.145338091, -27.639034991 ], [ -54.166213112, -27.631140206999898 ], [ -54.169421762999896, -27.631525433 ], [ -54.179733605, -27.6408037419999 ], [ -54.181602186, -27.640659281999898 ], [ -54.176852044, -27.625532701999894 ], [ -54.181039028, -27.6227703499999 ], [ -54.180736013999891, -27.621680442 ], [ -54.164292267, -27.627403632 ], [ -54.143523536, -27.62574763 ], [ -54.140827747999893, -27.626562066 ], [ -54.141098451999902, -27.628855471999902 ], [ -54.140265295999896, -27.6293410339999 ], [ -54.140117378, -27.628260408 ], [ -54.138458925999899, -27.629981234999899 ], [ -54.135101611, -27.626956746 ], [ -54.130638234999893, -27.630271099 ], [ -54.118668042, -27.635351070999903 ], [ -54.113194231, -27.635494357 ], [ -54.107588097, -27.64304737 ], [ -54.098903285999903, -27.636359157999902 ], [ -54.096097087, -27.628792442 ], [ -54.0849388, -27.626940674 ], [ -54.082855335, -27.629506519999904 ], [ -54.065939842, -27.638307211 ], [ -54.061461199, -27.646379732 ], [ -54.062584289, -27.653593432 ], [ -54.039840389999895, -27.651875856999901 ], [ -54.037171212, -27.654660132999904 ], [ -54.037695808, -27.6583362229999 ], [ -54.03384668, -27.662235461 ], [ -54.033665812, -27.668104677 ], [ -54.031405349999901, -27.668932286 ], [ -54.029898113999892, -27.666840948 ], [ -54.027115404, -27.6674125229999 ], [ -54.02535948, -27.671938304 ], [ -54.026014534999895, -27.674420973999897 ], [ -54.030320923, -27.679547925 ], [ -54.03456937, -27.681279876 ], [ -54.037399058999895, -27.684425888 ], [ -54.029602146999899, -27.686801448 ], [ -54.030258397999894, -27.689925768 ], [ -54.027648612999897, -27.691407717999905 ], [ -54.029483916999901, -27.693278255999896 ], [ -54.029149585, -27.697188457 ], [ -54.030862745, -27.697901751 ], [ -54.033131819999895, -27.702102437 ], [ -54.040779965, -27.703128139999908 ], [ -54.047014049, -27.709579893 ], [ -54.046774457, -27.71423549 ], [ -54.049310529, -27.717581161999902 ], [ -54.050142052999902, -27.722486921 ], [ -54.052657767, -27.724532847 ], [ -54.052791655999989, -27.728282927999903 ], [ -54.05628218, -27.730705859 ], [ -54.062082883999899, -27.729699337999907 ], [ -54.063885695, -27.731525637999905 ], [ -54.067914125, -27.73158906 ], [ -54.068826687999902, -27.732913860999901 ], [ -54.067247027, -27.735611618 ], [ -54.070765736999896, -27.735601046999907 ], [ -54.071002979999903, -27.733205129999895 ], [ -54.075019665999903, -27.730684718 ], [ -54.068987590999903, -27.72957367 ], [ -54.06466554299989, -27.725871742 ], [ -54.067757921, -27.72331316 ], [ -54.06671969, -27.720194357 ], [ -54.068778535, -27.718479631 ], [ -54.071860343, -27.718425606 ], [ -54.073558626, -27.721587277 ], [ -54.078404486999894, -27.725510006 ], [ -54.080429271999897, -27.72494626 ], [ -54.08267662, -27.727255267 ], [ -54.087517196, -27.727986374 ], [ -54.093421254, -27.724356089 ], [ -54.090766953, -27.711236089999893 ], [ -54.105275175, -27.714798255999902 ], [ -54.11063193, -27.709887798999901 ], [ -54.113421295, -27.702628403999903 ], [ -54.108378123, -27.696904038999904 ], [ -54.110764645, -27.691856168999898 ], [ -54.113713737999902, -27.692478638 ], [ -54.121960863, -27.699913029999898 ], [ -54.12909694, -27.696696158 ], [ -54.131565673999894, -27.697936398 ], [ -54.133555225999892, -27.700385167 ], [ -54.130351273, -27.714239209 ], [ -54.132037811, -27.715216368 ] ] ] } }
]
}
