{
"type": "FeatureCollection",
"name": "bairros_cerro_grande_do_sul",
"crs": { "type": "name", "properties": { "name": "urn:ogc:def:crs:OGC:1.3:CRS84" } },
"features": [
{ "type": "Feature", "properties": { "code_muni": 4305173.0, "name_muni": "Cerro Grande do Sul", "code_state": 43.0, "abbrev_state": "RS", "name_state": "Rio Grande do Sul", "code_region": 4.0, "name_region": "Sul", "year": 2022.0 }, "geometry": { "type": "Polygon", "coordinates": [ [ [ -51.745706379999909, -30.657344338 ], [ -51.800686841, -30.628713192 ], [ -51.803174665, -30.628543325999896 ], [ -51.807531315999896, -30.629836806999904 ], [ -51.809263859999895, -30.636515975999902 ], [ -51.8123413819999, -30.639078984 ], [ -51.812940437999899, -30.645653379999903 ], [ -51.816027367999894, -30.647118205 ], [ -51.816599181, -30.648835613 ], [ -51.824681696, -30.649588719 ], [ -51.82523988, -30.645770356 ], [ -51.829800468, -30.645781613999898 ], [ -51.83159862, -30.640905467 ], [ -51.829497381, -30.639171621999896 ], [ -51.834216593999898, -30.640243955999907 ], [ -51.835931146, -30.636717091 ], [ -51.840252939, -30.636045916999898 ], [ -51.843655898, -30.638789443999904 ], [ -51.847175534, -30.636698985 ], [ -51.846794658, -30.632699037 ], [ -51.849839675999895, -30.625922594 ], [ -51.85121844, -30.619188888999904 ], [ -51.850330170999896, -30.616807239 ], [ -51.851666608, -30.615617415 ], [ -51.857361399999903, -30.6181991189999 ], [ -51.862610655, -30.616859844 ], [ -51.864292296, -30.612863118999901 ], [ -51.8672273029999, -30.610398182 ], [ -51.871646650999892, -30.609016967999903 ], [ -51.876327089, -30.611150236 ], [ -51.877783243, -30.609426465999896 ], [ -51.8828748829999, -30.608967461 ], [ -51.886256806999896, -30.601505709 ], [ -51.884044672, -30.595223565999987 ], [ -51.881515763, -30.5935909039999 ], [ -51.883290167, -30.592129225999898 ], [ -51.889995246999902, -30.592340865 ], [ -51.892469166999902, -30.591316005 ], [ -51.892807725999894, -30.583478306 ], [ -51.895218876999898, -30.5813892369999 ], [ -51.894603973, -30.575151993 ], [ -51.898303864, -30.571695927999901 ], [ -51.767030708999989, -30.466812174999987 ], [ -51.764444061999903, -30.476907492 ], [ -51.766479518, -30.492543520999988 ], [ -51.763122704, -30.497692389 ], [ -51.759610333999895, -30.498885459999894 ], [ -51.758413847999989, -30.5012652099999 ], [ -51.758789096, -30.505857467999892 ], [ -51.755846955, -30.508576075999898 ], [ -51.756710109, -30.510802407 ], [ -51.75486125, -30.513674465 ], [ -51.757078996, -30.522643677 ], [ -51.754118165, -30.523453941999893 ], [ -51.751921212, -30.5259489379999 ], [ -51.752010304999899, -30.531378597999897 ], [ -51.749388048999897, -30.5352549569999 ], [ -51.743670486, -30.531880155999904 ], [ -51.741522846999892, -30.527766399 ], [ -51.739959768999896, -30.529173349000011 ], [ -51.739098062, -30.52741558 ], [ -51.733028170999894, -30.528211923999894 ], [ -51.724516084, -30.525936701 ], [ -51.723809243999902, -30.527658048 ], [ -51.722200164, -30.527919315 ], [ -51.720055692999892, -30.524823954999896 ], [ -51.715497823, -30.528336698 ], [ -51.712694308, -30.525752654 ], [ -51.710241173999989, -30.528388273 ], [ -51.705315821999903, -30.52435422699989 ], [ -51.702294047999899, -30.525177973 ], [ -51.700813743, -30.528380841999905 ], [ -51.698154807, -30.528486606999902 ], [ -51.695063647, -30.526855456 ], [ -51.693774463999901, -30.522768703999898 ], [ -51.691112324999899, -30.521535626999892 ], [ -51.688650126, -30.518188353 ], [ -51.688824622, -30.51490841 ], [ -51.679009099, -30.509000345999912 ], [ -51.676117951, -30.510630396999904 ], [ -51.672022124, -30.509997991 ], [ -51.666627032999891, -30.516593376999896 ], [ -51.664798221, -30.516556221 ], [ -51.661370185, -30.5132814799999 ], [ -51.658708044, -30.513689352 ], [ -51.659571348, -30.518350439999899 ], [ -51.657618398, -30.518681274999889 ], [ -51.6557771989999, -30.5290294499999 ], [ -51.655991824999909, -30.530979547 ], [ -51.659089189, -30.533184008 ], [ -51.655994206999893, -30.537829115 ], [ -51.657090095999891, -30.5407912709999 ], [ -51.656091860999894, -30.543677473999903 ], [ -51.658522348, -30.546563678 ], [ -51.657003292999903, -30.550860432 ], [ -51.658302732, -30.5564090519999 ], [ -51.654753618, -30.562406138 ], [ -51.65506892, -30.567976821999899 ], [ -51.663335269999891, -30.568743003999895 ], [ -51.665660919999894, -30.570155220999904 ], [ -51.656386988, -30.584783914999903 ], [ -51.663265291, -30.588262581 ], [ -51.658613241, -30.597927673 ], [ -51.659121341999899, -30.603296225 ], [ -51.650345154, -30.609701202999901 ], [ -51.648752589, -30.613662229999903 ], [ -51.650430604, -30.617174694 ], [ -51.652974329999893, -30.618968889 ], [ -51.656854876, -30.627628817999906 ], [ -51.654998033, -30.631989088999902 ], [ -51.652794470999893, -30.632813128999906 ], [ -51.653166629999895, -30.639176442 ], [ -51.65418080500001, -30.641510158999893 ], [ -51.660271301, -30.640510826 ], [ -51.663790228, -30.642266466 ], [ -51.666625505, -30.641776369 ], [ -51.666641308, -30.649979847999898 ], [ -51.671426282, -30.65143882 ], [ -51.676428958, -30.654969896 ], [ -51.677825329, -30.657496919 ], [ -51.677204780999901, -30.659051099999893 ], [ -51.681832576, -30.665761722 ], [ -51.682866062999892, -30.672308094999899 ], [ -51.688583346, -30.6772733839999 ], [ -51.686917603, -30.678405079 ], [ -51.685352462, -30.683018010999898 ], [ -51.692147024, -30.689023914 ], [ -51.697197789, -30.690419103 ], [ -51.701034184, -30.685270057 ], [ -51.711382360999899, -30.680572019 ], [ -51.719300886, -30.680392017 ], [ -51.728662372, -30.6832690479999 ], [ -51.734252313, -30.683219645 ], [ -51.736907959, -30.681515781 ], [ -51.74371071, -30.681735939 ], [ -51.749994436, -30.675216695 ], [ -51.745706379999909, -30.657344338 ] ] ] } }
]
}
