{
"type": "FeatureCollection",
"name": "bairros_ronda_alta",
"crs": { "type": "name", "properties": { "name": "urn:ogc:def:crs:OGC:1.3:CRS84" } },
"features": [
{ "type": "Feature", "properties": { "name": "Centro", "code_muni": 4316105.0, "name_muni": "Ronda Alta" }, "geometry": { "type": "Polygon", "coordinates": [ [ [ -52.8107122, -27.7793744 ], [ -52.8110325, -27.7792624 ], [ -52.8111586, -27.7791674 ], [ -52.8113437, -27.7786786 ], [ -52.8115234, -27.778419899999989 ], [ -52.8115314, -27.7783677 ], [ -52.8115422, -27.778045 ], [ -52.8113651, -27.7774185 ], [ -52.8113356, -27.7772073 ], [ -52.8113383, -27.7771456 ], [ -52.8114966, -27.7768418 ], [ -52.8114992, -27.7767184 ], [ -52.8114563, -27.7766258 ], [ -52.811341, -27.7764882 ], [ -52.8113624, -27.7761631 ], [ -52.8113544, -27.7761109 ], [ -52.8112659, -27.7759329 ], [ -52.8112686, -27.7758783 ], [ -52.8113303, -27.7757691 ], [ -52.8113812, -27.7754772 ], [ -52.8114322, -27.7753942 ], [ -52.8114831, -27.7751853 ], [ -52.8114416, -27.77477 ], [ -52.8114293, -27.7746975 ], [ -52.8109071, -27.7747158 ], [ -52.8107398, -27.7747273 ], [ -52.8102627, -27.7747601 ], [ -52.8101702, -27.7747665 ], [ -52.8100807, -27.774769 ], [ -52.8100213, -27.7766591 ], [ -52.8099918, -27.7782111 ], [ -52.8099006, -27.7788352 ], [ -52.809855, -27.7790346 ], [ -52.8095685, -27.7797578 ], [ -52.8095104, -27.7797433 ], [ -52.8090421, -27.7796706 ], [ -52.8085229, -27.7795849 ], [ -52.80793, -27.7795056 ], [ -52.8072181, -27.7794403 ], [ -52.8072411, -27.7804945 ], [ -52.8072313, -27.7810131 ], [ -52.8071562, -27.7810313 ], [ -52.8070039, -27.7810398 ], [ -52.8068832, -27.7810161 ], [ -52.8067326, -27.7809536 ], [ -52.8066659, -27.7809259 ], [ -52.8061938, -27.7808808 ], [ -52.8060812, -27.7808761 ], [ -52.8058317, -27.7809211 ], [ -52.8054294, -27.780914 ], [ -52.80496, -27.7809544 ], [ -52.804732, -27.7809449 ], [ -52.8042573, -27.7811371 ], [ -52.8039166, -27.7812273 ], [ -52.8037798, -27.7812344 ], [ -52.8035599, -27.7812225 ], [ -52.8034955, -27.7812012 ], [ -52.8030744, -27.7809235 ], [ -52.8029135, -27.78085 ], [ -52.8029189, -27.7811181 ], [ -52.8028196, -27.7811632 ], [ -52.8021598, -27.7811418 ], [ -52.8017119, -27.7811798 ], [ -52.8016233, -27.7812605 ], [ -52.8014785, -27.7815737 ], [ -52.801441, -27.781834799999988 ], [ -52.8013793, -27.781849 ], [ -52.8010252, -27.7817042 ], [ -52.8009072, -27.7817541 ], [ -52.8007758, -27.7817493 ], [ -52.8006497, -27.7817232 ], [ -52.8004888, -27.7816212 ], [ -52.8001052, -27.7815358 ], [ -52.7999523, -27.7814551 ], [ -52.798782, -27.7819853 ], [ -52.7989948, -27.7820768 ], [ -52.7993569, -27.7823687 ], [ -52.7996492, -27.782522899999989 ], [ -52.7997458, -27.782606 ], [ -52.7999362, -27.7829097 ], [ -52.8000972, -27.783113799999988 ], [ -52.8001267, -27.7831862 ], [ -52.8001613, -27.7832713 ], [ -52.8001896, -27.7833409 ], [ -52.800242, -27.7834698 ], [ -52.8003708, -27.7836667 ], [ -52.8004003, -27.783802 ], [ -52.8004056, -27.7839918 ], [ -52.8003332, -27.7841389 ], [ -52.800183, -27.7843264 ], [ -52.8000167, -27.7844759 ], [ -52.7997807, -27.7846373 ], [ -52.7997512, -27.7847227 ], [ -52.7996868, -27.7848271 ], [ -52.799668, -27.7849244 ], [ -52.7998397, -27.7851356 ], [ -52.7998343, -27.7853041 ], [ -52.7999604, -27.7854203 ], [ -52.8000623, -27.7855604 ], [ -52.8002179, -27.7856458 ], [ -52.8003922, -27.7856671 ], [ -52.8006551, -27.7856505 ], [ -52.8007785, -27.7857098 ], [ -52.8008375, -27.7857573 ], [ -52.8008723, -27.7858593 ], [ -52.8008509, -27.7859732 ], [ -52.8007758, -27.7861726 ], [ -52.8007382, -27.7863695 ], [ -52.8006497, -27.786578299999988 ], [ -52.8006738, -27.786996 ], [ -52.8007221, -27.7871621 ], [ -52.8008267, -27.7874468 ], [ -52.8009689, -27.7877126 ], [ -52.8013927, -27.7880946 ], [ -52.8016019, -27.788199 ], [ -52.8017387, -27.7883817 ], [ -52.8017575, -27.7884933 ], [ -52.80181910000001, -27.7885929 ], [ -52.8018272, -27.788652299999988 ], [ -52.8018567, -27.7892739 ], [ -52.801795, -27.7896014 ], [ -52.801685, -27.7897841 ], [ -52.8016743, -27.7899099 ], [ -52.8017525, -27.7899591 ], [ -52.8018343, -27.7899794 ], [ -52.8020027, -27.789722 ], [ -52.8021104, -27.7895573 ], [ -52.802715, -27.7886973 ], [ -52.8036726, -27.787359 ], [ -52.8044665, -27.786239 ], [ -52.8051478, -27.7852732 ], [ -52.8053758, -27.7849742 ], [ -52.8056654, -27.7847251 ], [ -52.8058961, -27.7845827 ], [ -52.8063118, -27.7844356 ], [ -52.8065774, -27.784381 ], [ -52.8072453, -27.7842315 ], [ -52.8074411, -27.7841342 ], [ -52.8077128, -27.783948 ], [ -52.8077602, -27.784018 ], [ -52.8079616, -27.78468980000001 ], [ -52.8093203, -27.7844888 ], [ -52.8094364, -27.7844685 ], [ -52.8100381, -27.7844076 ], [ -52.8099974, -27.7836958 ], [ -52.8103998, -27.7836468 ], [ -52.8107257, -27.7835738 ], [ -52.8117057, -27.7832911 ], [ -52.8112833, -27.7823282 ], [ -52.8112407, -27.7822331 ], [ -52.8109453, -27.7815739 ], [ -52.8106024, -27.780643099999988 ], [ -52.8105417, -27.780278 ], [ -52.8105471, -27.7800479 ], [ -52.8105692, -27.7798193 ], [ -52.8106351, -27.779425899999989 ], [ -52.8107122, -27.7793744 ] ] ] } },
{ "type": "Feature", "properties": { "name": "Kiri", "code_muni": 4316105.0, "name_muni": "Ronda Alta" }, "geometry": { "type": "Polygon", "coordinates": [ [ [ -52.8072313, -27.7810131 ], [ -52.8072411, -27.7804945 ], [ -52.8072181, -27.7794403 ], [ -52.8072059, -27.7782055 ], [ -52.80608380000001, -27.7782281 ], [ -52.8060034, -27.778258599999987 ], [ -52.805998, -27.7780212 ], [ -52.8048259, -27.7781565 ], [ -52.8032944, -27.7783392 ], [ -52.80329170000001, -27.779222 ], [ -52.8024629, -27.7793597 ], [ -52.8027633, -27.780392 ], [ -52.8029135, -27.78085 ], [ -52.8030744, -27.7809235 ], [ -52.8034955, -27.7812012 ], [ -52.8035599, -27.7812225 ], [ -52.8037798, -27.7812344 ], [ -52.8039166, -27.7812273 ], [ -52.8042573, -27.7811371 ], [ -52.804732, -27.7809449 ], [ -52.80496, -27.7809544 ], [ -52.8054294, -27.780914 ], [ -52.8058317, -27.7809211 ], [ -52.8060812, -27.7808761 ], [ -52.8061938, -27.7808808 ], [ -52.8066659, -27.7809259 ], [ -52.8067326, -27.7809536 ], [ -52.8068832, -27.7810161 ], [ -52.8070039, -27.7810398 ], [ -52.8071562, -27.7810313 ], [ -52.8072313, -27.7810131 ] ] ] } },
{ "type": "Feature", "properties": { "name": "Nossa Senhora Aparecida", "code_muni": 4316105.0, "name_muni": "Ronda Alta" }, "geometry": { "type": "Polygon", "coordinates": [ [ [ -52.8060528, -27.7773688 ], [ -52.8060375, -27.7777421 ], [ -52.80608380000001, -27.7782281 ], [ -52.8072059, -27.7782055 ], [ -52.8072181, -27.7794403 ], [ -52.80793, -27.7795056 ], [ -52.8085229, -27.7795849 ], [ -52.8090421, -27.7796706 ], [ -52.8095104, -27.7797433 ], [ -52.8095685, -27.7797578 ], [ -52.809855, -27.7790346 ], [ -52.8099006, -27.7788352 ], [ -52.8099918, -27.7782111 ], [ -52.8100213, -27.7766591 ], [ -52.8100807, -27.774769 ], [ -52.810193, -27.7711414 ], [ -52.8101843, -27.7709061 ], [ -52.8101386, -27.7709117 ], [ -52.8090997, -27.7710212 ], [ -52.8083104, -27.7710866 ], [ -52.8080191, -27.7711117 ], [ -52.8078219, -27.7711307 ], [ -52.8076503, -27.7711627 ], [ -52.8071648, -27.7712648 ], [ -52.8069529, -27.7713075 ], [ -52.8065854, -27.7713656 ], [ -52.8060544, -27.7714523 ], [ -52.8057062, -27.7715127 ], [ -52.8057244, -27.7715733 ], [ -52.8058666, -27.7725843 ], [ -52.8060624, -27.7773259 ], [ -52.8060528, -27.7773688 ] ] ] } },
{ "type": "Feature", "properties": { "name": "Santa Bárbara", "code_muni": 4316105.0, "name_muni": "Ronda Alta" }, "geometry": { "type": "Polygon", "coordinates": [ [ [ -52.8129389, -27.7706501 ], [ -52.812843, -27.7706359 ], [ -52.8127545, -27.7706632 ], [ -52.812674, -27.7706465 ], [ -52.8126392, -27.7704021 ], [ -52.8127009, -27.7686826 ], [ -52.8115878, -27.768685 ], [ -52.8114322, -27.7703036 ], [ -52.8104612, -27.7704057 ], [ -52.8102168, -27.7704198 ], [ -52.8101923, -27.7707571 ], [ -52.8101843, -27.7709061 ], [ -52.810193, -27.7711414 ], [ -52.8100807, -27.774769 ], [ -52.8101702, -27.7747665 ], [ -52.8102627, -27.7747601 ], [ -52.8107398, -27.7747273 ], [ -52.8109071, -27.7747158 ], [ -52.8114293, -27.7746975 ], [ -52.8114642, -27.7746262 ], [ -52.8115422, -27.7741957 ], [ -52.8116977, -27.7741957 ], [ -52.8119096, -27.7742717 ], [ -52.8120759, -27.7742266 ], [ -52.8125024, -27.7738753 ], [ -52.8126875, -27.7738089 ], [ -52.81277870000001, -27.7737353 ], [ -52.8129557, -27.7735312 ], [ -52.8130871, -27.7734126 ], [ -52.8133017, -27.7733248 ], [ -52.8133714, -27.7732488 ], [ -52.8133556, -27.7730569 ], [ -52.81337, -27.7724723 ], [ -52.8134133, -27.7720238 ], [ -52.813448, -27.7716527 ], [ -52.8134738, -27.7714396 ], [ -52.8135029, -27.7711387 ], [ -52.8135263, -27.7706039 ], [ -52.8129389, -27.7706501 ] ] ] } },
{ "type": "Feature", "properties": { "name": "Santa Helena", "code_muni": 4316105.0, "name_muni": "Ronda Alta" }, "geometry": { "type": "Polygon", "coordinates": [ [ [ -52.8113624, -27.7761631 ], [ -52.811341, -27.7764882 ], [ -52.8114563, -27.7766258 ], [ -52.8114992, -27.7767184 ], [ -52.8114966, -27.7768418 ], [ -52.8113383, -27.7771456 ], [ -52.8113356, -27.7772073 ], [ -52.8113651, -27.7774185 ], [ -52.8115422, -27.778045 ], [ -52.8115314, -27.7783677 ], [ -52.8115234, -27.778419899999989 ], [ -52.8113437, -27.7786786 ], [ -52.8111586, -27.7791674 ], [ -52.8110325, -27.7792624 ], [ -52.8107122, -27.7793744 ], [ -52.8106351, -27.779425899999989 ], [ -52.8105692, -27.7798193 ], [ -52.8105471, -27.7800479 ], [ -52.8105417, -27.780278 ], [ -52.8106024, -27.780643099999988 ], [ -52.8109453, -27.7815739 ], [ -52.8112407, -27.7822331 ], [ -52.8112833, -27.7823282 ], [ -52.8117057, -27.7832911 ], [ -52.8107257, -27.7835738 ], [ -52.8103998, -27.7836468 ], [ -52.8099974, -27.7836958 ], [ -52.8100381, -27.7844076 ], [ -52.8103499, -27.7843681 ], [ -52.8107326, -27.7842952 ], [ -52.8112361, -27.7841744 ], [ -52.8119615, -27.783948 ], [ -52.8128318, -27.7837256 ], [ -52.8127581, -27.7836098 ], [ -52.812621, -27.7834406 ], [ -52.8124826, -27.7832368 ], [ -52.8123936, -27.7830879 ], [ -52.8131979, -27.7830081 ], [ -52.8164613, -27.7828504 ], [ -52.8162575, -27.780335 ], [ -52.8180063, -27.7789491 ], [ -52.8191114, -27.7804394 ], [ -52.8213, -27.7802401 ], [ -52.8193903, -27.7774825 ], [ -52.819303, -27.7774817 ], [ -52.81936, -27.7773017 ], [ -52.8193964, -27.7771103 ], [ -52.8194169, -27.7769327 ], [ -52.8194192, -27.7768165 ], [ -52.8194147, -27.7766866 ], [ -52.8194274, -27.7764681 ], [ -52.8194708, -27.7760302 ], [ -52.8195475, -27.7757288 ], [ -52.8113544, -27.7761109 ], [ -52.8113624, -27.7761631 ] ] ] } },
{ "type": "Feature", "properties": { "name": "Ipiranga", "code_muni": 4316105.0, "name_muni": "Ronda Alta" }, "geometry": { "type": "Polygon", "coordinates": [ [ [ -52.8141873, -27.7850081 ], [ -52.8136442, -27.7844386 ], [ -52.8133215, -27.7841323 ], [ -52.812895, -27.7837715 ], [ -52.8128318, -27.7837256 ], [ -52.8119615, -27.783948 ], [ -52.8112361, -27.7841744 ], [ -52.8107326, -27.7842952 ], [ -52.8103499, -27.7843681 ], [ -52.8100381, -27.7844076 ], [ -52.8094364, -27.7844685 ], [ -52.8093203, -27.7844888 ], [ -52.8079616, -27.78468980000001 ], [ -52.8077602, -27.784018 ], [ -52.8077128, -27.783948 ], [ -52.8074411, -27.7841342 ], [ -52.8072453, -27.7842315 ], [ -52.8065774, -27.784381 ], [ -52.8063118, -27.7844356 ], [ -52.8058961, -27.7845827 ], [ -52.8056654, -27.7847251 ], [ -52.8053758, -27.7849742 ], [ -52.8051478, -27.7852732 ], [ -52.8044665, -27.786239 ], [ -52.8036726, -27.787359 ], [ -52.802715, -27.7886973 ], [ -52.8021104, -27.7895573 ], [ -52.8020027, -27.789722 ], [ -52.8018343, -27.7899794 ], [ -52.8018665, -27.7900309 ], [ -52.8019533, -27.7900855 ], [ -52.8020954, -27.7902966 ], [ -52.8022134, -27.7906763 ], [ -52.8023851, -27.7909587 ], [ -52.8027338, -27.7911485 ], [ -52.802884, -27.791279 ], [ -52.8030288, -27.7914404 ], [ -52.8031495, -27.7916231 ], [ -52.8032514, -27.7917085 ], [ -52.8033158, -27.7918366 ], [ -52.8033802, -27.7918485 ], [ -52.8035572, -27.79182 ], [ -52.8038147, -27.7919624 ], [ -52.8039005, -27.7920668 ], [ -52.8041044, -27.7922281 ], [ -52.804319, -27.7922898 ], [ -52.804496, -27.7922803 ], [ -52.8045282, -27.7922329 ], [ -52.8048205, -27.7922993 ], [ -52.805011, -27.792418 ], [ -52.8051826, -27.7924868 ], [ -52.8053194, -27.7925888 ], [ -52.8054187, -27.7926362 ], [ -52.8055608, -27.7928071 ], [ -52.8056198, -27.792819 ], [ -52.8057244, -27.7927691 ], [ -52.8058532, -27.7925912 ], [ -52.8075993, -27.791559 ], [ -52.807256, -27.7906241 ], [ -52.8062642, -27.789571 ], [ -52.8078863, -27.788685499999989 ], [ -52.8104612, -27.787257 ], [ -52.8114563, -27.7867444 ], [ -52.8114831, -27.7865736 ], [ -52.8130281, -27.7860349 ], [ -52.8142297, -27.7851783 ], [ -52.8142948, -27.7851391 ], [ -52.8141873, -27.7850081 ] ] ] } },
{ "type": "Feature", "properties": { "name": "São Cristovão", "code_muni": 4316105.0, "name_muni": "Ronda Alta" }, "geometry": { "type": "Polygon", "coordinates": [ [ [ -52.8001267, -27.7831862 ], [ -52.8000972, -27.783113799999988 ], [ -52.7999362, -27.7829097 ], [ -52.7997458, -27.782606 ], [ -52.7996492, -27.782522899999989 ], [ -52.7993569, -27.7823687 ], [ -52.7989948, -27.7820768 ], [ -52.798782, -27.7819853 ], [ -52.7986032, -27.7819083 ], [ -52.7985334, -27.7818941 ], [ -52.7984101, -27.781906 ], [ -52.7980721, -27.7820436 ], [ -52.7976403, -27.7821005 ], [ -52.7974471, -27.7820982 ], [ -52.7971306, -27.782027 ], [ -52.7967981, -27.7819914 ], [ -52.79668, -27.7819463 ], [ -52.7964708, -27.7819771 ], [ -52.7962884, -27.7819605 ], [ -52.7961114, -27.7819107 ], [ -52.7960309, -27.7818348 ], [ -52.7959344, -27.781654399999987 ], [ -52.7957734, -27.7815737 ], [ -52.7957064, -27.7815785 ], [ -52.7954811, -27.7816615 ], [ -52.7950063, -27.7816758 ], [ -52.7948052, -27.7817161 ], [ -52.7945423, -27.7817754 ], [ -52.7940032, -27.7819795 ], [ -52.7938208, -27.7820032 ], [ -52.7937645, -27.7819938 ], [ -52.7935365, -27.7818941 ], [ -52.7933139, -27.7817209 ], [ -52.7932683, -27.7816924 ], [ -52.7930591, -27.7814432 ], [ -52.7928311, -27.7812178 ], [ -52.7927211, -27.7811751 ], [ -52.7925333, -27.7811513 ], [ -52.7923912, -27.7809662 ], [ -52.7921337, -27.7801736 ], [ -52.7911306, -27.7824328 ], [ -52.7921498, -27.7856125 ], [ -52.7918279, -27.7890533 ], [ -52.7944136, -27.7899787 ], [ -52.796157, -27.7875726 ], [ -52.7978307, -27.7860492 ], [ -52.7978642, -27.7838494 ], [ -52.8001613, -27.7832713 ], [ -52.8001267, -27.7831862 ] ] ] } },
{ "type": "Feature", "properties": { "name": "Vila da Boa Esperança", "code_muni": 4316105.0, "name_muni": "Ronda Alta" }, "geometry": { "type": "Polygon", "coordinates": [ [ [ -52.7879119, -27.7891007 ], [ -52.7903033, -27.7898795 ], [ -52.7902964, -27.7898007 ], [ -52.7903634, -27.789478 ], [ -52.7903044, -27.789115 ], [ -52.7903044, -27.7885597 ], [ -52.7903608, -27.7879997 ], [ -52.790409, -27.7878289 ], [ -52.7904573, -27.7874872 ], [ -52.7905448, -27.7873051 ], [ -52.7905233, -27.7872666 ], [ -52.7903141, -27.7872305 ], [ -52.7901918, -27.7872175 ], [ -52.7893757, -27.7870446 ], [ -52.7889539, -27.787003 ], [ -52.7887173, -27.7869526 ], [ -52.7879119, -27.7891007 ] ] ] } }
]
}
