{
"type": "FeatureCollection",
"name": "bairros_morro_redondo",
"crs": { "type": "name", "properties": { "name": "urn:ogc:def:crs:OGC:1.3:CRS84" } },
"features": [
{ "type": "Feature", "properties": { "code_muni": 4312450.0, "name_muni": "Morro Redondo", "code_state": 43.0, "abbrev_state": "RS", "name_state": "Rio Grande do Sul", "code_region": 4.0, "name_region": "Sul", "year": 2022.0 }, "geometry": { "type": "Polygon", "coordinates": [ [ [ -52.549253909999898, -31.561060644 ], [ -52.552468645, -31.562368545 ], [ -52.56136875, -31.570261027 ], [ -52.562864808, -31.575678439999898 ], [ -52.5647635239999, -31.574013497 ], [ -52.566861161, -31.575730518999904 ], [ -52.571724408, -31.576001367999893 ], [ -52.572873296999902, -31.578456145 ], [ -52.570809438, -31.580728044 ], [ -52.571245061999903, -31.582353360999896 ], [ -52.576629254999894, -31.586637238 ], [ -52.582123585, -31.589038355999893 ], [ -52.583122577, -31.591120759999988 ], [ -52.582291566, -31.598400402 ], [ -52.587163242, -31.602520356999893 ], [ -52.589178647, -31.608430160999902 ], [ -52.585457136999892, -31.614015029 ], [ -52.572200465, -31.620143711 ], [ -52.578038764, -31.622850054 ], [ -52.583267417999892, -31.631166359 ], [ -52.581834525, -31.63528316 ], [ -52.577772888, -31.638037005999909 ], [ -52.575338680999899, -31.651858850999893 ], [ -52.569592373, -31.659073452 ], [ -52.569756637, -31.665764403 ], [ -52.558262463999903, -31.67173624 ], [ -52.553693086, -31.671034386 ], [ -52.552305534, -31.673731976999903 ], [ -52.554020881, -31.674585529999888 ], [ -52.554364429, -31.678006099 ], [ -52.556314277999903, -31.680342028 ], [ -52.560409612999898, -31.680284597 ], [ -52.565963213, -31.684232716999897 ], [ -52.57697640899989, -31.679370306 ], [ -52.578216184, -31.681483375 ], [ -52.583575582, -31.683756752 ], [ -52.593361956, -31.692198006999902 ], [ -52.594542906, -31.695099297999899 ], [ -52.597474204, -31.695044992 ], [ -52.601937619999902, -31.697142743 ], [ -52.607761353999898, -31.693286562 ], [ -52.610123947, -31.695076132999901 ], [ -52.611364819, -31.702347774999989 ], [ -52.6055823, -31.710752937999903 ], [ -52.604892417, -31.714619268 ], [ -52.607700958999892, -31.718512114 ], [ -52.612280583, -31.720760476999899 ], [ -52.615713704, -31.728596944999893 ], [ -52.620313982, -31.727645879 ], [ -52.646228751, -31.73070286 ], [ -52.668976169, -31.738398935 ], [ -52.736550297999891, -31.740570928 ], [ -52.736998367999895, -31.73593943 ], [ -52.735750934999899, -31.733144238 ], [ -52.730107809999893, -31.732478559999908 ], [ -52.729132588, -31.729163899 ], [ -52.725089548, -31.726260451 ], [ -52.725258101, -31.719728897 ], [ -52.720958197, -31.718434197 ], [ -52.71862636399991, -31.715441297 ], [ -52.711762201999896, -31.711219544 ], [ -52.7147572659999, -31.699763156999893 ], [ -52.703710498, -31.694193928999894 ], [ -52.70534157, -31.682171997999905 ], [ -52.70027881, -31.672789109999904 ], [ -52.700840368999891, -31.670935395999901 ], [ -52.709423887999897, -31.664521677 ], [ -52.7080756, -31.66205073 ], [ -52.70369089, -31.663348097 ], [ -52.702401031, -31.644923675 ], [ -52.699238016, -31.640008431999892 ], [ -52.698814620999904, -31.636723495 ], [ -52.700903627999892, -31.632281922999898 ], [ -52.704964183999891, -31.630690966 ], [ -52.704034965999895, -31.624949903999909 ], [ -52.710026704, -31.624696744999895 ], [ -52.711117228, -31.619300743999911 ], [ -52.714608499, -31.616974187 ], [ -52.71289860799989, -31.615618740999892 ], [ -52.709222769, -31.615892761999895 ], [ -52.709664822, -31.611354107999905 ], [ -52.706293523999896, -31.609356858 ], [ -52.703312852999893, -31.612337649 ], [ -52.702114514, -31.61195846 ], [ -52.702238474, -31.610696339999901 ], [ -52.6987672509999, -31.60862213 ], [ -52.702025800999891, -31.6063512549999 ], [ -52.698340676, -31.603377599999899 ], [ -52.698916956999895, -31.599600543 ], [ -52.697356735, -31.597448352 ], [ -52.686778300999897, -31.593213579 ], [ -52.681088084999899, -31.586114866999893 ], [ -52.677627322, -31.5848878699999 ], [ -52.675602491999896, -31.582262595 ], [ -52.672603724999895, -31.583614801 ], [ -52.670593169, -31.581999578 ], [ -52.666488742999896, -31.583376205 ], [ -52.661321712999893, -31.582865899 ], [ -52.612157377, -31.504045896 ], [ -52.602010790999891, -31.511988250999906 ], [ -52.588563547, -31.527570098 ], [ -52.569291369, -31.540283633999898 ], [ -52.556493173, -31.554399272999895 ], [ -52.55107882, -31.556670873 ], [ -52.546904240999893, -31.56205204 ], [ -52.549253909999898, -31.561060644 ] ] ] } }
]
}
