{
"type": "FeatureCollection",
"name": "bairros_alto_feliz",
"crs": { "type": "name", "properties": { "name": "urn:ogc:def:crs:OGC:1.3:CRS84" } },
"features": [
{ "type": "Feature", "properties": { "code_muni": 4300570.0, "name_muni": "Alto Feliz", "code_state": 43.0, "abbrev_state": "RS", "name_state": "Rio Grande do Sul", "code_region": 4.0, "name_region": "Sul", "year": 2022.0 }, "geometry": { "type": "Polygon", "coordinates": [ [ [ -51.281946421, -29.372142809 ], [ -51.274340074999898, -29.396359291999907 ], [ -51.274068930999903, -29.400958472999896 ], [ -51.275882803999899, -29.404162124 ], [ -51.280441888, -29.404830422 ], [ -51.281934435, -29.403892475 ], [ -51.283631494, -29.405493221 ], [ -51.300769543999891, -29.410948185999899 ], [ -51.310695947999903, -29.412978220999893 ], [ -51.310648719, -29.4198948129999 ], [ -51.330106068, -29.4271854529999 ], [ -51.329547496, -29.415574971999892 ], [ -51.332134534, -29.409621463999894 ], [ -51.344639867999895, -29.381319898 ], [ -51.351937321, -29.375891636999899 ], [ -51.35495351, -29.3704557 ], [ -51.355430145, -29.367561726 ], [ -51.350948930999898, -29.357391542 ], [ -51.350500604366999, -29.351857060318508 ], [ -51.352659598618693, -29.333120248560899 ], [ -51.336453661999897, -29.332969288 ], [ -51.309448064, -29.323180487999895 ], [ -51.304308665999898, -29.322976798 ], [ -51.298716133, -29.317580066999898 ], [ -51.28283499, -29.318579880999902 ], [ -51.269859442, -29.312815269999891 ], [ -51.262101854, -29.315782579 ], [ -51.254108268, -29.326692603 ], [ -51.254187857, -29.333672997 ], [ -51.239383582999892, -29.354356239 ], [ -51.260249012, -29.350712404 ], [ -51.263323963999902, -29.358637847999901 ], [ -51.281946421, -29.372142809 ] ] ] } }
]
}
