{
"type": "FeatureCollection",
"name": "bairros_sao_valentim_do_sul",
"crs": { "type": "name", "properties": { "name": "urn:ogc:def:crs:OGC:1.3:CRS84" } },
"features": [
{ "type": "Feature", "properties": { "code_muni": 4319711.0, "name_muni": "São Valentim do Sul", "code_state": 43.0, "abbrev_state": "RS", "name_state": "Rio Grande do Sul", "code_region": 4.0, "name_region": "Sul", "year": 2022.0 }, "geometry": { "type": "Polygon", "coordinates": [ [ [ -51.742164554999896, -29.118703415 ], [ -51.746978328, -29.114744598 ], [ -51.752216061999903, -29.114374886 ], [ -51.7585113969999, -29.103653449 ], [ -51.808399414999897, -29.081724145999896 ], [ -51.803597079, -29.065448026 ], [ -51.809037283, -29.064301316 ], [ -51.805329037, -29.045702714 ], [ -51.814099102999897, -29.014511614 ], [ -51.794809901, -29.008873747999896 ], [ -51.792821656999898, -28.998676065 ], [ -51.779674375, -29.000763956999901 ], [ -51.779875976, -29.008089594999898 ], [ -51.760600444, -29.008092844 ], [ -51.7600161249999, -28.996492315999902 ], [ -51.755701116999894, -28.996866811 ], [ -51.750757667, -28.994407823 ], [ -51.741182905999892, -28.994518839 ], [ -51.738184678, -28.995935785 ], [ -51.73853501, -29.000116388 ], [ -51.741602531999902, -29.002032078 ], [ -51.742853469, -29.005637075 ], [ -51.741687925, -29.014056212999893 ], [ -51.737526762, -29.019061915999899 ], [ -51.728154699, -29.022610492 ], [ -51.729148194999894, -29.035569783 ], [ -51.728269666, -29.0390649459999 ], [ -51.726599442, -29.040401202999895 ], [ -51.723523784, -29.039239858 ], [ -51.717800594, -29.040427919 ], [ -51.710330766, -29.045975266 ], [ -51.713479416, -29.050254035 ], [ -51.720007509, -29.054798462999898 ], [ -51.719632950999902, -29.05954394 ], [ -51.710673837999899, -29.080497380999901 ], [ -51.711473613, -29.087208092 ], [ -51.714042510999903, -29.090670744 ], [ -51.721008495, -29.077964956999896 ], [ -51.725159608999903, -29.077543842999901 ], [ -51.728362219, -29.079758892 ], [ -51.730742566999893, -29.084763818999907 ], [ -51.729972059, -29.094504270999895 ], [ -51.72139535, -29.1054110339999 ], [ -51.713024738999898, -29.112397679 ], [ -51.712226152, -29.115654132 ], [ -51.722628801, -29.121901412999904 ], [ -51.730550212, -29.133782168 ], [ -51.73912896, -29.13675345 ], [ -51.737164923, -29.136006976 ], [ -51.732128117999899, -29.128981469999896 ], [ -51.739004936, -29.118833516999896 ], [ -51.742164554999896, -29.118703415 ] ] ] } }
]
}
