{
"type": "FeatureCollection",
"name": "bairros_jari",
"crs": { "type": "name", "properties": { "name": "urn:ogc:def:crs:OGC:1.3:CRS84" } },
"features": [
{ "type": "Feature", "properties": { "code_muni": 4311130.0, "name_muni": "Jari", "code_state": 43.0, "abbrev_state": "RS", "name_state": "Rio Grande do Sul", "code_region": 4.0, "name_region": "Sul", "year": 2022.0 }, "geometry": { "type": "Polygon", "coordinates": [ [ [ -54.32729685399989, -29.187494149 ], [ -54.330961853, -29.179056762999895 ], [ -54.342724226, -29.175740452 ], [ -54.338258201, -29.171586331999908 ], [ -54.334590786, -29.170141191 ], [ -54.333688504, -29.163552836 ], [ -54.347433506, -29.157688747 ], [ -54.350279171999901, -29.154222282 ], [ -54.344956636999896, -29.151612476 ], [ -54.34247253, -29.143884229 ], [ -54.340723212999897, -29.142281856 ], [ -54.338009902999893, -29.141596733 ], [ -54.330486669, -29.143035570999892 ], [ -54.32581757, -29.1419842019999 ], [ -54.316986927999892, -29.136736477999904 ], [ -54.307191551999892, -29.126403711 ], [ -54.303409127999899, -29.127436334 ], [ -54.304456667999901, -29.135267855999903 ], [ -54.297592837, -29.133020525999893 ], [ -54.294879308, -29.135312724999903 ], [ -54.292943438, -29.135013827 ], [ -54.293220022999897, -29.13325752 ], [ -54.299469369999898, -29.126681018999896 ], [ -54.296883889, -29.123039126 ], [ -54.297499305, -29.118019655999898 ], [ -54.293823217, -29.1072237509999 ], [ -54.294331172999897, -29.102686300999896 ], [ -54.297342823, -29.098613374 ], [ -54.29702427, -29.0939252639999 ], [ -54.290689238, -29.089469558 ], [ -54.29039721, -29.093752111 ], [ -54.2865001, -29.101224524 ], [ -54.287419031, -29.1051147159999 ], [ -54.283466834, -29.110713249999904 ], [ -54.2852217229999, -29.112991228999888 ], [ -54.283428704, -29.1170432649999 ], [ -54.280495349, -29.120831511999896 ], [ -54.273860718, -29.125421252 ], [ -54.271342574999899, -29.129852628 ], [ -54.255865953, -29.141331232 ], [ -54.245830359, -29.15245894 ], [ -54.236849462, -29.152905470999901 ], [ -54.226555138, -29.158588252 ], [ -54.215047782999896, -29.161809161999894 ], [ -54.206134706999904, -29.161687841999893 ], [ -54.196548478999901, -29.163773724999903 ], [ -54.165441147, -29.17933377 ], [ -54.168496350999902, -29.184244290999988 ], [ -54.17016308, -29.192437839 ], [ -54.147358493999903, -29.192975531999906 ], [ -54.1413104, -29.190562331 ], [ -54.139303433999899, -29.192869576 ], [ -54.127062434, -29.190126409 ], [ -54.081706303, -29.190886245999902 ], [ -54.073784111, -29.193651605999893 ], [ -54.074360855999892, -29.1949676089999 ], [ -54.072788358, -29.197381881 ], [ -54.068967164, -29.200092332999894 ], [ -54.070525534999902, -29.203888913 ], [ -54.065346145, -29.209062994 ], [ -54.065086121, -29.210930688 ], [ -54.069408529, -29.212655339 ], [ -54.072706997999894, -29.21177123 ], [ -54.076478014, -29.213051162999903 ], [ -54.076678983, -29.215011542 ], [ -54.074565607999894, -29.216467994 ], [ -54.07761204, -29.220841957999895 ], [ -54.078629014999898, -29.227326411 ], [ -54.084801071, -29.223306928999893 ], [ -54.085616258, -29.225281335 ], [ -54.087297960999891, -29.225364154 ], [ -54.085652287999892, -29.230264185 ], [ -54.088181103999901, -29.239351336 ], [ -54.090613763, -29.239206259999904 ], [ -54.098359538999894, -29.23378306 ], [ -54.100379585, -29.234696393 ], [ -54.098918166, -29.240300159999901 ], [ -54.101819265999893, -29.242625663999902 ], [ -54.10559397, -29.242034501 ], [ -54.106322999, -29.23974233 ], [ -54.112313722, -29.238588929999896 ], [ -54.111679602, -29.244789392 ], [ -54.106998787999899, -29.247609892 ], [ -54.113008449999896, -29.252983867999895 ], [ -54.114309934999895, -29.256734109 ], [ -54.117285711, -29.254362355 ], [ -54.116038804, -29.253463047 ], [ -54.117072245, -29.252115160999892 ], [ -54.119959015999896, -29.251220326 ], [ -54.122839417, -29.257091934999892 ], [ -54.127268546, -29.258731598999901 ], [ -54.130349913, -29.261930533999898 ], [ -54.128932924, -29.264224394999896 ], [ -54.124462216, -29.266701558 ], [ -54.124149873, -29.268779611 ], [ -54.129538996999898, -29.270789104 ], [ -54.129254358, -29.271915322 ], [ -54.134019303999899, -29.272474502 ], [ -54.133231871, -29.277833437 ], [ -54.134877189, -29.279302366 ], [ -54.138076661, -29.2801543809999 ], [ -54.141981498, -29.276822989 ], [ -54.146641066, -29.281207141 ], [ -54.149714442999901, -29.280164403 ], [ -54.158163348999899, -29.286326588 ], [ -54.157866955, -29.292348183999898 ], [ -54.154321834, -29.289225320999904 ], [ -54.151967584, -29.290240282 ], [ -54.152634607, -29.293781536 ], [ -54.155017137999899, -29.293724660999899 ], [ -54.158306555, -29.297774359 ], [ -54.156815364, -29.2999188269999 ], [ -54.156967585, -29.304556820999895 ], [ -54.151639128999896, -29.307554647 ], [ -54.151715367999898, -29.310383833999893 ], [ -54.161820836999901, -29.310446853 ], [ -54.162888725999892, -29.3113639859999 ], [ -54.159298421999893, -29.315462459999885 ], [ -54.153561791999898, -29.315014477 ], [ -54.152888617, -29.317129985 ], [ -54.158491402, -29.326150766 ], [ -54.166038221999898, -29.322549073999902 ], [ -54.167697975, -29.324562490999885 ], [ -54.165913497, -29.330722161 ], [ -54.167959712, -29.337273998999898 ], [ -54.164027066, -29.343435417 ], [ -54.172537485, -29.347651428999892 ], [ -54.173759183999898, -29.351539166999906 ], [ -54.177707767, -29.355908663 ], [ -54.177166013, -29.358848700999893 ], [ -54.189404943999889, -29.35498046 ], [ -54.189263419, -29.356414233 ], [ -54.181772451, -29.361673558999893 ], [ -54.179718209, -29.36482767 ], [ -54.186996725, -29.372750559999893 ], [ -54.186154417, -29.38193595 ], [ -54.199081657, -29.392290542999898 ], [ -54.199283448, -29.394339090999896 ], [ -54.194150533, -29.395775716999893 ], [ -54.193526968999898, -29.397808331 ], [ -54.195185228, -29.399190757999989 ], [ -54.200235776999889, -29.39875382899989 ], [ -54.202375235, -29.401153098999906 ], [ -54.203798134, -29.404288705999893 ], [ -54.199726697, -29.407122294 ], [ -54.199849429, -29.416664434 ], [ -54.201335749, -29.418444896 ], [ -54.208033567, -29.419869967999894 ], [ -54.208648597, -29.426345720999986 ], [ -54.212908521, -29.425195023 ], [ -54.213193143, -29.422327456999898 ], [ -54.214382422, -29.421874461 ], [ -54.2133744, -29.4212878609999 ], [ -54.217178948, -29.419821994 ], [ -54.216828163999899, -29.417681703 ], [ -54.220303518, -29.415121041 ], [ -54.21979240799989, -29.413197544 ], [ -54.225124444, -29.410240331 ], [ -54.245679422, -29.41149323 ], [ -54.250146948999891, -29.413912670999903 ], [ -54.253587045, -29.4137239299999 ], [ -54.255316318, -29.4113442989999 ], [ -54.266755519999897, -29.409686248 ], [ -54.275119253, -29.4024807129999 ], [ -54.276763451, -29.411168861 ], [ -54.273886194999896, -29.417166143 ], [ -54.278109698, -29.42310451899991 ], [ -54.282682565999892, -29.42067617 ], [ -54.290802586, -29.420600954999895 ], [ -54.293996451999902, -29.418946578999989 ], [ -54.296341873, -29.415775659 ], [ -54.305213638999895, -29.416019968999905 ], [ -54.3090834979999, -29.414160692999904 ], [ -54.31233989, -29.414919945999891 ], [ -54.312154577999891, -29.421042519 ], [ -54.3081806, -29.431832712 ], [ -54.320213340999899, -29.431988372 ], [ -54.318612655, -29.433587245999899 ], [ -54.321160844, -29.434074613 ], [ -54.332352511, -29.43031759 ], [ -54.343682594, -29.4290429439999 ], [ -54.349929624, -29.419634196999905 ], [ -54.356175268, -29.417542656 ], [ -54.362252741, -29.417206904 ], [ -54.370607935999899, -29.410467274 ], [ -54.376369418, -29.429082708 ], [ -54.380468041, -29.4324090819999 ], [ -54.391784351, -29.437303906 ], [ -54.394653290999898, -29.452070872 ], [ -54.397900931, -29.440692702 ], [ -54.4012115089999, -29.440820578999904 ], [ -54.407548495, -29.437339499 ], [ -54.409296138999892, -29.438746138999893 ], [ -54.412493049, -29.436970077999888 ], [ -54.41530633, -29.437652086 ], [ -54.41796991599989, -29.435205261 ], [ -54.420195424, -29.435543787 ], [ -54.4208537, -29.437719532 ], [ -54.424597231, -29.435529827 ], [ -54.427625226, -29.436261718 ], [ -54.431180893, -29.430390702999901 ], [ -54.430485234999892, -29.424522570000011 ], [ -54.435450822999897, -29.423431052 ], [ -54.440737493, -29.424411461 ], [ -54.443368968, -29.422399023 ], [ -54.444689818, -29.41902594 ], [ -54.457369485, -29.4182639919999 ], [ -54.460152643999898, -29.417319768 ], [ -54.462728636999898, -29.413647159999986 ], [ -54.468634328, -29.418214924 ], [ -54.472168619999898, -29.413042974999893 ], [ -54.483234942, -29.409922417 ], [ -54.486682657, -29.404092721 ], [ -54.490188523, -29.402090601999905 ], [ -54.49311195, -29.401970656999897 ], [ -54.493496832999902, -29.395689268999895 ], [ -54.496331937, -29.390784500999899 ], [ -54.504801874999892, -29.393228237 ], [ -54.513058229, -29.389572726 ], [ -54.512233389999892, -29.382441582 ], [ -54.510916019, -29.381850304999901 ], [ -54.503596033, -29.380996735999901 ], [ -54.49749701199989, -29.383994071 ], [ -54.486926544, -29.385861782999893 ], [ -54.479325903, -29.383608647 ], [ -54.479975196999895, -29.382140288999892 ], [ -54.4856217829999, -29.380528421999902 ], [ -54.50216088, -29.369197298999897 ], [ -54.503854184, -29.363763472999892 ], [ -54.501847133999902, -29.351631455 ], [ -54.503803648, -29.349098907999988 ], [ -54.507110865999891, -29.34776830999991 ], [ -54.507435554, -29.343882332 ], [ -54.505401358, -29.341276462999893 ], [ -54.498656093, -29.343867611 ], [ -54.494670696, -29.343574804 ], [ -54.49370765, -29.337965057 ], [ -54.48973448, -29.336086034999905 ], [ -54.49248219, -29.331717528 ], [ -54.5004893569999, -29.331715712999905 ], [ -54.501892147, -29.327608267 ], [ -54.494124999, -29.322871961000011 ], [ -54.487049920999894, -29.324542623 ], [ -54.475257833999898, -29.318120131999901 ], [ -54.472759133, -29.318746091 ], [ -54.468350065, -29.326212701 ], [ -54.464357957999901, -29.326312352999896 ], [ -54.463971119, -29.3243244 ], [ -54.467987956999899, -29.318156636 ], [ -54.464443536, -29.31452151 ], [ -54.457552247, -29.310755252 ], [ -54.455778434, -29.30793389 ], [ -54.45638301799989, -29.301070751999902 ], [ -54.455291973, -29.299678803999896 ], [ -54.453092424, -29.29968087 ], [ -54.452446742999911, -29.304042390999893 ], [ -54.448682103, -29.306298812 ], [ -54.441380018, -29.302482563 ], [ -54.435714408, -29.307009360999899 ], [ -54.431730812, -29.306758860999899 ], [ -54.429391025, -29.30108086 ], [ -54.430498771, -29.298682905 ], [ -54.425001449, -29.292461918 ], [ -54.428233237, -29.290264706 ], [ -54.4313592029999, -29.293042393999905 ], [ -54.433145198, -29.293118713999895 ], [ -54.431897825, -29.286764169 ], [ -54.4362401939999, -29.283954196 ], [ -54.440224121, -29.277043035 ], [ -54.436924311, -29.273978317999894 ], [ -54.432796612999901, -29.265108831 ], [ -54.427472658999896, -29.263308056999985 ], [ -54.427879054999892, -29.260336757999905 ], [ -54.432195567, -29.254305284999898 ], [ -54.430953842, -29.253092242 ], [ -54.422395477999892, -29.252658535 ], [ -54.417507058, -29.253781776 ], [ -54.415341258, -29.251452754999903 ], [ -54.414438178, -29.246651399 ], [ -54.415157982, -29.245553908 ], [ -54.423497324, -29.247412432 ], [ -54.431833852999901, -29.239217351 ], [ -54.431166576999892, -29.237332122999891 ], [ -54.428026259, -29.237120271 ], [ -54.418208705, -29.239107277 ], [ -54.413050003, -29.234253281 ], [ -54.403258951999895, -29.228569573999891 ], [ -54.392317221, -29.215098968999904 ], [ -54.387384412999893, -29.211417044 ], [ -54.389244743999903, -29.2076007699999 ], [ -54.39565241199989, -29.208943394 ], [ -54.399085149, -29.205507564 ], [ -54.399094194, -29.202267751 ], [ -54.396607650999989, -29.201435196 ], [ -54.374758679, -29.202313739 ], [ -54.377457552999907, -29.194623035999893 ], [ -54.374971751, -29.191916207 ], [ -54.365880482, -29.186706796 ], [ -54.367906685, -29.175393958 ], [ -54.366481684, -29.175061344 ], [ -54.363245478, -29.177693764 ], [ -54.353561541, -29.178982763 ], [ -54.350754696, -29.182542113 ], [ -54.346680159999892, -29.180960338 ], [ -54.343094661, -29.181406238 ], [ -54.331378778, -29.188508108000011 ], [ -54.32729685399989, -29.187494149 ] ] ] } }
]
}
