{
"type": "FeatureCollection",
"name": "bairros_soledade",
"crs": { "type": "name", "properties": { "name": "urn:ogc:def:crs:OGC:1.3:CRS84" } },
"features": [
{ "type": "Feature", "properties": { "name": "Missões", "code_muni": 4320800.0, "name_muni": "Soledade" }, "geometry": { "type": "Polygon", "coordinates": [ [ [ -52.4981582, -28.826562699999986 ], [ -52.4999754, -28.8266816 ], [ -52.5000532, -28.8266555 ], [ -52.5001425, -28.8266449 ], [ -52.5004555, -28.826632 ], [ -52.5005679, -28.826627 ], [ -52.5006706, -28.8266245 ], [ -52.5011056, -28.8266169 ], [ -52.5016697, -28.8266047 ], [ -52.5020632, -28.826602499999989 ], [ -52.5030674, -28.8265953 ], [ -52.5046279, -28.8269009 ], [ -52.5050165, -28.8262018 ], [ -52.505107, -28.8261961 ], [ -52.5059199, -28.8261249 ], [ -52.5059044, -28.8258671 ], [ -52.5097668, -28.8255476 ], [ -52.5090802, -28.8206691 ], [ -52.5120947, -28.820317 ], [ -52.51202, -28.8198092 ], [ -52.5118839, -28.8186522 ], [ -52.5117678, -28.8175774 ], [ -52.5116688, -28.8165135 ], [ -52.5115633, -28.8154217 ], [ -52.5101754, -28.8155486 ], [ -52.5089643, -28.8156759 ], [ -52.5080182, -28.8158566 ], [ -52.5067874, -28.8160843 ], [ -52.5066191, -28.8158157 ], [ -52.5000787, -28.8160913 ], [ -52.4992418, -28.8159503 ], [ -52.4982266, -28.8162015 ], [ -52.4983989, -28.8168914 ], [ -52.4985269, -28.8173709 ], [ -52.4987566, -28.8182768 ], [ -52.4991257, -28.8197418 ], [ -52.4993821, -28.8207592 ], [ -52.4985444, -28.8208168 ], [ -52.497861, -28.8208638 ], [ -52.4966874, -28.8208689 ], [ -52.4963344, -28.8208382 ], [ -52.4955995, -28.8206361 ], [ -52.4954171, -28.8205656 ], [ -52.4951972, -28.8204587 ], [ -52.4953875, -28.8209793 ], [ -52.4956578, -28.8217645 ], [ -52.4958193, -28.8222577 ], [ -52.4971068, -28.824560600000016 ], [ -52.4981582, -28.826562699999986 ] ] ] } },
{ "type": "Feature", "properties": { "name": "Botucaraí", "code_muni": 4320800.0, "name_muni": "Soledade" }, "geometry": { "type": "Polygon", "coordinates": [ [ [ -52.5198117, -28.7954099 ], [ -52.5135541, -28.7881216 ], [ -52.5066018, -28.7928417 ], [ -52.5040484, -28.7950419 ], [ -52.4953929, -28.803508199999989 ], [ -52.4944782, -28.8042274 ], [ -52.4929118, -28.8050924 ], [ -52.4874508, -28.807658900000011 ], [ -52.4729133, -28.8172099 ], [ -52.4750912, -28.8210733 ], [ -52.4765584, -28.8228828 ], [ -52.4769408, -28.8235592 ], [ -52.4718619, -28.8268916 ], [ -52.4730559, -28.828752399999988 ], [ -52.4786923, -28.8261462 ], [ -52.4807721, -28.8253008 ], [ -52.4808285, -28.8251786 ], [ -52.4808352, -28.8251246 ], [ -52.4812114, -28.8249454 ], [ -52.4815191, -28.8247662 ], [ -52.482238, -28.824250400000011 ], [ -52.4828911, -28.8237805 ], [ -52.4833323, -28.823455 ], [ -52.4845728, -28.8232012 ], [ -52.4848884, -28.8234745 ], [ -52.4851896, -28.8236673 ], [ -52.486341, -28.8243008 ], [ -52.4866193, -28.824454 ], [ -52.4971068, -28.824560600000016 ], [ -52.4958193, -28.8222577 ], [ -52.4956578, -28.8217645 ], [ -52.4953875, -28.8209793 ], [ -52.4951972, -28.8204587 ], [ -52.4954171, -28.8205656 ], [ -52.4955995, -28.8206361 ], [ -52.4963344, -28.8208382 ], [ -52.4966874, -28.8208689 ], [ -52.497861, -28.8208638 ], [ -52.4985444, -28.8208168 ], [ -52.4993821, -28.8207592 ], [ -52.4991257, -28.8197418 ], [ -52.4987566, -28.8182768 ], [ -52.4985269, -28.8173709 ], [ -52.4983989, -28.8168914 ], [ -52.4982266, -28.8162015 ], [ -52.4992418, -28.8159503 ], [ -52.5000787, -28.8160913 ], [ -52.5066191, -28.8158157 ], [ -52.5067874, -28.8160843 ], [ -52.5080182, -28.8158566 ], [ -52.5089643, -28.8156759 ], [ -52.5101754, -28.8155486 ], [ -52.5115633, -28.8154217 ], [ -52.5116567, -28.8151673 ], [ -52.5121905, -28.8154423 ], [ -52.5137794, -28.8162934 ], [ -52.5152707, -28.8172381 ], [ -52.5154681, -28.8183841 ], [ -52.5164467, -28.8183041 ], [ -52.5170517, -28.8182629 ], [ -52.517712, -28.8182126 ], [ -52.5179511, -28.8181944 ], [ -52.5186317, -28.8181185 ], [ -52.5206065, -28.8176922 ], [ -52.5223237, -28.817332599999986 ], [ -52.522988, -28.817203899999985 ], [ -52.5240603, -28.8169961 ], [ -52.5249816, -28.8167646 ], [ -52.5255342, -28.816707 ], [ -52.5261296, -28.8167188 ], [ -52.5264569, -28.8167528 ], [ -52.5198117, -28.7954099 ] ] ] } },
{ "type": "Feature", "properties": { "name": "Expedicionário", "code_muni": 4320800.0, "name_muni": "Soledade" }, "geometry": { "type": "Polygon", "coordinates": [ [ [ -52.4807721, -28.8253008 ], [ -52.4786923, -28.8261462 ], [ -52.4730559, -28.828752399999988 ], [ -52.4763251, -28.8338469 ], [ -52.48782640000001, -28.8412904 ], [ -52.49018670000001, -28.8420798 ], [ -52.4922467, -28.8421926 ], [ -52.4949933, -28.841666299999989 ], [ -52.4970961, -28.8404258 ], [ -52.4988556, -28.840914500000011 ], [ -52.5028253, -28.8350124 ], [ -52.5026643, -28.8329165 ], [ -52.5040066, -28.8321907 ], [ -52.5062724, -28.831984 ], [ -52.5059199, -28.8261249 ], [ -52.505107, -28.8261961 ], [ -52.5050165, -28.8262018 ], [ -52.5046279, -28.8269009 ], [ -52.5030674, -28.8265953 ], [ -52.5020632, -28.826602499999989 ], [ -52.5016697, -28.8266047 ], [ -52.5011056, -28.8266169 ], [ -52.5006706, -28.8266245 ], [ -52.5005679, -28.826627 ], [ -52.5004555, -28.826632 ], [ -52.5001425, -28.8266449 ], [ -52.5000532, -28.8266555 ], [ -52.4999754, -28.8266816 ], [ -52.4981582, -28.826562699999986 ], [ -52.4971068, -28.824560600000016 ], [ -52.4866193, -28.824454 ], [ -52.486341, -28.8243008 ], [ -52.4851896, -28.8236673 ], [ -52.4848884, -28.8234745 ], [ -52.4845728, -28.8232012 ], [ -52.4833323, -28.823455 ], [ -52.4828911, -28.8237805 ], [ -52.482238, -28.824250400000011 ], [ -52.4815191, -28.8247662 ], [ -52.4812114, -28.8249454 ], [ -52.4808352, -28.8251246 ], [ -52.4808285, -28.8251786 ], [ -52.4807721, -28.8253008 ] ] ] } },
{ "type": "Feature", "properties": { "name": "Farroupilha", "code_muni": 4320800.0, "name_muni": "Soledade" }, "geometry": { "type": "Polygon", "coordinates": [ [ [ -52.5138241, -28.844659 ], [ -52.5137178, -28.8438241 ], [ -52.513028, -28.8381408 ], [ -52.5128464, -28.8370779 ], [ -52.512863, -28.8369243 ], [ -52.5127691, -28.836955 ], [ -52.5125103, -28.837036199999986 ], [ -52.5124222, -28.8361637 ], [ -52.5109094, -28.8359663 ], [ -52.5107753, -28.8348714 ], [ -52.5080314, -28.834935900000016 ], [ -52.5063497, -28.8335838 ], [ -52.5062724, -28.831984 ], [ -52.5040066, -28.8321907 ], [ -52.5026643, -28.8329165 ], [ -52.5028253, -28.8350124 ], [ -52.4988556, -28.840914500000011 ], [ -52.5024605, -28.8427941 ], [ -52.5060654, -28.8434331 ], [ -52.5088978, -28.8493348 ], [ -52.5104857, -28.8514774 ], [ -52.5116444, -28.8526426 ], [ -52.5129319, -28.8574913 ], [ -52.5134039, -28.8583182 ], [ -52.5182895, -28.8585767 ], [ -52.5183231, -28.8582043 ], [ -52.5183311, -28.8579553 ], [ -52.5183097, -28.8576805 ], [ -52.5182761, -28.8574902 ], [ -52.5182453, -28.8573246 ], [ -52.5181903, -28.8571261 ], [ -52.5181192, -28.8569487 ], [ -52.5180146, -28.8567502 ], [ -52.5179046, -28.8565611 ], [ -52.5176351, -28.8561347 ], [ -52.5174473, -28.8558094 ], [ -52.5173146, -28.855511 ], [ -52.517214, -28.8552467 ], [ -52.5171094, -28.8549519 ], [ -52.5169672, -28.8544938 ], [ -52.5168264, -28.8530796 ], [ -52.5162091, -28.8519288 ], [ -52.5157716, -28.8505107 ], [ -52.515665, -28.8501847 ], [ -52.515496, -28.8497988 ], [ -52.5151996, -28.8493742 ], [ -52.5138143, -28.8478125 ], [ -52.5139275, -28.8455393 ], [ -52.5138241, -28.844659 ] ] ] } },
{ "type": "Feature", "properties": { "name": "Ipiranga", "code_muni": 4320800.0, "name_muni": "Soledade" }, "geometry": { "type": "Polygon", "coordinates": [ [ [ -52.5147796, -28.835505 ], [ -52.5148432, -28.8356461 ], [ -52.5149674, -28.8362091 ], [ -52.5140681, -28.8365438 ], [ -52.512863, -28.8369243 ], [ -52.5128464, -28.8370779 ], [ -52.513028, -28.8381408 ], [ -52.5137178, -28.8438241 ], [ -52.5138241, -28.844659 ], [ -52.5139275, -28.8455393 ], [ -52.5138143, -28.8478125 ], [ -52.5151996, -28.8493742 ], [ -52.515496, -28.8497988 ], [ -52.515665, -28.8501847 ], [ -52.5157716, -28.8505107 ], [ -52.5162091, -28.8519288 ], [ -52.5168264, -28.8530796 ], [ -52.5169672, -28.8544938 ], [ -52.5171094, -28.8549519 ], [ -52.517214, -28.8552467 ], [ -52.5173146, -28.855511 ], [ -52.5174473, -28.8558094 ], [ -52.5176351, -28.8561347 ], [ -52.5179046, -28.8565611 ], [ -52.5180146, -28.8567502 ], [ -52.5181192, -28.8569487 ], [ -52.5181903, -28.8571261 ], [ -52.5182453, -28.8573246 ], [ -52.5182761, -28.8574902 ], [ -52.5183097, -28.8576805 ], [ -52.5183311, -28.8579553 ], [ -52.5183231, -28.8582043 ], [ -52.5182895, -28.8585767 ], [ -52.5200987, -28.8584874 ], [ -52.5220299, -28.8578484 ], [ -52.5296689, -28.853920599999984 ], [ -52.5313855, -28.852605 ], [ -52.5333167, -28.850876 ], [ -52.5359774, -28.849184400000016 ], [ -52.5399552, -28.845424 ], [ -52.5384878, -28.8445656 ], [ -52.5363983, -28.8434262 ], [ -52.5357682, -28.8431371 ], [ -52.5350547, -28.8429962 ], [ -52.5349206, -28.8426954 ], [ -52.5345767, -28.8424177 ], [ -52.5270925, -28.83835890000001 ], [ -52.5269507, -28.8382904 ], [ -52.5211823, -28.8359992 ], [ -52.5161505, -28.8352379 ], [ -52.5153351, -28.8353789 ], [ -52.5147796, -28.835505 ] ] ] } },
{ "type": "Feature", "properties": { "name": "Fontes", "code_muni": 4320800.0, "name_muni": "Soledade" }, "geometry": { "type": "Polygon", "coordinates": [ [ [ -52.5270925, -28.83835890000001 ], [ -52.5345767, -28.8424177 ], [ -52.5365031, -28.8395706 ], [ -52.5330055, -28.837728499999987 ], [ -52.5264569, -28.8167528 ], [ -52.5261296, -28.8167188 ], [ -52.5255342, -28.816707 ], [ -52.5249816, -28.8167646 ], [ -52.5240603, -28.8169961 ], [ -52.522988, -28.817203899999985 ], [ -52.5223237, -28.817332599999986 ], [ -52.5206065, -28.8176922 ], [ -52.5186317, -28.8181185 ], [ -52.5179511, -28.8181944 ], [ -52.517712, -28.8182126 ], [ -52.5170517, -28.8182629 ], [ -52.5164467, -28.8183041 ], [ -52.5154681, -28.8183841 ], [ -52.5152707, -28.8172381 ], [ -52.5137794, -28.8162934 ], [ -52.5121905, -28.8154423 ], [ -52.5116567, -28.8151673 ], [ -52.5115633, -28.8154217 ], [ -52.5116688, -28.8165135 ], [ -52.5117678, -28.8175774 ], [ -52.5118839, -28.8186522 ], [ -52.51202, -28.8198092 ], [ -52.5120947, -28.820317 ], [ -52.51281, -28.8201981 ], [ -52.5128632, -28.8206327 ], [ -52.5129533, -28.8213338 ], [ -52.5130184, -28.821866 ], [ -52.5144768, -28.8347398 ], [ -52.5149167, -28.834711599999988 ], [ -52.5153351, -28.8353789 ], [ -52.5161505, -28.8352379 ], [ -52.5211823, -28.8359992 ], [ -52.5269507, -28.8382904 ], [ -52.5270925, -28.83835890000001 ] ] ] } },
{ "type": "Feature", "properties": { "name": "Centro", "code_muni": 4320800.0, "name_muni": "Soledade" }, "geometry": { "type": "Polygon", "coordinates": [ [ [ -52.5147796, -28.835505 ], [ -52.5153351, -28.8353789 ], [ -52.5149167, -28.834711599999988 ], [ -52.5144768, -28.8347398 ], [ -52.5130184, -28.821866 ], [ -52.5129533, -28.8213338 ], [ -52.5128632, -28.8206327 ], [ -52.51281, -28.8201981 ], [ -52.5120947, -28.820317 ], [ -52.5090802, -28.8206691 ], [ -52.5097668, -28.8255476 ], [ -52.5059044, -28.8258671 ], [ -52.5059199, -28.8261249 ], [ -52.5062724, -28.831984 ], [ -52.5063497, -28.8335838 ], [ -52.5080314, -28.834935900000016 ], [ -52.5107753, -28.8348714 ], [ -52.5109094, -28.8359663 ], [ -52.5124222, -28.8361637 ], [ -52.5125103, -28.837036199999986 ], [ -52.5127691, -28.836955 ], [ -52.512863, -28.8369243 ], [ -52.5140681, -28.8365438 ], [ -52.5149674, -28.8362091 ], [ -52.5148432, -28.8356461 ], [ -52.5147796, -28.835505 ] ] ] } }
]
}
