{
"type": "FeatureCollection",
"name": "bairros_linha_nova",
"crs": { "type": "name", "properties": { "name": "urn:ogc:def:crs:OGC:1.3:CRS84" } },
"features": [
{ "type": "Feature", "properties": { "code_muni": 4311643.0, "name_muni": "Linha Nova", "code_state": 43.0, "abbrev_state": "RS", "name_state": "Rio Grande do Sul", "code_region": 4.0, "name_region": "Sul", "year": 2022.0 }, "geometry": { "type": "Polygon", "coordinates": [ [ [ -51.233063516, -29.442127397 ], [ -51.237970338, -29.435416465999896 ], [ -51.243979533999891, -29.43568512099991 ], [ -51.248846724, -29.433575769999898 ], [ -51.235384047, -29.422740017 ], [ -51.227722886, -29.422561092 ], [ -51.217384019999898, -29.418402899999904 ], [ -51.207514766, -29.417829605 ], [ -51.202746573999896, -29.413728272999887 ], [ -51.199174601, -29.412847247999885 ], [ -51.198841865, -29.41081252 ], [ -51.196682451, -29.409391274999987 ], [ -51.189180553, -29.410277436999891 ], [ -51.191622365999898, -29.412969711999892 ], [ -51.191834496999903, -29.416535557 ], [ -51.181577769999897, -29.422761157 ], [ -51.185048412, -29.426798864 ], [ -51.185218463999895, -29.4290790219999 ], [ -51.178866276999891, -29.429115145 ], [ -51.168590578, -29.435426696 ], [ -51.173663857999898, -29.485489469 ], [ -51.17426542, -29.486855539 ], [ -51.177494172, -29.487254010999902 ], [ -51.179939170999901, -29.490064127 ], [ -51.177808517, -29.494106938 ], [ -51.205831856, -29.485020677 ], [ -51.222372601, -29.482763796 ], [ -51.226056013999894, -29.50117863899991 ], [ -51.238454591999989, -29.499388340999896 ], [ -51.24349691, -29.496105561 ], [ -51.252432734, -29.496751251 ], [ -51.254006685, -29.501488688999899 ], [ -51.261651054, -29.501621137 ], [ -51.263204135, -29.503627772 ], [ -51.270122441, -29.499750911 ], [ -51.272913344999893, -29.4893419049999 ], [ -51.267676838999897, -29.477653903 ], [ -51.255868939, -29.467475991 ], [ -51.254531246999903, -29.461590505999904 ], [ -51.25202712, -29.461873377 ], [ -51.248537066, -29.445586364 ], [ -51.234470031999898, -29.448578891999908 ], [ -51.233063516, -29.442127397 ] ] ] } }
]
}
