{
"type": "FeatureCollection",
"name": "bairros_turucu",
"crs": { "type": "name", "properties": { "name": "urn:ogc:def:crs:OGC:1.3:CRS84" } },
"features": [
{ "type": "Feature", "properties": { "code_muni": 4322327.0, "name_muni": "Turuçu", "code_state": 43.0, "abbrev_state": "RS", "name_state": "Rio Grande do Sul", "code_region": 4.0, "name_region": "Sul", "year": 2022.0 }, "geometry": { "type": "Polygon", "coordinates": [ [ [ -52.208702043, -31.459378592999897 ], [ -52.213031042999901, -31.458498581999898 ], [ -52.227643336, -31.447250891 ], [ -52.233015499, -31.449835419999893 ], [ -52.235805593999892, -31.449569993 ], [ -52.237615746, -31.448087257999902 ], [ -52.238020616, -31.444669964 ], [ -52.252624801, -31.451146713 ], [ -52.290232067, -31.475581894 ], [ -52.295419208999895, -31.475837692 ], [ -52.296127687, -31.478267312 ], [ -52.29453122, -31.484001677 ], [ -52.297727289, -31.486297578999892 ], [ -52.297193182999891, -31.489575406 ], [ -52.300673586, -31.490539586 ], [ -52.304641838999899, -31.483254063999901 ], [ -52.301916288, -31.477630943999895 ], [ -52.304969770999897, -31.475049214 ], [ -52.305395026, -31.472301007999899 ], [ -52.308827333, -31.467774682 ], [ -52.308995248, -31.460951816 ], [ -52.302517759, -31.457603742999904 ], [ -52.308704811, -31.440401456 ], [ -52.305813374, -31.436328976 ], [ -52.30059535999991, -31.434813537 ], [ -52.298596023999899, -31.432106205 ], [ -52.29074747899989, -31.428384094 ], [ -52.2815597479999, -31.428104349 ], [ -52.279089278999898, -31.426694288 ], [ -52.28254969599989, -31.425388127 ], [ -52.284639037, -31.420000399999907 ], [ -52.282134507, -31.417698147 ], [ -52.282816017999892, -31.414700055 ], [ -52.278465411, -31.4057408739999 ], [ -52.285953108999891, -31.400259543999898 ], [ -52.279813641, -31.392079011 ], [ -52.277365131, -31.3904969979999 ], [ -52.265107446999892, -31.392738467 ], [ -52.247212544999989, -31.3891633439999 ], [ -52.23817865, -31.388680698 ], [ -52.229612250999899, -31.392706999 ], [ -52.227607037, -31.389177076 ], [ -52.221805061999902, -31.386599049 ], [ -52.223020374, -31.381696177 ], [ -52.205669070999903, -31.377532252 ], [ -52.197537363, -31.379752773 ], [ -52.195644848, -31.379257284999902 ], [ -52.188621291999894, -31.38299324 ], [ -52.181407662, -31.383140952 ], [ -52.176487927, -31.390976282999894 ], [ -52.161637245999898, -31.403054351 ], [ -52.165073811, -31.405878974 ], [ -52.168340473999891, -31.411233029999892 ], [ -52.16385845699989, -31.415036272999892 ], [ -52.160701409999902, -31.413826942 ], [ -52.157461779, -31.414693837 ], [ -52.139148757, -31.426949226 ], [ -52.130868485999898, -31.426972124 ], [ -52.123609391999899, -31.429013869999896 ], [ -52.11830643, -31.440912196999903 ], [ -52.119405688, -31.442290763999903 ], [ -52.118819286, -31.444836602999896 ], [ -52.114316545, -31.449436585999898 ], [ -52.107020642, -31.452155751 ], [ -52.107605953, -31.45810641 ], [ -52.105024585, -31.460200703999892 ], [ -52.107007913, -31.463247915 ], [ -52.101116593, -31.472069205 ], [ -52.087343715, -31.482129719999897 ], [ -52.075323763, -31.48493954 ], [ -52.071515731, -31.489798993 ], [ -52.067890148999901, -31.490425087999899 ], [ -52.067015775999899, -31.492759806 ], [ -52.069126075, -31.495388418999902 ], [ -52.063280367999901, -31.500747927 ], [ -52.063820464999893, -31.501972429 ], [ -52.0582650489999, -31.504510294999896 ], [ -52.058080628, -31.508540589999892 ], [ -52.056668064999897, -31.508369479 ], [ -52.055028708999892, -31.510709612 ], [ -52.051064244, -31.51102980699989 ], [ -52.053995183, -31.513229345999896 ], [ -52.05225962, -31.514311978 ], [ -52.049511881999891, -31.512467736 ], [ -52.047736667, -31.513024941 ], [ -52.049342866, -31.515534375999898 ], [ -52.046245731999903, -31.516667394 ], [ -52.045614008, -31.519142691 ], [ -52.048438663999896, -31.521293849999907 ], [ -52.04771949, -31.522253955999901 ], [ -52.041365715, -31.518966842999895 ], [ -52.03372884399991, -31.520805408999898 ], [ -52.032562233, -31.518991404 ], [ -52.033881594, -31.515021897999901 ], [ -52.032965899, -31.505607266 ], [ -52.029076813999893, -31.505903598 ], [ -52.022009889999907, -31.502466629 ], [ -52.01637753499989, -31.503556126 ], [ -52.010236045999896, -31.500941630999893 ], [ -52.009506965, -31.502954482 ], [ -52.01793487, -31.540338344 ], [ -52.015644153, -31.570036091 ], [ -52.013704596, -31.58180565 ], [ -52.011389048999902, -31.585652078 ], [ -52.012185235999894, -31.588352223999898 ], [ -52.010942175, -31.59413488 ], [ -52.013451625999899, -31.59719978 ], [ -52.016532959999893, -31.597755256 ], [ -52.021828915, -31.596348740999897 ], [ -52.023400287999891, -31.589709980999892 ], [ -52.026973148, -31.58778519 ], [ -52.031839879999907, -31.589016113999893 ], [ -52.034029707999899, -31.594128729 ], [ -52.03655402, -31.594562449 ], [ -52.0392722449999, -31.592834264 ], [ -52.037867214, -31.586565257 ], [ -52.038511914, -31.577119668 ], [ -52.041707941, -31.574080544 ], [ -52.047642497, -31.57258351 ], [ -52.04501254, -31.568100936999908 ], [ -52.043006045, -31.571959924999899 ], [ -52.039064653, -31.571957243999989 ], [ -52.036783634, -31.569696092999912 ], [ -52.038645390999903, -31.565262446 ], [ -52.03794864799989, -31.562815525 ], [ -52.039867350999891, -31.559980434 ], [ -52.043020366999897, -31.560633722 ], [ -52.043365755, -31.562406226 ], [ -52.045527378, -31.563118217999904 ], [ -52.048086395, -31.56144418 ], [ -52.045935256, -31.559775749 ], [ -52.065039193, -31.555807735 ], [ -52.077515581999897, -31.551443443 ], [ -52.085614457, -31.55125114 ], [ -52.088338436, -31.5498546439999 ], [ -52.103323713, -31.553412057999896 ], [ -52.107675137999898, -31.555760413 ], [ -52.111071099999897, -31.554409435 ], [ -52.110427526, -31.560206611999892 ], [ -52.107146147, -31.562549282 ], [ -52.105353582, -31.562006988999904 ], [ -52.105015946, -31.564376950999897 ], [ -52.111831035, -31.562176727999908 ], [ -52.112163458999895, -31.559219686999906 ], [ -52.114450497999904, -31.558588902999904 ], [ -52.117143469, -31.559982873 ], [ -52.120233861, -31.564990173 ], [ -52.123109916, -31.564410273 ], [ -52.124337801, -31.5601715449999 ], [ -52.127006046, -31.559070048 ], [ -52.129157541, -31.560843553 ], [ -52.127925651999895, -31.56307878 ], [ -52.130318767999903, -31.562885670999901 ], [ -52.130995573, -31.564973897 ], [ -52.135627601999893, -31.563446471 ], [ -52.137606552, -31.556158296 ], [ -52.130488645, -31.555110406 ], [ -52.134755288, -31.55021715 ], [ -52.134649921999895, -31.546513373 ], [ -52.13794875, -31.545666982999897 ], [ -52.138029105, -31.542257145999898 ], [ -52.14045874499989, -31.545398732 ], [ -52.142533833, -31.543849157999894 ], [ -52.144205504999896, -31.544692134999899 ], [ -52.145602348, -31.542177801 ], [ -52.146670285, -31.543298724 ], [ -52.148440143, -31.541090917 ], [ -52.146603862999896, -31.540104949999893 ], [ -52.148101313, -31.53990212 ], [ -52.148790985999902, -31.5356958909999 ], [ -52.152486993, -31.534334594 ], [ -52.154777894999903, -31.535602946 ], [ -52.158443755, -31.534860489 ], [ -52.161804815, -31.531934201 ], [ -52.16171933, -31.529740101 ], [ -52.164498678, -31.527143502999895 ], [ -52.165872919, -31.5231029619999 ], [ -52.163795463, -31.520243709999896 ], [ -52.164782294, -31.5180262169999 ], [ -52.166939842, -31.517808274999894 ], [ -52.169685560999902, -31.519663551 ], [ -52.173614281, -31.519226461999903 ], [ -52.177010695, -31.514804361 ], [ -52.177569784, -31.510628526999891 ], [ -52.174478633, -31.510029043 ], [ -52.171633670999896, -31.505655866 ], [ -52.173018747, -31.504108522 ], [ -52.17126741, -31.501648979 ], [ -52.169067102, -31.501109882 ], [ -52.1690014449999, -31.49913156 ], [ -52.173124126999895, -31.498420420999903 ], [ -52.176067954, -31.492870164 ], [ -52.181300571999898, -31.489345978 ], [ -52.183971399, -31.483937709 ], [ -52.189505456999903, -31.486687768 ], [ -52.191556573, -31.483590604 ], [ -52.195192974999898, -31.484642779999902 ], [ -52.208905179999903, -31.480538751 ], [ -52.213478562, -31.480364586 ], [ -52.21226598499991, -31.467249672 ], [ -52.208702043, -31.459378592999897 ] ] ] } }
]
}
