{
"type": "FeatureCollection",
"name": "bairros_chiapetta",
"crs": { "type": "name", "properties": { "name": "urn:ogc:def:crs:OGC:1.3:CRS84" } },
"features": [
{ "type": "Feature", "properties": { "code_muni": 4305405.0, "name_muni": "Chiapetta", "code_state": 43.0, "abbrev_state": "RS", "name_state": "Rio Grande do Sul", "code_region": 4.0, "name_region": "Sul", "year": 2022.0 }, "geometry": { "type": "Polygon", "coordinates": [ [ [ -53.994053164, -28.031211211 ], [ -54.004193686, -28.029438427999896 ], [ -54.004025845999898, -28.025080749 ], [ -54.007255186999899, -28.017867125999889 ], [ -54.009983771, -28.017639308 ], [ -54.011447454999903, -28.013886388999897 ], [ -54.010746301, -28.012071334 ], [ -54.019220752, -28.006565588999909 ], [ -54.018666071, -28.005283483 ], [ -54.015240164, -28.006066605999901 ], [ -54.013245825999903, -28.003511929999899 ], [ -54.014544403999892, -28.002092497 ], [ -54.018598947, -28.001812747 ], [ -54.023605587, -27.996461278 ], [ -54.027983153, -27.993396448999899 ], [ -54.029487413, -27.993729343 ], [ -54.02793022, -27.988815579999901 ], [ -54.030272124, -27.984958646999907 ], [ -54.034455215, -27.984461116 ], [ -54.031237743, -27.983202761 ], [ -54.032207082, -27.979648525999892 ], [ -54.022897976, -27.972559315999888 ], [ -54.019723278999905, -27.967424443 ], [ -54.020798476, -27.959283045999889 ], [ -54.019946350999895, -27.952083985999899 ], [ -54.028918726, -27.947344366 ], [ -54.02939606199989, -27.940368221 ], [ -54.026777861, -27.931534347 ], [ -54.019656988, -27.927129541999896 ], [ -54.0178320589999, -27.923372779 ], [ -54.007990117, -27.918414320999901 ], [ -54.004958638999902, -27.914873354999902 ], [ -53.998985853, -27.91689199 ], [ -53.97544125799989, -27.884063054 ], [ -53.977622863, -27.878368915999896 ], [ -53.97309315199989, -27.8690951089999 ], [ -53.96776755, -27.86518639 ], [ -53.958722708, -27.861747806 ], [ -53.954778056999892, -27.857478768 ], [ -53.95337694900001, -27.851548838999989 ], [ -53.950477486999901, -27.851822182 ], [ -53.951442218, -27.855575662 ], [ -53.950005182, -27.857719351999897 ], [ -53.94712251, -27.857560760999903 ], [ -53.946963715, -27.85516567 ], [ -53.942606640999891, -27.853002323999895 ], [ -53.940540701, -27.858432241999896 ], [ -53.941278687, -27.862116457 ], [ -53.934838816, -27.862980627999907 ], [ -53.9343770629999, -27.864645801999902 ], [ -53.936166661999899, -27.866741660999903 ], [ -53.932560891, -27.868855316999898 ], [ -53.92981307799991, -27.868158360999903 ], [ -53.92398105, -27.871848086999893 ], [ -53.920065006, -27.866843747 ], [ -53.918387713999891, -27.869244518 ], [ -53.920816034, -27.875635116 ], [ -53.92029587, -27.882207655999903 ], [ -53.915705363, -27.881866155999901 ], [ -53.907130034, -27.883976049 ], [ -53.908222587, -27.885289594 ], [ -53.906388530999891, -27.887333769999895 ], [ -53.901795965, -27.889197738 ], [ -53.898370428, -27.893446847 ], [ -53.897269170999898, -27.896298229 ], [ -53.898548832, -27.896019794 ], [ -53.899050637999899, -27.89841702599989 ], [ -53.895376805, -27.897373844999898 ], [ -53.891532044, -27.899983101 ], [ -53.889433838999892, -27.907698954 ], [ -53.887441513999896, -27.908135532999903 ], [ -53.887272041999893, -27.916282539 ], [ -53.878079021, -27.918424198 ], [ -53.875134016999901, -27.920837655 ], [ -53.871569628, -27.920546925999894 ], [ -53.868656568999896, -27.924523667 ], [ -53.864327612999901, -27.925591156999893 ], [ -53.863870288, -27.9278785 ], [ -53.861768195, -27.9283860849999 ], [ -53.859731478, -27.932009364 ], [ -53.859821795, -27.935431048999899 ], [ -53.856947063, -27.939238856 ], [ -53.851476777999899, -27.940541 ], [ -53.847497475, -27.946634082999893 ], [ -53.84461619, -27.947300965 ], [ -53.847488159, -27.949420189 ], [ -53.846253105999899, -27.953216386999902 ], [ -53.847219259, -27.954212519999903 ], [ -53.837394794, -27.957537467 ], [ -53.831043967, -27.963641477999897 ], [ -53.830968379, -27.966158422 ], [ -53.825868966, -27.964838729 ], [ -53.824220818999898, -27.965966684 ], [ -53.822772316999902, -27.970377147 ], [ -53.818516583, -27.972740139999896 ], [ -53.813983563, -27.973277471999893 ], [ -53.813367135, -27.97779323 ], [ -53.811199342, -27.98100024 ], [ -53.809367172999892, -27.981460618 ], [ -53.804968050999896, -27.978787204999893 ], [ -53.79758492, -27.985203155 ], [ -53.788934412999893, -27.986534873 ], [ -53.78602402300001, -27.985230393999903 ], [ -53.780983831999897, -27.985736974 ], [ -53.775691598, -27.990639713 ], [ -53.760336896, -27.994569548 ], [ -53.749043855, -27.992581378999908 ], [ -53.754422936, -27.997093542 ], [ -53.758044879999893, -28.018303276 ], [ -53.767906635, -28.026635524999989 ], [ -53.771515593999901, -28.033749265 ], [ -53.779391222, -28.041804274 ], [ -53.8334065459999, -28.063095921999899 ], [ -53.839010953, -28.071708769999908 ], [ -53.842076124999899, -28.073864584 ], [ -53.849420385, -28.076051386999904 ], [ -53.858989836, -28.075869032 ], [ -53.868205092, -28.078852218 ], [ -53.874010811999902, -28.085458038999903 ], [ -53.878931647999892, -28.098863803 ], [ -53.910017602, -28.115396297 ], [ -53.910548676, -28.110714335999901 ], [ -53.906003779999892, -28.103554731 ], [ -53.904379004, -28.097390527999899 ], [ -53.904525252, -28.082758031 ], [ -53.914855685, -28.070584805999903 ], [ -53.928559662999902, -28.061819886 ], [ -53.938384387, -28.064914326 ], [ -53.940963977, -28.063403105 ], [ -53.943489703999894, -28.063603589 ], [ -53.946552870999902, -28.061097157999885 ], [ -53.952975254, -28.059667461999904 ], [ -53.957838723, -28.061848241 ], [ -53.963586161, -28.061669413999908 ], [ -53.965372521999903, -28.064535771 ], [ -53.970864116, -28.066738803 ], [ -53.974167311, -28.066392957999902 ], [ -53.973707899, -28.064760502999903 ], [ -53.975723345999903, -28.063644655 ], [ -53.981617375, -28.063226875999895 ], [ -53.981809063999897, -28.060578474 ], [ -53.983656477999894, -28.059671835 ], [ -53.982327632, -28.0556769199999 ], [ -53.987983158, -28.055474499999903 ], [ -53.99290674, -28.048545609 ], [ -53.993983737, -28.041339826999895 ], [ -53.9891136809999, -28.037880034 ], [ -53.992689581, -28.035033145999904 ], [ -53.994053164, -28.031211211 ] ] ] } }
]
}
