{
"type": "FeatureCollection",
"name": "bairros_tres_arroios",
"crs": { "type": "name", "properties": { "name": "urn:ogc:def:crs:OGC:1.3:CRS84" } },
"features": [
{ "type": "Feature", "properties": { "code_muni": 4321634.0, "name_muni": "Três Arroios", "code_state": 43.0, "abbrev_state": "RS", "name_state": "Rio Grande do Sul", "code_region": 4.0, "name_region": "Sul", "year": 2022.0 }, "geometry": { "type": "Polygon", "coordinates": [ [ [ -52.106952075, -27.5075199149999 ], [ -52.107251288, -27.516411944 ], [ -52.124746914999896, -27.517232519999901 ], [ -52.128414752, -27.516318403 ], [ -52.132376855, -27.517515570999894 ], [ -52.130114099, -27.538586533999904 ], [ -52.134047924999898, -27.539647074999902 ], [ -52.132882544, -27.550363429 ], [ -52.135596235, -27.546890473999987 ], [ -52.138934573, -27.545514306 ], [ -52.146530872, -27.545747483999897 ], [ -52.149368853999903, -27.544008037 ], [ -52.152016201, -27.544155111999899 ], [ -52.161354264, -27.533243671 ], [ -52.151965517, -27.532179192999902 ], [ -52.154099313, -27.529416246 ], [ -52.153612054, -27.52585978 ], [ -52.161027668, -27.530725028999893 ], [ -52.178228954, -27.533831998 ], [ -52.183533105, -27.541158405 ], [ -52.187103507, -27.543606568 ], [ -52.185654202, -27.568141909 ], [ -52.237178227999898, -27.569263356 ], [ -52.238184533, -27.543472853 ], [ -52.22743127, -27.551750809999906 ], [ -52.227330762, -27.54256084 ], [ -52.2174287, -27.541787395 ], [ -52.218720264, -27.529633571 ], [ -52.224120065, -27.530220466999889 ], [ -52.226661089999901, -27.5289654749999 ], [ -52.226193501999894, -27.510287063 ], [ -52.230298035, -27.510287895 ], [ -52.230969398, -27.500717036 ], [ -52.237320962999895, -27.501070074 ], [ -52.237167172999897, -27.482239665999899 ], [ -52.238665467, -27.482350607999901 ], [ -52.240050720999896, -27.480363906 ], [ -52.24177572, -27.475041906999898 ], [ -52.237777870999892, -27.472247744 ], [ -52.237875335999895, -27.470031203 ], [ -52.239952328, -27.467726867999893 ], [ -52.245440694, -27.46701562 ], [ -52.243314811999902, -27.462774327 ], [ -52.236483964999898, -27.457376266 ], [ -52.238264867999902, -27.455388469 ], [ -52.240371793, -27.455508758 ], [ -52.239678614, -27.451348179 ], [ -52.243203368, -27.445337564999903 ], [ -52.240584976, -27.441628061 ], [ -52.241688144, -27.437897276999902 ], [ -52.2359732359999, -27.437858189999897 ], [ -52.238955836999899, -27.4316918009999 ], [ -52.23653152299989, -27.427448926999897 ], [ -52.228987435, -27.431491477 ], [ -52.227785105999899, -27.431354713 ], [ -52.227107287, -27.428535714 ], [ -52.234514256999894, -27.421335296999892 ], [ -52.236114948, -27.410888230999902 ], [ -52.227663591999892, -27.413858617 ], [ -52.226462294, -27.410458988 ], [ -52.229189421999898, -27.407895295999904 ], [ -52.194190927, -27.408361339 ], [ -52.194298761, -27.418830785999898 ], [ -52.196621502, -27.418731825 ], [ -52.196683564, -27.420825696 ], [ -52.192584078, -27.423015458 ], [ -52.190088140999897, -27.427712326999902 ], [ -52.193530596999899, -27.442530196999893 ], [ -52.191615812999899, -27.44456595 ], [ -52.180615822999989, -27.443802107999893 ], [ -52.182940092, -27.449136328999906 ], [ -52.175302138999896, -27.450849913 ], [ -52.168661767999907, -27.458913041999896 ], [ -52.162558949999891, -27.456527654 ], [ -52.161166206, -27.469060263999904 ], [ -52.158532331999893, -27.467662296 ], [ -52.144702497, -27.477811281 ], [ -52.132961284, -27.465493265 ], [ -52.118769366, -27.470146935999896 ], [ -52.108644845, -27.475171058999905 ], [ -52.107397741999897, -27.473538365 ], [ -52.107902491999894, -27.480950988 ], [ -52.067068348, -27.480270254999901 ], [ -52.067031189, -27.491726899 ], [ -52.073573377999899, -27.491600154 ], [ -52.079995917, -27.496325875 ], [ -52.079584656, -27.50176733 ], [ -52.0750483469999, -27.504722328 ], [ -52.07833535, -27.506561201 ], [ -52.086166593, -27.506219837999904 ], [ -52.088796296999902, -27.507683162 ], [ -52.106952075, -27.5075199149999 ] ] ] } }
]
}
