{
"type": "FeatureCollection",
"name": "bairros_mormaco",
"crs": { "type": "name", "properties": { "name": "urn:ogc:def:crs:OGC:1.3:CRS84" } },
"features": [
{ "type": "Feature", "properties": { "code_muni": 4312427.0, "name_muni": "Mormaço", "code_state": 43.0, "abbrev_state": "RS", "name_state": "Rio Grande do Sul", "code_region": 4.0, "name_region": "Sul", "year": 2022.0 }, "geometry": { "type": "Polygon", "coordinates": [ [ [ -52.708916680999891, -28.686057317999893 ], [ -52.7144655069999, -28.683824060999893 ], [ -52.725611344, -28.673373292 ], [ -52.722617707, -28.666534699999904 ], [ -52.706573192999898, -28.668251697 ], [ -52.705026368999903, -28.666163765 ], [ -52.705364564, -28.661455041999908 ], [ -52.703366118, -28.658667212999902 ], [ -52.69956508, -28.661284015 ], [ -52.701526691, -28.664897917 ], [ -52.69652640399989, -28.667507633 ], [ -52.695385933999894, -28.666329267 ], [ -52.6948986949999, -28.658752800999885 ], [ -52.699478548999899, -28.656774216 ], [ -52.708745397, -28.65605182 ], [ -52.708640945999896, -28.651218871 ], [ -52.706381031, -28.65082382 ], [ -52.700558604, -28.653058678 ], [ -52.69819158, -28.651975923 ], [ -52.702213152999903, -28.647622806999898 ], [ -52.700930236, -28.643489463 ], [ -52.704079254, -28.638691266 ], [ -52.710979516, -28.633721215 ], [ -52.710201599999898, -28.632433649999903 ], [ -52.702314955, -28.628712752 ], [ -52.689695118, -28.636088273999984 ], [ -52.687254693999897, -28.636421911999904 ], [ -52.682990079, -28.633604611 ], [ -52.680785848, -28.629039926 ], [ -52.678641355, -28.628946867 ], [ -52.668781179, -28.634146931 ], [ -52.667784098, -28.632356288 ], [ -52.669075668999902, -28.628721573999893 ], [ -52.666215690999898, -28.627868898 ], [ -52.664476878999892, -28.625461979 ], [ -52.668831729, -28.618145044 ], [ -52.668504567999904, -28.614329328999904 ], [ -52.664136052999901, -28.606415975999905 ], [ -52.662448895999894, -28.606338001 ], [ -52.660960926, -28.607243514999904 ], [ -52.660572955, -28.611630463 ], [ -52.663178038, -28.612837242 ], [ -52.657351322, -28.613990230999899 ], [ -52.657042509, -28.620573656 ], [ -52.651582709, -28.621856507 ], [ -52.649625175, -28.624915383 ], [ -52.642473615, -28.627857269999893 ], [ -52.628797678, -28.626843016999903 ], [ -52.625961587999903, -28.630551838 ], [ -52.628630286, -28.635814594 ], [ -52.623586144999898, -28.640124780999898 ], [ -52.621332008, -28.639864753 ], [ -52.617610148, -28.641663934999901 ], [ -52.61700397, -28.638046796 ], [ -52.61479055, -28.636984213999895 ], [ -52.615132221, -28.643772925999908 ], [ -52.612910917, -28.64942015 ], [ -52.611173102, -28.666717063 ], [ -52.608688953999895, -28.673383605 ], [ -52.603016676, -28.679314471999902 ], [ -52.592521453, -28.684757497 ], [ -52.603972212, -28.693826998 ], [ -52.606164157, -28.697308356999898 ], [ -52.607189153, -28.699891785 ], [ -52.606410450999903, -28.703358776 ], [ -52.610917758, -28.705369053 ], [ -52.611069078999897, -28.717620632 ], [ -52.613808167999892, -28.718941475999912 ], [ -52.615612997, -28.721721375999902 ], [ -52.613228211, -28.723641039 ], [ -52.608566950999894, -28.733039351999899 ], [ -52.597541232, -28.740329202999906 ], [ -52.594936694, -28.747518245 ], [ -52.588690603, -28.756535739 ], [ -52.6001343679999, -28.754161266 ], [ -52.60239532, -28.75261677 ], [ -52.611524803, -28.754771296999902 ], [ -52.614888891, -28.75442872 ], [ -52.614912675, -28.756040159999891 ], [ -52.617528995, -28.757974938 ], [ -52.621199476999905, -28.757933040999902 ], [ -52.621826137, -28.759259242999988 ], [ -52.623983707, -28.759335351999908 ], [ -52.632185201, -28.751687349999901 ], [ -52.637373931, -28.749751451999899 ], [ -52.6364956419999, -28.754148600999905 ], [ -52.639642395, -28.755950283999908 ], [ -52.645147510999898, -28.7539414949999 ], [ -52.656821088999898, -28.754284423999902 ], [ -52.661013948999894, -28.751969642999907 ], [ -52.665708365999897, -28.751343064 ], [ -52.668360525, -28.747450331 ], [ -52.670321035, -28.74867849 ], [ -52.669726008999902, -28.751679459999899 ], [ -52.674675861, -28.751171456999899 ], [ -52.675235535, -28.749337483 ], [ -52.67897076, -28.747622077999903 ], [ -52.681946822, -28.749849637999901 ], [ -52.697383375999891, -28.745693326 ], [ -52.69983651, -28.749827103 ], [ -52.702305741, -28.748036616000011 ], [ -52.710003022, -28.74646837400001 ], [ -52.715178157, -28.74934948899989 ], [ -52.716985512999898, -28.747992683999904 ], [ -52.716041339999897, -28.745578597 ], [ -52.717528977, -28.743232699 ], [ -52.717316019999892, -28.738623412 ], [ -52.722401117999894, -28.737025129 ], [ -52.725663486, -28.733848768 ], [ -52.729124006999903, -28.734753710999897 ], [ -52.73432165, -28.7303259769999 ], [ -52.732183027, -28.72567069 ], [ -52.730699203, -28.712580068 ], [ -52.719016838999892, -28.706940682 ], [ -52.723935937, -28.694684485 ], [ -52.728477346, -28.688859599 ], [ -52.728407362, -28.685251218000012 ], [ -52.721495959, -28.685193345 ], [ -52.713317526, -28.692770638 ], [ -52.710799517999895, -28.69240296 ], [ -52.708495846999895, -28.689664621 ], [ -52.708916680999891, -28.686057317999893 ] ] ] } }
]
}
