{
"type": "FeatureCollection",
"name": "bairros_formigueiro",
"crs": { "type": "name", "properties": { "name": "urn:ogc:def:crs:OGC:1.3:CRS84" } },
"features": [
{ "type": "Feature", "properties": { "code_muni": 4308409.0, "name_muni": "Formigueiro", "code_state": 43.0, "abbrev_state": "RS", "name_state": "Rio Grande do Sul", "code_region": 4.0, "name_region": "Sul", "year": 2022.0 }, "geometry": { "type": "Polygon", "coordinates": [ [ [ -53.541510019, -29.868845996999902 ], [ -53.534789492999899, -29.872804522 ], [ -53.534110636, -29.878083193999899 ], [ -53.527619409, -29.87719987 ], [ -53.524963747999891, -29.879953870999891 ], [ -53.515183926, -29.880030561999899 ], [ -53.506316966, -29.88331865200001 ], [ -53.504450269, -29.882484281 ], [ -53.503863919, -29.876658189 ], [ -53.499107439999896, -29.873830731999892 ], [ -53.48375206, -29.875611948 ], [ -53.481953393, -29.877335686 ], [ -53.483935867, -29.881608148999891 ], [ -53.482731136, -29.882381924 ], [ -53.474179310999901, -29.882454631 ], [ -53.470935808, -29.880043773999901 ], [ -53.468886482999899, -29.879981019999899 ], [ -53.462639479, -29.886904059999893 ], [ -53.449536192, -29.892571682 ], [ -53.440280211, -29.904693580999901 ], [ -53.435293418, -29.907138874999909 ], [ -53.427265314999893, -29.914585374999898 ], [ -53.420030611, -29.924227254999895 ], [ -53.413636329, -29.926135895 ], [ -53.403161377999901, -29.932174899999897 ], [ -53.399895708, -29.931784443000012 ], [ -53.3976170729999, -29.928056105999897 ], [ -53.393671312, -29.927768114999893 ], [ -53.387952277999894, -29.930737349 ], [ -53.386228667999902, -29.935747279999905 ], [ -53.382314454, -29.93276094 ], [ -53.377171264, -29.932634261 ], [ -53.375456879, -29.928332988 ], [ -53.368907454999899, -29.928744098 ], [ -53.363933404, -29.924699473 ], [ -53.351630713, -29.928729016 ], [ -53.345492142, -29.927314033 ], [ -53.341026997, -29.930030127999895 ], [ -53.340120188999897, -29.935776986999905 ], [ -53.32889617, -29.93765508 ], [ -53.327485807, -29.938973051999898 ], [ -53.328088183, -29.943193376999893 ], [ -53.320872725999891, -29.943437318 ], [ -53.315781606, -29.946165379999986 ], [ -53.313620156, -29.945052728999897 ], [ -53.313118528, -29.943228792 ], [ -53.317866114, -29.936187378999904 ], [ -53.307412648, -29.931304336 ], [ -53.298592250999903, -29.938128204 ], [ -53.29278536399989, -29.934632118 ], [ -53.291054866, -29.938304345999899 ], [ -53.287917356, -29.940705173 ], [ -53.281655885, -29.939713108 ], [ -53.272533732999889, -29.943238667999903 ], [ -53.261315258, -29.955382168 ], [ -53.253926478, -29.957795139 ], [ -53.256706252999891, -29.958614000999901 ], [ -53.258601115, -29.961961793999897 ], [ -53.258104265, -29.964225209999896 ], [ -53.270203138999889, -29.971715623 ], [ -53.27038741, -29.975280551 ], [ -53.273809047, -29.976668903 ], [ -53.274253691, -29.975446653999896 ], [ -53.27845137, -29.975472271999898 ], [ -53.278129502999896, -29.977222918999903 ], [ -53.276027652, -29.978260829 ], [ -53.27738384, -29.984193703 ], [ -53.279691144, -29.9837789709999 ], [ -53.282454091, -29.985617579999897 ], [ -53.285632576999902, -29.98564751 ], [ -53.286909975, -29.982876304999891 ], [ -53.291901974, -29.981582097999901 ], [ -53.293592404, -29.978010232 ], [ -53.303331541, -29.981769167 ], [ -53.306298757, -29.981357815 ], [ -53.307352594999898, -29.982785952 ], [ -53.308908489, -29.981897626 ], [ -53.312703939999892, -29.983790105 ], [ -53.312221467, -29.987247013999902 ], [ -53.313721965999896, -29.989844165 ], [ -53.315159359999896, -29.989542163999904 ], [ -53.315447387999896, -29.991335095999901 ], [ -53.317977242, -29.991696378 ], [ -53.319366265, -29.994071501 ], [ -53.324686251999893, -29.993851404999909 ], [ -53.32728644199991, -29.996288939999893 ], [ -53.33134831, -29.996412817 ], [ -53.334454405, -29.999225606 ], [ -53.337004631, -29.996966528 ], [ -53.340297904, -29.997639653 ], [ -53.340746373999899, -29.996329795 ], [ -53.344011775, -30.000154827 ], [ -53.34113133999989, -30.003543996 ], [ -53.343067634, -30.00344906 ], [ -53.34387552, -30.007314575999896 ], [ -53.35009293000001, -30.009818273 ], [ -53.350358479, -30.011803474 ], [ -53.35357268, -30.012722379 ], [ -53.356695459, -30.016075187999903 ], [ -53.357931386, -30.014978669999891 ], [ -53.364791936, -30.018419203999912 ], [ -53.366607079999902, -30.017720596999894 ], [ -53.366104728, -30.016416804 ], [ -53.367834406, -30.015009918 ], [ -53.370530061999908, -30.016585248999906 ], [ -53.372261223999892, -30.021021936999894 ], [ -53.374574606, -30.022459062999893 ], [ -53.379084803, -30.021434020999905 ], [ -53.379873233, -30.023027693 ], [ -53.384409956999903, -30.023992571999901 ], [ -53.384860521, -30.023194165999904 ], [ -53.38666955, -30.024643651 ], [ -53.387931062999897, -30.022748657 ], [ -53.390560853, -30.022711752 ], [ -53.392842528999893, -30.026409186 ], [ -53.394206314, -30.025673862 ], [ -53.397484505, -30.026928993999906 ], [ -53.3989604819999, -30.030106528 ], [ -53.401012293, -30.031156322999905 ], [ -53.407197875999891, -30.030724376 ], [ -53.407490146, -30.032507457999891 ], [ -53.41032706, -30.03326479 ], [ -53.411298459, -30.035564394999898 ], [ -53.415618248, -30.035353885999907 ], [ -53.419217316, -30.038006821999911 ], [ -53.43310274999989, -30.039273769 ], [ -53.437704467999893, -30.043926655999908 ], [ -53.443498035999895, -30.044317141 ], [ -53.445562916, -30.0475036879999 ], [ -53.449558566, -30.047514905 ], [ -53.450177213, -30.043846330999905 ], [ -53.451229748999893, -30.044290545999988 ], [ -53.453116760999897, -30.042705858 ], [ -53.46147038, -30.043409626 ], [ -53.466079525999895, -30.046664813999904 ], [ -53.468892554999989, -30.046388228 ], [ -53.470846872, -30.043148437999896 ], [ -53.47850326199989, -30.043145465 ], [ -53.480935947, -30.044004433999906 ], [ -53.485096695, -30.048474940999903 ], [ -53.48050491, -30.05566798900001 ], [ -53.482053070999896, -30.059314394 ], [ -53.485592423999897, -30.061048528999901 ], [ -53.488409147, -30.059528025 ], [ -53.491343141999899, -30.060919392999899 ], [ -53.495990721999902, -30.060200074 ], [ -53.497524047, -30.061561366 ], [ -53.499356142, -30.060023734 ], [ -53.503137455999898, -30.064546043 ], [ -53.504477271, -30.063863624 ], [ -53.5081812, -30.06555888 ], [ -53.512309316, -30.061312342999894 ], [ -53.512911142, -30.054985287 ], [ -53.515572807999902, -30.056887850999896 ], [ -53.521115502, -30.05495048900001 ], [ -53.521605662, -30.056342415 ], [ -53.525561645, -30.056037804 ], [ -53.538719591999893, -30.061457472 ], [ -53.546769414, -30.073765369999901 ], [ -53.545295794, -30.0758927699999 ], [ -53.551731966, -30.082195969999887 ], [ -53.557539855999892, -30.085429867999903 ], [ -53.569728251, -30.088640607999899 ], [ -53.572268805, -30.092607695 ], [ -53.579031732, -30.093044485999894 ], [ -53.586739470999895, -30.097588389 ], [ -53.593249162999903, -30.097938154 ], [ -53.601019135999891, -30.095747071999902 ], [ -53.606274497999898, -30.092656419 ], [ -53.612006059, -30.091695758 ], [ -53.634071299, -30.094085771 ], [ -53.6430934649999, -30.075762352 ], [ -53.6711213459999, -30.050841546 ], [ -53.654024343999893, -30.018368473999903 ], [ -53.642620338, -30.003352065999902 ], [ -53.639288259999894, -30.0008206709999 ], [ -53.637603773, -29.993360455999898 ], [ -53.6348628699999, -29.989267389 ], [ -53.636839325, -29.98335334 ], [ -53.638300742, -29.983089654000011 ], [ -53.637862679, -29.977966539 ], [ -53.641182334999897, -29.976198406 ], [ -53.639038727999896, -29.970462967999904 ], [ -53.637187646, -29.968986390999898 ], [ -53.636294527, -29.964076406999901 ], [ -53.634433605, -29.963975644999898 ], [ -53.63442345899989, -29.962919949 ], [ -53.640817506, -29.954340348999892 ], [ -53.639641610999902, -29.952886705 ], [ -53.643847907999898, -29.94878909900001 ], [ -53.646144399, -29.939065184999901 ], [ -53.648477001999893, -29.937932981 ], [ -53.651893121999905, -29.930141783 ], [ -53.649993404, -29.92479244 ], [ -53.652283989999901, -29.923895247 ], [ -53.647937927, -29.915210099 ], [ -53.648920631999893, -29.909377053 ], [ -53.652609847, -29.905730548 ], [ -53.650502861999897, -29.903115376 ], [ -53.652289075999896, -29.899450298 ], [ -53.649865492999893, -29.897073856 ], [ -53.652508655, -29.895380713999895 ], [ -53.652241918, -29.8927620229999 ], [ -53.645417682999891, -29.889047483999892 ], [ -53.63432334, -29.886313594999901 ], [ -53.626350607999896, -29.880847053 ], [ -53.619079478999893, -29.879750956 ], [ -53.615352937999894, -29.880805533999897 ], [ -53.607793697, -29.878502764 ], [ -53.610447479, -29.875936013999908 ], [ -53.609091454999891, -29.871952814999901 ], [ -53.600440148, -29.871427143999892 ], [ -53.593682991, -29.875534550999902 ], [ -53.592804332999897, -29.874728068 ], [ -53.595055834999989, -29.872908230999894 ], [ -53.594663469, -29.871643177 ], [ -53.579699692, -29.870767344999905 ], [ -53.573789561999902, -29.866823336 ], [ -53.571320876999899, -29.863215943999897 ], [ -53.566880329999897, -29.862102686 ], [ -53.559644757999898, -29.863026863 ], [ -53.55817997, -29.861675127 ], [ -53.547449126999894, -29.869009434 ], [ -53.543987557, -29.870007062999896 ], [ -53.541510019, -29.868845996999902 ] ] ] } }
]
}
