{
"type": "FeatureCollection",
"name": "bairros_sao_domingos_do_sul",
"crs": { "type": "name", "properties": { "name": "urn:ogc:def:crs:OGC:1.3:CRS84" } },
"features": [
{ "type": "Feature", "properties": { "code_muni": 4318051.0, "name_muni": "São Domingos do Sul", "code_state": 43.0, "abbrev_state": "RS", "name_state": "Rio Grande do Sul", "code_region": 4.0, "name_region": "Sul", "year": 2022.0 }, "geometry": { "type": "Polygon", "coordinates": [ [ [ -51.911471293, -28.540237712 ], [ -51.917321703, -28.537549451 ], [ -51.924319099999899, -28.537482449 ], [ -51.921186994, -28.53175304 ], [ -51.916361122999895, -28.532095839 ], [ -51.916078851, -28.527278591 ], [ -51.913104362, -28.524320483999904 ], [ -51.907427575, -28.522339062999901 ], [ -51.90892429, -28.518621627999899 ], [ -51.907686403, -28.514044923 ], [ -51.910038997999898, -28.511577239 ], [ -51.913524346, -28.512334312999897 ], [ -51.918177686, -28.508038292 ], [ -51.914170551, -28.503690698 ], [ -51.915188774999891, -28.498926750999896 ], [ -51.91962272099989, -28.496249941 ], [ -51.920234975, -28.494200093 ], [ -51.917479726999893, -28.491923737 ], [ -51.917897039, -28.488669480999896 ], [ -51.912393816, -28.49015637 ], [ -51.912403896999891, -28.484349608999889 ], [ -51.888886976, -28.483864637 ], [ -51.889030897999902, -28.489996925999904 ], [ -51.876191999, -28.490254358999898 ], [ -51.876261708, -28.505849476 ], [ -51.862995344999895, -28.506485852 ], [ -51.862998615, -28.509668007999899 ], [ -51.849231345, -28.509735935 ], [ -51.84906212300001, -28.51560677 ], [ -51.83680296499989, -28.515682830999904 ], [ -51.837000874999895, -28.5212528 ], [ -51.824844728999899, -28.521155321 ], [ -51.825016972, -28.527744965999904 ], [ -51.803117312, -28.52727728299989 ], [ -51.809823741999892, -28.533102902999897 ], [ -51.802812092999893, -28.537746059999986 ], [ -51.805988094, -28.540536787999905 ], [ -51.802519774, -28.543380113999895 ], [ -51.80865678299989, -28.544835167 ], [ -51.8141541809999, -28.551672552 ], [ -51.808591437, -28.558317374 ], [ -51.816750712, -28.564004903 ], [ -51.819927608999897, -28.567939426999899 ], [ -51.821702985999899, -28.567550722 ], [ -51.823365607, -28.563124039999895 ], [ -51.828290938, -28.565000926 ], [ -51.826496203, -28.572850597 ], [ -51.826772280999897, -28.578678128 ], [ -51.82826330599989, -28.579391567 ], [ -51.830999804, -28.574707793999902 ], [ -51.832774180999891, -28.573599316999903 ], [ -51.834544276, -28.574115062 ], [ -51.836964783, -28.577188287999899 ], [ -51.840604334, -28.577882373 ], [ -51.837116249, -28.580970328 ], [ -51.837708538999891, -28.585825327 ], [ -51.842816103, -28.584881408999902 ], [ -51.844366037, -28.589190324999898 ], [ -51.851132153, -28.590422750999895 ], [ -51.853652385, -28.590425813 ], [ -51.854435894999902, -28.587811327999898 ], [ -51.857663623, -28.585181957 ], [ -51.858707642, -28.578312966999906 ], [ -51.856987585, -28.574657289999905 ], [ -51.857882931999903, -28.5726988599999 ], [ -51.863753894, -28.581901054 ], [ -51.87188966, -28.57962515 ], [ -51.875566112999898, -28.58002548 ], [ -51.889928632, -28.574357913 ], [ -51.887179918, -28.569642121 ], [ -51.893059219999898, -28.563362941 ], [ -51.902208322, -28.564258631 ], [ -51.906821475, -28.5610547859999 ], [ -51.910601799999903, -28.563827919999895 ], [ -51.915813113, -28.5616368519999 ], [ -51.916862393, -28.558962381999898 ], [ -51.915549789, -28.552643797 ], [ -51.912227644, -28.550334244999899 ], [ -51.914395821, -28.546631599 ], [ -51.911471293, -28.540237712 ] ] ] } }
]
}
