{
"type": "FeatureCollection",
"name": "bairros_capao_do_cipo",
"crs": { "type": "name", "properties": { "name": "urn:ogc:def:crs:OGC:1.3:CRS84" } },
"features": [
{ "type": "Feature", "properties": { "code_muni": 4304655.0, "name_muni": "Capão do Cipó", "code_state": 43.0, "abbrev_state": "RS", "name_state": "Rio Grande do Sul", "code_region": 4.0, "name_region": "Sul", "year": 2022.0 }, "geometry": { "type": "Polygon", "coordinates": [ [ [ -54.427826806, -28.912942936 ], [ -54.424017539, -28.914595619999904 ], [ -54.424450312, -28.916793771999906 ], [ -54.422282722, -28.921092885999904 ], [ -54.419704411999902, -28.920990630999896 ], [ -54.419218871999895, -28.922735772 ], [ -54.410381964999893, -28.922208059999896 ], [ -54.413336263, -28.935722394 ], [ -54.407553524, -28.937700568 ], [ -54.401892847999896, -28.944901581999893 ], [ -54.398446722, -28.961630888999899 ], [ -54.399411820999902, -28.964164184 ], [ -54.395313054, -28.968077058999903 ], [ -54.392035552, -28.974105967 ], [ -54.389293987, -28.987742437 ], [ -54.383511129999903, -28.9967514749999 ], [ -54.380524908, -28.997025904999902 ], [ -54.377721681, -29.004478989999892 ], [ -54.386391488, -29.008625918999901 ], [ -54.39218772999989, -29.015236542 ], [ -54.406009405, -29.024791485 ], [ -54.412022854999989, -29.035262874999905 ], [ -54.415930099, -29.036390068999896 ], [ -54.424703929, -29.030524484999901 ], [ -54.431825911, -29.041716858 ], [ -54.438273865, -29.045486141 ], [ -54.443708853, -29.051753167999898 ], [ -54.444614418, -29.054843806999909 ], [ -54.44821257, -29.057518550999891 ], [ -54.448486117999892, -29.059569902 ], [ -54.452552499, -29.062709595999884 ], [ -54.457141115999896, -29.062851972000011 ], [ -54.457188926, -29.06464629100001 ], [ -54.45888617299989, -29.065435734999905 ], [ -54.460033397, -29.069647346999894 ], [ -54.457183798, -29.075496694 ], [ -54.447467621, -29.081568914999892 ], [ -54.438839746, -29.083573581999904 ], [ -54.43521126799989, -29.090122474999902 ], [ -54.432946858, -29.089955957999987 ], [ -54.44926422399989, -29.106070308 ], [ -54.4503519, -29.108603262 ], [ -54.448256942999897, -29.116515955 ], [ -54.455163942999896, -29.127553104999901 ], [ -54.47158906, -29.136379744 ], [ -54.47887694, -29.143852400999904 ], [ -54.47912961, -29.145521054 ], [ -54.484848316999894, -29.150144006999902 ], [ -54.49827185399991, -29.1533852539999 ], [ -54.503179603, -29.15645338 ], [ -54.511696094999891, -29.156926973999898 ], [ -54.521358291, -29.164613013 ], [ -54.522917492, -29.172270528999903 ], [ -54.527376083, -29.178391383 ], [ -54.534366475, -29.182288577 ], [ -54.536870964999899, -29.178634895999902 ], [ -54.537826125, -29.173473440999896 ], [ -54.540010439, -29.173340207 ], [ -54.542239088, -29.170535443999903 ], [ -54.555779889, -29.161362417 ], [ -54.572649243999891, -29.153825916 ], [ -54.57607852, -29.147489456 ], [ -54.586165094, -29.135985085 ], [ -54.588945415999895, -29.122017875 ], [ -54.5973056999999, -29.122416653 ], [ -54.612185773, -29.1262124849999 ], [ -54.616589621999893, -29.126193492 ], [ -54.636348048999906, -29.133984465 ], [ -54.64202474199989, -29.133401679 ], [ -54.6415352389999, -29.130382625 ], [ -54.645544497999893, -29.128747749999892 ], [ -54.6396041799999, -29.121316803 ], [ -54.642031872, -29.119236171999901 ], [ -54.640895616, -29.112008967999898 ], [ -54.643669315999901, -29.109390084 ], [ -54.64226687, -29.1065493209999 ], [ -54.642838524999895, -29.101717849 ], [ -54.63990547, -29.099595607 ], [ -54.643254146999894, -29.095402732 ], [ -54.641083935, -29.093960282999891 ], [ -54.642506344, -29.089748608 ], [ -54.646263295, -29.087989901999897 ], [ -54.645187536, -29.081811401 ], [ -54.649933809999894, -29.075679036999901 ], [ -54.64760184499989, -29.068608460999904 ], [ -54.644647252, -29.067348303999893 ], [ -54.644059634, -29.061717692999895 ], [ -54.646346504, -29.061506519 ], [ -54.645838022, -29.058937668999896 ], [ -54.646997109, -29.058240031 ], [ -54.646436383, -29.047416596999895 ], [ -54.650975698, -29.042944883 ], [ -54.651588065999896, -29.039485573 ], [ -54.659881874, -29.037230966 ], [ -54.668397200999891, -29.047982338999901 ], [ -54.673455287, -29.050296891 ], [ -54.677989846999893, -29.050097481 ], [ -54.687932808, -29.036327569 ], [ -54.692279414, -29.033680048999901 ], [ -54.686265861, -29.030373585999897 ], [ -54.685406168, -29.027081125999899 ], [ -54.688915434, -29.025597848 ], [ -54.688062268999893, -29.023291115999893 ], [ -54.694881907, -29.0189962389999 ], [ -54.69707275, -29.013144193999896 ], [ -54.703762792, -29.00715113 ], [ -54.704245487, -29.001831432 ], [ -54.70802406699989, -28.99678654 ], [ -54.707519307, -28.992706448999989 ], [ -54.709341942, -28.98652756 ], [ -54.711772351, -28.983482866 ], [ -54.710579101, -28.977902545999896 ], [ -54.712445203, -28.973562606 ], [ -54.707046659999889, -28.962386137999903 ], [ -54.709363099, -28.959801077 ], [ -54.710618301999901, -28.954368189 ], [ -54.71431553, -28.950219521999905 ], [ -54.716342627, -28.951432581999899 ], [ -54.720528109, -28.949937974 ], [ -54.721873234, -28.948142377 ], [ -54.720967786, -28.947069456 ], [ -54.725225231, -28.94302336499991 ], [ -54.726544829, -28.943889167999902 ], [ -54.724707287999898, -28.947262749999901 ], [ -54.727873444999894, -28.948854675999897 ], [ -54.730371481, -28.948662394999907 ], [ -54.73348946, -28.945074776999892 ], [ -54.73700934, -28.945881773999901 ], [ -54.740421281, -28.944064354 ], [ -54.744544006, -28.946077941999906 ], [ -54.745032458, -28.944856012999896 ], [ -54.743038356999897, -28.942518595 ], [ -54.744928562, -28.940079958999895 ], [ -54.752550536999898, -28.941025861999897 ], [ -54.756128578999899, -28.926987985 ], [ -54.761950633, -28.929925995 ], [ -54.765354202, -28.933492719 ], [ -54.767408143, -28.933405299 ], [ -54.768349632, -28.931837265 ], [ -54.766898552, -28.926225637 ], [ -54.768099585, -28.923647582999898 ], [ -54.7755902809999, -28.921613785 ], [ -54.776958398, -28.920176130999895 ], [ -54.77348218, -28.912435260999885 ], [ -54.775270871, -28.9092201089999 ], [ -54.778250724, -28.907897837 ], [ -54.776200936, -28.903052207 ], [ -54.780591724, -28.901335944 ], [ -54.786637747, -28.901112071999901 ], [ -54.790929639, -28.8980732049999 ], [ -54.790823798, -28.895920739 ], [ -54.795200517, -28.895790953 ], [ -54.798968483, -28.893126069999898 ], [ -54.800278922, -28.893585403 ], [ -54.799315126, -28.888613319999894 ], [ -54.795667471999899, -28.888618666 ], [ -54.794331482, -28.883556511999892 ], [ -54.796207325, -28.881819225 ], [ -54.799144495, -28.882930642 ], [ -54.807075367, -28.879710955999894 ], [ -54.812235341, -28.871207194 ], [ -54.814670682, -28.869853696 ], [ -54.815858378, -28.868482585 ], [ -54.812853335999897, -28.868467726999896 ], [ -54.810143003, -28.866630539 ], [ -54.806506446, -28.868915386 ], [ -54.800702880999907, -28.869969603999898 ], [ -54.794194099, -28.874651614999902 ], [ -54.79064468, -28.875019639 ], [ -54.786471026, -28.872867544 ], [ -54.779092009, -28.873702372 ], [ -54.772126770999897, -28.872003408999898 ], [ -54.770524700999893, -28.870068315 ], [ -54.771521124999893, -28.867721835999905 ], [ -54.770288224999902, -28.865522531999893 ], [ -54.767877816999892, -28.86529088 ], [ -54.763542327, -28.860140029 ], [ -54.753727737, -28.853646103 ], [ -54.750044193, -28.855714005 ], [ -54.740435493999897, -28.8547838809999 ], [ -54.734055221999903, -28.850400935 ], [ -54.731292810999904, -28.850502782 ], [ -54.727227098, -28.848242184999897 ], [ -54.719234766999897, -28.841870743 ], [ -54.707931782999893, -28.836698365 ], [ -54.709524600999899, -28.827163265 ], [ -54.713707186, -28.818078162999893 ], [ -54.712896891999904, -28.807019653999905 ], [ -54.71544412, -28.803488612 ], [ -54.713855661, -28.800865182999893 ], [ -54.714279011, -28.795223375 ], [ -54.710154142, -28.785720206999901 ], [ -54.706317247999891, -28.783033417999906 ], [ -54.702067973999903, -28.775222144999901 ], [ -54.696481068, -28.771835589 ], [ -54.698035948, -28.769028655999897 ], [ -54.697400187, -28.766683160999886 ], [ -54.693939922, -28.766276914999896 ], [ -54.691557695, -28.762587666999892 ], [ -54.689949976, -28.763016407 ], [ -54.687718582999892, -28.753964224999894 ], [ -54.68145131099989, -28.748664984 ], [ -54.678721518, -28.740536458 ], [ -54.677387735, -28.740540853 ], [ -54.675542961, -28.737726256 ], [ -54.676233184999894, -28.732380568999908 ], [ -54.674496521, -28.728829553 ], [ -54.675545905, -28.724213216 ], [ -54.673847622, -28.721638108 ], [ -54.674207935, -28.71940688 ], [ -54.672135458999897, -28.718445736 ], [ -54.671276602, -28.715965582 ], [ -54.666002749, -28.7158541649999 ], [ -54.665196618, -28.721043042 ], [ -54.661105369, -28.725332804999908 ], [ -54.659419485999898, -28.724173231 ], [ -54.657723023, -28.724769174999899 ], [ -54.656157213, -28.727207501999903 ], [ -54.655681606, -28.730200275999898 ], [ -54.660070241, -28.734475204 ], [ -54.65673535, -28.73944857 ], [ -54.652834546, -28.740461998999887 ], [ -54.6460546879999, -28.735526851 ], [ -54.646290795, -28.733808146999895 ], [ -54.643465208, -28.732738482999892 ], [ -54.640323654, -28.733607557999989 ], [ -54.64170189, -28.741930735 ], [ -54.638301793, -28.74495827 ], [ -54.628238311, -28.748147145 ], [ -54.625655439, -28.743520246999896 ], [ -54.628344851, -28.741060193999893 ], [ -54.627838981, -28.738810687999901 ], [ -54.618368026, -28.739143560999892 ], [ -54.613402857, -28.744954576999898 ], [ -54.610111447999891, -28.746026898 ], [ -54.617321895, -28.753304117 ], [ -54.616440087999891, -28.759885469 ], [ -54.623674315999892, -28.762829665000012 ], [ -54.627080686999896, -28.769448053 ], [ -54.621058079, -28.768365215 ], [ -54.614387818999894, -28.770151464 ], [ -54.619315979, -28.777169121999989 ], [ -54.612163188, -28.774817109 ], [ -54.604733461, -28.777837879999897 ], [ -54.607727214, -28.779650574 ], [ -54.611737847, -28.779673073 ], [ -54.613739306999896, -28.7842735209999 ], [ -54.611525207999897, -28.787112073999907 ], [ -54.609233205, -28.7873173149999 ], [ -54.60718937099989, -28.782626767 ], [ -54.602933564999901, -28.781664196 ], [ -54.597946608, -28.786627919 ], [ -54.596392739999899, -28.786600504 ], [ -54.594683435, -28.784448985 ], [ -54.592036834999902, -28.784427229 ], [ -54.582851255, -28.789265282999988 ], [ -54.582179762999893, -28.790627851999904 ], [ -54.586291246, -28.793224751 ], [ -54.591884869, -28.791613315999903 ], [ -54.593429849, -28.793494918 ], [ -54.590108162999989, -28.799862122 ], [ -54.586855489999891, -28.802711125 ], [ -54.583972353, -28.803338950999905 ], [ -54.580435425, -28.798752792999892 ], [ -54.578742578999901, -28.79863104 ], [ -54.576572739, -28.800802985 ], [ -54.5785481079999, -28.804963772999901 ], [ -54.580914742999894, -28.806499141 ], [ -54.586562456, -28.806357431 ], [ -54.59112773, -28.802285578999896 ], [ -54.594585848, -28.803531721 ], [ -54.595733461, -28.805749768999892 ], [ -54.5912382879999, -28.8089869 ], [ -54.589920686, -28.8167699259999 ], [ -54.588110244999896, -28.8183829009999 ], [ -54.585367595, -28.812330002999911 ], [ -54.578704559, -28.813069692999903 ], [ -54.574752363, -28.816926914 ], [ -54.576094591999897, -28.820608545 ], [ -54.572224153, -28.825067276 ], [ -54.574268194999902, -28.832591342999894 ], [ -54.577745135, -28.836882306999897 ], [ -54.576843659, -28.838069678999894 ], [ -54.574596705, -28.838875394 ], [ -54.573569694, -28.836596497 ], [ -54.570603413999898, -28.836997928999892 ], [ -54.568359067999893, -28.835366469999901 ], [ -54.56511759099989, -28.837565572 ], [ -54.565183563999895, -28.843015454999904 ], [ -54.560745923999903, -28.842840071999898 ], [ -54.559166169, -28.846684205 ], [ -54.557053149999902, -28.847700157 ], [ -54.553007087, -28.84263672 ], [ -54.545636681, -28.842622137 ], [ -54.547700334999902, -28.844980771999904 ], [ -54.547076773, -28.848309037 ], [ -54.545456282000011, -28.849339901 ], [ -54.544021841999893, -28.844958262999988 ], [ -54.540198083999897, -28.845300256 ], [ -54.538577075, -28.847374602999889 ], [ -54.5390585, -28.849461284 ], [ -54.541368801, -28.849690677 ], [ -54.546753985999892, -28.854218747999901 ], [ -54.541180949, -28.856249643999892 ], [ -54.54184944699989, -28.859274601 ], [ -54.538390847999899, -28.857369833999897 ], [ -54.538226553, -28.854215323999892 ], [ -54.531837020999902, -28.858770220999883 ], [ -54.528309427, -28.857519060999905 ], [ -54.525791356, -28.858063699 ], [ -54.526622093, -28.859574483 ], [ -54.529425519, -28.859824816999897 ], [ -54.528782669999899, -28.866416928 ], [ -54.524630294, -28.86713299 ], [ -54.5229878929999, -28.869488143999895 ], [ -54.523769729, -28.870689781 ], [ -54.516489678, -28.868444777 ], [ -54.510071776, -28.874150153999903 ], [ -54.504491365, -28.868086355999893 ], [ -54.49903376, -28.871471147 ], [ -54.499678946999893, -28.868452834 ], [ -54.496212801999903, -28.868141594 ], [ -54.497196988, -28.866017833999894 ], [ -54.49565627, -28.866137513999899 ], [ -54.491990334, -28.868787546 ], [ -54.494593032999902, -28.874363248 ], [ -54.489018801, -28.874030694999892 ], [ -54.487829904, -28.875568788 ], [ -54.486726012, -28.872077305999891 ], [ -54.483821824999893, -28.871174324999988 ], [ -54.481025165999895, -28.874080407999898 ], [ -54.478063501999891, -28.872958186999895 ], [ -54.479557676999903, -28.87628546 ], [ -54.486461818, -28.8793610889999 ], [ -54.482048307, -28.882616495999986 ], [ -54.480037852999892, -28.881369391 ], [ -54.476881782, -28.882089585 ], [ -54.470311148, -28.877853678 ], [ -54.469365344000011, -28.87933265 ], [ -54.468074061, -28.878342776 ], [ -54.465962517, -28.879162111 ], [ -54.465524560999903, -28.876279474999905 ], [ -54.464351032, -28.876765485 ], [ -54.462481375, -28.875334113999905 ], [ -54.461187230999897, -28.877378856 ], [ -54.459440481999891, -28.876009989 ], [ -54.456979538, -28.878808273999905 ], [ -54.46020781499989, -28.880417366999904 ], [ -54.457393999, -28.886285174 ], [ -54.4521554889999, -28.887958469999905 ], [ -54.449963497999896, -28.892164662 ], [ -54.445687128, -28.887841189 ], [ -54.44318157, -28.891024595 ], [ -54.444768638, -28.894932621999892 ], [ -54.442727625, -28.896188508 ], [ -54.440297380999901, -28.894556247 ], [ -54.439462974, -28.897425383 ], [ -54.437701745, -28.897344827 ], [ -54.437530109, -28.896099379 ], [ -54.435237463, -28.897144123 ], [ -54.434353895, -28.903035578999905 ], [ -54.43116886099989, -28.905343500999901 ], [ -54.431786963, -28.906593755 ], [ -54.427710857, -28.91055682 ], [ -54.427826806, -28.912942936 ] ] ] } }
]
}
