{
"type": "FeatureCollection",
"name": "bairros_rosario_do_sul",
"crs": { "type": "name", "properties": { "name": "urn:ogc:def:crs:OGC:1.3:CRS84" } },
"features": [
{ "type": "Feature", "properties": { "code_muni": 4316402.0, "name_muni": "Rosário do Sul", "code_state": 43.0, "abbrev_state": "RS", "name_state": "Rio Grande do Sul", "code_region": 4.0, "name_region": "Sul", "year": 2022.0 }, "geometry": { "type": "Polygon", "coordinates": [ [ [ -55.02577804, -30.675378560999899 ], [ -55.037417685, -30.672917434999899 ], [ -55.037303967999897, -30.671494514 ], [ -55.034658092, -30.670686771 ], [ -55.036823216, -30.662544544 ], [ -55.032214386, -30.657614457000012 ], [ -55.028915116, -30.6501514999999 ], [ -55.034531913, -30.647112861 ], [ -55.038853159, -30.642945430999905 ], [ -55.040540416999903, -30.64291206 ], [ -55.041421546, -30.644951303 ], [ -55.044486876999891, -30.643362308999897 ], [ -55.04646618999989, -30.64407684 ], [ -55.050291967, -30.639869879999903 ], [ -55.051411539999897, -30.636288384 ], [ -55.053795632999893, -30.635119731 ], [ -55.054295759, -30.633804341 ], [ -55.051970264, -30.6306418029999 ], [ -55.054071797999903, -30.629890662 ], [ -55.054056934, -30.628134396999897 ], [ -55.055542734, -30.627444765 ], [ -55.054237367, -30.625030787 ], [ -55.050367993, -30.625760654 ], [ -55.045709287, -30.617543107999911 ], [ -55.046884387, -30.616263826000012 ], [ -55.048749361, -30.617237159999895 ], [ -55.049490131, -30.6150956829999 ], [ -55.046637936, -30.614011865 ], [ -55.045141923999893, -30.6118885499999 ], [ -55.046668262, -30.609749032 ], [ -55.041649701, -30.607728323999897 ], [ -55.041994905, -30.604653477999889 ], [ -55.04033003, -30.603695761 ], [ -55.042235459, -30.599120664999894 ], [ -55.039925755999896, -30.598006570999903 ], [ -55.040802465999903, -30.596438049 ], [ -55.03880793, -30.594299666 ], [ -55.042160867, -30.58892245 ], [ -55.038786828999903, -30.5842208289999 ], [ -55.036744771, -30.583405839 ], [ -55.039209508999903, -30.582220234 ], [ -55.04305989599991, -30.584283932999899 ], [ -55.0468164, -30.584099161 ], [ -55.044611195999892, -30.579849964999902 ], [ -55.049104805, -30.581296672999891 ], [ -55.04953088, -30.579444850999899 ], [ -55.05203285999989, -30.579816090999898 ], [ -55.054296064, -30.574753632 ], [ -55.052528665999901, -30.574956977999896 ], [ -55.054014576, -30.571429939 ], [ -55.050941780999892, -30.570800419000012 ], [ -55.051451524999898, -30.567945225999896 ], [ -55.048083597999899, -30.567284682 ], [ -55.043889398, -30.563767522 ], [ -55.04340357, -30.562400344000011 ], [ -55.045744681, -30.559134825999909 ], [ -55.043297718, -30.556314648999898 ], [ -55.045820956999897, -30.556577037999904 ], [ -55.045856659, -30.555113633 ], [ -55.042222970999902, -30.552967397 ], [ -55.041758751, -30.555755206999905 ], [ -55.040666584999897, -30.55389809 ], [ -55.042327304, -30.551112605999897 ], [ -55.04357828, -30.552216812 ], [ -55.045021114999898, -30.550544962999894 ], [ -55.045486668, -30.552100461999903 ], [ -55.046580374, -30.550612720999894 ], [ -55.039889535, -30.546922304 ], [ -55.041405437, -30.545449339999898 ], [ -55.038667559, -30.543103919 ], [ -55.037378879, -30.539097703 ], [ -55.040112157, -30.537741654999909 ], [ -55.035787489, -30.527316147 ], [ -55.049845832, -30.513193913 ], [ -55.054795984999892, -30.505215488 ], [ -55.053169244999893, -30.503376478999908 ], [ -55.041313912, -30.498474933 ], [ -55.032400428999892, -30.502665211 ], [ -55.032049403, -30.506328889 ], [ -55.030669804, -30.507221722999908 ], [ -55.027027546999904, -30.50297108 ], [ -55.029550270999898, -30.500880933 ], [ -55.029354799, -30.499520909999909 ], [ -55.025644848, -30.499357071 ], [ -55.013522925, -30.504007507 ], [ -55.01064370599989, -30.508729602999896 ], [ -55.001355711, -30.503738015 ], [ -55.000313965, -30.501942398 ], [ -55.002086718, -30.498468703999912 ], [ -54.996109551, -30.496864722999902 ], [ -54.990512618, -30.49326911 ], [ -54.984567996999893, -30.493035968 ], [ -54.984062809, -30.491467349999894 ], [ -54.986424636, -30.487902244999894 ], [ -54.984914887999899, -30.485991727999888 ], [ -54.985754224999901, -30.483628295999893 ], [ -54.983258588999902, -30.48245916 ], [ -54.980597508999892, -30.477381223 ], [ -54.977948979, -30.475729594 ], [ -54.97835853, -30.470414924 ], [ -54.976581188999901, -30.465661908 ], [ -54.9721609979999, -30.461879865 ], [ -54.971870759999895, -30.458449336999902 ], [ -54.977090189, -30.45224052 ], [ -54.975316598999896, -30.445034012 ], [ -54.978984973, -30.445254673 ], [ -54.984210579, -30.448462274999901 ], [ -54.983443386, -30.452597033 ], [ -54.987415632, -30.454034926 ], [ -54.992055905, -30.464077718999896 ], [ -55.002179106, -30.469437319999901 ], [ -55.000098267999903, -30.472619017999897 ], [ -55.000710139, -30.473753354999907 ], [ -55.00557341, -30.473191729 ], [ -55.007262147999903, -30.475164364 ], [ -55.0087963, -30.475145251 ], [ -55.014994234, -30.47504368099991 ], [ -55.021059561, -30.473143935999897 ], [ -55.021130018999891, -30.471229302 ], [ -55.023800905, -30.470256521999893 ], [ -55.023488774, -30.467885738999897 ], [ -55.027270742, -30.467988275 ], [ -55.029368791, -30.465983465 ], [ -55.0301039289999, -30.467019402999899 ], [ -55.034791275, -30.462475019 ], [ -55.037665366999903, -30.462006398 ], [ -55.037190377999892, -30.45771348400001 ], [ -55.042167352, -30.452545094 ], [ -55.050471508, -30.449395965 ], [ -55.058511751, -30.445050497 ], [ -55.060337702, -30.442726915 ], [ -55.065686717999895, -30.441409539999892 ], [ -55.068717101999908, -30.443299291999899 ], [ -55.071209099, -30.441893056999987 ], [ -55.074107867, -30.443933656999896 ], [ -55.074298342, -30.442526474 ], [ -55.076928564999903, -30.442492493 ], [ -55.077117504999897, -30.440724961999898 ], [ -55.078718987999899, -30.440178078 ], [ -55.080131153, -30.4417131659999 ], [ -55.083407815, -30.441295121999897 ], [ -55.08366626, -30.44275728 ], [ -55.087424501, -30.443791554 ], [ -55.093489422999902, -30.441406301 ], [ -55.096274877, -30.444670685999903 ], [ -55.102768684999894, -30.443205186999901 ], [ -55.10397479200001, -30.446921696999905 ], [ -55.106163465999892, -30.445501045 ], [ -55.107411952999897, -30.447522793 ], [ -55.110864189, -30.447967043999899 ], [ -55.111967291, -30.452534163999903 ], [ -55.117545575, -30.453050978 ], [ -55.117890955999897, -30.454035648999895 ], [ -55.120827362999897, -30.452379658 ], [ -55.125251394, -30.452255093 ], [ -55.125491909999901, -30.453986362 ], [ -55.12843785, -30.454682291 ], [ -55.133599097999891, -30.459973754999989 ], [ -55.136170133999897, -30.459334541 ], [ -55.137859318, -30.461648431999894 ], [ -55.137716908999899, -30.464562332 ], [ -55.143601020999903, -30.466995762 ], [ -55.145002460999898, -30.470234164 ], [ -55.148870653, -30.470506638 ], [ -55.153262314999893, -30.475310024 ], [ -55.155539827, -30.475817472999903 ], [ -55.15853843, -30.473970929 ], [ -55.159085645999902, -30.475298623 ], [ -55.160388981, -30.474729609999901 ], [ -55.164439664, -30.476643015999986 ], [ -55.163716598999891, -30.478712519999899 ], [ -55.165687667, -30.478819589999901 ], [ -55.166313851, -30.480632533999895 ], [ -55.168836696, -30.481723518 ], [ -55.171922202, -30.489605798 ], [ -55.178614147, -30.4926758729999 ], [ -55.180597709, -30.495460437 ], [ -55.182633359, -30.494921188 ], [ -55.184047221, -30.498097701999885 ], [ -55.185857674, -30.498798056999895 ], [ -55.189375735999903, -30.49753548 ], [ -55.192954882, -30.498878369 ], [ -55.195925052, -30.501050200999895 ], [ -55.195575918, -30.502309974 ], [ -55.203672249, -30.505604228 ], [ -55.205866123, -30.505025942 ], [ -55.206659881, -30.503404589 ], [ -55.207656072, -30.504492152 ], [ -55.209209178, -30.503412661 ], [ -55.215286510999903, -30.504817998 ], [ -55.216860212, -30.506647240999893 ], [ -55.219541368, -30.506210446 ], [ -55.224445803, -30.51126103 ], [ -55.226706007, -30.511476816 ], [ -55.226309648, -30.513562105999895 ], [ -55.230304299999901, -30.514560393999908 ], [ -55.233454224999896, -30.51959024 ], [ -55.244658532, -30.524299486 ], [ -55.249239251999903, -30.523627324999879 ], [ -55.256103356, -30.528548319 ], [ -55.261777643999899, -30.521633445 ], [ -55.273588439, -30.521097058 ], [ -55.28606407, -30.517946461 ], [ -55.293984732999895, -30.519625095 ], [ -55.298480632, -30.518839703 ], [ -55.304811776, -30.514665865999987 ], [ -55.312633650999899, -30.513754062 ], [ -55.32396828799989, -30.509738126999896 ], [ -55.3329893229999, -30.508755057 ], [ -55.333752316, -30.50740229 ], [ -55.343099647, -30.5053572049999 ], [ -55.344762096, -30.503199975 ], [ -55.350947485999896, -30.501924501000012 ], [ -55.352419342, -30.492421761999896 ], [ -55.359067147, -30.483346304 ], [ -55.370291328, -30.477318356999902 ], [ -55.370572476999889, -30.475584969 ], [ -55.378390236, -30.473551149999903 ], [ -55.380921504, -30.471105155 ], [ -55.385726577999897, -30.469965930999901 ], [ -55.391469061, -30.46363073 ], [ -55.396056568999896, -30.461692061 ], [ -55.398389538999901, -30.462111685 ], [ -55.399433938999898, -30.460076123 ], [ -55.403850688, -30.459437265 ], [ -55.413822052999897, -30.447472212 ], [ -55.415107784999989, -30.441569076999905 ], [ -55.418988418, -30.438020173 ], [ -55.417059459, -30.434475550999899 ], [ -55.417279514, -30.4297271 ], [ -55.420579502, -30.428434002 ], [ -55.422779363, -30.425562096 ], [ -55.426035553, -30.426365233999903 ], [ -55.42850945299989, -30.422833227 ], [ -55.440465371999892, -30.417369145 ], [ -55.442151275, -30.414430530999905 ], [ -55.44578869, -30.415369512 ], [ -55.446580034, -30.413298077 ], [ -55.45567951, -30.411534116 ], [ -55.463354651, -30.411706880999901 ], [ -55.465599986, -30.414205320999901 ], [ -55.476354762, -30.409082791999897 ], [ -55.479618938, -30.408517217999897 ], [ -55.480217366, -30.410048299 ], [ -55.485559147999908, -30.407505816 ], [ -55.490051257999895, -30.407675538 ], [ -55.492239562, -30.405543034999901 ], [ -55.496687640999902, -30.406382572 ], [ -55.498182409, -30.405217834 ], [ -55.504259874, -30.406697424 ], [ -55.506087156, -30.404166003999894 ], [ -55.508597809, -30.404219237999904 ], [ -55.509852015, -30.402965764999987 ], [ -55.513009200999896, -30.403453895 ], [ -55.51231095899989, -30.401252878 ], [ -55.513798981, -30.396215567 ], [ -55.518339918, -30.392832650999903 ], [ -55.519243998, -30.386381793999899 ], [ -55.521750154, -30.385352720999887 ], [ -55.529191991999902, -30.388267578 ], [ -55.536926553999891, -30.388740298999892 ], [ -55.540020737, -30.387499681 ], [ -55.542607238, -30.389475755 ], [ -55.548013743, -30.384826190999902 ], [ -55.555255093, -30.38120097 ], [ -55.559167943, -30.3822509 ], [ -55.566893838999896, -30.380724444 ], [ -55.570432328, -30.382176377999901 ], [ -55.573784073, -30.385960348 ], [ -55.576859479999897, -30.386640025 ], [ -55.58213162, -30.385516438 ], [ -55.582759762, -30.384061957 ], [ -55.587430249, -30.385761949 ], [ -55.600198723999902, -30.384024903999894 ], [ -55.60059518, -30.380808192 ], [ -55.595408964999905, -30.378990863999892 ], [ -55.594258564, -30.377334683999898 ], [ -55.594766445999895, -30.370448251999989 ], [ -55.596160786, -30.368985037 ], [ -55.59768171199989, -30.369379184 ], [ -55.609439207, -30.365095580999895 ], [ -55.616600643, -30.365073579 ], [ -55.618471288, -30.363279530999904 ], [ -55.61104203299989, -30.350521593999904 ], [ -55.610382605, -30.344504973 ], [ -55.612081794999895, -30.341353544 ], [ -55.614202760999895, -30.338762233 ], [ -55.616933113, -30.340081406 ], [ -55.619468442, -30.339026686999901 ], [ -55.618137391999902, -30.334520154 ], [ -55.625740411, -30.332497592999989 ], [ -55.6277910539999, -30.326293375 ], [ -55.635890742, -30.3330563059999 ], [ -55.641155743999903, -30.331969973999893 ], [ -55.643511644999897, -30.329735827 ], [ -55.642682382, -30.32642026 ], [ -55.632724660999891, -30.321694156 ], [ -55.633253774, -30.318947679 ], [ -55.630961376, -30.315714914999898 ], [ -55.63634716, -30.309888535 ], [ -55.6262576029999, -30.310152402 ], [ -55.624707531, -30.304705106 ], [ -55.628947083, -30.303103666 ], [ -55.633226272999892, -30.303270192 ], [ -55.634180782, -30.304687037 ], [ -55.6372533219999, -30.301922654999895 ], [ -55.641047295, -30.30205706 ], [ -55.644267041, -30.295723972 ], [ -55.645513279999911, -30.295703726999903 ], [ -55.645072119, -30.297465702999897 ], [ -55.64610325, -30.297564656 ], [ -55.648210686, -30.293543224000011 ], [ -55.643509195999989, -30.287565422999901 ], [ -55.650798795, -30.285748544999894 ], [ -55.655205264999893, -30.283224932999897 ], [ -55.654973436, -30.279688040999908 ], [ -55.656505405, -30.278539587 ], [ -55.658693797, -30.277829034 ], [ -55.658813342, -30.279215888 ], [ -55.660722764999903, -30.2796784609999 ], [ -55.661487839, -30.278595707 ], [ -55.665336195, -30.281655042 ], [ -55.6682147819999, -30.277663856999894 ], [ -55.666118699, -30.2770404 ], [ -55.66705496, -30.275015976999988 ], [ -55.673349561999892, -30.279224885 ], [ -55.675895958999902, -30.276811089999988 ], [ -55.672178941, -30.275519298999896 ], [ -55.671594594999902, -30.271552737 ], [ -55.691722276, -30.255514892 ], [ -55.691667493999894, -30.250199627 ], [ -55.689621965, -30.246555261 ], [ -55.679469491, -30.250147678 ], [ -55.662709685, -30.246241009999896 ], [ -55.658365609, -30.243918505999901 ], [ -55.658516511, -30.242474865 ], [ -55.662407534, -30.242482186 ], [ -55.677583006, -30.235913762999896 ], [ -55.674910328999893, -30.220589661 ], [ -55.6718585039999, -30.222455236 ], [ -55.667736578, -30.221806714 ], [ -55.660863997, -30.224038406 ], [ -55.651960862, -30.230731008 ], [ -55.646328975, -30.223760414 ], [ -55.646315847, -30.219840718999908 ], [ -55.643009687999893, -30.218763123 ], [ -55.64227405, -30.216904766 ], [ -55.643573795999892, -30.212569667 ], [ -55.654672445999893, -30.209272643 ], [ -55.659170042, -30.209374022 ], [ -55.661757439, -30.206474657999895 ], [ -55.671660828, -30.202254008999894 ], [ -55.674191923, -30.199599619 ], [ -55.674112444999892, -30.197965994999905 ], [ -55.669345501999899, -30.197204813999988 ], [ -55.666719068, -30.19513353 ], [ -55.667801585999896, -30.191041149999894 ], [ -55.652065546, -30.18002082 ], [ -55.662159088999893, -30.1769330139999 ], [ -55.671637986, -30.176571926 ], [ -55.6741612329999, -30.175206427 ], [ -55.674889430999897, -30.172895314 ], [ -55.671398504, -30.171516661999895 ], [ -55.668883899, -30.173224648 ], [ -55.665771132, -30.172906435 ], [ -55.65943042, -30.164522255999895 ], [ -55.654873967999897, -30.162517939999894 ], [ -55.649054557999897, -30.163023175 ], [ -55.647952792, -30.161846649000012 ], [ -55.648959857, -30.159912974 ], [ -55.6575835, -30.156110410999901 ], [ -55.658082449999903, -30.152190619 ], [ -55.652346252, -30.152795404 ], [ -55.65068643, -30.150843289 ], [ -55.652246533, -30.146637868 ], [ -55.662656308, -30.132036861999897 ], [ -55.667730862, -30.126310455 ], [ -55.676811921, -30.12182339 ], [ -55.677227774, -30.119361189 ], [ -55.674474094999901, -30.119168739 ], [ -55.673622952999899, -30.120759346999904 ], [ -55.672324074999892, -30.119325921 ], [ -55.673458283999899, -30.117778261999899 ], [ -55.673183476, -30.113296905 ], [ -55.671015681, -30.115370804999902 ], [ -55.672276911, -30.116231146 ], [ -55.670360140999897, -30.11627957 ], [ -55.670854066999901, -30.111946071 ], [ -55.669764308, -30.109949672 ], [ -55.671612791, -30.109392321 ], [ -55.670429165, -30.107338555 ], [ -55.67120245, -30.102928517 ], [ -55.668795374999902, -30.102776487 ], [ -55.665858124999893, -30.106003753 ], [ -55.663532614, -30.105398465 ], [ -55.661679131, -30.103119009999901 ], [ -55.657063001, -30.104276447 ], [ -55.656193523, -30.108220849 ], [ -55.653423454999903, -30.108955172 ], [ -55.650763237, -30.112265846 ], [ -55.646446923, -30.113620506 ], [ -55.647358755, -30.118943709 ], [ -55.63815131, -30.118764911 ], [ -55.631685806999897, -30.126574653 ], [ -55.626506782, -30.130233857999905 ], [ -55.620336592999898, -30.1311867699999 ], [ -55.617172879, -30.134467830999903 ], [ -55.61711464, -30.136457828999905 ], [ -55.612372496, -30.138313305999905 ], [ -55.609592968, -30.142733354 ], [ -55.606100693, -30.14430935 ], [ -55.601981384999903, -30.142676719 ], [ -55.597819816, -30.143179277999902 ], [ -55.594262659, -30.148555159999901 ], [ -55.585885702, -30.151542127 ], [ -55.580991903, -30.149037049 ], [ -55.575127979999891, -30.149978752 ], [ -55.561997114, -30.155311911 ], [ -55.559842978999896, -30.154272573 ], [ -55.556598666, -30.154826014 ], [ -55.553592054, -30.157884649 ], [ -55.547576638, -30.15761394 ], [ -55.538451000999899, -30.163240698 ], [ -55.529343916, -30.160221985 ], [ -55.527829489999895, -30.156877483 ], [ -55.528203248999901, -30.150235246 ], [ -55.529870624, -30.147659471999901 ], [ -55.527934279, -30.144978004999899 ], [ -55.524676175, -30.144138031 ], [ -55.524503513, -30.140320717999892 ], [ -55.514658611, -30.13299367 ], [ -55.508807964, -30.132575959999905 ], [ -55.507668397, -30.129486646 ], [ -55.502066667999891, -30.125065151999898 ], [ -55.502331400999893, -30.123763755 ], [ -55.499482568, -30.120513656 ], [ -55.499682709, -30.114732941999897 ], [ -55.501314263, -30.112765364999987 ], [ -55.50108912, -30.105102213 ], [ -55.496488070999902, -30.100848394 ], [ -55.493522075, -30.09506598 ], [ -55.487759792, -30.088061099999905 ], [ -55.471479309, -30.078672825 ], [ -55.46964725, -30.074438488999892 ], [ -55.466605836, -30.073435327 ], [ -55.464553120999895, -30.083462356 ], [ -55.461889055, -30.082818663 ], [ -55.460579961, -30.084185584 ], [ -55.459713146999903, -30.083264073999889 ], [ -55.457109175, -30.089003175999899 ], [ -55.454227741, -30.087927690000011 ], [ -55.452074258, -30.089686728999897 ], [ -55.444811371, -30.09038831 ], [ -55.444187870999897, -30.092337304999912 ], [ -55.440935677, -30.094093465 ], [ -55.439375025999901, -30.092699105 ], [ -55.424035499999896, -30.091963848 ], [ -55.415715986999892, -30.089853967 ], [ -55.406385313, -30.084771017 ], [ -55.399042279, -30.078952355 ], [ -55.396280604, -30.078078002 ], [ -55.390248566, -30.079226210999892 ], [ -55.385552171, -30.076877115999896 ], [ -55.384255779999897, -30.074698350999896 ], [ -55.372802497, -30.077082993000012 ], [ -55.370326492999901, -30.079178933 ], [ -55.363200806, -30.081696571 ], [ -55.359904246, -30.080718713 ], [ -55.358220021, -30.077310462 ], [ -55.313066719999902, -30.081306357 ], [ -55.314465231, -30.08312225 ], [ -55.313283525, -30.084903859999905 ], [ -55.307990458999896, -30.087775306 ], [ -55.295577338, -30.08854933 ], [ -55.291319898, -30.095719736 ], [ -55.291759897, -30.102168263 ], [ -55.288439056, -30.1036378229999 ], [ -55.286995810999898, -30.102263907999898 ], [ -55.287232552, -30.09835515 ], [ -55.285087023999893, -30.096284037 ], [ -55.285052807999897, -30.0915699349999 ], [ -55.282418982, -30.090205103 ], [ -55.278813354, -30.083178598 ], [ -55.274093649, -30.081018168999897 ], [ -55.260401982, -30.084670692 ], [ -55.254275451999895, -30.082029792999901 ], [ -55.253852884, -30.079663325999899 ], [ -55.24729436, -30.079915786999905 ], [ -55.245040721999892, -30.081145370999906 ], [ -55.237585068, -30.078530744 ], [ -55.228517248999893, -30.07862233399991 ], [ -55.223843257999903, -30.074998389 ], [ -55.222337539, -30.079472924 ], [ -55.216075014, -30.080283473 ], [ -55.212416823999902, -30.085262735999898 ], [ -55.209188223, -30.08568911 ], [ -55.20150864, -30.083741833 ], [ -55.194438087, -30.080121011999903 ], [ -55.188028363999898, -30.078972113 ], [ -55.18538794099991, -30.071430764999899 ], [ -55.183494235, -30.06954647 ], [ -55.187538070999899, -30.0678871389999 ], [ -55.187007779999902, -30.060991464 ], [ -55.184351746999894, -30.058815971999891 ], [ -55.17975088299989, -30.050832149 ], [ -55.179825034, -30.048221245 ], [ -55.178097033, -30.047994656 ], [ -55.178857481, -30.04664193 ], [ -55.177229528999902, -30.045340361999905 ], [ -55.172261305999903, -30.044827924999897 ], [ -55.16844802, -30.042874057999899 ], [ -55.162771929, -30.043668119 ], [ -55.157665973999897, -30.050471630999894 ], [ -55.155823354999903, -30.05046282 ], [ -55.152968066, -30.047954445999899 ], [ -55.150663094, -30.048139744 ], [ -55.147127177, -30.050556875 ], [ -55.147657686999899, -30.051667736 ], [ -55.142556981, -30.054236009 ], [ -55.140601929, -30.045486153 ], [ -55.136830011, -30.041861223999902 ], [ -55.128394877999895, -30.041497598 ], [ -55.119834319999896, -30.043992961 ], [ -55.119383708, -30.045983325 ], [ -55.115474048, -30.046651267999902 ], [ -55.110847207999903, -30.044958594 ], [ -55.107788367, -30.039724513 ], [ -55.105086475, -30.039473625 ], [ -55.102246129, -30.037520212999901 ], [ -55.102074886, -30.035896846 ], [ -55.100511889, -30.035091763 ], [ -55.098988337, -30.036011766999902 ], [ -55.096671779, -30.034476684 ], [ -55.094832864999901, -30.035505287 ], [ -55.095656023999894, -30.037220181 ], [ -55.094027708999896, -30.040665535 ], [ -55.09728305, -30.041985715 ], [ -55.099534987, -30.046008053 ], [ -55.10145614, -30.046504320999897 ], [ -55.099732537, -30.0476752289999 ], [ -55.101076839, -30.053536945 ], [ -55.098026202, -30.056772893999899 ], [ -55.098727588, -30.060692737999897 ], [ -55.09360287, -30.064815299 ], [ -55.093491473, -30.067123443999904 ], [ -55.08691665, -30.07769165 ], [ -55.084664044, -30.08363614 ], [ -55.084739182, -30.095488144999912 ], [ -55.083667300999899, -30.098689084999904 ], [ -55.08120023299989, -30.098972860999897 ], [ -55.082202333999895, -30.102970555999899 ], [ -55.073478592, -30.110730948 ], [ -55.075531259999899, -30.11438236 ], [ -55.075275343, -30.119275179999896 ], [ -55.076820679, -30.120082472 ], [ -55.07706359, -30.124261662 ], [ -55.075109584, -30.127192482999899 ], [ -55.071486614, -30.127814381 ], [ -55.070515596999904, -30.129343515999896 ], [ -55.068136619, -30.14181851 ], [ -55.065659034, -30.141748096999901 ], [ -55.060545275, -30.144922439999988 ], [ -55.054653435, -30.1388704189999 ], [ -55.050698455, -30.138635361 ], [ -55.0499535, -30.137250483999903 ], [ -55.04433105, -30.136270131999893 ], [ -55.043234297, -30.135047938999893 ], [ -55.027095551999906, -30.133865077999889 ], [ -55.021951515, -30.129900032 ], [ -55.019751792, -30.130113486 ], [ -55.019106673999893, -30.128680011 ], [ -55.0154978159999, -30.130012133 ], [ -55.006561738999892, -30.129997753999898 ], [ -55.001304994999899, -30.122625992999911 ], [ -55.000467114999907, -30.1188366169999 ], [ -55.001609931, -30.112056688999907 ], [ -54.994269414, -30.107181742 ], [ -54.986284229, -30.096204206 ], [ -54.980433717, -30.09460372 ], [ -54.980070347, -30.092696546 ], [ -54.97811042, -30.092613544 ], [ -54.976960527, -30.089201719999892 ], [ -54.974911716999898, -30.088982716 ], [ -54.974466166999896, -30.087441306 ], [ -54.96383291, -30.08874413 ], [ -54.957327053, -30.085377711 ], [ -54.949736852999891, -30.083466345 ], [ -54.948620929, -30.076570617999895 ], [ -54.945268075999898, -30.073225819999895 ], [ -54.941477636999892, -30.072295774999898 ], [ -54.942550779, -30.070040010999897 ], [ -54.938498286, -30.066133233999899 ], [ -54.934470085, -30.065600743999894 ], [ -54.932688160999902, -30.063608175999903 ], [ -54.928277611999903, -30.067977954 ], [ -54.914691443, -30.0732870269999 ], [ -54.911542948, -30.077659281 ], [ -54.909059154, -30.078764441000011 ], [ -54.899775198, -30.079016523999897 ], [ -54.901227354999897, -30.083861876 ], [ -54.899665405, -30.085265867 ], [ -54.899919439, -30.087507527 ], [ -54.897248719999901, -30.090900621999896 ], [ -54.896847162, -30.094239589 ], [ -54.893727564999899, -30.095905705 ], [ -54.891570391, -30.099967743 ], [ -54.888618252999905, -30.099153397 ], [ -54.884730442, -30.099892305 ], [ -54.879318424, -30.098131626999894 ], [ -54.879210959, -30.096868502999893 ], [ -54.87698962799989, -30.09606912 ], [ -54.869112345, -30.095566499 ], [ -54.865044213, -30.097596836 ], [ -54.853591004999892, -30.09847709 ], [ -54.84815080899989, -30.100179402 ], [ -54.847596906, -30.102035800999904 ], [ -54.845200886, -30.099374731 ], [ -54.84085814, -30.100203093999898 ], [ -54.837975802999892, -30.103353180999896 ], [ -54.825839016, -30.105078727 ], [ -54.819728575999903, -30.108057736 ], [ -54.817208815999898, -30.107945922999896 ], [ -54.809951644, -30.104328309 ], [ -54.808642131999903, -30.102296893 ], [ -54.803393507999893, -30.1003253649999 ], [ -54.799290745999897, -30.095995823999896 ], [ -54.789579586999892, -30.094250899 ], [ -54.78241002, -30.083124325 ], [ -54.779817537, -30.083790367999899 ], [ -54.777360637999898, -30.082253807 ], [ -54.776413364999897, -30.078854352999901 ], [ -54.778882173999889, -30.073635426 ], [ -54.776598745999891, -30.058970683 ], [ -54.773608087, -30.056521145 ], [ -54.772443097999897, -30.050919506 ], [ -54.764647625999899, -30.046631271999988 ], [ -54.761487372, -30.040376845 ], [ -54.759144729999903, -30.040822192 ], [ -54.756706731999898, -30.038648811 ], [ -54.755575312, -30.034711252 ], [ -54.757016060999902, -30.0339471529999 ], [ -54.756359207999893, -30.032403395999903 ], [ -54.759559284, -30.030770138 ], [ -54.755793608, -30.028535421 ], [ -54.757735443999891, -30.026195174999902 ], [ -54.754768210999899, -30.024437339 ], [ -54.755681839, -30.021323432 ], [ -54.749426991, -30.021913635 ], [ -54.749204804, -30.020864133 ], [ -54.744923424, -30.023494452 ], [ -54.735932872, -30.020965715999989 ], [ -54.731725662, -30.0240385399999 ], [ -54.732514105, -30.026831167 ], [ -54.731268977, -30.028277721999892 ], [ -54.724483214, -30.029614518 ], [ -54.71913008, -30.032300409 ], [ -54.713404192, -30.031887438 ], [ -54.711156241, -30.025194924999909 ], [ -54.706739378999899, -30.025273125 ], [ -54.701266464, -30.032075869 ], [ -54.704065181, -30.037497843 ], [ -54.703932611, -30.040313865 ], [ -54.698402950999892, -30.043506819 ], [ -54.700775467, -30.048136417 ], [ -54.698576242999899, -30.051267749 ], [ -54.700499727, -30.055604263 ], [ -54.69666168899991, -30.059124926 ], [ -54.692473327, -30.058833732 ], [ -54.692188841, -30.060495193999898 ], [ -54.688544104999899, -30.062947866999899 ], [ -54.687001425999895, -30.068607740999891 ], [ -54.687534849, -30.0742940989999 ], [ -54.683785816, -30.076155094999898 ], [ -54.68272049, -30.079328629 ], [ -54.678249266, -30.080149569 ], [ -54.67753884, -30.083278827999898 ], [ -54.671075999, -30.092727367 ], [ -54.670729804, -30.095613624999903 ], [ -54.661017224, -30.1016959839999 ], [ -54.660658805, -30.103487179999899 ], [ -54.655100374, -30.108698298 ], [ -54.649695381999891, -30.106717269999901 ], [ -54.64381007, -30.108100266 ], [ -54.63135921, -30.106565992 ], [ -54.629485007, -30.108332967 ], [ -54.629032012, -30.111968668 ], [ -54.631162587999903, -30.111840597 ], [ -54.63152523, -30.113305107 ], [ -54.628381894, -30.114160867 ], [ -54.626942211, -30.116599398999895 ], [ -54.627961893, -30.12051967 ], [ -54.6296726859999, -30.119090612 ], [ -54.634200055999898, -30.120848044 ], [ -54.634801771999904, -30.122433637 ], [ -54.632325296, -30.121721416 ], [ -54.630532291, -30.123466999 ], [ -54.63970882, -30.132156811999902 ], [ -54.647486181, -30.136103547999895 ], [ -54.6449855769999, -30.140505893 ], [ -54.647200326, -30.1426918 ], [ -54.647531336, -30.148338850999906 ], [ -54.649272492, -30.151622091 ], [ -54.646951719999898, -30.154778522 ], [ -54.652432417999897, -30.154509770999887 ], [ -54.655637038, -30.151779572 ], [ -54.659133365999899, -30.15543235 ], [ -54.662664182, -30.153677208 ], [ -54.668221340999892, -30.155669751999898 ], [ -54.668655665, -30.158613615 ], [ -54.663927220999895, -30.163349062999892 ], [ -54.663713292, -30.166592935 ], [ -54.6657752959999, -30.168462298 ], [ -54.667210008, -30.174754869 ], [ -54.672651448999893, -30.176607671999907 ], [ -54.674295651, -30.179311264 ], [ -54.678240431999903, -30.181453670999904 ], [ -54.682971271, -30.187957228999892 ], [ -54.682808995999892, -30.194505319 ], [ -54.684290752, -30.197789833999899 ], [ -54.6934163929999, -30.20068925 ], [ -54.701875888, -30.206453720999903 ], [ -54.7045006, -30.206426227 ], [ -54.708259804, -30.210019945999893 ], [ -54.706000377999899, -30.214191238999899 ], [ -54.706593829, -30.221886174 ], [ -54.704190389, -30.22403278699991 ], [ -54.707369625999902, -30.228935658999902 ], [ -54.70636367399991, -30.233430629999898 ], [ -54.711181350999894, -30.237065733 ], [ -54.713182628, -30.240704859999898 ], [ -54.711313049, -30.252262975 ], [ -54.712324848, -30.261707019 ], [ -54.715582519999892, -30.2652727729999 ], [ -54.719666046, -30.266629066999901 ], [ -54.722655747, -30.271166115999986 ], [ -54.729506826, -30.272024931 ], [ -54.732401976999903, -30.26980738 ], [ -54.7370892389999, -30.272103968999904 ], [ -54.74229141699989, -30.272603779 ], [ -54.752933964, -30.276512518999901 ], [ -54.7547345, -30.278130683 ], [ -54.75544103499989, -30.281714596 ], [ -54.761176264, -30.282301715 ], [ -54.765851073, -30.280131411999896 ], [ -54.771245146999895, -30.275455087 ], [ -54.780723522999892, -30.276623426999905 ], [ -54.78951125, -30.274411893 ], [ -54.791135259, -30.275140237999903 ], [ -54.795968638, -30.272807412 ], [ -54.800776073999899, -30.273463889 ], [ -54.812440686999899, -30.268107331 ], [ -54.815199354, -30.269306034 ], [ -54.818759856, -30.268798149 ], [ -54.823733435, -30.271009761 ], [ -54.826101055, -30.269268920999906 ], [ -54.836743522999896, -30.269495391 ], [ -54.838894786, -30.272079672 ], [ -54.840442514999893, -30.27035503 ], [ -54.839494546, -30.269059825999904 ], [ -54.847412275, -30.265864821 ], [ -54.852321737, -30.269543366999986 ], [ -54.856184519, -30.269935959999895 ], [ -54.858091668, -30.268294361999892 ], [ -54.860519215999901, -30.269694581 ], [ -54.86312770099989, -30.267811838999897 ], [ -54.8644522, -30.269684884999904 ], [ -54.86632251399989, -30.269350159999902 ], [ -54.8670309889999, -30.2720822759999 ], [ -54.871036832999899, -30.271969602999899 ], [ -54.871708589, -30.269117351 ], [ -54.875610476, -30.271705321 ], [ -54.879177209, -30.278298916 ], [ -54.876799338999902, -30.281090710999905 ], [ -54.8730363929999, -30.279330930999897 ], [ -54.869978411, -30.279598291 ], [ -54.867300858, -30.284868522 ], [ -54.863571772999897, -30.286725293 ], [ -54.865080822, -30.291432901000011 ], [ -54.861509290999891, -30.293014832 ], [ -54.859851338999903, -30.296293309 ], [ -54.854570746, -30.297930166999897 ], [ -54.852781537999903, -30.302699032 ], [ -54.845655328, -30.305013093 ], [ -54.845910521999897, -30.309131216999987 ], [ -54.844672819, -30.311012199999897 ], [ -54.84015403, -30.310287038 ], [ -54.837869473, -30.311403018 ], [ -54.835497489, -30.316930853 ], [ -54.829364864, -30.323243717 ], [ -54.831991297999892, -30.326044152999899 ], [ -54.830708603999895, -30.328892300999893 ], [ -54.821905226999903, -30.33292648 ], [ -54.817351479, -30.332856534 ], [ -54.81653479900001, -30.3300164199999 ], [ -54.823318974, -30.328035527999901 ], [ -54.824049825, -30.325473244 ], [ -54.821899110999901, -30.321759442 ], [ -54.817359639, -30.320039498 ], [ -54.802989703, -30.323964428999897 ], [ -54.801717321999902, -30.328048108 ], [ -54.804031979999898, -30.333943205999987 ], [ -54.809511114, -30.333530668 ], [ -54.810621522, -30.335557206 ], [ -54.807967630999897, -30.337770127999896 ], [ -54.795918502999903, -30.340456795 ], [ -54.794016724999899, -30.342997881 ], [ -54.794688326, -30.345688765 ], [ -54.792241794999896, -30.346362724999906 ], [ -54.790311211, -30.349090877 ], [ -54.783953622999896, -30.349791637999896 ], [ -54.783077294999892, -30.356823833 ], [ -54.779925294, -30.358830641999905 ], [ -54.783068899999897, -30.361755842 ], [ -54.781631941999898, -30.365080126999896 ], [ -54.784105527999891, -30.369277871 ], [ -54.78015923999989, -30.370159848999908 ], [ -54.779326431999898, -30.371854148999901 ], [ -54.785028987, -30.37486905 ], [ -54.789046603, -30.373622928 ], [ -54.792746130999902, -30.370254901999889 ], [ -54.796197174, -30.374657209 ], [ -54.793776376, -30.378421154 ], [ -54.795624384, -30.381414223 ], [ -54.794881019999899, -30.384239247 ], [ -54.7899480089999, -30.385458479 ], [ -54.788121807, -30.383894599 ], [ -54.785892083, -30.384091127 ], [ -54.784560294999892, -30.391443726 ], [ -54.779665647999892, -30.3894334619999 ], [ -54.777141415, -30.390956466 ], [ -54.778094904999897, -30.396054681999903 ], [ -54.774060558, -30.409307859 ], [ -54.768704178, -30.408915699 ], [ -54.768035332999901, -30.410466546999899 ], [ -54.768255337, -30.412300483 ], [ -54.771162951, -30.414809348999899 ], [ -54.769584978999902, -30.416566191 ], [ -54.763441152, -30.417587411999897 ], [ -54.760324146, -30.413784844 ], [ -54.7559663279999, -30.413783927999894 ], [ -54.749388214, -30.416457749 ], [ -54.748957734, -30.419406867 ], [ -54.744322686, -30.420526482 ], [ -54.743695714, -30.422457051 ], [ -54.747616230999903, -30.424210751 ], [ -54.749132297999893, -30.427394693999904 ], [ -54.745515678999894, -30.431003174 ], [ -54.739153976, -30.429043643999897 ], [ -54.737701828999903, -30.431816865 ], [ -54.738962789, -30.434043582999895 ], [ -54.736138073999903, -30.436695616 ], [ -54.736367750999896, -30.438386792 ], [ -54.741362739999893, -30.437461388 ], [ -54.743769875999902, -30.441172329 ], [ -54.742661466, -30.444488936 ], [ -54.74588118, -30.447198684999901 ], [ -54.745458454999891, -30.448333921 ], [ -54.740090927, -30.446576139999898 ], [ -54.738003873, -30.447711146 ], [ -54.741817536, -30.451885772 ], [ -54.737486599, -30.452938906999989 ], [ -54.733900669, -30.451714890999899 ], [ -54.730560231, -30.454621765999903 ], [ -54.732599823, -30.458671119 ], [ -54.730749396, -30.459681578999898 ], [ -54.724051744, -30.455774243999887 ], [ -54.722765482999897, -30.458045664999901 ], [ -54.719072428999901, -30.457856615 ], [ -54.715917654999892, -30.460032022999908 ], [ -54.713040766999903, -30.463490643999894 ], [ -54.713038973, -30.464730179000011 ], [ -54.716028724999902, -30.465653061 ], [ -54.716643421999891, -30.469427481 ], [ -54.718512234999892, -30.467738961999888 ], [ -54.721210796, -30.468376487999908 ], [ -54.7178522, -30.470877345 ], [ -54.717192005999898, -30.4731153769999 ], [ -54.719496531999894, -30.471998912999901 ], [ -54.719439893, -30.474811676999895 ], [ -54.722051058, -30.477356492 ], [ -54.720571569, -30.479143899 ], [ -54.718674071999892, -30.477342334999896 ], [ -54.717546883, -30.479849300999891 ], [ -54.713596447, -30.477730242999886 ], [ -54.711055998999896, -30.479618018999901 ], [ -54.712743411, -30.480877837 ], [ -54.711804206999894, -30.481876450999895 ], [ -54.713913945999899, -30.485407167999899 ], [ -54.716604103999899, -30.486511375 ], [ -54.714600235, -30.488004283 ], [ -54.714754849, -30.491049032 ], [ -54.716723327, -30.491293056 ], [ -54.717074083999897, -30.493905487999893 ], [ -54.719427302, -30.496160964 ], [ -54.717264641, -30.498194433 ], [ -54.714646268, -30.497915917999901 ], [ -54.714874189999897, -30.500531527 ], [ -54.711190072, -30.500840793999899 ], [ -54.711586133, -30.503159469 ], [ -54.713380309999891, -30.504058875999899 ], [ -54.715873315, -30.503221687 ], [ -54.716642139, -30.501439527999896 ], [ -54.726124774, -30.501066658 ], [ -54.726795804999895, -30.502277572 ], [ -54.725457197, -30.504263926 ], [ -54.726724949, -30.505222076999896 ], [ -54.73120574699989, -30.503301833 ], [ -54.731615964999897, -30.50491872 ], [ -54.735055998999897, -30.505095809999901 ], [ -54.735478301999898, -30.507455655999902 ], [ -54.739061440999897, -30.504906443 ], [ -54.738962441, -30.508476851 ], [ -54.740493876, -30.509323152 ], [ -54.741473116999892, -30.508334510999894 ], [ -54.742745304, -30.510685978 ], [ -54.747659486, -30.511854113 ], [ -54.745736064, -30.51362646 ], [ -54.741660134, -30.513379398 ], [ -54.741447513, -30.515661238999904 ], [ -54.745423086999892, -30.516224716 ], [ -54.746032696, -30.515358819 ], [ -54.748648031, -30.517022025999893 ], [ -54.747733916, -30.519086491999897 ], [ -54.742751997, -30.51801038 ], [ -54.743664439, -30.522404628999901 ], [ -54.734345807999901, -30.52916019 ], [ -54.735752999999896, -30.530052420999901 ], [ -54.735525544, -30.534765772999894 ], [ -54.734787869999899, -30.536345734 ], [ -54.733343389, -30.536151753 ], [ -54.732997656, -30.538390789999902 ], [ -54.735235019, -30.537622851 ], [ -54.736678728, -30.542630457000012 ], [ -54.734705618, -30.547138244999903 ], [ -54.736361647, -30.54791318 ], [ -54.735900483, -30.551072815999902 ], [ -54.734090513999902, -30.554146769999893 ], [ -54.735255094, -30.559816151999904 ], [ -54.731129876999901, -30.566437758999893 ], [ -54.731840686999902, -30.568472615 ], [ -54.728741226999901, -30.570601979999903 ], [ -54.725415825, -30.570179440999901 ], [ -54.723118278, -30.573184007 ], [ -54.724637621999889, -30.576389445 ], [ -54.720149960999898, -30.578424072 ], [ -54.719984306999898, -30.581180238999902 ], [ -54.725442689, -30.582824487 ], [ -54.7254953139999, -30.586279169 ], [ -54.728839789999903, -30.588010762999904 ], [ -54.730136283, -30.591764279999897 ], [ -54.72231223099989, -30.603866186999898 ], [ -54.72318896, -30.615876499 ], [ -54.732139205, -30.625477502 ], [ -54.732704157999898, -30.630604266 ], [ -54.73473323199989, -30.629870219999901 ], [ -54.734344072999903, -30.630930562999897 ], [ -54.736151161, -30.631265724999899 ], [ -54.738676810999898, -30.634297918999906 ], [ -54.749618728, -30.638747636999891 ], [ -54.750892842, -30.643408426 ], [ -54.75373438, -30.644834456 ], [ -54.753796455, -30.648961933 ], [ -54.762120374999903, -30.655635006999898 ], [ -54.766945286999899, -30.655694312 ], [ -54.771308714, -30.659733967 ], [ -54.7729889, -30.663589409999904 ], [ -54.77231195600001, -30.671908887 ], [ -54.775773257, -30.680490769999899 ], [ -54.772121931999898, -30.68287677 ], [ -54.771485, -30.685261895999901 ], [ -54.773639644999896, -30.689645524 ], [ -54.776510827, -30.690974960999885 ], [ -54.778105092, -30.695140600999903 ], [ -54.780807575, -30.695856261999904 ], [ -54.782273308999898, -30.699159017999897 ], [ -54.786413685, -30.7006378479999 ], [ -54.800081105999894, -30.700259402 ], [ -54.801752226, -30.701086792999899 ], [ -54.8060619829999, -30.705220337999897 ], [ -54.809480575, -30.711725749 ], [ -54.810981472, -30.711886249 ], [ -54.810749901999891, -30.713384377 ], [ -54.817546076, -30.715681307 ], [ -54.81855655, -30.719376732999905 ], [ -54.820485896, -30.719725547999889 ], [ -54.828656958, -30.727393130999896 ], [ -54.833119354, -30.727305547999897 ], [ -54.837599146999899, -30.732632334 ], [ -54.8437867009999, -30.735471302 ], [ -54.851704319, -30.734204935 ], [ -54.852824829, -30.732681963999898 ], [ -54.86720433499989, -30.728385860999897 ], [ -54.8708957119999, -30.729450997999898 ], [ -54.888165844, -30.726056086 ], [ -54.895695087, -30.72421205800001 ], [ -54.906077435, -30.719463226999896 ], [ -54.914670518, -30.718638441999904 ], [ -54.926708219, -30.719761289 ], [ -54.931366036, -30.722739214999905 ], [ -54.93351030799991, -30.721742929 ], [ -54.936089006, -30.724939911 ], [ -54.939134498, -30.724384708999903 ], [ -54.939783330999902, -30.722948964999894 ], [ -54.940380655, -30.723976566 ], [ -54.942762092999892, -30.723557716 ], [ -54.945637416, -30.728626848 ], [ -54.948171150999897, -30.727262132 ], [ -54.949841395, -30.727828717 ], [ -54.950613190999896, -30.726607037 ], [ -54.9531803799999, -30.726852486 ], [ -54.956083567999897, -30.724548424 ], [ -54.963676651, -30.73054087 ], [ -54.970307719999902, -30.730852307 ], [ -54.972373687999905, -30.733511060999902 ], [ -54.978878019, -30.730862866999896 ], [ -54.983723897999909, -30.732023083999898 ], [ -54.985054974, -30.730410219 ], [ -54.990711501, -30.730714236 ], [ -54.994745984, -30.728729196 ], [ -54.998053891, -30.728902628 ], [ -55.001318689, -30.725698163999905 ], [ -55.007524584999899, -30.725966085 ], [ -55.009536559, -30.724997683 ], [ -55.010684781, -30.725915659 ], [ -55.011804138999892, -30.720901717999894 ], [ -55.01428314, -30.72100654 ], [ -55.019421489, -30.718090593999893 ], [ -55.017934592, -30.713971997999987 ], [ -55.020859811, -30.712586911 ], [ -55.021395046999906, -30.710473616999899 ], [ -55.019678408999901, -30.709423924 ], [ -55.01759688499989, -30.710779745 ], [ -55.015671888999989, -30.709435020999894 ], [ -55.0170393779999, -30.704019043999903 ], [ -55.014818622, -30.702258782999895 ], [ -55.015323845, -30.700063047 ], [ -55.013615777, -30.697819726 ], [ -55.016702943, -30.6934302989999 ], [ -55.015330509, -30.688832421 ], [ -55.012032062999893, -30.687864831 ], [ -55.01208165, -30.686406797 ], [ -55.014338918, -30.685243226 ], [ -55.01399814, -30.68399328100001 ], [ -55.017160803, -30.6847431479999 ], [ -55.017150941, -30.683205264999987 ], [ -55.023112355, -30.680270358 ], [ -55.02577804, -30.675378560999899 ] ] ] } }
]
}
