{
"type": "FeatureCollection",
"name": "bairros_garibaldi",
"crs": { "type": "name", "properties": { "name": "urn:ogc:def:crs:OGC:1.3:CRS84" } },
"features": [
{ "type": "Feature", "properties": { "name": "Santo Antão", "code_muni": 4308607.0, "name_muni": "Garibaldi" }, "geometry": { "type": "Polygon", "coordinates": [ [ [ -51.5017493, -29.1987142 ], [ -51.5063301, -29.1988544 ], [ -51.5063999, -29.198856500000012 ], [ -51.5070959, -29.1988778 ], [ -51.5080032, -29.1989056 ], [ -51.5080233, -29.1987887 ], [ -51.5080469, -29.1986334 ], [ -51.5080387, -29.1984792 ], [ -51.508036753599299, -29.198462690694086 ], [ -51.501855495326893, -29.198252846799683 ], [ -51.5017493, -29.1987142 ] ] ] } },
{ "type": "Feature", "properties": { "name": "Verona", "code_muni": 4308607.0, "name_muni": "Garibaldi" }, "geometry": { "type": "Polygon", "coordinates": [ [ [ -51.5080387, -29.1984792 ], [ -51.5080469, -29.1986334 ], [ -51.5080233, -29.1987887 ], [ -51.5080032, -29.1989056 ], [ -51.518499, -29.199233 ], [ -51.518485715313659, -29.198816764910504 ], [ -51.508036753599299, -29.198462690694086 ], [ -51.5080387, -29.1984792 ] ] ] } },
{ "type": "Feature", "properties": { "name": "Vinosul", "code_muni": 4308607.0, "name_muni": "Garibaldi" }, "geometry": { "type": "MultiPolygon", "coordinates": [ [ [ [ -51.518499, -29.199233 ], [ -51.5198901, -29.1992666 ], [ -51.5198929, -29.199051 ], [ -51.5208392, -29.1990643 ], [ -51.5222631, -29.1990843 ], [ -51.5229069, -29.199093300000012 ], [ -51.522910189007405, -29.198966446222272 ], [ -51.518485715313659, -29.198816764910504 ], [ -51.518499, -29.199233 ] ] ], [ [ [ -51.5253947, -29.1976155 ], [ -51.5252935, -29.1974498 ], [ -51.5251137, -29.197158 ], [ -51.5250352, -29.1969768 ], [ -51.524946890597555, -29.196747658452047 ], [ -51.523232886113796, -29.196750573666293 ], [ -51.523142499997974, -29.197585117495425 ], [ -51.5253947, -29.1976155 ] ] ] ] } },
{ "type": "Feature", "properties": { "name": "Triângulo", "code_muni": 4308607.0, "name_muni": "Garibaldi" }, "geometry": { "type": "Polygon", "coordinates": [ [ [ -51.4926839, -29.2758992 ], [ -51.490625726265314, -29.276059753158549 ], [ -51.490620879999895, -29.276447969999907 ], [ -51.493860088674623, -29.27635211256046 ], [ -51.4926839, -29.2758992 ] ] ] } },
{ "type": "Feature", "properties": { "name": "Imigrantes", "code_muni": 4308607.0, "name_muni": "Garibaldi" }, "geometry": { "type": "Polygon", "coordinates": [ [ [ -51.545714529196154, -29.289193059607953 ], [ -51.545654513004401, -29.29281233465198 ], [ -51.546175569730195, -29.292818081327962 ], [ -51.5461444, -29.2891876 ], [ -51.545714529196154, -29.289193059607953 ] ] ] } },
{ "type": "Feature", "properties": { "name": "Garibaldina", "code_muni": 4308607.0, "name_muni": "Garibaldi" }, "geometry": { "type": "Polygon", "coordinates": [ [ [ -51.5334106, -29.211867 ], [ -51.5334106, -29.2095634 ], [ -51.5330082, -29.2068804 ], [ -51.5329653, -29.2062483 ], [ -51.5339016, -29.2017012 ], [ -51.5339685, -29.2006292 ], [ -51.5336681, -29.1986437 ], [ -51.5332067, -29.1970047 ], [ -51.533169590437602, -29.196733367911502 ], [ -51.524946890597555, -29.196747658452047 ], [ -51.5250352, -29.1969768 ], [ -51.5251137, -29.197158 ], [ -51.5252935, -29.1974498 ], [ -51.5253947, -29.1976155 ], [ -51.523142499997974, -29.197585117495425 ], [ -51.522992589002996, -29.198969232447382 ], [ -51.522910189007405, -29.198966446222272 ], [ -51.5229069, -29.199093300000012 ], [ -51.5222631, -29.1990843 ], [ -51.5208392, -29.1990643 ], [ -51.5198929, -29.199051 ], [ -51.5198901, -29.1992666 ], [ -51.518499, -29.199233 ], [ -51.5185042, -29.1994757 ], [ -51.5185361, -29.19984 ], [ -51.5186549, -29.2006059 ], [ -51.5186812, -29.2009241 ], [ -51.5186769, -29.20126 ], [ -51.5186404, -29.201578 ], [ -51.5185441, -29.202006699999988 ], [ -51.5181322, -29.2031482 ], [ -51.5179709, -29.2036102 ], [ -51.5178239, -29.2040694 ], [ -51.5176794, -29.204709 ], [ -51.5176411, -29.2048787 ], [ -51.5176191, -29.2050121 ], [ -51.5175005, -29.2057333 ], [ -51.5174852, -29.2060213 ], [ -51.5174844, -29.2063998 ], [ -51.5175294, -29.2067152 ], [ -51.5176903, -29.20743220000001 ], [ -51.5178672, -29.2083015 ], [ -51.5179623, -29.20937 ], [ -51.51807, -29.2104098 ], [ -51.5181044, -29.2107713 ], [ -51.5181193, -29.2109283 ], [ -51.5181425, -29.2115434 ], [ -51.5181112, -29.2124851 ], [ -51.5179691, -29.2134613 ], [ -51.51790470000001, -29.2137657 ], [ -51.5177813, -29.2144726 ], [ -51.5177118, -29.21481850000001 ], [ -51.5169954, -29.2186185 ], [ -51.5328741, -29.2185623 ], [ -51.5334106, -29.211867 ] ] ] } },
{ "type": "Feature", "properties": { "name": "Tamandaré", "code_muni": 4308607.0, "name_muni": "Garibaldi" }, "geometry": { "type": "Polygon", "coordinates": [ [ [ -51.5175005, -29.2057333 ], [ -51.5176191, -29.2050121 ], [ -51.5176411, -29.2048787 ], [ -51.5176794, -29.204709 ], [ -51.5178239, -29.2040694 ], [ -51.5179709, -29.2036102 ], [ -51.5181322, -29.2031482 ], [ -51.5185441, -29.202006699999988 ], [ -51.5186404, -29.201578 ], [ -51.5186769, -29.20126 ], [ -51.5186812, -29.2009241 ], [ -51.5186549, -29.2006059 ], [ -51.5185361, -29.19984 ], [ -51.5185042, -29.1994757 ], [ -51.518499, -29.199233 ], [ -51.5080032, -29.1989056 ], [ -51.5070959, -29.1988778 ], [ -51.5063999, -29.198856500000012 ], [ -51.5063301, -29.1988544 ], [ -51.5017493, -29.1987142 ], [ -51.501855495326893, -29.198252846799683 ], [ -51.491601080371993, -29.197904093893094 ], [ -51.491446698198075, -29.210277935847717 ], [ -51.4940032, -29.2113953 ], [ -51.4944298, -29.2116064 ], [ -51.4947061, -29.2117717 ], [ -51.4949612, -29.2119561 ], [ -51.4956871, -29.2125565 ], [ -51.4959694, -29.2127447 ], [ -51.4961933, -29.2128699 ], [ -51.4965257, -29.2130053 ], [ -51.4968219, -29.2130745 ], [ -51.497213, -29.2131189 ], [ -51.4981853, -29.2131519 ], [ -51.4984761, -29.2131873 ], [ -51.4987294, -29.2132394 ], [ -51.498998, -29.2133201 ], [ -51.49935, -29.2134893 ], [ -51.4999738, -29.2138179 ], [ -51.5005411, -29.2140594 ], [ -51.5010958, -29.2142489 ], [ -51.5024377, -29.2146366 ], [ -51.5037912, -29.2150047 ], [ -51.5044375, -29.2151998 ], [ -51.5048717, -29.2153438 ], [ -51.5053579, -29.2155453 ], [ -51.5057782, -29.21575630000001 ], [ -51.5061326, -29.2159718 ], [ -51.506589, -29.2162609 ], [ -51.5081065, -29.2171331 ], [ -51.5095601, -29.2178357 ], [ -51.5102006, -29.2181164 ], [ -51.5106525, -29.218275 ], [ -51.5113275, -29.2184599 ], [ -51.5117234, -29.2185342 ], [ -51.5121097, -29.2185773 ], [ -51.5129265, -29.2185986 ], [ -51.515177, -29.2186111 ], [ -51.515294, -29.2186118 ], [ -51.5155284, -29.2186131 ], [ -51.5169954, -29.2186185 ], [ -51.5177118, -29.21481850000001 ], [ -51.5177813, -29.2144726 ], [ -51.51790470000001, -29.2137657 ], [ -51.5179691, -29.2134613 ], [ -51.5181112, -29.2124851 ], [ -51.5181425, -29.2115434 ], [ -51.5181193, -29.2109283 ], [ -51.5181044, -29.2107713 ], [ -51.51807, -29.2104098 ], [ -51.5179623, -29.20937 ], [ -51.5178672, -29.2083015 ], [ -51.5176903, -29.20743220000001 ], [ -51.5175294, -29.2067152 ], [ -51.5174844, -29.2063998 ], [ -51.5174852, -29.2060213 ], [ -51.5175005, -29.2057333 ] ] ] } },
{ "type": "Feature", "properties": { "name": "Integração", "code_muni": 4308607.0, "name_muni": "Garibaldi" }, "geometry": { "type": "Polygon", "coordinates": [ [ [ -51.515294, -29.2186118 ], [ -51.515177, -29.2186111 ], [ -51.5129265, -29.2185986 ], [ -51.5121097, -29.2185773 ], [ -51.5117234, -29.2185342 ], [ -51.5113275, -29.2184599 ], [ -51.5106525, -29.218275 ], [ -51.5102006, -29.2181164 ], [ -51.5095601, -29.2178357 ], [ -51.5081065, -29.2171331 ], [ -51.506589, -29.2162609 ], [ -51.5061326, -29.2159718 ], [ -51.5057782, -29.21575630000001 ], [ -51.5053579, -29.2155453 ], [ -51.5048717, -29.2153438 ], [ -51.5044375, -29.2151998 ], [ -51.5037912, -29.2150047 ], [ -51.5024377, -29.2146366 ], [ -51.5010958, -29.2142489 ], [ -51.5005411, -29.2140594 ], [ -51.4999738, -29.2138179 ], [ -51.49935, -29.2134893 ], [ -51.498998, -29.2133201 ], [ -51.4987294, -29.2132394 ], [ -51.4984761, -29.2131873 ], [ -51.4981853, -29.2131519 ], [ -51.497213, -29.2131189 ], [ -51.4968219, -29.2130745 ], [ -51.4965257, -29.2130053 ], [ -51.4961933, -29.2128699 ], [ -51.4959694, -29.2127447 ], [ -51.4956871, -29.2125565 ], [ -51.4949612, -29.2119561 ], [ -51.4947061, -29.2117717 ], [ -51.4944298, -29.2116064 ], [ -51.4940032, -29.2113953 ], [ -51.491446698198075, -29.210277935847717 ], [ -51.490939776899275, -29.250899815593286 ], [ -51.5105364, -29.250802 ], [ -51.5105028, -29.2387846 ], [ -51.5107617, -29.2389911 ], [ -51.5108699, -29.2391298 ], [ -51.5111195, -29.2394718 ], [ -51.511433, -29.239925 ], [ -51.5116415, -29.2401155 ], [ -51.5118041, -29.240221 ], [ -51.5119946, -29.2403107 ], [ -51.5121601, -29.24036 ], [ -51.5123206, -29.2403989 ], [ -51.5124515, -29.2404176 ], [ -51.5128492, -29.2404137 ], [ -51.5130168, -29.240402199999988 ], [ -51.5131761, -29.2403634 ], [ -51.5133226, -29.2403126 ], [ -51.5134855, -29.2402355 ], [ -51.5136519, -29.2401224 ], [ -51.5138256, -29.2399802 ], [ -51.5139707, -29.2398021 ], [ -51.5140781, -29.2396425 ], [ -51.5141528, -29.239456 ], [ -51.5141933, -29.2392766 ], [ -51.5142131, -29.2388171 ], [ -51.5142425, -29.2385312 ], [ -51.5143219, -29.2383816 ], [ -51.5144016, -29.2382116 ], [ -51.5144901, -29.2380736 ], [ -51.514631, -29.2379339 ], [ -51.5148117, -29.2377657 ], [ -51.5149475, -29.2376815 ], [ -51.5151036, -29.2376031 ], [ -51.5152603, -29.237544 ], [ -51.5153961, -29.2375036 ], [ -51.51552010000001, -29.2374856 ], [ -51.5156733, -29.2374741 ], [ -51.5165539, -29.2374727 ], [ -51.5167549, -29.237446 ], [ -51.5169609, -29.2373956 ], [ -51.5171974, -29.2372948 ], [ -51.5174029, -29.2371864 ], [ -51.5175408, -29.2371115 ], [ -51.5175373, -29.2369774 ], [ -51.5174523, -29.236643 ], [ -51.5173888, -29.2364765 ], [ -51.5172978, -29.23631180000001 ], [ -51.5172075, -29.2361657 ], [ -51.5171032, -29.2360385 ], [ -51.5169813, -29.235877899999988 ], [ -51.516532, -29.2354335 ], [ -51.5163525, -29.2351852 ], [ -51.5162525, -29.23500610000001 ], [ -51.5161958, -29.2348492 ], [ -51.5161527, -29.2346711 ], [ -51.5161278, -29.234492 ], [ -51.5159813, -29.2327662 ], [ -51.5159379, -29.2321834 ], [ -51.5159095, -29.2317481 ], [ -51.5158872, -29.2313305 ], [ -51.5159187, -29.2309593 ], [ -51.5159929, -29.230563 ], [ -51.5160584, -29.2302673 ], [ -51.5161425, -29.2300142 ], [ -51.5163187, -29.2295667 ], [ -51.5164216, -29.2293019 ], [ -51.5164666, -29.2289754 ], [ -51.516484, -29.228562699999987 ], [ -51.516433, -29.2281532 ], [ -51.5162299, -29.227336 ], [ -51.5161865, -29.2270877 ], [ -51.5161329, -29.2268106 ], [ -51.5160846, -29.2262575 ], [ -51.5160363, -29.2257255 ], [ -51.5160178, -29.2252313 ], [ -51.5160261, -29.224758 ], [ -51.5160541, -29.224111099999988 ], [ -51.5160972, -29.2238063 ], [ -51.5161497, -29.223428299999988 ], [ -51.5162941, -29.222615 ], [ -51.5163427, -29.2223375 ], [ -51.5169954, -29.2186185 ], [ -51.5155284, -29.2186131 ], [ -51.515294, -29.2186118 ] ] ] } },
{ "type": "Feature", "properties": { "name": "Vale Verde", "code_muni": 4308607.0, "name_muni": "Garibaldi" }, "geometry": { "type": "Polygon", "coordinates": [ [ [ -51.5170477, -29.2356954 ], [ -51.517009, -29.235703 ], [ -51.5169954, -29.2357112 ], [ -51.5169845, -29.235722 ], [ -51.5169751, -29.235739 ], [ -51.5169682, -29.2357589 ], [ -51.5169669, -29.2357894 ], [ -51.5169813, -29.235877899999988 ], [ -51.5171032, -29.2360385 ], [ -51.5172075, -29.2361657 ], [ -51.5172978, -29.23631180000001 ], [ -51.5173888, -29.2364765 ], [ -51.5174523, -29.236643 ], [ -51.5175373, -29.2369774 ], [ -51.5175408, -29.2371115 ], [ -51.5176027, -29.237236 ], [ -51.518127, -29.2393249 ], [ -51.5182298, -29.2397488 ], [ -51.5184186, -29.2404528 ], [ -51.5184511, -29.2406754 ], [ -51.5184554, -29.240911 ], [ -51.5184269, -29.2411669 ], [ -51.5183928, -29.2413288 ], [ -51.518328, -29.2415425 ], [ -51.51818440000001, -29.2418728 ], [ -51.5181287, -29.241965600000015 ], [ -51.5180639, -29.2420557 ], [ -51.517871, -29.2422878 ], [ -51.5177415, -29.2424257 ], [ -51.517248, -29.2429377 ], [ -51.5175506, -29.2432913 ], [ -51.5202175, -29.2432787 ], [ -51.5203624, -29.2431055 ], [ -51.5205609, -29.2429417 ], [ -51.520813, -29.2428106 ], [ -51.5210758, -29.2427217 ], [ -51.521328, -29.2426702 ], [ -51.5216069, -29.2426608 ], [ -51.52214870000001, -29.2426889 ], [ -51.5224813, -29.2426608 ], [ -51.5227603, -29.242553199999989 ], [ -51.5229963, -29.2424315 ], [ -51.523227, -29.2422255 ], [ -51.5234308, -29.2420055 ], [ -51.5235328, -29.2418136 ], [ -51.5236239, -29.2416077 ], [ -51.5236615, -29.2413221 ], [ -51.5236347, -29.2410366 ], [ -51.5235435, -29.2408119 ], [ -51.5234147, -29.2405966 ], [ -51.523227, -29.2403906 ], [ -51.5229534, -29.2401753 ], [ -51.5226959, -29.2400208 ], [ -51.5226142, -29.2399733 ], [ -51.5246053, -29.2399679 ], [ -51.5245596, -29.2401003 ], [ -51.5245502, -29.2401494 ], [ -51.5245058, -29.240466399999988 ], [ -51.5281013, -29.2404543 ], [ -51.5280688, -29.2403293 ], [ -51.5279844, -29.2399352 ], [ -51.5279288, -29.2396794 ], [ -51.5279102, -29.239554 ], [ -51.5274421, -29.2389709 ], [ -51.5271417, -29.2386557 ], [ -51.5267542, -29.2384039 ], [ -51.526342, -29.2380694 ], [ -51.5261284, -29.2378791 ], [ -51.5259399, -29.2377041 ], [ -51.5258373, -29.2375854 ], [ -51.5257844, -29.2375116 ], [ -51.5254967, -29.2370213 ], [ -51.5252633, -29.2366246 ], [ -51.525146, -29.236528 ], [ -51.5250508, -29.236461899999988 ], [ -51.5249366, -29.2364012 ], [ -51.5248037, -29.2363501 ], [ -51.5246365, -29.2363184 ], [ -51.5242961, -29.2362813 ], [ -51.524143, -29.2362468 ], [ -51.5240486, -29.236196 ], [ -51.5239383, -29.2361202 ], [ -51.5238351, -29.2360114 ], [ -51.5237559, -29.2358967 ], [ -51.523344, -29.235321 ], [ -51.5232593, -29.2352166 ], [ -51.5231594, -29.235119700000013 ], [ -51.5230187, -29.2350137 ], [ -51.5228555, -29.2349158 ], [ -51.5227145, -29.2348451 ], [ -51.5225493, -29.2347882 ], [ -51.5223197, -29.2347353 ], [ -51.5221249, -29.2347094 ], [ -51.52191280000001, -29.2347016 ], [ -51.5217107, -29.2347173 ], [ -51.52151, -29.2347621 ], [ -51.5213122, -29.234838 ], [ -51.5207967, -29.2350927 ], [ -51.5195029, -29.2357321 ], [ -51.5190414, -29.2359745 ], [ -51.51850910000001, -29.2362778 ], [ -51.5183124, -29.2363539 ], [ -51.5181907, -29.2363847 ], [ -51.5180056, -29.236397799999985 ], [ -51.5178458, -29.2363828 ], [ -51.5177384, -29.2363408 ], [ -51.5176432, -29.2362817 ], [ -51.517489, -29.2361272 ], [ -51.5173857, -29.236009 ], [ -51.5173146, -29.2359201 ], [ -51.5172422, -29.2358206 ], [ -51.5171336, -29.2356778 ], [ -51.5170477, -29.2356954 ] ] ] } },
{ "type": "Feature", "properties": { "name": "Borghetto", "code_muni": 4308607.0, "name_muni": "Garibaldi" }, "geometry": { "type": "Polygon", "coordinates": [ [ [ -51.5161278, -29.234492 ], [ -51.5161527, -29.2346711 ], [ -51.5161958, -29.2348492 ], [ -51.5162525, -29.23500610000001 ], [ -51.5163525, -29.2351852 ], [ -51.516532, -29.2354335 ], [ -51.5169813, -29.235877899999988 ], [ -51.5169669, -29.2357894 ], [ -51.5169682, -29.2357589 ], [ -51.5169751, -29.235739 ], [ -51.5169845, -29.235722 ], [ -51.5169954, -29.2357112 ], [ -51.517009, -29.235703 ], [ -51.5170477, -29.2356954 ], [ -51.5171336, -29.2356778 ], [ -51.5172422, -29.2358206 ], [ -51.5173146, -29.2359201 ], [ -51.5173857, -29.236009 ], [ -51.517489, -29.2361272 ], [ -51.5176432, -29.2362817 ], [ -51.5177384, -29.2363408 ], [ -51.5178458, -29.2363828 ], [ -51.5180056, -29.236397799999985 ], [ -51.5181907, -29.2363847 ], [ -51.5183124, -29.2363539 ], [ -51.51850910000001, -29.2362778 ], [ -51.5190414, -29.2359745 ], [ -51.5195029, -29.2357321 ], [ -51.5207967, -29.2350927 ], [ -51.5213122, -29.234838 ], [ -51.52151, -29.2347621 ], [ -51.5217107, -29.2347173 ], [ -51.52191280000001, -29.2347016 ], [ -51.5221249, -29.2347094 ], [ -51.5223197, -29.2347353 ], [ -51.5225493, -29.2347882 ], [ -51.5227145, -29.2348451 ], [ -51.5228555, -29.2349158 ], [ -51.5230187, -29.2350137 ], [ -51.5231594, -29.235119700000013 ], [ -51.5232593, -29.2352166 ], [ -51.523344, -29.235321 ], [ -51.5237559, -29.2358967 ], [ -51.5238351, -29.2360114 ], [ -51.5239383, -29.2361202 ], [ -51.5240486, -29.236196 ], [ -51.524143, -29.2362468 ], [ -51.5242961, -29.2362813 ], [ -51.5246365, -29.2363184 ], [ -51.5248037, -29.2363501 ], [ -51.5249366, -29.2364012 ], [ -51.5250508, -29.236461899999988 ], [ -51.525146, -29.236528 ], [ -51.5252633, -29.2366246 ], [ -51.5254967, -29.2370213 ], [ -51.5257844, -29.2375116 ], [ -51.5258373, -29.2375854 ], [ -51.5259399, -29.2377041 ], [ -51.5261284, -29.2378791 ], [ -51.526342, -29.2380694 ], [ -51.5267542, -29.2384039 ], [ -51.5271417, -29.2386557 ], [ -51.5272627, -29.2384676 ], [ -51.527327, -29.2383646 ], [ -51.5273968, -29.2382756 ], [ -51.5275065, -29.2381766 ], [ -51.5276757, -29.2380837 ], [ -51.5281585, -29.2379105 ], [ -51.5283785, -29.2378263 ], [ -51.528695, -29.2376718 ], [ -51.5299881, -29.2376345 ], [ -51.5305567, -29.2377749 ], [ -51.5311575, -29.2380839 ], [ -51.5315116, -29.2383647 ], [ -51.5330887, -29.2378217 ], [ -51.5326381, -29.2361927 ], [ -51.5318871, -29.2345169 ], [ -51.5320587, -29.228684 ], [ -51.5311897, -29.2249857 ], [ -51.5328741, -29.2185623 ], [ -51.5169954, -29.2186185 ], [ -51.5163427, -29.2223375 ], [ -51.5162941, -29.222615 ], [ -51.5161497, -29.223428299999988 ], [ -51.5160972, -29.2238063 ], [ -51.5160541, -29.224111099999988 ], [ -51.5160261, -29.224758 ], [ -51.5160178, -29.2252313 ], [ -51.5160363, -29.2257255 ], [ -51.5160846, -29.2262575 ], [ -51.5161329, -29.2268106 ], [ -51.5161865, -29.2270877 ], [ -51.5162299, -29.227336 ], [ -51.516433, -29.2281532 ], [ -51.516484, -29.228562699999987 ], [ -51.5164666, -29.2289754 ], [ -51.5164216, -29.2293019 ], [ -51.5163187, -29.2295667 ], [ -51.5161425, -29.2300142 ], [ -51.5160584, -29.2302673 ], [ -51.5159929, -29.230563 ], [ -51.5159187, -29.2309593 ], [ -51.5158872, -29.2313305 ], [ -51.5159095, -29.2317481 ], [ -51.5159379, -29.2321834 ], [ -51.5159813, -29.2327662 ], [ -51.5161278, -29.234492 ] ] ] } },
{ "type": "Feature", "properties": { "name": "Santa Terezinha", "code_muni": 4308607.0, "name_muni": "Garibaldi" }, "geometry": { "type": "Polygon", "coordinates": [ [ [ -51.5318812, -29.246170299999989 ], [ -51.5319793, -29.246272300000015 ], [ -51.5320643, -29.2463396 ], [ -51.532286, -29.2464419 ], [ -51.5324422, -29.2464941 ], [ -51.5327636, -29.2465096 ], [ -51.5328689, -29.2464928 ], [ -51.5330574, -29.2464754 ], [ -51.5332062, -29.246444600000011 ], [ -51.5333727, -29.246374599999989 ], [ -51.5334712, -29.24632 ], [ -51.5336985, -29.2462367 ], [ -51.5351102, -29.2459577 ], [ -51.5353133, -29.2459221 ], [ -51.5367669, -29.2458978 ], [ -51.5367133, -29.2449152 ], [ -51.5357264, -29.2449226 ], [ -51.5356511, -29.244114 ], [ -51.5356638, -29.2434435 ], [ -51.5358058, -29.2415997 ], [ -51.5358098, -29.2408294 ], [ -51.5358101, -29.2407732 ], [ -51.5358111, -29.240576 ], [ -51.5358889, -29.2327755 ], [ -51.5346015, -29.231329 ], [ -51.5318871, -29.2345169 ], [ -51.5326381, -29.2361927 ], [ -51.5330887, -29.2378217 ], [ -51.5315116, -29.2383647 ], [ -51.5311575, -29.2380839 ], [ -51.5305567, -29.2377749 ], [ -51.5299881, -29.2376345 ], [ -51.528695, -29.2376718 ], [ -51.5283785, -29.2378263 ], [ -51.5281585, -29.2379105 ], [ -51.5276757, -29.2380837 ], [ -51.5275065, -29.2381766 ], [ -51.5273968, -29.2382756 ], [ -51.527327, -29.2383646 ], [ -51.5272627, -29.2384676 ], [ -51.5271417, -29.2386557 ], [ -51.5274421, -29.2389709 ], [ -51.5279102, -29.239554 ], [ -51.5284215, -29.2401911 ], [ -51.5284737, -29.2402561 ], [ -51.5286446, -29.2404487 ], [ -51.5289624, -29.2407324 ], [ -51.5292247, -29.2408981 ], [ -51.5294248, -29.2410095 ], [ -51.5297696, -29.241160499999989 ], [ -51.5301685, -29.2413351 ], [ -51.5304097, -29.2414407 ], [ -51.5305449, -29.2415121 ], [ -51.5306348, -29.2416239 ], [ -51.5306983, -29.2417475 ], [ -51.5307273, -29.2418937 ], [ -51.5307436, -29.241976 ], [ -51.5307681, -29.2420997 ], [ -51.5307579, -29.2422856 ], [ -51.5306998, -29.2424636 ], [ -51.5306769, -29.2425339 ], [ -51.5305114, -29.2428094 ], [ -51.530447, -29.242945199999987 ], [ -51.5303424, -29.2434881 ], [ -51.5303415, -29.243515 ], [ -51.530337, -29.2436426 ], [ -51.5303346, -29.2437359 ], [ -51.5303555, -29.2438209 ], [ -51.5306025, -29.2442022 ], [ -51.5309164, -29.2446854 ], [ -51.5309447, -29.244729 ], [ -51.5315246, -29.2456215 ], [ -51.5318812, -29.246170299999989 ] ] ] } },
{ "type": "Feature", "properties": { "name": "Brasília", "code_muni": 4308607.0, "name_muni": "Garibaldi" }, "geometry": { "type": "Polygon", "coordinates": [ [ [ -51.5245058, -29.240466399999988 ], [ -51.5245502, -29.2401494 ], [ -51.5245596, -29.2401003 ], [ -51.5246053, -29.2399679 ], [ -51.5226142, -29.2399733 ], [ -51.5226959, -29.2400208 ], [ -51.5229534, -29.2401753 ], [ -51.523227, -29.2403906 ], [ -51.5234147, -29.2405966 ], [ -51.5235435, -29.2408119 ], [ -51.5236347, -29.2410366 ], [ -51.5236615, -29.2413221 ], [ -51.5236239, -29.2416077 ], [ -51.5235328, -29.2418136 ], [ -51.5234308, -29.2420055 ], [ -51.523227, -29.2422255 ], [ -51.5229963, -29.2424315 ], [ -51.5227603, -29.242553199999989 ], [ -51.5224813, -29.2426608 ], [ -51.52214870000001, -29.2426889 ], [ -51.5216069, -29.2426608 ], [ -51.521328, -29.2426702 ], [ -51.5210758, -29.2427217 ], [ -51.520813, -29.2428106 ], [ -51.5205609, -29.2429417 ], [ -51.5203624, -29.2431055 ], [ -51.5202175, -29.2432787 ], [ -51.5200781, -29.2434846 ], [ -51.5199922, -29.2437514 ], [ -51.5199708, -29.2439995 ], [ -51.5199976, -29.2442757 ], [ -51.5201049, -29.2445331 ], [ -51.5202283, -29.2447765 ], [ -51.5204321, -29.2450199 ], [ -51.5206842, -29.245338199999988 ], [ -51.520813, -29.2455488 ], [ -51.5208559, -29.2457407 ], [ -51.5208666, -29.245993500000012 ], [ -51.5208237, -29.2462696 ], [ -51.5245566, -29.2462203 ], [ -51.5258401, -29.2461684 ], [ -51.5283465, -29.246067 ], [ -51.5292262, -29.246043600000014 ], [ -51.5297838, -29.2460652 ], [ -51.530187, -29.246080599999988 ], [ -51.5305823, -29.245878499999989 ], [ -51.5308154, -29.2459373 ], [ -51.5310066, -29.2459962 ], [ -51.5313019, -29.2457347 ], [ -51.5315246, -29.2456215 ], [ -51.5309447, -29.244729 ], [ -51.5309164, -29.2446854 ], [ -51.5306025, -29.2442022 ], [ -51.5303555, -29.2438209 ], [ -51.5303346, -29.2437359 ], [ -51.530337, -29.2436426 ], [ -51.5303415, -29.243515 ], [ -51.5303424, -29.2434881 ], [ -51.530447, -29.242945199999987 ], [ -51.5305114, -29.2428094 ], [ -51.5306769, -29.2425339 ], [ -51.5306998, -29.2424636 ], [ -51.5307579, -29.2422856 ], [ -51.5307681, -29.2420997 ], [ -51.5307436, -29.241976 ], [ -51.5307273, -29.2418937 ], [ -51.5306983, -29.2417475 ], [ -51.5306348, -29.2416239 ], [ -51.5305449, -29.2415121 ], [ -51.5304097, -29.2414407 ], [ -51.5301685, -29.2413351 ], [ -51.5297696, -29.241160499999989 ], [ -51.5294248, -29.2410095 ], [ -51.5292247, -29.2408981 ], [ -51.5289624, -29.2407324 ], [ -51.5286446, -29.2404487 ], [ -51.5284737, -29.2402561 ], [ -51.5284215, -29.2401911 ], [ -51.5279102, -29.239554 ], [ -51.5279288, -29.2396794 ], [ -51.5279844, -29.2399352 ], [ -51.5280688, -29.2403293 ], [ -51.5281013, -29.2404543 ], [ -51.5245058, -29.240466399999988 ] ] ] } },
{ "type": "Feature", "properties": { "name": "Glória", "code_muni": 4308607.0, "name_muni": "Garibaldi" }, "geometry": { "type": "Polygon", "coordinates": [ [ [ -51.5353133, -29.2459221 ], [ -51.5351102, -29.2459577 ], [ -51.5336985, -29.2462367 ], [ -51.5334712, -29.24632 ], [ -51.5333727, -29.246374599999989 ], [ -51.5332062, -29.246444600000011 ], [ -51.5330574, -29.2464754 ], [ -51.5328689, -29.2464928 ], [ -51.5327636, -29.2465096 ], [ -51.5324422, -29.2464941 ], [ -51.532286, -29.2464419 ], [ -51.5320643, -29.2463396 ], [ -51.5319793, -29.246272300000015 ], [ -51.5318812, -29.246170299999989 ], [ -51.5315246, -29.2456215 ], [ -51.5313019, -29.2457347 ], [ -51.5310066, -29.2459962 ], [ -51.5311568, -29.246074 ], [ -51.5314554, -29.246313700000012 ], [ -51.5320855, -29.247098699999984 ], [ -51.5321393, -29.2471784 ], [ -51.5322019, -29.2472712 ], [ -51.5329652, -29.2484026 ], [ -51.5329839, -29.2485383 ], [ -51.5329658, -29.248611799999985 ], [ -51.5329383, -29.2487232 ], [ -51.5328686, -29.2488566 ], [ -51.5326529, -29.2491962 ], [ -51.5325871, -29.2493036 ], [ -51.5325628, -29.2493761 ], [ -51.5335706, -29.2493993 ], [ -51.5343496, -29.2494119 ], [ -51.5360552, -29.249453299999988 ], [ -51.5368016, -29.2492775 ], [ -51.5370262, -29.247316699999988 ], [ -51.5367669, -29.2458978 ], [ -51.5353133, -29.2459221 ] ] ] } },
{ "type": "Feature", "properties": { "name": "São José", "code_muni": 4308607.0, "name_muni": "Garibaldi" }, "geometry": { "type": "Polygon", "coordinates": [ [ [ -51.5325871, -29.2493036 ], [ -51.5326529, -29.2491962 ], [ -51.5328686, -29.2488566 ], [ -51.5329383, -29.2487232 ], [ -51.5329658, -29.248611799999985 ], [ -51.5329839, -29.2485383 ], [ -51.5329652, -29.2484026 ], [ -51.5322019, -29.2472712 ], [ -51.5321393, -29.2471784 ], [ -51.5320855, -29.247098699999984 ], [ -51.5314554, -29.246313700000012 ], [ -51.5311568, -29.246074 ], [ -51.5310066, -29.2459962 ], [ -51.5308154, -29.2459373 ], [ -51.5305823, -29.245878499999989 ], [ -51.530187, -29.246080599999988 ], [ -51.5297838, -29.2460652 ], [ -51.5292262, -29.246043600000014 ], [ -51.5283465, -29.246067 ], [ -51.5258401, -29.2461684 ], [ -51.5245566, -29.2462203 ], [ -51.5208237, -29.2462696 ], [ -51.5207164, -29.2465271 ], [ -51.520577, -29.2467564 ], [ -51.5203785, -29.2469202 ], [ -51.5201532, -29.24707 ], [ -51.5198849, -29.2471917 ], [ -51.5195577, -29.2472947 ], [ -51.519209, -29.2474445 ], [ -51.5189623, -29.247627 ], [ -51.5187531, -29.2478517 ], [ -51.518576, -29.2481419 ], [ -51.5184205, -29.2484742 ], [ -51.518385, -29.2485944 ], [ -51.5183293, -29.2487831 ], [ -51.5183132, -29.2489844 ], [ -51.5183507, -29.2492277 ], [ -51.5185009, -29.2498549 ], [ -51.518517, -29.2500889 ], [ -51.5184956, -29.2504306 ], [ -51.518399, -29.2510157 ], [ -51.5184007, -29.2513022 ], [ -51.5184787, -29.2515311 ], [ -51.5185986, -29.2517532 ], [ -51.5187314, -29.2519289 ], [ -51.5189242, -29.2520836 ], [ -51.5192477, -29.2522657 ], [ -51.5195591, -29.2524157 ], [ -51.5198732, -29.2525372 ], [ -51.5202192, -29.2525985 ], [ -51.5205116, -29.2526027 ], [ -51.5208666, -29.2524993 ], [ -51.52121, -29.2523262 ], [ -51.5216606, -29.2520781 ], [ -51.5220897, -29.2518347 ], [ -51.5224384, -29.2517037 ], [ -51.5228139, -29.2516522 ], [ -51.5231411, -29.2516662 ], [ -51.5234845, -29.2517552 ], [ -51.5237742, -29.2518722 ], [ -51.5240424, -29.25205 ], [ -51.5242677, -29.2523028 ], [ -51.5243911, -29.2525321 ], [ -51.5244876, -29.2528082 ], [ -51.5245047, -29.2529699 ], [ -51.5247879, -29.2529461 ], [ -51.5248985, -29.2529443 ], [ -51.5266393, -29.2529285 ], [ -51.5272294, -29.2529098 ], [ -51.5286201, -29.252845499999985 ], [ -51.5302536, -29.2527916 ], [ -51.5302733, -29.2523587 ], [ -51.5303207, -29.2522124 ], [ -51.5308227, -29.2516162 ], [ -51.5325628, -29.2493761 ], [ -51.5325871, -29.2493036 ] ] ] } },
{ "type": "Feature", "properties": { "name": "Sebben", "code_muni": 4308607.0, "name_muni": "Garibaldi" }, "geometry": { "type": "Polygon", "coordinates": [ [ [ -51.5177415, -29.2424257 ], [ -51.517871, -29.2422878 ], [ -51.5180639, -29.2420557 ], [ -51.5181287, -29.241965600000015 ], [ -51.51818440000001, -29.2418728 ], [ -51.518328, -29.2415425 ], [ -51.5183928, -29.2413288 ], [ -51.5184269, -29.2411669 ], [ -51.5184554, -29.240911 ], [ -51.5184511, -29.2406754 ], [ -51.5184186, -29.2404528 ], [ -51.5182298, -29.2397488 ], [ -51.518127, -29.2393249 ], [ -51.5176027, -29.237236 ], [ -51.5175408, -29.2371115 ], [ -51.5174029, -29.2371864 ], [ -51.5171974, -29.2372948 ], [ -51.5169609, -29.2373956 ], [ -51.5167549, -29.237446 ], [ -51.5165539, -29.2374727 ], [ -51.5156733, -29.2374741 ], [ -51.51552010000001, -29.2374856 ], [ -51.5153961, -29.2375036 ], [ -51.5152603, -29.237544 ], [ -51.5151036, -29.2376031 ], [ -51.5149475, -29.2376815 ], [ -51.5148117, -29.2377657 ], [ -51.514631, -29.2379339 ], [ -51.5144901, -29.2380736 ], [ -51.5144016, -29.2382116 ], [ -51.5143219, -29.2383816 ], [ -51.5142425, -29.2385312 ], [ -51.5142131, -29.2388171 ], [ -51.5141933, -29.2392766 ], [ -51.5141528, -29.239456 ], [ -51.5140781, -29.2396425 ], [ -51.5139707, -29.2398021 ], [ -51.5138256, -29.2399802 ], [ -51.5136519, -29.2401224 ], [ -51.5134855, -29.2402355 ], [ -51.5133226, -29.2403126 ], [ -51.5131761, -29.2403634 ], [ -51.5130168, -29.240402199999988 ], [ -51.5128492, -29.2404137 ], [ -51.5124515, -29.2404176 ], [ -51.5123206, -29.2403989 ], [ -51.5121601, -29.24036 ], [ -51.5119946, -29.2403107 ], [ -51.5118041, -29.240221 ], [ -51.5116415, -29.2401155 ], [ -51.511433, -29.239925 ], [ -51.5111195, -29.2394718 ], [ -51.5108699, -29.2391298 ], [ -51.5107617, -29.2389911 ], [ -51.5105028, -29.2387846 ], [ -51.5105364, -29.250802 ], [ -51.5138338, -29.250806 ], [ -51.5140551, -29.2501601 ], [ -51.514404, -29.2491037 ], [ -51.5145044, -29.2487971 ], [ -51.5145379, -29.248698 ], [ -51.518385, -29.2485944 ], [ -51.5184205, -29.2484742 ], [ -51.518576, -29.2481419 ], [ -51.5187531, -29.2478517 ], [ -51.5189623, -29.247627 ], [ -51.519209, -29.2474445 ], [ -51.5195577, -29.2472947 ], [ -51.5198849, -29.2471917 ], [ -51.5201532, -29.24707 ], [ -51.5203785, -29.2469202 ], [ -51.520577, -29.2467564 ], [ -51.5207164, -29.2465271 ], [ -51.5208237, -29.2462696 ], [ -51.5208666, -29.245993500000012 ], [ -51.5208559, -29.2457407 ], [ -51.520813, -29.2455488 ], [ -51.5206842, -29.245338199999988 ], [ -51.5204321, -29.2450199 ], [ -51.5202283, -29.2447765 ], [ -51.5201049, -29.2445331 ], [ -51.5199976, -29.2442757 ], [ -51.5199708, -29.2439995 ], [ -51.5199922, -29.2437514 ], [ -51.5200781, -29.2434846 ], [ -51.5202175, -29.2432787 ], [ -51.5175506, -29.2432913 ], [ -51.517248, -29.2429377 ], [ -51.5177415, -29.2424257 ] ] ] } },
{ "type": "Feature", "properties": { "name": "Ferroviário", "code_muni": 4308607.0, "name_muni": "Garibaldi" }, "geometry": { "type": "Polygon", "coordinates": [ [ [ -51.5120449, -29.2534297 ], [ -51.5159225, -29.2534434 ], [ -51.5159936, -29.2537944 ], [ -51.5159816, -29.2546368 ], [ -51.5160473, -29.2556283 ], [ -51.5160561, -29.2558869 ], [ -51.5163495, -29.2559147 ], [ -51.5189021, -29.2565299 ], [ -51.5193859, -29.256602199999989 ], [ -51.5196078, -29.2566113 ], [ -51.5198555, -29.2565913 ], [ -51.5200664, -29.2565573 ], [ -51.5203365, -29.2564666 ], [ -51.5203511, -29.2564597 ], [ -51.5204957, -29.2563895 ], [ -51.5208679, -29.2561601 ], [ -51.5211838, -29.2559655 ], [ -51.5219706, -29.2554764 ], [ -51.5222653, -29.2552932 ], [ -51.5227425, -29.25500670000001 ], [ -51.5230445, -29.2547973 ], [ -51.5233652, -29.2545522 ], [ -51.5235931, -29.2544182 ], [ -51.5238251, -29.254272 ], [ -51.5240464, -29.2540929 ], [ -51.5242569, -29.2538707 ], [ -51.5244072, -29.2536226 ], [ -51.5244823, -29.2533792 ], [ -51.5245198, -29.2531125 ], [ -51.5245047, -29.2529699 ], [ -51.5244876, -29.2528082 ], [ -51.5243911, -29.2525321 ], [ -51.5242677, -29.2523028 ], [ -51.5240424, -29.25205 ], [ -51.5237742, -29.2518722 ], [ -51.5234845, -29.2517552 ], [ -51.5231411, -29.2516662 ], [ -51.5228139, -29.2516522 ], [ -51.5224384, -29.2517037 ], [ -51.5220897, -29.2518347 ], [ -51.5216606, -29.2520781 ], [ -51.52121, -29.2523262 ], [ -51.5208666, -29.2524993 ], [ -51.5205116, -29.2526027 ], [ -51.5202192, -29.2525985 ], [ -51.5198732, -29.2525372 ], [ -51.5195591, -29.2524157 ], [ -51.5192477, -29.2522657 ], [ -51.5189242, -29.2520836 ], [ -51.5187314, -29.2519289 ], [ -51.5185986, -29.2517532 ], [ -51.5184787, -29.2515311 ], [ -51.5184007, -29.2513022 ], [ -51.518399, -29.2510157 ], [ -51.5184956, -29.2504306 ], [ -51.518517, -29.2500889 ], [ -51.5185009, -29.2498549 ], [ -51.5183507, -29.2492277 ], [ -51.5183132, -29.2489844 ], [ -51.5183293, -29.2487831 ], [ -51.518385, -29.2485944 ], [ -51.5145379, -29.248698 ], [ -51.5145044, -29.2487971 ], [ -51.514404, -29.2491037 ], [ -51.5140551, -29.2501601 ], [ -51.5138338, -29.250806 ], [ -51.5137091, -29.2511395 ], [ -51.5135863, -29.2514472 ], [ -51.5134616, -29.251680099999987 ], [ -51.5132384, -29.2520417 ], [ -51.5129197, -29.2524372 ], [ -51.5125791, -29.2528497 ], [ -51.5122466, -29.2532194 ], [ -51.5120449, -29.2534297 ] ] ] } },
{ "type": "Feature", "properties": { "name": "Cairu", "code_muni": 4308607.0, "name_muni": "Garibaldi" }, "geometry": { "type": "Polygon", "coordinates": [ [ [ -51.5143025, -29.2605723 ], [ -51.5144393, -29.2605653 ], [ -51.5145788, -29.2605326 ], [ -51.5147048, -29.2605045 ], [ -51.5148698, -29.2604647 ], [ -51.5150642, -29.2603805 ], [ -51.5152265, -29.2602553 ], [ -51.515366, -29.2600692 ], [ -51.5154773, -29.2599054 ], [ -51.5155511, -29.259744 ], [ -51.5156195, -29.2595521 ], [ -51.515653, -29.2593672 ], [ -51.5156838, -29.2592643 ], [ -51.5157212, -29.259197199999988 ], [ -51.5157909, -29.2591504 ], [ -51.515866, -29.2591176 ], [ -51.5159465, -29.2591036 ], [ -51.516027, -29.2590942 ], [ -51.5172769, -29.258986600000011 ], [ -51.5173573, -29.2589772 ], [ -51.5174378, -29.2589491 ], [ -51.5175183, -29.2589023 ], [ -51.5175826, -29.2588602 ], [ -51.5177516, -29.2585872 ], [ -51.5178934, -29.2583498 ], [ -51.5182518, -29.2577573 ], [ -51.5182583, -29.2577459 ], [ -51.5182863, -29.2576936 ], [ -51.5183365, -29.2575219 ], [ -51.5184008, -29.2573159 ], [ -51.518492, -29.2571381 ], [ -51.5188314, -29.2566353 ], [ -51.5189021, -29.2565299 ], [ -51.5163495, -29.2559147 ], [ -51.5160561, -29.2558869 ], [ -51.5160473, -29.2556283 ], [ -51.5159816, -29.2546368 ], [ -51.5159936, -29.2537944 ], [ -51.5159225, -29.2534434 ], [ -51.5120449, -29.2534297 ], [ -51.511863, -29.253659800000015 ], [ -51.5116793, -29.2539687 ], [ -51.5116002, -29.2541641 ], [ -51.5115505, -29.2543022 ], [ -51.5115157, -29.2544321 ], [ -51.5114795, -29.2545818 ], [ -51.511458, -29.2547737 ], [ -51.5114366, -29.2550662 ], [ -51.5114433, -29.2554933 ], [ -51.5114325, -29.2557811 ], [ -51.5114003, -29.2560362 ], [ -51.5113655, -29.2562316 ], [ -51.5113065, -29.2564013 ], [ -51.5112233, -29.2565721 ], [ -51.5111442, -29.2567122 ], [ -51.5110487, -29.2568549 ], [ -51.510883, -29.2570592 ], [ -51.5106778, -29.2572548 ], [ -51.5105338, -29.2573778 ], [ -51.5100016, -29.2577602 ], [ -51.5094005, -29.258207 ], [ -51.5092337, -29.2583575 ], [ -51.5090961, -29.2585268 ], [ -51.5089719, -29.2586714 ], [ -51.5088056, -29.2589373 ], [ -51.5085612, -29.2594494 ], [ -51.5083114, -29.2598683 ], [ -51.5080862, -29.260187 ], [ -51.5079031, -29.2604028 ], [ -51.5076798, -29.2606053 ], [ -51.5074878, -29.2607543 ], [ -51.5066153, -29.2614216 ], [ -51.5059297, -29.2619354 ], [ -51.5057637, -29.262112 ], [ -51.50639, -29.2620617 ], [ -51.5068084, -29.2617482 ], [ -51.5073556, -29.2616405 ], [ -51.507951, -29.2616265 ], [ -51.5088308, -29.261692 ], [ -51.5091687, -29.2616593 ], [ -51.5093525, -29.261568 ], [ -51.5094289, -29.2615083 ], [ -51.5097736, -29.2611772 ], [ -51.5101987, -29.2605454 ], [ -51.5103583, -29.2603185 ], [ -51.5105742, -29.2599581 ], [ -51.5107486, -29.2596867 ], [ -51.5108666, -29.2595205 ], [ -51.5111268, -29.2592444 ], [ -51.5113615, -29.2590396 ], [ -51.5116565, -29.2588478 ], [ -51.5118711, -29.2587612 ], [ -51.5120307, -29.2587097 ], [ -51.5121514, -29.258691 ], [ -51.5123324, -29.258691 ], [ -51.5124786, -29.2587039 ], [ -51.5127535, -29.2587132 ], [ -51.5129882, -29.2586992 ], [ -51.5132752, -29.2586313 ], [ -51.5143025, -29.2605723 ] ] ] } },
{ "type": "Feature", "properties": { "name": "Champanhe", "code_muni": 4308607.0, "name_muni": "Garibaldi" }, "geometry": { "type": "Polygon", "coordinates": [ [ [ -51.5182518, -29.2577573 ], [ -51.5178934, -29.2583498 ], [ -51.5177516, -29.2585872 ], [ -51.5175826, -29.2588602 ], [ -51.5175183, -29.2589023 ], [ -51.5174378, -29.2589491 ], [ -51.5173573, -29.2589772 ], [ -51.5172769, -29.258986600000011 ], [ -51.516027, -29.2590942 ], [ -51.5159465, -29.2591036 ], [ -51.515866, -29.2591176 ], [ -51.5157909, -29.2591504 ], [ -51.5157212, -29.259197199999988 ], [ -51.5156838, -29.2592643 ], [ -51.515653, -29.2593672 ], [ -51.5156195, -29.2595521 ], [ -51.5155511, -29.259744 ], [ -51.5154773, -29.2599054 ], [ -51.515366, -29.2600692 ], [ -51.5152265, -29.2602553 ], [ -51.5150642, -29.2603805 ], [ -51.5148698, -29.2604647 ], [ -51.5147048, -29.2605045 ], [ -51.5145788, -29.2605326 ], [ -51.5144393, -29.2605653 ], [ -51.5143025, -29.2605723 ], [ -51.5143189, -29.2607559 ], [ -51.5143875, -29.261014 ], [ -51.5145115, -29.261442899999988 ], [ -51.5166843, -29.261224 ], [ -51.5204438, -29.261288499999985 ], [ -51.5211693, -29.2612897 ], [ -51.521909, -29.2612909 ], [ -51.5220754, -29.2612912 ], [ -51.5222729, -29.2612915 ], [ -51.523202, -29.2612931 ], [ -51.5241316, -29.2612946 ], [ -51.5250638, -29.2612962 ], [ -51.5248543, -29.259352 ], [ -51.5248074, -29.258299 ], [ -51.5247926, -29.2579258 ], [ -51.5247872, -29.2578497 ], [ -51.5247577, -29.2574285 ], [ -51.5220192, -29.2576567 ], [ -51.5182583, -29.2577459 ], [ -51.5182518, -29.2577573 ] ] ] } },
{ "type": "Feature", "properties": { "name": "Centro", "code_muni": 4308607.0, "name_muni": "Garibaldi" }, "geometry": { "type": "Polygon", "coordinates": [ [ [ -51.5267694, -29.2611866 ], [ -51.5268257, -29.2610052 ], [ -51.5269753, -29.2607656 ], [ -51.5271529, -29.2606313 ], [ -51.5277902, -29.2602957 ], [ -51.5282768, -29.260055200000014 ], [ -51.528648, -29.2600353 ], [ -51.5293101, -29.2601067 ], [ -51.5297735, -29.2600394 ], [ -51.5303347, -29.259916 ], [ -51.5304985, -29.2598726 ], [ -51.5306103, -29.2598247 ], [ -51.5304926, -29.2596279 ], [ -51.5305245, -29.2595743 ], [ -51.5314794, -29.2594994 ], [ -51.5323716, -29.2595048 ], [ -51.5324505, -29.259499 ], [ -51.5331815, -29.2595019 ], [ -51.5339241, -29.2595135 ], [ -51.5354715, -29.259554799999986 ], [ -51.5367942, -29.259579 ], [ -51.5367814, -29.2588952 ], [ -51.5367917, -29.2582215 ], [ -51.5367928, -29.256895 ], [ -51.5367903, -29.2556778 ], [ -51.5367881, -29.2556039 ], [ -51.5367901, -29.2552242 ], [ -51.5367888, -29.2550019 ], [ -51.5367966, -29.2548226 ], [ -51.5368004, -29.2547362 ], [ -51.5368049, -29.2545175 ], [ -51.5367995, -29.2543338 ], [ -51.5367989, -29.2540664 ], [ -51.5367981, -29.2538652 ], [ -51.5367937, -29.253768 ], [ -51.5368046, -29.2528659 ], [ -51.5368075, -29.2515412 ], [ -51.5368076, -29.2515002 ], [ -51.5368031, -29.2498512 ], [ -51.5368016, -29.2492775 ], [ -51.5360552, -29.249453299999988 ], [ -51.5343496, -29.2494119 ], [ -51.5335706, -29.2493993 ], [ -51.5325628, -29.2493761 ], [ -51.5308227, -29.2516162 ], [ -51.5303207, -29.2522124 ], [ -51.5302733, -29.2523587 ], [ -51.5302536, -29.2527916 ], [ -51.5286201, -29.252845499999985 ], [ -51.5272294, -29.2529098 ], [ -51.5266393, -29.2529285 ], [ -51.5248985, -29.2529443 ], [ -51.5247879, -29.2529461 ], [ -51.5245047, -29.2529699 ], [ -51.5245198, -29.2531125 ], [ -51.5244823, -29.2533792 ], [ -51.5244072, -29.2536226 ], [ -51.5242569, -29.2538707 ], [ -51.5240464, -29.2540929 ], [ -51.5238251, -29.254272 ], [ -51.5235931, -29.2544182 ], [ -51.5233652, -29.2545522 ], [ -51.5230445, -29.2547973 ], [ -51.5227425, -29.25500670000001 ], [ -51.5222653, -29.2552932 ], [ -51.5219706, -29.2554764 ], [ -51.5211838, -29.2559655 ], [ -51.5208679, -29.2561601 ], [ -51.5204957, -29.2563895 ], [ -51.5203511, -29.2564597 ], [ -51.5203365, -29.2564666 ], [ -51.5200664, -29.2565573 ], [ -51.5198555, -29.2565913 ], [ -51.5196078, -29.2566113 ], [ -51.5193859, -29.256602199999989 ], [ -51.5189021, -29.2565299 ], [ -51.5188314, -29.2566353 ], [ -51.518492, -29.2571381 ], [ -51.5184008, -29.2573159 ], [ -51.5183365, -29.2575219 ], [ -51.5182863, -29.2576936 ], [ -51.5182583, -29.2577459 ], [ -51.5220192, -29.2576567 ], [ -51.5247577, -29.2574285 ], [ -51.5247872, -29.2578497 ], [ -51.5247926, -29.2579258 ], [ -51.5248074, -29.258299 ], [ -51.5248543, -29.259352 ], [ -51.5250638, -29.2612962 ], [ -51.5257731, -29.261297399999986 ], [ -51.5266997, -29.2613083 ], [ -51.5267459, -29.2613135 ], [ -51.5267694, -29.2611866 ] ] ] } },
{ "type": "Feature", "properties": { "name": "Guarani", "code_muni": 4308607.0, "name_muni": "Garibaldi" }, "geometry": { "type": "Polygon", "coordinates": [ [ [ -51.5367133, -29.2449152 ], [ -51.5367669, -29.2458978 ], [ -51.5382205, -29.245899 ], [ -51.5398483, -29.2458963 ], [ -51.539914, -29.2453239 ], [ -51.5399445, -29.2450581 ], [ -51.5400382, -29.2443911 ], [ -51.5404896, -29.2434415 ], [ -51.5407792, -29.242942 ], [ -51.5410877, -29.2425076 ], [ -51.5413321, -29.2422045 ], [ -51.5373802, -29.2340862 ], [ -51.5358889, -29.2327755 ], [ -51.5358111, -29.240576 ], [ -51.5358101, -29.2407732 ], [ -51.5358098, -29.2408294 ], [ -51.5358058, -29.2415997 ], [ -51.5356638, -29.2434435 ], [ -51.5356511, -29.244114 ], [ -51.5357264, -29.2449226 ], [ -51.5367133, -29.2449152 ] ] ] } },
{ "type": "Feature", "properties": { "name": "Simonaggio", "code_muni": 4308607.0, "name_muni": "Garibaldi" }, "geometry": { "type": "Polygon", "coordinates": [ [ [ -51.5410877, -29.2425076 ], [ -51.5407792, -29.242942 ], [ -51.5404896, -29.2434415 ], [ -51.5400382, -29.2443911 ], [ -51.5399445, -29.2450581 ], [ -51.539914, -29.2453239 ], [ -51.5398483, -29.2458963 ], [ -51.5382205, -29.245899 ], [ -51.5367669, -29.2458978 ], [ -51.5370262, -29.247316699999988 ], [ -51.5368016, -29.2492775 ], [ -51.5368031, -29.2498512 ], [ -51.5368786, -29.2498465 ], [ -51.5375385, -29.2498512 ], [ -51.5375277, -29.249914399999987 ], [ -51.5381956, -29.2499331 ], [ -51.5383997, -29.2498349 ], [ -51.5397573, -29.2498437 ], [ -51.5411794, -29.2498576 ], [ -51.542404, -29.2498792 ], [ -51.5458346, -29.2497763 ], [ -51.5458292, -29.2470008 ], [ -51.5438551, -29.2470148 ], [ -51.5438873, -29.2463923 ], [ -51.5436673, -29.2447213 ], [ -51.5434367, -29.24398170000001 ], [ -51.5426695, -29.2430175 ], [ -51.5413321, -29.2422045 ], [ -51.5410877, -29.2425076 ] ] ] } },
{ "type": "Feature", "properties": { "name": "Juventude", "code_muni": 4308607.0, "name_muni": "Garibaldi" }, "geometry": { "type": "Polygon", "coordinates": [ [ [ -51.5368076, -29.2515002 ], [ -51.5368075, -29.2515412 ], [ -51.5368046, -29.2528659 ], [ -51.5383016, -29.2528583 ], [ -51.5390727, -29.252863 ], [ -51.5396521, -29.2528642 ], [ -51.5398076, -29.25287 ], [ -51.5411393, -29.2528911 ], [ -51.5426306, -29.2529168 ], [ -51.544877, -29.2529449 ], [ -51.5450708, -29.252941400000012 ], [ -51.545856, -29.2529121 ], [ -51.5458346, -29.2497763 ], [ -51.542404, -29.2498792 ], [ -51.5411794, -29.2498576 ], [ -51.5397573, -29.2498437 ], [ -51.5383997, -29.2498349 ], [ -51.5381956, -29.2499331 ], [ -51.5375277, -29.249914399999987 ], [ -51.5375385, -29.2498512 ], [ -51.5368786, -29.2498465 ], [ -51.5368031, -29.2498512 ], [ -51.5368076, -29.2515002 ] ] ] } },
{ "type": "Feature", "properties": { "name": "Chácaras", "code_muni": 4308607.0, "name_muni": "Garibaldi" }, "geometry": { "type": "Polygon", "coordinates": [ [ [ -51.545856, -29.2529121 ], [ -51.5450708, -29.252941400000012 ], [ -51.544877, -29.2529449 ], [ -51.5426306, -29.2529168 ], [ -51.5411393, -29.2528911 ], [ -51.5398076, -29.25287 ], [ -51.5396521, -29.2528642 ], [ -51.5390727, -29.252863 ], [ -51.5383016, -29.2528583 ], [ -51.5368046, -29.2528659 ], [ -51.5367937, -29.253768 ], [ -51.5367981, -29.2538652 ], [ -51.5367989, -29.2540664 ], [ -51.5367995, -29.2543338 ], [ -51.5368049, -29.2545175 ], [ -51.5368004, -29.2547362 ], [ -51.5367966, -29.2548226 ], [ -51.5367888, -29.2550019 ], [ -51.5367901, -29.2552242 ], [ -51.5367881, -29.2556039 ], [ -51.5367903, -29.2556778 ], [ -51.5367928, -29.256895 ], [ -51.5367917, -29.2582215 ], [ -51.5367814, -29.2588952 ], [ -51.5367942, -29.259579 ], [ -51.5375331, -29.259579 ], [ -51.5382861, -29.2595743 ], [ -51.5389426, -29.2595767 ], [ -51.539589, -29.2595919 ], [ -51.5403762, -29.2595931 ], [ -51.5410455, -29.25961 ], [ -51.54109, -29.259596 ], [ -51.5425629, -29.259595599999987 ], [ -51.544997, -29.2596586 ], [ -51.5458989, -29.2596141 ], [ -51.545856, -29.2529121 ] ] ] } },
{ "type": "Feature", "properties": { "name": "Vale dos Pinheiros", "code_muni": 4308607.0, "name_muni": "Garibaldi" }, "geometry": { "type": "Polygon", "coordinates": [ [ [ -51.5383995, -29.2682811 ], [ -51.5459257, -29.2682577 ], [ -51.5458989, -29.2596141 ], [ -51.544997, -29.2596586 ], [ -51.5425629, -29.259595599999987 ], [ -51.54109, -29.259596 ], [ -51.5410455, -29.25961 ], [ -51.5403762, -29.2595931 ], [ -51.539589, -29.2595919 ], [ -51.5389426, -29.2595767 ], [ -51.5382861, -29.2595743 ], [ -51.5375331, -29.259579 ], [ -51.5367942, -29.259579 ], [ -51.5368414, -29.2606958 ], [ -51.5368653, -29.2607419 ], [ -51.5369272, -29.2607753 ], [ -51.5370476, -29.260784 ], [ -51.5370935, -29.2608034 ], [ -51.5371281, -29.2608495 ], [ -51.5371442, -29.2609057 ], [ -51.537147, -29.261112 ], [ -51.5371509, -29.2618839 ], [ -51.5371536, -29.2627087 ], [ -51.5363073, -29.2680284 ], [ -51.5370047, -29.2687397 ], [ -51.5383995, -29.2682811 ] ] ] } },
{ "type": "Feature", "properties": { "name": "Peterlongo", "code_muni": 4308607.0, "name_muni": "Garibaldi" }, "geometry": { "type": "Polygon", "coordinates": [ [ [ -51.530723, -29.2632738 ], [ -51.5308195, -29.2673732 ], [ -51.5332228, -29.2673639 ], [ -51.5336144, -29.267991 ], [ -51.5342796, -29.2687771 ], [ -51.5370047, -29.2687397 ], [ -51.5363073, -29.2680284 ], [ -51.5371536, -29.2627087 ], [ -51.5371509, -29.2618839 ], [ -51.537147, -29.261112 ], [ -51.5371442, -29.2609057 ], [ -51.5371281, -29.2608495 ], [ -51.5370935, -29.2608034 ], [ -51.5370476, -29.260784 ], [ -51.5369272, -29.2607753 ], [ -51.5368653, -29.2607419 ], [ -51.5368414, -29.2606958 ], [ -51.5367942, -29.259579 ], [ -51.5354715, -29.259554799999986 ], [ -51.5339241, -29.2595135 ], [ -51.5331815, -29.2595019 ], [ -51.5324505, -29.259499 ], [ -51.5323716, -29.2595048 ], [ -51.5314794, -29.2594994 ], [ -51.5305245, -29.2595743 ], [ -51.5304926, -29.2596279 ], [ -51.5306103, -29.2598247 ], [ -51.5304985, -29.2598726 ], [ -51.5303347, -29.259916 ], [ -51.5297735, -29.2600394 ], [ -51.5293101, -29.2601067 ], [ -51.528648, -29.2600353 ], [ -51.5286439, -29.2600634 ], [ -51.5286309, -29.2600944 ], [ -51.5286188, -29.2603442 ], [ -51.5286469, -29.2605911 ], [ -51.528722, -29.2608251 ], [ -51.528765, -29.261024 ], [ -51.5287636, -29.2612182 ], [ -51.5287207, -29.2613562 ], [ -51.5286423, -29.2614545 ], [ -51.5285484, -29.2615341 ], [ -51.5284773, -29.2616025 ], [ -51.5282708, -29.2617406 ], [ -51.5281662, -29.2618424 ], [ -51.5281085, -29.2619114 ], [ -51.5280495, -29.261998 ], [ -51.5279911, -29.2621161 ], [ -51.5279043, -29.2623618 ], [ -51.5278637, -29.2625356 ], [ -51.5278506, -29.2626847 ], [ -51.5278604, -29.263289 ], [ -51.5305835, -29.2632971 ], [ -51.530723, -29.2632738 ] ] ] } },
{ "type": "Feature", "properties": { "name": "Alfândega", "code_muni": 4308607.0, "name_muni": "Garibaldi" }, "geometry": { "type": "Polygon", "coordinates": [ [ [ -51.5214667, -29.2728354 ], [ -51.5219302, -29.2735184 ], [ -51.522492, -29.2741128 ], [ -51.5225791, -29.274204 ], [ -51.5230269, -29.274596 ], [ -51.5233381, -29.274826 ], [ -51.5235234, -29.2749484 ], [ -51.5230485, -29.2750898 ], [ -51.5229275, -29.2751408 ], [ -51.5224947, -29.2753012 ], [ -51.521908342613919, -29.275518794948972 ], [ -51.535402663377155, -29.275115775330729 ], [ -51.5353927, -29.2734917 ], [ -51.5337351, -29.272619 ], [ -51.5316859, -29.272029400000012 ], [ -51.5336144, -29.267991 ], [ -51.5332228, -29.2673639 ], [ -51.5308195, -29.2673732 ], [ -51.530723, -29.2632738 ], [ -51.5305835, -29.2632971 ], [ -51.5278604, -29.263289 ], [ -51.5278506, -29.2626847 ], [ -51.5278637, -29.2625356 ], [ -51.5279043, -29.2623618 ], [ -51.5279911, -29.2621161 ], [ -51.5280495, -29.261998 ], [ -51.5281085, -29.2619114 ], [ -51.5281662, -29.2618424 ], [ -51.5282708, -29.2617406 ], [ -51.5284773, -29.2616025 ], [ -51.5285484, -29.2615341 ], [ -51.5286423, -29.2614545 ], [ -51.5287207, -29.2613562 ], [ -51.5287636, -29.2612182 ], [ -51.528765, -29.261024 ], [ -51.528722, -29.2608251 ], [ -51.5286469, -29.2605911 ], [ -51.5286188, -29.2603442 ], [ -51.5286309, -29.2600944 ], [ -51.5286439, -29.2600634 ], [ -51.528648, -29.2600353 ], [ -51.5282768, -29.260055200000014 ], [ -51.5277902, -29.2602957 ], [ -51.5271529, -29.2606313 ], [ -51.5269753, -29.2607656 ], [ -51.5268257, -29.2610052 ], [ -51.5267694, -29.2611866 ], [ -51.5267459, -29.2613135 ], [ -51.5266702, -29.2618593 ], [ -51.5266018, -29.2623893 ], [ -51.5266232, -29.2626783 ], [ -51.5267493, -29.2634271 ], [ -51.5270323, -29.2650123 ], [ -51.5270752, -29.265211200000014 ], [ -51.5272428, -29.26574 ], [ -51.5276626, -29.2668012 ], [ -51.5277337, -29.2670036 ], [ -51.527735, -29.267216499999989 ], [ -51.527212, -29.2682928 ], [ -51.5269598, -29.2688122 ], [ -51.5268306, -29.2694188 ], [ -51.5264503, -29.2711629 ], [ -51.5263955, -29.2711574 ], [ -51.5245523, -29.2711648 ], [ -51.5226799, -29.2711672 ], [ -51.5212346, -29.2711615 ], [ -51.520712, -29.2711634 ], [ -51.5205821, -29.2714616 ], [ -51.5214667, -29.2728354 ] ] ] } },
{ "type": "Feature", "properties": { "name": "São Francisco", "code_muni": 4308607.0, "name_muni": "Garibaldi" }, "geometry": { "type": "Polygon", "coordinates": [ [ [ -51.5269598, -29.2688122 ], [ -51.527212, -29.2682928 ], [ -51.527735, -29.267216499999989 ], [ -51.5277337, -29.2670036 ], [ -51.5276626, -29.2668012 ], [ -51.5272428, -29.26574 ], [ -51.5270752, -29.265211200000014 ], [ -51.5270323, -29.2650123 ], [ -51.5267493, -29.2634271 ], [ -51.5266232, -29.2626783 ], [ -51.5266018, -29.2623893 ], [ -51.5266702, -29.2618593 ], [ -51.5267459, -29.2613135 ], [ -51.5266997, -29.2613083 ], [ -51.5257731, -29.261297399999986 ], [ -51.5250638, -29.2612962 ], [ -51.5241316, -29.2612946 ], [ -51.523202, -29.2612931 ], [ -51.5222729, -29.2612915 ], [ -51.5220754, -29.2612912 ], [ -51.521909, -29.2612909 ], [ -51.5211693, -29.2612897 ], [ -51.5204438, -29.261288499999985 ], [ -51.5166843, -29.261224 ], [ -51.5145115, -29.261442899999988 ], [ -51.5148379, -29.2626262 ], [ -51.5149894, -29.2631754 ], [ -51.5150746, -29.2635769 ], [ -51.5152261, -29.264181 ], [ -51.5152462, -29.2644227 ], [ -51.5152591, -29.2650521 ], [ -51.5152708, -29.265129299999987 ], [ -51.5152198, -29.2673568 ], [ -51.51521850000001, -29.2674622 ], [ -51.515233, -29.2686377 ], [ -51.5152257, -29.2688266 ], [ -51.5152735, -29.2691316 ], [ -51.5167992, -29.269211800000011 ], [ -51.5171296, -29.2692447 ], [ -51.5175671, -29.269317 ], [ -51.51799170000001, -29.2694251 ], [ -51.5189789, -29.2695083 ], [ -51.5193088, -29.2694685 ], [ -51.5204567, -29.2694299 ], [ -51.5212021, -29.2694369 ], [ -51.5219468, -29.269427 ], [ -51.5227018, -29.2694187 ], [ -51.52342860000001, -29.2694208 ], [ -51.5245544, -29.269422699999989 ], [ -51.5249242, -29.2694192 ], [ -51.5258219, -29.2694151 ], [ -51.5267801, -29.2694122 ], [ -51.5268306, -29.2694188 ], [ -51.5269598, -29.2688122 ] ] ] } },
{ "type": "Feature", "properties": { "name": "Bela Vista", "code_muni": 4308607.0, "name_muni": "Garibaldi" }, "geometry": { "type": "Polygon", "coordinates": [ [ [ -51.5152795, -29.2697833 ], [ -51.5152837, -29.2702488 ], [ -51.5152878, -29.2706936 ], [ -51.5152919, -29.2711354 ], [ -51.5152936, -29.2713199 ], [ -51.5152868, -29.2714804 ], [ -51.5205821, -29.2714616 ], [ -51.520712, -29.2711634 ], [ -51.5212346, -29.2711615 ], [ -51.5226799, -29.2711672 ], [ -51.5245523, -29.2711648 ], [ -51.5263955, -29.2711574 ], [ -51.5264503, -29.2711629 ], [ -51.5268306, -29.2694188 ], [ -51.5267801, -29.2694122 ], [ -51.5258219, -29.2694151 ], [ -51.5249242, -29.2694192 ], [ -51.5245544, -29.269422699999989 ], [ -51.52342860000001, -29.2694208 ], [ -51.5227018, -29.2694187 ], [ -51.5219468, -29.269427 ], [ -51.5212021, -29.2694369 ], [ -51.5204567, -29.2694299 ], [ -51.5193088, -29.2694685 ], [ -51.5189789, -29.2695083 ], [ -51.51799170000001, -29.2694251 ], [ -51.5175671, -29.269317 ], [ -51.5171296, -29.2692447 ], [ -51.5167992, -29.269211800000011 ], [ -51.5152735, -29.2691316 ], [ -51.5152795, -29.2697833 ] ] ] } },
{ "type": "Feature", "properties": { "name": "Três Lagoas", "code_muni": 4308607.0, "name_muni": "Garibaldi" }, "geometry": { "type": "Polygon", "coordinates": [ [ [ -51.5006845, -29.2651636 ], [ -51.5005699, -29.2653705 ], [ -51.5003482, -29.265823 ], [ -51.5001337, -29.2663272 ], [ -51.4995311, -29.2677435 ], [ -51.4992982, -29.2683425 ], [ -51.4992719, -29.268411 ], [ -51.4992157, -29.2685677 ], [ -51.499295600000011, -29.2685662 ], [ -51.4993934, -29.268520400000011 ], [ -51.4994343, -29.2684443 ], [ -51.4994967, -29.2683127 ], [ -51.4995919, -29.2680822 ], [ -51.4996449, -29.2679693 ], [ -51.4997446, -29.2678925 ], [ -51.4998801, -29.2678664 ], [ -51.500205, -29.267861 ], [ -51.500585, -29.267845 ], [ -51.50211, -29.267853 ], [ -51.502362, -29.2678157 ], [ -51.5024172, -29.267808899999988 ], [ -51.5025096, -29.2673723 ], [ -51.5025471, -29.2672039 ], [ -51.5026169, -29.267012 ], [ -51.502692, -29.2668716 ], [ -51.5028154, -29.2667078 ], [ -51.502987, -29.2665393 ], [ -51.5031909, -29.266399 ], [ -51.5035235, -29.2662586 ], [ -51.5040599, -29.2660995 ], [ -51.5059528, -29.2656558 ], [ -51.506221, -29.2655669 ], [ -51.5064704, -29.2654569 ], [ -51.506677, -29.2653235 ], [ -51.5069774, -29.265108299999987 ], [ -51.5072402, -29.2649047 ], [ -51.5074119, -29.264783 ], [ -51.5074816, -29.2649519 ], [ -51.5082651, -29.2662641 ], [ -51.5085684, -29.2667284 ], [ -51.5087797, -29.2670478 ], [ -51.5088088, -29.2670919 ], [ -51.5091275, -29.267412199999985 ], [ -51.5094227, -29.2676994 ], [ -51.5097744, -29.2679786 ], [ -51.5101211, -29.2682005 ], [ -51.5104995, -29.2684075 ], [ -51.5107991, -29.268548899999988 ], [ -51.5110709, -29.2686499 ], [ -51.5111989, -29.268697400000011 ], [ -51.5116129, -29.2688148 ], [ -51.5121862, -29.2689128 ], [ -51.5125519, -29.2689556 ], [ -51.5134137, -29.269009 ], [ -51.5152735, -29.2691316 ], [ -51.5152257, -29.2688266 ], [ -51.515233, -29.2686377 ], [ -51.51521850000001, -29.2674622 ], [ -51.5152198, -29.2673568 ], [ -51.5152708, -29.265129299999987 ], [ -51.5152591, -29.2650521 ], [ -51.5152462, -29.2644227 ], [ -51.5152261, -29.264181 ], [ -51.5150746, -29.2635769 ], [ -51.5149894, -29.2631754 ], [ -51.5148379, -29.2626262 ], [ -51.5145115, -29.261442899999988 ], [ -51.5143875, -29.261014 ], [ -51.5143189, -29.2607559 ], [ -51.5143025, -29.2605723 ], [ -51.5132752, -29.2586313 ], [ -51.5129882, -29.2586992 ], [ -51.5127535, -29.2587132 ], [ -51.5124786, -29.2587039 ], [ -51.5123324, -29.258691 ], [ -51.5121514, -29.258691 ], [ -51.5120307, -29.2587097 ], [ -51.5118711, -29.2587612 ], [ -51.5116565, -29.2588478 ], [ -51.5113615, -29.2590396 ], [ -51.5111268, -29.2592444 ], [ -51.5108666, -29.2595205 ], [ -51.5107486, -29.2596867 ], [ -51.5105742, -29.2599581 ], [ -51.5103583, -29.2603185 ], [ -51.5101987, -29.2605454 ], [ -51.5097736, -29.2611772 ], [ -51.5094289, -29.2615083 ], [ -51.5093525, -29.261568 ], [ -51.5091687, -29.2616593 ], [ -51.5088308, -29.261692 ], [ -51.507951, -29.2616265 ], [ -51.5073556, -29.2616405 ], [ -51.5068084, -29.2617482 ], [ -51.50639, -29.2620617 ], [ -51.5057637, -29.262112 ], [ -51.505597, -29.2621909 ], [ -51.5053205, -29.2624005 ], [ -51.5044506, -29.2630639 ], [ -51.503975, -29.2633464 ], [ -51.5036304, -29.263525099999985 ], [ -51.5031995, -29.2637055 ], [ -51.5019, -29.2641583 ], [ -51.501499, -29.2643537 ], [ -51.5012576, -29.2645245 ], [ -51.5009679, -29.2647912 ], [ -51.5008162, -29.2649776 ], [ -51.5006845, -29.2651636 ] ] ] } },
{ "type": "Feature", "properties": { "name": "Rota do Sol", "code_muni": 4308607.0, "name_muni": "Garibaldi" }, "geometry": { "type": "Polygon", "coordinates": [ [ [ -51.5134137, -29.269009 ], [ -51.5125519, -29.2689556 ], [ -51.5121862, -29.2689128 ], [ -51.5116129, -29.2688148 ], [ -51.5111989, -29.268697400000011 ], [ -51.5110709, -29.2686499 ], [ -51.5107991, -29.268548899999988 ], [ -51.5104995, -29.2684075 ], [ -51.5101211, -29.2682005 ], [ -51.5097744, -29.2679786 ], [ -51.5094227, -29.2676994 ], [ -51.5091275, -29.267412199999985 ], [ -51.5088088, -29.2670919 ], [ -51.5087797, -29.2670478 ], [ -51.5085684, -29.2667284 ], [ -51.5082651, -29.2662641 ], [ -51.5074816, -29.2649519 ], [ -51.5074119, -29.264783 ], [ -51.5072402, -29.2649047 ], [ -51.5069774, -29.265108299999987 ], [ -51.506677, -29.2653235 ], [ -51.5064704, -29.2654569 ], [ -51.506221, -29.2655669 ], [ -51.5059528, -29.2656558 ], [ -51.5040599, -29.2660995 ], [ -51.5035235, -29.2662586 ], [ -51.5031909, -29.266399 ], [ -51.502987, -29.2665393 ], [ -51.5028154, -29.2667078 ], [ -51.502692, -29.2668716 ], [ -51.5026169, -29.267012 ], [ -51.5025471, -29.2672039 ], [ -51.5025096, -29.2673723 ], [ -51.5024172, -29.267808899999988 ], [ -51.502362, -29.2678157 ], [ -51.50211, -29.267853 ], [ -51.500585, -29.267845 ], [ -51.500205, -29.267861 ], [ -51.4998801, -29.2678664 ], [ -51.4997446, -29.2678925 ], [ -51.4996449, -29.2679693 ], [ -51.4995919, -29.2680822 ], [ -51.4994967, -29.2683127 ], [ -51.4994343, -29.2684443 ], [ -51.4993934, -29.268520400000011 ], [ -51.499295600000011, -29.2685662 ], [ -51.4992157, -29.2685677 ], [ -51.4990637, -29.2690761 ], [ -51.4990115, -29.269234 ], [ -51.4989921, -29.269300300000012 ], [ -51.4988208, -29.2698242 ], [ -51.4986035, -29.2703588 ], [ -51.4984949, -29.2705665 ], [ -51.4982473, -29.2709677 ], [ -51.497882, -29.2714234 ], [ -51.4975414, -29.2717647 ], [ -51.4974334, -29.2718756 ], [ -51.4972195, -29.2720621 ], [ -51.4968044, -29.2723798 ], [ -51.5154773, -29.2722774 ], [ -51.5153325, -29.2729606 ], [ -51.5153539, -29.2735595 ], [ -51.5153861, -29.2741117 ], [ -51.5156973, -29.2751879 ], [ -51.515983197518089, -29.275695323230835 ], [ -51.521908342613919, -29.275518794948972 ], [ -51.5224947, -29.2753012 ], [ -51.5229275, -29.2751408 ], [ -51.5230485, -29.2750898 ], [ -51.5235234, -29.2749484 ], [ -51.5233381, -29.274826 ], [ -51.5230269, -29.274596 ], [ -51.5225791, -29.274204 ], [ -51.522492, -29.2741128 ], [ -51.5219302, -29.2735184 ], [ -51.5214667, -29.2728354 ], [ -51.5205821, -29.2714616 ], [ -51.5152868, -29.2714804 ], [ -51.5152936, -29.2713199 ], [ -51.5152919, -29.2711354 ], [ -51.5152878, -29.2706936 ], [ -51.5152837, -29.2702488 ], [ -51.5152795, -29.2697833 ], [ -51.5152735, -29.2691316 ], [ -51.5134137, -29.269009 ] ] ] } },
{ "type": "Feature", "properties": { "name": "São Miguel", "code_muni": 4308607.0, "name_muni": "Garibaldi" }, "geometry": { "type": "Polygon", "coordinates": [ [ [ -51.4968044, -29.2723798 ], [ -51.4972195, -29.2720621 ], [ -51.4974334, -29.2718756 ], [ -51.4975414, -29.2717647 ], [ -51.497882, -29.2714234 ], [ -51.4982473, -29.2709677 ], [ -51.4984949, -29.2705665 ], [ -51.4986035, -29.2703588 ], [ -51.4988208, -29.2698242 ], [ -51.4989921, -29.269300300000012 ], [ -51.4990115, -29.269234 ], [ -51.4990637, -29.2690761 ], [ -51.4992157, -29.2685677 ], [ -51.4992719, -29.268411 ], [ -51.4992982, -29.2683425 ], [ -51.4995311, -29.2677435 ], [ -51.5001337, -29.2663272 ], [ -51.5003482, -29.265823 ], [ -51.5005699, -29.2653705 ], [ -51.5006845, -29.2651636 ], [ -51.5008162, -29.2649776 ], [ -51.5009679, -29.2647912 ], [ -51.5012576, -29.2645245 ], [ -51.501499, -29.2643537 ], [ -51.5019, -29.2641583 ], [ -51.5031995, -29.2637055 ], [ -51.5036304, -29.263525099999985 ], [ -51.503975, -29.2633464 ], [ -51.5044506, -29.2630639 ], [ -51.5053205, -29.2624005 ], [ -51.505597, -29.2621909 ], [ -51.5057637, -29.262112 ], [ -51.5059297, -29.2619354 ], [ -51.5066153, -29.2614216 ], [ -51.5074878, -29.2607543 ], [ -51.5076798, -29.2606053 ], [ -51.5079031, -29.2604028 ], [ -51.5080862, -29.260187 ], [ -51.5083114, -29.2598683 ], [ -51.5085612, -29.2594494 ], [ -51.5088056, -29.2589373 ], [ -51.5089719, -29.2586714 ], [ -51.5090961, -29.2585268 ], [ -51.5092337, -29.2583575 ], [ -51.5094005, -29.258207 ], [ -51.5100016, -29.2577602 ], [ -51.5105338, -29.2573778 ], [ -51.5106778, -29.2572548 ], [ -51.510883, -29.2570592 ], [ -51.5110487, -29.2568549 ], [ -51.5111442, -29.2567122 ], [ -51.5112233, -29.2565721 ], [ -51.5113065, -29.2564013 ], [ -51.5113655, -29.2562316 ], [ -51.5114003, -29.2560362 ], [ -51.5114325, -29.2557811 ], [ -51.5114433, -29.2554933 ], [ -51.5114366, -29.2550662 ], [ -51.511458, -29.2547737 ], [ -51.5114795, -29.2545818 ], [ -51.5115157, -29.2544321 ], [ -51.5115505, -29.2543022 ], [ -51.5116002, -29.2541641 ], [ -51.5116793, -29.2539687 ], [ -51.511863, -29.253659800000015 ], [ -51.5120449, -29.2534297 ], [ -51.5122466, -29.2532194 ], [ -51.5125791, -29.2528497 ], [ -51.5129197, -29.2524372 ], [ -51.5132384, -29.2520417 ], [ -51.5134616, -29.251680099999987 ], [ -51.5135863, -29.2514472 ], [ -51.5137091, -29.2511395 ], [ -51.5138338, -29.250806 ], [ -51.5105364, -29.250802 ], [ -51.490939776899275, -29.250899815593286 ], [ -51.490671047373773, -29.272429186420609 ], [ -51.4968044, -29.2723798 ] ] ] } }
]
}
