{
"type": "FeatureCollection",
"name": "bairros_macambara",
"crs": { "type": "name", "properties": { "name": "urn:ogc:def:crs:OGC:1.3:CRS84" } },
"features": [
{ "type": "Feature", "properties": { "code_muni": 4311718.0, "name_muni": "Maçambará", "code_state": 43.0, "abbrev_state": "RS", "name_state": "Rio Grande do Sul", "code_region": 4.0, "name_region": "Sul", "year": 2022.0 }, "geometry": { "type": "Polygon", "coordinates": [ [ [ -55.980299617, -29.15242875 ], [ -56.050843539, -29.149952003 ], [ -56.1117882899999, -29.152954252 ], [ -56.171116846, -29.160784378999889 ], [ -56.180166560000011, -29.159216130999901 ], [ -56.183831386, -29.154207019 ], [ -56.184761403, -29.143897039 ], [ -56.182277851, -29.140825134 ], [ -56.184553998999903, -29.138272755999903 ], [ -56.179775013, -29.133521007 ], [ -56.218932838999898, -29.12180849 ], [ -56.237770049999902, -29.117582421 ], [ -56.261248334999891, -29.108981926 ], [ -56.259669695999897, -29.100410291999903 ], [ -56.268743024999893, -29.095153663 ], [ -56.187675672, -29.014231106999897 ], [ -56.119372396, -28.941206323999896 ], [ -56.097015746, -28.9197605109999 ], [ -56.090301688, -28.905076887999897 ], [ -56.081581332, -28.85668164 ], [ -56.077459685, -28.856526904 ], [ -56.075882129, -28.857608257 ], [ -56.075412205, -28.858978312 ], [ -56.078032403, -28.859811049 ], [ -56.07889835, -28.861756709 ], [ -56.075407658, -28.862309229999905 ], [ -56.076040319999898, -28.864329751 ], [ -56.074552511, -28.864723336999905 ], [ -56.074177566999893, -28.866490583 ], [ -56.075897848, -28.868868676 ], [ -56.07267608, -28.869192413999905 ], [ -56.070241769999903, -28.872677903 ], [ -56.071096773, -28.876656742 ], [ -56.06631271299991, -28.879435041 ], [ -56.067059846999904, -28.882268295 ], [ -56.064292209, -28.884683691 ], [ -56.05922158899989, -28.885957200999901 ], [ -56.058140646, -28.889322601999901 ], [ -56.054606186999891, -28.892754275 ], [ -56.054585336999892, -28.8950274769999 ], [ -56.057305218, -28.895885222999901 ], [ -56.057138038999895, -28.90051020100001 ], [ -56.058148339, -28.901145073 ], [ -56.058801892, -28.898720608 ], [ -56.060184971, -28.899175697 ], [ -56.060357288, -28.902966604 ], [ -56.062940483, -28.903951685 ], [ -56.065294334, -28.907437683999895 ], [ -56.066854924, -28.911303792 ], [ -56.065125431999903, -28.9133028369999 ], [ -56.054791397, -28.916098989 ], [ -56.051803121, -28.918929708999908 ], [ -56.044383759, -28.919562015999901 ], [ -56.035370723, -28.917844999 ], [ -56.033684944999898, -28.919124155 ], [ -56.030282806999899, -28.9179082389999 ], [ -56.027624863, -28.918934092 ], [ -56.021495343, -28.916960749999905 ], [ -56.020242164, -28.918818614 ], [ -56.015054258, -28.920661419999906 ], [ -56.00383269799989, -28.935327637999894 ], [ -56.001936002, -28.940395935 ], [ -55.998033781999894, -28.94072087 ], [ -55.997813451, -28.943031326 ], [ -55.995234344, -28.944418884999894 ], [ -55.98305026, -28.944487943 ], [ -55.979362555, -28.942778883 ], [ -55.977305488999903, -28.943685807 ], [ -55.966035298, -28.943197822999892 ], [ -55.956160708, -28.940378698999986 ], [ -55.95340212299989, -28.94474636 ], [ -55.946071248, -28.9440353379999 ], [ -55.934413989999896, -28.945288389 ], [ -55.928845184, -28.949865498 ], [ -55.914141878999892, -28.948595219 ], [ -55.901829628, -28.952844838 ], [ -55.900195085, -28.951485191 ], [ -55.898477070999895, -28.951789944999987 ], [ -55.894714323999892, -28.953671266 ], [ -55.891849467, -28.957882305999902 ], [ -55.887606916, -28.9597458269999 ], [ -55.885080586999891, -28.958145042 ], [ -55.876916493999893, -28.961033628999896 ], [ -55.875907009999899, -28.965307762 ], [ -55.87394583, -28.965059981 ], [ -55.871628396999895, -28.966909724999905 ], [ -55.869172617999901, -28.965919203999899 ], [ -55.866068604, -28.968942435 ], [ -55.85429585899989, -28.967892003 ], [ -55.850942146, -28.966540994 ], [ -55.850860207, -28.964934777999893 ], [ -55.842575639999893, -28.968749327999898 ], [ -55.839517039, -28.971719035 ], [ -55.840000941, -28.975869691999904 ], [ -55.836342089, -28.97676755 ], [ -55.834148954999897, -28.979315825 ], [ -55.828341630999901, -28.979196434 ], [ -55.822416241, -28.984457882999905 ], [ -55.822433718, -28.988497675 ], [ -55.817818765, -28.992737256999892 ], [ -55.815480387, -28.992656092999898 ], [ -55.814985728, -28.991482959999896 ], [ -55.811313237, -28.992818714 ], [ -55.809595626, -28.991726066 ], [ -55.807563173999903, -28.993122626999906 ], [ -55.799786495, -28.994299394999896 ], [ -55.794132528, -28.985809543 ], [ -55.789031985999898, -28.985748491 ], [ -55.773173006, -28.980322741999903 ], [ -55.766606959999891, -28.9857336809999 ], [ -55.750221665, -28.98493582 ], [ -55.744309791, -28.986056241 ], [ -55.739875116, -28.984142773 ], [ -55.736729286999903, -28.985039437999909 ], [ -55.7291952429999, -28.982056109 ], [ -55.726216947, -28.982290098 ], [ -55.722143312, -28.987643478999896 ], [ -55.72106966, -28.9950682099999 ], [ -55.71844444, -28.998490666999896 ], [ -55.695747008, -29.002252499 ], [ -55.689110543, -29.010159294999895 ], [ -55.683939053, -29.012435035999903 ], [ -55.68202409, -29.016267363999901 ], [ -55.675598484, -29.016303415999989 ], [ -55.674840327, -29.017986124999904 ], [ -55.670085473, -29.019975627999901 ], [ -55.661320194, -29.011681837 ], [ -55.64920882, -29.012604908999901 ], [ -55.645160835, -29.014777899999984 ], [ -55.640850988999901, -29.012929084999904 ], [ -55.634155328, -29.012945699999896 ], [ -55.626797841, -29.00885218 ], [ -55.623198218, -29.008208334 ], [ -55.619259032999899, -29.0099435569999 ], [ -55.614052406, -29.009657979999901 ], [ -55.604696556, -29.011613761 ], [ -55.603655005, -29.013562880999892 ], [ -55.5998974359999, -29.014260736 ], [ -55.593872034, -29.010332637 ], [ -55.592357217, -29.012290892999903 ], [ -55.588237598, -29.013077504 ], [ -55.5872314389999, -29.016288053 ], [ -55.582157358, -29.020267277999896 ], [ -55.579343154, -29.019299100999906 ], [ -55.579326099999896, -29.01730126 ], [ -55.575436748, -29.014475674 ], [ -55.576387859, -29.012078598 ], [ -55.574705746999904, -29.010001041999907 ], [ -55.576305216, -29.006973050999889 ], [ -55.574851537, -29.005130054999903 ], [ -55.569413846, -29.005829586999887 ], [ -55.5587609, -29.003187813 ], [ -55.545899721, -29.0061985359999 ], [ -55.542117296, -29.002879094 ], [ -55.538375045999899, -29.001908947999905 ], [ -55.53103492199989, -29.002019790999988 ], [ -55.5236174039999, -29.005111532999905 ], [ -55.516571975, -29.002153031999985 ], [ -55.504604292999893, -29.000665566999892 ], [ -55.501283265, -29.003953748 ], [ -55.501799907, -29.008663092999903 ], [ -55.497688407999902, -29.032029226999988 ], [ -55.498416006999896, -29.035916238 ], [ -55.493863374999897, -29.045456674 ], [ -55.492860168999989, -29.053157034 ], [ -55.491572920999893, -29.054831136 ], [ -55.482804195, -29.058780965 ], [ -55.481273676999891, -29.063999172 ], [ -55.47619551, -29.066833464 ], [ -55.475173003, -29.070035313999902 ], [ -55.47291933, -29.070735705999901 ], [ -55.469749081, -29.078644595999904 ], [ -55.465270075, -29.082226061 ], [ -55.448005167, -29.071786123 ], [ -55.445571180999892, -29.069811554999912 ], [ -55.445930156, -29.067789752 ], [ -55.443916384, -29.065890909 ], [ -55.438731651, -29.06290567 ], [ -55.431580308, -29.061831054 ], [ -55.424221922999891, -29.058234232999986 ], [ -55.412546162999895, -29.0474937779999 ], [ -55.40005444, -29.019090642 ], [ -55.399866517, -29.009798369 ], [ -55.394452499999893, -29.004103804 ], [ -55.393183152999903, -29.000376887 ], [ -55.390396119999899, -29.000188331999894 ], [ -55.389707578999889, -28.998434564 ], [ -55.384709831999906, -28.996933618999897 ], [ -55.374693196999907, -28.989197168 ], [ -55.374261976, -28.985612126 ], [ -55.385637873, -28.976014372 ], [ -55.373217361999899, -28.971865776 ], [ -55.343664689, -28.986021415 ], [ -55.318351849, -28.992466701999902 ], [ -55.292986906999893, -28.991507753999901 ], [ -55.28559254, -28.997881721999903 ], [ -55.279561126, -29.008235992 ], [ -55.279084042, -29.016917964 ], [ -55.281484013999901, -29.024150790999986 ], [ -55.278475328, -29.030668338999899 ], [ -55.270481599999989, -29.040538394999906 ], [ -55.265504671, -29.043542497 ], [ -55.261876232, -29.048197253 ], [ -55.24601754, -29.05609898699991 ], [ -55.25378757499989, -29.054700560999901 ], [ -55.260156486, -29.056067187999904 ], [ -55.264493683, -29.053676418999899 ], [ -55.27105994, -29.05530228 ], [ -55.272885533, -29.057040492999899 ], [ -55.271359777, -29.070617247 ], [ -55.275186318999893, -29.084528416 ], [ -55.274039195999897, -29.089555015 ], [ -55.285489265, -29.104814022 ], [ -55.284607577, -29.107610861 ], [ -55.276226772, -29.11242148 ], [ -55.269558543999899, -29.121455266999892 ], [ -55.270641204999897, -29.125938377999894 ], [ -55.268592431999892, -29.128971696 ], [ -55.269492994, -29.134939586 ], [ -55.268380946, -29.142547593 ], [ -55.276671577999892, -29.153331033 ], [ -55.276392345, -29.158595617999893 ], [ -55.274342504999893, -29.160745877999894 ], [ -55.275601730999895, -29.161411368999893 ], [ -55.278133587999903, -29.170458701 ], [ -55.283119472, -29.174914282 ], [ -55.279332223, -29.183134289 ], [ -55.280516153999905, -29.184500468 ], [ -55.284911474, -29.184489942 ], [ -55.286627782, -29.185666026 ], [ -55.290945326, -29.192987323999901 ], [ -55.297444995, -29.194459853 ], [ -55.3002324, -29.197862545 ], [ -55.300136274, -29.202549813 ], [ -55.30952687, -29.203896203999893 ], [ -55.310845752, -29.202885591 ], [ -55.313620842, -29.205430226 ], [ -55.311357339, -29.208336378 ], [ -55.316895534, -29.208269375999986 ], [ -55.317150195, -29.210329930999904 ], [ -55.314124762999903, -29.211073214999896 ], [ -55.316376108, -29.215665235999904 ], [ -55.321751311, -29.216010074999897 ], [ -55.327304335, -29.219534563 ], [ -55.327437749, -29.216879325 ], [ -55.331093242, -29.221826092 ], [ -55.336517023999896, -29.223427339 ], [ -55.340463569999898, -29.221525979 ], [ -55.342870604, -29.222568098 ], [ -55.344855913999893, -29.22116528 ], [ -55.345673081, -29.217190643 ], [ -55.343902845999899, -29.214104389999893 ], [ -55.343770298, -29.2077298479999 ], [ -55.345367463999892, -29.207103098999895 ], [ -55.350091103, -29.208527725999897 ], [ -55.35277466, -29.205426361 ], [ -55.361863393, -29.2068118 ], [ -55.364042555, -29.213952966 ], [ -55.367037401999895, -29.215263789999891 ], [ -55.368865778, -29.219419882 ], [ -55.367041836999896, -29.230931794999901 ], [ -55.3745059, -29.237029067 ], [ -55.383463908, -29.233434006 ], [ -55.387505899, -29.229873192 ], [ -55.388386133, -29.223295221999908 ], [ -55.393571062, -29.225186175 ], [ -55.393680452, -29.227187618 ], [ -55.39076983199989, -29.2301820879999 ], [ -55.393917444999893, -29.236633361 ], [ -55.395098693, -29.237109964999902 ], [ -55.401873125, -29.234192239 ], [ -55.400914472, -29.219765671999902 ], [ -55.402190036, -29.217437618 ], [ -55.397068237, -29.214951871 ], [ -55.393177818, -29.20752873 ], [ -55.398512482999898, -29.204291515000012 ], [ -55.401611805999892, -29.204728175 ], [ -55.403619294, -29.211524944 ], [ -55.405384426999902, -29.209889021 ], [ -55.412362190999893, -29.210323436999893 ], [ -55.417592144, -29.211017762 ], [ -55.423610580999892, -29.213913542999904 ], [ -55.427032058999892, -29.208623513 ], [ -55.429715359999896, -29.208854673 ], [ -55.431501146, -29.212436603999887 ], [ -55.433700633999898, -29.213441406999905 ], [ -55.44267232499989, -29.2124321229999 ], [ -55.447039667999896, -29.208658586999896 ], [ -55.448132731, -29.205721400999899 ], [ -55.450960428, -29.205983949 ], [ -55.455141442, -29.213154994 ], [ -55.459114875, -29.215144059999897 ], [ -55.462242096999901, -29.199321308 ], [ -55.472888005999891, -29.201514765 ], [ -55.480374067999897, -29.198550148 ], [ -55.480163768999901, -29.187846939999908 ], [ -55.47709644, -29.170684977 ], [ -55.486908587999899, -29.160081953 ], [ -55.496243744, -29.132654863 ], [ -55.505179859999892, -29.127322934999903 ], [ -55.509565067, -29.09835018 ], [ -55.520518927999902, -29.0918020679999 ], [ -55.527415297999895, -29.0850675 ], [ -55.529145271999894, -29.068872165999903 ], [ -55.532360947, -29.071994496999888 ], [ -55.561999237, -29.087090559999986 ], [ -55.570222773, -29.093556061 ], [ -55.59778073199989, -29.095123241 ], [ -55.615782306, -29.092481222999901 ], [ -55.627172221, -29.093348461999891 ], [ -55.647163833, -29.107943760999898 ], [ -55.680396991, -29.106813600999892 ], [ -55.692589002, -29.107963742999985 ], [ -55.730942617, -29.123460543 ], [ -55.808884143999897, -29.127654415999899 ], [ -55.854961177999897, -29.136999841 ], [ -55.91235962, -29.156387217 ], [ -55.980299617, -29.15242875 ] ] ] } }
]
}
