{
"type": "FeatureCollection",
"name": "bairros_santa_barbara_do_sul",
"crs": { "type": "name", "properties": { "name": "urn:ogc:def:crs:OGC:1.3:CRS84" } },
"features": [
{ "type": "Feature", "properties": { "name": "Aparecida", "code_muni": 4316709.0, "name_muni": "Santa Bárbara do Sul" }, "geometry": { "type": "Polygon", "coordinates": [ [ [ -53.2528985, -28.3707087 ], [ -53.2528028, -28.370893899999988 ], [ -53.2533058, -28.3710778 ], [ -53.2542415, -28.3713572 ], [ -53.2548029, -28.3704609 ], [ -53.2545579, -28.3703376 ], [ -53.2545801, -28.3699415 ], [ -53.2546262, -28.3693696 ], [ -53.2546496, -28.3686868 ], [ -53.2547024, -28.3679198 ], [ -53.2547083, -28.3677496 ], [ -53.2546491, -28.3673601 ], [ -53.2545663, -28.3669764 ], [ -53.2544204, -28.3668465 ], [ -53.2532456, -28.3653876 ], [ -53.2522948, -28.3659365 ], [ -53.2523565, -28.3657945 ], [ -53.252397, -28.365642 ], [ -53.2523967, -28.365446 ], [ -53.2523922, -28.3652501 ], [ -53.2523762, -28.3651225 ], [ -53.2523674, -28.3650526 ], [ -53.2522851, -28.3648172 ], [ -53.2521917, -28.3646282 ], [ -53.2520781, -28.364469 ], [ -53.2519321, -28.3642764 ], [ -53.2514333, -28.3635456 ], [ -53.2513574, -28.363445 ], [ -53.2511104, -28.3631872 ], [ -53.2507444, -28.3627769 ], [ -53.2502379, -28.3621644 ], [ -53.2494156, -28.3611005 ], [ -53.2489169, -28.3604948 ], [ -53.2491102, -28.3603293 ], [ -53.2484992, -28.359699 ], [ -53.2481621, -28.3594165 ], [ -53.2477162, -28.359169699999988 ], [ -53.2475786, -28.3590778 ], [ -53.2473731, -28.3589541 ], [ -53.2473863, -28.3591713 ], [ -53.2470607, -28.3591516 ], [ -53.2466782, -28.359138 ], [ -53.2462372, -28.35919 ], [ -53.2453395, -28.3593405 ], [ -53.24519750000001, -28.3593447 ], [ -53.245056, -28.3593459 ], [ -53.2449093, -28.3593364 ], [ -53.2447641, -28.3592964 ], [ -53.2446093, -28.3592399 ], [ -53.2468551, -28.3627724 ], [ -53.247043, -28.36308510000001 ], [ -53.2479855, -28.3643144 ], [ -53.2486015, -28.3651652 ], [ -53.2492055, -28.3659244 ], [ -53.249891, -28.3667832 ], [ -53.250044, -28.3670033 ], [ -53.2507396, -28.3678631 ], [ -53.251309, -28.3685593 ], [ -53.2518386, -28.3692169 ], [ -53.2525764, -28.3701423 ], [ -53.2528162, -28.370455 ], [ -53.2529554, -28.3705242 ], [ -53.2528985, -28.3707087 ] ] ] } },
{ "type": "Feature", "properties": { "name": "Tiradentes", "code_muni": 4316709.0, "name_muni": "Santa Bárbara do Sul" }, "geometry": { "type": "Polygon", "coordinates": [ [ [ -53.2442733, -28.3858565 ], [ -53.2443966, -28.385627 ], [ -53.2447779, -28.3852275 ], [ -53.247998, -28.3839454 ], [ -53.2522242, -28.3822626 ], [ -53.2492733, -28.3812819 ], [ -53.2479117, -28.3783113 ], [ -53.2472638, -28.377414 ], [ -53.2467949, -28.3768312 ], [ -53.2466924, -28.3767468 ], [ -53.2459702, -28.3760285 ], [ -53.2450806, -28.3751434 ], [ -53.2450043, -28.3750694 ], [ -53.2449004, -28.3749726 ], [ -53.2446601, -28.3747289 ], [ -53.2440848, -28.3739132 ], [ -53.2423425, -28.3807439 ], [ -53.2423318, -28.3815085 ], [ -53.244102, -28.3855201 ], [ -53.2430184, -28.3875966 ], [ -53.2432714, -28.3878981 ], [ -53.2436365, -28.3872509 ], [ -53.2441781, -28.3860939 ], [ -53.2442733, -28.3858565 ] ] ] } },
{ "type": "Feature", "properties": { "name": "Fátima", "code_muni": 4316709.0, "name_muni": "Santa Bárbara do Sul" }, "geometry": { "type": "Polygon", "coordinates": [ [ [ -53.2528162, -28.370455 ], [ -53.2525764, -28.3701423 ], [ -53.2518386, -28.3692169 ], [ -53.251309, -28.3685593 ], [ -53.2507396, -28.3678631 ], [ -53.250044, -28.3670033 ], [ -53.2495608, -28.3675288 ], [ -53.2478549, -28.369288 ], [ -53.2473473, -28.36977 ], [ -53.2470259, -28.3700468 ], [ -53.2452609, -28.3714152 ], [ -53.2442117, -28.3722544 ], [ -53.2438901, -28.3724928 ], [ -53.2437694, -28.3734659 ], [ -53.2440848, -28.3739132 ], [ -53.2446601, -28.3747289 ], [ -53.2449004, -28.3749726 ], [ -53.2451566, -28.3747872 ], [ -53.2460018, -28.3742049 ], [ -53.2463636, -28.3740026 ], [ -53.2465542, -28.3739321 ], [ -53.2467909, -28.3738698 ], [ -53.2470964, -28.3738615 ], [ -53.2473623, -28.3739002 ], [ -53.2477234, -28.3740221 ], [ -53.2481951, -28.3742092 ], [ -53.248679, -28.374349 ], [ -53.2489347, -28.3743854 ], [ -53.2492303, -28.374353500000012 ], [ -53.2494429, -28.3742931 ], [ -53.2496814, -28.3741804 ], [ -53.2498694, -28.3740361 ], [ -53.2503031, -28.3735899 ], [ -53.2513567, -28.3725059 ], [ -53.2514952, -28.3723628 ], [ -53.2524366, -28.371379 ], [ -53.2525909, -28.3712144 ], [ -53.2528028, -28.370893899999988 ], [ -53.2528985, -28.3707087 ], [ -53.2529554, -28.3705242 ], [ -53.2528162, -28.370455 ] ] ] } },
{ "type": "Feature", "properties": { "name": "Morada do Sol", "code_muni": 4316709.0, "name_muni": "Santa Bárbara do Sul" }, "geometry": { "type": "Polygon", "coordinates": [ [ [ -53.2444525, -28.3591674 ], [ -53.2442633, -28.3590352 ], [ -53.2441617, -28.3589178 ], [ -53.2440816, -28.358779099999989 ], [ -53.2440235, -28.35862 ], [ -53.2439607, -28.3583467 ], [ -53.2439174, -28.3582015 ], [ -53.2439035, -28.3580672 ], [ -53.2439348, -28.3578429 ], [ -53.2439556, -28.3575809 ], [ -53.2439586, -28.3574637 ], [ -53.2439973, -28.3573908 ], [ -53.2440709, -28.3573013 ], [ -53.2439949, -28.3571956 ], [ -53.2438837, -28.3570381 ], [ -53.2437703, -28.3568775 ], [ -53.2436066, -28.3566994 ], [ -53.2435412, -28.3566373 ], [ -53.243429, -28.3565309 ], [ -53.2430169, -28.3562122 ], [ -53.2439625, -28.3657438 ], [ -53.2425356, -28.3663952 ], [ -53.2394564, -28.3677924 ], [ -53.2440269, -28.3713891 ], [ -53.2438901, -28.3724928 ], [ -53.2442117, -28.3722544 ], [ -53.2452609, -28.3714152 ], [ -53.2470259, -28.3700468 ], [ -53.2473473, -28.36977 ], [ -53.2478549, -28.369288 ], [ -53.2495608, -28.3675288 ], [ -53.250044, -28.3670033 ], [ -53.249891, -28.3667832 ], [ -53.2492055, -28.3659244 ], [ -53.2486015, -28.3651652 ], [ -53.2479855, -28.3643144 ], [ -53.247043, -28.36308510000001 ], [ -53.2468551, -28.3627724 ], [ -53.2446093, -28.3592399 ], [ -53.2444525, -28.3591674 ] ] ] } },
{ "type": "Feature", "properties": { "name": "Padroeira", "code_muni": 4316709.0, "name_muni": "Santa Bárbara do Sul" }, "geometry": { "type": "Polygon", "coordinates": [ [ [ -53.2563956, -28.3818272 ], [ -53.2546987, -28.3794631 ], [ -53.2532004, -28.3773994 ], [ -53.2523416, -28.3761902 ], [ -53.2522876, -28.376107499999989 ], [ -53.2521498, -28.375925899999988 ], [ -53.2515046, -28.3750404 ], [ -53.2513125, -28.3747829 ], [ -53.2508531, -28.3741852 ], [ -53.2505715, -28.373853 ], [ -53.2503031, -28.3735899 ], [ -53.2498694, -28.3740361 ], [ -53.2496814, -28.3741804 ], [ -53.2494429, -28.3742931 ], [ -53.2492303, -28.374353500000012 ], [ -53.2489347, -28.3743854 ], [ -53.248679, -28.374349 ], [ -53.2481951, -28.3742092 ], [ -53.2477234, -28.3740221 ], [ -53.2473623, -28.3739002 ], [ -53.2470964, -28.3738615 ], [ -53.2467909, -28.3738698 ], [ -53.2465542, -28.3739321 ], [ -53.2463636, -28.3740026 ], [ -53.2460018, -28.3742049 ], [ -53.2451566, -28.3747872 ], [ -53.2449004, -28.3749726 ], [ -53.2450043, -28.3750694 ], [ -53.2450806, -28.3751434 ], [ -53.2459702, -28.3760285 ], [ -53.2466924, -28.3767468 ], [ -53.2467949, -28.3768312 ], [ -53.2472638, -28.377414 ], [ -53.2479117, -28.3783113 ], [ -53.2492733, -28.3812819 ], [ -53.2522242, -28.3822626 ], [ -53.2581392, -28.3842282 ], [ -53.2563956, -28.3818272 ] ] ] } },
{ "type": "Feature", "properties": { "name": "Cerutti", "code_muni": 4316709.0, "name_muni": "Santa Bárbara do Sul" }, "geometry": { "type": "Polygon", "coordinates": [ [ [ -53.2513125, -28.3747829 ], [ -53.2515046, -28.3750404 ], [ -53.2521498, -28.375925899999988 ], [ -53.2522876, -28.376107499999989 ], [ -53.2523416, -28.3761902 ], [ -53.2532004, -28.3773994 ], [ -53.2546987, -28.3794631 ], [ -53.2563956, -28.3818272 ], [ -53.2581392, -28.3842282 ], [ -53.259573, -28.3835379 ], [ -53.2591546, -28.3773174 ], [ -53.2574916, -28.3745798 ], [ -53.2568264, -28.3725219 ], [ -53.2561051, -28.3722849 ], [ -53.2552366, -28.3718578 ], [ -53.2542415, -28.3713572 ], [ -53.2533058, -28.3710778 ], [ -53.2528028, -28.370893899999988 ], [ -53.2525909, -28.3712144 ], [ -53.2524366, -28.371379 ], [ -53.2514952, -28.3723628 ], [ -53.2513567, -28.3725059 ], [ -53.2503031, -28.3735899 ], [ -53.2505715, -28.373853 ], [ -53.2508531, -28.3741852 ], [ -53.2513125, -28.3747829 ] ] ] } },
{ "type": "Feature", "properties": { "name": "Loeblein", "code_muni": 4316709.0, "name_muni": "Santa Bárbara do Sul" }, "geometry": { "type": "Polygon", "coordinates": [ [ [ -53.2532456, -28.3653876 ], [ -53.2544204, -28.3668465 ], [ -53.2545663, -28.3669764 ], [ -53.2546491, -28.3673601 ], [ -53.2547083, -28.3677496 ], [ -53.2547024, -28.3679198 ], [ -53.2546496, -28.3686868 ], [ -53.2546262, -28.3693696 ], [ -53.2545801, -28.3699415 ], [ -53.2545579, -28.3703376 ], [ -53.2548029, -28.3704609 ], [ -53.2542415, -28.3713572 ], [ -53.2552366, -28.3718578 ], [ -53.2561051, -28.3722849 ], [ -53.2568264, -28.3725219 ], [ -53.2574916, -28.3745798 ], [ -53.2587147, -28.3707472 ], [ -53.2619333, -28.3668766 ], [ -53.2643151, -28.3605324 ], [ -53.2604742, -28.3585497 ], [ -53.2586289, -28.3602869 ], [ -53.2558876, -28.3619763 ], [ -53.2553398, -28.3623507 ], [ -53.2541341, -28.3630129 ], [ -53.2533582, -28.3634768 ], [ -53.252173, -28.3641413 ], [ -53.2519321, -28.3642764 ], [ -53.2520781, -28.364469 ], [ -53.2521917, -28.3646282 ], [ -53.2522851, -28.3648172 ], [ -53.2523674, -28.3650526 ], [ -53.2523762, -28.3651225 ], [ -53.2523922, -28.3652501 ], [ -53.2523967, -28.365446 ], [ -53.252397, -28.365642 ], [ -53.2523565, -28.3657945 ], [ -53.2522948, -28.3659365 ], [ -53.2532456, -28.3653876 ] ] ] } },
{ "type": "Feature", "properties": { "name": "Aparecida", "code_muni": 4316709.0, "name_muni": "Santa Bárbara do Sul" }, "geometry": { "type": "Polygon", "coordinates": [ [ [ -53.2447641, -28.3592964 ], [ -53.2449093, -28.3593364 ], [ -53.245056, -28.3593459 ], [ -53.24519750000001, -28.3593447 ], [ -53.2453395, -28.3593405 ], [ -53.2462372, -28.35919 ], [ -53.2466782, -28.359138 ], [ -53.2470607, -28.3591516 ], [ -53.2473863, -28.3591713 ], [ -53.2473731, -28.3589541 ], [ -53.2475786, -28.3590778 ], [ -53.2477162, -28.359169699999988 ], [ -53.2481621, -28.3594165 ], [ -53.2484992, -28.359699 ], [ -53.2491102, -28.3603293 ], [ -53.2489169, -28.3604948 ], [ -53.2494156, -28.3611005 ], [ -53.2502379, -28.3621644 ], [ -53.2507444, -28.3627769 ], [ -53.2511104, -28.3631872 ], [ -53.2513574, -28.363445 ], [ -53.2514333, -28.3635456 ], [ -53.2519321, -28.3642764 ], [ -53.252173, -28.3641413 ], [ -53.2533582, -28.3634768 ], [ -53.2541341, -28.3630129 ], [ -53.2553398, -28.3623507 ], [ -53.2558876, -28.3619763 ], [ -53.2586289, -28.3602869 ], [ -53.2604742, -28.3585497 ], [ -53.2401753, -28.3479938 ], [ -53.2368197, -28.3544034 ], [ -53.2399807, -28.3549061 ], [ -53.2412274, -28.3552753 ], [ -53.2421963, -28.3556863 ], [ -53.242487, -28.3558418 ], [ -53.2430169, -28.3562122 ], [ -53.243429, -28.3565309 ], [ -53.2435412, -28.3566373 ], [ -53.2436066, -28.3566994 ], [ -53.2437703, -28.3568775 ], [ -53.2438837, -28.3570381 ], [ -53.2439949, -28.3571956 ], [ -53.2440709, -28.3573013 ], [ -53.2439973, -28.3573908 ], [ -53.2439586, -28.3574637 ], [ -53.2439556, -28.3575809 ], [ -53.2439348, -28.3578429 ], [ -53.2439035, -28.3580672 ], [ -53.2439174, -28.3582015 ], [ -53.2439607, -28.3583467 ], [ -53.2440235, -28.35862 ], [ -53.2440816, -28.358779099999989 ], [ -53.2441617, -28.3589178 ], [ -53.2442633, -28.3590352 ], [ -53.2444525, -28.3591674 ], [ -53.2446093, -28.3592399 ], [ -53.2447641, -28.3592964 ] ] ] } },
{ "type": "Feature", "properties": { "name": "Distrito Industrial", "code_muni": 4316709.0, "name_muni": "Santa Bárbara do Sul" }, "geometry": { "type": "Polygon", "coordinates": [ [ [ -53.2498756, -28.3857566 ], [ -53.2497389, -28.3855152 ], [ -53.2496045, -28.3853466 ], [ -53.2493795, -28.3851563 ], [ -53.2491781, -28.3849773 ], [ -53.2489793, -28.3848157 ], [ -53.24853130000001, -28.3844242 ], [ -53.2481054, -28.3840318 ], [ -53.247998, -28.3839454 ], [ -53.2447779, -28.3852275 ], [ -53.2443966, -28.385627 ], [ -53.2442733, -28.3858565 ], [ -53.2441781, -28.3860939 ], [ -53.2436365, -28.3872509 ], [ -53.2432714, -28.3878981 ], [ -53.2430113, -28.3883592 ], [ -53.2426537, -28.3889931 ], [ -53.2421412, -28.389984 ], [ -53.2419619, -28.3903034 ], [ -53.2426536, -28.3906477 ], [ -53.2441828, -28.3896949 ], [ -53.2443139, -28.3896307 ], [ -53.2444091, -28.3894608 ], [ -53.2451109, -28.3889966 ], [ -53.2498934, -28.3858269 ], [ -53.2498756, -28.3857566 ] ] ] } }
]
}
