{
"type": "FeatureCollection",
"name": "bairros_erval_seco",
"crs": { "type": "name", "properties": { "name": "urn:ogc:def:crs:OGC:1.3:CRS84" } },
"features": [
{ "type": "Feature", "properties": { "code_muni": 4307302.0, "name_muni": "Erval Seco", "code_state": 43.0, "abbrev_state": "RS", "name_state": "Rio Grande do Sul", "code_region": 4.0, "name_region": "Sul", "year": 2022.0 }, "geometry": { "type": "Polygon", "coordinates": [ [ [ -53.455170255, -27.618828137 ], [ -53.456860816, -27.620818094 ], [ -53.45755686, -27.625242097 ], [ -53.459392432999898, -27.626809137 ], [ -53.461128464999895, -27.626483387999908 ], [ -53.462972054, -27.628585498999904 ], [ -53.466985367999889, -27.62854163 ], [ -53.470882028999903, -27.630554495 ], [ -53.47663154299989, -27.629898861999898 ], [ -53.476904713999893, -27.627833532999901 ], [ -53.481420531, -27.627917913 ], [ -53.485315876, -27.620710954999897 ], [ -53.492750699999895, -27.614315317 ], [ -53.493076233, -27.610260277 ], [ -53.496219116, -27.607555117999897 ], [ -53.496837893, -27.604734818999898 ], [ -53.5089328, -27.605114725 ], [ -53.514050143, -27.600890547999896 ], [ -53.518168709999891, -27.602589302999903 ], [ -53.51997825, -27.602100702 ], [ -53.532646008, -27.608137262 ], [ -53.544540309999903, -27.607682112 ], [ -53.548618779, -27.605561813 ], [ -53.552695861, -27.606201153 ], [ -53.556369489, -27.610544661999889 ], [ -53.557875274, -27.607977546 ], [ -53.562572012, -27.6070449159999 ], [ -53.569142325, -27.611545523 ], [ -53.570521668, -27.617040468 ], [ -53.572078722, -27.616063516999901 ], [ -53.572306344, -27.613501681999903 ], [ -53.576467933999893, -27.615484084999895 ], [ -53.578303826, -27.614612984 ], [ -53.575624106, -27.609889365999905 ], [ -53.578800896, -27.607094866 ], [ -53.57447195799989, -27.606715418 ], [ -53.573874626, -27.60375227 ], [ -53.575367338, -27.600682209 ], [ -53.58131459, -27.599794371 ], [ -53.579013362, -27.590862354 ], [ -53.586375586, -27.589763241999901 ], [ -53.586457034, -27.586305667 ], [ -53.580432026, -27.580870251 ], [ -53.579957225, -27.577361918 ], [ -53.57187948699989, -27.578894305999903 ], [ -53.568519148999897, -27.577808912 ], [ -53.573322264999895, -27.573061536999905 ], [ -53.582222466, -27.571431339999901 ], [ -53.58387791, -27.569856118 ], [ -53.5775111089999, -27.564985787 ], [ -53.571527749, -27.567975659999895 ], [ -53.569537219, -27.566142222999904 ], [ -53.573675887, -27.562619159 ], [ -53.579887904, -27.560875070999895 ], [ -53.591261867999897, -27.566141099999985 ], [ -53.593649001, -27.565981001999898 ], [ -53.595121165, -27.56318199 ], [ -53.593082914, -27.561052829999895 ], [ -53.587708781999901, -27.561092372 ], [ -53.585278596, -27.558571050999902 ], [ -53.575531387, -27.558171401 ], [ -53.573149122, -27.550762490999897 ], [ -53.582208022, -27.549720324 ], [ -53.580505509, -27.544772502999901 ], [ -53.582977907999989, -27.5411915399999 ], [ -53.572149985999893, -27.546375359 ], [ -53.570497689, -27.545888772999888 ], [ -53.568933495999893, -27.542956014 ], [ -53.568762064999902, -27.539037169 ], [ -53.570551716, -27.536240881 ], [ -53.581492291, -27.533105838 ], [ -53.582989243, -27.531419185999901 ], [ -53.579868378, -27.532493298 ], [ -53.572686096, -27.5314925919999 ], [ -53.565826908, -27.53451308 ], [ -53.564348381999899, -27.532418892 ], [ -53.566633807999892, -27.527358642 ], [ -53.570070100999899, -27.524740237999897 ], [ -53.578435583, -27.524688997999903 ], [ -53.583123735999891, -27.520061123999898 ], [ -53.581818724999906, -27.517648485999899 ], [ -53.573509596, -27.519052426 ], [ -53.563761289999903, -27.515589072999905 ], [ -53.5689343929999, -27.514044028999898 ], [ -53.572642110999901, -27.50843315 ], [ -53.571214988, -27.4968305639999 ], [ -53.573699078999901, -27.494060508 ], [ -53.57050739399989, -27.492531202999899 ], [ -53.570058084, -27.490548103 ], [ -53.572661610999909, -27.481711898999894 ], [ -53.566567005, -27.475138888999904 ], [ -53.560844231, -27.477262874 ], [ -53.557897038, -27.481548258 ], [ -53.553907712, -27.476764666 ], [ -53.561103475, -27.463763904 ], [ -53.565609857, -27.464342943 ], [ -53.565536247, -27.470225065 ], [ -53.566841638, -27.472011919999897 ], [ -53.56943817, -27.470264066 ], [ -53.5703448739999, -27.466933466999905 ], [ -53.566762785, -27.460985585999893 ], [ -53.555989105, -27.458359969 ], [ -53.552765916999903, -27.455598192 ], [ -53.557908196, -27.452658184 ], [ -53.562383527, -27.447326964999899 ], [ -53.561148444, -27.440889556999903 ], [ -53.563547064, -27.441306712 ], [ -53.565976588, -27.4444905309999 ], [ -53.5706582, -27.442237668 ], [ -53.572863156, -27.442717016 ], [ -53.573969002999903, -27.446804065 ], [ -53.578289755, -27.449317780999895 ], [ -53.583132596, -27.455780196 ], [ -53.601928180999899, -27.462691188 ], [ -53.610752455999908, -27.463970028999896 ], [ -53.612080100999897, -27.466003692999905 ], [ -53.610600207999894, -27.467621021 ], [ -53.612010609, -27.469391605999906 ], [ -53.616219682, -27.472668923999901 ], [ -53.617712095999899, -27.471351222 ], [ -53.619983415, -27.460219510999899 ], [ -53.626262776, -27.449577539 ], [ -53.630257642999901, -27.4477112759999 ], [ -53.633784790999989, -27.4433031 ], [ -53.638134706999892, -27.44086241 ], [ -53.64344628, -27.431401966999893 ], [ -53.645131605, -27.431235328 ], [ -53.645732796999901, -27.429063535 ], [ -53.650545436, -27.426292877 ], [ -53.650322112, -27.425201676 ], [ -53.644598899999892, -27.423509668999898 ], [ -53.648089706, -27.419343096 ], [ -53.647418248999898, -27.416894519 ], [ -53.641121878, -27.416067254 ], [ -53.639407134999892, -27.412984396 ], [ -53.646130683, -27.409874342 ], [ -53.654562856, -27.403667799999901 ], [ -53.642813106999903, -27.400765509999903 ], [ -53.646153915, -27.397875785999897 ], [ -53.653228124, -27.395384872 ], [ -53.655964491, -27.391573179 ], [ -53.655812055, -27.389065269 ], [ -53.649832929, -27.387534209 ], [ -53.648606078999897, -27.385891053 ], [ -53.656600564, -27.375400254999896 ], [ -53.649512802999901, -27.37660518 ], [ -53.648854523999894, -27.375094483999899 ], [ -53.65342660999989, -27.37157941 ], [ -53.66703813, -27.3702090479999 ], [ -53.659210671, -27.362676796 ], [ -53.650432751, -27.367867795999896 ], [ -53.647220497, -27.367892613 ], [ -53.647179057, -27.365546928 ], [ -53.650651916999891, -27.360977524 ], [ -53.65513298, -27.359366824999906 ], [ -53.660320956, -27.360343633 ], [ -53.661165825999895, -27.359382814 ], [ -53.6594567389999, -27.353702337999891 ], [ -53.651350275, -27.352869070999898 ], [ -53.649655945999896, -27.348482106999899 ], [ -53.645629164999896, -27.344057182 ], [ -53.641570117, -27.342401949 ], [ -53.636698285, -27.346734888 ], [ -53.649029719999895, -27.354710379 ], [ -53.647755246, -27.358789099 ], [ -53.637726046999902, -27.361336719999898 ], [ -53.629867982, -27.3544473379999 ], [ -53.627452913, -27.355630636999898 ], [ -53.624464616, -27.383290324 ], [ -53.622419729999898, -27.388600991 ], [ -53.619102687, -27.392117923999898 ], [ -53.617678263, -27.391694743 ], [ -53.615608408, -27.386900696999898 ], [ -53.611681378999897, -27.370981156 ], [ -53.60758027, -27.369202691999899 ], [ -53.602139318, -27.369741734999895 ], [ -53.599452449999902, -27.372222398 ], [ -53.59939138, -27.378688549999897 ], [ -53.604832066, -27.386764006 ], [ -53.603501642, -27.388758023 ], [ -53.596888077999893, -27.391696845999892 ], [ -53.58986453099989, -27.392435013 ], [ -53.589635170999898, -27.381727702 ], [ -53.587051832, -27.379570846 ], [ -53.585251735, -27.380223736999891 ], [ -53.581425942, -27.386883134999895 ], [ -53.573011798, -27.390849676 ], [ -53.563090105999891, -27.391501118 ], [ -53.556731935999892, -27.389660582 ], [ -53.55204235, -27.390951543 ], [ -53.550783022, -27.394414477999899 ], [ -53.555998359999897, -27.398704248999895 ], [ -53.562495436999903, -27.402565848999892 ], [ -53.570941853, -27.403515273 ], [ -53.57183213, -27.404968215999901 ], [ -53.564895142, -27.411273687999898 ], [ -53.562396196999899, -27.418003407 ], [ -53.557806531, -27.420663724999908 ], [ -53.555964791999898, -27.415392202 ], [ -53.55237171999989, -27.4136561729999 ], [ -53.545586831, -27.420693018999895 ], [ -53.535768467, -27.418181708 ], [ -53.5362525849999, -27.421639613 ], [ -53.547608441, -27.426645686 ], [ -53.546130922, -27.434046192 ], [ -53.543573684, -27.434869878 ], [ -53.545236814, -27.429358785 ], [ -53.536947423999905, -27.426472611 ], [ -53.533167524, -27.428745847999906 ], [ -53.527988257999894, -27.438018867 ], [ -53.526434929999901, -27.434873162 ], [ -53.520713306999902, -27.432049773999903 ], [ -53.505646412, -27.4338534359999 ], [ -53.504281423999899, -27.435793308 ], [ -53.506338457, -27.438120737 ], [ -53.512275041999892, -27.439892339 ], [ -53.515482323, -27.442467308999898 ], [ -53.513533716, -27.443954028 ], [ -53.507561939, -27.443676765 ], [ -53.505574614999901, -27.4497349 ], [ -53.506011433, -27.457494555 ], [ -53.50446282, -27.459710812 ], [ -53.50170844, -27.460302898999899 ], [ -53.500141501, -27.458478910999894 ], [ -53.498877657, -27.450263255 ], [ -53.495107526, -27.449150496999895 ], [ -53.48849519, -27.452601595 ], [ -53.492857587999893, -27.457601602 ], [ -53.491516644999905, -27.459258066 ], [ -53.478332174999899, -27.456795348 ], [ -53.474377894, -27.453125692999901 ], [ -53.47002766299989, -27.4534088149999 ], [ -53.468233539, -27.458584557999899 ], [ -53.473465863999898, -27.463895302 ], [ -53.477909279999892, -27.462815593 ], [ -53.479154235999893, -27.464414824 ], [ -53.479297261999896, -27.469717053999901 ], [ -53.47682003300001, -27.471099294999902 ], [ -53.474329049999895, -27.46897014 ], [ -53.463476313999891, -27.469749949999901 ], [ -53.45742718799989, -27.473643890999899 ], [ -53.455319158, -27.480529193999903 ], [ -53.465355395999893, -27.47871093 ], [ -53.467306124999894, -27.479360925 ], [ -53.461562326, -27.485931858999901 ], [ -53.45833125099989, -27.486773908 ], [ -53.460521228999902, -27.488808327 ], [ -53.459295617999899, -27.493399553 ], [ -53.45442027099989, -27.496823224 ], [ -53.447227251, -27.49676506 ], [ -53.449627238999895, -27.489535436 ], [ -53.447411421, -27.488052117999896 ], [ -53.4431421849999, -27.488442092 ], [ -53.442153143, -27.491933166 ], [ -53.436080065999896, -27.498350990999899 ], [ -53.431968862, -27.500398979999893 ], [ -53.428058033999903, -27.500461470999898 ], [ -53.424328021999891, -27.503700169999899 ], [ -53.425067263999892, -27.5045902919999 ], [ -53.436970899, -27.504067743999897 ], [ -53.443146412, -27.50509878 ], [ -53.437254324, -27.509032132 ], [ -53.430159595, -27.508798408 ], [ -53.426245069999894, -27.511272059 ], [ -53.4289194, -27.513375741999901 ], [ -53.438599751, -27.514749804 ], [ -53.433266493, -27.517149334 ], [ -53.430540876, -27.520253306 ], [ -53.431536057999892, -27.522975421 ], [ -53.430197729, -27.524181874 ], [ -53.430507759, -27.529431526999907 ], [ -53.424864044999893, -27.528290222 ], [ -53.419662409999894, -27.5355140029999 ], [ -53.411296299, -27.535321813999904 ], [ -53.406109844999889, -27.539116912999901 ], [ -53.404024555, -27.542638178999901 ], [ -53.404501282999902, -27.54472657 ], [ -53.41100094, -27.545147708999899 ], [ -53.409565617999903, -27.549631057999903 ], [ -53.410994912, -27.555008202999904 ], [ -53.406136612999894, -27.558235259 ], [ -53.406822059, -27.561072619 ], [ -53.409937328999895, -27.562487306 ], [ -53.415788698, -27.561811770999988 ], [ -53.414979227999893, -27.565325913 ], [ -53.412377004999897, -27.566992489 ], [ -53.403346638999892, -27.566353907 ], [ -53.400620230999891, -27.569033117999897 ], [ -53.406666577, -27.570026442 ], [ -53.407066020999892, -27.571073123 ], [ -53.401884214999903, -27.57329607 ], [ -53.399667482, -27.581467620999895 ], [ -53.394809855999902, -27.580790497999892 ], [ -53.395166058, -27.5856442209999 ], [ -53.3937762159999, -27.585322323 ], [ -53.390795571, -27.580360554 ], [ -53.38611444, -27.586018700999897 ], [ -53.380519730999893, -27.589061086999898 ], [ -53.380708830999893, -27.590557192999889 ], [ -53.383590945, -27.590827198999904 ], [ -53.382525345, -27.595177405 ], [ -53.38375553, -27.600337327 ], [ -53.388299081, -27.599160852 ], [ -53.393833424, -27.601622485999901 ], [ -53.391714677, -27.603572309 ], [ -53.393330933, -27.606599683999892 ], [ -53.389640614, -27.611155013 ], [ -53.383880398, -27.608914479 ], [ -53.381148112999895, -27.610217142999897 ], [ -53.384118792, -27.612689477999901 ], [ -53.382927132, -27.616285289 ], [ -53.384434897999895, -27.619059197 ], [ -53.383097511, -27.621330798 ], [ -53.384945602, -27.621251193 ], [ -53.386343188, -27.616759193 ], [ -53.388769951, -27.617090322 ], [ -53.390971033, -27.615055248 ], [ -53.395072093, -27.615347304999904 ], [ -53.395271388, -27.6124930739999 ], [ -53.398882836, -27.612422566 ], [ -53.402960733, -27.614887155 ], [ -53.405995834, -27.614732108999895 ], [ -53.400477627, -27.620505449999907 ], [ -53.401115354999895, -27.621852929999903 ], [ -53.410055258999897, -27.623601596999904 ], [ -53.41446933799989, -27.623178235 ], [ -53.420825405, -27.629559997999898 ], [ -53.422727326, -27.635020261 ], [ -53.431236, -27.635076725 ], [ -53.434801368, -27.631876352999896 ], [ -53.452128107, -27.622664853999904 ], [ -53.455170255, -27.618828137 ] ] ] } }
]
}
