{
"type": "FeatureCollection",
"name": "bairros_alegria",
"crs": { "type": "name", "properties": { "name": "urn:ogc:def:crs:OGC:1.3:CRS84" } },
"features": [
{ "type": "Feature", "properties": { "code_muni": 4300455.0, "name_muni": "Alegria", "code_state": 43.0, "abbrev_state": "RS", "name_state": "Rio Grande do Sul", "code_region": 4.0, "name_region": "Sul", "year": 2022.0 }, "geometry": { "type": "Polygon", "coordinates": [ [ [ -54.059697013999902, -27.765208077999898 ], [ -54.059014576, -27.759981106999899 ], [ -54.060986025, -27.749873458 ], [ -54.058734637, -27.744676031 ], [ -54.061839652999893, -27.738669122 ], [ -54.064615601, -27.740090102 ], [ -54.066510792, -27.7448856419999 ], [ -54.067341532999897, -27.743428379 ], [ -54.065838819, -27.73494406 ], [ -54.063374159, -27.733230702999901 ], [ -54.060556247, -27.732196917999893 ], [ -54.060781807999895, -27.7378257949999 ], [ -54.057209596999897, -27.740186048999895 ], [ -54.045573111, -27.737465143999902 ], [ -54.038880059, -27.739272954999898 ], [ -54.038080425, -27.741189667 ], [ -54.041872622, -27.746741616 ], [ -54.041919510999897, -27.751479715999906 ], [ -54.040515765999899, -27.752213108999989 ], [ -54.030196835, -27.750215693 ], [ -54.026572041, -27.7464935369999 ], [ -54.02422359, -27.740694721 ], [ -54.019091977999899, -27.7397375379999 ], [ -54.017381582, -27.744131647 ], [ -54.017910182, -27.749702134999897 ], [ -54.022640452, -27.755704296 ], [ -54.018886363, -27.759219620999904 ], [ -54.019008540999899, -27.766443426 ], [ -54.016919701999903, -27.766796402999901 ], [ -54.008732756, -27.755180283 ], [ -54.004028165, -27.753055597999904 ], [ -54.002214973, -27.754221263 ], [ -54.004480443, -27.756020368999895 ], [ -54.005292001, -27.762493451999905 ], [ -54.000687216, -27.770396527999893 ], [ -53.99540017, -27.770091706999896 ], [ -53.989740904, -27.764690236 ], [ -53.988754887, -27.770196018 ], [ -53.98590696, -27.775579606 ], [ -53.97695465, -27.774680933999896 ], [ -53.980338107, -27.781925475 ], [ -53.979597678999895, -27.784300087 ], [ -53.972049238, -27.781223697 ], [ -53.968138559999893, -27.781876074 ], [ -53.960813922999897, -27.787992249999903 ], [ -53.959608106, -27.789832879999903 ], [ -53.961312491999898, -27.791910298999898 ], [ -53.963142973999894, -27.792013381999904 ], [ -53.973319781, -27.785776219 ], [ -53.972938244, -27.792956225 ], [ -53.981596679999896, -27.793021568 ], [ -53.972230445, -27.798549564 ], [ -53.974176543999903, -27.799815829 ], [ -53.973315382, -27.800854081999898 ], [ -53.974801014, -27.804657872 ], [ -53.97054406, -27.808386475 ], [ -53.96829722, -27.807423518 ], [ -53.963136178999896, -27.808941768 ], [ -53.960619708, -27.807823589 ], [ -53.9560216369999, -27.810628155 ], [ -53.954595104, -27.815069650999906 ], [ -53.962289203999902, -27.813528886 ], [ -53.966993535, -27.8160748089999 ], [ -53.958449303999899, -27.822351822 ], [ -53.966212662, -27.822446931999899 ], [ -53.966324114, -27.82411811 ], [ -53.96930194, -27.825491612 ], [ -53.977348580999902, -27.837809913999902 ], [ -53.979402536, -27.836837515 ], [ -53.985561716999889, -27.837473401 ], [ -53.986874913999898, -27.836312215999989 ], [ -53.98679729, -27.840508213 ], [ -53.988559467, -27.842285422 ], [ -53.989694503999893, -27.843010181 ], [ -53.991593242, -27.841977519999908 ], [ -53.997357776999898, -27.844252466999897 ], [ -54.004505606, -27.841107243 ], [ -54.047308621999896, -27.8652626219999 ], [ -54.050244478, -27.874921651 ], [ -54.048904003, -27.881560115999893 ], [ -54.059628264, -27.882012217999893 ], [ -54.060990961999892, -27.878634782999899 ], [ -54.065630412, -27.877154103 ], [ -54.08284908, -27.876237095 ], [ -54.08977901, -27.874197153999901 ], [ -54.096885152, -27.877091105 ], [ -54.102641739, -27.876231500999907 ], [ -54.11040014, -27.877983961 ], [ -54.111306949, -27.881033919999908 ], [ -54.114786782, -27.882674802999901 ], [ -54.123441001999893, -27.881258492 ], [ -54.125805022, -27.873117880999892 ], [ -54.120437925, -27.868016369 ], [ -54.122067414, -27.862537014999905 ], [ -54.116396938, -27.864097527999895 ], [ -54.114765986999899, -27.861008103 ], [ -54.125424068, -27.847803654 ], [ -54.127654058, -27.842257242999899 ], [ -54.134259867, -27.842649004999899 ], [ -54.133001098, -27.836159123 ], [ -54.136342259999893, -27.836097197 ], [ -54.14189629, -27.842267845 ], [ -54.14441806699989, -27.841131818 ], [ -54.145468520999891, -27.837661508999901 ], [ -54.141112436, -27.833632141999907 ], [ -54.138970442, -27.829009261 ], [ -54.14679575600001, -27.826029433 ], [ -54.136565686, -27.818731565999901 ], [ -54.129571215999896, -27.817056830999896 ], [ -54.127575459999903, -27.815071325 ], [ -54.135311324, -27.807024746 ], [ -54.131303998, -27.806945027 ], [ -54.125467639999989, -27.809580519 ], [ -54.123653882, -27.806954328 ], [ -54.14325904, -27.798682837999898 ], [ -54.153814089, -27.800769424999896 ], [ -54.160759320999894, -27.797234298 ], [ -54.160693750999897, -27.79543302 ], [ -54.156706884, -27.796437295 ], [ -54.149645127, -27.792942232 ], [ -54.138926083999898, -27.796606090999898 ], [ -54.136953477, -27.794924099999896 ], [ -54.13547654, -27.789290754 ], [ -54.131938810999898, -27.791970238 ], [ -54.131786685, -27.797599588 ], [ -54.130226249, -27.799578143 ], [ -54.123112985, -27.798556413 ], [ -54.124152841999901, -27.792773202 ], [ -54.131233282, -27.786086646999902 ], [ -54.1286824969999, -27.783426579 ], [ -54.119605317, -27.78156612 ], [ -54.123078713, -27.779777054 ], [ -54.137421961, -27.777649102999902 ], [ -54.143299655, -27.775203169 ], [ -54.142790224999892, -27.773382297 ], [ -54.138619221999903, -27.770480972 ], [ -54.125758328, -27.768725393999894 ], [ -54.122547536, -27.77332753 ], [ -54.115534328, -27.768007782 ], [ -54.107294913, -27.769096342999905 ], [ -54.105656269, -27.770487004 ], [ -54.108535941999904, -27.772256286999898 ], [ -54.110016647999892, -27.77731088 ], [ -54.104283709999898, -27.786126784 ], [ -54.098046490999899, -27.780965020999897 ], [ -54.093110431, -27.780319023999905 ], [ -54.090981966999898, -27.783168599999989 ], [ -54.090399614, -27.787290792 ], [ -54.088608946, -27.787983835 ], [ -54.087330463999891, -27.786665618 ], [ -54.086179231, -27.787279334999901 ], [ -54.085036972999895, -27.7845627529999 ], [ -54.082919478, -27.784889900999897 ], [ -54.07783864, -27.782340545 ], [ -54.070370098, -27.770995958 ], [ -54.058530138, -27.768004811 ], [ -54.059697013999902, -27.765208077999898 ] ] ] } }
]
}
