{
"type": "FeatureCollection",
"name": "bairros_augusto_pestana",
"crs": { "type": "name", "properties": { "name": "urn:ogc:def:crs:OGC:1.3:CRS84" } },
"features": [
{ "type": "Feature", "properties": { "name": "Esperança", "code_muni": 4301503.0, "name_muni": "Augusto Pestana" }, "geometry": { "type": "Polygon", "coordinates": [ [ [ -53.99241090000001, -28.5090271 ], [ -53.992483, -28.5098831 ], [ -53.9924926, -28.5109408 ], [ -53.9924945, -28.5111435 ], [ -53.9924955, -28.5112509 ], [ -53.9924964, -28.5113525 ], [ -53.992502, -28.5119686 ], [ -53.993459, -28.511958 ], [ -53.9937059, -28.5119571 ], [ -53.9938327, -28.5119558 ], [ -53.9945851, -28.5119482 ], [ -53.9953292, -28.5119407 ], [ -53.9960546, -28.5119137 ], [ -53.9961118, -28.5118516 ], [ -53.9961505, -28.5117207 ], [ -53.9962766, -28.5115369 ], [ -53.9963999, -28.5114096 ], [ -53.9965475, -28.5112988 ], [ -53.99667620000001, -28.5111197 ], [ -53.9967486, -28.5108864 ], [ -53.9968666, -28.510679 ], [ -53.9969659, -28.5104032 ], [ -53.9971456, -28.510052 ], [ -53.9972148, -28.5099304 ], [ -53.9967513, -28.5098588 ], [ -53.99526, -28.5098375 ], [ -53.9952546, -28.5094746 ], [ -53.9945734, -28.5094699 ], [ -53.9945197, -28.5081641 ], [ -53.9925295, -28.5081971 ], [ -53.9923936, -28.5082683 ], [ -53.99241090000001, -28.5090271 ] ] ] } }
]
}
