{
"type": "FeatureCollection",
"name": "bairros_silveira_martins",
"crs": { "type": "name", "properties": { "name": "urn:ogc:def:crs:OGC:1.3:CRS84" } },
"features": [
{ "type": "Feature", "properties": { "code_muni": 4320651.0, "name_muni": "Silveira Martins", "code_state": 43.0, "abbrev_state": "RS", "name_state": "Rio Grande do Sul", "code_region": 4.0, "name_region": "Sul", "year": 2022.0 }, "geometry": { "type": "Polygon", "coordinates": [ [ [ -53.631846327999902, -29.670736522 ], [ -53.632400732, -29.668915284 ], [ -53.627691507, -29.661269171999891 ], [ -53.627616756999892, -29.658567064999904 ], [ -53.623009056999891, -29.656050614 ], [ -53.618730215, -29.648826697999901 ], [ -53.621239729, -29.645293901999896 ], [ -53.630322123, -29.638163767 ], [ -53.638038482999903, -29.63814716099991 ], [ -53.638906128, -29.633175126 ], [ -53.64176934599989, -29.630926636 ], [ -53.642122204, -29.628089452 ], [ -53.650036644999908, -29.622821309 ], [ -53.648941398, -29.618868835999898 ], [ -53.644658593, -29.613570877 ], [ -53.636166687, -29.61042194 ], [ -53.627227319, -29.6047289639999 ], [ -53.6242558759999, -29.604538352 ], [ -53.615357807, -29.596978161 ], [ -53.582850848, -29.577038242 ], [ -53.578305282, -29.578354549 ], [ -53.571122014, -29.578095182 ], [ -53.565682663, -29.580084773 ], [ -53.562308832, -29.579338449 ], [ -53.560235557999903, -29.576670276 ], [ -53.553219479999903, -29.572463618 ], [ -53.549726977, -29.574350835 ], [ -53.536856496, -29.591941630999901 ], [ -53.530376025999892, -29.595984805999908 ], [ -53.529594221, -29.615416788999894 ], [ -53.526781608, -29.613906535999902 ], [ -53.524291182999896, -29.608221387999901 ], [ -53.522735119999894, -29.607835098999896 ], [ -53.516378236, -29.612689937 ], [ -53.515071356, -29.621062394 ], [ -53.510562469, -29.623809074999905 ], [ -53.509213798, -29.623628176 ], [ -53.505945649, -29.618785118999902 ], [ -53.500353527999899, -29.617337904999903 ], [ -53.495642642, -29.620998982999893 ], [ -53.490075619, -29.621544243 ], [ -53.487272893999901, -29.625913293999901 ], [ -53.483791981, -29.626338231 ], [ -53.486458888999898, -29.622314247 ], [ -53.488257358999903, -29.615203365999893 ], [ -53.4871645489999, -29.6140705779999 ], [ -53.477391651999902, -29.612406806 ], [ -53.467575312999891, -29.639688806 ], [ -53.526331779, -29.63922424 ], [ -53.547174009999893, -29.660894097 ], [ -53.547161214, -29.674128306999897 ], [ -53.53665233999989, -29.681003189 ], [ -53.5297654949999, -29.695761343999887 ], [ -53.545260067999898, -29.702231234 ], [ -53.544754599, -29.704071513 ], [ -53.551769055, -29.69978236 ], [ -53.556625714999896, -29.687686525999894 ], [ -53.586084422999896, -29.694702371999899 ], [ -53.592640625999898, -29.680336419999897 ], [ -53.604754134, -29.67767212 ], [ -53.614583328, -29.670554369999902 ], [ -53.631846327999902, -29.670736522 ] ] ] } }
]
}
