{
"type": "FeatureCollection",
"name": "bairros_cruz_alta",
"crs": { "type": "name", "properties": { "name": "urn:ogc:def:crs:OGC:1.3:CRS84" } },
"features": [
{ "type": "Feature", "properties": { "code_muni": 4306106.0, "name_muni": "Cruz Alta", "code_state": 43.0, "abbrev_state": "RS", "name_state": "Rio Grande do Sul", "code_region": 4.0, "name_region": "Sul", "year": 2022.0 }, "geometry": { "type": "Polygon", "coordinates": [ [ [ -53.460804778, -28.552361673999901 ], [ -53.45464829, -28.552776471999906 ], [ -53.431163937999898, -28.566245377 ], [ -53.426044597, -28.572245563 ], [ -53.417598042, -28.598551213999901 ], [ -53.410603029999898, -28.603306598 ], [ -53.377638167, -28.606442648 ], [ -53.338684359999903, -28.60407753 ], [ -53.321943453, -28.610873641999884 ], [ -53.314594034, -28.61658146 ], [ -53.309887219, -28.622981664999905 ], [ -53.308154629999891, -28.633253774999989 ], [ -53.305085665999989, -28.637260296 ], [ -53.298684317, -28.641097957999904 ], [ -53.289003052999902, -28.640120899999904 ], [ -53.286107123, -28.642150162 ], [ -53.283738688, -28.646612795999904 ], [ -53.280084992999896, -28.647825897 ], [ -53.279098556999898, -28.653867486 ], [ -53.276445732999896, -28.657354042 ], [ -53.274505056, -28.657820947999898 ], [ -53.275549644, -28.661071901999897 ], [ -53.273222072, -28.66170634 ], [ -53.270572027, -28.660596773 ], [ -53.269371545, -28.664950831999896 ], [ -53.264344676999897, -28.663741686 ], [ -53.263431744999892, -28.669213317 ], [ -53.261777663, -28.670934804 ], [ -53.259105749999904, -28.669718429999897 ], [ -53.254774993, -28.670601416999897 ], [ -53.254450317, -28.674409779 ], [ -53.249892950999893, -28.676191789 ], [ -53.24502992299989, -28.676346110999905 ], [ -53.242888687999901, -28.680589097999899 ], [ -53.240658533, -28.682098677999903 ], [ -53.264586424, -28.7109958459999 ], [ -53.259590937, -28.717671288 ], [ -53.262000632, -28.725500490999895 ], [ -53.260849637, -28.729785217 ], [ -53.272902127999899, -28.729191923 ], [ -53.27735766099989, -28.73088673900001 ], [ -53.280185423, -28.727241460999906 ], [ -53.285524554999895, -28.725751311999897 ], [ -53.290828119, -28.725868545 ], [ -53.293194277999895, -28.731867257 ], [ -53.298839323, -28.735929631000012 ], [ -53.300414556, -28.735660804 ], [ -53.300985079, -28.738535565999893 ], [ -53.303443584, -28.739075157999899 ], [ -53.302492291, -28.74126899800001 ], [ -53.303828342, -28.740953786 ], [ -53.309214639999901, -28.745576491999895 ], [ -53.310421991999903, -28.748650251 ], [ -53.31913866, -28.751688047999888 ], [ -53.325163378999896, -28.751639764999904 ], [ -53.32511548, -28.756859854 ], [ -53.322949337, -28.755836713999894 ], [ -53.319301099, -28.756794607 ], [ -53.319405533, -28.760426621 ], [ -53.323208978, -28.762095003999896 ], [ -53.321498995, -28.763672555 ], [ -53.322918348, -28.76476505999991 ], [ -53.321682197, -28.76558711 ], [ -53.323323634, -28.769401858 ], [ -53.327095178, -28.768440869 ], [ -53.328484611, -28.770226984 ], [ -53.324294454, -28.77225777 ], [ -53.326090574, -28.774024289 ], [ -53.327826681, -28.773659413 ], [ -53.328595650999901, -28.776396097 ], [ -53.325773634, -28.780154271999901 ], [ -53.327794001, -28.780035321999893 ], [ -53.32944012, -28.781905708 ], [ -53.333107506, -28.7804757819999 ], [ -53.330937165, -28.785756159999892 ], [ -53.33419115, -28.784698533 ], [ -53.337372629999891, -28.781288843999988 ], [ -53.341107658999896, -28.783211141 ], [ -53.345184281999899, -28.783425233999907 ], [ -53.347695931, -28.785342931999903 ], [ -53.349178514, -28.784928481 ], [ -53.353592863999893, -28.781406414999896 ], [ -53.348465925, -28.7780443619999 ], [ -53.349185922999901, -28.776740533 ], [ -53.352518843, -28.777396493 ], [ -53.357077151999903, -28.773840478999904 ], [ -53.356547539, -28.779027189 ], [ -53.357991639, -28.780433968 ], [ -53.360593621, -28.777083918 ], [ -53.363737818999901, -28.777337583 ], [ -53.364110211000011, -28.773786327 ], [ -53.3668915, -28.773437857 ], [ -53.368332054999897, -28.775251673 ], [ -53.367795793, -28.777204067999907 ], [ -53.371390735, -28.777078444 ], [ -53.373915971, -28.779726170999904 ], [ -53.372418507, -28.78501512 ], [ -53.377159774999903, -28.788472351999896 ], [ -53.379291441, -28.787142165 ], [ -53.381524492, -28.788306291 ], [ -53.382357087999893, -28.786523487 ], [ -53.382398260999899, -28.790018582999902 ], [ -53.383652218, -28.790772923 ], [ -53.385461963, -28.785842375 ], [ -53.383284193, -28.781028447 ], [ -53.384618160999892, -28.779236352999902 ], [ -53.388870093, -28.779614032 ], [ -53.3906464189999, -28.777479959999894 ], [ -53.393368983, -28.780880087999904 ], [ -53.395363180999901, -28.777298577 ], [ -53.399664164999891, -28.780934793 ], [ -53.40529889, -28.778545008 ], [ -53.402414929, -28.776003921 ], [ -53.403357566, -28.773936358999901 ], [ -53.4054615269999, -28.773226571 ], [ -53.405162435, -28.772121341999899 ], [ -53.406455029, -28.772054508999901 ], [ -53.405528045, -28.763515932 ], [ -53.40949502, -28.760605450999893 ], [ -53.409677297, -28.758794748999904 ], [ -53.411119286, -28.759197789 ], [ -53.405103841, -28.756083587 ], [ -53.405018168, -28.754658352 ], [ -53.408651151, -28.750929562 ], [ -53.415956782, -28.751613232 ], [ -53.41919003999989, -28.749328835000011 ], [ -53.420467113, -28.752097444 ], [ -53.42403508, -28.754691997 ], [ -53.428490556, -28.754251649 ], [ -53.429428196999893, -28.758099326 ], [ -53.431826138, -28.754973627 ], [ -53.433969422, -28.755930045999904 ], [ -53.436313073999898, -28.754329137 ], [ -53.434700075, -28.751178922 ], [ -53.437122334, -28.74941474 ], [ -53.437006587, -28.745919216999908 ], [ -53.44060970999989, -28.745485699 ], [ -53.443559149, -28.743225728 ], [ -53.443775507999895, -28.753451672 ], [ -53.446494714, -28.755224955999893 ], [ -53.449540841, -28.754023312 ], [ -53.449281825999897, -28.750786370999901 ], [ -53.452256051999903, -28.749243661 ], [ -53.454701933, -28.749923795 ], [ -53.457013872999902, -28.747987622 ], [ -53.457221585999903, -28.747135048 ], [ -53.454217669999899, -28.746881878 ], [ -53.456502316999902, -28.744882559 ], [ -53.454577625999903, -28.744438859 ], [ -53.454895271999902, -28.741719194 ], [ -53.456702483, -28.741827507 ], [ -53.458313098, -28.745350012999904 ], [ -53.458212832999891, -28.742438325 ], [ -53.4601722519999, -28.740703787 ], [ -53.458847192, -28.739598624999893 ], [ -53.464352167, -28.737288099 ], [ -53.46810416599989, -28.739157976999891 ], [ -53.469470331, -28.741357886999904 ], [ -53.473126333, -28.741678167 ], [ -53.472130006, -28.744217174 ], [ -53.476486560999895, -28.746278905999901 ], [ -53.478028184, -28.751306026999885 ], [ -53.48112227, -28.755205880999902 ], [ -53.484397107999889, -28.755349709 ], [ -53.487408285, -28.758019291 ], [ -53.491120786999893, -28.756513901999888 ], [ -53.493342385999902, -28.762127740999986 ], [ -53.498307558, -28.766356970999894 ], [ -53.503799893, -28.7658434149999 ], [ -53.509823583, -28.768870781 ], [ -53.514222558, -28.773799015999909 ], [ -53.520760329, -28.771085596 ], [ -53.52159706, -28.769524114 ], [ -53.525386381, -28.76873296 ], [ -53.530076715, -28.765277606 ], [ -53.53672983, -28.765017997 ], [ -53.544295636, -28.754037024999899 ], [ -53.547468937, -28.743386791 ], [ -53.552963978, -28.738004138999905 ], [ -53.559953301999897, -28.735623922999896 ], [ -53.564616801999897, -28.732076263999904 ], [ -53.564390585, -28.743069372 ], [ -53.562250092999896, -28.74689611 ], [ -53.563174655999902, -28.750158370999891 ], [ -53.564419562999902, -28.752511967 ], [ -53.567618803999899, -28.7543749179999 ], [ -53.569277686, -28.758045245999892 ], [ -53.573326111, -28.761148616 ], [ -53.577907019, -28.762243638 ], [ -53.580955076, -28.777755192 ], [ -53.584332435, -28.782250028 ], [ -53.583967344, -28.7863775 ], [ -53.585709933, -28.786374454999901 ], [ -53.58459017, -28.788781668999906 ], [ -53.585624159, -28.792593648 ], [ -53.583458151999899, -28.792938740999904 ], [ -53.5834233429999, -28.79467611 ], [ -53.581189889, -28.796458779 ], [ -53.581642285, -28.802017474 ], [ -53.578396378, -28.803004068 ], [ -53.580716459, -28.806834414 ], [ -53.578323358, -28.808421594 ], [ -53.577755801, -28.811434114 ], [ -53.575950190999897, -28.811332568999905 ], [ -53.573958284999897, -28.813972132999901 ], [ -53.572182313, -28.813613758 ], [ -53.571529541, -28.815609862 ], [ -53.572914658999906, -28.817024203 ], [ -53.570855257999895, -28.816808099 ], [ -53.565829455, -28.825931155999985 ], [ -53.562529610999903, -28.827261393999905 ], [ -53.561741422999901, -28.832875612999896 ], [ -53.557489098, -28.837609325 ], [ -53.55632328, -28.841722026999896 ], [ -53.553915124, -28.842450314 ], [ -53.555315045, -28.847673689 ], [ -53.55259255, -28.848997202 ], [ -53.552848906999905, -28.855542855999893 ], [ -53.550612795999903, -28.855449063 ], [ -53.555310052, -28.857745425 ], [ -53.550902777, -28.858165525999894 ], [ -53.553600716999902, -28.86079962 ], [ -53.550621712999892, -28.861578526 ], [ -53.551849569999902, -28.863767064999909 ], [ -53.54999158, -28.866463735 ], [ -53.551473067, -28.867124083 ], [ -53.547983292, -28.8693505869999 ], [ -53.546196435999903, -28.872616007 ], [ -53.547703686, -28.875525421 ], [ -53.545804405, -28.876468816999907 ], [ -53.547944549, -28.878326014 ], [ -53.54711378, -28.880318971999898 ], [ -53.548722997, -28.883729563 ], [ -53.545841763999903, -28.883432104 ], [ -53.545902675, -28.885363965 ], [ -53.543939260999892, -28.886349940999896 ], [ -53.547460402, -28.887392032 ], [ -53.546993082, -28.889500315 ], [ -53.54952258, -28.89529055 ], [ -53.551711548, -28.8940790139999 ], [ -53.553822259999897, -28.896234186 ], [ -53.5618411459999, -28.897381477999897 ], [ -53.556590158999896, -28.900083703999893 ], [ -53.553403083, -28.898541005 ], [ -53.550392998999889, -28.899399359 ], [ -53.549317035999898, -28.903780175999898 ], [ -53.546996153, -28.904724976999905 ], [ -53.548710172, -28.906301722 ], [ -53.551079962999893, -28.905159760999894 ], [ -53.552936100999901, -28.907435226 ], [ -53.555609323999896, -28.907955308999902 ], [ -53.556010091, -28.910693712 ], [ -53.553981608, -28.911797427 ], [ -53.559150352, -28.916533356999899 ], [ -53.558495197, -28.918912745999908 ], [ -53.556222391999903, -28.918510679000011 ], [ -53.553324141, -28.920735415 ], [ -53.556448960999901, -28.921302168999897 ], [ -53.55525698, -28.924638548 ], [ -53.557676458999893, -28.924346977 ], [ -53.562492227999897, -28.927735393 ], [ -53.56093509, -28.931865059999989 ], [ -53.561504027999902, -28.934526731999899 ], [ -53.563246159999899, -28.935120648999895 ], [ -53.563381724, -28.931865951 ], [ -53.566150987, -28.931635746 ], [ -53.564986808999898, -28.927777981 ], [ -53.570110628, -28.927198383 ], [ -53.569395285, -28.931804944 ], [ -53.569949161999901, -28.935526578 ], [ -53.571932128, -28.936376835 ], [ -53.57111953, -28.938243317999898 ], [ -53.572171205, -28.941489741999895 ], [ -53.566203908, -28.9408907329999 ], [ -53.567669725, -28.942382008 ], [ -53.564413381, -28.943964987 ], [ -53.565521382, -28.944849018 ], [ -53.565010851, -28.947753962 ], [ -53.562681553999901, -28.947490850999895 ], [ -53.561120372999895, -28.949291543999905 ], [ -53.563725089999892, -28.950827171 ], [ -53.566842312999896, -28.949704993 ], [ -53.568228522, -28.954335233999892 ], [ -53.572430153, -28.953030511 ], [ -53.573180032, -28.948777079 ], [ -53.577498519999892, -28.94651799 ], [ -53.57707842699989, -28.943876748 ], [ -53.582070616, -28.943894144999906 ], [ -53.583200452, -28.940693828999905 ], [ -53.584950669, -28.94008752500001 ], [ -53.589030293999897, -28.942320432 ], [ -53.587403778999892, -28.9450979339999 ], [ -53.589045359999901, -28.946560057999907 ], [ -53.594106327, -28.940807455 ], [ -53.595007683999896, -28.937967237999896 ], [ -53.597312267999897, -28.939322988 ], [ -53.599534134999899, -28.944067232999899 ], [ -53.601715375, -28.944199114999908 ], [ -53.602725488, -28.941035268 ], [ -53.608822333, -28.938020722 ], [ -53.612864133, -28.940610987 ], [ -53.618343653999901, -28.9411120349999 ], [ -53.621126554999897, -28.945580533999895 ], [ -53.624080248, -28.945427316 ], [ -53.623231276, -28.944480305 ], [ -53.627784474, -28.943063836999986 ], [ -53.629780668, -28.945335751 ], [ -53.636837323999899, -28.946655093999897 ], [ -53.639795255, -28.944685348 ], [ -53.637914415, -28.940447924 ], [ -53.632122234, -28.93871887800001 ], [ -53.637956912999989, -28.935598531 ], [ -53.637293857, -28.937504971999903 ], [ -53.638740302, -28.938320872 ], [ -53.64698685, -28.932545891 ], [ -53.648824421, -28.9350823689999 ], [ -53.648319682, -28.93845992 ], [ -53.652700100999908, -28.941307917999893 ], [ -53.660763604, -28.939293941999907 ], [ -53.662815489, -28.94008765 ], [ -53.664176761, -28.937807495999902 ], [ -53.668832758999891, -28.936693943 ], [ -53.6684675179999, -28.934470836999896 ], [ -53.670854727999895, -28.930727902999891 ], [ -53.669228607, -28.929928145 ], [ -53.670513006, -28.926573167999901 ], [ -53.673945021999899, -28.925764096000012 ], [ -53.679521785, -28.918159886999902 ], [ -53.678849859, -28.916905077 ], [ -53.683062405, -28.908833695999895 ], [ -53.683322094999902, -28.901315935999897 ], [ -53.690441049, -28.902287053 ], [ -53.694245813999899, -28.896762291999899 ], [ -53.696414024, -28.895433680999897 ], [ -53.701247897, -28.895865832 ], [ -53.703060764999989, -28.894712261999906 ], [ -53.703998052, -28.89066235 ], [ -53.711692378, -28.886533219999897 ], [ -53.716724803, -28.885447665 ], [ -53.720293249, -28.880904194 ], [ -53.719928683, -28.87503162 ], [ -53.728148634999989, -28.870294509 ], [ -53.728362116, -28.863485676 ], [ -53.734356047999896, -28.864667833999899 ], [ -53.736958700999892, -28.864143317 ], [ -53.739032444, -28.861982852 ], [ -53.74165862800001, -28.862267607 ], [ -53.750940844999903, -28.86809826 ], [ -53.756521792999891, -28.867264851999895 ], [ -53.760408696, -28.864950329 ], [ -53.772282807, -28.844724395000011 ], [ -53.777812347999898, -28.839442806 ], [ -53.777517046999897, -28.831821885 ], [ -53.783178721, -28.830549899999902 ], [ -53.787107509, -28.809196146 ], [ -53.795924465, -28.802783534999897 ], [ -53.795243929, -28.799241258999899 ], [ -53.793516414, -28.799289245 ], [ -53.793285206999897, -28.797762401999893 ], [ -53.788975146, -28.79682012099989 ], [ -53.786985887, -28.794883211 ], [ -53.780765091, -28.7990013259999 ], [ -53.776559727999896, -28.797169113999892 ], [ -53.770796984, -28.784862755999896 ], [ -53.765553368, -28.782537590999894 ], [ -53.759528879999898, -28.7685429809999 ], [ -53.745067491, -28.759194336999901 ], [ -53.744718499, -28.757065481 ], [ -53.746655408, -28.753915821 ], [ -53.745414303, -28.738189334 ], [ -53.734277071, -28.728871226 ], [ -53.738238139, -28.722288349999907 ], [ -53.738680922999905, -28.715927957 ], [ -53.732713147, -28.714614871 ], [ -53.730060802, -28.709214207999903 ], [ -53.721357794, -28.708786691999901 ], [ -53.723240174, -28.704635858999897 ], [ -53.724053763, -28.693407016 ], [ -53.729138613, -28.689195002 ], [ -53.729868855999889, -28.681831362 ], [ -53.734549721, -28.678790761999903 ], [ -53.734973006, -28.673392417999896 ], [ -53.73726314, -28.67042366 ], [ -53.736617504, -28.668019972 ], [ -53.738571862999898, -28.663134073 ], [ -53.738556595, -28.655739788999902 ], [ -53.740118337, -28.654256569 ], [ -53.734988143999892, -28.655043984 ], [ -53.7314038009999, -28.658010623999896 ], [ -53.727572047, -28.658019147999902 ], [ -53.722991517, -28.662870148 ], [ -53.720965177, -28.659772836999892 ], [ -53.715260655, -28.658877533 ], [ -53.713768296999895, -28.656974994999896 ], [ -53.717619209, -28.643303649 ], [ -53.717639163999898, -28.635411077999894 ], [ -53.724771379999893, -28.622428428 ], [ -53.730115665, -28.607681326 ], [ -53.732980921, -28.605208153 ], [ -53.735449617, -28.599926072999903 ], [ -53.735299215999902, -28.596192495 ], [ -53.737193945999906, -28.592694035 ], [ -53.73579219, -28.586287915 ], [ -53.736508442999892, -28.582030331999896 ], [ -53.737808441, -28.581533017 ], [ -53.738311054, -28.577921608999901 ], [ -53.740959120999896, -28.577486609999895 ], [ -53.742757594999901, -28.575185711 ], [ -53.7386466889999, -28.576318568 ], [ -53.738035286999896, -28.575386382 ], [ -53.742547824, -28.571327835 ], [ -53.748189931, -28.572622865 ], [ -53.751318512, -28.570434415 ], [ -53.7570696, -28.569956138 ], [ -53.761471243, -28.571613988 ], [ -53.762282651, -28.569417514999891 ], [ -53.760206143999895, -28.570183117999896 ], [ -53.761504686, -28.567932654999897 ], [ -53.765959138, -28.5679117769999 ], [ -53.768787003999897, -28.5650856419999 ], [ -53.767760409999894, -28.56388816 ], [ -53.771863593, -28.563395208 ], [ -53.773438969, -28.561738036999895 ], [ -53.768966378999892, -28.559630028999905 ], [ -53.772112475, -28.5600170079999 ], [ -53.774615228, -28.558829751 ], [ -53.773505494999895, -28.556992825999902 ], [ -53.774346298, -28.555897114999905 ], [ -53.778007013, -28.555986178999891 ], [ -53.779707752, -28.553952226999986 ], [ -53.778804985, -28.556291960999907 ], [ -53.781585768999911, -28.561287619 ], [ -53.783053719999899, -28.558924283 ], [ -53.78091832, -28.557146600999896 ], [ -53.783318801999897, -28.552642405 ], [ -53.78626983, -28.551979806 ], [ -53.785981579, -28.551074613 ], [ -53.776803324, -28.547062589999889 ], [ -53.77158342, -28.541690608 ], [ -53.768651056, -28.542483826 ], [ -53.7636266, -28.538117824 ], [ -53.753769422999895, -28.53487417 ], [ -53.747591691, -28.530650415 ], [ -53.735657451999899, -28.531310479999895 ], [ -53.728046167999892, -28.524525658 ], [ -53.723048279999901, -28.537571463999896 ], [ -53.717326955, -28.537345103 ], [ -53.714824452, -28.534020805 ], [ -53.708603965, -28.534150504 ], [ -53.70201432399989, -28.530754021999893 ], [ -53.694649485999896, -28.511168982999909 ], [ -53.697682450999892, -28.508313786 ], [ -53.698333541, -28.503852131 ], [ -53.7000826949999, -28.503039771 ], [ -53.699113321, -28.492115068 ], [ -53.70061399, -28.490038560999903 ], [ -53.704205844999898, -28.489346053 ], [ -53.705286985, -28.485487185 ], [ -53.704226764999902, -28.482433859 ], [ -53.705491564999896, -28.480832194 ], [ -53.702893349, -28.481025821999907 ], [ -53.700953637999895, -28.483830360999896 ], [ -53.69873118999989, -28.481830594 ], [ -53.692902175, -28.482625261 ], [ -53.690291126, -28.486303872 ], [ -53.691594467, -28.487915038 ], [ -53.689587059, -28.49149104 ], [ -53.688077409999892, -28.490302314 ], [ -53.687815432, -28.485504837999901 ], [ -53.682503824, -28.48992572 ], [ -53.6809843509999, -28.48969649 ], [ -53.679739954, -28.4949229549999 ], [ -53.677951952999898, -28.496514471999895 ], [ -53.67870514, -28.500778167 ], [ -53.675757886, -28.5035813339999 ], [ -53.673838895, -28.499900539999892 ], [ -53.672407839, -28.501253002999899 ], [ -53.673360784999893, -28.497667175999901 ], [ -53.675174984, -28.49798155 ], [ -53.674827863, -28.496573417 ], [ -53.673671884, -28.495659767999896 ], [ -53.672653443999891, -28.497231637 ], [ -53.669783144999897, -28.497223451 ], [ -53.66714044, -28.503340641 ], [ -53.669347607, -28.503800741 ], [ -53.669845365, -28.507514280999899 ], [ -53.666891560999893, -28.51017991 ], [ -53.667998419, -28.512426373 ], [ -53.66589768099989, -28.512267548 ], [ -53.664643461, -28.514595879999888 ], [ -53.663733086, -28.512369065 ], [ -53.665390099, -28.509991613 ], [ -53.663045393999901, -28.509513502999901 ], [ -53.659934403, -28.512179131 ], [ -53.660589348, -28.506422159999897 ], [ -53.658323236999891, -28.506061939999903 ], [ -53.653941651, -28.5025841789999 ], [ -53.650804463, -28.506520402 ], [ -53.651505254, -28.5091139859999 ], [ -53.649016461, -28.509611744 ], [ -53.646386854999896, -28.5141963629999 ], [ -53.640606960999897, -28.513096054 ], [ -53.639378939, -28.5108233939999 ], [ -53.637964256, -28.514455066 ], [ -53.635455814999894, -28.5154112869999 ], [ -53.634443924, -28.517625001999896 ], [ -53.631522867999891, -28.516750649999899 ], [ -53.631647307, -28.518810453999894 ], [ -53.629400844, -28.519979530999901 ], [ -53.625497369, -28.518604146 ], [ -53.622098202, -28.521420411 ], [ -53.61864009, -28.522324236 ], [ -53.618450155999895, -28.523699622 ], [ -53.61485778, -28.522265290999897 ], [ -53.61040415, -28.52612292 ], [ -53.609716458, -28.523463841 ], [ -53.606526873, -28.520699970999903 ], [ -53.604719885999891, -28.525711348999902 ], [ -53.602885052, -28.525938519 ], [ -53.601417184999903, -28.523579447 ], [ -53.600698542000011, -28.526831908 ], [ -53.598459608, -28.524343960999907 ], [ -53.595585035999903, -28.526305486 ], [ -53.591858575999893, -28.526143845 ], [ -53.591500347, -28.527961204 ], [ -53.588695673, -28.525925413 ], [ -53.586085404, -28.526471494 ], [ -53.58574028, -28.529468388999902 ], [ -53.581437159, -28.528336907999989 ], [ -53.584014662999891, -28.526488969 ], [ -53.582354575, -28.523933308 ], [ -53.580222674, -28.524164846 ], [ -53.577051033, -28.525851146 ], [ -53.578029611, -28.5289528879999 ], [ -53.575888971, -28.530289696 ], [ -53.575535111, -28.528808722999905 ], [ -53.572870232999897, -28.528834935 ], [ -53.570342969, -28.5221356079999 ], [ -53.567249962999902, -28.526218113 ], [ -53.568368338, -28.529245588 ], [ -53.562038162, -28.536095632999899 ], [ -53.558660182, -28.545373405 ], [ -53.549971238999902, -28.548429816999892 ], [ -53.537418117, -28.541858530999896 ], [ -53.53310421, -28.542919542999989 ], [ -53.531768121, -28.541465564 ], [ -53.531881644999899, -28.538452815 ], [ -53.529161438, -28.538930924999896 ], [ -53.528436631, -28.537758572 ], [ -53.524496042999893, -28.539070646 ], [ -53.524963237, -28.536175786999902 ], [ -53.521147088, -28.534010101 ], [ -53.52112089, -28.537442015 ], [ -53.52517282, -28.549178637999894 ], [ -53.517662777999902, -28.565805521 ], [ -53.512886041999892, -28.570625919999898 ], [ -53.500765185, -28.566766108 ], [ -53.496180566, -28.563587438999903 ], [ -53.488818979, -28.566923295 ], [ -53.485133818999905, -28.566862167 ], [ -53.482426711, -28.565045783999903 ], [ -53.480383280999895, -28.560784272 ], [ -53.475554149999901, -28.557430951999901 ], [ -53.473656991, -28.553892063 ], [ -53.470871289999891, -28.552817951999899 ], [ -53.468306087, -28.554592854 ], [ -53.460804778, -28.552361673999901 ] ] ] } }
]
}
