{
"type": "FeatureCollection",
"name": "bairros_bom_principio",
"crs": { "type": "name", "properties": { "name": "urn:ogc:def:crs:OGC:1.3:CRS84" } },
"features": [
{ "type": "Feature", "properties": { "code_muni": 4302352.0, "name_muni": "Bom Princípio", "code_state": 43.0, "abbrev_state": "RS", "name_state": "Rio Grande do Sul", "code_region": 4.0, "name_region": "Sul", "year": 2022.0 }, "geometry": { "type": "Polygon", "coordinates": [ [ [ -51.347922691999891, -29.411968988999902 ], [ -51.348044078, -29.413423307999896 ], [ -51.345198877, -29.413864042999894 ], [ -51.332134534, -29.409621463999894 ], [ -51.329547496, -29.415574971999892 ], [ -51.330106068, -29.4271854529999 ], [ -51.334404885, -29.434745533 ], [ -51.334885078, -29.444334405999893 ], [ -51.333266108, -29.448431169999903 ], [ -51.335049662, -29.453177282 ], [ -51.33410529, -29.456285167 ], [ -51.338410042, -29.460120634 ], [ -51.340114861, -29.473618819 ], [ -51.329233395, -29.474744800999897 ], [ -51.326697016, -29.475879618 ], [ -51.324696102, -29.479019811999905 ], [ -51.32248133, -29.479436334999892 ], [ -51.3221085919999, -29.481055836999893 ], [ -51.313609011, -29.4812713869999 ], [ -51.316897820999891, -29.484959934999893 ], [ -51.319393787, -29.491654653 ], [ -51.326353777, -29.497164903999909 ], [ -51.323369062, -29.499928006999898 ], [ -51.325083779999893, -29.500976844 ], [ -51.324300107999903, -29.5040231199999 ], [ -51.325951959999891, -29.505229377 ], [ -51.325078726, -29.506581446 ], [ -51.328699250999897, -29.508837986999904 ], [ -51.331327444, -29.517736894999896 ], [ -51.333494694, -29.51826454 ], [ -51.342897383, -29.513264117999892 ], [ -51.347606626, -29.517031228 ], [ -51.341351807, -29.532032875 ], [ -51.354404476, -29.541151396 ], [ -51.358628516, -29.542376745 ], [ -51.359889279999898, -29.5393060869999 ], [ -51.372087302, -29.536608358 ], [ -51.373288359, -29.548995483999899 ], [ -51.376244635, -29.552429033999893 ], [ -51.387860004999901, -29.527593699 ], [ -51.392570587, -29.526802135 ], [ -51.392782558, -29.528483548999901 ], [ -51.395599392999891, -29.528809247 ], [ -51.396228294, -29.527171021999902 ], [ -51.395244702999896, -29.525882207999903 ], [ -51.396787057, -29.524236456 ], [ -51.393125020999904, -29.5203052909999 ], [ -51.394349862, -29.518062482999898 ], [ -51.392462426999892, -29.515235651 ], [ -51.392819501, -29.51312152799991 ], [ -51.3954834419999, -29.510974133999987 ], [ -51.392650171, -29.509889530999903 ], [ -51.392621404, -29.507890387 ], [ -51.387481976999901, -29.502658138 ], [ -51.39356721, -29.500718579 ], [ -51.400110174, -29.495803819999907 ], [ -51.394665588999892, -29.488064621 ], [ -51.387624709, -29.482801406 ], [ -51.387128770999894, -29.475240976999906 ], [ -51.384595668, -29.471039275999896 ], [ -51.392346499, -29.469018343999899 ], [ -51.391940796, -29.45783743 ], [ -51.3993589889999, -29.448280178999898 ], [ -51.405418088, -29.445199258999907 ], [ -51.403505734, -29.433476637 ], [ -51.399944209700898, -29.417040918118495 ], [ -51.397474788999901, -29.417439989999892 ], [ -51.390491088, -29.41405413 ], [ -51.392096498999891, -29.41377047 ], [ -51.391530092, -29.410294317 ], [ -51.388461257, -29.410815871 ], [ -51.384622791, -29.408663020999899 ], [ -51.377427879, -29.408767710999896 ], [ -51.372708224, -29.406533362999895 ], [ -51.361051346, -29.404889786 ], [ -51.366128325, -29.402758746000011 ], [ -51.370400523999891, -29.397545181999899 ], [ -51.365117284, -29.398911418 ], [ -51.3584451, -29.397877421 ], [ -51.358387337999901, -29.394359144 ], [ -51.356883067999895, -29.394346798999894 ], [ -51.3554838969999, -29.401010973 ], [ -51.350546778, -29.403331366 ], [ -51.351347307, -29.407657997999898 ], [ -51.348802669, -29.409097969 ], [ -51.345217890999891, -29.408584044 ], [ -51.346000386999897, -29.412068111999901 ], [ -51.347922691999891, -29.411968988999902 ] ] ] } }
]
}
