{
"type": "FeatureCollection",
"name": "bairros_morrinhos_do_sul",
"crs": { "type": "name", "properties": { "name": "urn:ogc:def:crs:OGC:1.3:CRS84" } },
"features": [
{ "type": "Feature", "properties": { "code_muni": 4312443.0, "name_muni": "Morrinhos do Sul", "code_state": 43.0, "abbrev_state": "RS", "name_state": "Rio Grande do Sul", "code_region": 4.0, "name_region": "Sul", "year": 2022.0 }, "geometry": { "type": "Polygon", "coordinates": [ [ [ -49.954540940999898, -29.285364033 ], [ -49.948265411, -29.275686387999905 ], [ -49.942305846999894, -29.272080436 ], [ -49.94038511, -29.263182746 ], [ -49.932652678999894, -29.257748884 ], [ -49.92984826299989, -29.252571928999885 ], [ -49.90373973, -29.253606863 ], [ -49.886729898999903, -29.258394446999905 ], [ -49.885241188, -29.260854627 ], [ -49.897138788999889, -29.281759152999896 ], [ -49.896563718, -29.287070838 ], [ -49.884051751, -29.32621233 ], [ -49.885504924, -29.3280157579999 ], [ -49.888981696, -29.327941612 ], [ -49.894814214999897, -29.331546349999897 ], [ -49.896071708, -29.336872808999903 ], [ -49.901174908, -29.339874689999899 ], [ -49.897672143, -29.3414349459999 ], [ -49.896637896, -29.343638529 ], [ -49.897990283999903, -29.346809146999902 ], [ -49.897203819, -29.353723448 ], [ -49.894042338, -29.354110165999895 ], [ -49.892163287, -29.357303135999892 ], [ -49.893213925999895, -29.358494087999897 ], [ -49.890916172999901, -29.364151842 ], [ -49.890694458, -29.372251990999899 ], [ -49.893242502, -29.374448549 ], [ -49.902673341, -29.376957303 ], [ -49.928537461, -29.395065406 ], [ -49.943714599, -29.401887584 ], [ -49.953122886, -29.4003242809999 ], [ -49.955968226, -29.401025 ], [ -49.961003780999896, -29.405592425 ], [ -49.981509645999893, -29.398097655999909 ], [ -50.024305549, -29.432325955999907 ], [ -50.022251024, -29.424118345 ], [ -50.01341952, -29.420267694999893 ], [ -50.023794094, -29.419505025 ], [ -50.032268262999899, -29.422424409 ], [ -50.034023440999896, -29.419369762 ], [ -50.028548126, -29.415222454999896 ], [ -50.0293040399999, -29.411192921999906 ], [ -50.026492276999903, -29.412602270999987 ], [ -50.021747242999901, -29.412109488999896 ], [ -50.009717690999899, -29.401115349 ], [ -50.013595225999893, -29.390417783 ], [ -50.012263667, -29.385055554 ], [ -50.02351883099989, -29.385329046 ], [ -50.025300264, -29.383916977999895 ], [ -50.019425269999893, -29.380345919 ], [ -50.020285838999897, -29.374104772999903 ], [ -50.016688164, -29.362838949 ], [ -50.014289775999892, -29.361369888999903 ], [ -50.006968435, -29.361363002 ], [ -50.002501474, -29.35748469 ], [ -50.004551734999893, -29.352984948 ], [ -50.017048529, -29.346105507999905 ], [ -50.029406826999903, -29.343780761999898 ], [ -50.030574492, -29.340784234999909 ], [ -50.029372318, -29.3333304659999 ], [ -50.034315244, -29.326309900999902 ], [ -50.033868723, -29.323534958 ], [ -50.022383119, -29.311865116999989 ], [ -50.006307826999894, -29.302484521999901 ], [ -50.001915088, -29.302328461999902 ], [ -49.999031773, -29.303881714999893 ], [ -49.993444485999909, -29.301002071 ], [ -49.988095248, -29.301105063999987 ], [ -49.982834698, -29.297426771999902 ], [ -49.971890001, -29.292906092 ], [ -49.96405242, -29.287024475 ], [ -49.954540940999898, -29.285364033 ] ] ] } }
]
}
