{
"type": "FeatureCollection",
"name": "bairros_piratini",
"crs": { "type": "name", "properties": { "name": "urn:ogc:def:crs:OGC:1.3:CRS84" } },
"features": [
{ "type": "Feature", "properties": { "name": "Moraes", "code_muni": 4314605.0, "name_muni": "Piratini" }, "geometry": { "type": "Polygon", "coordinates": [ [ [ -53.1157637, -31.4030444 ], [ -53.1211066, -31.3919085 ], [ -53.1207419, -31.3870727 ], [ -53.1159353, -31.3872926 ], [ -53.1136823, -31.3988137 ], [ -53.1120086, -31.3999859 ], [ -53.1157637, -31.4030444 ] ] ] } },
{ "type": "Feature", "properties": { "name": "Cerro da Fumaça", "code_muni": 4314605.0, "name_muni": "Piratini" }, "geometry": { "type": "Polygon", "coordinates": [ [ [ -53.1120086, -31.3999859 ], [ -53.1026745, -31.4068904 ], [ -53.1014514, -31.408351 ], [ -53.1058932, -31.412146400000015 ], [ -53.1157637, -31.4030444 ], [ -53.1120086, -31.3999859 ] ] ] } },
{ "type": "Feature", "properties": { "name": "Centro", "code_muni": 4314605.0, "name_muni": "Piratini" }, "geometry": { "type": "Polygon", "coordinates": [ [ [ -53.1058829, -31.4431895 ], [ -53.1056671, -31.4427177 ], [ -53.1055216, -31.4424937 ], [ -53.1052712, -31.4422319 ], [ -53.1048862, -31.441915 ], [ -53.1044977, -31.4417141 ], [ -53.1042136, -31.4416236 ], [ -53.1040061, -31.4415608 ], [ -53.1033866, -31.4414259 ], [ -53.1028085, -31.4412772 ], [ -53.1025782, -31.4412272 ], [ -53.1024531, -31.4412076 ], [ -53.1018001, -31.4411765 ], [ -53.1002783, -31.4410341 ], [ -53.1001907, -31.4410156 ], [ -53.1001217, -31.4410253 ], [ -53.1001344, -31.4410556 ], [ -53.1003839, -31.4418543 ], [ -53.1003022, -31.4418792 ], [ -53.0994123, -31.4421128 ], [ -53.0995639, -31.4425423 ], [ -53.0996707, -31.442927899999987 ], [ -53.0997007, -31.4431363 ], [ -53.0997266, -31.443333500000012 ], [ -53.0998569, -31.4441304 ], [ -53.1001477, -31.444640400000015 ], [ -53.1004007, -31.4450683 ], [ -53.1006848, -31.445558200000018 ], [ -53.1011549, -31.4463543 ], [ -53.1019056, -31.4474466 ], [ -53.1012981, -31.4476947 ], [ -53.1010638, -31.4478004 ], [ -53.1007707, -31.4480123 ], [ -53.1005165, -31.4481719 ], [ -53.1003358, -31.4482726 ], [ -53.1015372, -31.4497534 ], [ -53.102798, -31.4503976 ], [ -53.1032104, -31.4505419 ], [ -53.1034267, -31.4507707 ], [ -53.1038001, -31.4506535 ], [ -53.1040393, -31.4505721 ], [ -53.1041931, -31.450511 ], [ -53.1044529, -31.4504036 ], [ -53.1046821, -31.450287 ], [ -53.105394, -31.449856 ], [ -53.1057714, -31.4495977 ], [ -53.1059774, -31.449324799999985 ], [ -53.1060675, -31.4492143 ], [ -53.1061257, -31.4490979 ], [ -53.1061795, -31.449003399999988 ], [ -53.1063252, -31.4488312 ], [ -53.1065986, -31.448809499999989 ], [ -53.1067508, -31.4488296 ], [ -53.1067647, -31.4487838 ], [ -53.1068889, -31.44822820000001 ], [ -53.106972, -31.4478845 ], [ -53.1071958, -31.4469214 ], [ -53.1072288, -31.4467504 ], [ -53.1072124, -31.4466476 ], [ -53.1071689, -31.4465255 ], [ -53.1070889, -31.4463198 ], [ -53.1067845, -31.4455286 ], [ -53.1066506, -31.4451823 ], [ -53.1066048, -31.4450557 ], [ -53.106429, -31.444619 ], [ -53.1062328, -31.4441092 ], [ -53.1061637, -31.4439429 ], [ -53.1058829, -31.4431895 ] ] ] } },
{ "type": "Feature", "properties": { "name": "Bela Vista", "code_muni": 4314605.0, "name_muni": "Piratini" }, "geometry": { "type": "Polygon", "coordinates": [ [ [ -53.1011549, -31.4463543 ], [ -53.1006848, -31.445558200000018 ], [ -53.1004007, -31.4450683 ], [ -53.1001477, -31.444640400000015 ], [ -53.0998569, -31.4441304 ], [ -53.0997266, -31.443333500000012 ], [ -53.0997007, -31.4431363 ], [ -53.0996707, -31.442927899999987 ], [ -53.0995639, -31.4425423 ], [ -53.0994123, -31.4421128 ], [ -53.0982013, -31.4425042 ], [ -53.0971315, -31.4428608 ], [ -53.0969288, -31.4429466 ], [ -53.0966087, -31.44313 ], [ -53.0942346, -31.4443042 ], [ -53.094284, -31.444923 ], [ -53.094305, -31.4453437 ], [ -53.09434, -31.4461237 ], [ -53.0943538, -31.4463504 ], [ -53.094387, -31.446895500000011 ], [ -53.0945107, -31.448587899999989 ], [ -53.0945256, -31.448790099999986 ], [ -53.0945391, -31.4489726 ], [ -53.0946976, -31.4488793 ], [ -53.095047, -31.4487679 ], [ -53.0952291, -31.448739 ], [ -53.0958834, -31.4486817 ], [ -53.0967985, -31.448604 ], [ -53.097899, -31.4485098 ], [ -53.0985624, -31.4484764 ], [ -53.0993832, -31.448435 ], [ -53.099602, -31.448418 ], [ -53.0998387, -31.4483902 ], [ -53.1000443, -31.4483532 ], [ -53.1002027, -31.4483223 ], [ -53.1003358, -31.4482726 ], [ -53.1005165, -31.4481719 ], [ -53.1007707, -31.4480123 ], [ -53.1010638, -31.4478004 ], [ -53.1012981, -31.4476947 ], [ -53.1019056, -31.4474466 ], [ -53.1011549, -31.4463543 ] ] ] } },
{ "type": "Feature", "properties": { "name": "Trincheiras Republicanas", "code_muni": 4314605.0, "name_muni": "Piratini" }, "geometry": { "type": "Polygon", "coordinates": [ [ [ -53.1002027, -31.4483223 ], [ -53.1000443, -31.4483532 ], [ -53.0998387, -31.4483902 ], [ -53.099602, -31.448418 ], [ -53.0993832, -31.448435 ], [ -53.0985624, -31.4484764 ], [ -53.097899, -31.4485098 ], [ -53.0967985, -31.448604 ], [ -53.0958834, -31.4486817 ], [ -53.0952291, -31.448739 ], [ -53.095047, -31.4487679 ], [ -53.0946976, -31.4488793 ], [ -53.0945391, -31.4489726 ], [ -53.0945683, -31.4493675 ], [ -53.0946067, -31.4498949 ], [ -53.0946451, -31.4504276 ], [ -53.0946643, -31.4506839 ], [ -53.0946725, -31.4507937 ], [ -53.0946875, -31.4511849 ], [ -53.0946767, -31.451452 ], [ -53.0946663, -31.4516156 ], [ -53.0946577, -31.4517496 ], [ -53.094615, -31.4520279 ], [ -53.094559, -31.4522998 ], [ -53.0944586, -31.4527149 ], [ -53.0943866, -31.4529844 ], [ -53.0943022, -31.4532168 ], [ -53.0940719, -31.453875 ], [ -53.0939917, -31.4540992 ], [ -53.0938824, -31.4543841 ], [ -53.0938135, -31.4545836 ], [ -53.0939546, -31.454569899999985 ], [ -53.0941969, -31.4545363 ], [ -53.0942965, -31.4545013 ], [ -53.0945199, -31.454435199999985 ], [ -53.0946675, -31.4544064 ], [ -53.0948005, -31.4543977 ], [ -53.0949383, -31.4544078 ], [ -53.0950939, -31.4544352 ], [ -53.0952198, -31.4544794 ], [ -53.0954984, -31.4545895 ], [ -53.0956672, -31.454659699999986 ], [ -53.0957265, -31.4546921 ], [ -53.0959634, -31.4548213 ], [ -53.0960273, -31.4548608 ], [ -53.0962798, -31.4549778 ], [ -53.0965538, -31.4550892 ], [ -53.0966165, -31.4551089 ], [ -53.0968928, -31.4551959 ], [ -53.0972472, -31.455297899999987 ], [ -53.0975961, -31.4554105 ], [ -53.0978978, -31.455516 ], [ -53.0981819, -31.4555582 ], [ -53.0983204, -31.4555765 ], [ -53.0984387, -31.4555678 ], [ -53.0986204, -31.4555434 ], [ -53.0985412, -31.453334399999985 ], [ -53.0986807, -31.4533847 ], [ -53.0986995, -31.453451 ], [ -53.0991793, -31.453596 ], [ -53.0993549, -31.4536364 ], [ -53.0998614, -31.4537528 ], [ -53.0998505, -31.453697 ], [ -53.0998587, -31.4536425 ], [ -53.0998956, -31.453577 ], [ -53.1003249, -31.4528836 ], [ -53.1003722, -31.4528175 ], [ -53.100422, -31.4527708 ], [ -53.1007172, -31.4525518 ], [ -53.1011832, -31.4522383 ], [ -53.1012446, -31.4521985 ], [ -53.1013066, -31.4521743 ], [ -53.1015212, -31.4521239 ], [ -53.1017244, -31.4521251 ], [ -53.10192570000001, -31.4521656 ], [ -53.1020626, -31.4519489 ], [ -53.1023917, -31.4513071 ], [ -53.1026819, -31.4506569 ], [ -53.102798, -31.4503976 ], [ -53.1015372, -31.4497534 ], [ -53.1003358, -31.4482726 ], [ -53.1002027, -31.4483223 ] ] ] } },
{ "type": "Feature", "properties": { "name": "Sinuelo", "code_muni": 4314605.0, "name_muni": "Piratini" }, "geometry": { "type": "Polygon", "coordinates": [ [ [ -53.1067207, -31.4413002 ], [ -53.1066638, -31.4416758 ], [ -53.1066173, -31.4420014 ], [ -53.1065972, -31.4425048 ], [ -53.1065817, -31.442709199999985 ], [ -53.1065988, -31.4428132 ], [ -53.1065913, -31.4429415 ], [ -53.1065191, -31.4431745 ], [ -53.1063486, -31.4434997 ], [ -53.1061637, -31.4439429 ], [ -53.1062328, -31.4441092 ], [ -53.106429, -31.444619 ], [ -53.1066048, -31.4450557 ], [ -53.1066506, -31.4451823 ], [ -53.1067845, -31.4455286 ], [ -53.1070889, -31.4463198 ], [ -53.1071689, -31.4465255 ], [ -53.1072124, -31.4466476 ], [ -53.1072288, -31.4467504 ], [ -53.1071958, -31.4469214 ], [ -53.1075993, -31.4469954 ], [ -53.1083182, -31.4470498 ], [ -53.1084643, -31.4462177 ], [ -53.1095097, -31.4450936 ], [ -53.1098267, -31.4452032 ], [ -53.110024, -31.4446239 ], [ -53.1100642, -31.4444913 ], [ -53.110106, -31.444402199999988 ], [ -53.1101584, -31.4443071 ], [ -53.1101955, -31.444240700000012 ], [ -53.1102769, -31.4441329 ], [ -53.1106523, -31.4437013 ], [ -53.1103867, -31.443532 ], [ -53.1101137, -31.443366 ], [ -53.1096216, -31.4430234 ], [ -53.1091459, -31.4426221 ], [ -53.108813, -31.4423239 ], [ -53.1086994, -31.4422313 ], [ -53.1085497, -31.4420201 ], [ -53.1084625, -31.4419402 ], [ -53.1083336, -31.4418831 ], [ -53.1080817, -31.44177 ], [ -53.1075713, -31.4415713 ], [ -53.1067535, -31.4411776 ], [ -53.1067207, -31.4413002 ] ] ] } },
{ "type": "Feature", "properties": { "name": "Getúlio Vargas", "code_muni": 4314605.0, "name_muni": "Piratini" }, "geometry": { "type": "Polygon", "coordinates": [ [ [ -53.1102769, -31.4441329 ], [ -53.1101955, -31.444240700000012 ], [ -53.1101584, -31.4443071 ], [ -53.110106, -31.444402199999988 ], [ -53.1100642, -31.4444913 ], [ -53.110024, -31.4446239 ], [ -53.1098267, -31.4452032 ], [ -53.1095097, -31.4450936 ], [ -53.1084643, -31.4462177 ], [ -53.1083182, -31.4470498 ], [ -53.1075993, -31.4469954 ], [ -53.1071958, -31.4469214 ], [ -53.106972, -31.4478845 ], [ -53.1068889, -31.44822820000001 ], [ -53.1067647, -31.4487838 ], [ -53.1067508, -31.4488296 ], [ -53.1072369, -31.4489274 ], [ -53.1074837, -31.4489686 ], [ -53.1079544, -31.449067 ], [ -53.1087229, -31.4491745 ], [ -53.1093927, -31.4492454 ], [ -53.1096583, -31.449286600000011 ], [ -53.1102289, -31.4493656 ], [ -53.1104194, -31.4493913 ], [ -53.1106279, -31.4494448 ], [ -53.1107965, -31.4495023 ], [ -53.1110061, -31.4495967 ], [ -53.1111301, -31.4496505 ], [ -53.1113441, -31.4497448 ], [ -53.1115114, -31.4498161 ], [ -53.1118735, -31.449991399999984 ], [ -53.1119891, -31.4500452 ], [ -53.1122503, -31.450178500000014 ], [ -53.1140471, -31.4464767 ], [ -53.1127007, -31.444468 ], [ -53.1123687, -31.4445784 ], [ -53.11210410000001, -31.4446632 ], [ -53.1120326, -31.4446928 ], [ -53.1114139, -31.4442496 ], [ -53.1110604, -31.4439944 ], [ -53.1108811, -31.4439019 ], [ -53.1106523, -31.4437013 ], [ -53.1102769, -31.4441329 ] ] ] } },
{ "type": "Feature", "properties": { "name": "Calcáreo", "code_muni": 4314605.0, "name_muni": "Piratini" }, "geometry": { "type": "Polygon", "coordinates": [ [ [ -53.1125028, -31.4503049 ], [ -53.1137398, -31.4508741 ], [ -53.1140202, -31.4509456 ], [ -53.1151642, -31.4510863 ], [ -53.1170431, -31.4512613 ], [ -53.1174694, -31.4512783 ], [ -53.1174838, -31.4512366 ], [ -53.1177451, -31.450653 ], [ -53.11786750000001, -31.4504675 ], [ -53.1181161, -31.4502315 ], [ -53.119905, -31.4463394 ], [ -53.1180927, -31.443501799999989 ], [ -53.1174486, -31.4434973 ], [ -53.1171727, -31.4435065 ], [ -53.1165909, -31.4436092 ], [ -53.1162923, -31.4436263 ], [ -53.1158137, -31.4436387 ], [ -53.1155648, -31.443655899999989 ], [ -53.1152651, -31.443737599999984 ], [ -53.1148471, -31.4438455 ], [ -53.1141222, -31.4439792 ], [ -53.1137813, -31.4440871 ], [ -53.1133934, -31.4442177 ], [ -53.1127007, -31.444468 ], [ -53.1140471, -31.4464767 ], [ -53.1122503, -31.450178500000014 ], [ -53.1125028, -31.4503049 ] ] ] } },
{ "type": "Feature", "properties": { "name": "Erni Pereira Alves", "code_muni": 4314605.0, "name_muni": "Piratini" }, "geometry": { "type": "Polygon", "coordinates": [ [ [ -53.11786750000001, -31.4504675 ], [ -53.1177451, -31.450653 ], [ -53.1174838, -31.4512366 ], [ -53.1174694, -31.4512783 ], [ -53.1186524, -31.4513254 ], [ -53.1211066, -31.4513757 ], [ -53.1211733, -31.4513659 ], [ -53.1215455, -31.4513543 ], [ -53.121681100000011, -31.45135 ], [ -53.1220287, -31.4512938 ], [ -53.1222136, -31.451265 ], [ -53.1228307, -31.4511599 ], [ -53.1231365, -31.4511061 ], [ -53.1231826, -31.4510994 ], [ -53.1233503, -31.4510748 ], [ -53.1235914, -31.4510367 ], [ -53.1242233, -31.4509198 ], [ -53.1243464, -31.4508908 ], [ -53.119905, -31.4463394 ], [ -53.1181161, -31.4502315 ], [ -53.11786750000001, -31.4504675 ] ] ] } },
{ "type": "Feature", "properties": { "name": "Passo da Vila", "code_muni": 4314605.0, "name_muni": "Piratini" }, "geometry": { "type": "Polygon", "coordinates": [ [ [ -53.1211066, -31.4513757 ], [ -53.1186524, -31.4513254 ], [ -53.1174694, -31.4512783 ], [ -53.1170431, -31.4512613 ], [ -53.1155709, -31.4572362 ], [ -53.1155627, -31.4573679 ], [ -53.1155429, -31.457503 ], [ -53.1155196, -31.457606699999985 ], [ -53.1154751, -31.4577261 ], [ -53.1154495, -31.4578181 ], [ -53.1154443, -31.4579519 ], [ -53.1154154, -31.458111400000011 ], [ -53.1153936, -31.4583121 ], [ -53.115382, -31.4584154 ], [ -53.1153674, -31.4584765 ], [ -53.1240249, -31.457176 ], [ -53.1258917, -31.4524626 ], [ -53.1243464, -31.4508908 ], [ -53.1242233, -31.4509198 ], [ -53.1235914, -31.4510367 ], [ -53.1233503, -31.4510748 ], [ -53.1231826, -31.4510994 ], [ -53.1231365, -31.4511061 ], [ -53.1228307, -31.4511599 ], [ -53.1222136, -31.451265 ], [ -53.1220287, -31.4512938 ], [ -53.121681100000011, -31.45135 ], [ -53.1215455, -31.4513543 ], [ -53.1211733, -31.4513659 ], [ -53.1211066, -31.4513757 ] ] ] } },
{ "type": "Feature", "properties": { "name": "Pura Amaral", "code_muni": 4314605.0, "name_muni": "Piratini" }, "geometry": { "type": "Polygon", "coordinates": [ [ [ -53.1170431, -31.4512613 ], [ -53.1151642, -31.4510863 ], [ -53.1140202, -31.4509456 ], [ -53.1137398, -31.4508741 ], [ -53.1125028, -31.4503049 ], [ -53.1122503, -31.450178500000014 ], [ -53.1122517, -31.4502422 ], [ -53.1121304, -31.4506297 ], [ -53.1120677, -31.4508469 ], [ -53.1120034, -31.4510878 ], [ -53.1119872, -31.4516848 ], [ -53.112024, -31.4522346 ], [ -53.1120387, -31.452626499999987 ], [ -53.1120397, -31.452669 ], [ -53.1120465, -31.4527637 ], [ -53.1131244, -31.4589606 ], [ -53.1153674, -31.4584765 ], [ -53.115382, -31.4584154 ], [ -53.1153936, -31.4583121 ], [ -53.1154154, -31.458111400000011 ], [ -53.1154443, -31.4579519 ], [ -53.1154495, -31.4578181 ], [ -53.1154751, -31.4577261 ], [ -53.1155196, -31.457606699999985 ], [ -53.1155429, -31.457503 ], [ -53.1155627, -31.4573679 ], [ -53.1155709, -31.4572362 ], [ -53.1170431, -31.4512613 ] ] ] } },
{ "type": "Feature", "properties": { "name": "Parque da Bica", "code_muni": 4314605.0, "name_muni": "Piratini" }, "geometry": { "type": "Polygon", "coordinates": [ [ [ -53.105394, -31.449856 ], [ -53.1046821, -31.450287 ], [ -53.1044529, -31.4504036 ], [ -53.1041931, -31.450511 ], [ -53.1040393, -31.4505721 ], [ -53.1038001, -31.4506535 ], [ -53.1034267, -31.4507707 ], [ -53.103567, -31.45091 ], [ -53.1044258, -31.451788799999989 ], [ -53.1049761, -31.452376099999988 ], [ -53.1051241, -31.4525306 ], [ -53.1052298, -31.452711 ], [ -53.1052744, -31.4528166 ], [ -53.1053066, -31.452924199999988 ], [ -53.105462, -31.453434500000014 ], [ -53.1057363, -31.4542473 ], [ -53.105814, -31.454478699999985 ], [ -53.1060755, -31.4554737 ], [ -53.1049061, -31.4602785 ], [ -53.1131244, -31.4589606 ], [ -53.1120465, -31.4527637 ], [ -53.1120397, -31.452669 ], [ -53.1120387, -31.452626499999987 ], [ -53.112024, -31.4522346 ], [ -53.1119872, -31.4516848 ], [ -53.1120034, -31.4510878 ], [ -53.1120677, -31.4508469 ], [ -53.1121304, -31.4506297 ], [ -53.1122517, -31.4502422 ], [ -53.1122503, -31.450178500000014 ], [ -53.1119891, -31.4500452 ], [ -53.1118735, -31.449991399999984 ], [ -53.1115114, -31.4498161 ], [ -53.1113441, -31.4497448 ], [ -53.1111301, -31.4496505 ], [ -53.1110061, -31.4495967 ], [ -53.1107965, -31.4495023 ], [ -53.1106279, -31.4494448 ], [ -53.1104194, -31.4493913 ], [ -53.1102289, -31.4493656 ], [ -53.1096583, -31.449286600000011 ], [ -53.1093927, -31.4492454 ], [ -53.1087229, -31.4491745 ], [ -53.1079544, -31.449067 ], [ -53.1074837, -31.4489686 ], [ -53.1072369, -31.4489274 ], [ -53.1067508, -31.4488296 ], [ -53.1065986, -31.448809499999989 ], [ -53.1063252, -31.4488312 ], [ -53.1061795, -31.449003399999988 ], [ -53.1061257, -31.4490979 ], [ -53.1060675, -31.4492143 ], [ -53.1059774, -31.449324799999985 ], [ -53.1057714, -31.4495977 ], [ -53.105394, -31.449856 ] ] ] } },
{ "type": "Feature", "properties": { "name": "Princesa Isabel", "code_muni": 4314605.0, "name_muni": "Piratini" }, "geometry": { "type": "Polygon", "coordinates": [ [ [ -53.0986625, -31.4559849 ], [ -53.0986757, -31.4560923 ], [ -53.0987112, -31.456156 ], [ -53.0988789, -31.456338599999988 ], [ -53.0989305, -31.4564051 ], [ -53.098972, -31.4564644 ], [ -53.0989662, -31.4565487 ], [ -53.098962, -31.4566245 ], [ -53.0989682, -31.4567068 ], [ -53.0990381, -31.4569968 ], [ -53.0991125, -31.4611936 ], [ -53.1049061, -31.4602785 ], [ -53.1060755, -31.4554737 ], [ -53.105814, -31.454478699999985 ], [ -53.1057363, -31.4542473 ], [ -53.105462, -31.453434500000014 ], [ -53.1053066, -31.452924199999988 ], [ -53.1052744, -31.4528166 ], [ -53.1052298, -31.452711 ], [ -53.1051241, -31.4525306 ], [ -53.1049761, -31.452376099999988 ], [ -53.1044258, -31.451788799999989 ], [ -53.103567, -31.45091 ], [ -53.1034267, -31.4507707 ], [ -53.1032104, -31.4505419 ], [ -53.102798, -31.4503976 ], [ -53.1026819, -31.4506569 ], [ -53.1023917, -31.4513071 ], [ -53.1020626, -31.4519489 ], [ -53.10192570000001, -31.4521656 ], [ -53.1017244, -31.4521251 ], [ -53.1015212, -31.4521239 ], [ -53.1013066, -31.4521743 ], [ -53.1012446, -31.4521985 ], [ -53.1011832, -31.4522383 ], [ -53.1007172, -31.4525518 ], [ -53.100422, -31.4527708 ], [ -53.1003722, -31.4528175 ], [ -53.1003249, -31.4528836 ], [ -53.0998956, -31.453577 ], [ -53.0998587, -31.4536425 ], [ -53.0998505, -31.453697 ], [ -53.0998614, -31.4537528 ], [ -53.0993549, -31.4536364 ], [ -53.0991793, -31.453596 ], [ -53.0986995, -31.453451 ], [ -53.0986807, -31.4533847 ], [ -53.0985412, -31.453334399999985 ], [ -53.0986204, -31.4555434 ], [ -53.0986625, -31.4559849 ] ] ] } },
{ "type": "Feature", "properties": { "name": "Padre Reinaldo Wist", "code_muni": 4314605.0, "name_muni": "Piratini" }, "geometry": { "type": "Polygon", "coordinates": [ [ [ -53.0939546, -31.454569899999985 ], [ -53.0938135, -31.4545836 ], [ -53.0937444, -31.4547836 ], [ -53.0932567, -31.4561783 ], [ -53.0930017, -31.4569084 ], [ -53.0928825, -31.4573117 ], [ -53.0928278, -31.4575135 ], [ -53.0927731, -31.4577465 ], [ -53.0926343, -31.4587174 ], [ -53.092526, -31.459751 ], [ -53.0971599, -31.4615414 ], [ -53.0991125, -31.4611936 ], [ -53.0990381, -31.4569968 ], [ -53.0989682, -31.4567068 ], [ -53.098962, -31.4566245 ], [ -53.0989662, -31.4565487 ], [ -53.098972, -31.4564644 ], [ -53.0989305, -31.4564051 ], [ -53.0988789, -31.456338599999988 ], [ -53.0987112, -31.456156 ], [ -53.0986757, -31.4560923 ], [ -53.0986625, -31.4559849 ], [ -53.0986204, -31.4555434 ], [ -53.0984387, -31.4555678 ], [ -53.0983204, -31.4555765 ], [ -53.0981819, -31.4555582 ], [ -53.0978978, -31.455516 ], [ -53.0975961, -31.4554105 ], [ -53.0972472, -31.455297899999987 ], [ -53.0968928, -31.4551959 ], [ -53.0966165, -31.4551089 ], [ -53.0965538, -31.4550892 ], [ -53.0962798, -31.4549778 ], [ -53.0960273, -31.4548608 ], [ -53.0959634, -31.4548213 ], [ -53.0957265, -31.4546921 ], [ -53.0956672, -31.454659699999986 ], [ -53.0954984, -31.4545895 ], [ -53.0952198, -31.4544794 ], [ -53.0950939, -31.4544352 ], [ -53.0949383, -31.4544078 ], [ -53.0948005, -31.4543977 ], [ -53.0946675, -31.4544064 ], [ -53.0945199, -31.454435199999985 ], [ -53.0942965, -31.4545013 ], [ -53.0941969, -31.4545363 ], [ -53.0939546, -31.454569899999985 ] ] ] } },
{ "type": "Feature", "properties": { "name": "Antônio José Emigdio", "code_muni": 4314605.0, "name_muni": "Piratini" }, "geometry": { "type": "Polygon", "coordinates": [ [ [ -53.0865812, -31.4574414 ], [ -53.092526, -31.459751 ], [ -53.0926343, -31.4587174 ], [ -53.0927731, -31.4577465 ], [ -53.0928278, -31.4575135 ], [ -53.0928825, -31.4573117 ], [ -53.0930017, -31.4569084 ], [ -53.0932567, -31.4561783 ], [ -53.0937444, -31.4547836 ], [ -53.0938135, -31.4545836 ], [ -53.0938824, -31.4543841 ], [ -53.0939917, -31.4540992 ], [ -53.0940719, -31.453875 ], [ -53.0943022, -31.4532168 ], [ -53.0943866, -31.4529844 ], [ -53.0944586, -31.4527149 ], [ -53.094559, -31.4522998 ], [ -53.094615, -31.4520279 ], [ -53.0946577, -31.4517496 ], [ -53.0946663, -31.4516156 ], [ -53.0946767, -31.451452 ], [ -53.0946875, -31.4511849 ], [ -53.0946725, -31.4507937 ], [ -53.0946643, -31.4506839 ], [ -53.0946451, -31.4504276 ], [ -53.0946067, -31.4498949 ], [ -53.0945683, -31.4493675 ], [ -53.0945391, -31.4489726 ], [ -53.0945256, -31.448790099999986 ], [ -53.0945107, -31.448587899999989 ], [ -53.094387, -31.446895500000011 ], [ -53.0943538, -31.4463504 ], [ -53.0872679, -31.44633940000001 ], [ -53.0865812, -31.4574414 ] ] ] } },
{ "type": "Feature", "properties": { "name": "Farroupilha", "code_muni": 4314605.0, "name_muni": "Piratini" }, "geometry": { "type": "Polygon", "coordinates": [ [ [ -53.099995, -31.440751299999988 ], [ -53.1001217, -31.4410253 ], [ -53.1001907, -31.4410156 ], [ -53.1002783, -31.4410341 ], [ -53.1018001, -31.4411765 ], [ -53.1024531, -31.4412076 ], [ -53.1025782, -31.4412272 ], [ -53.1028085, -31.4412772 ], [ -53.1033866, -31.4414259 ], [ -53.1040061, -31.4415608 ], [ -53.1042136, -31.4416236 ], [ -53.1044977, -31.4417141 ], [ -53.1048862, -31.441915 ], [ -53.1052712, -31.4422319 ], [ -53.1055216, -31.4424937 ], [ -53.1056671, -31.4427177 ], [ -53.1058829, -31.4431895 ], [ -53.1061637, -31.4439429 ], [ -53.1063486, -31.4434997 ], [ -53.1065191, -31.4431745 ], [ -53.1065913, -31.4429415 ], [ -53.1065988, -31.4428132 ], [ -53.1065817, -31.442709199999985 ], [ -53.1065972, -31.4425048 ], [ -53.1066173, -31.4420014 ], [ -53.1066638, -31.4416758 ], [ -53.1067207, -31.4413002 ], [ -53.1067535, -31.4411776 ], [ -53.1068847, -31.4408629 ], [ -53.1070124, -31.440502 ], [ -53.1071788, -31.440103600000015 ], [ -53.1073434, -31.439704599999985 ], [ -53.1074273, -31.4393997 ], [ -53.1074657, -31.4391346 ], [ -53.107471, -31.4390276 ], [ -53.10747090000001, -31.4388569 ], [ -53.1073288, -31.4387925 ], [ -53.1066468, -31.438313 ], [ -53.1058119, -31.4376527 ], [ -53.1053407, -31.437324 ], [ -53.104777, -31.436894 ], [ -53.1044209, -31.4365572 ], [ -53.1042617, -31.436378099999985 ], [ -53.1038476, -31.4355951 ], [ -53.1036418, -31.4353226 ], [ -53.1035351, -31.4351296 ], [ -53.0986615, -31.4360129 ], [ -53.098134, -31.4361338 ], [ -53.0976023, -31.436255599999985 ], [ -53.0968515, -31.4364277 ], [ -53.0968794, -31.43666 ], [ -53.099995, -31.440751299999988 ] ] ] } },
{ "type": "Feature", "properties": { "name": "Vila Nova", "code_muni": 4314605.0, "name_muni": "Piratini" }, "geometry": { "type": "Polygon", "coordinates": [ [ [ -53.1003022, -31.4418792 ], [ -53.1003839, -31.4418543 ], [ -53.1001344, -31.4410556 ], [ -53.1001217, -31.4410253 ], [ -53.099995, -31.440751299999988 ], [ -53.0968794, -31.43666 ], [ -53.0967401, -31.4366379 ], [ -53.0963041, -31.4365845 ], [ -53.0958863, -31.4366598 ], [ -53.0954626, -31.4368691 ], [ -53.0945407, -31.4374193 ], [ -53.0943332, -31.4375326 ], [ -53.0938822, -31.437695 ], [ -53.0938542, -31.4381529 ], [ -53.093872, -31.4387464 ], [ -53.0939211, -31.4394811 ], [ -53.0939461, -31.4398012 ], [ -53.0939701, -31.4401111 ], [ -53.0939797, -31.4404653 ], [ -53.0939821, -31.4406484 ], [ -53.0939913, -31.440833199999986 ], [ -53.0940194, -31.4410825 ], [ -53.0940613, -31.441459 ], [ -53.0940942, -31.4419095 ], [ -53.0941237, -31.4424402 ], [ -53.0941474, -31.4428385 ], [ -53.0942346, -31.4443042 ], [ -53.0966087, -31.44313 ], [ -53.0969288, -31.4429466 ], [ -53.0971315, -31.4428608 ], [ -53.0982013, -31.4425042 ], [ -53.0994123, -31.4421128 ], [ -53.1003022, -31.4418792 ] ] ] } },
{ "type": "Feature", "properties": { "name": "Silvio Citrine Pereira", "code_muni": 4314605.0, "name_muni": "Piratini" }, "geometry": { "type": "Polygon", "coordinates": [ [ [ -53.0872679, -31.44633940000001 ], [ -53.0943538, -31.4463504 ], [ -53.09434, -31.4461237 ], [ -53.094305, -31.4453437 ], [ -53.094284, -31.444923 ], [ -53.0942346, -31.4443042 ], [ -53.0941474, -31.4428385 ], [ -53.0941237, -31.4424402 ], [ -53.0940942, -31.4419095 ], [ -53.0940613, -31.441459 ], [ -53.0940194, -31.4410825 ], [ -53.0939913, -31.440833199999986 ], [ -53.0939821, -31.4406484 ], [ -53.0939797, -31.4404653 ], [ -53.0939701, -31.4401111 ], [ -53.0939461, -31.4398012 ], [ -53.0939211, -31.4394811 ], [ -53.093872, -31.4387464 ], [ -53.0938542, -31.4381529 ], [ -53.0938822, -31.437695 ], [ -53.0937444, -31.4377279 ], [ -53.0934826, -31.4378589 ], [ -53.0929547, -31.438074499999985 ], [ -53.0923077, -31.438286800000011 ], [ -53.0917281, -31.4384391 ], [ -53.0885775, -31.4393133 ], [ -53.0882196, -31.4393978 ], [ -53.0879546, -31.4394281 ], [ -53.0876767, -31.439403 ], [ -53.0872679, -31.44633940000001 ] ] ] } },
{ "type": "Feature", "properties": { "name": "Vasco João Manetti", "code_muni": 4314605.0, "name_muni": "Piratini" }, "geometry": { "type": "Polygon", "coordinates": [ [ [ -53.0960565, -31.4336955 ], [ -53.0960138, -31.4337819 ], [ -53.0959263, -31.433863399999989 ], [ -53.0957806, -31.43406340000001 ], [ -53.0956412, -31.4342801 ], [ -53.0954287, -31.4346585 ], [ -53.0953808, -31.4347447 ], [ -53.0951315, -31.435217 ], [ -53.094828, -31.4356835 ], [ -53.0947383, -31.4358709 ], [ -53.0945344, -31.4362967 ], [ -53.094319, -31.436701599999985 ], [ -53.0941689, -31.436985499999984 ], [ -53.0940375, -31.4372694 ], [ -53.0939179, -31.4375666 ], [ -53.0938822, -31.437695 ], [ -53.0943332, -31.4375326 ], [ -53.0945407, -31.4374193 ], [ -53.0954626, -31.4368691 ], [ -53.0958863, -31.4366598 ], [ -53.0963041, -31.4365845 ], [ -53.0967401, -31.4366379 ], [ -53.0968794, -31.43666 ], [ -53.0968515, -31.4364277 ], [ -53.0967175, -31.4358489 ], [ -53.0965935, -31.435334 ], [ -53.096206, -31.4339028 ], [ -53.0961615, -31.4337439 ], [ -53.0960827, -31.4336256 ], [ -53.0960565, -31.4336955 ] ] ] } },
{ "type": "Feature", "properties": { "name": "Barbosa Lessa", "code_muni": 4314605.0, "name_muni": "Piratini" }, "geometry": { "type": "Polygon", "coordinates": [ [ [ -53.0944363, -31.4317512 ], [ -53.0937065, -31.4314502 ], [ -53.0926299, -31.4310108 ], [ -53.0923909, -31.430892299999989 ], [ -53.0883837, -31.4289927 ], [ -53.0876767, -31.439403 ], [ -53.0879546, -31.4394281 ], [ -53.0882196, -31.4393978 ], [ -53.0885775, -31.4393133 ], [ -53.0917281, -31.4384391 ], [ -53.0923077, -31.438286800000011 ], [ -53.0929547, -31.438074499999985 ], [ -53.0934826, -31.4378589 ], [ -53.0937444, -31.4377279 ], [ -53.0938822, -31.437695 ], [ -53.0939179, -31.4375666 ], [ -53.0940375, -31.4372694 ], [ -53.0941689, -31.436985499999984 ], [ -53.094319, -31.436701599999985 ], [ -53.0945344, -31.4362967 ], [ -53.0947383, -31.4358709 ], [ -53.094828, -31.4356835 ], [ -53.0951315, -31.435217 ], [ -53.0953808, -31.4347447 ], [ -53.0954287, -31.4346585 ], [ -53.0956412, -31.4342801 ], [ -53.0957806, -31.43406340000001 ], [ -53.0959263, -31.433863399999989 ], [ -53.0960138, -31.4337819 ], [ -53.0960565, -31.4336955 ], [ -53.0960827, -31.4336256 ], [ -53.0960827, -31.4335384 ], [ -53.0960387, -31.4333472 ], [ -53.0960117, -31.4331802 ], [ -53.0960046, -31.4331363 ], [ -53.0959831, -31.4329596 ], [ -53.0959573, -31.4327836 ], [ -53.0959524, -31.4326225 ], [ -53.0959717, -31.4324182 ], [ -53.0944363, -31.4317512 ] ] ] } },
{ "type": "Feature", "properties": { "name": "Bento Gonçalves", "code_muni": 4314605.0, "name_muni": "Piratini" }, "geometry": { "type": "Polygon", "coordinates": [ [ [ -53.1035351, -31.4351296 ], [ -53.1031557, -31.4344436 ], [ -53.102935, -31.4340689 ], [ -53.1028419, -31.4338187 ], [ -53.1026603, -31.4335249 ], [ -53.1024009, -31.4330478 ], [ -53.1021375, -31.4325504 ], [ -53.1019237, -31.4321549 ], [ -53.1018061, -31.4319578 ], [ -53.1015804, -31.431634500000012 ], [ -53.1011535, -31.4310804 ], [ -53.1007945, -31.4307309 ], [ -53.1006238, -31.43057 ], [ -53.1005199, -31.4305215 ], [ -53.0974174, -31.4245067 ], [ -53.0889416, -31.4195078 ], [ -53.0883837, -31.4289927 ], [ -53.0923909, -31.430892299999989 ], [ -53.0926299, -31.4310108 ], [ -53.0937065, -31.4314502 ], [ -53.0944363, -31.4317512 ], [ -53.0959717, -31.4324182 ], [ -53.0959524, -31.4326225 ], [ -53.0959573, -31.4327836 ], [ -53.0959831, -31.4329596 ], [ -53.0960046, -31.4331363 ], [ -53.0960117, -31.4331802 ], [ -53.0960387, -31.4333472 ], [ -53.0960827, -31.4335384 ], [ -53.0960827, -31.4336256 ], [ -53.0961615, -31.4337439 ], [ -53.096206, -31.4339028 ], [ -53.0965935, -31.435334 ], [ -53.0967175, -31.4358489 ], [ -53.0968515, -31.4364277 ], [ -53.0976023, -31.436255599999985 ], [ -53.098134, -31.4361338 ], [ -53.0986615, -31.4360129 ], [ -53.1035351, -31.4351296 ] ] ] } },
{ "type": "Feature", "properties": { "name": "Edi Amaral da Costa", "code_muni": 4314605.0, "name_muni": "Piratini" }, "geometry": { "type": "Polygon", "coordinates": [ [ [ -53.0974174, -31.4245067 ], [ -53.1005199, -31.4305215 ], [ -53.1006238, -31.43057 ], [ -53.1007945, -31.4307309 ], [ -53.1011535, -31.4310804 ], [ -53.1015804, -31.431634500000012 ], [ -53.1018061, -31.4319578 ], [ -53.1019237, -31.4321549 ], [ -53.1021375, -31.4325504 ], [ -53.1024009, -31.4330478 ], [ -53.1026603, -31.4335249 ], [ -53.1028419, -31.4338187 ], [ -53.102935, -31.4340689 ], [ -53.1031557, -31.4344436 ], [ -53.1035351, -31.4351296 ], [ -53.1036418, -31.4353226 ], [ -53.1038476, -31.4355951 ], [ -53.1042617, -31.436378099999985 ], [ -53.1044209, -31.4365572 ], [ -53.104777, -31.436894 ], [ -53.1053407, -31.437324 ], [ -53.1058119, -31.4376527 ], [ -53.1066468, -31.438313 ], [ -53.1073288, -31.4387925 ], [ -53.10747090000001, -31.4388569 ], [ -53.1074905, -31.4386343 ], [ -53.107801, -31.4366191 ], [ -53.1079962, -31.436136099999988 ], [ -53.1083308, -31.435628099999985 ], [ -53.1089657, -31.4349568 ], [ -53.1098494, -31.4341745 ], [ -53.1101705, -31.4339224 ], [ -53.1104515, -31.4336363 ], [ -53.1105898, -31.4334222 ], [ -53.1106886, -31.4332188 ], [ -53.1110376, -31.4325548 ], [ -53.0974174, -31.4245067 ] ] ] } },
{ "type": "Feature", "properties": { "name": "Pôr-do-Sol", "code_muni": 4314605.0, "name_muni": "Piratini" }, "geometry": { "type": "Polygon", "coordinates": [ [ [ -53.1141222, -31.4439792 ], [ -53.1148471, -31.4438455 ], [ -53.1152651, -31.443737599999984 ], [ -53.1155648, -31.443655899999989 ], [ -53.1158137, -31.4436387 ], [ -53.1162923, -31.4436263 ], [ -53.1165909, -31.4436092 ], [ -53.1171727, -31.4435065 ], [ -53.1174486, -31.4434973 ], [ -53.1180927, -31.443501799999989 ], [ -53.1110376, -31.4325548 ], [ -53.1106886, -31.4332188 ], [ -53.1105898, -31.4334222 ], [ -53.1104515, -31.4336363 ], [ -53.1101705, -31.4339224 ], [ -53.1098494, -31.4341745 ], [ -53.1089657, -31.4349568 ], [ -53.1083308, -31.435628099999985 ], [ -53.1079962, -31.436136099999988 ], [ -53.107801, -31.4366191 ], [ -53.1074905, -31.4386343 ], [ -53.10747090000001, -31.4388569 ], [ -53.107471, -31.4390276 ], [ -53.1074657, -31.4391346 ], [ -53.1074273, -31.4393997 ], [ -53.1073434, -31.439704599999985 ], [ -53.1071788, -31.440103600000015 ], [ -53.1070124, -31.440502 ], [ -53.1068847, -31.4408629 ], [ -53.1067535, -31.4411776 ], [ -53.1075713, -31.4415713 ], [ -53.1080817, -31.44177 ], [ -53.1083336, -31.4418831 ], [ -53.1084625, -31.4419402 ], [ -53.1085497, -31.4420201 ], [ -53.1086994, -31.4422313 ], [ -53.108813, -31.4423239 ], [ -53.1091459, -31.4426221 ], [ -53.1096216, -31.4430234 ], [ -53.1101137, -31.443366 ], [ -53.1103867, -31.443532 ], [ -53.1106523, -31.4437013 ], [ -53.1108811, -31.4439019 ], [ -53.1110604, -31.4439944 ], [ -53.1114139, -31.4442496 ], [ -53.1120326, -31.4446928 ], [ -53.11210410000001, -31.4446632 ], [ -53.1123687, -31.4445784 ], [ -53.1127007, -31.444468 ], [ -53.1133934, -31.4442177 ], [ -53.1137813, -31.4440871 ], [ -53.1141222, -31.4439792 ] ] ] } }
]
}
