{
"type": "FeatureCollection",
"name": "bairros_vila_flores",
"crs": { "type": "name", "properties": { "name": "urn:ogc:def:crs:OGC:1.3:CRS84" } },
"features": [
{ "type": "Feature", "properties": { "code_muni": 4323309.0, "name_muni": "Vila Flores", "code_state": 43.0, "abbrev_state": "RS", "name_state": "Rio Grande do Sul", "code_region": 4.0, "name_region": "Sul", "year": 2022.0 }, "geometry": { "type": "Polygon", "coordinates": [ [ [ -51.576421134, -28.83117168 ], [ -51.5000216729999, -28.8272048709999 ], [ -51.496452695, -28.824018533 ], [ -51.493739461, -28.823635247 ], [ -51.493354492, -28.829169062999878 ], [ -51.489262139999909, -28.827766879 ], [ -51.486465075999895, -28.828835533999897 ], [ -51.485443911999901, -28.832962531 ], [ -51.482841763, -28.835249854 ], [ -51.483081859, -28.84206026 ], [ -51.478969107999902, -28.849010208 ], [ -51.476482387, -28.849712993 ], [ -51.471846829, -28.848084474 ], [ -51.465844242999893, -28.850465395 ], [ -51.459505276181503, -28.861597739443706 ], [ -51.451349299013302, -28.863127438272603 ], [ -51.447819733735592, -28.865138714479787 ], [ -51.447767918816702, -28.871036923686397 ], [ -51.459023167308899, -28.880062871752507 ], [ -51.45590360700001, -28.886444949999898 ], [ -51.533020690999898, -28.887220926999891 ], [ -51.534247714999893, -28.878862921999893 ], [ -51.559457435999896, -28.879809361 ], [ -51.5594101309999, -28.891825137999898 ], [ -51.564605093999901, -28.891908255 ], [ -51.575245486, -28.895812813 ], [ -51.57704936399989, -28.897663307 ], [ -51.578452954999889, -28.89564501 ], [ -51.583457983, -28.893754424999894 ], [ -51.582250660999897, -28.888461649 ], [ -51.583527584, -28.886323779999898 ], [ -51.620777876, -28.886390997 ], [ -51.620434744, -28.872885396999894 ], [ -51.649720192, -28.872630516999898 ], [ -51.646560553, -28.864802429999905 ], [ -51.647964451, -28.853856868 ], [ -51.651432229, -28.848291545999903 ], [ -51.650992802, -28.844949766999896 ], [ -51.653981296, -28.845875641 ], [ -51.656758915999902, -28.844780351999901 ], [ -51.666201739, -28.837026599999902 ], [ -51.667182177, -28.834838514 ], [ -51.575239742999891, -28.833370753999894 ], [ -51.576421134, -28.83117168 ] ] ] } }
]
}
