{
"type": "FeatureCollection",
"name": "bairros_entre_rios_do_sul",
"crs": { "type": "name", "properties": { "name": "urn:ogc:def:crs:OGC:1.3:CRS84" } },
"features": [
{ "type": "Feature", "properties": { "code_muni": 4306957.0, "name_muni": "Entre Rios do Sul", "code_state": 43.0, "abbrev_state": "RS", "name_state": "Rio Grande do Sul", "code_region": 4.0, "name_region": "Sul", "year": 2022.0 }, "geometry": { "type": "Polygon", "coordinates": [ [ [ -52.757401254999891, -27.512732586 ], [ -52.764257205, -27.512515736 ], [ -52.768734994999896, -27.509617507 ], [ -52.77585988, -27.511967736 ], [ -52.778692099999901, -27.50489773 ], [ -52.783356117, -27.501107353 ], [ -52.788276286, -27.501066362999893 ], [ -52.794773788, -27.503114199 ], [ -52.796906664999902, -27.500379681 ], [ -52.801786946999989, -27.5010272399999 ], [ -52.802799708, -27.499748344999897 ], [ -52.7985168599999, -27.494322786999899 ], [ -52.798200541999989, -27.491020272999901 ], [ -52.789855051, -27.484600160999896 ], [ -52.789932136999894, -27.482732128 ], [ -52.793993493, -27.478686169999897 ], [ -52.793678761, -27.473209062 ], [ -52.785286707, -27.480218421 ], [ -52.779581704999899, -27.482510951999892 ], [ -52.77646559, -27.481818597 ], [ -52.776307679999896, -27.479534347 ], [ -52.782691055, -27.467067911999898 ], [ -52.78261315, -27.464029119 ], [ -52.781159069999894, -27.462760374 ], [ -52.773135681, -27.467271012 ], [ -52.769094246999892, -27.466398005 ], [ -52.772039117, -27.459036716 ], [ -52.775219673, -27.456309932 ], [ -52.774781202, -27.453784995 ], [ -52.773079531999898, -27.453700543 ], [ -52.770065518, -27.458014123999902 ], [ -52.766427564, -27.4604615289999 ], [ -52.756343253999901, -27.459613020999896 ], [ -52.753506818999895, -27.4580501259999 ], [ -52.757352630999897, -27.447817922 ], [ -52.754176244999897, -27.445835142 ], [ -52.748524690999901, -27.447347315999892 ], [ -52.744683843, -27.446975305 ], [ -52.746246888, -27.43515099 ], [ -52.745015861999903, -27.432741555 ], [ -52.741984808, -27.432180966 ], [ -52.734619887, -27.4370129079999 ], [ -52.726745357, -27.436216992 ], [ -52.722018721, -27.4464768469999 ], [ -52.7220315819999, -27.449435532999892 ], [ -52.730265146, -27.451071742 ], [ -52.734060575999891, -27.453353558999904 ], [ -52.733768149, -27.454953203999896 ], [ -52.714907013, -27.458727049999897 ], [ -52.715067512, -27.46101485 ], [ -52.718886036, -27.466439148999896 ], [ -52.724859191999897, -27.4718591389999 ], [ -52.722716111999901, -27.477359803 ], [ -52.71964710399989, -27.479111541 ], [ -52.716812465, -27.4790590379999 ], [ -52.715519775, -27.475333232 ], [ -52.717298227999891, -27.470476270999903 ], [ -52.707352639, -27.464151864 ], [ -52.702032018999894, -27.465998883999905 ], [ -52.701011745999899, -27.469185834 ], [ -52.702424199999896, -27.47211134 ], [ -52.713239143, -27.484560109 ], [ -52.710685118, -27.485546723 ], [ -52.694899232999902, -27.483843255999904 ], [ -52.694909966999901, -27.485779841 ], [ -52.705197843999898, -27.492016970999899 ], [ -52.706584244999895, -27.494677709 ], [ -52.69443814999989, -27.497982760999903 ], [ -52.681032944, -27.504109798999895 ], [ -52.682361403, -27.506313683 ], [ -52.691327301999898, -27.508389067999893 ], [ -52.693327273, -27.514505642999897 ], [ -52.687487771, -27.515949555 ], [ -52.672901625, -27.512064709999905 ], [ -52.667660748999893, -27.516509127999903 ], [ -52.66768732, -27.517743632 ], [ -52.672166634, -27.521030728 ], [ -52.680432159, -27.523861037 ], [ -52.67342744, -27.528666095999899 ], [ -52.6767904989999, -27.534335508 ], [ -52.675645653999901, -27.538195018 ], [ -52.67408012499989, -27.537727489 ], [ -52.672095737999904, -27.534183040999903 ], [ -52.672136439, -27.530875239 ], [ -52.663260308, -27.533807841999899 ], [ -52.669843542, -27.541078764 ], [ -52.663787977, -27.544682179999903 ], [ -52.663715661, -27.546223492 ], [ -52.670356266999903, -27.547938347999899 ], [ -52.672535382, -27.552975891999896 ], [ -52.669485447999897, -27.5600387 ], [ -52.662141636999891, -27.56122598199989 ], [ -52.658895185999896, -27.565551816 ], [ -52.660841951999892, -27.568772792999901 ], [ -52.664870397999891, -27.569284357 ], [ -52.672836297999901, -27.566431855 ], [ -52.678244332, -27.568943938 ], [ -52.677992924, -27.575808843999901 ], [ -52.673828399999898, -27.577913881 ], [ -52.669567456, -27.577084543 ], [ -52.670256443, -27.579495725 ], [ -52.708199272999899, -27.585714138999904 ], [ -52.711392370999903, -27.584626764999896 ], [ -52.722617219, -27.586512481999907 ], [ -52.733942279, -27.590993216 ], [ -52.734549038999901, -27.587945912 ], [ -52.735763575, -27.587600958999886 ], [ -52.744199529999889, -27.591598482999899 ], [ -52.754490331999889, -27.591422651 ], [ -52.760108279999891, -27.58734039 ], [ -52.767668896, -27.587020595 ], [ -52.768106482, -27.58475248 ], [ -52.766358785, -27.582446924 ], [ -52.761017199, -27.579557129 ], [ -52.756714926, -27.580356024 ], [ -52.753962836, -27.584503599 ], [ -52.750495645999891, -27.58327149 ], [ -52.747784716999902, -27.580023162 ], [ -52.747957087, -27.570729223999898 ], [ -52.739708295, -27.560372943999905 ], [ -52.740512678999899, -27.554485507 ], [ -52.746748926, -27.546742373 ], [ -52.752572656, -27.548998179 ], [ -52.754921072999899, -27.555517626 ], [ -52.763518659999896, -27.554453865 ], [ -52.767276473, -27.55280715 ], [ -52.760172982, -27.546082248999902 ], [ -52.753319042, -27.544949017 ], [ -52.752561564, -27.542451861 ], [ -52.749799101999891, -27.5415094049999 ], [ -52.747200163999899, -27.538382988 ], [ -52.747010954, -27.533999692999899 ], [ -52.752757378999895, -27.532194406 ], [ -52.756880442999901, -27.529432366 ], [ -52.757835257, -27.526715026 ], [ -52.761682531, -27.524956446 ], [ -52.761007059, -27.5201041289999 ], [ -52.757401254999891, -27.512732586 ] ] ] } }
]
}
