{
"type": "FeatureCollection",
"name": "bairros_catuipe",
"crs": { "type": "name", "properties": { "name": "urn:ogc:def:crs:OGC:1.3:CRS84" } },
"features": [
{ "type": "Feature", "properties": { "code_muni": 4305009.0, "name_muni": "Catuípe", "code_state": 43.0, "abbrev_state": "RS", "name_state": "Rio Grande do Sul", "code_region": 4.0, "name_region": "Sul", "year": 2022.0 }, "geometry": { "type": "Polygon", "coordinates": [ [ [ -53.993983737, -28.041339826999895 ], [ -53.99290674, -28.048545609 ], [ -53.990117579, -28.051238985999902 ], [ -53.988905799999898, -28.054848338999893 ], [ -53.982327632, -28.0556769199999 ], [ -53.983656477999894, -28.059671835 ], [ -53.981809063999897, -28.060578474 ], [ -53.981617375, -28.063226875999895 ], [ -53.975723345999903, -28.063644655 ], [ -53.973707899, -28.064760502999903 ], [ -53.974167311, -28.066392957999902 ], [ -53.970864116, -28.066738803 ], [ -53.965372521999903, -28.064535771 ], [ -53.963586161, -28.061669413999908 ], [ -53.957838723, -28.061848241 ], [ -53.952975254, -28.059667461999904 ], [ -53.946552870999902, -28.061097157999885 ], [ -53.943489703999894, -28.063603589 ], [ -53.940963977, -28.063403105 ], [ -53.938384387, -28.064914326 ], [ -53.928559662999902, -28.061819886 ], [ -53.914855685, -28.070584805999903 ], [ -53.904525252, -28.082758031 ], [ -53.904379004, -28.097390527999899 ], [ -53.906003779999892, -28.103554731 ], [ -53.910548676, -28.110714335999901 ], [ -53.910017602, -28.115396297 ], [ -53.91618209699989, -28.115340648 ], [ -53.9311590679999, -28.118659716 ], [ -53.92834676199989, -28.126622430999895 ], [ -53.924451384, -28.131092389999893 ], [ -53.924253458, -28.134635811 ], [ -53.919280812999894, -28.1456299029999 ], [ -53.917642179, -28.146454576999901 ], [ -53.915893705, -28.152319679999902 ], [ -53.913899144, -28.152475449 ], [ -53.912945110999893, -28.156352233 ], [ -53.912762587, -28.160464111 ], [ -53.9147972069999, -28.163912353999901 ], [ -53.914392382999893, -28.168503237 ], [ -53.916891166, -28.172435392 ], [ -53.916900406, -28.182878227999897 ], [ -53.917993625, -28.184893820999903 ], [ -53.914736666, -28.192752138999904 ], [ -53.914845614999898, -28.195356365999903 ], [ -53.918458970999893, -28.199738533 ], [ -53.915771489, -28.206969167999894 ], [ -53.916445623999891, -28.213748860999893 ], [ -53.917809108, -28.217084733 ], [ -53.922315472, -28.220419703999902 ], [ -53.922036411, -28.223124755999898 ], [ -53.924358003, -28.224799897 ], [ -53.923664301, -28.227546229 ], [ -53.926156869999893, -28.231145216999899 ], [ -53.923880345, -28.23751537 ], [ -53.92483069, -28.239375611 ], [ -53.927745112, -28.240403138 ], [ -53.929392164, -28.238140036999905 ], [ -53.939329044, -28.23357808 ], [ -53.944071035, -28.227292613 ], [ -53.948263562, -28.224831782 ], [ -53.953597348999899, -28.226044633 ], [ -53.954876085, -28.235360795 ], [ -53.961133897, -28.238513677 ], [ -53.962592356, -28.243196307999892 ], [ -53.962270076, -28.258501625999894 ], [ -53.965381154999903, -28.265491023 ], [ -53.968625792999902, -28.266772217 ], [ -53.969500517, -28.272975049 ], [ -53.967628471999902, -28.27539738 ], [ -53.970078805, -28.278899888 ], [ -53.969769549, -28.287574827999887 ], [ -53.966906142, -28.290838794 ], [ -53.99294020699989, -28.282762252999895 ], [ -54.00571531500001, -28.299714385999906 ], [ -54.004242222, -28.301400891 ], [ -54.004419815999896, -28.306255410999896 ], [ -54.017257977, -28.306124457 ], [ -54.0129825779999, -28.285799063 ], [ -54.019999852, -28.285951612 ], [ -54.029801236, -28.279581173999908 ], [ -54.032715800999902, -28.2742062199999 ], [ -54.0357536389999, -28.275662725 ], [ -54.036915909, -28.279532516 ], [ -54.040468495, -28.280428426999904 ], [ -54.041273658, -28.285490260999904 ], [ -54.044956849, -28.288557924 ], [ -54.04510321, -28.292374730999903 ], [ -54.058188338, -28.299638042 ], [ -54.063021918999901, -28.298230068999906 ], [ -54.06641784, -28.299956418 ], [ -54.067289289, -28.302855172 ], [ -54.066074277, -28.304915779999899 ], [ -54.069645586, -28.30784296 ], [ -54.06909476, -28.310595336999889 ], [ -54.073381878, -28.311692133999902 ], [ -54.075677723, -28.314148818 ], [ -54.070268418999902, -28.316966065 ], [ -54.064977473999896, -28.317021021 ], [ -54.06696380599989, -28.320352350999897 ], [ -54.064903242, -28.322392602 ], [ -54.066258268, -28.3254219579999 ], [ -54.064662053999896, -28.326560555999897 ], [ -54.066343143, -28.327445832 ], [ -54.071804398, -28.326639999 ], [ -54.073444627, -28.330303464999901 ], [ -54.072499114, -28.331545569 ], [ -54.073305601999898, -28.335758989999892 ], [ -54.069646142999893, -28.333734288 ], [ -54.066812349, -28.335789394 ], [ -54.06912755, -28.339220678999904 ], [ -54.06674499199989, -28.340167118 ], [ -54.066564085, -28.341907534 ], [ -54.07204165, -28.339767204999902 ], [ -54.086106453, -28.337622108999902 ], [ -54.088872065, -28.338762524999897 ], [ -54.089567644999896, -28.341372519999904 ], [ -54.0855338, -28.357068481999885 ], [ -54.086355125, -28.359560019999901 ], [ -54.092024439999896, -28.358302447 ], [ -54.097927786, -28.343378607 ], [ -54.109878363999897, -28.33461864 ], [ -54.112364183999901, -28.336108287999892 ], [ -54.113619985, -28.346418688 ], [ -54.104633981999896, -28.356674631 ], [ -54.094432454, -28.358888771 ], [ -54.093625786, -28.362837035 ], [ -54.096511737, -28.367426001999892 ], [ -54.09915304, -28.367518688 ], [ -54.10870761199989, -28.362046967 ], [ -54.114265377, -28.361387063999885 ], [ -54.121687371999897, -28.349094121 ], [ -54.126345, -28.345423321999903 ], [ -54.131811513999899, -28.351256013999901 ], [ -54.133160403, -28.361769314999897 ], [ -54.135349004, -28.364863665 ], [ -54.148911998, -28.368359768999902 ], [ -54.152619688999891, -28.3679285169999 ], [ -54.154903906999898, -28.366163168999901 ], [ -54.157019431, -28.355789215999891 ], [ -54.153728615, -28.350489760999906 ], [ -54.150225, -28.347408157 ], [ -54.130772539, -28.343268198 ], [ -54.129002269, -28.341304615 ], [ -54.130824326, -28.336811177999891 ], [ -54.136354293, -28.337581299 ], [ -54.143777934999903, -28.336625474999895 ], [ -54.145578246, -28.330646206 ], [ -54.138135765999898, -28.321895087 ], [ -54.137422082999898, -28.323564205 ], [ -54.131233896, -28.324778508 ], [ -54.133050253, -28.321680874 ], [ -54.130293487999893, -28.317071751999897 ], [ -54.13176043, -28.317622566999894 ], [ -54.133386956, -28.31530652299989 ], [ -54.134453365999896, -28.3160129 ], [ -54.134393245, -28.313610067000013 ], [ -54.135974669999896, -28.313603988999905 ], [ -54.135949801, -28.307677537 ], [ -54.134097149, -28.305969461 ], [ -54.128562942, -28.308432722 ], [ -54.128475408, -28.30601096 ], [ -54.123559206, -28.305182649999907 ], [ -54.123585143, -28.301159149999901 ], [ -54.128944127999908, -28.298173807 ], [ -54.127999818, -28.294533803 ], [ -54.129905623999896, -28.285687376999896 ], [ -54.125145586, -28.279883524999896 ], [ -54.124619965, -28.276670807 ], [ -54.122783047, -28.278278617999895 ], [ -54.122187465, -28.282464159 ], [ -54.11954956599989, -28.284390260999899 ], [ -54.116440344, -28.281371043 ], [ -54.116423553999894, -28.277179733 ], [ -54.113760035, -28.273195479 ], [ -54.111639757, -28.272939161 ], [ -54.104646367, -28.277716223 ], [ -54.101212441, -28.276664888 ], [ -54.103980253, -28.2740271 ], [ -54.104482274, -28.268324882999899 ], [ -54.108736920999903, -28.259829712999903 ], [ -54.107451092, -28.258082909999896 ], [ -54.104176228, -28.258595264 ], [ -54.103358817999897, -28.2574418 ], [ -54.107174314, -28.254421458 ], [ -54.113467616, -28.253084534 ], [ -54.117643686, -28.250320764 ], [ -54.116266841, -28.244544294 ], [ -54.114572455, -28.24277805 ], [ -54.107011675, -28.241562413999898 ], [ -54.10663225, -28.236055754999892 ], [ -54.10800624, -28.234564017 ], [ -54.107045348, -28.231402081999899 ], [ -54.11013267700001, -28.2296581209999 ], [ -54.115830641999892, -28.216158951999898 ], [ -54.118449569999896, -28.214191415 ], [ -54.119045946999989, -28.210923528 ], [ -54.121921758, -28.209285956 ], [ -54.123405291, -28.203437463999901 ], [ -54.127190151, -28.199862536 ], [ -54.130721776, -28.192615213999904 ], [ -54.126800112, -28.185243157999903 ], [ -54.13077436399989, -28.183102672 ], [ -54.139496420999897, -28.171040561 ], [ -54.141910293, -28.169936317999898 ], [ -54.145124477, -28.164319464 ], [ -54.14813342, -28.162951898 ], [ -54.151783475999892, -28.157789194 ], [ -54.159520739, -28.158750423999894 ], [ -54.163246048, -28.158010623999896 ], [ -54.17135695, -28.153128054 ], [ -54.177752496, -28.1555075119999 ], [ -54.175076562, -28.150307129999906 ], [ -54.180187385999901, -28.138205448 ], [ -54.177003791999894, -28.136077348999901 ], [ -54.171806918999891, -28.13524568 ], [ -54.157713542, -28.126097461 ], [ -54.150327731999894, -28.125846784 ], [ -54.145907036, -28.127187037999899 ], [ -54.1400489379999, -28.126127472 ], [ -54.129343757, -28.120590337 ], [ -54.128005526, -28.118156147 ], [ -54.125589653, -28.117543879999989 ], [ -54.125613995, -28.119218621 ], [ -54.122115080999905, -28.114904028999888 ], [ -54.098084585, -28.111853519 ], [ -54.079711548, -28.112719055 ], [ -54.069052944, -28.107831373 ], [ -54.074177204, -28.0919869599999 ], [ -54.076863547, -28.077829311 ], [ -54.082315346, -28.066664881 ], [ -54.079749106, -28.067150962 ], [ -54.076533563999895, -28.065850688 ], [ -54.07248369, -28.059620289 ], [ -54.075300411999898, -28.05386171399989 ], [ -54.082755171, -28.052524637 ], [ -54.083450355, -28.047865326 ], [ -54.087425133999901, -28.045273978 ], [ -54.092971469, -28.043142567 ], [ -54.097064485, -28.044686383999899 ], [ -54.098550836999898, -28.044017578 ], [ -54.106044174, -28.036331994 ], [ -54.111265611, -28.034533064999891 ], [ -54.116504956, -28.035357992999899 ], [ -54.1224032229999, -28.029741972999904 ], [ -54.125932253, -28.029974301 ], [ -54.130584555, -28.026456155999899 ], [ -54.132798333, -28.027268869 ], [ -54.134579447, -28.025221477999896 ], [ -54.136839268, -28.025449348999906 ], [ -54.139935998999903, -28.018705855999901 ], [ -54.135661258, -28.018523038 ], [ -54.128328156, -28.015395204999898 ], [ -54.119624953, -28.0158641589999 ], [ -54.115366273999904, -28.013659281999903 ], [ -54.108989768, -28.014566639 ], [ -54.108237832, -28.013162645 ], [ -54.104228255999899, -28.012523227 ], [ -54.101635581, -28.010544818 ], [ -54.093979370999897, -28.008725823 ], [ -54.088822653, -28.000304443999905 ], [ -54.089691269999904, -27.993348475999895 ], [ -54.07727911099991, -28.00847407 ], [ -54.071139581, -28.012243074 ], [ -54.064151119, -28.013473244 ], [ -54.059993124999899, -28.021624172 ], [ -54.047986669999901, -28.01116538 ], [ -54.041790313, -28.003309101999903 ], [ -54.036901176999891, -27.991645043999899 ], [ -54.033604633, -27.987169829 ], [ -54.034317533, -27.9846870649999 ], [ -54.032877728999892, -27.984213812999897 ], [ -54.029922500999909, -27.985208111 ], [ -54.02793022, -27.988815579999901 ], [ -54.029487413, -27.993729343 ], [ -54.027983153, -27.993396448999899 ], [ -54.023605587, -27.996461278 ], [ -54.018598947, -28.001812747 ], [ -54.014544403999892, -28.002092497 ], [ -54.013245825999903, -28.003511929999899 ], [ -54.015240164, -28.006066605999901 ], [ -54.018666071, -28.005283483 ], [ -54.019220752, -28.006565588999909 ], [ -54.010746301, -28.012071334 ], [ -54.011447454999903, -28.013886388999897 ], [ -54.009983771, -28.017639308 ], [ -54.007255186999899, -28.017867125999889 ], [ -54.004025845999898, -28.025080749 ], [ -54.004193686, -28.029438427999896 ], [ -54.002516831, -28.030464446999904 ], [ -53.994452979999906, -28.030424656 ], [ -53.992689581, -28.035033145999904 ], [ -53.989175734, -28.037566263 ], [ -53.993983737, -28.041339826999895 ] ] ] } }
]
}
