{
"type": "FeatureCollection",
"name": "bairros_capao_da_canoa",
"crs": { "type": "name", "properties": { "name": "urn:ogc:def:crs:OGC:1.3:CRS84" } },
"features": [
{ "type": "Feature", "properties": { "code_muni": 4304630.0, "name_muni": "Capão da Canoa", "code_state": 43.0, "abbrev_state": "RS", "name_state": "Rio Grande do Sul", "code_region": 4.0, "name_region": "Sul", "year": 2022.0 }, "geometry": { "type": "Polygon", "coordinates": [ [ [ -49.97235856, -29.690595644 ], [ -50.017611448, -29.772471186 ], [ -50.054953761889003, -29.761651076660193 ], [ -50.048475000104993, -29.752531618062303 ], [ -50.047107351601603, -29.746017719063801 ], [ -50.029988681999903, -29.712295352999899 ], [ -50.022100466317703, -29.690436051426705 ], [ -50.023468114821092, -29.684560028014701 ], [ -50.03021446000799, -29.671845762085702 ], [ -50.041742169231405, -29.658244957205699 ], [ -50.049072332751699, -29.653660902142796 ], [ -50.048756655, -29.650805530999893 ], [ -50.043088583, -29.646499155999908 ], [ -50.042476477, -29.643263293 ], [ -50.039087474, -29.642673894 ], [ -50.030147246999903, -29.635618547 ], [ -50.028451132, -29.637393340999893 ], [ -50.027329325, -29.636858817 ], [ -50.026193727, -29.634441611999907 ], [ -50.028273611, -29.633733434 ], [ -50.02792221499989, -29.632394801 ], [ -50.023954541, -29.632789687 ], [ -50.021716259999891, -29.631037741999897 ], [ -50.011497295, -29.628741845 ], [ -50.009751456999894, -29.629624681999893 ], [ -50.004710574999891, -29.624704962 ], [ -50.000498899, -29.625161202 ], [ -49.999745596, -29.621273147 ], [ -49.998031002999895, -29.622045946999894 ], [ -49.994334693, -29.620056841999894 ], [ -49.994325299, -29.611555458999891 ], [ -49.992740905999895, -29.60922722 ], [ -49.994672867, -29.607238344999892 ], [ -49.991833573999898, -29.604881286 ], [ -49.990442693, -29.606692725 ], [ -49.933700712, -29.625058104999901 ], [ -49.97235856, -29.690595644 ] ] ] } }
]
}
