{
"type": "FeatureCollection",
"name": "bairros_sao_luiz_gonzaga",
"crs": { "type": "name", "properties": { "name": "urn:ogc:def:crs:OGC:1.3:CRS84" } },
"features": [
{ "type": "Feature", "properties": { "name": "Vila Loureiro", "code_muni": 4318903.0, "name_muni": "São Luiz Gonzaga" }, "geometry": { "type": "Polygon", "coordinates": [ [ [ -54.97794, -28.4213273 ], [ -54.9798934, -28.419535599999989 ], [ -54.9762351, -28.4161999 ], [ -54.9760314, -28.4162725 ], [ -54.9757359, -28.4163779 ], [ -54.9755204, -28.4164499 ], [ -54.9758226, -28.4171244 ], [ -54.9758206, -28.4172626 ], [ -54.9757459, -28.4173884 ], [ -54.9754477, -28.4176262 ], [ -54.9749147, -28.418014599999989 ], [ -54.9744055, -28.4183738 ], [ -54.9731738, -28.4193231 ], [ -54.97794, -28.4213273 ] ] ] } },
{ "type": "Feature", "properties": { "name": "Vila Paz", "code_muni": 4318903.0, "name_muni": "São Luiz Gonzaga" }, "geometry": { "type": "Polygon", "coordinates": [ [ [ -54.9654787, -28.4181971 ], [ -54.9660716, -28.4201558 ], [ -54.9702067, -28.4180752 ], [ -54.9731738, -28.4193231 ], [ -54.9744055, -28.4183738 ], [ -54.9749147, -28.418014599999989 ], [ -54.9754477, -28.4176262 ], [ -54.9757459, -28.4173884 ], [ -54.9758206, -28.4172626 ], [ -54.9758226, -28.4171244 ], [ -54.9755204, -28.4164499 ], [ -54.9757359, -28.4163779 ], [ -54.9760314, -28.4162725 ], [ -54.9762351, -28.4161999 ], [ -54.9757331, -28.4158528 ], [ -54.9750344, -28.4146348 ], [ -54.9749024, -28.4145313 ], [ -54.9748848, -28.4145161 ], [ -54.9748744, -28.4145043 ], [ -54.9748656, -28.414490799999989 ], [ -54.9748567, -28.4144747 ], [ -54.9748338, -28.4144053 ], [ -54.9747214, -28.4138741 ], [ -54.9743715, -28.4125925 ], [ -54.9742228, -28.4119362 ], [ -54.9741762, -28.411714 ], [ -54.9741656, -28.4116479 ], [ -54.9740676, -28.411221 ], [ -54.9739792, -28.4108484 ], [ -54.9737355, -28.4099005 ], [ -54.9734307, -28.4085708 ], [ -54.9727271, -28.4087125 ], [ -54.9719507, -28.4088509 ], [ -54.9705339, -28.4091295 ], [ -54.9697732, -28.4092763 ], [ -54.9689833, -28.4094184 ], [ -54.9675388, -28.4096629 ], [ -54.966034, -28.4098902 ], [ -54.9663113, -28.411201 ], [ -54.9665868, -28.4124291 ], [ -54.966911, -28.4138975 ], [ -54.96597040000001, -28.4140657 ], [ -54.9644009, -28.4143762 ], [ -54.9648069, -28.4157225 ], [ -54.9649242, -28.4161343 ], [ -54.9652105, -28.4169942 ], [ -54.9654102, -28.4175214 ], [ -54.9653975, -28.4179289 ], [ -54.9654787, -28.4181971 ] ] ] } },
{ "type": "Feature", "properties": { "name": "Vila Nova", "code_muni": 4318903.0, "name_muni": "São Luiz Gonzaga" }, "geometry": { "type": "Polygon", "coordinates": [ [ [ -54.9800572, -28.40964 ], [ -54.981066, -28.4098525 ], [ -54.9815352, -28.4098019 ], [ -54.9830401, -28.4095603 ], [ -54.9843357, -28.4093195 ], [ -54.9843782, -28.4092843 ], [ -54.9843886, -28.4092689 ], [ -54.9844893, -28.4084894 ], [ -54.984807, -28.406441 ], [ -54.9839193, -28.4066506 ], [ -54.982411, -28.406908 ], [ -54.9816677, -28.4070344 ], [ -54.9809139, -28.4071784 ], [ -54.9794299, -28.407466 ], [ -54.9797581, -28.4087855 ], [ -54.9799301, -28.4096128 ], [ -54.9800572, -28.40964 ] ] ] } },
{ "type": "Feature", "properties": { "name": "Vila Floresta", "code_muni": 4318903.0, "name_muni": "São Luiz Gonzaga" }, "geometry": { "type": "Polygon", "coordinates": [ [ [ -54.9800572, -28.40964 ], [ -54.9799301, -28.4096128 ], [ -54.9795156, -28.4095484 ], [ -54.9781937, -28.4092684 ], [ -54.977639, -28.409195 ], [ -54.9772658, -28.4092642 ], [ -54.9767278, -28.4093527 ], [ -54.9766664, -28.4090098 ], [ -54.9764347, -28.4080027 ], [ -54.9756933, -28.4081417 ], [ -54.9749401, -28.4082847 ], [ -54.974932, -28.4087648 ], [ -54.9745305, -28.4097606 ], [ -54.9737355, -28.4099005 ], [ -54.9739792, -28.4108484 ], [ -54.9740676, -28.411221 ], [ -54.9741656, -28.4116479 ], [ -54.9741762, -28.411714 ], [ -54.9742228, -28.4119362 ], [ -54.9743715, -28.4125925 ], [ -54.9747214, -28.4138741 ], [ -54.9748338, -28.4144053 ], [ -54.9748567, -28.4144747 ], [ -54.9748656, -28.414490799999989 ], [ -54.9748744, -28.4145043 ], [ -54.9748848, -28.4145161 ], [ -54.9749024, -28.4145313 ], [ -54.9750344, -28.4146348 ], [ -54.9752017, -28.414552 ], [ -54.9753494, -28.4144734 ], [ -54.975829, -28.4142162 ], [ -54.977655, -28.4132019 ], [ -54.9780272, -28.4130294 ], [ -54.9784228, -28.4128715 ], [ -54.9787554, -28.4127615 ], [ -54.9790927, -28.4126714 ], [ -54.9794623, -28.4125827 ], [ -54.9797675, -28.4125261 ], [ -54.9800513, -28.4124968 ], [ -54.9803303, -28.412468 ], [ -54.9808502, -28.4124459 ], [ -54.9812329, -28.4124645 ], [ -54.9816, -28.4125021 ], [ -54.9827876, -28.4126126 ], [ -54.9841245, -28.4128142 ], [ -54.9843886, -28.4092689 ], [ -54.9843782, -28.4092843 ], [ -54.9843357, -28.4093195 ], [ -54.9830401, -28.4095603 ], [ -54.9815352, -28.4098019 ], [ -54.981066, -28.4098525 ], [ -54.9800572, -28.40964 ] ] ] } },
{ "type": "Feature", "properties": { "name": "Vila Harmonia", "code_muni": 4318903.0, "name_muni": "São Luiz Gonzaga" }, "geometry": { "type": "Polygon", "coordinates": [ [ [ -54.9660481, -28.390588199999989 ], [ -54.9663516, -28.3918805 ], [ -54.9666743, -28.3932526 ], [ -54.966976, -28.3945422 ], [ -54.9672792, -28.3958904 ], [ -54.9665508, -28.3960343 ], [ -54.9658155, -28.3961697 ], [ -54.9661263, -28.3974715 ], [ -54.96646770000001, -28.3988076 ], [ -54.9667746, -28.4001378 ], [ -54.9670954, -28.4014359 ], [ -54.9685736, -28.4011475 ], [ -54.9700484, -28.4008706 ], [ -54.9715607, -28.40061 ], [ -54.9712464, -28.3992949 ], [ -54.9710918, -28.398697299999988 ], [ -54.9709096, -28.3979602 ], [ -54.970563, -28.3966547 ], [ -54.9704893, -28.396345 ], [ -54.9705183, -28.3960403 ], [ -54.9705525, -28.3959172 ], [ -54.9709873, -28.395192399999988 ], [ -54.9716802, -28.3939655 ], [ -54.971798, -28.3937299 ], [ -54.9716964, -28.3936745 ], [ -54.9698835, -28.3936058 ], [ -54.9691439, -28.3894884 ], [ -54.9659004, -28.3900151 ], [ -54.9660481, -28.390588199999989 ] ] ] } },
{ "type": "Feature", "properties": { "name": "Centro", "code_muni": 4318903.0, "name_muni": "São Luiz Gonzaga" }, "geometry": { "type": "Polygon", "coordinates": [ [ [ -54.9493261, -28.4141627 ], [ -54.9507754, -28.4138985 ], [ -54.9523055, -28.4136315 ], [ -54.9536091, -28.4134085 ], [ -54.9551995, -28.4131491 ], [ -54.9565956, -28.4128922 ], [ -54.9568769, -28.4142006 ], [ -54.9570216, -28.4148733 ], [ -54.9572094, -28.4157467 ], [ -54.9586457, -28.4154869 ], [ -54.9602296, -28.415206 ], [ -54.9607797, -28.415094 ], [ -54.9620186, -28.4148417 ], [ -54.9630992, -28.4145912 ], [ -54.963797, -28.4144786 ], [ -54.9644009, -28.4143762 ], [ -54.96597040000001, -28.4140657 ], [ -54.966911, -28.4138975 ], [ -54.9665868, -28.4124291 ], [ -54.9663113, -28.411201 ], [ -54.966034, -28.4098902 ], [ -54.9675388, -28.4096629 ], [ -54.9689833, -28.4094184 ], [ -54.9686617, -28.4080844 ], [ -54.9683701, -28.4068227 ], [ -54.9680287, -28.4054523 ], [ -54.9677062, -28.404095699999989 ], [ -54.9673789, -28.4027608 ], [ -54.9670954, -28.4014359 ], [ -54.9667746, -28.4001378 ], [ -54.96646770000001, -28.3988076 ], [ -54.9661263, -28.3974715 ], [ -54.9646871, -28.3977159 ], [ -54.9632043, -28.3980228 ], [ -54.9623041, -28.3981871 ], [ -54.9608205, -28.398474 ], [ -54.9592106, -28.3988098 ], [ -54.9580996, -28.3990302 ], [ -54.9566491, -28.3993597 ], [ -54.955002, -28.3996866 ], [ -54.9537593, -28.3999282 ], [ -54.9522561, -28.4002072 ], [ -54.9524237, -28.4009126 ], [ -54.9525672, -28.401559099999986 ], [ -54.9528408, -28.4027565 ], [ -54.9513857, -28.4030337 ], [ -54.9497496, -28.4033381 ], [ -54.9483102, -28.4036248 ], [ -54.9484403, -28.4042688 ], [ -54.9485913, -28.4048719 ], [ -54.9489048, -28.406265699999985 ], [ -54.9492604, -28.407723 ], [ -54.9477874, -28.4080014 ], [ -54.9463312, -28.4082824 ], [ -54.944792, -28.4085565 ], [ -54.9450498, -28.4093439 ], [ -54.9450873, -28.4094068 ], [ -54.9451612, -28.409467 ], [ -54.9453647, -28.4095865 ], [ -54.9454651, -28.4096582 ], [ -54.9455795, -28.4097254 ], [ -54.9465996, -28.4095148 ], [ -54.946901, -28.4107689 ], [ -54.9466007, -28.4108115 ], [ -54.9470732, -28.4113113 ], [ -54.9474454, -28.4117182 ], [ -54.9475147, -28.4118401 ], [ -54.9475824, -28.4119592 ], [ -54.9477323, -28.4122616 ], [ -54.9478202, -28.4125253 ], [ -54.9478434, -28.4128595 ], [ -54.947831, -28.4131154 ], [ -54.9478227, -28.4133074 ], [ -54.9477168, -28.4136484 ], [ -54.9475513, -28.4139757 ], [ -54.9473575, -28.4142963 ], [ -54.9472076, -28.4144622 ], [ -54.9471198, -28.4145433 ], [ -54.9478048, -28.4144185 ], [ -54.9493261, -28.4141627 ] ] ] } },
{ "type": "Feature", "properties": { "name": "Joaquim Nasciemento", "code_muni": 4318903.0, "name_muni": "São Luiz Gonzaga" }, "geometry": { "type": "Polygon", "coordinates": [ [ [ -54.9738782, -28.3959149 ], [ -54.9745406, -28.3957561 ], [ -54.9740702, -28.3942171 ], [ -54.9732605, -28.3946624 ], [ -54.9725484, -28.3949731 ], [ -54.9718283, -28.3953294 ], [ -54.9711305, -28.3956827 ], [ -54.9707658, -28.3958547 ], [ -54.9705525, -28.3959172 ], [ -54.9705183, -28.3960403 ], [ -54.9704893, -28.396345 ], [ -54.970563, -28.3966547 ], [ -54.9709096, -28.3979602 ], [ -54.9710918, -28.398697299999988 ], [ -54.9725018, -28.3982086 ], [ -54.9743833, -28.3976026 ], [ -54.9738782, -28.3959149 ] ] ] } },
{ "type": "Feature", "properties": { "name": "Gruta", "code_muni": 4318903.0, "name_muni": "São Luiz Gonzaga" }, "geometry": { "type": "Polygon", "coordinates": [ [ [ -54.9673789, -28.4027608 ], [ -54.9677062, -28.404095699999989 ], [ -54.9680287, -28.4054523 ], [ -54.9683701, -28.4068227 ], [ -54.9686617, -28.4080844 ], [ -54.9689833, -28.4094184 ], [ -54.9697732, -28.4092763 ], [ -54.9705339, -28.4091295 ], [ -54.9719507, -28.4088509 ], [ -54.9727271, -28.4087125 ], [ -54.9734307, -28.4085708 ], [ -54.9737355, -28.4099005 ], [ -54.9745305, -28.4097606 ], [ -54.974932, -28.4087648 ], [ -54.9749401, -28.4082847 ], [ -54.9756933, -28.4081417 ], [ -54.9764347, -28.4080027 ], [ -54.9761478, -28.406686499999989 ], [ -54.9758261, -28.4053866 ], [ -54.9754919, -28.404027 ], [ -54.9740076, -28.4043067 ], [ -54.9724876, -28.404602 ], [ -54.9721424, -28.4032312 ], [ -54.97185, -28.4019232 ], [ -54.9715607, -28.40061 ], [ -54.9700484, -28.4008706 ], [ -54.9685736, -28.4011475 ], [ -54.9670954, -28.4014359 ], [ -54.9673789, -28.4027608 ] ] ] } },
{ "type": "Feature", "properties": { "name": "Trinta", "code_muni": 4318903.0, "name_muni": "São Luiz Gonzaga" }, "geometry": { "type": "Polygon", "coordinates": [ [ [ -54.9845119, -28.3996588 ], [ -54.9828123, -28.3974392 ], [ -54.98184950000001, -28.3976031 ], [ -54.9801192, -28.3940298 ], [ -54.9797805, -28.3942012 ], [ -54.9793404, -28.394586 ], [ -54.9789864, -28.3951874 ], [ -54.9787162, -28.3956932 ], [ -54.9785823, -28.3958794 ], [ -54.9782922, -28.396245 ], [ -54.976806, -28.3967628 ], [ -54.9773641, -28.398961899999986 ], [ -54.9774369, -28.3990711 ], [ -54.9775556, -28.3995221 ], [ -54.9777236, -28.4001804 ], [ -54.9778774, -28.4008341 ], [ -54.9781456, -28.4021955 ], [ -54.9784475, -28.4034865 ], [ -54.981485, -28.4029428 ], [ -54.9829433, -28.4026748 ], [ -54.9860359, -28.4020645 ], [ -54.9845119, -28.3996588 ] ] ] } },
{ "type": "Feature", "properties": { "name": "Oeste", "code_muni": 4318903.0, "name_muni": "São Luiz Gonzaga" }, "geometry": { "type": "Polygon", "coordinates": [ [ [ -54.9758261, -28.4053866 ], [ -54.9761478, -28.406686499999989 ], [ -54.9764347, -28.4080027 ], [ -54.9766664, -28.4090098 ], [ -54.9767278, -28.4093527 ], [ -54.9772658, -28.4092642 ], [ -54.977639, -28.409195 ], [ -54.9781937, -28.4092684 ], [ -54.9795156, -28.4095484 ], [ -54.9799301, -28.4096128 ], [ -54.9797581, -28.4087855 ], [ -54.9794299, -28.407466 ], [ -54.9809139, -28.4071784 ], [ -54.9816677, -28.4070344 ], [ -54.982411, -28.406908 ], [ -54.9839193, -28.4066506 ], [ -54.984807, -28.406441 ], [ -54.9856729, -28.4049129 ], [ -54.9859124, -28.4035327 ], [ -54.9860359, -28.4020645 ], [ -54.9829433, -28.4026748 ], [ -54.981485, -28.4029428 ], [ -54.9784475, -28.4034865 ], [ -54.9769853, -28.4037564 ], [ -54.9754919, -28.404027 ], [ -54.9758261, -28.4053866 ] ] ] } },
{ "type": "Feature", "properties": { "name": "Vila Marcos", "code_muni": 4318903.0, "name_muni": "São Luiz Gonzaga" }, "geometry": { "type": "Polygon", "coordinates": [ [ [ -54.9475971, -28.3870392 ], [ -54.9496869, -28.386673 ], [ -54.9504204, -28.3865324 ], [ -54.950525, -28.3864383 ], [ -54.9505391, -28.3863974 ], [ -54.950545, -28.3863645 ], [ -54.9505421, -28.3863284 ], [ -54.9505349, -28.3862467 ], [ -54.95050220000001, -28.3861734 ], [ -54.9504722, -28.3861102 ], [ -54.9504335, -28.3860494 ], [ -54.9503416, -28.3859526 ], [ -54.9502518, -28.385896 ], [ -54.9501447, -28.3858442 ], [ -54.950032, -28.3857974 ], [ -54.9499243, -28.3857782 ], [ -54.9498165, -28.3857715 ], [ -54.9497199, -28.3857701 ], [ -54.9495895, -28.385753 ], [ -54.9495103, -28.3857318 ], [ -54.9494342, -28.385698 ], [ -54.9493337, -28.3856084 ], [ -54.9492844, -28.3854914 ], [ -54.9492434, -28.385408 ], [ -54.9491739, -28.3853241 ], [ -54.9490899, -28.3852576 ], [ -54.948988, -28.3851981 ], [ -54.9488843, -28.3851361 ], [ -54.948798, -28.3851065 ], [ -54.9487025, -28.385089 ], [ -54.9486021, -28.3850875 ], [ -54.9484427, -28.3850649 ], [ -54.948352, -28.385035299999988 ], [ -54.9481985, -28.3849443 ], [ -54.9481168, -28.3849188 ], [ -54.947966, -28.3849287 ], [ -54.9478419, -28.3849671 ], [ -54.9477275, -28.384985499999988 ], [ -54.9475677, -28.3849831 ], [ -54.9474152, -28.384944699999988 ], [ -54.947277, -28.3848686 ], [ -54.9471935, -28.384808 ], [ -54.9471246, -28.384745 ], [ -54.9470796, -28.384654 ], [ -54.9470491, -28.3845736 ], [ -54.9469655, -28.384513 ], [ -54.946893, -28.3844861 ], [ -54.9468006, -28.3844279 ], [ -54.9467525, -28.384338599999985 ], [ -54.946751, -28.3842664 ], [ -54.9467438, -28.3841837 ], [ -54.9467098, -28.384131599999989 ], [ -54.9467145, -28.3840362 ], [ -54.9467162, -28.3839511 ], [ -54.9466682, -28.3838626 ], [ -54.9465554, -28.3838016 ], [ -54.9465018, -28.3837454 ], [ -54.9464751, -28.3836749 ], [ -54.9464306, -28.3835628 ], [ -54.9463765, -28.3834588 ], [ -54.9462896, -28.3833626 ], [ -54.9462068, -28.3832953 ], [ -54.9460777, -28.3831891 ], [ -54.9459539, -28.3830675 ], [ -54.945843, -28.383004 ], [ -54.9457135, -28.382936 ], [ -54.9456207, -28.3829057 ], [ -54.9454751, -28.382886 ], [ -54.9453633, -28.3828678 ], [ -54.9452283, -28.3828452 ], [ -54.9449529, -28.382832799999989 ], [ -54.9448549, -28.3828313 ], [ -54.9446889, -28.3827983 ], [ -54.944567, -28.3827362 ], [ -54.9444791, -28.3826936 ], [ -54.9443864, -28.382655 ], [ -54.9443126, -28.3826085 ], [ -54.9442294, -28.3825619 ], [ -54.9441555, -28.3825154 ], [ -54.9440869, -28.38244 ], [ -54.9440674, -28.3824045 ], [ -54.94404, -28.3823558 ], [ -54.943996, -28.3822901 ], [ -54.9439452, -28.3822319 ], [ -54.9438966, -28.3821636 ], [ -54.9438865, -28.3821216 ], [ -54.9439289, -28.3820483 ], [ -54.9439294, -28.3820233 ], [ -54.9439206, -28.3819865 ], [ -54.943897, -28.3819395 ], [ -54.9438622, -28.3818907 ], [ -54.9438326, -28.3818585 ], [ -54.9437912, -28.3818258 ], [ -54.9437456, -28.3817689 ], [ -54.9436977, -28.3817116 ], [ -54.943642, -28.3816674 ], [ -54.9435863, -28.3816199 ], [ -54.9435171, -28.3815667 ], [ -54.9434805, -28.3815124 ], [ -54.9434584, -28.3814838 ], [ -54.9434345, -28.3814584 ], [ -54.9433332, -28.3814231 ], [ -54.9432681, -28.3813809 ], [ -54.9432383, -28.381362100000011 ], [ -54.9431948, -28.3813118 ], [ -54.9431777, -28.3812712 ], [ -54.943152, -28.38123580000001 ], [ -54.9431169, -28.3811987 ], [ -54.9430796, -28.3811764 ], [ -54.943044, -28.3811625 ], [ -54.9429887, -28.381151899999988 ], [ -54.9428646, -28.3811461 ], [ -54.942825, -28.3811471 ], [ -54.9427778, -28.3811498 ], [ -54.9427058, -28.381155 ], [ -54.9426661, -28.3811349 ], [ -54.9425859, -28.3811219 ], [ -54.9425143, -28.3811141 ], [ -54.9424578, -28.3811116 ], [ -54.9424013, -28.3811214 ], [ -54.9423299, -28.3810991 ], [ -54.9422033, -28.381071 ], [ -54.9420854, -28.3810558 ], [ -54.9419886, -28.381049 ], [ -54.9418496, -28.3810529 ], [ -54.9417816, -28.3810437 ], [ -54.9416895, -28.3810478 ], [ -54.9416101, -28.3810655 ], [ -54.9415525, -28.3810646 ], [ -54.9414614, -28.3810684 ], [ -54.9413842, -28.3810634 ], [ -54.9412207, -28.3811083 ], [ -54.9411632, -28.3811381 ], [ -54.9411188, -28.3811514 ], [ -54.9410583, -28.3811784 ], [ -54.9409979, -28.381197 ], [ -54.9409374, -28.3812184 ], [ -54.9408991, -28.3812401 ], [ -54.9408738, -28.3812676 ], [ -54.9408051, -28.381367 ], [ -54.9407822, -28.3814086 ], [ -54.9407591, -28.381455599999988 ], [ -54.9407233, -28.3815165 ], [ -54.940678, -28.3815688 ], [ -54.9406453, -28.3816269 ], [ -54.9406064, -28.3816793 ], [ -54.9405552, -28.3818008 ], [ -54.9405034, -28.3819713 ], [ -54.9404593, -28.3821633 ], [ -54.9404083, -28.3822981 ], [ -54.9403409, -28.3824397 ], [ -54.9402908, -28.382524599999989 ], [ -54.9402165, -28.3826091 ], [ -54.9401255, -28.3827219 ], [ -54.9400515, -28.382785 ], [ -54.9399167, -28.382907 ], [ -54.9397403, -28.383005 ], [ -54.9394953, -28.3830638 ], [ -54.9395939, -28.3832674 ], [ -54.9396036, -28.3833641 ], [ -54.9396557, -28.3834677 ], [ -54.9396656, -28.3835255 ], [ -54.9397259, -28.3837029 ], [ -54.9397587, -28.3838099 ], [ -54.9397912, -28.3838445 ], [ -54.93982230000001, -28.3839499 ], [ -54.9398217, -28.383984 ], [ -54.9398205, -28.3840449 ], [ -54.9398165, -28.3841083 ], [ -54.9398125, -28.3841716 ], [ -54.9398149, -28.3841911 ], [ -54.9398305, -28.3842401 ], [ -54.9398762, -28.3843166 ], [ -54.9399327, -28.3843543 ], [ -54.9399597, -28.3844153 ], [ -54.9399805, -28.3844362 ], [ -54.9400121, -28.3845235 ], [ -54.9400339, -28.3845574 ], [ -54.9400707, -28.384578 ], [ -54.9401644, -28.3845901 ], [ -54.9402644, -28.3845955 ], [ -54.9403266, -28.3846145 ], [ -54.9403904, -28.3846366 ], [ -54.9404612, -28.3846488 ], [ -54.9405195, -28.3846657 ], [ -54.9405945, -28.3847971 ], [ -54.9406675, -28.3848998 ], [ -54.940775, -28.385025 ], [ -54.9408467, -28.3851938 ], [ -54.9409438, -28.3853409 ], [ -54.9410173, -28.385417 ], [ -54.9410817, -28.3854445 ], [ -54.9411565, -28.38545 ], [ -54.9412164, -28.3854509 ], [ -54.941363, -28.3854627 ], [ -54.9414251, -28.3855115 ], [ -54.9415292, -28.3855572 ], [ -54.9416265, -28.3856148 ], [ -54.9416558, -28.3857268 ], [ -54.941665, -28.3857666 ], [ -54.941751, -28.3858111 ], [ -54.9417578, -28.3858828 ], [ -54.9418136, -28.3859457 ], [ -54.9418427, -28.3860667 ], [ -54.9418225, -28.3861589 ], [ -54.9418361, -28.3862253 ], [ -54.9418704, -28.3862656 ], [ -54.9418888, -28.3862736 ], [ -54.9419183, -28.3862775 ], [ -54.9419695, -28.3862783 ], [ -54.9420442, -28.386295 ], [ -54.942077, -28.3863287 ], [ -54.942117, -28.3863607 ], [ -54.9421834, -28.3865011 ], [ -54.942223, -28.3866122 ], [ -54.942237, -28.3866658 ], [ -54.9422363, -28.3867059 ], [ -54.9422356, -28.3867415 ], [ -54.9422345, -28.3867949 ], [ -54.9422533, -28.3868709 ], [ -54.942292, -28.3869562 ], [ -54.9423262, -28.3870146 ], [ -54.9424262, -28.3870562 ], [ -54.9425119, -28.3870575 ], [ -54.9426727, -28.3870822 ], [ -54.9427833, -28.3871039 ], [ -54.9428345, -28.3871612 ], [ -54.9428827, -28.387268599999985 ], [ -54.9429188, -28.3873999 ], [ -54.9429371, -28.3874937 ], [ -54.942971, -28.38757 ], [ -54.9430159, -28.3875929 ], [ -54.9431516, -28.3876128 ], [ -54.9432369, -28.3876363 ], [ -54.9433115, -28.3876909 ], [ -54.9433793, -28.3878389 ], [ -54.9434228, -28.3879331 ], [ -54.9435719, -28.3880467 ], [ -54.9436808, -28.3881508 ], [ -54.943695, -28.3882 ], [ -54.943739, -28.3882719 ], [ -54.9438171, -28.3884067 ], [ -54.9438165, -28.3884379 ], [ -54.9438485, -28.3885236 ], [ -54.9438212, -28.388674199999986 ], [ -54.9438118, -28.3887388 ], [ -54.9438065, -28.389011799999988 ], [ -54.9438456, -28.3890987 ], [ -54.9440129, -28.3892809 ], [ -54.9440849, -28.3893467 ], [ -54.9442291, -28.3894639 ], [ -54.9443333, -28.3895445 ], [ -54.9444043, -28.3896267 ], [ -54.9444279, -28.3897165 ], [ -54.9444462, -28.389762099999988 ], [ -54.944529, -28.3898003 ], [ -54.9445754, -28.3898592 ], [ -54.9446033, -28.3899432 ], [ -54.944641, -28.3899863 ], [ -54.9447108, -28.3900299 ], [ -54.944801, -28.3900488 ], [ -54.9448947, -28.3900502 ], [ -54.9450247, -28.3900614 ], [ -54.9451593, -28.3901002 ], [ -54.9452571, -28.3901569 ], [ -54.9453185, -28.3902176 ], [ -54.9453422, -28.3902662 ], [ -54.9453879, -28.3903874 ], [ -54.9454734, -28.3905511 ], [ -54.9454976, -28.3906527 ], [ -54.945517, -28.3907219 ], [ -54.9455613, -28.390856 ], [ -54.9455865, -28.3908978 ], [ -54.9456997, -28.3909685 ], [ -54.9457813, -28.3910617 ], [ -54.9458114, -28.3911173 ], [ -54.9458281, -28.3911844 ], [ -54.9458468, -28.3912339 ], [ -54.945865, -28.3913064 ], [ -54.945909, -28.3913995 ], [ -54.9459342, -28.391449 ], [ -54.9459688, -28.3915246 ], [ -54.9460093, -28.3916428 ], [ -54.9460346, -28.3916894 ], [ -54.946069, -28.3917737 ], [ -54.9461136, -28.3918809 ], [ -54.9461856, -28.3920721 ], [ -54.9462118, -28.3921717 ], [ -54.9462027, -28.3922369 ], [ -54.9461759, -28.3923358 ], [ -54.9461685, -28.392382 ], [ -54.946177, -28.3924514 ], [ -54.9461987, -28.3925095 ], [ -54.946227, -28.3925706 ], [ -54.9462523, -28.3926144 ], [ -54.9463158, -28.3926386 ], [ -54.9463944, -28.3927026 ], [ -54.9464731, -28.3928043 ], [ -54.9464902, -28.392854 ], [ -54.9465058, -28.3928997 ], [ -54.9465048, -28.3929473 ], [ -54.9465061, -28.3929931 ], [ -54.9465067, -28.393041 ], [ -54.9465178, -28.3931445 ], [ -54.9465356, -28.3931869 ], [ -54.9465678, -28.3932368 ], [ -54.9466248, -28.3932908 ], [ -54.9467271, -28.3933656 ], [ -54.9468442, -28.3934223 ], [ -54.9468896, -28.393434 ], [ -54.9469472, -28.3934795 ], [ -54.9469957, -28.3934945 ], [ -54.9470617, -28.3935654 ], [ -54.9470939, -28.3936154 ], [ -54.9471201, -28.3936524 ], [ -54.9471849, -28.3937358 ], [ -54.9472175, -28.3937656 ], [ -54.947248, -28.393799 ], [ -54.9472796, -28.3938864 ], [ -54.9473019, -28.3939105 ], [ -54.9473195, -28.3939694 ], [ -54.947767, -28.3956599 ], [ -54.9480856, -28.3959207 ], [ -54.9482405, -28.3964879 ], [ -54.9483343, -28.3965818 ], [ -54.9485788, -28.3979121 ], [ -54.9500911, -28.3976392 ], [ -54.9515604, -28.3973966 ], [ -54.9518377, -28.3973499 ], [ -54.9531591, -28.3970937 ], [ -54.9528507, -28.3957184 ], [ -54.9526484, -28.394778899999988 ], [ -54.9526131, -28.3946571 ], [ -54.9525697, -28.3945735 ], [ -54.9525262, -28.3945329 ], [ -54.9524692, -28.3945114 ], [ -54.9524013, -28.3945067 ], [ -54.952309, -28.3945114 ], [ -54.9510159, -28.3947672 ], [ -54.9495395, -28.3950091 ], [ -54.9492093, -28.3936598 ], [ -54.9490622, -28.3930365 ], [ -54.9489019, -28.3923571 ], [ -54.9485862, -28.3910192 ], [ -54.9482859, -28.3897465 ], [ -54.9480128, -28.3885892 ], [ -54.9479736, -28.3885089 ], [ -54.9479159, -28.3884701 ], [ -54.9475971, -28.3870392 ] ] ] } },
{ "type": "Feature", "properties": { "name": "Duque de Caxias", "code_muni": 4318903.0, "name_muni": "São Luiz Gonzaga" }, "geometry": { "type": "Polygon", "coordinates": [ [ [ -54.9613651, -28.3907412 ], [ -54.9613489, -28.3906668 ], [ -54.9613539, -28.3905722 ], [ -54.9613572, -28.3905156 ], [ -54.9614081, -28.3904569 ], [ -54.9614366, -28.3904115 ], [ -54.9614522, -28.3903572 ], [ -54.9614528, -28.3903228 ], [ -54.9614462, -28.3902505 ], [ -54.9614387, -28.390214499999988 ], [ -54.9614526, -28.3901702 ], [ -54.961465, -28.3901116 ], [ -54.9614538, -28.390021099999988 ], [ -54.9614449, -28.3899751 ], [ -54.9614214, -28.3899274 ], [ -54.9613594, -28.3898621 ], [ -54.9613122, -28.3898145 ], [ -54.9612532, -28.3897666 ], [ -54.9612057, -28.3897351 ], [ -54.9611432, -28.3897034 ], [ -54.9610655, -28.3896802 ], [ -54.9610061, -28.3896632 ], [ -54.96095, -28.3896462 ], [ -54.9608969, -28.3896381 ], [ -54.9608289, -28.3896326 ], [ -54.9607708, -28.3896303 ], [ -54.9607143, -28.3896295 ], [ -54.9606529, -28.3896315 ], [ -54.9606044, -28.3896483 ], [ -54.9605191, -28.3896793 ], [ -54.96044710000001, -28.3897047 ], [ -54.9603066, -28.3897569 ], [ -54.960243, -28.3897794 ], [ -54.9601861, -28.3898035 ], [ -54.9601125, -28.3898288 ], [ -54.9599889, -28.3898651 ], [ -54.9599123, -28.389875699999987 ], [ -54.9598491, -28.3898777 ], [ -54.9598123, -28.3898726 ], [ -54.9597576, -28.3898688 ], [ -54.9597098, -28.3898505 ], [ -54.9596652, -28.3898366 ], [ -54.9595843, -28.3897938 ], [ -54.9595, -28.389765 ], [ -54.9594416, -28.3897473 ], [ -54.9593622, -28.3897293 ], [ -54.9592931, -28.3897283 ], [ -54.9592357, -28.3897366 ], [ -54.9591695, -28.3897616 ], [ -54.9591119, -28.3897822 ], [ -54.9590423, -28.3898056 ], [ -54.958978, -28.3898168 ], [ -54.9589139, -28.3898174 ], [ -54.9588376, -28.3898254 ], [ -54.9587596, -28.3898273 ], [ -54.9586783, -28.3898261 ], [ -54.9586282, -28.3898192 ], [ -54.9585192, -28.3897946 ], [ -54.9584899, -28.3897835 ], [ -54.9583985, -28.3897683 ], [ -54.9583518, -28.3897645 ], [ -54.9582773, -28.3897696 ], [ -54.9581369, -28.3897782 ], [ -54.9580575, -28.3897647 ], [ -54.9579818, -28.3897422 ], [ -54.9579218, -28.3897092 ], [ -54.9578691, -28.3896594 ], [ -54.9578264, -28.3896188 ], [ -54.9577875, -28.3895662 ], [ -54.95769640000001, -28.3897714 ], [ -54.9574982, -28.390226 ], [ -54.9573154, -28.3908731 ], [ -54.9575877, -28.3921437 ], [ -54.9578852, -28.3933954 ], [ -54.9582139, -28.3946818 ], [ -54.9571132, -28.3948941 ], [ -54.956092, -28.3951113 ], [ -54.955703, -28.395194 ], [ -54.9538819, -28.395534 ], [ -54.9528507, -28.3957184 ], [ -54.9531591, -28.3970937 ], [ -54.9518377, -28.3973499 ], [ -54.9515604, -28.3973966 ], [ -54.9518583, -28.3986909 ], [ -54.9520441, -28.3994554 ], [ -54.9522561, -28.4002072 ], [ -54.9537593, -28.3999282 ], [ -54.955002, -28.3996866 ], [ -54.9566491, -28.3993597 ], [ -54.9580996, -28.3990302 ], [ -54.9592106, -28.3988098 ], [ -54.9608205, -28.398474 ], [ -54.9623041, -28.3981871 ], [ -54.9632043, -28.3980228 ], [ -54.9646871, -28.3977159 ], [ -54.9661263, -28.3974715 ], [ -54.9658155, -28.3961697 ], [ -54.9665508, -28.3960343 ], [ -54.9672792, -28.3958904 ], [ -54.966976, -28.3945422 ], [ -54.9666743, -28.3932526 ], [ -54.9663516, -28.3918805 ], [ -54.9660481, -28.390588199999989 ], [ -54.9659004, -28.3900151 ], [ -54.9613651, -28.3907412 ] ] ] } },
{ "type": "Feature", "properties": { "name": "Pedreira", "code_muni": 4318903.0, "name_muni": "São Luiz Gonzaga" }, "geometry": { "type": "Polygon", "coordinates": [ [ [ -54.9743833, -28.3976026 ], [ -54.9725018, -28.3982086 ], [ -54.9710918, -28.398697299999988 ], [ -54.9712464, -28.3992949 ], [ -54.9715607, -28.40061 ], [ -54.97185, -28.4019232 ], [ -54.9721424, -28.4032312 ], [ -54.9724876, -28.404602 ], [ -54.9740076, -28.4043067 ], [ -54.9754919, -28.404027 ], [ -54.9769853, -28.4037564 ], [ -54.9784475, -28.4034865 ], [ -54.9781456, -28.4021955 ], [ -54.9778774, -28.4008341 ], [ -54.9777236, -28.4001804 ], [ -54.9775556, -28.3995221 ], [ -54.9774369, -28.3990711 ], [ -54.9773641, -28.398961899999986 ], [ -54.976806, -28.3967628 ], [ -54.9743833, -28.3976026 ] ] ] } },
{ "type": "Feature", "properties": { "name": "Raimundo Gomes Neto", "code_muni": 4318903.0, "name_muni": "São Luiz Gonzaga" }, "geometry": { "type": "Polygon", "coordinates": [ [ [ -54.9467733, -28.4039189 ], [ -54.9482508, -28.4036325 ], [ -54.9483102, -28.4036248 ], [ -54.9497496, -28.4033381 ], [ -54.9513857, -28.4030337 ], [ -54.9528408, -28.4027565 ], [ -54.9525672, -28.401559099999986 ], [ -54.9524237, -28.4009126 ], [ -54.9522561, -28.4002072 ], [ -54.9520441, -28.3994554 ], [ -54.9518583, -28.3986909 ], [ -54.9515604, -28.3973966 ], [ -54.9500911, -28.3976392 ], [ -54.9485788, -28.3979121 ], [ -54.9483343, -28.3965818 ], [ -54.9482405, -28.3964879 ], [ -54.9480856, -28.3959207 ], [ -54.947767, -28.3956599 ], [ -54.9473195, -28.3939694 ], [ -54.9383428, -28.3941298 ], [ -54.9382909, -28.3943641 ], [ -54.9382293, -28.394614 ], [ -54.9381813, -28.3948914 ], [ -54.9381415, -28.3951165 ], [ -54.9381012, -28.3953667 ], [ -54.9380744, -28.3956485 ], [ -54.9379972, -28.395967099999989 ], [ -54.9379916, -28.396285 ], [ -54.9379657, -28.3964767 ], [ -54.9379271, -28.3966369 ], [ -54.9379221, -28.3968931 ], [ -54.9379501, -28.3970543 ], [ -54.9379851, -28.3973097 ], [ -54.9380269, -28.3974449 ], [ -54.9380416, -28.3976019 ], [ -54.9381463, -28.397925 ], [ -54.9381972, -28.3980473 ], [ -54.9382265, -28.398138 ], [ -54.938245, -28.3983304 ], [ -54.9382077, -28.3985565 ], [ -54.9382346, -28.398745499999986 ], [ -54.9382875, -28.3989427 ], [ -54.9384016, -28.3991253 ], [ -54.9385595, -28.399313599999982 ], [ -54.9387398, -28.3994587 ], [ -54.9390673, -28.3996572 ], [ -54.9393099, -28.399769 ], [ -54.9419355, -28.4022107 ], [ -54.9435895, -28.4033039 ], [ -54.9453834, -28.4046027 ], [ -54.9470065, -28.4048004 ], [ -54.9467733, -28.4039189 ] ] ] } },
{ "type": "Feature", "properties": { "name": "Vila Jari", "code_muni": 4318903.0, "name_muni": "São Luiz Gonzaga" }, "geometry": { "type": "Polygon", "coordinates": [ [ [ -54.9453834, -28.4046027 ], [ -54.9435895, -28.4033039 ], [ -54.9419355, -28.4022107 ], [ -54.9393099, -28.399769 ], [ -54.939641, -28.4010949 ], [ -54.939134, -28.4050827 ], [ -54.9393123, -28.4055287 ], [ -54.9393519, -28.4057039 ], [ -54.9394707, -28.4062051 ], [ -54.93952250000001, -28.4064667 ], [ -54.9396214, -28.4064431 ], [ -54.9413253, -28.406065 ], [ -54.94261, -28.4058074 ], [ -54.9433403, -28.4056714 ], [ -54.9441121, -28.405536 ], [ -54.9455826, -28.405299 ], [ -54.9470822, -28.4050675 ], [ -54.9470065, -28.4048004 ], [ -54.9453834, -28.4046027 ] ] ] } },
{ "type": "Feature", "properties": { "name": "Agrícola", "code_muni": 4318903.0, "name_muni": "São Luiz Gonzaga" }, "geometry": { "type": "Polygon", "coordinates": [ [ [ -54.9391907, -28.4109167 ], [ -54.9400939, -28.4107495 ], [ -54.9421202, -28.4103743 ], [ -54.9436456, -28.4100771 ], [ -54.9451369, -28.4098064 ], [ -54.9455187, -28.4097369 ], [ -54.9455795, -28.4097254 ], [ -54.9454651, -28.4096582 ], [ -54.9453647, -28.4095865 ], [ -54.9451612, -28.409467 ], [ -54.9450873, -28.4094068 ], [ -54.9450498, -28.4093439 ], [ -54.944792, -28.4085565 ], [ -54.9463312, -28.4082824 ], [ -54.9477874, -28.4080014 ], [ -54.9492604, -28.407723 ], [ -54.9489048, -28.406265699999985 ], [ -54.9485913, -28.4048719 ], [ -54.9484403, -28.4042688 ], [ -54.9483102, -28.4036248 ], [ -54.9482508, -28.4036325 ], [ -54.9467733, -28.4039189 ], [ -54.9470065, -28.4048004 ], [ -54.9470822, -28.4050675 ], [ -54.9455826, -28.405299 ], [ -54.9441121, -28.405536 ], [ -54.9433403, -28.4056714 ], [ -54.94261, -28.4058074 ], [ -54.9413253, -28.406065 ], [ -54.9396214, -28.4064431 ], [ -54.93952250000001, -28.4064667 ], [ -54.9394707, -28.4062051 ], [ -54.9393519, -28.4057039 ], [ -54.9393123, -28.4055287 ], [ -54.939134, -28.4050827 ], [ -54.9378273, -28.4053512 ], [ -54.9375574, -28.406799 ], [ -54.9375805, -28.4082354 ], [ -54.9376736, -28.4083479 ], [ -54.9375482, -28.410091499999989 ], [ -54.9375671, -28.4103476 ], [ -54.9375783, -28.4105064 ], [ -54.9377401, -28.4111964 ], [ -54.9391907, -28.4109167 ] ] ] } },
{ "type": "Feature", "properties": { "name": "Área Industrial", "code_muni": 4318903.0, "name_muni": "São Luiz Gonzaga" }, "geometry": { "type": "Polygon", "coordinates": [ [ [ -54.917866, -28.4126623 ], [ -54.9121582, -28.4128812 ], [ -54.9120615, -28.4176228 ], [ -54.912169, -28.4176181 ], [ -54.9130351, -28.4175853 ], [ -54.9145356, -28.417525 ], [ -54.9153228, -28.4174888 ], [ -54.9163943, -28.4174372 ], [ -54.9170174, -28.4174071 ], [ -54.9176403, -28.4173814 ], [ -54.9187394, -28.4173318 ], [ -54.9194876, -28.417308 ], [ -54.9205623, -28.4172738 ], [ -54.9213784, -28.4172359 ], [ -54.9221741, -28.417204 ], [ -54.9231348, -28.4171717 ], [ -54.9237499, -28.417148 ], [ -54.9242227, -28.4171294 ], [ -54.924312, -28.4126429 ], [ -54.9243685, -28.4126421 ], [ -54.9261152, -28.4126532 ], [ -54.9262615, -28.4126541 ], [ -54.927958, -28.4126648 ], [ -54.9281108, -28.4126657 ], [ -54.9291038, -28.4126721 ], [ -54.9299418, -28.4126607 ], [ -54.9302814, -28.4126131 ], [ -54.931795, -28.4123338 ], [ -54.9332882, -28.4120573 ], [ -54.9334299, -28.4120307 ], [ -54.9347439, -28.4117841 ], [ -54.9363511, -28.4114637 ], [ -54.9377401, -28.4111964 ], [ -54.9375783, -28.4105064 ], [ -54.9375671, -28.4103476 ], [ -54.9374193, -28.4103431 ], [ -54.9372068, -28.4103638 ], [ -54.9369981, -28.4103701 ], [ -54.9367558, -28.4103621 ], [ -54.9364774, -28.410334 ], [ -54.9362806, -28.4103067 ], [ -54.9360118, -28.4102352 ], [ -54.9356103, -28.410087 ], [ -54.9273125, -28.40623 ], [ -54.92658680000001, -28.4058526 ], [ -54.9261079, -28.4055421 ], [ -54.9257924, -28.4051702 ], [ -54.9256662, -28.4048593 ], [ -54.9255463, -28.404493 ], [ -54.9255021, -28.4041433 ], [ -54.9254832, -28.4037769 ], [ -54.92554, -28.4034994 ], [ -54.9256283, -28.4032107 ], [ -54.9258302, -28.4028333 ], [ -54.9263288, -28.4020506 ], [ -54.9265118, -28.4016454 ], [ -54.9265875, -28.4013512 ], [ -54.9266506, -28.400946 ], [ -54.926638, -28.4005963 ], [ -54.9265875, -28.4002965 ], [ -54.9265118, -28.4000245 ], [ -54.9263666, -28.399724699999986 ], [ -54.9258113, -28.3985368 ], [ -54.9256094, -28.3979095 ], [ -54.9253948, -28.3968493 ], [ -54.9250036, -28.3952339 ], [ -54.9248269, -28.3946676 ], [ -54.9244546, -28.393896 ], [ -54.9233628, -28.3917032 ], [ -54.9231167, -28.3913535 ], [ -54.9228012, -28.3910315 ], [ -54.9223697, -28.3907522 ], [ -54.9222419, -28.3906773 ], [ -54.9216827, -28.3903519 ], [ -54.9212633, -28.3909254 ], [ -54.921026, -28.3914321 ], [ -54.9208612, -28.3920646 ], [ -54.9207427, -28.3925998 ], [ -54.9206673, -28.3927724 ], [ -54.9204908, -28.3930079 ], [ -54.9201867, -28.3932529 ], [ -54.9197708, -28.3936722 ], [ -54.9195763, -28.3938405 ], [ -54.9194842, -28.3941622 ], [ -54.9194392, -28.3943328 ], [ -54.9193148, -28.3946916 ], [ -54.9192986, -28.3947436 ], [ -54.9192773, -28.3948485 ], [ -54.9192865, -28.3950206 ], [ -54.9192948, -28.3952371 ], [ -54.9192975, -28.3954202 ], [ -54.9193007, -28.3955755 ], [ -54.9192979, -28.3957197 ], [ -54.9192821, -28.3958859 ], [ -54.9192108, -28.3960013 ], [ -54.9191703, -28.3961473 ], [ -54.9190732, -28.3962956 ], [ -54.9190275, -28.3963836 ], [ -54.9189742, -28.3965381 ], [ -54.9189602, -28.39661 ], [ -54.9190005, -28.3967992 ], [ -54.9190367, -28.3968719 ], [ -54.9190788, -28.3969668 ], [ -54.9191207, -28.3970729 ], [ -54.919169, -28.3971735 ], [ -54.9192054, -28.3972406 ], [ -54.91926560000001, -28.3974079 ], [ -54.9193143, -28.3975557 ], [ -54.9193559, -28.3976578 ], [ -54.9194202, -28.3978129 ], [ -54.9194695, -28.3979256 ], [ -54.9194999, -28.3979926 ], [ -54.9195413, -28.3981148 ], [ -54.9195716, -28.3981888 ], [ -54.9196056, -28.3982733 ], [ -54.9196593, -28.3983652 ], [ -54.9197213, -28.3984361 ], [ -54.9198273, -28.3984867 ], [ -54.9199495, -28.3985236 ], [ -54.9200755, -28.398564 ], [ -54.9202078, -28.3986493 ], [ -54.9202085, -28.3988531 ], [ -54.920203, -28.398937 ], [ -54.9202015, -28.3990105 ], [ -54.9202551, -28.3991724 ], [ -54.9212107, -28.3995323 ], [ -54.9216989, -28.3985189 ], [ -54.9234226, -28.3991681 ], [ -54.923415, -28.4013361 ], [ -54.9220962, -28.4013324 ], [ -54.9217919, -28.4126767 ], [ -54.9196055, -28.4126732 ], [ -54.9189011, -28.4126721 ], [ -54.9183033, -28.4127028 ], [ -54.9180132, -28.4126755 ], [ -54.917866, -28.4126623 ] ] ] } },
{ "type": "Feature", "properties": { "name": "Jardim Residencial Centenário", "code_muni": 4318903.0, "name_muni": "São Luiz Gonzaga" }, "geometry": { "type": "Polygon", "coordinates": [ [ [ -54.9345171, -28.415574599999989 ], [ -54.9350553, -28.4154894 ], [ -54.9356657, -28.4153851 ], [ -54.936902, -28.4151764 ], [ -54.9368373, -28.414612 ], [ -54.936753, -28.4140329 ], [ -54.9366596, -28.4134247 ], [ -54.9365606, -28.412767 ], [ -54.9364696, -28.41219 ], [ -54.9348959, -28.4124415 ], [ -54.9350169, -28.4130676 ], [ -54.9346557, -28.4131461 ], [ -54.9340925, -28.4132517 ], [ -54.9335692, -28.4133628 ], [ -54.933279, -28.4134229 ], [ -54.9332852, -28.4143791 ], [ -54.9332872, -28.4146847 ], [ -54.9332943, -28.4157656 ], [ -54.9345171, -28.415574599999989 ] ] ] } },
{ "type": "Feature", "properties": { "name": "Antenor Ferrari", "code_muni": 4318903.0, "name_muni": "São Luiz Gonzaga" }, "geometry": { "type": "Polygon", "coordinates": [ [ [ -54.9242227, -28.4171294 ], [ -54.9243029, -28.4171272 ], [ -54.9254408, -28.4170893 ], [ -54.9275666, -28.4169964 ], [ -54.928639, -28.4169539 ], [ -54.9300153, -28.416912 ], [ -54.9311042, -28.4168813 ], [ -54.931748, -28.4168522 ], [ -54.9327933, -28.4168009 ], [ -54.9338503, -28.4167554 ], [ -54.9345718, -28.416714399999989 ], [ -54.9354666, -28.4166672 ], [ -54.935882, -28.416649 ], [ -54.936124, -28.4166468 ], [ -54.9365069, -28.4166453 ], [ -54.937117, -28.416682 ], [ -54.93704, -28.4161239 ], [ -54.936902, -28.4151764 ], [ -54.9356657, -28.4153851 ], [ -54.9350553, -28.4154894 ], [ -54.9345171, -28.415574599999989 ], [ -54.9332943, -28.4157656 ], [ -54.9332872, -28.4146847 ], [ -54.9332852, -28.4143791 ], [ -54.933279, -28.4134229 ], [ -54.9335692, -28.4133628 ], [ -54.9340925, -28.4132517 ], [ -54.9346557, -28.4131461 ], [ -54.9350169, -28.4130676 ], [ -54.9348959, -28.4124415 ], [ -54.9364696, -28.41219 ], [ -54.9363511, -28.4114637 ], [ -54.9347439, -28.4117841 ], [ -54.9334299, -28.4120307 ], [ -54.9332882, -28.4120573 ], [ -54.931795, -28.4123338 ], [ -54.9302814, -28.4126131 ], [ -54.9299418, -28.4126607 ], [ -54.9291038, -28.4126721 ], [ -54.9281108, -28.4126657 ], [ -54.927958, -28.4126648 ], [ -54.9262615, -28.4126541 ], [ -54.9261152, -28.4126532 ], [ -54.9243685, -28.4126421 ], [ -54.924312, -28.4126429 ], [ -54.9242227, -28.4171294 ] ] ] } },
{ "type": "Feature", "properties": { "name": "Vila Mário", "code_muni": 4318903.0, "name_muni": "São Luiz Gonzaga" }, "geometry": { "type": "Polygon", "coordinates": [ [ [ -54.937117, -28.416682 ], [ -54.9375593, -28.4167185 ], [ -54.9379068, -28.4167575 ], [ -54.9384221, -28.4168228 ], [ -54.9391814, -28.4169589 ], [ -54.9398292, -28.4170739 ], [ -54.9402727, -28.4171572 ], [ -54.9407989, -28.4172526 ], [ -54.9411974, -28.4173208 ], [ -54.9413805, -28.4173691 ], [ -54.9414041, -28.4172346 ], [ -54.9414946, -28.4169192 ], [ -54.9416109, -28.4167089 ], [ -54.941724, -28.4165384 ], [ -54.9419114, -28.4163167 ], [ -54.9421052, -28.4161292 ], [ -54.9424574, -28.4159274 ], [ -54.9425874, -28.4158705 ], [ -54.942652, -28.4158495 ], [ -54.9433136, -28.4156774 ], [ -54.9454622, -28.4152653 ], [ -54.9462796, -28.4150465 ], [ -54.9466182, -28.4149146 ], [ -54.9469491, -28.414701 ], [ -54.9471198, -28.4145433 ], [ -54.9472076, -28.4144622 ], [ -54.9473575, -28.4142963 ], [ -54.9475513, -28.4139757 ], [ -54.9477168, -28.4136484 ], [ -54.9478227, -28.4133074 ], [ -54.947831, -28.4131154 ], [ -54.9478434, -28.4128595 ], [ -54.9478202, -28.4125253 ], [ -54.9477323, -28.4122616 ], [ -54.9475824, -28.4119592 ], [ -54.9475147, -28.4118401 ], [ -54.9474454, -28.4117182 ], [ -54.9470732, -28.4113113 ], [ -54.9466007, -28.4108115 ], [ -54.946901, -28.4107689 ], [ -54.9465996, -28.4095148 ], [ -54.9455795, -28.4097254 ], [ -54.9455187, -28.4097369 ], [ -54.9451369, -28.4098064 ], [ -54.9436456, -28.4100771 ], [ -54.9421202, -28.4103743 ], [ -54.9400939, -28.4107495 ], [ -54.9391907, -28.4109167 ], [ -54.9377401, -28.4111964 ], [ -54.9363511, -28.4114637 ], [ -54.9364696, -28.41219 ], [ -54.9365606, -28.412767 ], [ -54.9366596, -28.4134247 ], [ -54.936753, -28.4140329 ], [ -54.9368373, -28.414612 ], [ -54.936902, -28.4151764 ], [ -54.93704, -28.4161239 ], [ -54.937117, -28.416682 ] ] ] } },
{ "type": "Feature", "properties": { "name": "Auxiliadora", "code_muni": 4318903.0, "name_muni": "São Luiz Gonzaga" }, "geometry": { "type": "Polygon", "coordinates": [ [ [ -54.9417648, -28.4174207 ], [ -54.9426448, -28.4175834 ], [ -54.9441355, -28.4178673 ], [ -54.945011, -28.4180394 ], [ -54.9460661, -28.418235 ], [ -54.9469885, -28.4184097 ], [ -54.9478585, -28.4185704 ], [ -54.9484134, -28.4186699 ], [ -54.9488737, -28.4187583 ], [ -54.9485573, -28.4173186 ], [ -54.9483053, -28.4163703 ], [ -54.9481365, -28.415729 ], [ -54.9479741, -28.4150467 ], [ -54.9478048, -28.4144185 ], [ -54.9471198, -28.4145433 ], [ -54.9469491, -28.414701 ], [ -54.9466182, -28.4149146 ], [ -54.9462796, -28.4150465 ], [ -54.9454622, -28.4152653 ], [ -54.9433136, -28.4156774 ], [ -54.942652, -28.4158495 ], [ -54.9425874, -28.4158705 ], [ -54.9424574, -28.4159274 ], [ -54.9421052, -28.4161292 ], [ -54.9419114, -28.4163167 ], [ -54.941724, -28.4165384 ], [ -54.9416109, -28.4167089 ], [ -54.9414946, -28.4169192 ], [ -54.9414041, -28.4172346 ], [ -54.9413805, -28.4173691 ], [ -54.9417648, -28.4174207 ] ] ] } },
{ "type": "Feature", "properties": { "name": "Presidente Vargas", "code_muni": 4318903.0, "name_muni": "São Luiz Gonzaga" }, "geometry": { "type": "Polygon", "coordinates": [ [ [ -54.956066, -28.4173006 ], [ -54.9557844, -28.416006 ], [ -54.9572094, -28.4157467 ], [ -54.9565759, -28.4128567 ], [ -54.9478048, -28.4144185 ], [ -54.9479741, -28.4150467 ], [ -54.9481365, -28.415729 ], [ -54.9483053, -28.4163703 ], [ -54.9485573, -28.4173186 ], [ -54.9488737, -28.4187583 ], [ -54.9491585, -28.4188051 ], [ -54.9497614, -28.4189138 ], [ -54.9502801, -28.4190058 ], [ -54.950432, -28.4190268 ], [ -54.9506501, -28.4190539 ], [ -54.950785, -28.4190699 ], [ -54.9509548, -28.4190895 ], [ -54.951166, -28.419105 ], [ -54.9514116, -28.4191196 ], [ -54.9518227, -28.4191217 ], [ -54.9521055, -28.4191136 ], [ -54.952619, -28.419079 ], [ -54.9532024, -28.4190377 ], [ -54.9536236, -28.4190052 ], [ -54.9542029, -28.4189632 ], [ -54.9548579, -28.4189298 ], [ -54.9554362, -28.4188969 ], [ -54.9560011, -28.418866799999989 ], [ -54.9563615, -28.4188417 ], [ -54.9563158, -28.4186012 ], [ -54.956066, -28.4173006 ] ] ] } },
{ "type": "Feature", "properties": { "name": "Monsenhor Wolski", "code_muni": 4318903.0, "name_muni": "São Luiz Gonzaga" }, "geometry": { "type": "Polygon", "coordinates": [ [ [ -54.9654102, -28.4175214 ], [ -54.9652105, -28.4169942 ], [ -54.9649242, -28.4161343 ], [ -54.9648069, -28.4157225 ], [ -54.9644009, -28.4143762 ], [ -54.963797, -28.4144786 ], [ -54.9630992, -28.4145912 ], [ -54.9620186, -28.4148417 ], [ -54.9607797, -28.415094 ], [ -54.9602296, -28.415206 ], [ -54.9586457, -28.4154869 ], [ -54.9572094, -28.4157467 ], [ -54.9557844, -28.416006 ], [ -54.956066, -28.4173006 ], [ -54.9563158, -28.4186012 ], [ -54.9563615, -28.4188417 ], [ -54.9564884, -28.4194664 ], [ -54.9568927, -28.421457 ], [ -54.957044, -28.4214363 ], [ -54.9582882, -28.4211885 ], [ -54.9590059, -28.424005 ], [ -54.9645239, -28.4233688 ], [ -54.9678795, -28.4231146 ], [ -54.96742290000001, -28.4216817 ], [ -54.9641516, -28.4220009 ], [ -54.9641179, -28.4211455 ], [ -54.9660716, -28.4201558 ], [ -54.9654787, -28.4181971 ], [ -54.9653975, -28.4179289 ], [ -54.9654102, -28.4175214 ] ] ] } }
]
}
