{
"type": "FeatureCollection",
"name": "bairros_santo_expedito_do_sul",
"crs": { "type": "name", "properties": { "name": "urn:ogc:def:crs:OGC:1.3:CRS84" } },
"features": [
{ "type": "Feature", "properties": { "code_muni": 4317954.0, "name_muni": "Santo Expedito do Sul", "code_state": 43.0, "abbrev_state": "RS", "name_state": "Rio Grande do Sul", "code_region": 4.0, "name_region": "Sul", "year": 2022.0 }, "geometry": { "type": "Polygon", "coordinates": [ [ [ -51.608274663, -27.892240506 ], [ -51.596268236999897, -27.898270456 ], [ -51.595467202999892, -27.901462858999892 ], [ -51.587942852, -27.898916087 ], [ -51.59019579599989, -27.901176926999895 ], [ -51.5916783179999, -27.911343219999903 ], [ -51.599335906, -27.917052515 ], [ -51.599454745999893, -27.923169677 ], [ -51.601728346, -27.927885771 ], [ -51.603999115, -27.928455605 ], [ -51.606410102, -27.926906492999905 ], [ -51.608924663, -27.928588055 ], [ -51.612016523, -27.934611569 ], [ -51.614625858999894, -27.934997698 ], [ -51.610333024999903, -27.945209858999903 ], [ -51.61160069399989, -27.946258242999907 ], [ -51.607131937, -27.94745151 ], [ -51.600918621999895, -27.954192232 ], [ -51.606585939, -27.959325154999902 ], [ -51.605363827, -27.96024174 ], [ -51.615848550999893, -27.969259867999899 ], [ -51.627911900999891, -27.96712952 ], [ -51.631460010999902, -27.967809331999895 ], [ -51.636232021, -27.966254321999909 ], [ -51.640440881, -27.966607920999895 ], [ -51.644810831, -27.968484823 ], [ -51.646711401999895, -27.974542299999907 ], [ -51.654420231, -27.972337829 ], [ -51.657773767, -27.974368387 ], [ -51.660678464999897, -27.974497149999898 ], [ -51.663217478999989, -27.977865758 ], [ -51.669666569, -27.976230718999901 ], [ -51.672735576, -27.977942232 ], [ -51.674347564999898, -27.982649705 ], [ -51.681894827, -27.983339851 ], [ -51.683566947, -27.991865317 ], [ -51.686003598, -27.99479257 ], [ -51.691946820999902, -27.991639037 ], [ -51.6967313439999, -27.985630082999894 ], [ -51.695420629999902, -27.977130624 ], [ -51.691631682, -27.96672437 ], [ -51.712215221999891, -27.968314458 ], [ -51.710377401, -27.960271737 ], [ -51.711324315999896, -27.946513524 ], [ -51.720094737999894, -27.9448929079999 ], [ -51.726426085, -27.938308508 ], [ -51.73395506, -27.940324899 ], [ -51.737739404, -27.938776160999989 ], [ -51.733422333, -27.933179687999903 ], [ -51.722950841999896, -27.928553085 ], [ -51.720782547999896, -27.926365129 ], [ -51.722231543, -27.924912553 ], [ -51.729582872, -27.925269274000012 ], [ -51.736594456, -27.922670551 ], [ -51.738422866999905, -27.920745973 ], [ -51.737262020999893, -27.919305397999899 ], [ -51.733756926, -27.918606504 ], [ -51.730998665999898, -27.913821226 ], [ -51.731245853, -27.910449184 ], [ -51.739873412999891, -27.902251158999896 ], [ -51.737240508999903, -27.894326447 ], [ -51.730988748999899, -27.892149173999901 ], [ -51.73059318299989, -27.890464979999898 ], [ -51.732038305999893, -27.890336315 ], [ -51.729913692, -27.889244241 ], [ -51.720925125, -27.896943222999898 ], [ -51.711376388, -27.896537947 ], [ -51.708109878, -27.900562421 ], [ -51.70366376, -27.900443353999897 ], [ -51.696191473999896, -27.904725734999893 ], [ -51.695181455, -27.903679709999896 ], [ -51.696294129, -27.902278607 ], [ -51.691242165999896, -27.897532747 ], [ -51.685285246, -27.897810814 ], [ -51.679770865, -27.877960625 ], [ -51.673712744999889, -27.879885323999904 ], [ -51.6713798769999, -27.870855208 ], [ -51.664154526999901, -27.868921956999898 ], [ -51.648411857, -27.870692111 ], [ -51.640829336, -27.869465014999889 ], [ -51.643172719999903, -27.8640536519999 ], [ -51.64278336, -27.859380296 ], [ -51.639998262999903, -27.853545776 ], [ -51.640525359, -27.850529939 ], [ -51.6379242, -27.85012926 ], [ -51.632450678999902, -27.85344072 ], [ -51.619703579, -27.865198506 ], [ -51.608041079, -27.882041296999898 ], [ -51.608274663, -27.892240506 ] ] ] } }
]
}
