{
"type": "FeatureCollection",
"name": "bairros_fagundes_varela",
"crs": { "type": "name", "properties": { "name": "urn:ogc:def:crs:OGC:1.3:CRS84" } },
"features": [
{ "type": "Feature", "properties": { "code_muni": 4307864.0, "name_muni": "Fagundes Varela", "code_state": 43.0, "abbrev_state": "RS", "name_state": "Rio Grande do Sul", "code_region": 4.0, "name_region": "Sul", "year": 2022.0 }, "geometry": { "type": "Polygon", "coordinates": [ [ [ -51.754675597, -28.835984939 ], [ -51.667182177, -28.834838514 ], [ -51.666201739, -28.837026599999902 ], [ -51.656758915999902, -28.844780351999901 ], [ -51.653981296, -28.845875641 ], [ -51.650992802, -28.844949766999896 ], [ -51.651432229, -28.848291545999903 ], [ -51.647964451, -28.853856868 ], [ -51.646560553, -28.864802429999905 ], [ -51.649720192, -28.872630516999898 ], [ -51.620434744, -28.872885396999894 ], [ -51.620777876, -28.886390997 ], [ -51.623145328, -28.886396676999887 ], [ -51.626033998, -28.879627888999892 ], [ -51.631901813, -28.879040249 ], [ -51.63756733, -28.881090293999904 ], [ -51.64143570999989, -28.885269498 ], [ -51.645389176, -28.884147259 ], [ -51.646715494, -28.88530493 ], [ -51.646065534999899, -28.888571779 ], [ -51.649393765999903, -28.891127948 ], [ -51.6455869649999, -28.891194094 ], [ -51.645990449, -28.910249805 ], [ -51.659023895, -28.914125693999903 ], [ -51.663978164999897, -28.911818174 ], [ -51.66914408, -28.911134741999899 ], [ -51.670928779999898, -28.914203019999899 ], [ -51.675970384, -28.916889193 ], [ -51.677122297, -28.919277311 ], [ -51.682063859, -28.920069463999909 ], [ -51.683960686, -28.927251953999903 ], [ -51.686258891, -28.928522471999901 ], [ -51.68869285999989, -28.927190735 ], [ -51.693700517, -28.931781316999906 ], [ -51.780913181999892, -28.937494231999889 ], [ -51.7826949029999, -28.933696891999904 ], [ -51.790436166999903, -28.9323675649999 ], [ -51.790894587, -28.93014833 ], [ -51.789822914999895, -28.927960814 ], [ -51.78248337, -28.923589616 ], [ -51.779018468999894, -28.919454225 ], [ -51.779356588, -28.914561670999898 ], [ -51.781799392, -28.913994037 ], [ -51.786685265, -28.916560877999899 ], [ -51.791166324, -28.916897763999891 ], [ -51.798343464, -28.91026098 ], [ -51.813224503999898, -28.907819244999907 ], [ -51.816948184999895, -28.904444293 ], [ -51.817563086, -28.901034258 ], [ -51.810832703999893, -28.901871198 ], [ -51.808228416, -28.895116072 ], [ -51.799656685999892, -28.8941530019999 ], [ -51.799503532999893, -28.891885849999905 ], [ -51.801177606, -28.890007464999897 ], [ -51.801005394999898, -28.887183533 ], [ -51.799374125, -28.885868112 ], [ -51.791067692, -28.883939324 ], [ -51.786029352999897, -28.880746073 ], [ -51.777508794, -28.885386809 ], [ -51.776413624, -28.880339835 ], [ -51.770545427999892, -28.874554755 ], [ -51.765105835, -28.872817884 ], [ -51.758291658, -28.872607393 ], [ -51.759131626999903, -28.867672726 ], [ -51.764618487999897, -28.86699356 ], [ -51.765554972, -28.864573988 ], [ -51.758693174, -28.856623693 ], [ -51.756929612, -28.856358993 ], [ -51.756260515999898, -28.858971443 ], [ -51.754379957, -28.859998963 ], [ -51.752143818, -28.855826598 ], [ -51.755182683, -28.848212093 ], [ -51.753963219999896, -28.843574160999896 ], [ -51.750009984, -28.8400072049999 ], [ -51.754675597, -28.835984939 ] ] ] } }
]
}
