{
"type": "FeatureCollection",
"name": "bairros_selbach",
"crs": { "type": "name", "properties": { "name": "urn:ogc:def:crs:OGC:1.3:CRS84" } },
"features": [
{ "type": "Feature", "properties": { "code_muni": 4320305.0, "name_muni": "Selbach", "code_state": 43.0, "abbrev_state": "RS", "name_state": "Rio Grande do Sul", "code_region": 4.0, "name_region": "Sul", "year": 2022.0 }, "geometry": { "type": "Polygon", "coordinates": [ [ [ -52.940242054999892, -28.663174293999901 ], [ -52.938789922, -28.667540936 ], [ -52.942245840999902, -28.669850938 ], [ -52.941329724, -28.671610364999893 ], [ -52.937438748, -28.6728242249999 ], [ -52.930670971, -28.6712613609999 ], [ -52.928174268, -28.672798617 ], [ -52.928037399999894, -28.674338893 ], [ -52.932748219, -28.677724143 ], [ -52.935938878999892, -28.681691557 ], [ -52.935671092999897, -28.683659134 ], [ -52.937952211, -28.6848282509999 ], [ -52.936454708, -28.6902481 ], [ -52.942489694, -28.699388543999891 ], [ -52.936563162, -28.700157949999898 ], [ -52.933103192, -28.706494468 ], [ -52.930425118, -28.702954115 ], [ -52.924127567, -28.706996986 ], [ -52.924302951999891, -28.711602053 ], [ -52.930770605, -28.716060136999893 ], [ -52.922876651, -28.718209047999899 ], [ -52.927275637, -28.727504856999904 ], [ -52.928413281, -28.728017561999899 ], [ -52.928899923999893, -28.726365950999899 ], [ -52.930138257999893, -28.727462717 ], [ -52.929382970999896, -28.729263411 ], [ -52.926572428, -28.728607559999901 ], [ -52.925563068, -28.729798644 ], [ -52.943785423, -28.738556203 ], [ -52.950689221999895, -28.736821032 ], [ -52.956027538999891, -28.741287075999896 ], [ -52.962563116, -28.74326028 ], [ -52.960903238999897, -28.746953748999907 ], [ -52.952991711, -28.749459800999897 ], [ -52.952264187, -28.754013081 ], [ -52.956094121, -28.761007322999898 ], [ -52.963110329, -28.762781154 ], [ -52.967968880999891, -28.761979664 ], [ -52.97488935, -28.751704661 ], [ -52.985955998999898, -28.748496768999907 ], [ -52.991396021, -28.752319009 ], [ -53.00038918, -28.753903733 ], [ -53.004256512, -28.7567116079999 ], [ -53.0101255659999, -28.7571634839999 ], [ -53.011485202999893, -28.758521899 ], [ -53.010964077, -28.760601309 ], [ -52.997293573, -28.77027949 ], [ -52.998426437, -28.773050392 ], [ -53.001111659999893, -28.773749736999907 ], [ -53.007617292, -28.771654709 ], [ -53.014085478, -28.763681534999908 ], [ -53.018352821999891, -28.763651777 ], [ -53.021376271999891, -28.767708969999898 ], [ -53.027830286, -28.761534546999894 ], [ -53.0343041, -28.763706823999904 ], [ -53.031860953, -28.755867802 ], [ -53.027851445, -28.755493246000011 ], [ -53.027992205, -28.75264838 ], [ -53.03061199, -28.749807421 ], [ -53.032854976, -28.74973843 ], [ -53.033066861, -28.747532753 ], [ -53.029519835, -28.745874995 ], [ -53.0278593849999, -28.740947818999903 ], [ -53.025466117, -28.741353006999905 ], [ -53.027419595, -28.737250507999903 ], [ -53.0295186439999, -28.738315896 ], [ -53.031551641, -28.737156668999894 ], [ -53.031536928, -28.732709348999897 ], [ -53.029112566, -28.731667582999897 ], [ -53.032700569, -28.729446466 ], [ -53.031374515, -28.728393004999898 ], [ -53.032032023999896, -28.726527544 ], [ -53.026356609999894, -28.727146972999893 ], [ -53.025422154, -28.723617139999892 ], [ -53.023006073, -28.721361064 ], [ -53.019583828, -28.724509279 ], [ -53.01719280399989, -28.724559502 ], [ -53.015714828999897, -28.723220328 ], [ -53.014769246, -28.724180423999901 ], [ -53.013793157, -28.722508396999984 ], [ -53.016561312, -28.717696642 ], [ -53.012830865, -28.717013978 ], [ -53.012791746999895, -28.714970133999902 ], [ -53.015236316, -28.712350827 ], [ -53.018624828, -28.713299146999901 ], [ -53.01994578099989, -28.7106011179999 ], [ -53.018969601, -28.707647935 ], [ -53.016741017, -28.706942275 ], [ -53.024426992, -28.705289095999891 ], [ -53.018413016, -28.702950546999897 ], [ -53.0203540259999, -28.702199594 ], [ -53.021943587, -28.698077487 ], [ -53.024835146, -28.697112632 ], [ -53.025937492, -28.699736715 ], [ -53.027122817, -28.699497956999895 ], [ -53.026255428, -28.693517066 ], [ -53.03114888399989, -28.69355343 ], [ -53.030420085999893, -28.68911973 ], [ -53.026939058, -28.68776015 ], [ -53.035307076, -28.685243683 ], [ -53.034516595999897, -28.681665483 ], [ -53.032970468, -28.682362387 ], [ -53.032525842, -28.680326346 ], [ -53.031227847, -28.680451407 ], [ -53.031419888, -28.677961608 ], [ -53.029351786999889, -28.677176271 ], [ -53.031440614, -28.675957903 ], [ -53.031730963, -28.67339479 ], [ -53.027742054, -28.673311007999907 ], [ -53.029345718999899, -28.669390407 ], [ -53.025358873999892, -28.669665328999898 ], [ -53.024504141, -28.664972528 ], [ -53.026951444, -28.663451008 ], [ -53.025910734, -28.661260253 ], [ -53.030615903999895, -28.658122703999904 ], [ -53.03079695799989, -28.662346833999901 ], [ -53.03241077, -28.662143887 ], [ -53.032974725, -28.658092827 ], [ -53.035343560999898, -28.654998631999902 ], [ -53.03465127, -28.652872079 ], [ -53.026692415, -28.653434447999899 ], [ -53.028867824, -28.647585716 ], [ -53.0375733, -28.6448515 ], [ -53.037178185999899, -28.642583155 ], [ -53.029423602, -28.6433666739999 ], [ -53.027961897, -28.641214002 ], [ -53.025339905999893, -28.640616435 ], [ -53.024981328, -28.636430399999888 ], [ -53.027641038, -28.630930114 ], [ -53.025779467999897, -28.628493951999896 ], [ -53.02630678, -28.626829282999896 ], [ -53.023536486, -28.625226510999902 ], [ -53.026405857, -28.622294849 ], [ -53.029829844999895, -28.624016223 ], [ -53.030976463999899, -28.621542736 ], [ -53.026135664, -28.617809552 ], [ -53.025768063, -28.614960695 ], [ -53.0218497, -28.61534067 ], [ -53.018316465999895, -28.613413932999897 ], [ -53.021716329999897, -28.608030928999899 ], [ -53.015092028, -28.602029831 ], [ -53.018068876, -28.598281066 ], [ -53.016815576999903, -28.597692365999897 ], [ -53.016205764999903, -28.59356302 ], [ -53.014404328, -28.592898368 ], [ -53.015658894999902, -28.5893041799999 ], [ -53.017541999999899, -28.589167819999897 ], [ -53.015832702999894, -28.587307259999893 ], [ -52.996678044, -28.589419404 ], [ -52.995442894, -28.58760139 ], [ -52.990993586999899, -28.587656292 ], [ -52.987212664, -28.58560828 ], [ -52.980741209, -28.584713829 ], [ -52.962457109, -28.576636479999909 ], [ -52.956448544999901, -28.576212342 ], [ -52.953597650999903, -28.577331219 ], [ -52.952647112, -28.579855143 ], [ -52.948096243999899, -28.579975160999901 ], [ -52.946207225, -28.581553867 ], [ -52.94450048399991, -28.58099128 ], [ -52.937506984, -28.584223642 ], [ -52.933766439, -28.582454539 ], [ -52.930069937, -28.582848385 ], [ -52.924944958, -28.586690538 ], [ -52.9240199669999, -28.584863594 ], [ -52.923629063, -28.588780932 ], [ -52.920219866, -28.590459307999904 ], [ -52.921511404999897, -28.593100781 ], [ -52.918330738999892, -28.594348064 ], [ -52.916439945, -28.593307181999894 ], [ -52.916935384999903, -28.59619586 ], [ -52.915619001, -28.598718388999906 ], [ -52.920965276999894, -28.602382385999896 ], [ -52.920593853, -28.604704406999897 ], [ -52.918083147999901, -28.605072916 ], [ -52.918207934, -28.606533484 ], [ -52.922160369, -28.610193415 ], [ -52.926741262, -28.610650869 ], [ -52.92749924, -28.612373417999898 ], [ -52.925839375, -28.614645106999898 ], [ -52.925390348, -28.612852705 ], [ -52.92383821, -28.612658246 ], [ -52.919659544999902, -28.614363881 ], [ -52.921613086, -28.618050031999896 ], [ -52.927069807, -28.618551741 ], [ -52.926576958999895, -28.620900116 ], [ -52.93630046, -28.619229748999896 ], [ -52.93366206199989, -28.627819389999985 ], [ -52.935653343999896, -28.629682111 ], [ -52.932004846, -28.632867904 ], [ -52.9331498, -28.636325725999892 ], [ -52.929141967, -28.637464236 ], [ -52.928497837, -28.639568808 ], [ -52.930049261, -28.640816446 ], [ -52.931307386, -28.639683917 ], [ -52.933914145, -28.640448276 ], [ -52.931534598, -28.643273670999989 ], [ -52.928346468, -28.642501253 ], [ -52.925940398, -28.64364203 ], [ -52.927216226, -28.648718884999898 ], [ -52.921830542, -28.65115643 ], [ -52.925596566, -28.653491072999891 ], [ -52.929934298, -28.653226788 ], [ -52.930007890999903, -28.657552683999899 ], [ -52.931478695, -28.659831181 ], [ -52.939409207, -28.660185839999897 ], [ -52.937568422, -28.662406916 ], [ -52.934209568, -28.663514763 ], [ -52.935986737999897, -28.664668309 ], [ -52.940242054999892, -28.663174293999901 ] ] ] } }
]
}
