{
"type": "FeatureCollection",
"name": "bairros_tramandai",
"crs": { "type": "name", "properties": { "name": "urn:ogc:def:crs:OGC:1.3:CRS84" } },
"features": [
{ "type": "Feature", "properties": { "name": "Tramandaí Beira-Mar", "code_muni": 4321600.0, "name_muni": "Tramandaí" }, "geometry": { "type": "Polygon", "coordinates": [ [ [ -50.1426331, -30.0282687 ], [ -50.1427388, -30.0282955 ], [ -50.1428407, -30.0283687 ], [ -50.1428676, -30.028364 ], [ -50.1428998, -30.0282979 ], [ -50.1429239, -30.0282874 ], [ -50.1430745, -30.028281599999985 ], [ -50.1432763, -30.028216 ], [ -50.1437307, -30.0280793 ], [ -50.1438737, -30.028037500000011 ], [ -50.1443373, -30.0279102 ], [ -50.1444948, -30.0278681 ], [ -50.1449709, -30.0277416 ], [ -50.1453169, -30.0276384 ], [ -50.145568, -30.0275651 ], [ -50.1459319, -30.0274584 ], [ -50.1461745, -30.0273943 ], [ -50.1465447, -30.0272904 ], [ -50.1467792, -30.0272223 ], [ -50.1471522, -30.027113600000011 ], [ -50.1473836, -30.02705 ], [ -50.1477586, -30.0269413 ], [ -50.1483767, -30.0267705 ], [ -50.1490079, -30.0265961 ], [ -50.1495986, -30.0264253 ], [ -50.1502128, -30.0262495 ], [ -50.150808, -30.0260845 ], [ -50.1508555, -30.0260713 ], [ -50.150912, -30.0260545 ], [ -50.1506284, -30.0251895 ], [ -50.1506064, -30.025109 ], [ -50.1505242, -30.0248019 ], [ -50.1504392, -30.0244761 ], [ -50.1503551, -30.024102599999988 ], [ -50.1503003, -30.023857 ], [ -50.1501806, -30.0233208 ], [ -50.1500864, -30.022899 ], [ -50.1500152, -30.022675699999986 ], [ -50.1499521, -30.022478 ], [ -50.1497646, -30.0219375 ], [ -50.149552300000011, -30.0219751 ], [ -50.1493102, -30.022017899999987 ], [ -50.1487315, -30.0221404 ], [ -50.1480487, -30.022274 ], [ -50.1473748, -30.0224141 ], [ -50.1467915, -30.0225433 ], [ -50.1464872, -30.0226106 ], [ -50.1461526, -30.022689 ], [ -50.1459809, -30.0227302 ], [ -50.145775, -30.022772 ], [ -50.1455623, -30.022823 ], [ -50.1453996, -30.0228486 ], [ -50.1449033, -30.0229331 ], [ -50.1446928, -30.0229787 ], [ -50.1443005, -30.0230755 ], [ -50.1441529, -30.0230829 ], [ -50.1439713, -30.0231076 ], [ -50.1436531, -30.0231744 ], [ -50.1432216, -30.0232585 ], [ -50.1430817, -30.0232886 ], [ -50.1430262, -30.023299 ], [ -50.1429717, -30.0233093 ], [ -50.1425659, -30.023389299999987 ], [ -50.1424517, -30.0234146 ], [ -50.1423979, -30.023428099999986 ], [ -50.1419509, -30.0235335 ], [ -50.1417853, -30.0235697 ], [ -50.1414406, -30.02364170000001 ], [ -50.1411938, -30.0237253 ], [ -50.1410724, -30.0237699 ], [ -50.14071, -30.0238738 ], [ -50.1388268, -30.0242797 ], [ -50.138947135788044, -30.024617702442367 ], [ -50.140717866898576, -30.028710372319811 ], [ -50.1426331, -30.0282687 ] ] ] } }
]
}
