{
"type": "FeatureCollection",
"name": "bairros_pinhal_da_serra",
"crs": { "type": "name", "properties": { "name": "urn:ogc:def:crs:OGC:1.3:CRS84" } },
"features": [
{ "type": "Feature", "properties": { "code_muni": 4314464.0, "name_muni": "Pinhal da Serra", "code_state": 43.0, "abbrev_state": "RS", "name_state": "Rio Grande do Sul", "code_region": 4.0, "name_region": "Sul", "year": 2022.0 }, "geometry": { "type": "Polygon", "coordinates": [ [ [ -51.124560030999902, -27.832767659 ], [ -51.108597715, -27.828397986 ], [ -51.099619789, -27.8273667889999 ], [ -51.092675086, -27.828558051999899 ], [ -51.082229896999891, -27.833926447 ], [ -51.076564274, -27.841845369999906 ], [ -51.079513993, -27.855849667 ], [ -51.078593821, -27.861597745 ], [ -51.072161240999897, -27.864511612999898 ], [ -51.057138252999891, -27.866028132999904 ], [ -51.053619404, -27.868412419 ], [ -51.053212687, -27.873912602 ], [ -51.056665917, -27.886754368 ], [ -51.06240051, -27.885871497 ], [ -51.06724452, -27.887404654 ], [ -51.068656384, -27.884624011 ], [ -51.07182926, -27.884045747 ], [ -51.070752708, -27.896028335 ], [ -51.072448575999893, -27.89794441 ], [ -51.070829262, -27.900124645999895 ], [ -51.071636528999896, -27.902630518 ], [ -51.080478437999901, -27.906284157 ], [ -51.085814516, -27.903870388 ], [ -51.086341816, -27.905841869 ], [ -51.083770039999898, -27.909405213 ], [ -51.089043757999896, -27.911787165 ], [ -51.092841557, -27.911347888 ], [ -51.096069272, -27.914330268 ], [ -51.098685049, -27.909984006999892 ], [ -51.102843248999903, -27.912791035999895 ], [ -51.108386230999898, -27.91320946 ], [ -51.108379825, -27.914938843999902 ], [ -51.101516607, -27.918792101999902 ], [ -51.10329516, -27.921449897999899 ], [ -51.107777133999903, -27.921926328 ], [ -51.107536432, -27.926308187 ], [ -51.11141190099989, -27.9307574279999 ], [ -51.108980936, -27.932856183 ], [ -51.113189002999903, -27.936388991999902 ], [ -51.120660417, -27.93484552099989 ], [ -51.126826659, -27.937525217 ], [ -51.129338840999893, -27.934344839999898 ], [ -51.136123332999894, -27.933052216 ], [ -51.136289659999896, -27.936146838 ], [ -51.142895689999897, -27.935495822 ], [ -51.147450208, -27.940315309 ], [ -51.151199570999893, -27.939309873 ], [ -51.152609243, -27.941363429 ], [ -51.149749379, -27.943366597 ], [ -51.149906530999893, -27.945780213 ], [ -51.154206536999901, -27.948665408999901 ], [ -51.155505000999895, -27.94814396 ], [ -51.156570718999895, -27.951266168 ], [ -51.162555625, -27.9515022809999 ], [ -51.162717363, -27.953382857 ], [ -51.166783817, -27.957911408 ], [ -51.171081318999896, -27.958943425 ], [ -51.1734842239999, -27.956186246 ], [ -51.175856321, -27.955693342 ], [ -51.185483341999898, -27.959005037999901 ], [ -51.192014313, -27.958173262999896 ], [ -51.197093529999989, -27.958716227 ], [ -51.199726037999895, -27.96125054 ], [ -51.201995608999894, -27.9602527 ], [ -51.204372495, -27.9718308819999 ], [ -51.213605796, -27.984270191 ], [ -51.215115313, -27.982082932 ], [ -51.214221924999897, -27.978416963 ], [ -51.21871966899991, -27.977184704 ], [ -51.229501932999895, -27.979279544 ], [ -51.239883711999902, -27.979525995 ], [ -51.240407422, -27.976969058999895 ], [ -51.244611705, -27.972466133999902 ], [ -51.243849203, -27.965910236 ], [ -51.250513553, -27.9617987409999 ], [ -51.249382537, -27.957615312 ], [ -51.250611001, -27.9538261779999 ], [ -51.255634723, -27.948592263 ], [ -51.257862019999898, -27.944197091 ], [ -51.263350606999893, -27.940525890999897 ], [ -51.260600666, -27.935722402 ], [ -51.26163424899989, -27.933184551999908 ], [ -51.2586272039999, -27.928792552999894 ], [ -51.259580453999895, -27.925973562 ], [ -51.257166249, -27.925759614 ], [ -51.251660796, -27.916227132 ], [ -51.253977896, -27.911390088 ], [ -51.2519840799999, -27.903003367999897 ], [ -51.253452695999989, -27.899083662999907 ], [ -51.258779839999896, -27.902893317999904 ], [ -51.261377161, -27.902594118 ], [ -51.259562521, -27.891352335 ], [ -51.261772914999895, -27.891278992 ], [ -51.2623456439999, -27.892660191999902 ], [ -51.263645099, -27.890637083999902 ], [ -51.266336167, -27.890031217999901 ], [ -51.264261689, -27.886156542 ], [ -51.264759227999903, -27.883984047999903 ], [ -51.2678075319999, -27.880998153 ], [ -51.270468707, -27.881208635 ], [ -51.272510129999901, -27.878101702 ], [ -51.271477957999892, -27.874381191999902 ], [ -51.269166103, -27.874383262 ], [ -51.266165251, -27.8723768579999 ], [ -51.265751893999891, -27.869585706 ], [ -51.267766721, -27.864863175999989 ], [ -51.266862437, -27.860427335999898 ], [ -51.271131346999894, -27.855266876 ], [ -51.27298952, -27.847287417 ], [ -51.277261665, -27.842531694999899 ], [ -51.281599601000011, -27.850467419 ], [ -51.28156081, -27.857107594999892 ], [ -51.284655839, -27.858590658 ], [ -51.28666464, -27.858183754 ], [ -51.291973082, -27.865900199999896 ], [ -51.2998910969999, -27.868273782999903 ], [ -51.308475253, -27.8682845239999 ], [ -51.310723718, -27.873431760999903 ], [ -51.314052981, -27.872001371999907 ], [ -51.325216387999902, -27.875809255 ], [ -51.330637134, -27.873748019999908 ], [ -51.333965029, -27.874933325 ], [ -51.337731374, -27.871277855999899 ], [ -51.342429615, -27.870334901 ], [ -51.353939372999896, -27.871501173999896 ], [ -51.355677243999899, -27.865479523 ], [ -51.3550187559999, -27.863445881 ], [ -51.357342699999897, -27.862014074999902 ], [ -51.359043851, -27.862808688 ], [ -51.357276774999903, -27.860504030999898 ], [ -51.361681374999897, -27.857862906 ], [ -51.366649286, -27.859551317999905 ], [ -51.369471865, -27.8534004169999 ], [ -51.375391061999892, -27.852060028 ], [ -51.376536127999898, -27.849126968999887 ], [ -51.380133242999889, -27.849032335999901 ], [ -51.383066683, -27.846148972 ], [ -51.381560102, -27.844554672 ], [ -51.3709645, -27.842987138 ], [ -51.37149389, -27.834259442 ], [ -51.375625840999895, -27.831128948 ], [ -51.375736872999894, -27.827621654 ], [ -51.377560014, -27.827218656999896 ], [ -51.378336711, -27.825078466 ], [ -51.375733292999897, -27.820259319999899 ], [ -51.370298759, -27.820629766 ], [ -51.366762121, -27.8179916949999 ], [ -51.364119168999892, -27.811829993999893 ], [ -51.364694737, -27.805109866999889 ], [ -51.362822498, -27.802190568999901 ], [ -51.363433486, -27.79848407 ], [ -51.358933046999901, -27.798181036999903 ], [ -51.355213589, -27.801442283 ], [ -51.355527536999894, -27.8058333399999 ], [ -51.3501398719999, -27.8079307419999 ], [ -51.34937716, -27.802661714 ], [ -51.356565291, -27.795367214 ], [ -51.355083392, -27.791153146999886 ], [ -51.349299098999893, -27.786792641 ], [ -51.347839039999897, -27.787846882999908 ], [ -51.347866627, -27.791143163999909 ], [ -51.34244322, -27.793254648 ], [ -51.334935868999892, -27.790633788 ], [ -51.331333212999894, -27.787786090999901 ], [ -51.331271811, -27.785927839999896 ], [ -51.334993445999892, -27.782842968999894 ], [ -51.330287719999895, -27.778984737 ], [ -51.333372571, -27.775292158999893 ], [ -51.334015999, -27.770542433999896 ], [ -51.337645656999896, -27.766544036 ], [ -51.32887433, -27.761501843 ], [ -51.3356210869999, -27.752632956999896 ], [ -51.329697713, -27.75116859 ], [ -51.312254944, -27.753590120999899 ], [ -51.312319069, -27.751479058 ], [ -51.31775168, -27.749862785999891 ], [ -51.316961374999892, -27.746641795999903 ], [ -51.318581579999893, -27.740848405 ], [ -51.317628605, -27.739057113999898 ], [ -51.315049600999892, -27.738543308 ], [ -51.311682566999899, -27.739026549 ], [ -51.312757292, -27.745972625 ], [ -51.307503351, -27.754398431 ], [ -51.301699256999903, -27.754791683 ], [ -51.298060588999896, -27.751425546 ], [ -51.298016182, -27.749883779 ], [ -51.301210467, -27.746585136 ], [ -51.301849249999989, -27.73909178 ], [ -51.303782229, -27.736130971 ], [ -51.30671480599991, -27.735136704 ], [ -51.313069191, -27.736508458999904 ], [ -51.310739368, -27.7331189659999 ], [ -51.304154039, -27.728939055 ], [ -51.308805311, -27.71946274 ], [ -51.302450768999989, -27.723058565 ], [ -51.293693522999902, -27.725487718999901 ], [ -51.282500486999893, -27.722985132 ], [ -51.276128043, -27.724024212 ], [ -51.272859921, -27.729695673 ], [ -51.274772164, -27.742436047 ], [ -51.274099830999909, -27.749913218 ], [ -51.270482764, -27.752307276 ], [ -51.256782402999903, -27.75442774 ], [ -51.246862624, -27.759633834999892 ], [ -51.245547449, -27.761448489 ], [ -51.245598673, -27.770272695 ], [ -51.240126018, -27.779022593 ], [ -51.233761611, -27.779044722 ], [ -51.226253696999898, -27.771184141999989 ], [ -51.22231343499989, -27.769821836999885 ], [ -51.218141988999903, -27.770688467 ], [ -51.209376608999897, -27.777470029 ], [ -51.200080617, -27.777582962999904 ], [ -51.192424332, -27.775878458 ], [ -51.186638935, -27.778497307999896 ], [ -51.157791785, -27.802889202 ], [ -51.150280457, -27.804059915 ], [ -51.134606457, -27.803657081 ], [ -51.132292290999892, -27.807372136 ], [ -51.129305041999892, -27.822892921999902 ], [ -51.131373244, -27.829425189999899 ], [ -51.128923216, -27.832047644999903 ], [ -51.124560030999902, -27.832767659 ] ] ] } }
]
}
