{
"type": "FeatureCollection",
"name": "bairros_capela_de_santana",
"crs": { "type": "name", "properties": { "name": "urn:ogc:def:crs:OGC:1.3:CRS84" } },
"features": [
{ "type": "Feature", "properties": { "name": "Porto dos Pereiras", "code_muni": 4304689.0, "name_muni": "Capela de Santana" }, "geometry": { "type": "Polygon", "coordinates": [ [ [ -51.4261702, -29.6639408 ], [ -51.425623, -29.6652647 ], [ -51.425707171597885, -29.665825194747853 ], [ -51.425869979, -29.664671921 ], [ -51.428131879656497, -29.663015491428052 ], [ -51.4261702, -29.6639408 ] ] ] } },
{ "type": "Feature", "properties": { "name": "Tanac", "code_muni": 4304689.0, "name_muni": "Capela de Santana" }, "geometry": { "type": "MultiPolygon", "coordinates": [ [ [ [ -51.463796814394499, -29.704127522320103 ], [ -51.464193789, -29.703188245 ], [ -51.464142689133524, -29.703130462679674 ], [ -51.463796814394499, -29.704127522320103 ] ] ], [ [ [ -51.462523874703862, -29.706536315181783 ], [ -51.462927740999909, -29.706183763 ], [ -51.462967960014844, -29.706088606161298 ], [ -51.462523874703862, -29.706536315181783 ] ] ], [ [ [ -51.4570273, -29.7105642 ], [ -51.4568038, -29.7121925 ], [ -51.4574475, -29.7134598 ], [ -51.458628696935499, -29.714365269449154 ], [ -51.45697108, -29.711383214 ], [ -51.461572519237095, -29.707366779546188 ], [ -51.4570273, -29.7105642 ] ] ] ] } },
{ "type": "Feature", "properties": { "name": "Olaria", "code_muni": 4304689.0, "name_muni": "Capela de Santana" }, "geometry": { "type": "MultiPolygon", "coordinates": [ [ [ [ -51.427798, -29.6746616 ], [ -51.427751612398687, -29.674824873487275 ], [ -51.42789614, -29.674613454999907 ], [ -51.427967000885502, -29.674066839185635 ], [ -51.427798, -29.6746616 ] ] ], [ [ [ -51.425745, -29.6777386 ], [ -51.4253119, -29.6781384 ], [ -51.4237455, -29.6793968 ], [ -51.4231769, -29.6812051 ], [ -51.423190329739086, -29.681496695560082 ], [ -51.425784819558203, -29.677701842728467 ], [ -51.425745, -29.6777386 ] ] ], [ [ [ -51.4232315, -29.6823906 ], [ -51.4235081, -29.682732 ], [ -51.424752739283562, -29.684268654181722 ], [ -51.423204794197112, -29.681810755472622 ], [ -51.4232315, -29.6823906 ] ] ], [ [ [ -51.4265299, -29.68967450000001 ], [ -51.4267613, -29.6903877 ], [ -51.426868561582026, -29.690544653220645 ], [ -51.426550605526138, -29.689087638226795 ], [ -51.4265299, -29.68967450000001 ] ] ], [ [ [ -51.4282773, -29.6925498 ], [ -51.4285423, -29.6927644 ], [ -51.428897204695232, -29.6930290817198 ], [ -51.42821283648955, -29.692470232182234 ], [ -51.4282773, -29.6925498 ] ] ] ] } },
{ "type": "Feature", "properties": { "name": "Passo do Manduca", "code_muni": 4304689.0, "name_muni": "Capela de Santana" }, "geometry": { "type": "Polygon", "coordinates": [ [ [ -51.459334, -29.7038267 ], [ -51.4595272, -29.7023543 ], [ -51.4586903, -29.7010869 ], [ -51.4570488, -29.7001829 ], [ -51.4549889, -29.6985893 ], [ -51.454851561092589, -29.698143674240452 ], [ -51.454509937999902, -29.698436472 ], [ -51.458203287999893, -29.701577590999893 ], [ -51.459099164, -29.704008582 ], [ -51.458334712265597, -29.70471973789682 ], [ -51.459334, -29.7038267 ] ] ] } },
{ "type": "Feature", "properties": { "name": "Zootecnia", "code_muni": 4304689.0, "name_muni": "Capela de Santana" }, "geometry": { "type": "MultiPolygon", "coordinates": [ [ [ [ -51.4584882, -29.7172615 ], [ -51.4558811, -29.7193673 ], [ -51.454343598660984, -29.719669127087986 ], [ -51.455662827, -29.719929496999988 ], [ -51.458257218999989, -29.717976657999891 ], [ -51.458500986834657, -29.717246075946225 ], [ -51.4584882, -29.7172615 ] ] ], [ [ [ -51.4527711, -29.7190508 ], [ -51.452648365641053, -29.719334525552277 ], [ -51.454259705826573, -29.719652569060965 ], [ -51.4527711, -29.7190508 ] ] ] ] } },
{ "type": "Feature", "properties": { "name": "Rincão do Cascalho", "code_muni": 4304689.0, "name_muni": "Capela de Santana" }, "geometry": { "type": "MultiPolygon", "coordinates": [ [ [ [ -51.287819, -29.6679234 ], [ -51.2879433, -29.6660809 ], [ -51.2879758, -29.6654451 ], [ -51.2880734, -29.6635233 ], [ -51.2880877, -29.6622001 ], [ -51.288085532742166, -29.662197471624342 ], [ -51.286994016125028, -29.668173345786123 ], [ -51.287819, -29.6679234 ] ] ], [ [ [ -51.2880642, -29.6621716 ], [ -51.287904906983314, -29.662175869173808 ], [ -51.288081953813702, -29.662193131222772 ], [ -51.2880642, -29.6621716 ] ] ], [ [ [ -51.280983392989647, -29.66149950720439 ], [ -51.280985022, -29.661500991 ], [ -51.280986290855736, -29.661501114782123 ], [ -51.280983392989647, -29.66149950720439 ] ] ], [ [ [ -51.2799619, -29.660434 ], [ -51.279772800000011, -29.6602476 ], [ -51.2790339, -29.6596363 ], [ -51.278523302385992, -29.659258643000321 ], [ -51.280211828190197, -29.660796714732523 ], [ -51.2799619, -29.660434 ] ] ], [ [ [ -51.277045, -29.6563708 ], [ -51.2770148, -29.6562986 ], [ -51.276758211089017, -29.655994673211818 ], [ -51.277023684163218, -29.657275540353488 ], [ -51.277045, -29.6563708 ] ] ] ] } },
{ "type": "Feature", "properties": { "name": "Estação Portão", "code_muni": 4304689.0, "name_muni": "Capela de Santana" }, "geometry": { "type": "MultiPolygon", "coordinates": [ [ [ [ -51.284100363855138, -29.716787435131351 ], [ -51.284103734, -29.716870585 ], [ -51.28415025514154, -29.716990773667284 ], [ -51.284100363855138, -29.716787435131351 ] ] ], [ [ [ -51.2842991, -29.7119257 ], [ -51.2844948, -29.7103624 ], [ -51.2842957, -29.7085185 ], [ -51.2842172, -29.7081364 ], [ -51.2836888, -29.7060153 ], [ -51.283652470644832, -29.705735433532023 ], [ -51.284014994874241, -29.714681118726492 ], [ -51.2842991, -29.7119257 ] ] ], [ [ [ -51.28360570000001, -29.7039267 ], [ -51.2836124, -29.703491 ], [ -51.2835883, -29.7031543 ], [ -51.283539710712084, -29.702952597118447 ], [ -51.283599579892744, -29.704430148009777 ], [ -51.28360570000001, -29.7039267 ] ] ], [ [ [ -51.28421190000001, -29.7011752 ], [ -51.2848797, -29.7002735 ], [ -51.2854081, -29.6994429 ], [ -51.285723872378711, -29.698490632058018 ], [ -51.284163538347336, -29.701238363698682 ], [ -51.28421190000001, -29.7011752 ] ] ], [ [ [ -51.2844439, -29.695407499999988 ], [ -51.2854967, -29.6940573 ], [ -51.2856106, -29.6937731 ], [ -51.2860787, -29.6913673 ], [ -51.286122684784004, -29.691088089295835 ], [ -51.284387494, -29.695512836999985 ], [ -51.284464909654993, -29.69564973266549 ], [ -51.2844439, -29.695407499999988 ] ] ], [ [ [ -51.2874278, -29.6878314 ], [ -51.28746954042132, -29.687653317064662 ], [ -51.287278421493639, -29.688140726518576 ], [ -51.2874278, -29.6878314 ] ] ], [ [ [ -51.2875097, -29.6859871 ], [ -51.287500002009715, -29.685941082829604 ], [ -51.287511085475593, -29.686203894193607 ], [ -51.2875097, -29.6859871 ] ] ], [ [ [ -51.2872964, -29.678162 ], [ -51.2871985, -29.6773476 ], [ -51.2870953, -29.6762803 ], [ -51.287092297640285, -29.676272531150289 ], [ -51.28724881368705, -29.67998449226441 ], [ -51.2872964, -29.678162 ] ] ], [ [ [ -51.2869813, -29.67598430000001 ], [ -51.28643705300955, -29.675202564080134 ], [ -51.287015243044053, -29.676072960885513 ], [ -51.2869813, -29.67598430000001 ] ] ], [ [ [ -51.285878891392869, -29.674277744137608 ], [ -51.285866776, -29.674344061999896 ], [ -51.285876910153263, -29.674359318230657 ], [ -51.285878891392869, -29.674277744137608 ] ] ], [ [ [ -51.2868015, -29.6705718 ], [ -51.2875392, -29.6699868 ], [ -51.2876236, -29.6698377 ], [ -51.2877454, -29.6684076 ], [ -51.287819, -29.6679234 ], [ -51.286994016125028, -29.668173345786123 ], [ -51.286504986773046, -29.670850472994008 ], [ -51.2868015, -29.6705718 ] ] ] ] } }
]
}
