{
"type": "FeatureCollection",
"name": "bairros_salvador_das_missoes",
"crs": { "type": "name", "properties": { "name": "urn:ogc:def:crs:OGC:1.3:CRS84" } },
"features": [
{ "type": "Feature", "properties": { "code_muni": 4316477.0, "name_muni": "Salvador das Missões", "code_state": 43.0, "abbrev_state": "RS", "name_state": "Rio Grande do Sul", "code_region": 4.0, "name_region": "Sul", "year": 2022.0 }, "geometry": { "type": "Polygon", "coordinates": [ [ [ -54.824687505, -28.17418615 ], [ -54.827965241, -28.175104301 ], [ -54.831759881, -28.180100142 ], [ -54.836593675, -28.181236419999898 ], [ -54.838600912999901, -28.17956129 ], [ -54.839290944, -28.172540556999902 ], [ -54.841780135, -28.167171359 ], [ -54.846612857, -28.1638239 ], [ -54.855776759, -28.161115000999903 ], [ -54.856347797999902, -28.088880973 ], [ -54.866380788999891, -28.089170795 ], [ -54.86658892899991, -28.009381176 ], [ -54.864416534, -28.007584157999897 ], [ -54.862760147, -28.009428404999898 ], [ -54.860724407, -28.020511574 ], [ -54.857667245, -28.023105578 ], [ -54.85485683, -28.021428173999894 ], [ -54.852946589999902, -28.014909651 ], [ -54.850482601999893, -28.012811764999988 ], [ -54.848429294, -28.017963202 ], [ -54.8394178, -28.020278805 ], [ -54.838902890999989, -28.023411999 ], [ -54.843258454, -28.028921329999889 ], [ -54.840860753999898, -28.033658191 ], [ -54.836736483, -28.035007166999897 ], [ -54.831525637, -28.034669525 ], [ -54.834889196999896, -28.030588474999888 ], [ -54.835322136999892, -28.02278309 ], [ -54.834115917, -28.021727054999893 ], [ -54.830731286999892, -28.024017236 ], [ -54.826685646, -28.020041959 ], [ -54.817635147, -28.021798107999896 ], [ -54.812256632999897, -28.020031644 ], [ -54.809435852, -28.022891161 ], [ -54.810863129, -28.026425315 ], [ -54.81317379099989, -28.02740233 ], [ -54.820581811, -28.026234443 ], [ -54.82284919300001, -28.030089872 ], [ -54.822150092999898, -28.031459941 ], [ -54.813017815, -28.033177926999905 ], [ -54.809657204, -28.035304265 ], [ -54.810884199, -28.038040403 ], [ -54.816345655, -28.042659366 ], [ -54.816035407, -28.050619094 ], [ -54.814573265, -28.051472379 ], [ -54.81257363, -28.0507395 ], [ -54.808056934, -28.046710374999989 ], [ -54.806802417, -28.083095585999988 ], [ -54.805623786999895, -28.084420681 ], [ -54.805502019999899, -28.126769381 ], [ -54.795314645, -28.126787029999893 ], [ -54.795134295, -28.176310993999905 ], [ -54.791177156999893, -28.187956948 ], [ -54.792128093, -28.189160525 ], [ -54.798439285, -28.186666013 ], [ -54.803863669999899, -28.177976755 ], [ -54.805870685999899, -28.177140261 ], [ -54.819249108999891, -28.175998101999902 ], [ -54.824687505, -28.17418615 ] ] ] } }
]
}
