{
"type": "FeatureCollection",
"name": "bairros_sao_jose_das_missoes",
"crs": { "type": "name", "properties": { "name": "urn:ogc:def:crs:OGC:1.3:CRS84" } },
"features": [
{ "type": "Feature", "properties": { "code_muni": 4318457.0, "name_muni": "São José das Missões", "code_state": 43.0, "abbrev_state": "RS", "name_state": "Rio Grande do Sul", "code_region": 4.0, "name_region": "Sul", "year": 2022.0 }, "geometry": { "type": "Polygon", "coordinates": [ [ [ -53.136570161999899, -27.831694694 ], [ -53.1403230069999, -27.827958995 ], [ -53.145191306999891, -27.826919954999898 ], [ -53.146377015, -27.827813383 ], [ -53.151705761999899, -27.825640918 ], [ -53.155772951999893, -27.825917596999901 ], [ -53.160905285999895, -27.820870532 ], [ -53.163575889999898, -27.824561952 ], [ -53.160686623999894, -27.826866131 ], [ -53.163923607, -27.831110506999899 ], [ -53.16770435, -27.830776928 ], [ -53.173785328, -27.827486534999906 ], [ -53.177371503, -27.829781839 ], [ -53.185088548, -27.827015014 ], [ -53.192337024, -27.829492117 ], [ -53.196624719999903, -27.825771517 ], [ -53.194184214, -27.823204574999988 ], [ -53.196314988, -27.820553281999892 ], [ -53.203275251, -27.820079279 ], [ -53.202672701, -27.8155839409999 ], [ -53.204647979, -27.807338887 ], [ -53.2015521, -27.806297769 ], [ -53.204024513, -27.801118142999897 ], [ -53.203662037999898, -27.79989067 ], [ -53.198720943999902, -27.797953644 ], [ -53.19974177599989, -27.794773381 ], [ -53.198716503, -27.792886049999893 ], [ -53.190422579, -27.794177689 ], [ -53.188889898, -27.792044582999896 ], [ -53.190062542, -27.791412600999902 ], [ -53.188649708, -27.7900905 ], [ -53.189272270999894, -27.787692112999906 ], [ -53.186843342, -27.788886082 ], [ -53.182930223, -27.785412439 ], [ -53.18148095, -27.78640366 ], [ -53.18061783799989, -27.784728308 ], [ -53.183595953999891, -27.782952973 ], [ -53.185991774999891, -27.777879680999899 ], [ -53.182745708, -27.775075891 ], [ -53.181083446999892, -27.768623306999903 ], [ -53.178467734, -27.766094757 ], [ -53.177872949999902, -27.762218351999902 ], [ -53.179928043, -27.759673302999904 ], [ -53.179101365, -27.757362902 ], [ -53.176825365, -27.758396096 ], [ -53.176300576, -27.755340331999907 ], [ -53.174070657999899, -27.753764169 ], [ -53.170673834999896, -27.754389021 ], [ -53.166931518999903, -27.749756444999907 ], [ -53.162347517999898, -27.7560099899999 ], [ -53.160426704, -27.752114649 ], [ -53.158571507, -27.7525004079999 ], [ -53.154670316, -27.749338265999903 ], [ -53.148085059, -27.754572067 ], [ -53.14676844, -27.752872959999898 ], [ -53.146942017, -27.747781201 ], [ -53.142716778, -27.744744861999902 ], [ -53.141893059, -27.745923630999989 ], [ -53.138471922, -27.74616495 ], [ -53.140322075, -27.748225681 ], [ -53.139848377, -27.749904704 ], [ -53.133425787, -27.751538463 ], [ -53.130358653, -27.749202903 ], [ -53.12771911, -27.750631833999897 ], [ -53.127789634, -27.75323824 ], [ -53.125850404999902, -27.754348509999904 ], [ -53.121622035, -27.754903731 ], [ -53.11947703, -27.753336262999898 ], [ -53.116853525, -27.7551359459999 ], [ -53.118186452, -27.757778378999898 ], [ -53.117170656, -27.759332042 ], [ -53.115626925999898, -27.759302327999901 ], [ -53.114310092, -27.761194224999901 ], [ -53.112622128999895, -27.760933457 ], [ -53.112566361999903, -27.758163639 ], [ -53.093371444999896, -27.762167771999898 ], [ -53.089705814, -27.7649383 ], [ -53.087085656999903, -27.770481151999899 ], [ -53.082061467999893, -27.775195466 ], [ -53.078323925999896, -27.776062125 ], [ -53.065920244, -27.774863234 ], [ -53.061786084999895, -27.776520436999895 ], [ -53.06448181, -27.785286472999893 ], [ -53.058157835, -27.789678201 ], [ -53.058894194999894, -27.795089569 ], [ -53.056054237999902, -27.797558380999892 ], [ -53.059680859, -27.80576496 ], [ -53.069068531, -27.810511609999899 ], [ -53.069081091, -27.813799767 ], [ -53.072627685, -27.814352388 ], [ -53.075285645, -27.813296441 ], [ -53.07634823, -27.814262723999892 ], [ -53.074770326, -27.817695436999898 ], [ -53.071100913999899, -27.820349807 ], [ -53.072161191, -27.822068644 ], [ -53.08235776, -27.816312262999901 ], [ -53.087723229999902, -27.824283771999902 ], [ -53.097393716999903, -27.819595664 ], [ -53.099979442999903, -27.820762105999989 ], [ -53.104112638999894, -27.820503846 ], [ -53.10292529, -27.828010729 ], [ -53.094121071, -27.826846090999897 ], [ -53.086115844999895, -27.827382557999989 ], [ -53.08375574, -27.828720405 ], [ -53.084362891999902, -27.831970095 ], [ -53.086367971, -27.833639144999896 ], [ -53.089382449, -27.833449722 ], [ -53.094124151999893, -27.829531436 ], [ -53.099111439, -27.834552131 ], [ -53.098315455, -27.836531149999896 ], [ -53.091345081999989, -27.838763814999904 ], [ -53.088727661999897, -27.844023353 ], [ -53.0918304429999, -27.843992371 ], [ -53.09711097, -27.8462792189999 ], [ -53.0992585669999, -27.841320536999891 ], [ -53.102007525, -27.842577342 ], [ -53.107089687, -27.8409626649999 ], [ -53.107179215, -27.8384592859999 ], [ -53.113874014, -27.836241190999893 ], [ -53.116078688999899, -27.834014843 ], [ -53.116367103999899, -27.831619201 ], [ -53.123227056, -27.83353076 ], [ -53.126379309, -27.82893081 ], [ -53.130020794, -27.831809682 ], [ -53.132293567, -27.830795327 ], [ -53.134228527999902, -27.832179019 ], [ -53.136570161999899, -27.831694694 ] ] ] } }
]
}
