{
"type": "FeatureCollection",
"name": "bairros_entreijuis",
"crs": { "type": "name", "properties": { "name": "urn:ogc:def:crs:OGC:1.3:CRS84" } },
"features": [
{ "type": "Feature", "properties": { "code_muni": 4306932.0, "name_muni": "Entre-Ijuís", "code_state": 43.0, "abbrev_state": "RS", "name_state": "Rio Grande do Sul", "code_region": 4.0, "name_region": "Sul", "year": 2022.0 }, "geometry": { "type": "Polygon", "coordinates": [ [ [ -54.227920659999903, -28.364631546999899 ], [ -54.218753337, -28.365118584 ], [ -54.216290316, -28.362971860999888 ], [ -54.217928322, -28.360979554 ], [ -54.227890913, -28.356844294 ], [ -54.233098632, -28.349263789 ], [ -54.231970141, -28.344882789999904 ], [ -54.225626421999898, -28.338965575 ], [ -54.223364448, -28.338806588 ], [ -54.218282987999899, -28.341521620999988 ], [ -54.209477115, -28.338876612 ], [ -54.188308070999902, -28.33993743 ], [ -54.186456563, -28.338010025999903 ], [ -54.185703819, -28.332573088999908 ], [ -54.18141063, -28.3294192 ], [ -54.172307541999906, -28.333039681999896 ], [ -54.166091534, -28.331532595999892 ], [ -54.164034097, -28.329641471999892 ], [ -54.160293864, -28.329558592999895 ], [ -54.15591311, -28.339550223999908 ], [ -54.145120033, -28.336533242 ], [ -54.136354293, -28.337581299 ], [ -54.130824326, -28.336811177999891 ], [ -54.128923625, -28.339502111999888 ], [ -54.129515985999895, -28.342594357999893 ], [ -54.150225, -28.347408157 ], [ -54.156200414, -28.353419910999904 ], [ -54.157019431, -28.355789215999891 ], [ -54.154903906999898, -28.366163168999901 ], [ -54.150028936, -28.368441318 ], [ -54.135349004, -28.364863665 ], [ -54.133160403, -28.361769314999897 ], [ -54.133069207999903, -28.355359345999897 ], [ -54.128568926, -28.359362379999904 ], [ -54.124076611, -28.360542401 ], [ -54.120954777999899, -28.35987936 ], [ -54.116893687999905, -28.361845138 ], [ -54.115333469999889, -28.364179548 ], [ -54.115582060999891, -28.36789999 ], [ -54.11117638, -28.370330668 ], [ -54.108714537, -28.374242314999904 ], [ -54.109509373, -28.379918658999898 ], [ -54.107746882999891, -28.383966945999909 ], [ -54.110193287, -28.384179742999901 ], [ -54.110842658, -28.385646337 ], [ -54.109148710999889, -28.388083822999896 ], [ -54.110298814, -28.391877071 ], [ -54.108746843999903, -28.3963053149999 ], [ -54.103550743, -28.4083953059999 ], [ -54.101294442, -28.409417511999902 ], [ -54.098716821, -28.413555451 ], [ -54.093255688999896, -28.425961530999896 ], [ -54.148587560999893, -28.432839542 ], [ -54.148440383, -28.435926736999896 ], [ -54.150319384999896, -28.436862748 ], [ -54.1495991359999, -28.440426681 ], [ -54.14659512, -28.445883742 ], [ -54.145624181, -28.451780863 ], [ -54.14195037, -28.454453037999901 ], [ -54.13873315, -28.460041884 ], [ -54.138977973999893, -28.465877792 ], [ -54.141733216, -28.465808192999901 ], [ -54.150622472, -28.461800394 ], [ -54.152295771, -28.459466617 ], [ -54.157498528, -28.458858113 ], [ -54.156996811999903, -28.465007714 ], [ -54.172252926999903, -28.461649007999902 ], [ -54.175401156, -28.457142704 ], [ -54.178784704, -28.455190606 ], [ -54.18684172, -28.458031506999905 ], [ -54.19975680200001, -28.445806502999989 ], [ -54.20003971700001, -28.441372164 ], [ -54.207109069999902, -28.443079490999907 ], [ -54.208083479, -28.446719475999888 ], [ -54.216130478, -28.454706786 ], [ -54.220953209, -28.451380782999902 ], [ -54.223142728, -28.44737494 ], [ -54.226695201, -28.447130219 ], [ -54.230316159, -28.443115986 ], [ -54.236773797999895, -28.441830275 ], [ -54.237201566999893, -28.440663055999899 ], [ -54.240805055, -28.441902747 ], [ -54.246743040999895, -28.44182746 ], [ -54.256895726, -28.445773512999899 ], [ -54.262320925, -28.4438750589999 ], [ -54.265695278, -28.439436417 ], [ -54.272915209, -28.440758735 ], [ -54.273665219999891, -28.4387460149999 ], [ -54.276296419999895, -28.437337657999898 ], [ -54.280410114999896, -28.43839178299989 ], [ -54.284101184999898, -28.436667367 ], [ -54.28661747000001, -28.4335169669999 ], [ -54.29078852, -28.436636366 ], [ -54.293296309, -28.436675565 ], [ -54.295736927, -28.4311576119999 ], [ -54.302078744, -28.42937219 ], [ -54.30286359, -28.434895578999907 ], [ -54.308568116999901, -28.438588932999902 ], [ -54.308621608, -28.441082681999909 ], [ -54.302563147999891, -28.438194006999893 ], [ -54.295441324, -28.4423619 ], [ -54.290133604999902, -28.438307358 ], [ -54.288749116, -28.443042293 ], [ -54.283105209, -28.447158722 ], [ -54.278799721, -28.454416383 ], [ -54.280708273, -28.456262645 ], [ -54.282689564999899, -28.455904539 ], [ -54.293140078, -28.444174630999989 ], [ -54.294433593999891, -28.445670804 ], [ -54.29321229, -28.450265037999905 ], [ -54.296346662, -28.451214765 ], [ -54.300493280999902, -28.449550815999896 ], [ -54.303076405, -28.454741605 ], [ -54.306069599, -28.457464048 ], [ -54.305445102, -28.459194067999903 ], [ -54.297721361, -28.460047723999907 ], [ -54.295622943, -28.462784923999898 ], [ -54.288354769, -28.466171785 ], [ -54.283021765999898, -28.474380455999903 ], [ -54.274826231, -28.474455776 ], [ -54.27928401, -28.4793944749999 ], [ -54.277922286, -28.48516684 ], [ -54.272242651999896, -28.484036488999909 ], [ -54.256868363, -28.489947276999903 ], [ -54.255991029, -28.492307143999898 ], [ -54.259032754, -28.496268104 ], [ -54.260747529, -28.495616192999904 ], [ -54.265679143999897, -28.498665919 ], [ -54.26862748, -28.497987696999903 ], [ -54.274163321999893, -28.504428622 ], [ -54.278928608999891, -28.500439979 ], [ -54.283828576, -28.499821004 ], [ -54.286546002, -28.501144731999897 ], [ -54.286978980999891, -28.503380014 ], [ -54.289283984999891, -28.504821948 ], [ -54.295346628999894, -28.5050775569999 ], [ -54.302527939999898, -28.508751568 ], [ -54.306517189, -28.512003863 ], [ -54.306627427, -28.514825308999903 ], [ -54.311802977, -28.517972170999897 ], [ -54.31560966, -28.524638712 ], [ -54.318472482999901, -28.524800636 ], [ -54.319368297, -28.528019884999903 ], [ -54.322435019999894, -28.529084079 ], [ -54.322618909, -28.532470331999907 ], [ -54.326791022, -28.538029278 ], [ -54.336676675, -28.542900066999902 ], [ -54.337656824, -28.546603048999891 ], [ -54.341026526, -28.547382943999899 ], [ -54.34133760200001, -28.550406226999907 ], [ -54.345732045, -28.553073734999906 ], [ -54.338251876, -28.563345265 ], [ -54.337325329, -28.574764479999899 ], [ -54.333460242999898, -28.58242646 ], [ -54.324104857999906, -28.580137979 ], [ -54.306782658, -28.585160687 ], [ -54.309582707999894, -28.586864959 ], [ -54.311082235, -28.593304105999902 ], [ -54.313275731, -28.596340371999908 ], [ -54.312910730999903, -28.599366964999895 ], [ -54.316132272999894, -28.602420181 ], [ -54.315795755, -28.604870343 ], [ -54.3202461549999, -28.607192036 ], [ -54.322735087, -28.613097154999895 ], [ -54.325986854999904, -28.613405467999904 ], [ -54.333214235999897, -28.619590923 ], [ -54.335816495, -28.619548214 ], [ -54.339595529999897, -28.624437703 ], [ -54.343412621, -28.623720701 ], [ -54.349364018, -28.625148472 ], [ -54.352959165999891, -28.627576161 ], [ -54.353848483, -28.6297835559999 ], [ -54.358495149, -28.6312905 ], [ -54.358746364, -28.635331994999895 ], [ -54.364240316, -28.636428423 ], [ -54.36531904, -28.64221287 ], [ -54.369416164, -28.641980205 ], [ -54.372249150999899, -28.647579896 ], [ -54.378050252, -28.653814983 ], [ -54.378061217, -28.659677567 ], [ -54.382252136, -28.661191678 ], [ -54.386267836999899, -28.659656936 ], [ -54.39163315, -28.666025353 ], [ -54.397574871, -28.667506978999903 ], [ -54.397077807, -28.660684106 ], [ -54.401247586, -28.658285830999905 ], [ -54.402602578, -28.658736435 ], [ -54.403183208, -28.662042144999905 ], [ -54.406215442, -28.666111966 ], [ -54.409139154999892, -28.667703329999895 ], [ -54.415289581, -28.665065045999899 ], [ -54.415896963, -28.660890251999902 ], [ -54.413750885999896, -28.658577646 ], [ -54.410816855, -28.658960470999897 ], [ -54.412519555999893, -28.653270377 ], [ -54.416510742, -28.65586551 ], [ -54.419210963999895, -28.6550243299999 ], [ -54.422296632, -28.656339122 ], [ -54.424195853999898, -28.660783016 ], [ -54.426170187, -28.660275425999899 ], [ -54.428229049, -28.657277765999893 ], [ -54.431576896, -28.658210352 ], [ -54.43433778, -28.656079007 ], [ -54.434120650999901, -28.654385415 ], [ -54.437861358, -28.654685760999907 ], [ -54.4390829499999, -28.653307299999895 ], [ -54.441690762, -28.644125573999901 ], [ -54.439176744, -28.642968539 ], [ -54.439176569, -28.638754130999896 ], [ -54.430917263, -28.63148817 ], [ -54.431795029999897, -28.628326387 ], [ -54.430879079, -28.626049211 ], [ -54.425271525, -28.623380258999898 ], [ -54.427776105, -28.614386373999903 ], [ -54.424874686999907, -28.611805843 ], [ -54.418737842, -28.609793757 ], [ -54.419435257, -28.603426526 ], [ -54.418155613, -28.599449245 ], [ -54.420434440999898, -28.598510376 ], [ -54.421156584999899, -28.591806350999889 ], [ -54.424605874999898, -28.588042657 ], [ -54.433983543, -28.584577693999986 ], [ -54.440869807999896, -28.585695691 ], [ -54.446982405999989, -28.581594344999893 ], [ -54.433735784, -28.563492524 ], [ -54.423536188999897, -28.560676551 ], [ -54.418570809, -28.562606344999903 ], [ -54.409274749, -28.561203883 ], [ -54.407336007, -28.56448703 ], [ -54.400722981999898, -28.567438798 ], [ -54.393899559, -28.566604246999901 ], [ -54.393496405, -28.565371327 ], [ -54.397136441, -28.563097936 ], [ -54.396285604, -28.555858311 ], [ -54.407137139, -28.549793970999897 ], [ -54.415834952, -28.538656655999898 ], [ -54.417583252, -28.527541632 ], [ -54.420397774, -28.520431062999904 ], [ -54.424924769, -28.519971255 ], [ -54.42809536, -28.516811262 ], [ -54.428066826, -28.514042982 ], [ -54.430754658, -28.512924107999901 ], [ -54.434777714999896, -28.506192923 ], [ -54.440854451999897, -28.501638998 ], [ -54.44408206, -28.502789924999899 ], [ -54.444847624, -28.50101681 ], [ -54.442724856, -28.499016447999988 ], [ -54.448210424, -28.498384723 ], [ -54.451558803999909, -28.4930721449999 ], [ -54.457549126999901, -28.493162277999904 ], [ -54.458459177999899, -28.491197738 ], [ -54.462633046, -28.490498191 ], [ -54.463320312, -28.488652823999896 ], [ -54.442308222999898, -28.477751860999895 ], [ -54.429477925, -28.473188712 ], [ -54.42468004900001, -28.463157797 ], [ -54.41824622099989, -28.46098427 ], [ -54.410448531, -28.460286055 ], [ -54.402263178999895, -28.457173003 ], [ -54.402103597, -28.454068863 ], [ -54.398106955999907, -28.451718776999904 ], [ -54.398395494999903, -28.447773061 ], [ -54.396192755, -28.444837096 ], [ -54.389464185999898, -28.439837933 ], [ -54.377547627, -28.438009162 ], [ -54.374803469, -28.436213048 ], [ -54.372771887999896, -28.432080676999902 ], [ -54.373294554, -28.430345925 ], [ -54.370041514, -28.4280169429999 ], [ -54.372737759999893, -28.424961615 ], [ -54.37189398399989, -28.420092393999891 ], [ -54.373899865999896, -28.416114966 ], [ -54.370332597, -28.408707778999904 ], [ -54.369800654, -28.403053580999899 ], [ -54.370646711999903, -28.401023802999902 ], [ -54.376089421999893, -28.399456922999892 ], [ -54.377384852, -28.397865284 ], [ -54.372941861999891, -28.393774736 ], [ -54.37464833699989, -28.38140214 ], [ -54.374008022999902, -28.378613061999904 ], [ -54.370082915, -28.374728510999898 ], [ -54.374555662, -28.37331862 ], [ -54.375946846, -28.371189854 ], [ -54.366385647, -28.355711492 ], [ -54.371042798, -28.353573056 ], [ -54.37284486, -28.354365784 ], [ -54.376771358, -28.361718746 ], [ -54.381184252, -28.364289793 ], [ -54.388959639999889, -28.359003764 ], [ -54.389430179, -28.357152885999902 ], [ -54.382855828999901, -28.353782201999891 ], [ -54.379768009, -28.348408827999901 ], [ -54.377801296, -28.347449355 ], [ -54.371633883, -28.350910124999896 ], [ -54.369120773, -28.34923628 ], [ -54.358580025, -28.350444137 ], [ -54.352203485, -28.354094883 ], [ -54.350057165, -28.349031958999905 ], [ -54.346370786, -28.346075805999888 ], [ -54.343912616999901, -28.323184802999901 ], [ -54.34226008, -28.321009235 ], [ -54.336088795, -28.318075733999898 ], [ -54.328196009, -28.318649216 ], [ -54.327049303, -28.321517897 ], [ -54.330111449, -28.326772476 ], [ -54.329232695, -28.330352815 ], [ -54.321107892, -28.33299112 ], [ -54.315522167, -28.332865157 ], [ -54.312709226, -28.332112217 ], [ -54.311196046, -28.328388091 ], [ -54.312298321999897, -28.315409605 ], [ -54.309773161, -28.313540057999901 ], [ -54.297374917999903, -28.311728662999908 ], [ -54.29221934, -28.313026448999896 ], [ -54.290041040999895, -28.31802743 ], [ -54.292024034999898, -28.321395697999893 ], [ -54.303689462, -28.325947325999898 ], [ -54.299778268999901, -28.339455014999896 ], [ -54.298340969, -28.341460519 ], [ -54.291126267, -28.344335160999904 ], [ -54.284472531999903, -28.355851999 ], [ -54.281508373, -28.357213570999903 ], [ -54.278188628999899, -28.357133960999892 ], [ -54.272881824, -28.354448869999899 ], [ -54.265898641, -28.353803775 ], [ -54.261534996, -28.351499184 ], [ -54.259931506, -28.346233755 ], [ -54.264374846999893, -28.341683303 ], [ -54.265742082, -28.337210556999899 ], [ -54.265425600999897, -28.328443084 ], [ -54.264156004, -28.326586812999899 ], [ -54.256070560999902, -28.324602937999899 ], [ -54.24964901, -28.319992575 ], [ -54.247203869, -28.320745518 ], [ -54.241385771, -28.327658445999901 ], [ -54.235374722999893, -28.322781168999896 ], [ -54.232225456, -28.322845717999908 ], [ -54.229343217, -28.330440613999897 ], [ -54.231625677, -28.334467219 ], [ -54.240440105999902, -28.338449060999896 ], [ -54.250521987, -28.338537373 ], [ -54.252219368999903, -28.345418805 ], [ -54.251461871999901, -28.348933514999903 ], [ -54.245211463, -28.350352148999896 ], [ -54.240955758, -28.358243371999905 ], [ -54.227920659999903, -28.364631546999899 ] ] ] } }
]
}
