{
"type": "FeatureCollection",
"name": "bairros_dona_francisca",
"crs": { "type": "name", "properties": { "name": "urn:ogc:def:crs:OGC:1.3:CRS84" } },
"features": [
{ "type": "Feature", "properties": { "code_muni": 4306700.0, "name_muni": "Dona Francisca", "code_state": 43.0, "abbrev_state": "RS", "name_state": "Rio Grande do Sul", "code_region": 4.0, "name_region": "Sul", "year": 2022.0 }, "geometry": { "type": "Polygon", "coordinates": [ [ [ -53.339410695, -29.628291466 ], [ -53.348498666999902, -29.62556238799991 ], [ -53.358052239999893, -29.631355417999899 ], [ -53.3618942109999, -29.636720341999894 ], [ -53.364111396999903, -29.632502327999902 ], [ -53.36788034499989, -29.634910318 ], [ -53.375360127, -29.634537641000012 ], [ -53.377698435, -29.629877536 ], [ -53.382380952999895, -29.633300672 ], [ -53.384752378, -29.631047959999897 ], [ -53.383634657, -29.628489065999901 ], [ -53.385081074, -29.6251794799999 ], [ -53.388538452, -29.626493616999902 ], [ -53.390251743, -29.625254766999898 ], [ -53.396586468, -29.624753281 ], [ -53.401796927, -29.622110194 ], [ -53.400491191999897, -29.617676665999987 ], [ -53.404089496, -29.610645459 ], [ -53.375989005999891, -29.602425137 ], [ -53.383021196, -29.589382573 ], [ -53.383216584, -29.576262008999901 ], [ -53.380156090999897, -29.576326245 ], [ -53.3799767, -29.566666294 ], [ -53.372831468999898, -29.567639527 ], [ -53.372499849, -29.555174114 ], [ -53.373722254, -29.55506350699989 ], [ -53.373548676, -29.5467351 ], [ -53.379189864999894, -29.546656925999986 ], [ -53.378647617999903, -29.536794963 ], [ -53.38723282, -29.536516366999901 ], [ -53.386532687999903, -29.489075954999986 ], [ -53.317168513999903, -29.490471941999896 ], [ -53.3163389159999, -29.48547887 ], [ -53.293912399, -29.485908442 ], [ -53.299634318, -29.492055154 ], [ -53.298739267, -29.495491176 ], [ -53.29407406699989, -29.499177874999905 ], [ -53.296881122999892, -29.507855013 ], [ -53.307541859, -29.516137489 ], [ -53.31160829, -29.52278566 ], [ -53.310008206, -29.537858266999905 ], [ -53.320790644999896, -29.5487754389999 ], [ -53.3250672409999, -29.550825215 ], [ -53.332733646, -29.552082711 ], [ -53.334256833, -29.552996089 ], [ -53.334982832, -29.556211303999902 ], [ -53.328758275, -29.5665580739999 ], [ -53.326853566999894, -29.574444743999901 ], [ -53.323736138999898, -29.575465447999896 ], [ -53.316442048999896, -29.575073571 ], [ -53.306457162, -29.579702919999896 ], [ -53.305538404999893, -29.58455334 ], [ -53.306787025999903, -29.588070021 ], [ -53.310200919, -29.591499626 ], [ -53.309070587, -29.599230336999902 ], [ -53.304614113, -29.602538594 ], [ -53.289665634, -29.609329061 ], [ -53.286562706, -29.613508161 ], [ -53.287067308, -29.616187450999984 ], [ -53.297280699999902, -29.623770995 ], [ -53.300748644, -29.61844969 ], [ -53.304591865, -29.616311121 ], [ -53.306906241, -29.616528912 ], [ -53.315848192, -29.623165291 ], [ -53.319476263999896, -29.62982083 ], [ -53.329528017, -29.635091668 ], [ -53.335351789, -29.633126395 ], [ -53.339410695, -29.628291466 ] ] ] } }
]
}
