{
"type": "FeatureCollection",
"name": "bairros_sao_martinho_da_serra",
"crs": { "type": "name", "properties": { "name": "urn:ogc:def:crs:OGC:1.3:CRS84" } },
"features": [
{ "type": "Feature", "properties": { "code_muni": 4319125.0, "name_muni": "São Martinho da Serra", "code_state": 43.0, "abbrev_state": "RS", "name_state": "Rio Grande do Sul", "code_region": 4.0, "name_region": "Sul", "year": 2022.0 }, "geometry": { "type": "Polygon", "coordinates": [ [ [ -53.834028045, -29.559372467999896 ], [ -53.840943111999891, -29.563741955999902 ], [ -53.842227055, -29.566257799 ], [ -53.839862904, -29.570793720000012 ], [ -53.833587135, -29.575917467 ], [ -53.839867937999898, -29.575452459 ], [ -53.84144142, -29.576367328999901 ], [ -53.841892709, -29.585460686 ], [ -53.85382979, -29.587458201999901 ], [ -53.858336438, -29.594722718999897 ], [ -53.858023537999898, -29.601448837 ], [ -53.860006752999894, -29.604341439999899 ], [ -53.859177289999899, -29.610636679 ], [ -53.90659776, -29.604127096 ], [ -53.907968578, -29.6008640639999 ], [ -53.912497023999897, -29.602407102 ], [ -53.917716573, -29.599730142999899 ], [ -53.919141431, -29.60196024 ], [ -53.921777601, -29.598438008 ], [ -53.923081819999894, -29.599215523999906 ], [ -53.921838976999894, -29.600504878 ], [ -53.924640428, -29.602202546999887 ], [ -53.926554785999897, -29.598760098999897 ], [ -53.932229575, -29.602947307 ], [ -53.936000742, -29.601217044 ], [ -53.936984039, -29.605340355 ], [ -53.938933210999892, -29.605200529999891 ], [ -53.939721340999895, -29.607926295 ], [ -53.945532624999899, -29.60983686 ], [ -53.946208041, -29.611358164 ], [ -53.949485754, -29.609710317999905 ], [ -53.953802138, -29.609888713 ], [ -53.955829598, -29.607929025 ], [ -53.955748877, -29.606011021 ], [ -53.952142779, -29.603942936 ], [ -53.949301675, -29.606206286 ], [ -53.945739526999901, -29.605193563999901 ], [ -53.943842444, -29.602636071999903 ], [ -53.94251114, -29.596471987 ], [ -53.946842187999898, -29.591207915 ], [ -53.946578556, -29.586124162999987 ], [ -53.949633866999896, -29.583808620999896 ], [ -53.950151529, -29.578465342999902 ], [ -53.952312000999903, -29.575580135999903 ], [ -53.964918669, -29.572182930999901 ], [ -53.966701285999896, -29.571203646 ], [ -53.968260858999891, -29.56723453199989 ], [ -53.999872100999895, -29.567425973 ], [ -54.019307705, -29.559284389 ], [ -54.021812456, -29.556160723999898 ], [ -54.025746585, -29.554839257 ], [ -54.029200343, -29.555475467999901 ], [ -54.034552732999892, -29.549974614 ], [ -54.038169960999902, -29.549343012999906 ], [ -54.042293953999902, -29.544251770999892 ], [ -54.043668630999896, -29.533194426 ], [ -54.047213778, -29.532034836000012 ], [ -54.045710011, -29.530453868999903 ], [ -54.045614792, -29.527458719 ], [ -54.0482704349999, -29.526122578999896 ], [ -54.048638137999895, -29.529262877 ], [ -54.05072339, -29.525978220999896 ], [ -54.054583866, -29.528681379 ], [ -54.056742387, -29.527661932999891 ], [ -54.051258931999904, -29.524264806 ], [ -54.051119180999891, -29.521229076999894 ], [ -54.055017937999892, -29.520645623999908 ], [ -54.053349335999897, -29.517392195999903 ], [ -54.055165027, -29.508468133999894 ], [ -54.057257815, -29.506875826999902 ], [ -54.058266929999903, -29.5094619 ], [ -54.061917471, -29.506863816 ], [ -54.059977163, -29.50105475 ], [ -54.065159197999897, -29.500696859 ], [ -54.063333981, -29.495999250999901 ], [ -54.067266946, -29.487885924 ], [ -54.069968872999901, -29.486792002999895 ], [ -54.07408292, -29.482196831999897 ], [ -54.075637012999898, -29.48248826 ], [ -54.075646171, -29.483712499 ], [ -54.077281339, -29.483463463 ], [ -54.079918312, -29.474776714 ], [ -54.082830053, -29.47618232 ], [ -54.085524222999901, -29.475014109 ], [ -54.085076194999893, -29.47187394 ], [ -54.082953474999989, -29.469477309 ], [ -54.099690353, -29.461044052 ], [ -54.097189559, -29.457955058 ], [ -54.094209975999895, -29.457525960999899 ], [ -54.091550287, -29.455140667 ], [ -54.092795052, -29.447815057 ], [ -54.091058458, -29.444612634999892 ], [ -54.0693242729999, -29.447190605999896 ], [ -54.068751413, -29.444485281 ], [ -54.075312643, -29.435619663 ], [ -54.073629282999896, -29.430870645 ], [ -54.067545745, -29.430891913 ], [ -54.063203662, -29.437192137 ], [ -54.060844841999902, -29.437760704 ], [ -54.058363744, -29.433616314999902 ], [ -54.054047678, -29.430000408 ], [ -54.05367497399989, -29.424814843 ], [ -54.055319115, -29.421846005 ], [ -54.050069602999898, -29.4215034489999 ], [ -54.051689198, -29.414725664999903 ], [ -54.043561672999893, -29.408546836 ], [ -54.0427986179999, -29.404683045 ], [ -54.037112088, -29.401345778999904 ], [ -54.035408075, -29.401589831 ], [ -54.033794698999891, -29.408001145 ], [ -54.030593185, -29.410777024 ], [ -54.025384104, -29.408797832999895 ], [ -54.025172114, -29.405689862 ], [ -54.027064584, -29.404745810999898 ], [ -54.022419199999895, -29.406303836999893 ], [ -54.020450836, -29.409362544 ], [ -54.021762926, -29.416217998 ], [ -54.016372906, -29.411059205000011 ], [ -54.010776878999899, -29.411082329999896 ], [ -54.009091333999891, -29.412961696 ], [ -54.013984708, -29.420326660999898 ], [ -54.01269279, -29.422767183 ], [ -54.002922488, -29.419715686 ], [ -53.996552045, -29.42133508400001 ], [ -53.995251644999897, -29.419639850999904 ], [ -53.99649343, -29.417761552999899 ], [ -54.002261852999894, -29.415102858000012 ], [ -53.996426764, -29.408798397999902 ], [ -53.983362278999898, -29.405563994 ], [ -53.972934231999893, -29.405815795999985 ], [ -53.965360569, -29.401831817999899 ], [ -53.961187665, -29.405111899 ], [ -53.958223194, -29.405654114999908 ], [ -53.950981898999892, -29.401611683999899 ], [ -53.946913904, -29.404374407 ], [ -53.932303949999891, -29.395082541 ], [ -53.913823615999895, -29.395256822 ], [ -53.911273665, -29.4013502829999 ], [ -53.902065708, -29.397326424999989 ], [ -53.901627313999903, -29.395744578999903 ], [ -53.905642676, -29.389571146 ], [ -53.901930524, -29.385743213999891 ], [ -53.89655964, -29.383485504 ], [ -53.89146937399989, -29.3858966 ], [ -53.890252577, -29.394728864999902 ], [ -53.885185866, -29.394798576 ], [ -53.879827293999909, -29.389864334999988 ], [ -53.881215485, -29.384959513 ], [ -53.876864994, -29.382622523 ], [ -53.874440983999897, -29.38445079 ], [ -53.868740486, -29.383507933 ], [ -53.864221944999898, -29.376110020999889 ], [ -53.861783192, -29.374311269 ], [ -53.863975672, -29.369983041 ], [ -53.867833643, -29.367829797999892 ], [ -53.866963687999899, -29.365972236999905 ], [ -53.856837221, -29.370508760999904 ], [ -53.852234363, -29.370427956999904 ], [ -53.842171079, -29.362004463999899 ], [ -53.840314818, -29.355653579 ], [ -53.837884812, -29.3580080579999 ], [ -53.836455889, -29.368000712 ], [ -53.824937153999898, -29.36724179 ], [ -53.825516158, -29.364119188 ], [ -53.829595573999903, -29.357977879 ], [ -53.826285922999901, -29.354768147999899 ], [ -53.820380418999903, -29.359169305 ], [ -53.817810756, -29.364461639999902 ], [ -53.817850743, -29.368613543 ], [ -53.812372602, -29.370180257999895 ], [ -53.809525957999902, -29.36508700900001 ], [ -53.80718381, -29.368966639999904 ], [ -53.80417979, -29.370380494 ], [ -53.79961205, -29.370271762999892 ], [ -53.793445538, -29.374372696 ], [ -53.790767027999898, -29.371072851 ], [ -53.791297058999902, -29.366729672999988 ], [ -53.800937662, -29.359134492 ], [ -53.802010944999893, -29.356387133999906 ], [ -53.800848156, -29.355381271999903 ], [ -53.79274273, -29.359280796 ], [ -53.787548850999897, -29.358414648999904 ], [ -53.78535299, -29.356055532 ], [ -53.785628931, -29.355097857 ], [ -53.792864092999892, -29.354779086 ], [ -53.793831304, -29.353652854 ], [ -53.79212803, -29.345011789999912 ], [ -53.78415001, -29.346835972 ], [ -53.783871298, -29.342766664999893 ], [ -53.776708068999895, -29.346835455 ], [ -53.77312637099989, -29.346951208999901 ], [ -53.771819111, -29.344409329 ], [ -53.765552485999891, -29.344756634 ], [ -53.763981294, -29.348708138999896 ], [ -53.76501985999991, -29.350256315 ], [ -53.762030646, -29.353260702999894 ], [ -53.761962189, -29.35524358 ], [ -53.758972707999902, -29.356511193 ], [ -53.759465887, -29.359628222 ], [ -53.7621336939999, -29.359881105999893 ], [ -53.762422463, -29.363256685 ], [ -53.756146788, -29.367768898999895 ], [ -53.754344353, -29.371637752 ], [ -53.748238157999893, -29.373476738 ], [ -53.745908965, -29.376931278 ], [ -53.743297412999894, -29.377085963 ], [ -53.7424359729999, -29.38048642 ], [ -53.743480513999891, -29.383345634 ], [ -53.741735878, -29.38768625599991 ], [ -53.739644762, -29.383602537999899 ], [ -53.737306175999898, -29.38329121 ], [ -53.73558474, -29.387323250999902 ], [ -53.730710234999897, -29.386087435 ], [ -53.728413444, -29.38786999 ], [ -53.725099392999894, -29.393632620999892 ], [ -53.723028341, -29.391850142999893 ], [ -53.719747841, -29.391980417999896 ], [ -53.718093229, -29.394637448 ], [ -53.718329776, -29.395532005 ], [ -53.720363344, -29.395196165999902 ], [ -53.719055617, -29.397203465 ], [ -53.721079768, -29.3988199039999 ], [ -53.718412816, -29.399794058999898 ], [ -53.720018975, -29.402065512 ], [ -53.719897596999893, -29.405000935 ], [ -53.714324362, -29.407647814 ], [ -53.709285328, -29.407133503 ], [ -53.700659704, -29.409083854 ], [ -53.696703906, -29.41088918 ], [ -53.692971203, -29.415557495 ], [ -53.694769999, -29.424981203999895 ], [ -53.691915246, -29.429822897999905 ], [ -53.692080550999897, -29.438568013 ], [ -53.690332473, -29.443683768 ], [ -53.692473855999893, -29.452039197 ], [ -53.693994030999903, -29.452813150999901 ], [ -53.687105711999898, -29.452955019999898 ], [ -53.689639058, -29.4568095939999 ], [ -53.689861058, -29.460416973 ], [ -53.687578760999891, -29.466106106 ], [ -53.692376497999902, -29.461759819999905 ], [ -53.696037712, -29.469895841 ], [ -53.69611205, -29.478502660999901 ], [ -53.698816166, -29.480376288999903 ], [ -53.703450599, -29.480131384999897 ], [ -53.70613365, -29.483292204999898 ], [ -53.710331233, -29.485504493999905 ], [ -53.714489035, -29.485419655999987 ], [ -53.71804154599991, -29.490923212 ], [ -53.723320668, -29.490386682999905 ], [ -53.726494406, -29.491638232 ], [ -53.729022702999892, -29.48978134 ], [ -53.734213344999901, -29.493072981 ], [ -53.7382386949999, -29.491672684 ], [ -53.742080804999894, -29.500689193 ], [ -53.748253330999901, -29.503933468999893 ], [ -53.749635564999892, -29.505926249 ], [ -53.749192083, -29.508019331999893 ], [ -53.753286558999903, -29.506342652999894 ], [ -53.756064287999891, -29.507939192 ], [ -53.758774059, -29.516919743 ], [ -53.764348873999893, -29.518796311999903 ], [ -53.764842326999897, -29.521297074 ], [ -53.768754444, -29.518287109 ], [ -53.771573546999903, -29.521003879 ], [ -53.773047913, -29.526392304 ], [ -53.775109707, -29.525588373999891 ], [ -53.776370539, -29.527336181999903 ], [ -53.778987964, -29.526702731999904 ], [ -53.780504455, -29.528567302999903 ], [ -53.782475347999892, -29.527331876999895 ], [ -53.789306790999895, -29.527127263 ], [ -53.789811173, -29.53214227 ], [ -53.794658657, -29.534217597999898 ], [ -53.795021144, -29.536073901 ], [ -53.799140049, -29.53945156 ], [ -53.808785004, -29.543442506 ], [ -53.815447756, -29.541249754 ], [ -53.817299159, -29.548991034 ], [ -53.827323631, -29.557687713 ], [ -53.834028045, -29.559372467999896 ] ] ] } }
]
}
