{
"type": "FeatureCollection",
"name": "bairros_rio_pardo",
"crs": { "type": "name", "properties": { "name": "urn:ogc:def:crs:OGC:1.3:CRS84" } },
"features": [
{ "type": "Feature", "properties": { "name": "Guerino", "code_muni": 4315701.0, "name_muni": "Rio Pardo" }, "geometry": { "type": "Polygon", "coordinates": [ [ [ -52.3714181, -29.9660429 ], [ -52.3707078, -29.964286 ], [ -52.370459, -29.9637824 ], [ -52.3704364, -29.9642999 ], [ -52.3702783, -29.9650386 ], [ -52.369814, -29.9667559 ], [ -52.3696873, -29.9673518 ], [ -52.3696821, -29.9678258 ], [ -52.3697929, -29.968229 ], [ -52.3703126, -29.9696133 ], [ -52.3704496, -29.9700561 ], [ -52.3705428, -29.970486499999989 ], [ -52.3708555, -29.9730659 ], [ -52.370935, -29.9735067 ], [ -52.370981, -29.9738131 ], [ -52.3710765, -29.9740533 ], [ -52.3711971, -29.9743792 ], [ -52.371263, -29.9745334 ], [ -52.3713505, -29.9747156 ], [ -52.3714896, -29.974964699999987 ], [ -52.3715942, -29.9751424 ], [ -52.3720139, -29.9757663 ], [ -52.3722754, -29.9761276 ], [ -52.3724793, -29.9764302 ], [ -52.3725725, -29.9765754 ], [ -52.372661, -29.9767729 ], [ -52.3727328, -29.976993 ], [ -52.3727717, -29.9772405 ], [ -52.3727877, -29.977434499999987 ], [ -52.3727824, -29.9775437 ], [ -52.3727649, -29.9776819 ], [ -52.3727328, -29.977868900000011 ], [ -52.372663, -29.978049 ], [ -52.3725155, -29.9783452 ], [ -52.3723237, -29.9786113 ], [ -52.3720609, -29.9789005 ], [ -52.3702531, -29.9807371 ], [ -52.3703647, -29.9808595 ], [ -52.3704605, -29.9808741 ], [ -52.370586, -29.9809283 ], [ -52.3712125, -29.9811903 ], [ -52.372588, -29.9817962 ], [ -52.3733592, -29.9821385 ], [ -52.3740468, -29.9824494 ], [ -52.3757074, -29.9831589 ], [ -52.3760077, -29.9829326 ], [ -52.3760685, -29.9828863 ], [ -52.3771517, -29.9820928 ], [ -52.3778746, -29.9815642 ], [ -52.3781334, -29.9813644 ], [ -52.3782935, -29.9812081 ], [ -52.3784271, -29.9810496 ], [ -52.3786483, -29.9807475 ], [ -52.3788971, -29.9803629 ], [ -52.3792752, -29.9797443 ], [ -52.3798837, -29.9787845 ], [ -52.3796368, -29.9786798 ], [ -52.3791907, -29.97855 ], [ -52.3786604, -29.9783661 ], [ -52.3791061, -29.9779488 ], [ -52.3797935, -29.9772673 ], [ -52.3806568, -29.9765789 ], [ -52.3807499, -29.9765074 ], [ -52.380433, -29.9763286 ], [ -52.3803047, -29.9762995 ], [ -52.3799226, -29.976116 ], [ -52.3793775, -29.975556 ], [ -52.3791755, -29.9751598 ], [ -52.3787145, -29.9740072 ], [ -52.3776094, -29.971916 ], [ -52.3768562, -29.9708486 ], [ -52.3756782, -29.97002 ], [ -52.3744852, -29.9690176 ], [ -52.373747, -29.968598 ], [ -52.3733908, -29.9683949 ], [ -52.3729938, -29.9680417 ], [ -52.3725454, -29.9673432 ], [ -52.3722557, -29.9666926 ], [ -52.3717888, -29.9668265 ], [ -52.3714181, -29.9660429 ] ] ] } },
{ "type": "Feature", "properties": { "name": "São João", "code_muni": 4315701.0, "name_muni": "Rio Pardo" }, "geometry": { "type": "Polygon", "coordinates": [ [ [ -52.3792752, -29.9797443 ], [ -52.3788971, -29.9803629 ], [ -52.3786483, -29.9807475 ], [ -52.3784271, -29.9810496 ], [ -52.3782935, -29.9812081 ], [ -52.3781334, -29.9813644 ], [ -52.3778746, -29.9815642 ], [ -52.3771517, -29.9820928 ], [ -52.3760685, -29.9828863 ], [ -52.3767561, -29.9837379 ], [ -52.3771979, -29.9833915 ], [ -52.3775063, -29.9831668 ], [ -52.3781469, -29.9835308 ], [ -52.3794361, -29.984178 ], [ -52.3803286, -29.984608399999985 ], [ -52.3805129, -29.9842248 ], [ -52.3806451, -29.9839332 ], [ -52.3811594, -29.9829314 ], [ -52.3816538, -29.9820009 ], [ -52.3823899, -29.9806547 ], [ -52.3831078, -29.979295600000011 ], [ -52.3830224, -29.978739 ], [ -52.3829949, -29.9786287 ], [ -52.3829647, -29.9785356 ], [ -52.3829526, -29.9784963 ], [ -52.38295, -29.9784396 ], [ -52.3829802, -29.9783074 ], [ -52.3830376, -29.9781116 ], [ -52.3830572, -29.9780223 ], [ -52.3830957, -29.9777748 ], [ -52.3832418, -29.9776227 ], [ -52.3830205, -29.9775251 ], [ -52.3827705, -29.9775541 ], [ -52.3824419, -29.9775262 ], [ -52.3822854, -29.9774844 ], [ -52.3820281, -29.9773427 ], [ -52.38166050000001, -29.9772335 ], [ -52.3815896, -29.977108 ], [ -52.3815023, -29.9770825 ], [ -52.3813422, -29.9770232 ], [ -52.3812139, -29.9769535 ], [ -52.3811629, -29.9768815 ], [ -52.3810512, -29.9768629 ], [ -52.3809216, -29.97676190000001 ], [ -52.3809041, -29.9766898 ], [ -52.3808313, -29.9766143 ], [ -52.3807499, -29.9765074 ], [ -52.3806568, -29.9765789 ], [ -52.3797935, -29.9772673 ], [ -52.3791061, -29.9779488 ], [ -52.3786604, -29.9783661 ], [ -52.3791907, -29.97855 ], [ -52.3796368, -29.9786798 ], [ -52.3798837, -29.9787845 ], [ -52.3792752, -29.9797443 ] ] ] } },
{ "type": "Feature", "properties": { "name": "Centro", "code_muni": 4315701.0, "name_muni": "Rio Pardo" }, "geometry": { "type": "Polygon", "coordinates": [ [ [ -52.3794361, -29.984178 ], [ -52.3781469, -29.9835308 ], [ -52.3775063, -29.9831668 ], [ -52.3771979, -29.9833915 ], [ -52.3767561, -29.9837379 ], [ -52.3759098, -29.9843993 ], [ -52.37599, -29.9844362 ], [ -52.3756671, -29.9850241 ], [ -52.3756678, -29.9850595 ], [ -52.3756792, -29.9851002 ], [ -52.3757707, -29.9852124 ], [ -52.3755665, -29.9855956 ], [ -52.3757771, -29.9857147 ], [ -52.3761868, -29.9859592 ], [ -52.3768392, -29.9863733 ], [ -52.3772013, -29.9865441 ], [ -52.377605, -29.9866986 ], [ -52.3776694, -29.9867183 ], [ -52.3782946, -29.9869387 ], [ -52.3783574, -29.9869608 ], [ -52.379151, -29.9872034 ], [ -52.380186, -29.9875038 ], [ -52.3800659, -29.9878334 ], [ -52.3812963, -29.9883027 ], [ -52.3814723, -29.9881021 ], [ -52.3816241, -29.9878886 ], [ -52.3817397, -29.9875872 ], [ -52.3818231, -29.9872372 ], [ -52.3818578, -29.986943900000011 ], [ -52.381887, -29.9866442 ], [ -52.3819084, -29.986424 ], [ -52.381884, -29.9856044 ], [ -52.3818825, -29.985508 ], [ -52.3818246, -29.9854606 ], [ -52.381744, -29.9854476 ], [ -52.3816027, -29.9854238 ], [ -52.3810128, -29.985058399999989 ], [ -52.3803286, -29.984608399999985 ], [ -52.3794361, -29.984178 ] ] ] } },
{ "type": "Feature", "properties": { "name": "Balneário Santa Vitória", "code_muni": 4315701.0, "name_muni": "Rio Pardo" }, "geometry": { "type": "Polygon", "coordinates": [ [ [ -52.3906749, -29.9959059 ], [ -52.3905158, -29.99592 ], [ -52.3897554, -29.9958978 ], [ -52.3881072, -29.9960268 ], [ -52.3872312, -29.9961437 ], [ -52.3862565, -29.99605 ], [ -52.3855698, -29.9960315 ], [ -52.3837674, -29.9961383 ], [ -52.3825265, -29.9960414 ], [ -52.3821366, -29.99605 ], [ -52.3818523, -29.9961523 ], [ -52.3847223, -30.0035761 ], [ -52.3929191, -30.0017736 ], [ -52.3909492, -29.9958817 ], [ -52.3906749, -29.9959059 ] ] ] } },
{ "type": "Feature", "properties": { "name": "Auxiliadora", "code_muni": 4315701.0, "name_muni": "Rio Pardo" }, "geometry": { "type": "Polygon", "coordinates": [ [ [ -52.3756792, -29.9851002 ], [ -52.3756678, -29.9850595 ], [ -52.3756671, -29.9850241 ], [ -52.37599, -29.9844362 ], [ -52.3759098, -29.9843993 ], [ -52.3767561, -29.9837379 ], [ -52.3760685, -29.9828863 ], [ -52.3760077, -29.9829326 ], [ -52.3757074, -29.9831589 ], [ -52.3740468, -29.9824494 ], [ -52.3733592, -29.9821385 ], [ -52.372588, -29.9817962 ], [ -52.3712125, -29.9811903 ], [ -52.370586, -29.9809283 ], [ -52.3704605, -29.9808741 ], [ -52.3703647, -29.9808595 ], [ -52.3702531, -29.9807371 ], [ -52.3697153, -29.9813307 ], [ -52.369498, -29.9816606 ], [ -52.3691615, -29.982679 ], [ -52.3691253, -29.9827981 ], [ -52.3688671, -29.9836434 ], [ -52.3688134, -29.9838089 ], [ -52.368753, -29.9840157 ], [ -52.3687001, -29.984222 ], [ -52.3686541, -29.984413 ], [ -52.3686256, -29.9845562 ], [ -52.368597800000011, -29.9847212 ], [ -52.3685505, -29.9852147 ], [ -52.3686907, -29.9852349 ], [ -52.368798, -29.9852076 ], [ -52.3690078, -29.9850903 ], [ -52.3692177, -29.9849393 ], [ -52.3701428, -29.9844525 ], [ -52.3702571, -29.9845914 ], [ -52.3706392, -29.9844423 ], [ -52.3706849, -29.9845711 ], [ -52.3712774, -29.9842785 ], [ -52.372026, -29.985326699999987 ], [ -52.3725128, -29.9847564 ], [ -52.3730874, -29.9840183 ], [ -52.3755665, -29.9855956 ], [ -52.3757707, -29.9852124 ], [ -52.3756792, -29.9851002 ] ] ] } },
{ "type": "Feature", "properties": { "name": "Rosário", "code_muni": 4315701.0, "name_muni": "Rio Pardo" }, "geometry": { "type": "Polygon", "coordinates": [ [ [ -52.3819853, -29.9939594 ], [ -52.3825712, -29.993735 ], [ -52.3830866, -29.9934932 ], [ -52.3832793, -29.9934028 ], [ -52.3836821, -29.9931973 ], [ -52.3840721, -29.9928384 ], [ -52.3845404, -29.992407499999988 ], [ -52.3849868, -29.9922436 ], [ -52.3861517, -29.991816 ], [ -52.3933482, -29.9854196 ], [ -52.3933227, -29.9841756 ], [ -52.392678, -29.9842118 ], [ -52.3919159, -29.9842058 ], [ -52.3911691, -29.9841475 ], [ -52.3905212, -29.9840513 ], [ -52.3900678, -29.9839529 ], [ -52.3893718, -29.9837702 ], [ -52.3886196, -29.9835407 ], [ -52.388134, -29.9833415 ], [ -52.3878688, -29.983387799999988 ], [ -52.387799, -29.983437 ], [ -52.3869221, -29.9839854 ], [ -52.3867875, -29.9840764 ], [ -52.3865357, -29.984266 ], [ -52.3856915, -29.9851712 ], [ -52.3855703, -29.9853628 ], [ -52.3853343, -29.9855127 ], [ -52.3851433, -29.9856078 ], [ -52.3849735, -29.9856695 ], [ -52.3848287, -29.985702 ], [ -52.3846485, -29.9857217 ], [ -52.3844714, -29.9857033 ], [ -52.3843491, -29.9856481 ], [ -52.3841362, -29.9855358 ], [ -52.383821, -29.985336 ], [ -52.3834281, -29.9850512 ], [ -52.3833007, -29.9849945 ], [ -52.3831913, -29.9849679 ], [ -52.3830702, -29.9849618 ], [ -52.3829451, -29.9849783 ], [ -52.3826196, -29.985068899999987 ], [ -52.3821781, -29.985207 ], [ -52.3820528, -29.9852783 ], [ -52.3819557, -29.9853782 ], [ -52.3818931, -29.9854242 ], [ -52.3818246, -29.9854606 ], [ -52.3818825, -29.985508 ], [ -52.381884, -29.9856044 ], [ -52.3819084, -29.986424 ], [ -52.381887, -29.9866442 ], [ -52.3818578, -29.986943900000011 ], [ -52.3818231, -29.9872372 ], [ -52.3817397, -29.9875872 ], [ -52.3816241, -29.9878886 ], [ -52.3814723, -29.9881021 ], [ -52.3812963, -29.9883027 ], [ -52.380888, -29.9888126 ], [ -52.3804702, -29.9892762 ], [ -52.3813482, -29.9896842 ], [ -52.3813367, -29.990052 ], [ -52.38133460000001, -29.9901182 ], [ -52.3812854, -29.9906115 ], [ -52.3812461, -29.9908767 ], [ -52.3811921, -29.9911698 ], [ -52.3811453, -29.9913977 ], [ -52.381015, -29.991743399999987 ], [ -52.3808024, -29.9922225 ], [ -52.3807848, -29.9923025 ], [ -52.3807727, -29.9927839 ], [ -52.3807608, -29.993059 ], [ -52.3808411, -29.9930673 ], [ -52.3807295, -29.9936457 ], [ -52.38076920000001, -29.993656 ], [ -52.3808389, -29.9941265 ], [ -52.380914, -29.9942659 ], [ -52.3812375, -29.99424590000001 ], [ -52.3819853, -29.9939594 ] ] ] } },
{ "type": "Feature", "properties": { "name": "Bom Fim", "code_muni": 4315701.0, "name_muni": "Rio Pardo" }, "geometry": { "type": "Polygon", "coordinates": [ [ [ -52.3818931, -29.9854242 ], [ -52.3819557, -29.9853782 ], [ -52.3820528, -29.9852783 ], [ -52.3821781, -29.985207 ], [ -52.3826196, -29.985068899999987 ], [ -52.3829451, -29.9849783 ], [ -52.3830702, -29.9849618 ], [ -52.3831913, -29.9849679 ], [ -52.3833007, -29.9849945 ], [ -52.3834281, -29.9850512 ], [ -52.383821, -29.985336 ], [ -52.3841362, -29.9855358 ], [ -52.3843491, -29.9856481 ], [ -52.3844714, -29.9857033 ], [ -52.3846485, -29.9857217 ], [ -52.3848287, -29.985702 ], [ -52.3849735, -29.9856695 ], [ -52.3851433, -29.9856078 ], [ -52.3853343, -29.9855127 ], [ -52.3855703, -29.9853628 ], [ -52.3856915, -29.9851712 ], [ -52.3865357, -29.984266 ], [ -52.3867875, -29.9840764 ], [ -52.3869221, -29.9839854 ], [ -52.387799, -29.983437 ], [ -52.3878688, -29.983387799999988 ], [ -52.388134, -29.9833415 ], [ -52.3886196, -29.9835407 ], [ -52.3893718, -29.9837702 ], [ -52.3900678, -29.9839529 ], [ -52.3905212, -29.9840513 ], [ -52.3911691, -29.9841475 ], [ -52.3919159, -29.9842058 ], [ -52.392678, -29.9842118 ], [ -52.3933227, -29.9841756 ], [ -52.3919678, -29.9800122 ], [ -52.3912347, -29.9799507 ], [ -52.3911543, -29.9798949 ], [ -52.3905159, -29.9796858 ], [ -52.3893733, -29.979365199999989 ], [ -52.3881698, -29.9788831 ], [ -52.3873973, -29.9786508 ], [ -52.386303, -29.9784231 ], [ -52.3855144, -29.9781629 ], [ -52.3846821, -29.9779047 ], [ -52.3844002, -29.9778544 ], [ -52.3842538, -29.9778283 ], [ -52.384125, -29.9777586 ], [ -52.3840089, -29.9777621 ], [ -52.3836065, -29.9777017 ], [ -52.3835153, -29.977632 ], [ -52.3832418, -29.9776227 ], [ -52.3830957, -29.9777748 ], [ -52.3830572, -29.9780223 ], [ -52.3830376, -29.9781116 ], [ -52.3829802, -29.9783074 ], [ -52.38295, -29.9784396 ], [ -52.3829526, -29.9784963 ], [ -52.3829647, -29.9785356 ], [ -52.3829949, -29.9786287 ], [ -52.3830224, -29.978739 ], [ -52.3831078, -29.979295600000011 ], [ -52.3823899, -29.9806547 ], [ -52.3816538, -29.9820009 ], [ -52.3811594, -29.9829314 ], [ -52.3806451, -29.9839332 ], [ -52.3805129, -29.9842248 ], [ -52.3803286, -29.984608399999985 ], [ -52.3810128, -29.985058399999989 ], [ -52.3816027, -29.9854238 ], [ -52.381744, -29.9854476 ], [ -52.3818246, -29.9854606 ], [ -52.3818931, -29.9854242 ] ] ] } },
{ "type": "Feature", "properties": { "name": "Fortaleza", "code_muni": 4315701.0, "name_muni": "Rio Pardo" }, "geometry": { "type": "Polygon", "coordinates": [ [ [ -52.3764132, -29.9959987 ], [ -52.3766118, -29.9958827 ], [ -52.3773842, -29.995594599999986 ], [ -52.3777919, -29.9956597 ], [ -52.3783685, -29.9954276 ], [ -52.3785537, -29.995353 ], [ -52.3784678, -29.9951672 ], [ -52.3785644, -29.995046399999985 ], [ -52.3790687, -29.994944200000013 ], [ -52.3791759, -29.9947676 ], [ -52.3794519, -29.9946925 ], [ -52.3803025, -29.994461 ], [ -52.3806673, -29.994349499999988 ], [ -52.3807424, -29.9942752 ], [ -52.3806887, -29.9936352 ], [ -52.3807295, -29.9936457 ], [ -52.3808411, -29.9930673 ], [ -52.3807608, -29.993059 ], [ -52.3807727, -29.9927839 ], [ -52.3807848, -29.9923025 ], [ -52.3808024, -29.9922225 ], [ -52.381015, -29.991743399999987 ], [ -52.3811453, -29.9913977 ], [ -52.3811921, -29.9911698 ], [ -52.3812461, -29.9908767 ], [ -52.3812854, -29.9906115 ], [ -52.38133460000001, -29.9901182 ], [ -52.3813367, -29.990052 ], [ -52.3813482, -29.9896842 ], [ -52.3804702, -29.9892762 ], [ -52.380888, -29.9888126 ], [ -52.3812963, -29.9883027 ], [ -52.3800659, -29.9878334 ], [ -52.380186, -29.9875038 ], [ -52.379151, -29.9872034 ], [ -52.3783574, -29.9869608 ], [ -52.3782983, -29.987385 ], [ -52.3781006, -29.9884059 ], [ -52.3776551, -29.988345 ], [ -52.3775272, -29.988305 ], [ -52.3774267, -29.9882516 ], [ -52.3773463, -29.9881819 ], [ -52.3770691, -29.9885322 ], [ -52.3769703, -29.9887422 ], [ -52.3768878, -29.9889458 ], [ -52.3768409, -29.9891039 ], [ -52.3768281, -29.9892302 ], [ -52.3768372, -29.9892878 ], [ -52.3768687, -29.9893295 ], [ -52.3769215, -29.989368 ], [ -52.3771625, -29.9894615 ], [ -52.3768553, -29.9900218 ], [ -52.3764641, -29.9905175 ], [ -52.3764221, -29.99057 ], [ -52.3762263, -29.9908326 ], [ -52.3760794, -29.9910053 ], [ -52.3757148, -29.991296 ], [ -52.3750943, -29.9917466 ], [ -52.3750328, -29.9917931 ], [ -52.3750006, -29.9918628 ], [ -52.3749805, -29.9919523 ], [ -52.374963, -29.992202 ], [ -52.3749469, -29.992538299999989 ], [ -52.3749424, -29.9925836 ], [ -52.3749509, -29.9927874 ], [ -52.3750153, -29.9932021 ], [ -52.3751373, -29.9940625 ], [ -52.3751856, -29.9942358 ], [ -52.3752506, -29.994396599999988 ], [ -52.3754029, -29.9946365 ], [ -52.3754726, -29.9947585 ], [ -52.3758366, -29.9963356 ], [ -52.3764132, -29.9959987 ] ] ] } },
{ "type": "Feature", "properties": { "name": "São Jorge", "code_muni": 4315701.0, "name_muni": "Rio Pardo" }, "geometry": { "type": "Polygon", "coordinates": [ [ [ -52.3706849, -29.9845711 ], [ -52.3706392, -29.9844423 ], [ -52.3702571, -29.9845914 ], [ -52.3701428, -29.9844525 ], [ -52.3692177, -29.9849393 ], [ -52.3690078, -29.9850903 ], [ -52.368798, -29.9852076 ], [ -52.3686907, -29.9852349 ], [ -52.3685505, -29.9852147 ], [ -52.368436, -29.987397 ], [ -52.3684338, -29.9877434 ], [ -52.3684251, -29.9882713 ], [ -52.3683941, -29.9888046 ], [ -52.3683534, -29.989892900000012 ], [ -52.3682937, -29.9918036 ], [ -52.3682792, -29.9923749 ], [ -52.3682763, -29.9924884 ], [ -52.3682756, -29.992515 ], [ -52.3682468, -29.9929628 ], [ -52.3682334, -29.9933351 ], [ -52.3681525, -29.995799 ], [ -52.367723, -29.9978568 ], [ -52.3681694, -29.9978954 ], [ -52.3689821, -29.9979658 ], [ -52.3692818, -29.997991699999989 ], [ -52.3712323, -29.9978691 ], [ -52.3715131, -29.9978023 ], [ -52.37301, -29.9974463 ], [ -52.3745909, -29.9968856 ], [ -52.3753652, -29.996611 ], [ -52.375495, -29.9965352 ], [ -52.3758366, -29.9963356 ], [ -52.3754726, -29.9947585 ], [ -52.3754029, -29.9946365 ], [ -52.3752506, -29.994396599999988 ], [ -52.3751856, -29.9942358 ], [ -52.3751373, -29.9940625 ], [ -52.3750153, -29.9932021 ], [ -52.3749509, -29.9927874 ], [ -52.3749424, -29.9925836 ], [ -52.3749469, -29.992538299999989 ], [ -52.374963, -29.992202 ], [ -52.3749805, -29.9919523 ], [ -52.3750006, -29.9918628 ], [ -52.3750328, -29.9917931 ], [ -52.3750943, -29.9917466 ], [ -52.3757148, -29.991296 ], [ -52.3760794, -29.9910053 ], [ -52.3762263, -29.9908326 ], [ -52.3764221, -29.99057 ], [ -52.3764641, -29.9905175 ], [ -52.3768553, -29.9900218 ], [ -52.3771625, -29.9894615 ], [ -52.3769215, -29.989368 ], [ -52.3768687, -29.9893295 ], [ -52.3768372, -29.9892878 ], [ -52.3768281, -29.9892302 ], [ -52.3768409, -29.9891039 ], [ -52.3768878, -29.9889458 ], [ -52.3769703, -29.9887422 ], [ -52.3770691, -29.9885322 ], [ -52.3773463, -29.9881819 ], [ -52.3774267, -29.9882516 ], [ -52.3775272, -29.988305 ], [ -52.3776551, -29.988345 ], [ -52.3781006, -29.9884059 ], [ -52.3782983, -29.987385 ], [ -52.3783574, -29.9869608 ], [ -52.3782946, -29.9869387 ], [ -52.3776694, -29.9867183 ], [ -52.377605, -29.9866986 ], [ -52.3772013, -29.9865441 ], [ -52.3768392, -29.9863733 ], [ -52.3761868, -29.9859592 ], [ -52.3757771, -29.9857147 ], [ -52.3755665, -29.9855956 ], [ -52.3730874, -29.9840183 ], [ -52.3725128, -29.9847564 ], [ -52.372026, -29.985326699999987 ], [ -52.3712774, -29.9842785 ], [ -52.3706849, -29.9845711 ] ] ] } },
{ "type": "Feature", "properties": { "name": "Ramiz Galvão", "code_muni": 4315701.0, "name_muni": "Rio Pardo" }, "geometry": { "type": "Polygon", "coordinates": [ [ [ -52.3715794, -29.9546557 ], [ -52.3691011, -29.953010299999988 ], [ -52.372309, -29.9493942 ], [ -52.3728025, -29.9482228 ], [ -52.3733229, -29.9454014 ], [ -52.3736501, -29.943635 ], [ -52.3733926, -29.9405996 ], [ -52.3734784, -29.9402277 ], [ -52.3741865, -29.939893 ], [ -52.3744655, -29.9398744 ], [ -52.3744118, -29.938517 ], [ -52.3712146, -29.9383032 ], [ -52.3700667, -29.9396792 ], [ -52.3700774, -29.9410737 ], [ -52.3691762, -29.942115 ], [ -52.3690581, -29.9431098 ], [ -52.36848950000001, -29.9437419 ], [ -52.3673523, -29.9444857 ], [ -52.3656035, -29.9438442 ], [ -52.3636186, -29.945657 ], [ -52.3610723, -29.9458269 ], [ -52.35006, -29.9508118 ], [ -52.35042210000001, -29.9510779 ], [ -52.3505603, -29.9512313 ], [ -52.3511209, -29.9519634 ], [ -52.3511826, -29.952104 ], [ -52.3513951, -29.9531155 ], [ -52.3515862, -29.9534472 ], [ -52.3516855, -29.95354480000001 ], [ -52.3525418, -29.9535489 ], [ -52.3527637, -29.953635499999987 ], [ -52.3528985, -29.9540346 ], [ -52.3531178, -29.9546557 ], [ -52.3532418, -29.9551135 ], [ -52.3533183, -29.955318 ], [ -52.3534483, -29.9555016 ], [ -52.3535612, -29.9556183 ], [ -52.353732, -29.955684 ], [ -52.3537923, -29.9557072 ], [ -52.3540384, -29.955795600000013 ], [ -52.35466670000001, -29.9560396 ], [ -52.354947, -29.9561314 ], [ -52.3557555, -29.9563297 ], [ -52.356095, -29.9564672 ], [ -52.3565342, -29.9566746 ], [ -52.3567343, -29.9568569 ], [ -52.3572651, -29.9574647 ], [ -52.358286, -29.9584597 ], [ -52.3592117, -29.9592548 ], [ -52.3593055, -29.9593326 ], [ -52.3597143, -29.9596718 ], [ -52.3598559, -29.9598201 ], [ -52.3601153, -29.9602848 ], [ -52.3605839, -29.9611408 ], [ -52.3609593, -29.9619967 ], [ -52.3612025, -29.9624835 ], [ -52.3613535, -29.9628111 ], [ -52.3615003, -29.9630526 ], [ -52.3616529, -29.963254 ], [ -52.3618275, -29.963431 ], [ -52.3620351, -29.9636194 ], [ -52.3624712, -29.9639121 ], [ -52.3627937, -29.964141 ], [ -52.3639142, -29.9649568 ], [ -52.3642483, -29.9651662 ], [ -52.3648534, -29.9655296 ], [ -52.364558, -29.9652102 ], [ -52.364377, -29.9650071 ], [ -52.3642393, -29.9647733 ], [ -52.364198, -29.964703199999985 ], [ -52.3639573, -29.964201500000012 ], [ -52.3638974, -29.9638701 ], [ -52.3639002, -29.9628647 ], [ -52.3639869, -29.9628473 ], [ -52.3641594, -29.9627772 ], [ -52.3642963, -29.9625894 ], [ -52.3651005, -29.9616082 ], [ -52.3657077, -29.9608187 ], [ -52.3658501, -29.9606191 ], [ -52.3674782, -29.9600849 ], [ -52.3677651, -29.959957 ], [ -52.3678324, -29.959901 ], [ -52.3685343, -29.9606386 ], [ -52.3697665, -29.9623807 ], [ -52.370459, -29.9637824 ], [ -52.3705311, -29.9634781 ], [ -52.3706272, -29.958408699999989 ], [ -52.3706555, -29.9579916 ], [ -52.3707051, -29.9574888 ], [ -52.3707546, -29.9571699 ], [ -52.3707893, -29.957039 ], [ -52.3708617, -29.9567993 ], [ -52.3708984, -29.956687 ], [ -52.3710722, -29.956264 ], [ -52.3711745, -29.9560396 ], [ -52.3712008, -29.9559787 ], [ -52.3712205, -29.9559332 ], [ -52.371617, -29.9553089 ], [ -52.3715794, -29.9546557 ] ] ] } },
{ "type": "Feature", "properties": { "name": "Boa Vista", "code_muni": 4315701.0, "name_muni": "Rio Pardo" }, "geometry": { "type": "Polygon", "coordinates": [ [ [ -52.3563953, -29.982969 ], [ -52.3565067, -29.9830267 ], [ -52.356606, -29.9830479 ], [ -52.3566948, -29.9830465 ], [ -52.3568004, -29.9830253 ], [ -52.3568765, -29.9829964 ], [ -52.3576239, -29.9824941 ], [ -52.3581854, -29.9820764 ], [ -52.3585466, -29.9818209 ], [ -52.3590273, -29.9814783 ], [ -52.3593043, -29.981261 ], [ -52.3598099, -29.980826 ], [ -52.3607869, -29.979949500000011 ], [ -52.36090690000001, -29.9798647 ], [ -52.3610276, -29.9798089 ], [ -52.3612382, -29.9797381 ], [ -52.3620656, -29.979515 ], [ -52.3628944, -29.9792769 ], [ -52.3633651, -29.9791212 ], [ -52.3637145, -29.978976 ], [ -52.3641095, -29.9788215 ], [ -52.3646097, -29.9785921 ], [ -52.3648202, -29.978451 ], [ -52.3650751, -29.9782506 ], [ -52.3652715, -29.9781687 ], [ -52.3658903, -29.9780714 ], [ -52.3662736, -29.9780112 ], [ -52.3662633, -29.978068599999986 ], [ -52.3662097, -29.9783474 ], [ -52.3662168, -29.9786461 ], [ -52.3662741, -29.9789515 ], [ -52.3664082, -29.9794533 ], [ -52.3665005, -29.9797203 ], [ -52.3665161, -29.9797682 ], [ -52.3665426, -29.9798069 ], [ -52.3668413, -29.9801893 ], [ -52.3672594, -29.9805874 ], [ -52.3676097, -29.9808324 ], [ -52.3681328, -29.9811047 ], [ -52.3683956, -29.981218 ], [ -52.3686224, -29.9813131 ], [ -52.3690099, -29.981470099999989 ], [ -52.3691145, -29.9815154 ], [ -52.36942, -29.9816296 ], [ -52.369498, -29.9816606 ], [ -52.3697153, -29.9813307 ], [ -52.3702531, -29.9807371 ], [ -52.3720609, -29.9789005 ], [ -52.3723237, -29.9786113 ], [ -52.3725155, -29.9783452 ], [ -52.372663, -29.978049 ], [ -52.3727328, -29.977868900000011 ], [ -52.3727649, -29.9776819 ], [ -52.3727824, -29.9775437 ], [ -52.3727877, -29.977434499999987 ], [ -52.3727717, -29.9772405 ], [ -52.3727328, -29.976993 ], [ -52.372661, -29.9767729 ], [ -52.3725725, -29.9765754 ], [ -52.3724793, -29.9764302 ], [ -52.3722754, -29.9761276 ], [ -52.3720139, -29.9757663 ], [ -52.3715942, -29.9751424 ], [ -52.3714896, -29.974964699999987 ], [ -52.3713505, -29.9747156 ], [ -52.371263, -29.9745334 ], [ -52.3711971, -29.9743792 ], [ -52.3710765, -29.9740533 ], [ -52.370981, -29.9738131 ], [ -52.370935, -29.9735067 ], [ -52.3708555, -29.9730659 ], [ -52.3705428, -29.970486499999989 ], [ -52.3704496, -29.9700561 ], [ -52.3703126, -29.9696133 ], [ -52.3697929, -29.968229 ], [ -52.3696821, -29.9678258 ], [ -52.3696873, -29.9673518 ], [ -52.369814, -29.9667559 ], [ -52.3702783, -29.9650386 ], [ -52.3704364, -29.9642999 ], [ -52.370459, -29.9637824 ], [ -52.3697665, -29.9623807 ], [ -52.3685343, -29.9606386 ], [ -52.3678324, -29.959901 ], [ -52.3677651, -29.959957 ], [ -52.3674782, -29.9600849 ], [ -52.3658501, -29.9606191 ], [ -52.3657077, -29.9608187 ], [ -52.3651005, -29.9616082 ], [ -52.3642963, -29.9625894 ], [ -52.3641594, -29.9627772 ], [ -52.3639869, -29.9628473 ], [ -52.3639002, -29.9628647 ], [ -52.3638974, -29.9638701 ], [ -52.3639573, -29.964201500000012 ], [ -52.364198, -29.964703199999985 ], [ -52.3642393, -29.9647733 ], [ -52.364377, -29.9650071 ], [ -52.364558, -29.9652102 ], [ -52.3648534, -29.9655296 ], [ -52.3642483, -29.9651662 ], [ -52.3639142, -29.9649568 ], [ -52.3627937, -29.964141 ], [ -52.3624712, -29.9639121 ], [ -52.3620351, -29.9636194 ], [ -52.3618275, -29.963431 ], [ -52.3616529, -29.963254 ], [ -52.3615003, -29.9630526 ], [ -52.3613535, -29.9628111 ], [ -52.3612025, -29.9624835 ], [ -52.3609593, -29.9619967 ], [ -52.3605839, -29.9611408 ], [ -52.3601153, -29.9602848 ], [ -52.3598559, -29.9598201 ], [ -52.3597143, -29.9596718 ], [ -52.3593055, -29.9593326 ], [ -52.3592117, -29.9592548 ], [ -52.358286, -29.9584597 ], [ -52.3572651, -29.9574647 ], [ -52.3567343, -29.9568569 ], [ -52.3565342, -29.9566746 ], [ -52.356095, -29.9564672 ], [ -52.3557555, -29.9563297 ], [ -52.354947, -29.9561314 ], [ -52.35466670000001, -29.9560396 ], [ -52.3540384, -29.955795600000013 ], [ -52.3537923, -29.9557072 ], [ -52.353732, -29.955684 ], [ -52.3535612, -29.9556183 ], [ -52.3534483, -29.9555016 ], [ -52.3533183, -29.955318 ], [ -52.3532418, -29.9551135 ], [ -52.3531178, -29.9546557 ], [ -52.3528985, -29.9540346 ], [ -52.3527637, -29.953635499999987 ], [ -52.3525418, -29.9535489 ], [ -52.3516855, -29.95354480000001 ], [ -52.3515862, -29.9534472 ], [ -52.3513951, -29.9531155 ], [ -52.3511826, -29.952104 ], [ -52.3511209, -29.9519634 ], [ -52.3505603, -29.9512313 ], [ -52.35042210000001, -29.9510779 ], [ -52.35006, -29.9508118 ], [ -52.3455969, -29.9780339 ], [ -52.3509693, -29.9848992 ], [ -52.3563953, -29.982969 ] ] ] } },
{ "type": "Feature", "properties": { "name": "Jardim Boa Vista", "code_muni": 4315701.0, "name_muni": "Rio Pardo" }, "geometry": { "type": "Polygon", "coordinates": [ [ [ -52.3501191, -29.994484400000012 ], [ -52.3501378, -29.9946493 ], [ -52.3500966, -29.9947454 ], [ -52.353236, -29.996513100000012 ], [ -52.3545688, -29.9970303 ], [ -52.354762, -29.9972301 ], [ -52.3553252, -29.9971511 ], [ -52.3565054, -29.9976064 ], [ -52.3578541, -29.997692499999989 ], [ -52.3587316, -29.9976482 ], [ -52.359633, -29.9973728 ], [ -52.3613012, -29.9972162 ], [ -52.3636401, -29.9973416 ], [ -52.3637688, -29.9974438 ], [ -52.364, -29.9975 ], [ -52.3641939, -29.9975112 ], [ -52.3659988, -29.9976153 ], [ -52.3665476, -29.9977551 ], [ -52.367723, -29.9978568 ], [ -52.3681525, -29.995799 ], [ -52.3682334, -29.9933351 ], [ -52.3682468, -29.9929628 ], [ -52.3682756, -29.992515 ], [ -52.3682763, -29.9924884 ], [ -52.3682792, -29.9923749 ], [ -52.3682937, -29.9918036 ], [ -52.3683534, -29.989892900000012 ], [ -52.3683941, -29.9888046 ], [ -52.3684251, -29.9882713 ], [ -52.3684338, -29.9877434 ], [ -52.368436, -29.987397 ], [ -52.3685505, -29.9852147 ], [ -52.368597800000011, -29.9847212 ], [ -52.3686256, -29.9845562 ], [ -52.3686541, -29.984413 ], [ -52.3687001, -29.984222 ], [ -52.368753, -29.9840157 ], [ -52.3688134, -29.9838089 ], [ -52.3688671, -29.9836434 ], [ -52.3691253, -29.9827981 ], [ -52.3691615, -29.982679 ], [ -52.369498, -29.9816606 ], [ -52.36942, -29.9816296 ], [ -52.3691145, -29.9815154 ], [ -52.3690099, -29.981470099999989 ], [ -52.3686224, -29.9813131 ], [ -52.3683956, -29.981218 ], [ -52.3681328, -29.9811047 ], [ -52.3676097, -29.9808324 ], [ -52.3672594, -29.9805874 ], [ -52.3668413, -29.9801893 ], [ -52.3665426, -29.9798069 ], [ -52.3665161, -29.9797682 ], [ -52.3665005, -29.9797203 ], [ -52.3664082, -29.9794533 ], [ -52.3662741, -29.9789515 ], [ -52.3662168, -29.9786461 ], [ -52.3662097, -29.9783474 ], [ -52.3662633, -29.978068599999986 ], [ -52.3662736, -29.9780112 ], [ -52.3658903, -29.9780714 ], [ -52.3652715, -29.9781687 ], [ -52.3650751, -29.9782506 ], [ -52.3648202, -29.978451 ], [ -52.3646097, -29.9785921 ], [ -52.3641095, -29.9788215 ], [ -52.3637145, -29.978976 ], [ -52.3633651, -29.9791212 ], [ -52.3628944, -29.9792769 ], [ -52.3620656, -29.979515 ], [ -52.3612382, -29.9797381 ], [ -52.3610276, -29.9798089 ], [ -52.36090690000001, -29.9798647 ], [ -52.3607869, -29.979949500000011 ], [ -52.3598099, -29.980826 ], [ -52.3593043, -29.981261 ], [ -52.3590273, -29.9814783 ], [ -52.3585466, -29.9818209 ], [ -52.3581854, -29.9820764 ], [ -52.3576239, -29.9824941 ], [ -52.3568765, -29.9829964 ], [ -52.3568004, -29.9830253 ], [ -52.3566948, -29.9830465 ], [ -52.356606, -29.9830479 ], [ -52.3565067, -29.9830267 ], [ -52.3563953, -29.982969 ], [ -52.3509693, -29.9848992 ], [ -52.3548907, -29.9900241 ], [ -52.3539546, -29.9908697 ], [ -52.353268, -29.9915086 ], [ -52.3525357, -29.9921846 ], [ -52.3518357, -29.9928339 ], [ -52.35104840000001, -29.9935737 ], [ -52.3509009, -29.9937236 ], [ -52.350634, -29.9938955 ], [ -52.3502693, -29.9940836 ], [ -52.350111, -29.9942079 ], [ -52.3501191, -29.994484400000012 ] ] ] } },
{ "type": "Feature", "properties": { "name": "Balneário João Ferreira", "code_muni": 4315701.0, "name_muni": "Rio Pardo" }, "geometry": { "type": "Polygon", "coordinates": [ [ [ -52.345326, -29.9885605 ], [ -52.3390174, -29.9742305 ], [ -52.337749, -29.9749048 ], [ -52.3377246, -29.9751227 ], [ -52.3374501, -29.9774419 ], [ -52.3369818, -29.9794257 ], [ -52.3369603, -29.981475 ], [ -52.3371674, -29.983021400000016 ], [ -52.3385, -29.9865 ], [ -52.3392856, -29.9877986 ], [ -52.3401439, -29.9890809 ], [ -52.3408413, -29.9897686 ], [ -52.34175, -29.9905 ], [ -52.345326, -29.9885605 ] ] ] } }
]
}
