{
"type": "FeatureCollection",
"name": "bairros_sertao",
"crs": { "type": "name", "properties": { "name": "urn:ogc:def:crs:OGC:1.3:CRS84" } },
"features": [
{ "type": "Feature", "properties": { "code_muni": 4320503.0, "name_muni": "Sertão", "code_state": 43.0, "abbrev_state": "RS", "name_state": "Rio Grande do Sul", "code_region": 4.0, "name_region": "Sul", "year": 2022.0 }, "geometry": { "type": "Polygon", "coordinates": [ [ [ -52.112713061, -27.999559201 ], [ -52.100876465999903, -28.00949156 ], [ -52.101111558, -28.015508123 ], [ -52.103152034999901, -28.015999959999899 ], [ -52.111788872, -28.010166843 ], [ -52.128117537, -28.012297109999988 ], [ -52.128740219, -28.014864831 ], [ -52.124081776, -28.016915863 ], [ -52.119800653, -28.02076886 ], [ -52.12588018, -28.024932038 ], [ -52.131714437, -28.031250341 ], [ -52.138485150999898, -28.030358018999909 ], [ -52.1395457839999, -28.0315496159999 ], [ -52.137329727, -28.043408316 ], [ -52.138528177, -28.047116829999894 ], [ -52.145681317, -28.046756193 ], [ -52.143708003, -28.052022142999899 ], [ -52.149125217999895, -28.052479526999903 ], [ -52.149638153, -28.0581678419999 ], [ -52.151114134999901, -28.056809313 ], [ -52.160482983999898, -28.057437564999901 ], [ -52.156979793999902, -28.060274615 ], [ -52.158571338999906, -28.066753181 ], [ -52.156632932, -28.066768672999988 ], [ -52.155422792, -28.068343722999902 ], [ -52.157832970999891, -28.070733256 ], [ -52.153458833999892, -28.075502523 ], [ -52.154920288, -28.077267725 ], [ -52.158121616, -28.077847456 ], [ -52.164583837999892, -28.073594902 ], [ -52.169342289, -28.069107329 ], [ -52.169974822, -28.065463151999904 ], [ -52.172681855999897, -28.0645745419999 ], [ -52.174311667, -28.064275069 ], [ -52.178436324, -28.067759635 ], [ -52.181553516, -28.067948891999905 ], [ -52.186588206999893, -28.064946504 ], [ -52.190043596999899, -28.066927104999898 ], [ -52.197360763999903, -28.067228126 ], [ -52.201889724999894, -28.064263626999896 ], [ -52.20814368, -28.06345498 ], [ -52.213947586, -28.064693404 ], [ -52.21560339, -28.063737036 ], [ -52.224638166, -28.074095848 ], [ -52.240691164999895, -28.079242482 ], [ -52.244515206, -28.0821042429999 ], [ -52.241446329, -28.072923787 ], [ -52.247552030999906, -28.06351964 ], [ -52.251216089, -28.064364724 ], [ -52.254451482, -28.069577764 ], [ -52.259222133, -28.071596837999895 ], [ -52.271037104999891, -28.067875983 ], [ -52.277882707999893, -28.072815461999898 ], [ -52.283535561, -28.073394144 ], [ -52.2892489, -28.077221929 ], [ -52.296016903, -28.075950188 ], [ -52.300204685, -28.072920403 ], [ -52.296532994, -28.070067455 ], [ -52.297451918, -28.062504519 ], [ -52.307893443, -28.051362227 ], [ -52.311067369999897, -28.049269524999897 ], [ -52.314438927, -28.049693440999896 ], [ -52.315842585, -28.041539945 ], [ -52.318084811999903, -28.038372914999989 ], [ -52.316892153, -28.036386224 ], [ -52.319896769, -28.032843277 ], [ -52.323522613, -28.032316496 ], [ -52.326357872, -28.028851620999902 ], [ -52.331941814999901, -28.031720675 ], [ -52.336930548999895, -28.02913332 ], [ -52.342322583999902, -28.029943634999885 ], [ -52.342422086999903, -28.030949832 ], [ -52.3448429379999, -28.028936534 ], [ -52.347364075, -28.032600744 ], [ -52.349247861, -28.03172123 ], [ -52.351193004, -28.032752285999887 ], [ -52.351843641999899, -28.031502487 ], [ -52.353413003999897, -28.032433376 ], [ -52.35319479799989, -28.028261905 ], [ -52.356184898, -28.02711858 ], [ -52.355705902999894, -28.023303949 ], [ -52.357212000999894, -28.024712178999895 ], [ -52.359163371, -28.023988501 ], [ -52.360003721999902, -28.026851149 ], [ -52.362055155, -28.024893571 ], [ -52.36891972, -28.027661828 ], [ -52.373148444, -28.020153643999901 ], [ -52.377030227, -28.019194517 ], [ -52.378841708, -28.036950579999907 ], [ -52.375241983, -28.044884956 ], [ -52.37816373, -28.053666807 ], [ -52.377321335, -28.059566893 ], [ -52.380010109999894, -28.063227110999897 ], [ -52.379596321999898, -28.067616637 ], [ -52.382163424999902, -28.070723261 ], [ -52.381911117, -28.081243942999908 ], [ -52.386728591, -28.085288175 ], [ -52.388936902999895, -28.0902471049999 ], [ -52.397571348, -28.088385091 ], [ -52.400911155, -28.077869669999906 ], [ -52.404475138, -28.07740322 ], [ -52.404991391999907, -28.074966163999907 ], [ -52.417046179, -28.073571999 ], [ -52.417676273, -28.074800793999906 ], [ -52.429235734, -28.069605323 ], [ -52.431263051, -28.071800020999898 ], [ -52.430872725, -28.075135389 ], [ -52.432912674, -28.077239991999907 ], [ -52.433295964, -28.075717896999894 ], [ -52.435820087, -28.076221218999894 ], [ -52.440050288999892, -28.070472901999899 ], [ -52.441993877, -28.070730436 ], [ -52.44333535, -28.068575927 ], [ -52.442809414, -28.072593649999899 ], [ -52.450619702, -28.077019656999902 ], [ -52.449811309, -28.078260943 ], [ -52.451249140999899, -28.0796692239999 ], [ -52.449234158, -28.080544137999894 ], [ -52.449369541, -28.082523228999889 ], [ -52.456353458, -28.07799003 ], [ -52.457273034, -28.076652517999896 ], [ -52.456303223, -28.074316713 ], [ -52.462087422, -28.075024878 ], [ -52.46249626, -28.073751074 ], [ -52.460665967999901, -28.073818076 ], [ -52.462263305, -28.0717483399999 ], [ -52.464073793999894, -28.073213892 ], [ -52.468504633999899, -28.072642689 ], [ -52.468696311, -28.074407682 ], [ -52.470352835, -28.074828518999897 ], [ -52.469350456, -28.077210825 ], [ -52.47176266, -28.078158822 ], [ -52.47489461, -28.077425897999895 ], [ -52.475812315, -28.074042091 ], [ -52.477349655, -28.073681135999902 ], [ -52.476643903, -28.07250318 ], [ -52.478799205, -28.072906895 ], [ -52.47405004, -28.070016839999894 ], [ -52.477006238999891, -28.065568531999897 ], [ -52.473496915999903, -28.062939406999899 ], [ -52.477632174, -28.059991872999898 ], [ -52.479699712999896, -28.060108602 ], [ -52.481538668, -28.062591903999902 ], [ -52.483935097, -28.060371944999893 ], [ -52.488324975, -28.061082536999901 ], [ -52.488532994, -28.057266784 ], [ -52.484356151, -28.056028970999908 ], [ -52.489550837, -28.051040273999899 ], [ -52.487768710999902, -28.0487119749999 ], [ -52.489495518, -28.046774131999904 ], [ -52.490833081999902, -28.047066705 ], [ -52.492038110999893, -28.04468373 ], [ -52.492277387999891, -28.042697033 ], [ -52.490643462, -28.04141513 ], [ -52.489439145999903, -28.041927869999896 ], [ -52.489176355, -28.04079003 ], [ -52.490662937, -28.03681419 ], [ -52.493251432, -28.036738844999903 ], [ -52.493618094999903, -28.035241624 ], [ -52.498254737, -28.038035028 ], [ -52.503541339, -28.034412975999892 ], [ -52.506768532, -28.036221242 ], [ -52.506967667, -28.034237921999907 ], [ -52.51279031699989, -28.032457625999896 ], [ -52.514624539, -28.028624794999903 ], [ -52.513501942999895, -28.018599300999888 ], [ -52.519437207999893, -28.015060637 ], [ -52.522032805, -28.0156230169999 ], [ -52.524502948, -28.012824098 ], [ -52.525225389, -28.014316565999899 ], [ -52.527615501, -28.013849358999902 ], [ -52.528474210999896, -28.008173653 ], [ -52.529456212, -28.010254457 ], [ -52.530598274999896, -28.008234216999902 ], [ -52.532397889, -28.00046473 ], [ -52.5307540109999, -27.998665116 ], [ -52.529473515999889, -27.999928306999909 ], [ -52.528158414, -27.998405557 ], [ -52.528759727, -27.994118495999903 ], [ -52.532285413, -27.994525139 ], [ -52.531831183999891, -27.996692462999896 ], [ -52.533570234, -27.995766699999905 ], [ -52.531859303, -27.997523053999899 ], [ -52.532553624999892, -27.9983449929999 ], [ -52.534952389, -27.997769634999901 ], [ -52.539468728, -27.993385239 ], [ -52.541770157, -27.9955049769999 ], [ -52.545222301, -27.988808337 ], [ -52.543894221, -27.986736185 ], [ -52.547839527999891, -27.98386805 ], [ -52.546576338, -27.981038849999898 ], [ -52.553270815, -27.975222549 ], [ -52.55076390100001, -27.97558377 ], [ -52.552100633, -27.972373881999903 ], [ -52.550370234999903, -27.972966542999902 ], [ -52.550099859999889, -27.970920346999904 ], [ -52.550560579, -27.968612429 ], [ -52.552431571999897, -27.970031354999907 ], [ -52.554008397, -27.968290141999901 ], [ -52.551970852999901, -27.965579906999899 ], [ -52.554389084, -27.963555341 ], [ -52.55610217799989, -27.96294105 ], [ -52.557374021, -27.964282108 ], [ -52.560716204999892, -27.962847876 ], [ -52.5653252, -27.966920964999893 ], [ -52.570890592, -27.968156037 ], [ -52.571967765, -27.966832281999899 ], [ -52.572248955, -27.968268512 ], [ -52.574861856, -27.9687616759999 ], [ -52.575709751, -27.966287206999894 ], [ -52.5708819399999, -27.961723282 ], [ -52.571154478, -27.959240161 ], [ -52.572447951, -27.958253833999901 ], [ -52.572718325, -27.954031663 ], [ -52.5748813229999, -27.954793037999899 ], [ -52.578722806, -27.949225483 ], [ -52.57856707, -27.947594582 ], [ -52.580511605, -27.946372488999895 ], [ -52.580234794, -27.945512836 ], [ -52.576018608, -27.946499064 ], [ -52.575463729, -27.948884602999989 ], [ -52.567680869999897, -27.952292516999893 ], [ -52.565723504999902, -27.9568218379999 ], [ -52.562647644, -27.959926826 ], [ -52.560294144999901, -27.960387039999905 ], [ -52.557142552999892, -27.959023874 ], [ -52.555124019999894, -27.955717907 ], [ -52.562574825999896, -27.941972656 ], [ -52.561800035, -27.94031239 ], [ -52.559472749999891, -27.942036736 ], [ -52.558427074, -27.941171649999902 ], [ -52.552563715, -27.942858131 ], [ -52.5545968119999, -27.944486355999988 ], [ -52.554270585, -27.946082541 ], [ -52.541533144, -27.955779075 ], [ -52.540225321, -27.95365277 ], [ -52.539470918999903, -27.95563635 ], [ -52.536524675999893, -27.950268158 ], [ -52.542354538, -27.941273596 ], [ -52.539216054, -27.936700583999894 ], [ -52.538358249999895, -27.938018601999907 ], [ -52.5369863459999, -27.937692373999905 ], [ -52.537865995999901, -27.936614657999904 ], [ -52.535626094, -27.936142792999892 ], [ -52.534781397, -27.937596254 ], [ -52.530715202999893, -27.937881703 ], [ -52.528288884999895, -27.942352040999904 ], [ -52.528166548999891, -27.941334035999891 ], [ -52.522444459, -27.943320528999902 ], [ -52.514501191, -27.943755949 ], [ -52.512502364999897, -27.942862845 ], [ -52.511874242, -27.944279736999896 ], [ -52.517040172, -27.9449832459999 ], [ -52.517726043, -27.946104853 ], [ -52.515842025, -27.946174781 ], [ -52.515193912, -27.948014606 ], [ -52.513948871, -27.945946857 ], [ -52.512962936999898, -27.946703086999907 ], [ -52.507547339, -27.943532801999901 ], [ -52.504922725, -27.943811083 ], [ -52.501635039, -27.946996209 ], [ -52.504224291, -27.94663551 ], [ -52.503017623999902, -27.947991037 ], [ -52.504457118999895, -27.949061351999902 ], [ -52.500685071, -27.949335199 ], [ -52.499666391999902, -27.947599097 ], [ -52.496697403, -27.949179849 ], [ -52.4945239259999, -27.954286907 ], [ -52.494941099999899, -27.960332585999907 ], [ -52.492824812, -27.960495285 ], [ -52.491151197, -27.957621498 ], [ -52.490060907, -27.959430176999895 ], [ -52.48632099, -27.960285887999898 ], [ -52.48202142, -27.958786913 ], [ -52.476907743, -27.959035373999892 ], [ -52.474254362, -27.965661467 ], [ -52.475793283, -27.966885650999899 ], [ -52.476106064, -27.970666593 ], [ -52.470982692, -27.969471203999902 ], [ -52.473135003, -27.971168663 ], [ -52.469965333999895, -27.977603067 ], [ -52.467980934, -27.977325669 ], [ -52.469305075, -27.975913139999907 ], [ -52.465815155, -27.97320109 ], [ -52.463147794999898, -27.975216589999892 ], [ -52.458763696999895, -27.974782325 ], [ -52.458732229, -27.976209233 ], [ -52.457606353, -27.9753223989999 ], [ -52.455761776, -27.97700865 ], [ -52.454253121, -27.974879692999899 ], [ -52.452091036999903, -27.979577429999896 ], [ -52.452701167, -27.981201009 ], [ -52.450564447, -27.981905928999897 ], [ -52.450135789999891, -27.984441651999905 ], [ -52.448425417999893, -27.985326362999984 ], [ -52.444386242999897, -27.979251462 ], [ -52.444519315, -27.9806748079999 ], [ -52.442759361, -27.980200200999899 ], [ -52.44313971, -27.981958348 ], [ -52.441477878999891, -27.981728424 ], [ -52.441812792999897, -27.983393135 ], [ -52.440031667, -27.982833447 ], [ -52.438954774, -27.987726393999893 ], [ -52.437401344, -27.987728607 ], [ -52.437972118999902, -27.988896194999899 ], [ -52.436467454, -27.989956306 ], [ -52.432723509, -27.984027882 ], [ -52.430046108999903, -27.986393544999896 ], [ -52.426468231999891, -27.983202263999896 ], [ -52.423206652, -27.987351028 ], [ -52.419066110999893, -27.985250156999893 ], [ -52.41884125699989, -27.989024985 ], [ -52.414874319, -27.988123169999891 ], [ -52.410523629999901, -27.990446592 ], [ -52.404424961, -27.991398153 ], [ -52.404163231, -27.989358012 ], [ -52.400555870999902, -27.985867116 ], [ -52.401042737999894, -27.983392704 ], [ -52.392877601, -27.980850887 ], [ -52.389981905999896, -27.983076068999896 ], [ -52.38741971, -27.981941809 ], [ -52.38620271, -27.983181554999895 ], [ -52.381138972, -27.98312207 ], [ -52.378432658999891, -27.982385608999902 ], [ -52.375564354999902, -27.978623121999902 ], [ -52.372505941, -27.977041573999905 ], [ -52.370257131999892, -27.980235689 ], [ -52.368675014, -27.978570491 ], [ -52.36603439399989, -27.978883788 ], [ -52.363454095, -27.982539363999894 ], [ -52.364612582999889, -27.984453093999896 ], [ -52.362348041, -27.984962042999893 ], [ -52.360248560999899, -27.987460384 ], [ -52.357560588999903, -27.986857253 ], [ -52.352528472, -27.981563657 ], [ -52.350192976999892, -27.981591608 ], [ -52.347477392, -27.983612335 ], [ -52.345342005, -27.98151712 ], [ -52.34203772099989, -27.982208995999894 ], [ -52.342007329999902, -27.977018514999902 ], [ -52.338542302, -27.977063331 ], [ -52.337483337, -27.978438058999895 ], [ -52.334800462, -27.976532743 ], [ -52.330498292999891, -27.976679092 ], [ -52.329443050999899, -27.974375714 ], [ -52.326629075, -27.973274279 ], [ -52.322834822999901, -27.974829414999892 ], [ -52.3233142569999, -27.972289379 ], [ -52.320726314, -27.973336801999903 ], [ -52.317314761, -27.965357090999898 ], [ -52.313896459, -27.964968836 ], [ -52.310068163, -27.961214046999899 ], [ -52.30737327899989, -27.961567961999901 ], [ -52.306365064, -27.959677284 ], [ -52.30294244200001, -27.96198253099989 ], [ -52.30123176099989, -27.958158871 ], [ -52.298057868999898, -27.958599615 ], [ -52.295229317, -27.954654708 ], [ -52.292513637, -27.956982879999899 ], [ -52.288173781, -27.958016076 ], [ -52.285887213, -27.956392633 ], [ -52.2778308379999, -27.9579809109999 ], [ -52.268549763, -27.954775572 ], [ -52.263479614999909, -27.9571041959999 ], [ -52.258198605, -27.962043453 ], [ -52.25444262, -27.961814549999897 ], [ -52.246795399999897, -27.96532501 ], [ -52.238675252, -27.970885838 ], [ -52.238210240999898, -27.972541611999898 ], [ -52.232702608999894, -27.9739270379999 ], [ -52.22355364, -27.97213111 ], [ -52.220411358, -27.970282981 ], [ -52.215339351, -27.972200148 ], [ -52.211272271, -27.970674983999988 ], [ -52.211161777, -27.9684474909999 ], [ -52.209599969, -27.969231346 ], [ -52.206904718, -27.967988771 ], [ -52.207224766, -27.9653324 ], [ -52.200427218, -27.963027066999899 ], [ -52.19903275, -27.959683996 ], [ -52.196332583, -27.959540944 ], [ -52.193814674999899, -27.9614468629999 ], [ -52.191894813, -27.959850666 ], [ -52.189185119999898, -27.959921053 ], [ -52.184673185, -27.95487573 ], [ -52.180313191, -27.953907995 ], [ -52.177684098, -27.951875690999902 ], [ -52.17771736, -27.949283382 ], [ -52.173241546, -27.948829565 ], [ -52.169899315, -27.942911753 ], [ -52.165740279, -27.94498378 ], [ -52.164193237999896, -27.94941198 ], [ -52.162577004, -27.946728129999904 ], [ -52.157696825, -27.948780374 ], [ -52.153881269, -27.947129764999893 ], [ -52.152908059, -27.946249286 ], [ -52.154795132999901, -27.944731036 ], [ -52.154156809, -27.943122279 ], [ -52.151742985999903, -27.942614521999886 ], [ -52.146972350999896, -27.945910458 ], [ -52.144696204999896, -27.952525224999899 ], [ -52.143016315, -27.95339897 ], [ -52.139205928, -27.952655748 ], [ -52.137262831, -27.953845085 ], [ -52.135813287, -27.952866214 ], [ -52.136232052, -27.949900887 ], [ -52.132082137999902, -27.948694519999904 ], [ -52.126234305, -27.952668237 ], [ -52.1174616549999, -27.949972155999887 ], [ -52.115011363, -27.946731449 ], [ -52.110759865, -27.948687745 ], [ -52.106212742, -27.947632239 ], [ -52.103763285999896, -27.940568201 ], [ -52.095615205999898, -27.939406416999905 ], [ -52.094187205, -27.936806902999894 ], [ -52.091352274, -27.935922831 ], [ -52.087658996999892, -27.943326942999903 ], [ -52.097262715999896, -27.951288352999899 ], [ -52.096003777999989, -27.953415228 ], [ -52.091714075, -27.954728831 ], [ -52.08656408, -27.975187105 ], [ -52.089190663999908, -27.976926739 ], [ -52.09648262199989, -27.977727811 ], [ -52.100218722, -27.982471212999901 ], [ -52.098899913, -27.987527257 ], [ -52.096730432999891, -27.989953652999894 ], [ -52.08860737, -27.993915765999908 ], [ -52.087761262, -27.996172753999904 ], [ -52.092455900999902, -27.998347012 ], [ -52.09524104, -28.002149115999895 ], [ -52.098734776999898, -28.0039429949999 ], [ -52.104579627, -28.002769761999989 ], [ -52.1108640859999, -27.998829284999903 ], [ -52.112713061, -27.999559201 ] ] ] } }
]
}
