{
"type": "FeatureCollection",
"name": "bairros_encruzilhada_do_sul",
"crs": { "type": "name", "properties": { "name": "urn:ogc:def:crs:OGC:1.3:CRS84" } },
"features": [
{ "type": "Feature", "properties": { "code_muni": 4306908.0, "name_muni": "Encruzilhada do Sul", "code_state": 43.0, "abbrev_state": "RS", "name_state": "Rio Grande do Sul", "code_region": 4.0, "name_region": "Sul", "year": 2022.0 }, "geometry": { "type": "Polygon", "coordinates": [ [ [ -52.578806831, -30.373833662 ], [ -52.575806717, -30.370859875999901 ], [ -52.570836465, -30.368664495 ], [ -52.570239807, -30.364911434 ], [ -52.567496602999896, -30.364902147999892 ], [ -52.567196789, -30.363060769999905 ], [ -52.564816133, -30.362876823 ], [ -52.561969974, -30.360309378999897 ], [ -52.560946961, -30.361687964999899 ], [ -52.559240165999903, -30.362162511999905 ], [ -52.558825478, -30.361000792 ], [ -52.554996356999894, -30.362899435 ], [ -52.548137360999895, -30.361649163 ], [ -52.543532819999903, -30.362364569 ], [ -52.535974675, -30.355264233999897 ], [ -52.539525456, -30.351520444999899 ], [ -52.542091673, -30.352988523999986 ], [ -52.546382994999909, -30.348663847999909 ], [ -52.556186764999893, -30.346447328999894 ], [ -52.557340541, -30.344869091 ], [ -52.554607915, -30.328604513999906 ], [ -52.558308064999899, -30.31319465 ], [ -52.555811316, -30.307042216 ], [ -52.557432531, -30.299851078 ], [ -52.556720352999896, -30.294671636 ], [ -52.55936224, -30.285191809999986 ], [ -52.553537500999894, -30.286855667999902 ], [ -52.548891751, -30.286658152 ], [ -52.537354809, -30.282841854 ], [ -52.535251700999893, -30.280481484999907 ], [ -52.532166462, -30.279446714999899 ], [ -52.531278906999894, -30.272390104999904 ], [ -52.523225921999902, -30.279058486999901 ], [ -52.520361662, -30.279309355999896 ], [ -52.5172355999999, -30.283766415999899 ], [ -52.517295492999892, -30.291947421 ], [ -52.513270646, -30.300606996999896 ], [ -52.507444221, -30.304806708999894 ], [ -52.505868495999898, -30.309642787 ], [ -52.507176974999901, -30.311326242999897 ], [ -52.505227927999989, -30.314032257999902 ], [ -52.507485829, -30.315919559999912 ], [ -52.506900823, -30.32117189 ], [ -52.510816260999896, -30.326236509999895 ], [ -52.507272804, -30.338330326999895 ], [ -52.509070429, -30.35216164199991 ], [ -52.501503737, -30.362347773 ], [ -52.418903155, -30.362983028999988 ], [ -52.416306199, -30.369005011 ], [ -52.417005992, -30.3716118 ], [ -52.414364309999897, -30.375612078999886 ], [ -52.405085151, -30.380438758 ], [ -52.402214812, -30.380796014999902 ], [ -52.399350644, -30.378347554999898 ], [ -52.393431088999897, -30.376579407 ], [ -52.384463693, -30.376743049 ], [ -52.377182491, -30.369876202999908 ], [ -52.370313283, -30.367583877 ], [ -52.368721291999989, -30.364463396 ], [ -52.366325912, -30.363242118999896 ], [ -52.356985338999898, -30.362024796 ], [ -52.351240815, -30.35798607700001 ], [ -52.347934818999896, -30.357552037999895 ], [ -52.345277524, -30.359184182 ], [ -52.342944934999899, -30.359013951 ], [ -52.346134132, -30.361939392999897 ], [ -52.346393523, -30.365380581 ], [ -52.351131364, -30.371824719 ], [ -52.35433275, -30.374309114 ], [ -52.3558685799999, -30.379149809000012 ], [ -52.351506962, -30.385523351 ], [ -52.351004176999908, -30.390056983 ], [ -52.358594243, -30.392123112 ], [ -52.360706256, -30.399067819 ], [ -52.357869942, -30.402820924 ], [ -52.350778487, -30.401877533999897 ], [ -52.348389782, -30.402754629 ], [ -52.348316935999897, -30.404608833999895 ], [ -52.353577925, -30.413111242 ], [ -52.350676683, -30.418021334999903 ], [ -52.353506104, -30.4231534369999 ], [ -52.350860172999901, -30.428771089 ], [ -52.348654699, -30.429113879999896 ], [ -52.348034821999903, -30.430932298 ], [ -52.349502474, -30.434531227 ], [ -52.350610482, -30.435194564999986 ], [ -52.354684611, -30.432571962999891 ], [ -52.355696550999895, -30.439208852 ], [ -52.36124877, -30.440651290999902 ], [ -52.360712667, -30.44605841 ], [ -52.362983464, -30.449365159 ], [ -52.367719321, -30.451285902999899 ], [ -52.368941737999897, -30.453663150999901 ], [ -52.372155473, -30.451264647999892 ], [ -52.374968123, -30.451629776999901 ], [ -52.375420278, -30.455192339000011 ], [ -52.372738432999896, -30.456724553999905 ], [ -52.37335086, -30.45941161 ], [ -52.378706630999893, -30.463115455 ], [ -52.379592322999891, -30.465726515 ], [ -52.381588256, -30.464999136 ], [ -52.385601510999898, -30.46811337 ], [ -52.386712852999899, -30.470127439999899 ], [ -52.385636967, -30.47196114 ], [ -52.390177036999901, -30.472010023999903 ], [ -52.390518804, -30.475988737 ], [ -52.393105147999989, -30.477623224999903 ], [ -52.391167485, -30.481572935 ], [ -52.404563026999902, -30.484655885999899 ], [ -52.404403681, -30.492059117999901 ], [ -52.400293792999896, -30.492910631 ], [ -52.399165115, -30.494977370000012 ], [ -52.399859096999904, -30.49967465200001 ], [ -52.402764829, -30.502275164 ], [ -52.402745223999901, -30.504876786 ], [ -52.404672284, -30.506811418 ], [ -52.402185086, -30.509568604 ], [ -52.399562932, -30.506817340999895 ], [ -52.397923784999897, -30.507789252999903 ], [ -52.401977432, -30.515702297 ], [ -52.405710342, -30.514002908999903 ], [ -52.409767657, -30.519248073 ], [ -52.414802239, -30.522539857 ], [ -52.414154762, -30.528337243 ], [ -52.415216388, -30.529765171999909 ], [ -52.419000314, -30.528216644999905 ], [ -52.421246175, -30.530267642999888 ], [ -52.422633318, -30.538514806 ], [ -52.424458114999901, -30.539552376 ], [ -52.424288582, -30.5432741 ], [ -52.418427553999898, -30.547998257 ], [ -52.425135417, -30.551762704999895 ], [ -52.42756871599989, -30.551149977 ], [ -52.430518959, -30.554877763000011 ], [ -52.4328280289999, -30.554928111 ], [ -52.434751198999891, -30.556551132 ], [ -52.444069161, -30.553277185999903 ], [ -52.445732703, -30.555568833999892 ], [ -52.449487983, -30.555527011 ], [ -52.453727182, -30.560727038 ], [ -52.449436889, -30.565097857 ], [ -52.452651531, -30.570832245 ], [ -52.452229001, -30.577087035 ], [ -52.445585622, -30.576625505 ], [ -52.440907505, -30.574148986999909 ], [ -52.434037418999893, -30.574640126 ], [ -52.429944502999895, -30.581677614999904 ], [ -52.427121303, -30.581529905 ], [ -52.425012530999894, -30.582981646999908 ], [ -52.421083261, -30.582369492999899 ], [ -52.4196423449999, -30.587443865999905 ], [ -52.413475983999895, -30.584355778 ], [ -52.411086667999903, -30.585602756999901 ], [ -52.408709517, -30.590121747 ], [ -52.405443069999897, -30.590156629 ], [ -52.402672605, -30.59351902 ], [ -52.399500885999899, -30.592985847 ], [ -52.399646479, -30.595991688 ], [ -52.39355899600001, -30.596028525999891 ], [ -52.392285786999892, -30.598361208999986 ], [ -52.389996601999897, -30.597046882 ], [ -52.386087158, -30.597921950999897 ], [ -52.384619969, -30.601122426 ], [ -52.380952313, -30.601994024 ], [ -52.380424982, -30.6060457479999 ], [ -52.379365074, -30.604122452999896 ], [ -52.376045948999902, -30.605347260999984 ], [ -52.374427527, -30.602776651999903 ], [ -52.36918982, -30.602236756 ], [ -52.368012799, -30.606504831999896 ], [ -52.369669541, -30.606843947999895 ], [ -52.369248002999903, -30.608722606 ], [ -52.366152485, -30.608725261 ], [ -52.362288059, -30.60558248 ], [ -52.362503443, -30.608525178999987 ], [ -52.357033790999893, -30.613492083 ], [ -52.356396581999896, -30.622068595 ], [ -52.354436146999902, -30.62702734 ], [ -52.348521751, -30.625415667 ], [ -52.342258456, -30.631003101 ], [ -52.34642, -30.635833064999904 ], [ -52.345517714, -30.637358307999897 ], [ -52.342094001, -30.63770971 ], [ -52.340728632, -30.639038727 ], [ -52.344364728999892, -30.641472206999904 ], [ -52.344053362, -30.648111108 ], [ -52.341863302, -30.648112056999903 ], [ -52.338945185999897, -30.653713932 ], [ -52.3408549769999, -30.658521601 ], [ -52.340537078999894, -30.666926159 ], [ -52.344376710999903, -30.671558196 ], [ -52.34162026, -30.676274764 ], [ -52.342971843, -30.678596163 ], [ -52.336380151999897, -30.680950472999907 ], [ -52.336605466, -30.682601888 ], [ -52.340044521, -30.685352232999904 ], [ -52.339669853, -30.687483861 ], [ -52.338646912999891, -30.68858183 ], [ -52.335861334, -30.687161887999903 ], [ -52.335243603, -30.688245176999892 ], [ -52.336006563999895, -30.692142698999898 ], [ -52.343456841, -30.695790180999904 ], [ -52.345877754, -30.694007464 ], [ -52.346222229, -30.691620215999901 ], [ -52.348234051, -30.69411319599989 ], [ -52.352682199, -30.687892979 ], [ -52.355016389999903, -30.689170676999893 ], [ -52.357364085, -30.68811368 ], [ -52.362489898, -30.69054297 ], [ -52.364007467, -30.689933514 ], [ -52.365778441, -30.686053595 ], [ -52.37180347, -30.687588392 ], [ -52.375431746999894, -30.687149524999899 ], [ -52.376701782999895, -30.681114119 ], [ -52.37773441, -30.679593 ], [ -52.381603653999903, -30.6790794039999 ], [ -52.391686464, -30.665373141 ], [ -52.391009769999989, -30.662819785999904 ], [ -52.398048172, -30.662894088 ], [ -52.413482816999895, -30.655110204 ], [ -52.421565739, -30.654313058 ], [ -52.423471811999903, -30.657029991999895 ], [ -52.448006273, -30.655421396000012 ], [ -52.442916958, -30.659289891999894 ], [ -52.435003546, -30.683928841 ], [ -52.431323568, -30.688171821 ], [ -52.432081516, -30.696814291 ], [ -52.430276039, -30.697753849 ], [ -52.433567598, -30.705820856999896 ], [ -52.439466583999895, -30.714090493999898 ], [ -52.437889046, -30.715576697 ], [ -52.437467656, -30.725260976999905 ], [ -52.439390137, -30.727067935 ], [ -52.439998698999901, -30.730127969 ], [ -52.43869848, -30.733827907 ], [ -52.442254721, -30.745222048999906 ], [ -52.440077795, -30.747448688 ], [ -52.440286366999892, -30.750902516999901 ], [ -52.445161033, -30.755508969999898 ], [ -52.443352935, -30.759730423999901 ], [ -52.449508330999905, -30.764044554999902 ], [ -52.446145660999896, -30.776139398999899 ], [ -52.4524186209999, -30.777488683999891 ], [ -52.453822271, -30.779218006999905 ], [ -52.452823711, -30.789121754999901 ], [ -52.45683322, -30.797148044 ], [ -52.455539369999897, -30.801667951 ], [ -52.453574841, -30.802966617 ], [ -52.448041181999891, -30.800639605999894 ], [ -52.447326693, -30.801466145999903 ], [ -52.447727525999909, -30.808189575 ], [ -52.438672342, -30.816493068999893 ], [ -52.44065154, -30.822983889999904 ], [ -52.438962649, -30.824326216 ], [ -52.438557359999891, -30.827086328999897 ], [ -52.43660457, -30.827033023999903 ], [ -52.433154079, -30.8306996479999 ], [ -52.434812584, -30.836072913999896 ], [ -52.431810380999899, -30.836255755 ], [ -52.431496503999895, -30.839227967999904 ], [ -52.429385784, -30.838971531 ], [ -52.426909674999891, -30.841055357999895 ], [ -52.4279061619999, -30.845660424999899 ], [ -52.422599294, -30.849489065999897 ], [ -52.418753734999903, -30.854463499 ], [ -52.419693208, -30.856407558999901 ], [ -52.418199995999899, -30.85966022 ], [ -52.418712553, -30.862706502 ], [ -52.42573169, -30.869584503999903 ], [ -52.425334369, -30.884021328 ], [ -52.42851071, -30.887783382 ], [ -52.427227791999897, -30.890150081999899 ], [ -52.427850199, -30.893120742999901 ], [ -52.422260746999896, -30.905850151 ], [ -52.426021829, -30.910955569999896 ], [ -52.426883613, -30.915132388 ], [ -52.42843641799989, -30.910674631999896 ], [ -52.427957455999909, -30.906332490999908 ], [ -52.430308751, -30.900489703999899 ], [ -52.432040907, -30.898553541 ], [ -52.439965776, -30.895765202999897 ], [ -52.448107749, -30.9058389899999 ], [ -52.4522332, -30.907303353 ], [ -52.465350166, -30.917254247 ], [ -52.46901659, -30.917761223 ], [ -52.472538078999889, -30.910469247 ], [ -52.476729572999893, -30.910573672999906 ], [ -52.491336813, -30.926487954 ], [ -52.496224245, -30.926363600999903 ], [ -52.497830624, -30.92260182 ], [ -52.50042178, -30.921432458 ], [ -52.502851726, -30.927181780999899 ], [ -52.505241177999899, -30.9280859909999 ], [ -52.510726555, -30.926922783999899 ], [ -52.515811654999901, -30.932222651 ], [ -52.521043217999896, -30.933482914 ], [ -52.526320643, -30.930125227 ], [ -52.533788125999898, -30.933392655 ], [ -52.537749278, -30.933710757 ], [ -52.540496914999892, -30.932353876 ], [ -52.546115557999897, -30.9259663519999 ], [ -52.561550025, -30.928292503 ], [ -52.563751295, -30.9308330879999 ], [ -52.561899425, -30.934240385 ], [ -52.556659812, -30.930553936 ], [ -52.554191385, -30.931455254 ], [ -52.553742268, -30.93459673 ], [ -52.556001223999907, -30.938794755999908 ], [ -52.554914590999893, -30.940558327 ], [ -52.556043773999896, -30.945708682 ], [ -52.559746828, -30.947921596999905 ], [ -52.565670687, -30.947000843999895 ], [ -52.569182563, -30.943800364 ], [ -52.575970414, -30.940698128 ], [ -52.581940989, -30.940682576 ], [ -52.585024668, -30.942058291999988 ], [ -52.588095451, -30.947235043 ], [ -52.597774569, -30.9536604699999 ], [ -52.601425134, -30.95460456 ], [ -52.606918150999903, -30.952503059 ], [ -52.619194859999901, -30.951870904999989 ], [ -52.6255775549999, -30.946289763 ], [ -52.629673316, -30.945958069 ], [ -52.63243640799989, -30.947415849 ], [ -52.633404237, -30.951551126 ], [ -52.629086897, -30.960126148 ], [ -52.633081922, -30.964334977 ], [ -52.636110539999891, -30.96460596 ], [ -52.641342197, -30.961210599 ], [ -52.646481391, -30.937620755999909 ], [ -52.65303524, -30.921288105 ], [ -52.658731898, -30.917717334 ], [ -52.665891116999902, -30.917737254 ], [ -52.67484889, -30.907354241999894 ], [ -52.688101632, -30.908253171999899 ], [ -52.707040823999897, -30.905155622999903 ], [ -52.7103261459999, -30.903867177999885 ], [ -52.713403413, -30.8970887209999 ], [ -52.716274245, -30.896655474999893 ], [ -52.719093242, -30.899327684 ], [ -52.723165606, -30.899949634999899 ], [ -52.730457824, -30.895337072 ], [ -52.740868061999898, -30.898019932999894 ], [ -52.747485615, -30.895901621 ], [ -52.760555812999897, -30.900743362999904 ], [ -52.793575206, -30.906525320999904 ], [ -52.802971409, -30.9051804069999 ], [ -52.809988725, -30.913035583999903 ], [ -52.824726305999896, -30.904818871 ], [ -52.830412509, -30.904934429 ], [ -52.838322164, -30.914188680999899 ], [ -52.851840046999889, -30.919355416 ], [ -52.857717742, -30.918309857999908 ], [ -52.869781841, -30.923386134999891 ], [ -52.87842268, -30.921723411 ], [ -52.885273380999905, -30.928062493 ], [ -52.895063841, -30.931168745 ], [ -52.898706507999989, -30.930234793 ], [ -52.904177429, -30.923673099 ], [ -52.908285736, -30.922978208 ], [ -52.910798730999893, -30.925855693 ], [ -52.910748511, -30.928163215 ], [ -52.907017126, -30.936361502 ], [ -52.907440768, -30.938123770999905 ], [ -52.912174961999895, -30.941536761 ], [ -52.919088568999904, -30.940094895 ], [ -52.922335387, -30.935464617 ], [ -52.922902488, -30.931923093 ], [ -52.921532651999897, -30.929603729 ], [ -52.922499034999895, -30.926937665 ], [ -52.927024999, -30.925571041 ], [ -52.933646358, -30.932519898999896 ], [ -52.944043232999903, -30.928616119 ], [ -52.964477371, -30.933455898 ], [ -52.97955383, -30.930199926999901 ], [ -52.985267167, -30.9309700119999 ], [ -52.989411614999902, -30.930093347 ], [ -52.993219486, -30.927778095 ], [ -52.997842674, -30.927026639 ], [ -53.002045021999891, -30.9221581749999 ], [ -53.004291, -30.921283499 ], [ -53.008029606, -30.922670497 ], [ -53.007114767, -30.927063882 ], [ -53.00417353599989, -30.929186903000012 ], [ -53.005803935, -30.932504932 ], [ -53.008763074999898, -30.933723574999902 ], [ -53.016692626, -30.929531622 ], [ -53.020689047795692, -30.919433572471899 ], [ -53.018604271214294, -30.917205956387502 ], [ -53.019740185372299, -30.915396655996595 ], [ -53.013686511129599, -30.910689754225903 ], [ -53.012764897343089, -30.908204019673896 ], [ -53.013727322416599, -30.907040544977409 ], [ -53.017881571339899, -30.907333876102101 ], [ -53.018517547229401, -30.905381736205801 ], [ -53.012775059052593, -30.902986623799098 ], [ -53.014864937040301, -30.899402882655998 ], [ -53.012162889747202, -30.897273043615009 ], [ -53.012883889151396, -30.892742990754801 ], [ -53.008716036461202, -30.8921962895547 ], [ -53.00725193154129, -30.8886890695766 ], [ -52.998953636511999, -30.890253502246004 ], [ -52.998708768789903, -30.885043261268603 ], [ -52.995416658302794, -30.8806356422695 ], [ -52.995144583055996, -30.875547835153103 ], [ -52.990893407323803, -30.874799628224299 ], [ -52.988512748913699, -30.8698308540285 ], [ -52.984662884170604, -30.871704772291203 ], [ -52.985649156940489, -30.866753002798294 ], [ -52.981901320414991, -30.861576771226808 ], [ -52.983052538800891, -30.858401142953799 ], [ -52.988363107528002, -30.859168905292087 ], [ -52.987676117529595, -30.856135266289598 ], [ -52.983812649024202, -30.853067617881209 ], [ -52.970229292324703, -30.859359357964902 ], [ -52.968283954309591, -30.859185909994999 ], [ -52.9670256062929, -30.857363005841005 ], [ -52.96508111851039, -30.859697751552101 ], [ -52.960791823116104, -30.858761490302992 ], [ -52.960965130169001, -30.848112447447701 ], [ -52.95360549474141, -30.845432506266196 ], [ -52.954435324244301, -30.841198335236896 ], [ -52.951309859845999, -30.839783543953203 ], [ -52.951840406577396, -30.836355395842695 ], [ -52.95016034192799, -30.833362568127306 ], [ -52.951356622776501, -30.830182688678295 ], [ -52.947555221439295, -30.829497399151496 ], [ -52.950099124997493, -30.826276708416799 ], [ -52.954013607611699, -30.828099612570803 ], [ -52.955322969737203, -30.8268480664352 ], [ -52.954907204748096, -30.824868719013097 ], [ -52.957067652257706, -30.824904428890502 ], [ -52.955389996885494, -30.816188524455804 ], [ -52.96240372803679, -30.816878209108005 ], [ -52.964362243202693, -30.814009088794101 ], [ -52.963934151300393, -30.811110213874592 ], [ -52.958363410621089, -30.809841663036092 ], [ -52.955062797780002, -30.807057993165301 ], [ -52.957210491759902, -30.805044636338501 ], [ -52.955762597990592, -30.799777840125294 ], [ -52.953945588797502, -30.7980659062565 ], [ -52.956338490596501, -30.794721775121204 ], [ -52.9510360841264, -30.793825783581099 ], [ -52.951274148933109, -30.792685999945306 ], [ -52.953837962212503, -30.792696994834102 ], [ -52.954118531154698, -30.791421889223798 ], [ -52.95144269097699, -30.787545598124904 ], [ -52.949194532654303, -30.787862399498998 ], [ -52.948262231467602, -30.786314598499793 ], [ -52.949948067351301, -30.783495631987005 ], [ -52.952405540867602, -30.784543339388499 ], [ -52.957004734854401, -30.782880706540894 ], [ -52.95661899914321, -30.780153377490194 ], [ -52.953862827188495, -30.777521663218092 ], [ -52.956935800517293, -30.776277086391293 ], [ -52.958148697206703, -30.774247294730102 ], [ -52.955645208855302, -30.773727925189402 ], [ -52.954872065851703, -30.771192424336895 ], [ -52.961205830466902, -30.767021960533501 ], [ -52.962520556169402, -30.764462658004099 ], [ -52.960680845332703, -30.763412687735595 ], [ -52.960796251547499, -30.761059306099405 ], [ -52.963019298280493, -30.7597347551492 ], [ -52.959605983527602, -30.755533384988198 ], [ -52.960248637743696, -30.752768161565708 ], [ -52.957501517256794, -30.750650118093088 ], [ -52.953093452422799, -30.743196234333805 ], [ -52.9497308321234, -30.741775153884312 ], [ -52.94932351607099, -30.739390092110607 ], [ -52.9536565088478, -30.7381489852512 ], [ -52.954977289165299, -30.732498530790402 ], [ -52.961311053780392, -30.733586969797098 ], [ -52.961767327022898, -30.731180883106298 ], [ -52.966228085723195, -30.727895149385102 ], [ -52.969860165147402, -30.727702384273105 ], [ -52.970210587149097, -30.729062522241204 ], [ -52.974665363132502, -30.728713885803298 ], [ -52.974269361414791, -30.725964502449404 ], [ -52.9777717283065, -30.7232248077257 ], [ -52.975771905074893, -30.721325625185695 ], [ -52.973284187203596, -30.721500530848704 ], [ -52.972529216724197, -30.718795739926801 ], [ -52.978290475998996, -30.718177977247297 ], [ -52.975163193863203, -30.714806305479993 ], [ -52.972977264381903, -30.715725029464895 ], [ -52.972231596087902, -30.714844465002301 ], [ -52.9746823346347, -30.71088023130811 ], [ -52.976193929762594, -30.712744833681398 ], [ -52.9775923815426, -30.712604535930005 ], [ -52.976055953780993, -30.706287273373299 ], [ -52.981271803216096, -30.708128585087302 ], [ -52.982985924936699, -30.703961515584286 ], [ -52.985912377630001, -30.704363174469307 ], [ -52.987452824311703, -30.700131613258097 ], [ -52.989619755068091, -30.698326946812106 ], [ -52.991894832150102, -30.698446908807991 ], [ -52.991824683274402, -30.697017908323993 ], [ -52.986667609477294, -30.696616249438996 ], [ -52.9879167120381, -30.693434658496205 ], [ -52.983703253762499, -30.692896096160204 ], [ -52.982630654824398, -30.691069962525205 ], [ -52.986260293424891, -30.687010379202697 ], [ -52.990145635991603, -30.685505572675702 ], [ -52.993293283930093, -30.687797856904105 ], [ -52.994868239332796, -30.687340757778593 ], [ -52.993055682899495, -30.685895917225999 ], [ -52.994552569392091, -30.682676988978404 ], [ -52.986848165345691, -30.679578294355295 ], [ -52.988718630955198, -30.677519009163493 ], [ -52.988222886591998, -30.674181803206498 ], [ -52.987384554660807, -30.677023264800297 ], [ -52.986215188999893, -30.676141599999898 ], [ -52.980800374999895, -30.677688454 ], [ -52.980374888999989, -30.675771206 ], [ -52.977511206, -30.675180484 ], [ -52.977467916, -30.672949654 ], [ -52.974676418999898, -30.672153797 ], [ -52.975216443, -30.66973365 ], [ -52.977783094, -30.668884396 ], [ -52.975236217, -30.661630798 ], [ -52.971809863, -30.659233446 ], [ -52.971499334, -30.655450064 ], [ -52.973609763999903, -30.651729109 ], [ -52.971555611, -30.648951137 ], [ -52.974992587, -30.647637094999901 ], [ -52.975509551, -30.645706507999893 ], [ -52.972480111, -30.644203419999911 ], [ -52.975461725999907, -30.642128133 ], [ -52.972515393, -30.633365075 ], [ -52.974017434, -30.626057671 ], [ -52.971838351, -30.621628159999894 ], [ -52.975410791999899, -30.619143532999892 ], [ -52.975819285999897, -30.617493485999901 ], [ -52.975679078, -30.612979052 ], [ -52.972983720999892, -30.609363551999895 ], [ -52.974595187, -30.604098077999893 ], [ -52.972603324, -30.603213792 ], [ -52.967374373, -30.604316969 ], [ -52.964473127, -30.603245853 ], [ -52.949248258, -30.603113881 ], [ -52.944875356, -30.601605624999902 ], [ -52.936033669, -30.608066387 ], [ -52.931322604999899, -30.606486362999902 ], [ -52.925363891, -30.600516958 ], [ -52.923647355999897, -30.596374594999894 ], [ -52.917887489999892, -30.591560982 ], [ -52.916070788, -30.586904483999906 ], [ -52.910203267, -30.580425563999899 ], [ -52.910213403999897, -30.577375286999899 ], [ -52.905925641999893, -30.574195161 ], [ -52.907456192, -30.567859252999902 ], [ -52.905408168, -30.563924922 ], [ -52.908144735999898, -30.558410872 ], [ -52.907638101, -30.553669619999898 ], [ -52.911069489999903, -30.549268905999984 ], [ -52.911835074999892, -30.543330586 ], [ -52.906922133, -30.537381717 ], [ -52.907899861, -30.534661531 ], [ -52.906077441, -30.525529371999905 ], [ -52.89724011700001, -30.522680506 ], [ -52.898100959, -30.520356256 ], [ -52.896327853999892, -30.518855748 ], [ -52.898903225, -30.515183157 ], [ -52.893812266999895, -30.510607768999893 ], [ -52.893334642, -30.509268834 ], [ -52.895055137, -30.508124425999899 ], [ -52.893953127, -30.504606505 ], [ -52.888063576, -30.503724811 ], [ -52.887007315999895, -30.500697884 ], [ -52.889112446999903, -30.496317038 ], [ -52.885096442, -30.493785268 ], [ -52.883406166, -30.487643872 ], [ -52.883887756, -30.484599408 ], [ -52.887852897, -30.482867263999907 ], [ -52.884836036, -30.476885028 ], [ -52.888737606999896, -30.475127051 ], [ -52.886376487999897, -30.471477465 ], [ -52.888824663, -30.469661968 ], [ -52.8858304789999, -30.464826323999898 ], [ -52.887135394, -30.463993233999904 ], [ -52.886207634999892, -30.461057579999895 ], [ -52.888496082, -30.457695672999908 ], [ -52.891299137, -30.457425482 ], [ -52.889214796, -30.454737974 ], [ -52.891967326, -30.450275054 ], [ -52.888838107, -30.448568108 ], [ -52.887991354999897, -30.441438159 ], [ -52.892689401, -30.437609607999903 ], [ -52.890285225999889, -30.4361704149999 ], [ -52.884275467999899, -30.437705729 ], [ -52.883320216, -30.433372684999906 ], [ -52.876545892, -30.426505705 ], [ -52.883560463, -30.420687819 ], [ -52.872905628999895, -30.419901782999904 ], [ -52.870168626999892, -30.418412454 ], [ -52.870348674999903, -30.414347994 ], [ -52.872928131, -30.41441177 ], [ -52.881754767, -30.410625461999899 ], [ -52.88314522, -30.407428189 ], [ -52.882927874, -30.397723049 ], [ -52.874757133999893, -30.386887135999899 ], [ -52.878032816, -30.386331734 ], [ -52.882921013, -30.382322001 ], [ -52.878877045, -30.379737523 ], [ -52.877636706, -30.377289774999987 ], [ -52.879510853999903, -30.375891579 ], [ -52.884694970999902, -30.3756382729999 ], [ -52.884003172, -30.373159184 ], [ -52.885263503, -30.369912043999889 ], [ -52.88430615, -30.368833245 ], [ -52.880072442, -30.371713989999908 ], [ -52.877968626, -30.371184534 ], [ -52.878007187, -30.361247028 ], [ -52.879876345999897, -30.359619677 ], [ -52.883280936999903, -30.362467443 ], [ -52.884283522, -30.360930035 ], [ -52.880724514, -30.35172933 ], [ -52.874746893999898, -30.349171463999909 ], [ -52.87771137, -30.344148635 ], [ -52.875220767, -30.342023852 ], [ -52.870434396, -30.342752878999896 ], [ -52.867207682, -30.3407144889999 ], [ -52.865249316, -30.341072728999986 ], [ -52.86403003, -30.344525689 ], [ -52.869642332999902, -30.350133129 ], [ -52.863687907, -30.350551445 ], [ -52.866508176, -30.354753818999907 ], [ -52.864040228, -30.355527932 ], [ -52.86219811, -30.358577684999901 ], [ -52.85061603, -30.3475590369999 ], [ -52.852715551999893, -30.34447833 ], [ -52.851349343, -30.342034645999902 ], [ -52.847692208, -30.341172669999892 ], [ -52.843377512, -30.346440822 ], [ -52.84158639, -30.345475203 ], [ -52.840904907, -30.343552498 ], [ -52.843480579999891, -30.338205921999894 ], [ -52.842541415, -30.336263808 ], [ -52.838546326, -30.334541725 ], [ -52.832435817, -30.338539833 ], [ -52.830493181999898, -30.338004752 ], [ -52.827555315, -30.334063042 ], [ -52.82490166199991, -30.333510681 ], [ -52.823499628, -30.334393723999892 ], [ -52.821607943999901, -30.333175286 ], [ -52.819964934, -30.334898548999895 ], [ -52.818439337, -30.334287681 ], [ -52.818095747, -30.335532886999896 ], [ -52.811012935999898, -30.335228775 ], [ -52.807827318, -30.331120226999893 ], [ -52.807263123, -30.325673573 ], [ -52.802543109999903, -30.324645518999908 ], [ -52.798356044999892, -30.319833069 ], [ -52.795964851, -30.313677776999988 ], [ -52.7962430749999, -30.311416422 ], [ -52.797812591, -30.31085991 ], [ -52.795598098, -30.307788222999896 ], [ -52.796034697, -30.305242403 ], [ -52.79063481, -30.302264861 ], [ -52.788980323, -30.308641737999896 ], [ -52.792289368, -30.317063225 ], [ -52.793208859999901, -30.332220058 ], [ -52.791049273999903, -30.341327889999892 ], [ -52.787952318, -30.342483489999896 ], [ -52.776544395, -30.338675662 ], [ -52.7705644649999, -30.341320929999899 ], [ -52.764677138, -30.341784075 ], [ -52.760286353, -30.35025511 ], [ -52.749724235, -30.362557188 ], [ -52.726640313, -30.360794776 ], [ -52.723120701, -30.362186414999901 ], [ -52.719520154999891, -30.368104893 ], [ -52.71357768099989, -30.365564417 ], [ -52.713742394, -30.360451150999904 ], [ -52.7067656299999, -30.353708894 ], [ -52.706876666, -30.350960885999896 ], [ -52.702465273, -30.351044360999904 ], [ -52.695869151, -30.343940032999988 ], [ -52.689487188, -30.342064249 ], [ -52.688297441, -30.338547398999903 ], [ -52.690271875, -30.335388759999898 ], [ -52.686714103, -30.330630547999895 ], [ -52.684527008, -30.3232451599999 ], [ -52.687509978, -30.318987303 ], [ -52.686424696, -30.310157253999893 ], [ -52.690729179999892, -30.303744297 ], [ -52.689392724, -30.300967374 ], [ -52.691666591999891, -30.294611588 ], [ -52.688901767999901, -30.291062743999898 ], [ -52.690266386, -30.282478178 ], [ -52.686562758, -30.278661937 ], [ -52.688359261, -30.272691032999901 ], [ -52.681593582999902, -30.264649913 ], [ -52.671220851, -30.256849718999892 ], [ -52.671929409, -30.25122336 ], [ -52.6699109589999, -30.247943257 ], [ -52.671225230999902, -30.243785997 ], [ -52.667841278, -30.241692499 ], [ -52.667495351, -30.240147557999901 ], [ -52.67001205, -30.234882308 ], [ -52.669098081999898, -30.228535952999891 ], [ -52.662112301, -30.222502071 ], [ -52.661688110999897, -30.214625548 ], [ -52.657370831, -30.209370862 ], [ -52.656621502, -30.212232281 ], [ -52.653947273, -30.213649774 ], [ -52.650089104, -30.210404594 ], [ -52.645302752, -30.211396077 ], [ -52.639636518, -30.220011403999898 ], [ -52.642741315, -30.224031074 ], [ -52.638136949999897, -30.2330198729999 ], [ -52.634428923, -30.234229577000011 ], [ -52.632790607999894, -30.2397774629999 ], [ -52.626154493999891, -30.244261042999895 ], [ -52.623666809, -30.249642948 ], [ -52.624000359, -30.256948521 ], [ -52.62236351099989, -30.260383021999896 ], [ -52.620188996, -30.260416958 ], [ -52.618790046, -30.262210592 ], [ -52.620623635999898, -30.267758764 ], [ -52.619387361999891, -30.270842976 ], [ -52.621676232, -30.274914054 ], [ -52.618683916, -30.277138258 ], [ -52.619328497, -30.280022216 ], [ -52.615216839, -30.292728477 ], [ -52.615832361999892, -30.295681586999898 ], [ -52.610111904, -30.300738511 ], [ -52.608595414, -30.304615113 ], [ -52.606678582, -30.304958198 ], [ -52.605791560999897, -30.312975883 ], [ -52.602909359, -30.315171092 ], [ -52.604928811, -30.320222664999989 ], [ -52.602457531, -30.321656506000011 ], [ -52.6018174599999, -30.326161081999899 ], [ -52.604125472, -30.326936126 ], [ -52.603372129, -30.328945685999901 ], [ -52.608977399, -30.339612912 ], [ -52.6071229309999, -30.341305925 ], [ -52.60386092999989, -30.34169595 ], [ -52.602027533, -30.344092609 ], [ -52.597545663999895, -30.342711589 ], [ -52.59514115, -30.343646326999892 ], [ -52.596336989999898, -30.351753881 ], [ -52.592437242, -30.355538794000012 ], [ -52.593049069, -30.357634216999898 ], [ -52.584034404, -30.361958988 ], [ -52.5822259, -30.365236783999901 ], [ -52.583098224, -30.370827278 ], [ -52.581441152, -30.373114593 ], [ -52.578806831, -30.373833662 ] ] ] } }
]
}
