{
"type": "FeatureCollection",
"name": "bairros_cruzeiro_do_sul",
"crs": { "type": "name", "properties": { "name": "urn:ogc:def:crs:OGC:1.3:CRS84" } },
"features": [
{ "type": "Feature", "properties": { "name": "São Rafael", "code_muni": 4306205.0, "name_muni": "Cruzeiro do Sul" }, "geometry": { "type": "Polygon", "coordinates": [ [ [ -52.0523156, -29.502914299999986 ], [ -52.0516914, -29.502236 ], [ -52.0497693, -29.4996058 ], [ -52.0478261, -29.5012084 ], [ -52.0420969, -29.5035708 ], [ -52.0381835, -29.5050765 ], [ -52.0367458, -29.5061783 ], [ -52.036196, -29.5074505 ], [ -52.0361879, -29.5083562 ], [ -52.0310032, -29.5107885 ], [ -52.0310114, -29.5123783 ], [ -52.0310247, -29.5140937 ], [ -52.0320976, -29.5135335 ], [ -52.0347154, -29.5127305 ], [ -52.0371294, -29.5114607 ], [ -52.0379877, -29.5107418 ], [ -52.03892110000001, -29.5091078 ], [ -52.0403803, -29.5077633 ], [ -52.0428372, -29.507035 ], [ -52.0444143, -29.50849160000001 ], [ -52.0467532, -29.5094253 ], [ -52.0494676, -29.5099948 ], [ -52.05142020000001, -29.5108445 ], [ -52.0535445, -29.5115448 ], [ -52.0557869, -29.5116381 ], [ -52.0572996, -29.511274 ], [ -52.0579434, -29.5114701 ], [ -52.0585656, -29.5123291 ], [ -52.0595527, -29.5134028 ], [ -52.0605397, -29.5138416 ], [ -52.0614749, -29.5135513 ], [ -52.0610695, -29.5129528 ], [ -52.0610082, -29.5128622 ], [ -52.0609268, -29.5127421 ], [ -52.0609183, -29.5127297 ], [ -52.0606224, -29.5122986 ], [ -52.0602739, -29.5117814 ], [ -52.0597643, -29.5110316 ], [ -52.0596054, -29.510798500000011 ], [ -52.0581341, -29.508641 ], [ -52.0577484, -29.5080679 ], [ -52.0573166, -29.5074512 ], [ -52.0567526, -29.5067777 ], [ -52.0564149, -29.5064403 ], [ -52.0563555, -29.5063743 ], [ -52.0557982, -29.5058814 ], [ -52.0547582, -29.5050118 ], [ -52.053272, -29.5037509 ], [ -52.0523156, -29.502914299999986 ] ] ] } },
{ "type": "Feature", "properties": { "name": "São Gabriel", "code_muni": 4306205.0, "name_muni": "Cruzeiro do Sul" }, "geometry": { "type": "Polygon", "coordinates": [ [ [ -52.0310114, -29.5123783 ], [ -52.0310032, -29.5107885 ], [ -52.0274413, -29.5118809 ], [ -52.0248878, -29.5120583 ], [ -52.0221627, -29.511890199999989 ], [ -52.0210147, -29.5116475 ], [ -52.0197809, -29.5119462 ], [ -52.0186114, -29.513048 ], [ -52.0168519, -29.5137949 ], [ -52.0159614, -29.5139723 ], [ -52.0152244, -29.5138571 ], [ -52.0141149, -29.5136837 ], [ -52.01375130000001, -29.513626899999988 ], [ -52.0125954, -29.5137043 ], [ -52.0108798, -29.5138191 ], [ -52.0101249, -29.5138696 ], [ -52.0055652, -29.5130947 ], [ -52.0044011, -29.5130433 ], [ -52.0055334, -29.5149211 ], [ -52.0055268, -29.5150326 ], [ -52.0055673, -29.5161731 ], [ -52.0055955, -29.5169215 ], [ -52.0101357, -29.5174735 ], [ -52.0154035, -29.5175949 ], [ -52.0188582, -29.5171187 ], [ -52.0213366, -29.5153168 ], [ -52.0235145, -29.5153821 ], [ -52.0254457, -29.5156996 ], [ -52.0292437, -29.5151114 ], [ -52.0301879, -29.5145045 ], [ -52.0310247, -29.5140937 ], [ -52.0310114, -29.5123783 ] ] ] } },
{ "type": "Feature", "properties": { "name": "Centro", "code_muni": 4306205.0, "name_muni": "Cruzeiro do Sul" }, "geometry": { "type": "Polygon", "coordinates": [ [ [ -51.9854057, -29.5089491 ], [ -51.9852018, -29.5097054 ], [ -51.9851267, -29.5099201 ], [ -51.9840431, -29.5102376 ], [ -51.9838178, -29.510289 ], [ -51.9837159, -29.5103403 ], [ -51.9834906, -29.5105597 ], [ -51.9834316, -29.5106671 ], [ -51.9834209, -29.5107932 ], [ -51.9834638, -29.5108912 ], [ -51.9835174, -29.5109799 ], [ -51.9835818, -29.511176 ], [ -51.983614, -29.5113113 ], [ -51.9836193, -29.5114047 ], [ -51.9836569, -29.5114981 ], [ -51.983673, -29.511591500000016 ], [ -51.9836783, -29.5116895 ], [ -51.9836623, -29.5117875 ], [ -51.9835925, -29.5118669 ], [ -51.9834486, -29.5119853 ], [ -51.98331, -29.51252 ], [ -51.983455, -29.51293 ], [ -51.9833589, -29.5136295 ], [ -51.9830638, -29.5138333 ], [ -51.9825961, -29.5138802 ], [ -51.9823146, -29.5141685 ], [ -51.9822734, -29.5145697 ], [ -51.9822973, -29.5149658 ], [ -51.981954, -29.5152923 ], [ -51.9815481, -29.5162303 ], [ -51.9812039, -29.516268 ], [ -51.9807964, -29.5169806 ], [ -51.9807245, -29.5176615 ], [ -51.980477, -29.5179116 ], [ -51.9803333, -29.5181826 ], [ -51.9792849, -29.5199961 ], [ -51.9791839, -29.5203212 ], [ -51.9790743, -29.52049 ], [ -51.9790026, -29.5204863 ], [ -51.9788213, -29.5206844 ], [ -51.9786991, -29.5209302 ], [ -51.9786946, -29.5212196 ], [ -51.9792849, -29.5206656 ], [ -51.979736, -29.5201153 ], [ -51.9802778, -29.5196968 ], [ -51.98036, -29.5197301 ], [ -51.9807118, -29.5194621 ], [ -51.9810981, -29.5193874 ], [ -51.9812052, -29.5193987 ], [ -51.9813715, -29.519416199999984 ], [ -51.9816533, -29.5194458 ], [ -51.982289, -29.5196815 ], [ -51.9824874, -29.5195228 ], [ -51.9824231, -29.5184024 ], [ -51.9828147, -29.5168386 ], [ -51.9862291, -29.5145932 ], [ -51.98673, -29.515208 ], [ -51.9868199, -29.515208 ], [ -51.9869496, -29.5152393 ], [ -51.9870594, -29.5152827 ], [ -51.9871634, -29.5153585 ], [ -51.9872651, -29.5154452 ], [ -51.9875308, -29.5157214 ], [ -51.988077, -29.5154288 ], [ -51.9887233, -29.5149707 ], [ -51.9888657, -29.5149083 ], [ -51.9894095, -29.51455630000001 ], [ -51.9900405, -29.5141404 ], [ -51.9901721, -29.5140418 ], [ -51.9905482, -29.514469500000011 ], [ -51.9910224, -29.5149706 ], [ -51.9918213, -29.5158582 ], [ -51.9920664, -29.5149926 ], [ -51.992258, -29.5143894 ], [ -51.9924545, -29.5137903 ], [ -51.992733, -29.512948 ], [ -51.9927718, -29.5128216 ], [ -51.9928485, -29.512608300000011 ], [ -51.992917, -29.5124048 ], [ -51.9930599, -29.5119615 ], [ -51.9932169, -29.5115167 ], [ -51.9933047, -29.5112909 ], [ -51.9933971, -29.511063499999985 ], [ -51.9934916, -29.5108946 ], [ -51.9936979, -29.5105456 ], [ -51.9938525, -29.510319 ], [ -51.9940174, -29.5100996 ], [ -51.9940778, -29.51002810000001 ], [ -51.994274, -29.5098089 ], [ -51.9945258, -29.509554299999987 ], [ -51.9947062, -29.509400200000012 ], [ -51.9948614, -29.5092591 ], [ -51.9952152, -29.5089375 ], [ -51.9950888, -29.508874 ], [ -51.9947559, -29.5088207 ], [ -51.9944313, -29.5087997 ], [ -51.9941953, -29.508732 ], [ -51.994037, -29.5086573 ], [ -51.9938386, -29.5084472 ], [ -51.9936803, -29.5083632 ], [ -51.993278, -29.5082955 ], [ -51.9931447, -29.508226 ], [ -51.9929776, -29.5081368 ], [ -51.9928086, -29.5080877 ], [ -51.9922158, -29.5080691 ], [ -51.991937, -29.5079874 ], [ -51.9918247, -29.5078583 ], [ -51.99111340000001, -29.507688599999987 ], [ -51.9909874, -29.5076139 ], [ -51.9907191, -29.507373499999986 ], [ -51.9902, -29.5072769 ], [ -51.9896275, -29.5071704 ], [ -51.9894344, -29.507126 ], [ -51.9892359, -29.5071097 ], [ -51.9887745, -29.5071937 ], [ -51.9886887, -29.507035 ], [ -51.9889569, -29.5067362 ], [ -51.9887638, -29.5065401 ], [ -51.9891393, -29.5063253 ], [ -51.9891608, -29.5061853 ], [ -51.9888228, -29.5061713 ], [ -51.9887209, -29.5061573 ], [ -51.9884956, -29.5064047 ], [ -51.9884527, -29.5065074 ], [ -51.9882917, -29.5066848 ], [ -51.9878572, -29.507077 ], [ -51.9877178, -29.5072311 ], [ -51.9875085, -29.5073524 ], [ -51.9874334, -29.5074365 ], [ -51.98736370000001, -29.5075345 ], [ -51.9873315, -29.5076466 ], [ -51.9873315, -29.5077399 ], [ -51.9873154, -29.507852 ], [ -51.9872779, -29.5079407 ], [ -51.9872296, -29.508104100000011 ], [ -51.987353, -29.5084309 ], [ -51.9873583, -29.5085243 ], [ -51.9873154, -29.5086316 ], [ -51.9872886, -29.508739 ], [ -51.9871867, -29.5087717 ], [ -51.986956, -29.508767 ], [ -51.9862104, -29.5086223 ], [ -51.9858885, -29.5086316 ], [ -51.9856632, -29.5085849 ], [ -51.984998, -29.5087157 ], [ -51.9854057, -29.5089491 ] ] ] } },
{ "type": "Feature", "properties": { "name": "Zwirtes", "code_muni": 4306205.0, "name_muni": "Cruzeiro do Sul" }, "geometry": { "type": "Polygon", "coordinates": [ [ [ -51.9835925, -29.5118669 ], [ -51.9836623, -29.5117875 ], [ -51.9836783, -29.5116895 ], [ -51.983673, -29.511591500000016 ], [ -51.9836569, -29.5114981 ], [ -51.9836193, -29.5114047 ], [ -51.983614, -29.5113113 ], [ -51.9835818, -29.511176 ], [ -51.9835174, -29.5109799 ], [ -51.9834638, -29.5108912 ], [ -51.9834209, -29.5107932 ], [ -51.9834316, -29.5106671 ], [ -51.9834906, -29.5105597 ], [ -51.9837159, -29.5103403 ], [ -51.9838178, -29.510289 ], [ -51.9840431, -29.5102376 ], [ -51.9851267, -29.5099201 ], [ -51.9852018, -29.5097054 ], [ -51.9854057, -29.5089491 ], [ -51.984998, -29.5087157 ], [ -51.9847566, -29.508594299999984 ], [ -51.9846278, -29.5085663 ], [ -51.9840431, -29.5085756 ], [ -51.9839305, -29.5085616 ], [ -51.9838232, -29.5085243 ], [ -51.9837374, -29.5084402 ], [ -51.9836944, -29.5082395 ], [ -51.9837159, -29.5080247 ], [ -51.9837695, -29.5079407 ], [ -51.9839948, -29.50781 ], [ -51.9842684, -29.507782 ], [ -51.984365, -29.5077026 ], [ -51.984365, -29.5075952 ], [ -51.9840807, -29.5072684 ], [ -51.9839144, -29.507147 ], [ -51.9837749, -29.5069556 ], [ -51.9836676, -29.5068949 ], [ -51.9834423, -29.5068436 ], [ -51.9830185, -29.506507399999986 ], [ -51.9829381, -29.5063954 ], [ -51.9829166, -29.5062973 ], [ -51.982922, -29.5061806 ], [ -51.9829917, -29.5060732 ], [ -51.9830936, -29.5060032 ], [ -51.9831097, -29.5057791 ], [ -51.983158, -29.505541 ], [ -51.9832277, -29.5054336 ], [ -51.9831634, -29.5049434 ], [ -51.98331360000001, -29.5048033 ], [ -51.9831741, -29.5046259 ], [ -51.9830668, -29.5044205 ], [ -51.9830239, -29.5042338 ], [ -51.9831526, -29.5040377 ], [ -51.9832492, -29.5038416 ], [ -51.983217, -29.5036362 ], [ -51.9830024, -29.5033093 ], [ -51.9828415, -29.5031786 ], [ -51.9823641, -29.5029405 ], [ -51.9822675, -29.5028518 ], [ -51.9822031, -29.5027491 ], [ -51.98223, -29.5025297 ], [ -51.9823855, -29.5023196 ], [ -51.9825786, -29.5021561 ], [ -51.9826913, -29.5021188 ], [ -51.9827825, -29.5020441 ], [ -51.9829381, -29.5018667 ], [ -51.9831258, -29.5013811 ], [ -51.9831365, -29.5012691 ], [ -51.9831955, -29.501157 ], [ -51.9833028, -29.501045 ], [ -51.9834155, -29.5009843 ], [ -51.983163500000011, -29.5008344 ], [ -51.9830882, -29.5007896 ], [ -51.9830562, -29.5008083 ], [ -51.9827114, -29.5009959 ], [ -51.9824217, -29.5011267 ], [ -51.9821884, -29.5012049 ], [ -51.9805121, -29.5015608 ], [ -51.9778869, -29.5021483 ], [ -51.976283, -29.5025073 ], [ -51.9750911, -29.5027818 ], [ -51.974519, -29.5029285 ], [ -51.9742432, -29.5030696 ], [ -51.9744154, -29.5032714 ], [ -51.9767146, -29.5051982 ], [ -51.978266, -29.506561900000012 ], [ -51.9801081, -29.5084443 ], [ -51.9812717, -29.5096745 ], [ -51.98167, -29.5102101 ], [ -51.9824218, -29.511005 ], [ -51.9831251, -29.5116114 ], [ -51.9834486, -29.5119853 ], [ -51.9835925, -29.5118669 ] ] ] } },
{ "type": "Feature", "properties": { "name": "Passo de Estrela", "code_muni": 4306205.0, "name_muni": "Cruzeiro do Sul" }, "geometry": { "type": "Polygon", "coordinates": [ [ [ -51.974519, -29.5029285 ], [ -51.9750911, -29.5027818 ], [ -51.976283, -29.5025073 ], [ -51.9778869, -29.5021483 ], [ -51.9805121, -29.5015608 ], [ -51.9821884, -29.5012049 ], [ -51.9824217, -29.5011267 ], [ -51.9827114, -29.5009959 ], [ -51.9830562, -29.5008083 ], [ -51.9830882, -29.5007896 ], [ -51.982999, -29.500735800000012 ], [ -51.9827449, -29.500582699999988 ], [ -51.9827235, -29.5003866 ], [ -51.9829059, -29.4999758 ], [ -51.9828951, -29.499789 ], [ -51.9827557, -29.4996396 ], [ -51.9827449, -29.4994248 ], [ -51.9827986, -29.4990326 ], [ -51.9829273, -29.4986031 ], [ -51.9830883, -29.4982296 ], [ -51.9831419, -29.4980054 ], [ -51.9834316, -29.4975105 ], [ -51.9842577, -29.4969782 ], [ -51.9844508, -29.4968755 ], [ -51.9846225, -29.4967355 ], [ -51.9848156, -29.4966141 ], [ -51.985352, -29.4967868 ], [ -51.9854271, -29.4968662 ], [ -51.9855881, -29.4969456 ], [ -51.9859636, -29.4970483 ], [ -51.9860762, -29.4970716 ], [ -51.9863069, -29.497067 ], [ -51.986542900000011, -29.4969969 ], [ -51.9866878, -29.4966748 ], [ -51.9868487, -29.496516 ], [ -51.9868112, -29.4962639 ], [ -51.9871599, -29.4960584 ], [ -51.9872886, -29.4960024 ], [ -51.9875622, -29.4959277 ], [ -51.9871706, -29.495820300000016 ], [ -51.9872779, -29.4957223 ], [ -51.987707, -29.4955402 ], [ -51.987927, -29.4954701 ], [ -51.9881094, -29.4952974 ], [ -51.9886029, -29.4946857 ], [ -51.9887692, -29.4944056 ], [ -51.988884956507995, -29.494126107880287 ], [ -51.970613995507122, -29.49848930010678 ], [ -51.9717654, -29.5001666 ], [ -51.9742432, -29.5030696 ], [ -51.974519, -29.5029285 ] ] ] } },
{ "type": "Feature", "properties": { "name": "Cascata", "code_muni": 4306205.0, "name_muni": "Cruzeiro do Sul" }, "geometry": { "type": "Polygon", "coordinates": [ [ [ -51.999557, -29.5079173 ], [ -51.9999379, -29.5077353 ], [ -52.0000425, -29.5077253 ], [ -51.9994336, -29.5061106 ], [ -52.000351, -29.5057277 ], [ -52.0007372, -29.5054196 ], [ -52.0011449, -29.504719300000012 ], [ -52.0020139, -29.5024409 ], [ -52.0020193, -29.5022962 ], [ -52.001971, -29.5020768 ], [ -52.00185840000001, -29.50189 ], [ -52.0017618, -29.501806 ], [ -52.0015472, -29.5016753 ], [ -52.0013541, -29.5015959 ], [ -52.0010483, -29.5014838 ], [ -52.0009303, -29.5014652 ], [ -52.0007104, -29.5013951 ], [ -52.0004797, -29.5013718 ], [ -52.0000827, -29.5011897 ], [ -51.9999969, -29.5009142 ], [ -51.9999433, -29.5008302 ], [ -51.9997609, -29.5007415 ], [ -51.9996024, -29.5007099 ], [ -51.999085, -29.4976226 ], [ -51.9991064, -29.4973705 ], [ -51.999498, -29.4960725 ], [ -51.9999505, -29.4959672 ], [ -52.000308, -29.4958694 ], [ -51.9999513, -29.4946974 ], [ -51.9999004, -29.4944382 ], [ -52.0001112, -29.4933046 ], [ -52.0001443, -29.4931267 ], [ -52.0004475, -29.4914966 ], [ -52.000434318493127, -29.491366586173772 ], [ -51.988884956507995, -29.494126107880287 ], [ -51.9887692, -29.4944056 ], [ -51.9886029, -29.4946857 ], [ -51.9881094, -29.4952974 ], [ -51.987927, -29.4954701 ], [ -51.987707, -29.4955402 ], [ -51.9872779, -29.4957223 ], [ -51.9871706, -29.495820300000016 ], [ -51.9875622, -29.4959277 ], [ -51.9872886, -29.4960024 ], [ -51.9871599, -29.4960584 ], [ -51.9868112, -29.4962639 ], [ -51.9868487, -29.496516 ], [ -51.9866878, -29.4966748 ], [ -51.986542900000011, -29.4969969 ], [ -51.9863069, -29.497067 ], [ -51.9860762, -29.4970716 ], [ -51.9859636, -29.4970483 ], [ -51.9855881, -29.4969456 ], [ -51.9854271, -29.4968662 ], [ -51.985352, -29.4967868 ], [ -51.9848156, -29.4966141 ], [ -51.9846225, -29.4967355 ], [ -51.9844508, -29.4968755 ], [ -51.9842577, -29.4969782 ], [ -51.9834316, -29.4975105 ], [ -51.9831419, -29.4980054 ], [ -51.9830883, -29.4982296 ], [ -51.9829273, -29.4986031 ], [ -51.9827986, -29.4990326 ], [ -51.9827449, -29.4994248 ], [ -51.9827557, -29.4996396 ], [ -51.9828951, -29.499789 ], [ -51.9829059, -29.4999758 ], [ -51.9827235, -29.5003866 ], [ -51.9827449, -29.500582699999988 ], [ -51.982999, -29.500735800000012 ], [ -51.9830882, -29.5007896 ], [ -51.983163500000011, -29.5008344 ], [ -51.9834155, -29.5009843 ], [ -51.9833028, -29.501045 ], [ -51.9831955, -29.501157 ], [ -51.9831365, -29.5012691 ], [ -51.9831258, -29.5013811 ], [ -51.9829381, -29.5018667 ], [ -51.9827825, -29.5020441 ], [ -51.9826913, -29.5021188 ], [ -51.9825786, -29.5021561 ], [ -51.9823855, -29.5023196 ], [ -51.98223, -29.5025297 ], [ -51.9822031, -29.5027491 ], [ -51.9822675, -29.5028518 ], [ -51.9823641, -29.5029405 ], [ -51.9828415, -29.5031786 ], [ -51.9830024, -29.5033093 ], [ -51.983217, -29.5036362 ], [ -51.9832492, -29.5038416 ], [ -51.9831526, -29.5040377 ], [ -51.9830239, -29.5042338 ], [ -51.9830668, -29.5044205 ], [ -51.9831741, -29.5046259 ], [ -51.98331360000001, -29.5048033 ], [ -51.9831634, -29.5049434 ], [ -51.9832277, -29.5054336 ], [ -51.983158, -29.505541 ], [ -51.9831097, -29.5057791 ], [ -51.9830936, -29.5060032 ], [ -51.9829917, -29.5060732 ], [ -51.982922, -29.5061806 ], [ -51.9829166, -29.5062973 ], [ -51.9829381, -29.5063954 ], [ -51.9830185, -29.506507399999986 ], [ -51.9834423, -29.5068436 ], [ -51.9836676, -29.5068949 ], [ -51.9837749, -29.5069556 ], [ -51.9839144, -29.507147 ], [ -51.9840807, -29.5072684 ], [ -51.984365, -29.5075952 ], [ -51.984365, -29.5077026 ], [ -51.9842684, -29.507782 ], [ -51.9839948, -29.50781 ], [ -51.9837695, -29.5079407 ], [ -51.9837159, -29.5080247 ], [ -51.9836944, -29.5082395 ], [ -51.9837374, -29.5084402 ], [ -51.9838232, -29.5085243 ], [ -51.9839305, -29.5085616 ], [ -51.9840431, -29.5085756 ], [ -51.9846278, -29.5085663 ], [ -51.9847566, -29.508594299999984 ], [ -51.984998, -29.5087157 ], [ -51.9856632, -29.5085849 ], [ -51.9858885, -29.5086316 ], [ -51.9862104, -29.5086223 ], [ -51.986956, -29.508767 ], [ -51.9871867, -29.5087717 ], [ -51.9872886, -29.508739 ], [ -51.9873154, -29.5086316 ], [ -51.9873583, -29.5085243 ], [ -51.987353, -29.5084309 ], [ -51.9872296, -29.508104100000011 ], [ -51.9872779, -29.5079407 ], [ -51.9873154, -29.507852 ], [ -51.9873315, -29.5077399 ], [ -51.9873315, -29.5076466 ], [ -51.98736370000001, -29.5075345 ], [ -51.9874334, -29.5074365 ], [ -51.9875085, -29.5073524 ], [ -51.9877178, -29.5072311 ], [ -51.9878572, -29.507077 ], [ -51.9882917, -29.5066848 ], [ -51.9884527, -29.5065074 ], [ -51.9884956, -29.5064047 ], [ -51.9887209, -29.5061573 ], [ -51.9888228, -29.5061713 ], [ -51.9891608, -29.5061853 ], [ -51.9891393, -29.5063253 ], [ -51.9887638, -29.5065401 ], [ -51.9889569, -29.5067362 ], [ -51.9886887, -29.507035 ], [ -51.9887745, -29.5071937 ], [ -51.9892359, -29.5071097 ], [ -51.9894344, -29.507126 ], [ -51.9896275, -29.5071704 ], [ -51.9902, -29.5072769 ], [ -51.9907191, -29.507373499999986 ], [ -51.9909874, -29.5076139 ], [ -51.99111340000001, -29.507688599999987 ], [ -51.9918247, -29.5078583 ], [ -51.991937, -29.5079874 ], [ -51.9922158, -29.5080691 ], [ -51.9928086, -29.5080877 ], [ -51.9929776, -29.5081368 ], [ -51.9931447, -29.508226 ], [ -51.993278, -29.5082955 ], [ -51.9936803, -29.5083632 ], [ -51.9938386, -29.5084472 ], [ -51.994037, -29.5086573 ], [ -51.9941953, -29.508732 ], [ -51.9944313, -29.5087997 ], [ -51.9947559, -29.5088207 ], [ -51.9950888, -29.508874 ], [ -51.9952152, -29.5089375 ], [ -51.9954559, -29.5089328 ], [ -51.9956705, -29.508788 ], [ -51.9957563, -29.5087063 ], [ -51.9961292, -29.5082582 ], [ -51.9961801, -29.5082325 ], [ -51.9964108, -29.5082278 ], [ -51.9964805, -29.5082465 ], [ -51.9966897, -29.5083655 ], [ -51.997709, -29.5084449 ], [ -51.9978377, -29.5084402 ], [ -51.9983473, -29.5082582 ], [ -51.99846, -29.5082465 ], [ -51.9987631, -29.5081484 ], [ -51.9990796, -29.5080014 ], [ -51.9992714, -29.5079676 ], [ -51.999557, -29.5079173 ] ] ] } },
{ "type": "Feature", "properties": { "name": "Italiana", "code_muni": 4306205.0, "name_muni": "Cruzeiro do Sul" }, "geometry": { "type": "Polygon", "coordinates": [ [ [ -51.9862291, -29.5145932 ], [ -51.9828147, -29.5168386 ], [ -51.9824231, -29.5184024 ], [ -51.9824874, -29.5195228 ], [ -51.9899198, -29.5195181 ], [ -51.9901567, -29.5192713 ], [ -51.9903473, -29.5190564 ], [ -51.990507, -29.518798799999985 ], [ -51.9906007, -29.5186373 ], [ -51.990785700000011, -29.5183185 ], [ -51.9904929, -29.517917799999985 ], [ -51.9903768, -29.5177066 ], [ -51.9903358, -29.5174419 ], [ -51.9903567, -29.5172997 ], [ -51.9903442, -29.5171641 ], [ -51.9903033, -29.5169609 ], [ -51.9902552, -29.516682 ], [ -51.9901166, -29.5164085 ], [ -51.989921, -29.5162135 ], [ -51.9898364, -29.5161605 ], [ -51.9893457, -29.5157731 ], [ -51.9891475, -29.5155766 ], [ -51.989006, -29.5153708 ], [ -51.9887233, -29.5149707 ], [ -51.988077, -29.5154288 ], [ -51.9875308, -29.5157214 ], [ -51.9872651, -29.5154452 ], [ -51.9871634, -29.5153585 ], [ -51.9870594, -29.5152827 ], [ -51.9869496, -29.5152393 ], [ -51.9868199, -29.515208 ], [ -51.98673, -29.515208 ], [ -51.9862291, -29.5145932 ] ] ] } },
{ "type": "Feature", "properties": { "name": "Célia", "code_muni": 4306205.0, "name_muni": "Cruzeiro do Sul" }, "geometry": { "type": "Polygon", "coordinates": [ [ [ -51.9999379, -29.5077353 ], [ -51.999557, -29.5079173 ], [ -51.9992714, -29.5079676 ], [ -51.9990796, -29.5080014 ], [ -51.9987631, -29.5081484 ], [ -51.99846, -29.5082465 ], [ -51.9983473, -29.5082582 ], [ -51.9978377, -29.5084402 ], [ -51.997709, -29.5084449 ], [ -51.9966897, -29.5083655 ], [ -51.9964805, -29.5082465 ], [ -51.9964108, -29.5082278 ], [ -51.9961801, -29.5082325 ], [ -51.9961292, -29.5082582 ], [ -51.9957563, -29.5087063 ], [ -51.9956705, -29.508788 ], [ -51.9954559, -29.5089328 ], [ -51.9952152, -29.5089375 ], [ -51.9948614, -29.5092591 ], [ -51.9947062, -29.509400200000012 ], [ -51.9945258, -29.509554299999987 ], [ -51.994274, -29.5098089 ], [ -51.9940778, -29.51002810000001 ], [ -51.9940174, -29.5100996 ], [ -51.9938525, -29.510319 ], [ -51.9936979, -29.5105456 ], [ -51.9934916, -29.5108946 ], [ -51.9933971, -29.511063499999985 ], [ -51.9933047, -29.5112909 ], [ -51.9932169, -29.5115167 ], [ -51.9930599, -29.5119615 ], [ -51.992917, -29.5124048 ], [ -51.9928485, -29.512608300000011 ], [ -51.9927718, -29.5128216 ], [ -51.992733, -29.512948 ], [ -51.9924545, -29.5137903 ], [ -51.9931335, -29.5140801 ], [ -51.9932468, -29.5141258 ], [ -51.9939354, -29.5143661 ], [ -51.9941416, -29.5144532 ], [ -51.9942865, -29.5145232 ], [ -51.9944596, -29.5146277 ], [ -51.9946529, -29.5147536 ], [ -51.9948156, -29.5148603 ], [ -51.9950367, -29.515015900000012 ], [ -51.9952913, -29.5151981 ], [ -51.9958291, -29.5155966 ], [ -51.9962419, -29.5159388 ], [ -51.9965142, -29.516097 ], [ -51.9967811, -29.5162259 ], [ -51.9970747, -29.5163267 ], [ -51.9972934, -29.5163996 ], [ -51.997457, -29.5164322 ], [ -51.9980302, -29.5157706 ], [ -51.9984374, -29.5152767 ], [ -51.9984728, -29.515229900000012 ], [ -51.9984786, -29.5151843 ], [ -51.9984713, -29.51514 ], [ -51.9984439, -29.5150705 ], [ -51.9983483, -29.5148188 ], [ -51.9988436, -29.5146259 ], [ -51.9989106, -29.5145419 ], [ -51.9990313, -29.5142944 ], [ -51.9990689, -29.5142594 ], [ -51.9992298, -29.5142804 ], [ -51.9993746, -29.5143481 ], [ -51.9996697, -29.5143528 ], [ -51.9997877, -29.5143294 ], [ -52.0000693, -29.5143318 ], [ -52.0003206, -29.5143837 ], [ -51.9996429, -29.5122824 ], [ -52.0009947, -29.5119462 ], [ -52.0005548, -29.5105737 ], [ -52.0011342, -29.5103777 ], [ -52.000528, -29.5089117 ], [ -52.0004301, -29.508753 ], [ -52.0000425, -29.5077253 ], [ -51.9999379, -29.5077353 ] ] ] } },
{ "type": "Feature", "properties": { "name": "Eleonora Haenssgen", "code_muni": 4306205.0, "name_muni": "Cruzeiro do Sul" }, "geometry": { "type": "Polygon", "coordinates": [ [ [ -52.0019807, -29.5145951 ], [ -52.0018254, -29.5146083 ], [ -52.0003206, -29.5143837 ], [ -52.0000693, -29.5143318 ], [ -51.9997877, -29.5143294 ], [ -51.9996697, -29.5143528 ], [ -51.9993746, -29.5143481 ], [ -51.9992298, -29.5142804 ], [ -51.9990689, -29.5142594 ], [ -51.9990313, -29.5142944 ], [ -51.9989106, -29.5145419 ], [ -51.9988436, -29.5146259 ], [ -51.9983483, -29.5148188 ], [ -51.9984439, -29.5150705 ], [ -51.9984713, -29.51514 ], [ -51.9984786, -29.5151843 ], [ -51.9984728, -29.515229900000012 ], [ -51.9984374, -29.5152767 ], [ -51.9980302, -29.5157706 ], [ -51.997457, -29.5164322 ], [ -51.9977421, -29.5165017 ], [ -51.9986574, -29.5166815 ], [ -51.9989616, -29.5167336 ], [ -51.9992413, -29.5167789 ], [ -51.9994508, -29.5167963 ], [ -51.9997448, -29.5167689 ], [ -51.999932, -29.516715 ], [ -52.0003819, -29.5165242 ], [ -52.0006855, -29.5163836 ], [ -52.0009759, -29.5162808 ], [ -52.0013826, -29.5160913 ], [ -52.0016699, -29.5159897 ], [ -52.0018899, -29.5159355 ], [ -52.0028263, -29.5157753 ], [ -52.0031569, -29.5157147 ], [ -52.0036483, -29.5155707 ], [ -52.0038338, -29.5154826 ], [ -52.004063, -29.5153894 ], [ -52.0043953, -29.5152261 ], [ -52.0046386, -29.5151041 ], [ -52.0048903, -29.5149733 ], [ -52.0050385, -29.5149251 ], [ -52.0052674, -29.5148943 ], [ -52.0055334, -29.5149211 ], [ -52.0044011, -29.5130433 ], [ -52.0019807, -29.5145951 ] ] ] } },
{ "type": "Feature", "properties": { "name": "Rosa", "code_muni": 4306205.0, "name_muni": "Cruzeiro do Sul" }, "geometry": { "type": "Polygon", "coordinates": [ [ [ -52.0052674, -29.5148943 ], [ -52.0050385, -29.5149251 ], [ -52.0048903, -29.5149733 ], [ -52.0046386, -29.5151041 ], [ -52.0043953, -29.5152261 ], [ -52.004063, -29.5153894 ], [ -52.0038338, -29.5154826 ], [ -52.0036483, -29.5155707 ], [ -52.0031569, -29.5157147 ], [ -52.0028263, -29.5157753 ], [ -52.0018899, -29.5159355 ], [ -52.0016699, -29.5159897 ], [ -52.0013826, -29.5160913 ], [ -52.0009759, -29.5162808 ], [ -52.0006855, -29.5163836 ], [ -52.0003819, -29.5165242 ], [ -51.999932, -29.516715 ], [ -51.9997448, -29.5167689 ], [ -51.9994508, -29.5167963 ], [ -51.9992413, -29.5167789 ], [ -51.9989616, -29.5167336 ], [ -51.9986574, -29.5166815 ], [ -51.9977421, -29.5165017 ], [ -51.997457, -29.5164322 ], [ -51.9972934, -29.5163996 ], [ -51.9970747, -29.5163267 ], [ -51.9967811, -29.5162259 ], [ -51.9965142, -29.516097 ], [ -51.9962419, -29.5159388 ], [ -51.9958291, -29.5155966 ], [ -51.9952913, -29.5151981 ], [ -51.9950367, -29.515015900000012 ], [ -51.9948156, -29.5148603 ], [ -51.9946529, -29.5147536 ], [ -51.9944596, -29.5146277 ], [ -51.9942865, -29.5145232 ], [ -51.9941416, -29.5144532 ], [ -51.9939354, -29.5143661 ], [ -51.9932468, -29.5141258 ], [ -51.9931335, -29.5140801 ], [ -51.9924545, -29.5137903 ], [ -51.992258, -29.5143894 ], [ -51.9920664, -29.5149926 ], [ -51.9918213, -29.5158582 ], [ -51.9910224, -29.5149706 ], [ -51.9905482, -29.514469500000011 ], [ -51.9901721, -29.5140418 ], [ -51.9900405, -29.5141404 ], [ -51.9894095, -29.51455630000001 ], [ -51.9888657, -29.5149083 ], [ -51.9887233, -29.5149707 ], [ -51.989006, -29.5153708 ], [ -51.9891475, -29.5155766 ], [ -51.9893457, -29.5157731 ], [ -51.9898364, -29.5161605 ], [ -51.989921, -29.5162135 ], [ -51.9901166, -29.5164085 ], [ -51.9902552, -29.516682 ], [ -51.9903033, -29.5169609 ], [ -51.9903442, -29.5171641 ], [ -51.9903567, -29.5172997 ], [ -51.9903358, -29.5174419 ], [ -51.9903768, -29.5177066 ], [ -51.9904929, -29.517917799999985 ], [ -51.990785700000011, -29.5183185 ], [ -51.9906007, -29.5186373 ], [ -51.990507, -29.518798799999985 ], [ -51.9903473, -29.5190564 ], [ -51.9901567, -29.5192713 ], [ -51.9899198, -29.5195181 ], [ -51.9898018, -29.519632099999988 ], [ -51.9896445, -29.5197939 ], [ -51.9894606, -29.5200048 ], [ -51.9892177, -29.5203426 ], [ -51.9891594, -29.52045 ], [ -51.9890246, -29.5208356 ], [ -51.9889824, -29.5210918 ], [ -51.9888771, -29.5215184 ], [ -51.9887752, -29.5218573 ], [ -51.988682, -29.5221515 ], [ -51.9885691, -29.5223943 ], [ -51.9883924, -29.5226259 ], [ -51.9881788, -29.5228377 ], [ -51.9878958, -29.5232119 ], [ -51.9875424, -29.5236113 ], [ -51.9872137, -29.523949599999987 ], [ -51.9870661, -29.5240727 ], [ -51.9868809, -29.524168399999986 ], [ -51.986637, -29.5242313 ], [ -51.9862774, -29.5242946 ], [ -51.9864062, -29.5244731 ], [ -51.9865085, -29.5246354 ], [ -51.9865713, -29.5246197 ], [ -52.0056939, -29.5195321 ], [ -52.0056344, -29.5179542 ], [ -52.0056093, -29.5172887 ], [ -52.0055955, -29.5169215 ], [ -52.0055673, -29.5161731 ], [ -52.0055268, -29.5150326 ], [ -52.0055334, -29.5149211 ], [ -52.0052674, -29.5148943 ] ] ] } },
{ "type": "Feature", "properties": { "name": "Glucostarck", "code_muni": 4306205.0, "name_muni": "Cruzeiro do Sul" }, "geometry": { "type": "Polygon", "coordinates": [ [ [ -51.9844857, -29.525451 ], [ -51.9848987, -29.5254604 ], [ -51.9849604, -29.5254534 ], [ -51.9850168, -29.5254324 ], [ -51.9851026, -29.5253437 ], [ -51.9851321, -29.525234 ], [ -51.985175, -29.525185 ], [ -51.9853628, -29.5250403 ], [ -51.9854432, -29.5249563 ], [ -51.9855478, -29.5248886 ], [ -51.985859, -29.5247579 ], [ -51.9859448, -29.5247322 ], [ -51.9862586, -29.524699500000011 ], [ -51.9864437, -29.5246505 ], [ -51.9865085, -29.5246354 ], [ -51.9864062, -29.5244731 ], [ -51.9862774, -29.5242946 ], [ -51.986637, -29.5242313 ], [ -51.9868809, -29.524168399999986 ], [ -51.9870661, -29.5240727 ], [ -51.9872137, -29.523949599999987 ], [ -51.9875424, -29.5236113 ], [ -51.9878958, -29.5232119 ], [ -51.9881788, -29.5228377 ], [ -51.9883924, -29.5226259 ], [ -51.9885691, -29.5223943 ], [ -51.988682, -29.5221515 ], [ -51.9887752, -29.5218573 ], [ -51.9888771, -29.5215184 ], [ -51.9889824, -29.5210918 ], [ -51.9890246, -29.5208356 ], [ -51.9891594, -29.52045 ], [ -51.9892177, -29.5203426 ], [ -51.9894606, -29.5200048 ], [ -51.9896445, -29.5197939 ], [ -51.9898018, -29.519632099999988 ], [ -51.9899198, -29.5195181 ], [ -51.9824874, -29.5195228 ], [ -51.982289, -29.5196815 ], [ -51.9816533, -29.5194458 ], [ -51.9813715, -29.519416199999984 ], [ -51.9812052, -29.5193987 ], [ -51.9810981, -29.5193874 ], [ -51.9807118, -29.5194621 ], [ -51.98036, -29.5197301 ], [ -51.9800986, -29.5203465 ], [ -51.9799552, -29.5205739 ], [ -51.9794915, -29.521069199999989 ], [ -51.9790614, -29.521403099999986 ], [ -51.9780687, -29.5232779 ], [ -51.9774956, -29.5243788 ], [ -51.9772288, -29.5249721 ], [ -51.9769303, -29.5258158 ], [ -51.9764776, -29.5272853 ], [ -51.9758201, -29.5305799 ], [ -51.9757152, -29.5318535 ], [ -51.9759665, -29.5335974 ], [ -51.9767264, -29.533474499999986 ], [ -51.9781641, -29.5333438 ], [ -51.9790648, -29.533222500000015 ], [ -51.9796119, -29.5332691 ], [ -51.9802235, -29.5333998 ], [ -51.9808672, -29.5334652 ], [ -51.9812212, -29.5334745 ], [ -51.9813929, -29.53336250000001 ], [ -51.9815002, -29.5331664 ], [ -51.981586, -29.5320929 ], [ -51.9815968, -29.5313088 ], [ -51.9818435, -29.5311594 ], [ -51.9820152, -29.531150100000012 ], [ -51.982337, -29.5312621 ], [ -51.9825624, -29.5312995 ], [ -51.9828306, -29.5312248 ], [ -51.9829271, -29.5310194 ], [ -51.9828198, -29.53073 ], [ -51.9817684, -29.5296005 ], [ -51.9815646, -29.529320399999989 ], [ -51.9815109, -29.5289657 ], [ -51.9816397, -29.5281722 ], [ -51.9820796, -29.5267905 ], [ -51.9821976, -29.5266225 ], [ -51.9824551, -29.52645450000001 ], [ -51.982885, -29.5262595 ], [ -51.9831954, -29.5259784 ], [ -51.9835172, -29.5256049 ], [ -51.9838927, -29.5253902 ], [ -51.9841073, -29.5252782 ], [ -51.9843112, -29.5252315 ], [ -51.9844077, -29.5253062 ], [ -51.9844093, -29.5254332 ], [ -51.9844857, -29.525451 ] ] ] } },
{ "type": "Feature", "properties": { "name": "Nações", "code_muni": 4306205.0, "name_muni": "Cruzeiro do Sul" }, "geometry": { "type": "Polygon", "coordinates": [ [ [ -52.000882, -29.4912129 ], [ -52.0010054, -29.4910997 ], [ -52.001, -29.4909806 ], [ -52.000614533162555, -29.490583028037111 ], [ -52.000847955980838, -29.491222336588205 ], [ -52.000882, -29.4912129 ] ] ] } },
{ "type": "Feature", "properties": { "name": "Floresta", "code_muni": 4306205.0, "name_muni": "Cruzeiro do Sul" }, "geometry": { "type": "MultiPolygon", "coordinates": [ [ [ [ -51.999126421564014, -29.486286547744601 ], [ -51.999052927, -29.486305804999979 ], [ -51.999064941931323, -29.486338715288028 ], [ -51.999126421564014, -29.486286547744601 ] ] ], [ [ [ -52.013611724647639, -29.478215824767677 ], [ -52.013344216, -29.478285093999894 ], [ -52.013352099061855, -29.478306406475625 ], [ -52.013611724647639, -29.478215824767677 ] ] ], [ [ [ -52.0223283, -29.4759591 ], [ -52.022486468429896, -29.475917424536505 ], [ -52.022094996573685, -29.476018823333668 ], [ -52.0223283, -29.4759591 ] ] ], [ [ [ -52.0258799, -29.4750438 ], [ -52.0259087, -29.4750361 ], [ -52.025903308396487, -29.47503233966594 ], [ -52.025641096372183, -29.475100265673877 ], [ -52.0258799, -29.4750438 ] ] ] ] } },
{ "type": "Feature", "properties": { "name": "São Bento", "code_muni": 4306205.0, "name_muni": "Cruzeiro do Sul" }, "geometry": { "type": "MultiPolygon", "coordinates": [ [ [ [ -52.0491616, -29.4736719 ], [ -52.0490727, -29.4733841 ], [ -52.049076504042539, -29.473357125899735 ], [ -52.04903859603948, -29.473232283973598 ], [ -52.048838, -29.4732221 ], [ -52.0486694, -29.4731309 ], [ -52.0485655, -29.472976 ], [ -52.0485603, -29.472801499999989 ], [ -52.0487529, -29.472643 ], [ -52.0487501, -29.4724801 ], [ -52.0484468, -29.4718987 ], [ -52.0481542, -29.4716338 ], [ -52.0480977, -29.4713557 ], [ -52.0481144, -29.4712648 ], [ -52.0482272, -29.47095620000001 ], [ -52.0481856, -29.4707708 ], [ -52.0479962, -29.470295 ], [ -52.0479244, -29.4697992 ], [ -52.047921081793014, -29.46955183785418 ], [ -52.047857651999891, -29.469342927999911 ], [ -52.037462786421962, -29.47203725795654 ], [ -52.0377308, -29.4719832 ], [ -52.0390333, -29.4716337 ], [ -52.0392489, -29.4715842 ], [ -52.0392941, -29.4716803 ], [ -52.0393317, -29.4717446 ], [ -52.0392997, -29.4732111 ], [ -52.039274, -29.4743867 ], [ -52.0392669, -29.4747122 ], [ -52.0392703, -29.4760256 ], [ -52.039283, -29.476068499999986 ], [ -52.0393035, -29.4761725 ], [ -52.0394312, -29.4761423 ], [ -52.040207, -29.4759586 ], [ -52.0429128, -29.4753181 ], [ -52.0435312, -29.4751717 ], [ -52.0456437, -29.4746716 ], [ -52.0462256, -29.4745339 ], [ -52.0482443, -29.474056 ], [ -52.0491605, -29.4738391 ], [ -52.0491818, -29.4737587 ], [ -52.0491616, -29.4736719 ] ] ], [ [ [ -52.0259087, -29.4750361 ], [ -52.0259343, -29.4750293 ], [ -52.0308008, -29.4737818 ], [ -52.0308361, -29.4737727 ], [ -52.0310429, -29.473728200000011 ], [ -52.0312149, -29.473660400000011 ], [ -52.03122963758598, -29.473652423808574 ], [ -52.025903308396487, -29.47503233966594 ], [ -52.0259087, -29.4750361 ] ] ], [ [ [ -52.0338706, -29.472972 ], [ -52.0345055, -29.4728068 ], [ -52.0347917, -29.4727308 ], [ -52.035005037002321, -29.472674163450701 ], [ -52.033857931056119, -29.472971408351025 ], [ -52.0338706, -29.472972 ] ] ] ] } },
{ "type": "Feature", "properties": { "name": "Centro", "code_muni": 4306205.0, "name_muni": "Cruzeiro do Sul" }, "geometry": { "type": "Polygon", "coordinates": [ [ [ -51.9731952, -29.503485900000012 ], [ -51.970856701736444, -29.500792784509439 ], [ -51.971354172, -29.50192049899989 ], [ -51.973044992444343, -29.503559284779147 ], [ -51.9731952, -29.503485900000012 ] ] ] } },
{ "type": "Feature", "properties": { "name": "Chacrinha", "code_muni": 4306205.0, "name_muni": "Cruzeiro do Sul" }, "geometry": { "type": "MultiPolygon", "coordinates": [ [ [ [ -51.9804931, -29.5161429 ], [ -51.9815839, -29.5136795 ], [ -51.981568731571876, -29.513524424940503 ], [ -51.980413422601998, -29.516276058987142 ], [ -51.9804931, -29.5161429 ] ] ], [ [ [ -51.9813761, -29.511555 ], [ -51.9799737, -29.5096564 ], [ -51.9768312, -29.5066955 ], [ -51.9731952, -29.503485900000012 ], [ -51.973044992444343, -29.503559284779147 ], [ -51.981384516306839, -29.511641048421911 ], [ -51.9813761, -29.511555 ] ] ] ] } },
{ "type": "Feature", "properties": { "name": "São Francisco", "code_muni": 4306205.0, "name_muni": "Cruzeiro do Sul" }, "geometry": { "type": "Polygon", "coordinates": [ [ [ -52.075323143107404, -29.48103525413504 ], [ -52.075323142999899, -29.481011784 ], [ -52.07532247502435, -29.481011896526066 ], [ -52.075323143107404, -29.48103525413504 ] ] ] } },
{ "type": "Feature", "properties": { "name": "Picada Passo Fundo", "code_muni": 4306205.0, "name_muni": "Cruzeiro do Sul" }, "geometry": { "type": "MultiPolygon", "coordinates": [ [ [ [ -52.0753147, -29.4828136 ], [ -52.075323152634823, -29.482979155064932 ], [ -52.075323151438162, -29.482748157892861 ], [ -52.0753147, -29.4828136 ] ] ], [ [ [ -52.0752811, -29.4842203 ], [ -52.075323162582727, -29.484783852808221 ], [ -52.075323158488729, -29.484064231758662 ], [ -52.0752811, -29.4842203 ] ] ], [ [ [ -52.0753741, -29.4854663 ], [ -52.0788915, -29.4854741 ], [ -52.1088158, -29.4855405 ], [ -52.108817359706229, -29.485499971290899 ], [ -52.075366401066994, -29.485363152281963 ], [ -52.0753741, -29.4854663 ] ] ] ] } },
{ "type": "Feature", "properties": { "name": "Sampaio", "code_muni": 4306205.0, "name_muni": "Cruzeiro do Sul" }, "geometry": { "type": "MultiPolygon", "coordinates": [ [ [ [ -52.1411337, -29.4790643 ], [ -52.141329882675286, -29.479187748409799 ], [ -52.14141201, -29.479034043999892 ], [ -52.141100876581511, -29.47903144083223 ], [ -52.1411337, -29.4790643 ] ] ], [ [ [ -52.1405381, -29.4803474 ], [ -52.1402132, -29.4808921 ], [ -52.139822100000011, -29.4817773 ], [ -52.1394912, -29.4824738 ], [ -52.139492564202364, -29.482626229181669 ], [ -52.140691828723092, -29.480381873618875 ], [ -52.1405381, -29.4803474 ] ] ], [ [ [ -52.1394972, -29.4831442 ], [ -52.1395514, -29.4836522 ], [ -52.139792, -29.4837674 ], [ -52.1405501, -29.4836889 ], [ -52.140910669005834, -29.483544856000776 ], [ -52.13949588932828, -29.482997756519875 ], [ -52.1394972, -29.4831442 ] ] ], [ [ [ -52.1421793, -29.4841029 ], [ -52.14220857397143, -29.484046741025747 ], [ -52.14215196418948, -29.484024851042111 ], [ -52.1421793, -29.4841029 ] ] ] ] } },
{ "type": "Feature", "properties": { "name": "Picada Santa Clara", "code_muni": 4306205.0, "name_muni": "Cruzeiro do Sul" }, "geometry": { "type": "Polygon", "coordinates": [ [ [ -52.10991060049129, -29.478766785565817 ], [ -52.109111508999902, -29.478759908999987 ], [ -52.109111434464218, -29.478768523903256 ], [ -52.10991060049129, -29.478766785565817 ] ] ] } }
]
}
