{
"type": "FeatureCollection",
"name": "bairros_aratiba",
"crs": { "type": "name", "properties": { "name": "urn:ogc:def:crs:OGC:1.3:CRS84" } },
"features": [
{ "type": "Feature", "properties": { "code_muni": 4300901.0, "name_muni": "Aratiba", "code_state": 43.0, "abbrev_state": "RS", "name_state": "Rio Grande do Sul", "code_region": 4.0, "name_region": "Sul", "year": 2022.0 }, "geometry": { "type": "Polygon", "coordinates": [ [ [ -52.255973861, -27.511062234999898 ], [ -52.348880849999901, -27.509461003999895 ], [ -52.350773762, -27.497982888 ], [ -52.355041812, -27.497966237 ], [ -52.363569249, -27.500729572999894 ], [ -52.36740605099989, -27.494876646 ], [ -52.36278978699989, -27.484913773 ], [ -52.360512071, -27.484115572 ], [ -52.356948195, -27.479140933999901 ], [ -52.368621558, -27.471095805999894 ], [ -52.353747559999896, -27.472270181999896 ], [ -52.355281651, -27.470455971 ], [ -52.34655931, -27.468924763 ], [ -52.359713671, -27.456889331999893 ], [ -52.362872647, -27.440821425 ], [ -52.367578482999896, -27.440887002999901 ], [ -52.367891286, -27.433179262999893 ], [ -52.364066226, -27.433083166999896 ], [ -52.364496313, -27.417559718999897 ], [ -52.362005737999894, -27.417593371 ], [ -52.368219246, -27.390914138 ], [ -52.380533039999897, -27.36360631 ], [ -52.382749205, -27.364707011999897 ], [ -52.387452931, -27.339425072 ], [ -52.383797779, -27.326662563999903 ], [ -52.381525995999901, -27.325216379 ], [ -52.381816065, -27.322660605 ], [ -52.38773603, -27.31678555 ], [ -52.386752437, -27.313065009999896 ], [ -52.389766903, -27.305768215999898 ], [ -52.392146169999904, -27.313924963 ], [ -52.396865868, -27.314111958999895 ], [ -52.398687239, -27.312932293 ], [ -52.394492957, -27.308672768 ], [ -52.395933122, -27.298366938999909 ], [ -52.393963345, -27.294593063 ], [ -52.397834427, -27.292491794999904 ], [ -52.395376154, -27.290671932999906 ], [ -52.393659156999895, -27.285146332 ], [ -52.400096061999903, -27.259238785 ], [ -52.399690365, -27.256569621 ], [ -52.394668470999896, -27.251829648 ], [ -52.391649883999897, -27.251401493999897 ], [ -52.385771819, -27.2535155059999 ], [ -52.38142637, -27.259627414 ], [ -52.383226823, -27.282968312 ], [ -52.381498224, -27.294671788999896 ], [ -52.377554733, -27.303855572 ], [ -52.37324331299989, -27.305369686999899 ], [ -52.367480355999895, -27.304519512 ], [ -52.361060309, -27.299499177 ], [ -52.355386997, -27.291212893 ], [ -52.350225307999899, -27.288243249999898 ], [ -52.34525937, -27.288277661999896 ], [ -52.340287388, -27.291059372999896 ], [ -52.330690445999899, -27.301096093 ], [ -52.313084265, -27.309265749 ], [ -52.306359178, -27.316934420999903 ], [ -52.30132344, -27.319030997 ], [ -52.296492711, -27.318090947 ], [ -52.293347946, -27.316032510999904 ], [ -52.290981039, -27.308712664 ], [ -52.293458604, -27.299609845 ], [ -52.302042575, -27.284663327 ], [ -52.306204218999895, -27.270136642 ], [ -52.304670729999899, -27.262630369 ], [ -52.300479314, -27.258536745999905 ], [ -52.296465473999895, -27.257029036999899 ], [ -52.290330786, -27.256990147 ], [ -52.2829719389999, -27.260302661 ], [ -52.275989764, -27.261088523999899 ], [ -52.26031882800001, -27.256565891 ], [ -52.254543541, -27.256358984 ], [ -52.241256682, -27.2607185429999 ], [ -52.234207781, -27.265925888 ], [ -52.233972467999905, -27.269193444999907 ], [ -52.236856616999901, -27.273769225 ], [ -52.245882751999901, -27.277172455 ], [ -52.259760340999897, -27.278937889 ], [ -52.267991127, -27.283248641999897 ], [ -52.276932696, -27.293341223 ], [ -52.278122846, -27.298732377 ], [ -52.272978724, -27.304384974 ], [ -52.248133867, -27.302368687 ], [ -52.241137314999889, -27.304270852999892 ], [ -52.235979788999899, -27.309085479 ], [ -52.231154057, -27.318105488999905 ], [ -52.22837767, -27.327411443 ], [ -52.224766347999903, -27.330605095999896 ], [ -52.226510772, -27.337752313999896 ], [ -52.223129135, -27.343006902 ], [ -52.223562152999889, -27.344738339999896 ], [ -52.228913217, -27.347408425 ], [ -52.22892569, -27.348588134999897 ], [ -52.219994325, -27.353557135999907 ], [ -52.218668748, -27.359174434 ], [ -52.209853689999896, -27.367499096 ], [ -52.210189107, -27.368615086 ], [ -52.2155853, -27.368036205999893 ], [ -52.216401484, -27.368992664 ], [ -52.215221357, -27.374235848999895 ], [ -52.2104160929999, -27.379083707999897 ], [ -52.210676625, -27.382773937 ], [ -52.21292059599989, -27.389170653999894 ], [ -52.2187981, -27.39102242 ], [ -52.225092128, -27.388138453 ], [ -52.228810037999907, -27.392569463 ], [ -52.229795458999902, -27.396950402999899 ], [ -52.225398013, -27.3983012109999 ], [ -52.221970341, -27.402648208999896 ], [ -52.227381599, -27.403663442 ], [ -52.229224184, -27.405894465 ], [ -52.22971734, -27.40732624399989 ], [ -52.226462294, -27.410458988 ], [ -52.227331396999894, -27.413710103 ], [ -52.235664476999901, -27.410746785999898 ], [ -52.236490824, -27.411597593 ], [ -52.234514256999894, -27.421335296999892 ], [ -52.227107287, -27.428535714 ], [ -52.227785105999899, -27.431354713 ], [ -52.228987435, -27.431491477 ], [ -52.236784987, -27.42758099 ], [ -52.239000910999891, -27.43212249 ], [ -52.2359732359999, -27.437858189999897 ], [ -52.241848117, -27.438189149 ], [ -52.240584976, -27.441628061 ], [ -52.243203368, -27.445337564999903 ], [ -52.239678614, -27.451348179 ], [ -52.24053666, -27.45519085 ], [ -52.238264867999902, -27.455388469 ], [ -52.236483964999898, -27.457376266 ], [ -52.243314811999902, -27.462774327 ], [ -52.245467463, -27.466778546999901 ], [ -52.244431662, -27.467898266 ], [ -52.239835323, -27.467773623 ], [ -52.237875335999895, -27.470031203 ], [ -52.237777870999892, -27.472247744 ], [ -52.24177572, -27.475041906999898 ], [ -52.238667385, -27.48248143 ], [ -52.244197446, -27.488463897 ], [ -52.250398519, -27.487491137999896 ], [ -52.253173876999902, -27.497138305 ], [ -52.24683070399989, -27.500223678999905 ], [ -52.246751963999891, -27.502757774 ], [ -52.250912037, -27.503508977 ], [ -52.253794048, -27.498495412 ], [ -52.25763552, -27.498081581999905 ], [ -52.258930956, -27.502868662 ], [ -52.262599738999896, -27.504190496 ], [ -52.261317291999902, -27.506950962 ], [ -52.255973861, -27.511062234999898 ] ] ] } }
]
}
