{
"type": "FeatureCollection",
"name": "bairros_estacao",
"crs": { "type": "name", "properties": { "name": "urn:ogc:def:crs:OGC:1.3:CRS84" } },
"features": [
{ "type": "Feature", "properties": { "name": "Santuário", "code_muni": 4307559.0, "name_muni": "Estação" }, "geometry": { "type": "Polygon", "coordinates": [ [ [ -52.2729304, -27.9057831 ], [ -52.2726716, -27.9058851 ], [ -52.2722411, -27.9060439 ], [ -52.2718348, -27.9062092 ], [ -52.2716207, -27.9063276 ], [ -52.2712487, -27.9065333 ], [ -52.2711428, -27.9066222 ], [ -52.2709067, -27.906851 ], [ -52.2706036, -27.9073867 ], [ -52.2704642, -27.9076474 ], [ -52.2703086, -27.9079093 ], [ -52.2701871, -27.9080506 ], [ -52.270031, -27.9081854 ], [ -52.26985, -27.908306 ], [ -52.2697156, -27.9083828 ], [ -52.2695468, -27.908427199999988 ], [ -52.2693604, -27.9084484 ], [ -52.268947, -27.9084478 ], [ -52.2685054, -27.9083698 ], [ -52.2675052, -27.9081425 ], [ -52.2671489, -27.9080503 ], [ -52.2669251, -27.9080151 ], [ -52.2665869, -27.9080005 ], [ -52.2661877, -27.9080347 ], [ -52.2658688, -27.9081313 ], [ -52.26549, -27.9083194 ], [ -52.2652717, -27.9085098 ], [ -52.2650877, -27.9087697 ], [ -52.2649566, -27.9090336 ], [ -52.2648476, -27.9094183 ], [ -52.2646603, -27.9099317 ], [ -52.2645029, -27.9102037 ], [ -52.2645003, -27.9103329 ], [ -52.2645016, -27.9104656 ], [ -52.2644761, -27.9106268 ], [ -52.2643635, -27.9109029 ], [ -52.2641811, -27.911403 ], [ -52.2640497, -27.9116874 ], [ -52.2640859, -27.9122504 ], [ -52.2650853, -27.9125297 ], [ -52.2662665, -27.9128429 ], [ -52.2663067, -27.9128642 ], [ -52.2663295, -27.912900600000011 ], [ -52.2663315, -27.9129436 ], [ -52.2660028, -27.9139331 ], [ -52.2656457, -27.9150078 ], [ -52.2660879, -27.9154287 ], [ -52.2662738, -27.9155816 ], [ -52.2732389, -27.9207388 ], [ -52.2781527, -27.9190514 ], [ -52.2718012, -27.9131167 ], [ -52.28110310000001, -27.9037304 ], [ -52.2797084, -27.9017677 ], [ -52.2787106, -27.9024504 ], [ -52.27317450000001, -27.897226 ], [ -52.269001, -27.9007627 ], [ -52.2729304, -27.9057831 ] ] ] } },
{ "type": "Feature", "properties": { "name": "Santana", "code_muni": 4307559.0, "name_muni": "Estação" }, "geometry": { "type": "Polygon", "coordinates": [ [ [ -52.2638834, -27.9141287 ], [ -52.2636339, -27.9142638 ], [ -52.263326, -27.9144579 ], [ -52.2630181, -27.9146519 ], [ -52.2624084, -27.9149476 ], [ -52.2617988, -27.9152432 ], [ -52.2611201, -27.9154619 ], [ -52.2611555, -27.9155295 ], [ -52.2615284, -27.9163471 ], [ -52.2615919, -27.9164807 ], [ -52.2604934, -27.9169738 ], [ -52.261, -27.9174089 ], [ -52.2611996, -27.9175823 ], [ -52.2613835, -27.9177834 ], [ -52.2615582, -27.9180654 ], [ -52.2619928, -27.9189888 ], [ -52.2625872, -27.9202839 ], [ -52.2626161, -27.9203684 ], [ -52.2630894, -27.9214095 ], [ -52.2632245, -27.9216467 ], [ -52.2633107, -27.9217307 ], [ -52.2634174, -27.9218665 ], [ -52.2639655, -27.9228938 ], [ -52.2641065, -27.9231967 ], [ -52.2642174, -27.9233465 ], [ -52.2643031, -27.923424 ], [ -52.2643997, -27.9234607 ], [ -52.264523, -27.9234831 ], [ -52.2649348, -27.9235057 ], [ -52.2650045, -27.9235259 ], [ -52.2651145, -27.9236515 ], [ -52.265203, -27.9238174 ], [ -52.265254, -27.9240567 ], [ -52.2652962, -27.9243467 ], [ -52.2653039, -27.9247374 ], [ -52.2672844, -27.925327 ], [ -52.265836, -27.9232699 ], [ -52.2732389, -27.9207388 ], [ -52.2662738, -27.9155816 ], [ -52.2660879, -27.9154287 ], [ -52.2656457, -27.9150078 ], [ -52.2643209, -27.9137776 ], [ -52.2638834, -27.9141287 ] ] ] } },
{ "type": "Feature", "properties": { "name": "São José", "code_muni": 4307559.0, "name_muni": "Estação" }, "geometry": { "type": "Polygon", "coordinates": [ [ [ -52.2619928, -27.9189888 ], [ -52.2615582, -27.9180654 ], [ -52.2613835, -27.9177834 ], [ -52.2611996, -27.9175823 ], [ -52.261, -27.9174089 ], [ -52.2604934, -27.9169738 ], [ -52.2600324, -27.9165638 ], [ -52.2598457, -27.916307 ], [ -52.2597322, -27.9160633 ], [ -52.2596803, -27.9158613 ], [ -52.2596767, -27.9156356 ], [ -52.2589159, -27.9158873 ], [ -52.2576458, -27.9164457 ], [ -52.2571657, -27.9160554 ], [ -52.256601, -27.9167582 ], [ -52.2561331, -27.9171719 ], [ -52.2558984, -27.9173497 ], [ -52.2556479, -27.9174986 ], [ -52.2549629, -27.9179348 ], [ -52.2545862, -27.9181356 ], [ -52.2543124, -27.9182774 ], [ -52.2544862, -27.91846 ], [ -52.2537232, -27.9191319 ], [ -52.2531062, -27.9197197 ], [ -52.25252960000001, -27.9201582 ], [ -52.2521353, -27.9203809 ], [ -52.2518, -27.9205184 ], [ -52.2514996, -27.9206512 ], [ -52.2653039, -27.9247374 ], [ -52.2652962, -27.9243467 ], [ -52.265254, -27.9240567 ], [ -52.265203, -27.9238174 ], [ -52.2651145, -27.9236515 ], [ -52.2650045, -27.9235259 ], [ -52.2649348, -27.9235057 ], [ -52.264523, -27.9234831 ], [ -52.2643997, -27.9234607 ], [ -52.2643031, -27.923424 ], [ -52.2642174, -27.9233465 ], [ -52.2641065, -27.9231967 ], [ -52.2639655, -27.9228938 ], [ -52.2634174, -27.9218665 ], [ -52.2633107, -27.9217307 ], [ -52.2632245, -27.9216467 ], [ -52.2630894, -27.9214095 ], [ -52.2626161, -27.9203684 ], [ -52.2625872, -27.9202839 ], [ -52.2619928, -27.9189888 ] ] ] } },
{ "type": "Feature", "properties": { "name": "Santo Antônio", "code_muni": 4307559.0, "name_muni": "Estação" }, "geometry": { "type": "Polygon", "coordinates": [ [ [ -52.2561997, -27.9164354 ], [ -52.2561776, -27.9164162 ], [ -52.2561486, -27.9163897 ], [ -52.2556499, -27.915946 ], [ -52.2552138, -27.9155588 ], [ -52.2548899, -27.9158589 ], [ -52.2542667, -27.9161825 ], [ -52.254194, -27.9160689 ], [ -52.2536795, -27.9150759 ], [ -52.2533369, -27.9144475 ], [ -52.2530209, -27.9137119 ], [ -52.2525422, -27.9127851 ], [ -52.2535913, -27.9122937 ], [ -52.2531412, -27.9113258 ], [ -52.2529653, -27.9109895 ], [ -52.2511714, -27.9058168 ], [ -52.2507895, -27.9056586 ], [ -52.2503586, -27.9056252 ], [ -52.2495627, -27.9055884 ], [ -52.2491229, -27.9054684 ], [ -52.2485427, -27.9051488 ], [ -52.246932927617586, -27.903636974184412 ], [ -52.240892623, -27.909000487 ], [ -52.239166917, -27.907199810999902 ], [ -52.234052471403707, -27.911549186901478 ], [ -52.2514996, -27.9206512 ], [ -52.2518, -27.9205184 ], [ -52.2521353, -27.9203809 ], [ -52.25252960000001, -27.9201582 ], [ -52.2531062, -27.9197197 ], [ -52.2537232, -27.9191319 ], [ -52.2544862, -27.91846 ], [ -52.2543124, -27.9182774 ], [ -52.2545862, -27.9181356 ], [ -52.2549629, -27.9179348 ], [ -52.2556479, -27.9174986 ], [ -52.2558984, -27.9173497 ], [ -52.2561331, -27.9171719 ], [ -52.256601, -27.9167582 ], [ -52.2561997, -27.9164354 ] ] ] } },
{ "type": "Feature", "properties": { "name": "São Pedro", "code_muni": 4307559.0, "name_muni": "Estação" }, "geometry": { "type": "Polygon", "coordinates": [ [ [ -52.2529653, -27.9109895 ], [ -52.2531412, -27.9113258 ], [ -52.2535913, -27.9122937 ], [ -52.2547153, -27.9118852 ], [ -52.2557269, -27.9115033 ], [ -52.2568461, -27.9110302 ], [ -52.2579613, -27.9105287 ], [ -52.258331, -27.9104014 ], [ -52.2583821, -27.9099738 ], [ -52.2584975, -27.9094334 ], [ -52.2585414, -27.9091509 ], [ -52.2585468, -27.9087869 ], [ -52.2584733, -27.9085493 ], [ -52.2583452, -27.9083292 ], [ -52.2581153, -27.9080217 ], [ -52.2576236, -27.9075269 ], [ -52.2572285, -27.9071823 ], [ -52.2568533, -27.907041799999988 ], [ -52.2561358, -27.9067976 ], [ -52.2554059, -27.9066748 ], [ -52.2550758, -27.906582799999988 ], [ -52.2549264, -27.9065411 ], [ -52.2543675, -27.9062511 ], [ -52.2539405, -27.9061211 ], [ -52.2535963, -27.9061279 ], [ -52.2530292, -27.906231 ], [ -52.2526517, -27.9063062 ], [ -52.2524652, -27.9062999 ], [ -52.2521932, -27.9062553 ], [ -52.2516072, -27.906006 ], [ -52.2511714, -27.9058168 ], [ -52.2529653, -27.9109895 ] ] ] } },
{ "type": "Feature", "properties": { "name": "Florestinha", "code_muni": 4307559.0, "name_muni": "Estação" }, "geometry": { "type": "Polygon", "coordinates": [ [ [ -52.2516072, -27.906006 ], [ -52.2521932, -27.9062553 ], [ -52.2524652, -27.9062999 ], [ -52.2526517, -27.9063062 ], [ -52.2530292, -27.906231 ], [ -52.2535963, -27.9061279 ], [ -52.2539405, -27.9061211 ], [ -52.2543675, -27.9062511 ], [ -52.2549264, -27.9065411 ], [ -52.2550758, -27.906582799999988 ], [ -52.2554059, -27.9066748 ], [ -52.2561358, -27.9067976 ], [ -52.2568533, -27.907041799999988 ], [ -52.2572285, -27.9071823 ], [ -52.2576236, -27.9075269 ], [ -52.2581153, -27.9080217 ], [ -52.2583452, -27.9083292 ], [ -52.2584733, -27.9085493 ], [ -52.2585468, -27.9087869 ], [ -52.2585414, -27.9091509 ], [ -52.2584975, -27.9094334 ], [ -52.2583821, -27.9099738 ], [ -52.258331, -27.9104014 ], [ -52.2590207, -27.910145 ], [ -52.2594915, -27.910966 ], [ -52.2598924, -27.9107129 ], [ -52.2600144, -27.9106359 ], [ -52.2604938, -27.9103027 ], [ -52.2612545, -27.9095781 ], [ -52.2625476, -27.9084805 ], [ -52.2632383, -27.9090877 ], [ -52.2645029, -27.9102037 ], [ -52.2646603, -27.9099317 ], [ -52.2648476, -27.9094183 ], [ -52.2649566, -27.9090336 ], [ -52.2650877, -27.9087697 ], [ -52.2652717, -27.9085098 ], [ -52.26549, -27.9083194 ], [ -52.2658688, -27.9081313 ], [ -52.2661877, -27.9080347 ], [ -52.2665869, -27.9080005 ], [ -52.2669251, -27.9080151 ], [ -52.2671489, -27.9080503 ], [ -52.2675052, -27.9081425 ], [ -52.2685054, -27.9083698 ], [ -52.268947, -27.9084478 ], [ -52.2693604, -27.9084484 ], [ -52.2695468, -27.908427199999988 ], [ -52.2697156, -27.9083828 ], [ -52.26985, -27.908306 ], [ -52.270031, -27.9081854 ], [ -52.2701871, -27.9080506 ], [ -52.2703086, -27.9079093 ], [ -52.2704642, -27.9076474 ], [ -52.2706036, -27.9073867 ], [ -52.2709067, -27.906851 ], [ -52.2711428, -27.9066222 ], [ -52.2712487, -27.9065333 ], [ -52.2716207, -27.9063276 ], [ -52.2718348, -27.9062092 ], [ -52.2722411, -27.9060439 ], [ -52.2726716, -27.9058851 ], [ -52.2729304, -27.9057831 ], [ -52.269001, -27.9007627 ], [ -52.2670055, -27.9024694 ], [ -52.259805827429112, -27.892203832388404 ], [ -52.246932927617586, -27.903636974184412 ], [ -52.2485427, -27.9051488 ], [ -52.2491229, -27.9054684 ], [ -52.2495627, -27.9055884 ], [ -52.2503586, -27.9056252 ], [ -52.2507895, -27.9056586 ], [ -52.2511714, -27.9058168 ], [ -52.2516072, -27.906006 ] ] ] } }
]
}
