{
"type": "FeatureCollection",
"name": "bairros_coxilha",
"crs": { "type": "name", "properties": { "name": "urn:ogc:def:crs:OGC:1.3:CRS84" } },
"features": [
{ "type": "Feature", "properties": { "code_muni": 4305975.0, "name_muni": "Coxilha", "code_state": 43.0, "abbrev_state": "RS", "name_state": "Rio Grande do Sul", "code_region": 4.0, "name_region": "Sul", "year": 2022.0 }, "geometry": { "type": "Polygon", "coordinates": [ [ [ -52.290271818999898, -28.201885827999895 ], [ -52.300337798, -28.198178965999894 ], [ -52.303393793999902, -28.191593492 ], [ -52.314850614, -28.196069678999901 ], [ -52.327825101, -28.1967528929999 ], [ -52.335970872, -28.200632966999891 ], [ -52.353146454, -28.193972714 ], [ -52.361523557999902, -28.191747507999892 ], [ -52.367902308999909, -28.19177768 ], [ -52.374399572999891, -28.186196745 ], [ -52.380471179, -28.185161755 ], [ -52.38288345, -28.186550693999898 ], [ -52.397891348, -28.188719039 ], [ -52.410729809, -28.174876289999897 ], [ -52.41534301, -28.174814262 ], [ -52.416287434, -28.173751621999894 ], [ -52.4208062229999, -28.174982907999897 ], [ -52.440619681, -28.175074582 ], [ -52.448977054999894, -28.171088095 ], [ -52.449238758, -28.172501135999898 ], [ -52.453227359, -28.171886752 ], [ -52.453262744, -28.170488799999898 ], [ -52.45564911, -28.171383604 ], [ -52.458767574, -28.167670235999893 ], [ -52.462021674, -28.168982466999989 ], [ -52.465076175, -28.167589499 ], [ -52.468180322, -28.162848174 ], [ -52.470729416, -28.161533322 ], [ -52.470771129999903, -28.158957196999896 ], [ -52.46800164, -28.158020485 ], [ -52.469233346999907, -28.153321325 ], [ -52.471960436, -28.152289004999894 ], [ -52.475833834999889, -28.156869148999892 ], [ -52.476287777, -28.149835469 ], [ -52.487266065, -28.136893609 ], [ -52.479942003, -28.133244503999901 ], [ -52.484284038999895, -28.128086126 ], [ -52.481701868999892, -28.126906385 ], [ -52.481347249999892, -28.124550488999905 ], [ -52.479254335, -28.126143992 ], [ -52.478680636, -28.125394237 ], [ -52.48149024299989, -28.122999429999886 ], [ -52.485655451999897, -28.123796098 ], [ -52.487260499999898, -28.120211438 ], [ -52.48883237, -28.121115072999903 ], [ -52.492336260999892, -28.116222643 ], [ -52.495104661, -28.116439601999986 ], [ -52.493511096, -28.120007497 ], [ -52.495699128999895, -28.120098619 ], [ -52.49664507099989, -28.118154665 ], [ -52.50027263, -28.118901004999898 ], [ -52.502057119, -28.115565257 ], [ -52.49983979599989, -28.115754011 ], [ -52.499527375, -28.112172014 ], [ -52.503110455999895, -28.111154476 ], [ -52.505000170999892, -28.112534336 ], [ -52.504492485999897, -28.110173819999904 ], [ -52.508558302, -28.109679152999902 ], [ -52.508124384, -28.1082559 ], [ -52.501700221, -28.107019233 ], [ -52.500142454, -28.104832283999887 ], [ -52.4976300659999, -28.104762857 ], [ -52.495616685, -28.106281571999894 ], [ -52.491913191, -28.104712956 ], [ -52.495438777999901, -28.100638461999903 ], [ -52.492492472, -28.095839323999897 ], [ -52.502713421, -28.093882352 ], [ -52.498413289, -28.093285713999901 ], [ -52.503277515, -28.08910708 ], [ -52.501845584, -28.086963522 ], [ -52.498860224999895, -28.0892611209999 ], [ -52.49526738, -28.086510077999897 ], [ -52.499636939, -28.083589807 ], [ -52.500266121, -28.080613125999893 ], [ -52.497953336, -28.077436842999902 ], [ -52.499784470999899, -28.076950854 ], [ -52.49867581, -28.075228197999898 ], [ -52.496419434, -28.074833332 ], [ -52.495026556, -28.070889013999899 ], [ -52.49628275, -28.069679466 ], [ -52.49212798, -28.067119347 ], [ -52.496827316999898, -28.062751958 ], [ -52.50091049, -28.061317857999899 ], [ -52.502381473, -28.055791906 ], [ -52.507848845999902, -28.06002695 ], [ -52.50928837, -28.062704227 ], [ -52.513562467, -28.062083723999894 ], [ -52.514187612999898, -28.059266899 ], [ -52.512621603, -28.054385012999905 ], [ -52.514044855, -28.050872304999896 ], [ -52.508697925, -28.048445421999901 ], [ -52.503294758, -28.048298337999888 ], [ -52.502715074, -28.045754653 ], [ -52.499634966, -28.0457200449999 ], [ -52.509509049, -28.036649515 ], [ -52.504069111, -28.034387019999901 ], [ -52.498254737, -28.038035028 ], [ -52.493618094999903, -28.035241624 ], [ -52.493251432, -28.036738844999903 ], [ -52.490662937, -28.03681419 ], [ -52.489176355, -28.04079003 ], [ -52.489439145999903, -28.041927869999896 ], [ -52.490643462, -28.04141513 ], [ -52.492277387999891, -28.042697033 ], [ -52.492038110999893, -28.04468373 ], [ -52.490833081999902, -28.047066705 ], [ -52.489495518, -28.046774131999904 ], [ -52.487768710999902, -28.0487119749999 ], [ -52.489550837, -28.051040273999899 ], [ -52.484356151, -28.056028970999908 ], [ -52.488532994, -28.057266784 ], [ -52.488324975, -28.061082536999901 ], [ -52.483935097, -28.060371944999893 ], [ -52.481538668, -28.062591903999902 ], [ -52.479699712999896, -28.060108602 ], [ -52.477632174, -28.059991872999898 ], [ -52.473496915999903, -28.062939406999899 ], [ -52.477006238999891, -28.065568531999897 ], [ -52.47405004, -28.070016839999894 ], [ -52.478799205, -28.072906895 ], [ -52.476643903, -28.07250318 ], [ -52.477349655, -28.073681135999902 ], [ -52.475812315, -28.074042091 ], [ -52.47489461, -28.077425897999895 ], [ -52.47176266, -28.078158822 ], [ -52.469350456, -28.077210825 ], [ -52.470352835, -28.074828518999897 ], [ -52.468696311, -28.074407682 ], [ -52.468504633999899, -28.072642689 ], [ -52.464073793999894, -28.073213892 ], [ -52.462263305, -28.0717483399999 ], [ -52.460665967999901, -28.073818076 ], [ -52.46249626, -28.073751074 ], [ -52.462087422, -28.075024878 ], [ -52.456303223, -28.074316713 ], [ -52.457273034, -28.076652517999896 ], [ -52.456353458, -28.07799003 ], [ -52.449369541, -28.082523228999889 ], [ -52.449234158, -28.080544137999894 ], [ -52.451249140999899, -28.0796692239999 ], [ -52.449811309, -28.078260943 ], [ -52.450619702, -28.077019656999902 ], [ -52.442809414, -28.072593649999899 ], [ -52.44333535, -28.068575927 ], [ -52.441993877, -28.070730436 ], [ -52.440050288999892, -28.070472901999899 ], [ -52.435820087, -28.076221218999894 ], [ -52.433295964, -28.075717896999894 ], [ -52.432912674, -28.077239991999907 ], [ -52.430872725, -28.075135389 ], [ -52.431263051, -28.071800020999898 ], [ -52.429235734, -28.069605323 ], [ -52.417676273, -28.074800793999906 ], [ -52.417046179, -28.073571999 ], [ -52.404991391999907, -28.074966163999907 ], [ -52.404475138, -28.07740322 ], [ -52.400911155, -28.077869669999906 ], [ -52.397571348, -28.088385091 ], [ -52.388936902999895, -28.0902471049999 ], [ -52.386728591, -28.085288175 ], [ -52.381911117, -28.081243942999908 ], [ -52.382163424999902, -28.070723261 ], [ -52.379596321999898, -28.067616637 ], [ -52.380010109999894, -28.063227110999897 ], [ -52.377321335, -28.059566893 ], [ -52.37816373, -28.053666807 ], [ -52.375241983, -28.044884956 ], [ -52.378841708, -28.036950579999907 ], [ -52.377030227, -28.019194517 ], [ -52.373148444, -28.020153643999901 ], [ -52.36891972, -28.027661828 ], [ -52.362055155, -28.024893571 ], [ -52.360003721999902, -28.026851149 ], [ -52.359163371, -28.023988501 ], [ -52.357212000999894, -28.024712178999895 ], [ -52.355705902999894, -28.023303949 ], [ -52.356184898, -28.02711858 ], [ -52.35319479799989, -28.028261905 ], [ -52.353413003999897, -28.032433376 ], [ -52.351843641999899, -28.031502487 ], [ -52.351193004, -28.032752285999887 ], [ -52.349247861, -28.03172123 ], [ -52.347364075, -28.032600744 ], [ -52.3448429379999, -28.028936534 ], [ -52.342422086999903, -28.030949832 ], [ -52.342322583999902, -28.029943634999885 ], [ -52.336930548999895, -28.02913332 ], [ -52.331941814999901, -28.031720675 ], [ -52.326357872, -28.028851620999902 ], [ -52.323522613, -28.032316496 ], [ -52.319896769, -28.032843277 ], [ -52.316892153, -28.036386224 ], [ -52.318084811999903, -28.038372914999989 ], [ -52.315842585, -28.041539945 ], [ -52.314438927, -28.049693440999896 ], [ -52.311067369999897, -28.049269524999897 ], [ -52.307893443, -28.051362227 ], [ -52.297451918, -28.062504519 ], [ -52.296532994, -28.070067455 ], [ -52.300204685, -28.072920403 ], [ -52.296016903, -28.075950188 ], [ -52.2892489, -28.077221929 ], [ -52.283535561, -28.073394144 ], [ -52.277882707999893, -28.072815461999898 ], [ -52.271037104999891, -28.067875983 ], [ -52.259222133, -28.071596837999895 ], [ -52.254451482, -28.069577764 ], [ -52.251216089, -28.064364724 ], [ -52.247552030999906, -28.06351964 ], [ -52.241446329, -28.072923787 ], [ -52.244515206, -28.0821042429999 ], [ -52.240691164999895, -28.079242482 ], [ -52.224638166, -28.074095848 ], [ -52.21560339, -28.063737036 ], [ -52.213947586, -28.064693404 ], [ -52.20814368, -28.06345498 ], [ -52.201889724999894, -28.064263626999896 ], [ -52.197360763999903, -28.067228126 ], [ -52.190043596999899, -28.066927104999898 ], [ -52.186588206999893, -28.064946504 ], [ -52.181553516, -28.067948891999905 ], [ -52.178436324, -28.067759635 ], [ -52.174311667, -28.064275069 ], [ -52.169974822, -28.065463151999904 ], [ -52.169342289, -28.069107329 ], [ -52.164583837999892, -28.073594902 ], [ -52.172524719, -28.079147701999897 ], [ -52.1705863729999, -28.086589466 ], [ -52.173099674, -28.088219654999893 ], [ -52.180819186999898, -28.085985736999898 ], [ -52.183385285999989, -28.089504541999908 ], [ -52.187091472, -28.089925209999901 ], [ -52.183768199, -28.09480585099989 ], [ -52.180726786, -28.09593018 ], [ -52.176171305, -28.095411449 ], [ -52.172466653, -28.104499517 ], [ -52.176876856, -28.10412157 ], [ -52.178596635, -28.107869176 ], [ -52.184961949, -28.109193017999903 ], [ -52.186911963999904, -28.107140360999896 ], [ -52.188717132, -28.107707268999906 ], [ -52.188293191, -28.111009677 ], [ -52.183400042999892, -28.111342798 ], [ -52.177177505, -28.116495132999905 ], [ -52.177067404999896, -28.122341062 ], [ -52.173246395, -28.124846761 ], [ -52.173887279, -28.126252641999908 ], [ -52.17591064, -28.124829900999902 ], [ -52.179081455999892, -28.126400189 ], [ -52.182664933999895, -28.132176041 ], [ -52.176115476999897, -28.136597751999904 ], [ -52.175533695999903, -28.14359387 ], [ -52.171485198, -28.147095976999907 ], [ -52.174600456, -28.14807387 ], [ -52.174728528999907, -28.146525779999898 ], [ -52.17858244, -28.146693414 ], [ -52.180065216999893, -28.148117668999898 ], [ -52.18211504899989, -28.14749897 ], [ -52.184862447999897, -28.148681941999897 ], [ -52.189413652, -28.146745795 ], [ -52.189218567999895, -28.152046644999903 ], [ -52.18783483499989, -28.155431963999888 ], [ -52.185175613, -28.157219008 ], [ -52.186769672, -28.158518377 ], [ -52.186117317, -28.163569591999902 ], [ -52.187795191, -28.164070804999902 ], [ -52.188007587999891, -28.166876422 ], [ -52.191338559, -28.169904564 ], [ -52.190428020999903, -28.173360192 ], [ -52.193912993, -28.175299679 ], [ -52.201184559, -28.175254353999904 ], [ -52.202645921999903, -28.174048087999896 ], [ -52.204036169999902, -28.176625293 ], [ -52.205805295999902, -28.174421294999899 ], [ -52.208504398999892, -28.17370203 ], [ -52.210752768, -28.175436246999901 ], [ -52.213109452, -28.172242437 ], [ -52.215129297, -28.172392636 ], [ -52.216521429, -28.17047199 ], [ -52.222482708, -28.172585284 ], [ -52.224924276, -28.171024947 ], [ -52.226846248999891, -28.173590426 ], [ -52.231546884999901, -28.172663639999897 ], [ -52.234907236, -28.179278908 ], [ -52.240242534999908, -28.181829241999893 ], [ -52.240363158, -28.1848463339999 ], [ -52.244737175, -28.185226852 ], [ -52.246724931, -28.187794274999895 ], [ -52.2494793279999, -28.187655392 ], [ -52.251088253, -28.189337377 ], [ -52.248770051, -28.190615995 ], [ -52.249242159999895, -28.193573673999907 ], [ -52.258526912, -28.197924085999908 ], [ -52.267442178, -28.208099182 ], [ -52.271352383999989, -28.224275212 ], [ -52.276447221, -28.226649365 ], [ -52.277155434, -28.228314353 ], [ -52.289320436, -28.231281112 ], [ -52.287240202, -28.2271062629999 ], [ -52.287927527, -28.220046797999899 ], [ -52.286669832, -28.214141148 ], [ -52.28850862, -28.204052331999904 ], [ -52.290271818999898, -28.201885827999895 ] ] ] } }
]
}
