{
"type": "FeatureCollection",
"name": "bairros_sete_de_setembro",
"crs": { "type": "name", "properties": { "name": "urn:ogc:def:crs:OGC:1.3:CRS84" } },
"features": [
{ "type": "Feature", "properties": { "code_muni": 4320578.0, "name_muni": "Sete de Setembro", "code_state": 43.0, "abbrev_state": "RS", "name_state": "Rio Grande do Sul", "code_region": 4.0, "name_region": "Sul", "year": 2022.0 }, "geometry": { "type": "Polygon", "coordinates": [ [ [ -54.491556984999903, -28.124337553 ], [ -54.4933186069999, -28.123328683999894 ], [ -54.496337516, -28.127416619 ], [ -54.497469887, -28.124293925 ], [ -54.502338546, -28.11932307 ], [ -54.501839608999894, -28.115260588 ], [ -54.506828519, -28.11246815 ], [ -54.509286357999891, -28.116265793 ], [ -54.518354828, -28.122376268 ], [ -54.517908201, -28.129058816999898 ], [ -54.523948801, -28.123880932 ], [ -54.529077271999903, -28.126253050999896 ], [ -54.529196753, -28.129522607 ], [ -54.531477020999901, -28.130071902999905 ], [ -54.53335165499989, -28.126839913 ], [ -54.541510618, -28.124683118999904 ], [ -54.540770149, -28.117225528999899 ], [ -54.544881172, -28.114726077999904 ], [ -54.53236465, -28.114226349 ], [ -54.531444200999893, -28.099909036999989 ], [ -54.52801937999989, -28.092709495 ], [ -54.522284863, -28.091451459 ], [ -54.51560623599989, -28.092925319999903 ], [ -54.515455112, -28.095853925 ], [ -54.51003874, -28.10077147 ], [ -54.494139843, -28.098868062999902 ], [ -54.490287802, -28.09650835 ], [ -54.48856448, -28.090931282999989 ], [ -54.4855485739999, -28.088010912999895 ], [ -54.482335947, -28.085869586999902 ], [ -54.474626685, -28.085162598 ], [ -54.464540235999905, -28.077286764999904 ], [ -54.455743598, -28.074675108 ], [ -54.450335375999892, -28.074448045999894 ], [ -54.443237939, -28.071442143 ], [ -54.427716180999901, -28.069870079999905 ], [ -54.4245728, -28.075491008 ], [ -54.429100225999903, -28.084877087999896 ], [ -54.42736117, -28.093614542 ], [ -54.411197038999894, -28.102174949 ], [ -54.412299133, -28.107391581999895 ], [ -54.415997032999897, -28.112030542999904 ], [ -54.396142751999896, -28.128763924999902 ], [ -54.399416865, -28.129402875 ], [ -54.398484587, -28.135432868999896 ], [ -54.403806324, -28.139429831 ], [ -54.406335784, -28.138194297 ], [ -54.407198238, -28.135772005 ], [ -54.412339620999902, -28.135006412999903 ], [ -54.410625507, -28.193103945 ], [ -54.451208697, -28.194260202999899 ], [ -54.450977499, -28.225600723 ], [ -54.459583264999893, -28.2272571949999 ], [ -54.462707614, -28.226753763 ], [ -54.467385043, -28.2298604879999 ], [ -54.478766433, -28.232555036 ], [ -54.481101571999901, -28.235250599 ], [ -54.4803718269999, -28.237316093999894 ], [ -54.481532302999902, -28.239302328 ], [ -54.48470851, -28.23962046 ], [ -54.486216162999895, -28.241222665999899 ], [ -54.487353143, -28.245976503 ], [ -54.492439563999902, -28.243547061999902 ], [ -54.491556984999903, -28.124337553 ] ] ] } }
]
}
