{
"type": "FeatureCollection",
"name": "bairros_sao_francisco_de_paula",
"crs": { "type": "name", "properties": { "name": "urn:ogc:def:crs:OGC:1.3:CRS84" } },
"features": [
{ "type": "Feature", "properties": { "name": "Sede Distrital de Tainhas", "code_muni": 4318200.0, "name_muni": "São Francisco de Paula" }, "geometry": { "type": "Polygon", "coordinates": [ [ [ -50.336497, -29.282418 ], [ -50.3359828, -29.2815441 ], [ -50.3351976, -29.2804724 ], [ -50.3344125, -29.2795051 ], [ -50.3338251, -29.278883 ], [ -50.3331419, -29.278308 ], [ -50.3311879, -29.27692260000001 ], [ -50.3304567, -29.2762377 ], [ -50.3299072, -29.2756456 ], [ -50.3290757, -29.2745647 ], [ -50.3284695, -29.2735633 ], [ -50.326893, -29.269946 ], [ -50.3268646, -29.2698811 ], [ -50.3267502, -29.2695479 ], [ -50.3267242, -29.269482299999986 ], [ -50.3250533, -29.265279 ], [ -50.3249448, -29.2650038 ], [ -50.3247022, -29.2649647 ], [ -50.3243964, -29.2648524 ], [ -50.3240514, -29.264667 ], [ -50.3221939, -29.263553 ], [ -50.32199, -29.2634093 ], [ -50.3211112, -29.2628844 ], [ -50.3208076, -29.262709399999984 ], [ -50.3203122, -29.2624182 ], [ -50.3202301, -29.2623741 ], [ -50.3200253, -29.2622884 ], [ -50.3197813, -29.2622089 ], [ -50.3195023, -29.2621398 ], [ -50.3190396, -29.2620381 ], [ -50.3186682, -29.2619808 ], [ -50.3157278, -29.2613587 ], [ -50.3155848, -29.2623176 ], [ -50.315533114410748, -29.262449863881926 ], [ -50.314981505363669, -29.26619334944764 ], [ -50.315061, -29.266763600000012 ], [ -50.3148911, -29.268048 ], [ -50.314976, -29.2686531 ], [ -50.3146787, -29.2690359 ], [ -50.3135179, -29.2694188 ], [ -50.313164, -29.2694064 ], [ -50.3124137, -29.2690606 ], [ -50.3119748, -29.2690359 ], [ -50.3108706, -29.2690236 ], [ -50.310136518170467, -29.268592730212358 ], [ -50.309311959999903, -29.2685422019999 ], [ -50.308701854687406, -29.270834981669903 ], [ -50.3087046, -29.2708389 ], [ -50.3090019, -29.2709871 ], [ -50.3090443, -29.2712958 ], [ -50.3087187, -29.2715922 ], [ -50.3080534, -29.271654 ], [ -50.307581, -29.2716046 ], [ -50.3079584, -29.2723394 ], [ -50.3087248, -29.2740186 ], [ -50.3092526, -29.2748109 ], [ -50.309604, -29.275289 ], [ -50.306416, -29.279045 ], [ -50.3082418, -29.2798823 ], [ -50.31002, -29.280689 ], [ -50.311777, -29.278314 ], [ -50.3123343, -29.2793133 ], [ -50.3123669, -29.279357 ], [ -50.3136504, -29.279595 ], [ -50.3140585, -29.2798289 ], [ -50.3152244, -29.280952699999986 ], [ -50.3156499, -29.2810976 ], [ -50.3168301, -29.2810415 ], [ -50.3173552, -29.2812834 ], [ -50.318011, -29.2816951 ], [ -50.3195967, -29.282137399999986 ], [ -50.3211649, -29.2824323 ], [ -50.3216721, -29.283052699999988 ], [ -50.3224091, -29.2835867 ], [ -50.3235034, -29.2836429 ], [ -50.3248982, -29.2841857 ], [ -50.3256921, -29.2846535 ], [ -50.3262071, -29.2850466 ], [ -50.326765, -29.2853835 ], [ -50.3272395, -29.2855308 ], [ -50.3277619, -29.2855807 ], [ -50.3281928, -29.2855562 ], [ -50.3289424, -29.2854356 ], [ -50.3292655, -29.2854569 ], [ -50.3294663, -29.2855055 ], [ -50.3296628, -29.2856007 ], [ -50.3298484, -29.285651399999988 ], [ -50.3300231, -29.285661 ], [ -50.331723, -29.2843134 ], [ -50.336497, -29.282418 ] ] ] } },
{ "type": "Feature", "properties": { "name": "Núcleo Urbano da Recosta", "code_muni": 4318200.0, "name_muni": "São Francisco de Paula" }, "geometry": { "type": "Polygon", "coordinates": [ [ [ -50.6535204, -29.4715867 ], [ -50.6534272, -29.472414 ], [ -50.653396, -29.472691 ], [ -50.6535705, -29.472704200000013 ], [ -50.654966, -29.4728098 ], [ -50.6553983, -29.4729237 ], [ -50.6558829, -29.472954 ], [ -50.656354, -29.4728457 ], [ -50.656676, -29.472811599999989 ], [ -50.6572323, -29.472752699999987 ], [ -50.6581636, -29.472874 ], [ -50.6592505, -29.4732039 ], [ -50.6593357, -29.4732298 ], [ -50.659757, -29.4732384 ], [ -50.6603381, -29.4732504 ], [ -50.6604127, -29.4732519 ], [ -50.6615062, -29.4731387 ], [ -50.6622784, -29.4730588 ], [ -50.6641405, -29.4730731 ], [ -50.6646558, -29.4730146 ], [ -50.665059, -29.4728293 ], [ -50.6654399, -29.4723124 ], [ -50.6654431, -29.4722326 ], [ -50.665445, -29.472184500000012 ], [ -50.6654469, -29.4721363 ], [ -50.6654623, -29.471746799999984 ], [ -50.665292, -29.471302 ], [ -50.668202, -29.470605 ], [ -50.6679351, -29.469562599999989 ], [ -50.6677698, -29.4689172 ], [ -50.6677235, -29.468831399999985 ], [ -50.6636158, -29.4656146 ], [ -50.660777, -29.465079 ], [ -50.656677, -29.466762 ], [ -50.6565107, -29.466837300000012 ], [ -50.6564242, -29.4669184 ], [ -50.656158, -29.4670574 ], [ -50.656005, -29.4672544 ], [ -50.6558519, -29.4674688 ], [ -50.6556922, -29.4676078 ], [ -50.6555126, -29.4676542 ], [ -50.6553795, -29.4677468 ], [ -50.6550734, -29.467833700000011 ], [ -50.6548489, -29.46804920000001 ], [ -50.6546491, -29.4681157 ], [ -50.6545257, -29.4682078 ], [ -50.6544963, -29.4683715 ], [ -50.6545021, -29.468658 ], [ -50.6543905, -29.4689036 ], [ -50.6541731, -29.468965 ], [ -50.6540203, -29.4690315 ], [ -50.6538499, -29.4692719 ], [ -50.6537852, -29.469451 ], [ -50.6536853, -29.46963010000001 ], [ -50.6534855, -29.4697887 ], [ -50.6533797, -29.4700291 ], [ -50.6531917, -29.4701008 ], [ -50.6530565, -29.4702901 ], [ -50.652986, -29.470551 ], [ -50.652845, -29.4707301 ], [ -50.6528567, -29.470817 ], [ -50.6530154, -29.4708989 ], [ -50.6532916, -29.4710115 ], [ -50.6534385, -29.4711496 ], [ -50.653524, -29.4714771 ], [ -50.6535204, -29.4715867 ] ] ] } },
{ "type": "Feature", "properties": { "name": "Núcleo Urbano do Apanhador", "code_muni": 4318200.0, "name_muni": "São Francisco de Paula" }, "geometry": { "type": "Polygon", "coordinates": [ [ [ -50.908266096310754, -29.07495857017275 ], [ -50.904637777999902, -29.073684387999904 ], [ -50.904513042964481, -29.073571054167271 ], [ -50.9043722, -29.0734764 ], [ -50.904191229157561, -29.073278653540822 ], [ -50.904167224833046, -29.07325684306927 ], [ -50.9039497, -29.0731001 ], [ -50.9037016, -29.073011 ], [ -50.9031706, -29.072587899999984 ], [ -50.9030042, -29.0724882 ], [ -50.9027239, -29.0722281 ], [ -50.9026609, -29.0721061 ], [ -50.902591749771972, -29.071825327516958 ], [ -50.900225686999903, -29.069675355 ], [ -50.899234322536181, -29.069287464110797 ], [ -50.8990936, -29.069256 ], [ -50.8986698, -29.0691441 ], [ -50.8985712, -29.0691092 ], [ -50.8985183, -29.0690708 ], [ -50.8970131, -29.0684208 ], [ -50.897006253581431, -29.068415650848365 ], [ -50.892591281, -29.066687978999898 ], [ -50.887569441558092, -29.066886503676539 ], [ -50.8866415, -29.0672376 ], [ -50.8858715, -29.0673928 ], [ -50.884321, -29.067622299999989 ], [ -50.8831172, -29.067649 ], [ -50.8828707, -29.0678603 ], [ -50.8824782, -29.0681858 ], [ -50.8823133, -29.0684045 ], [ -50.8821719, -29.0686687 ], [ -50.8820017, -29.0689742 ], [ -50.8819933, -29.068992500000011 ], [ -50.8817596, -29.0695118 ], [ -50.8815143, -29.0701683 ], [ -50.8807969, -29.0713712 ], [ -50.8804001, -29.0718205 ], [ -50.879948, -29.0721413 ], [ -50.8797682, -29.072241 ], [ -50.8793646, -29.0724648 ], [ -50.878623, -29.0731962 ], [ -50.8784352, -29.0734318 ], [ -50.8778465, -29.0744938 ], [ -50.8770914, -29.0757866 ], [ -50.8766529, -29.0764289 ], [ -50.8764171, -29.0766989 ], [ -50.8756846, -29.0774099 ], [ -50.8755693, -29.0775389 ], [ -50.8750476, -29.0781788 ], [ -50.8746077, -29.0788703 ], [ -50.8741082, -29.0796518 ], [ -50.8738004, -29.0801479 ], [ -50.8735831, -29.0804186 ], [ -50.8731915, -29.0807901 ], [ -50.8730534, -29.0809847 ], [ -50.8729622, -29.0811851 ], [ -50.8726336, -29.0819106 ], [ -50.8721696, -29.0826478 ], [ -50.8718584, -29.0831858 ], [ -50.871554, -29.083661599999989 ], [ -50.8714662, -29.0838093 ], [ -50.8714226, -29.0837061 ], [ -50.8713649, -29.0835561 ], [ -50.8712576, -29.0833733 ], [ -50.8706702, -29.0827556 ], [ -50.8701727, -29.0822247 ], [ -50.8697301, -29.0818731 ], [ -50.8693506, -29.0815977 ], [ -50.8684292, -29.0809859 ], [ -50.868153, -29.0806706 ], [ -50.86793440000001, -29.0802873 ], [ -50.8677775, -29.0795689 ], [ -50.8677265, -29.079406 ], [ -50.8676541, -29.0791786 ], [ -50.8674811, -29.0787578 ], [ -50.8674261, -29.0784624 ], [ -50.8674556, -29.0781554 ], [ -50.8676367, -29.0778084 ], [ -50.867866, -29.077476099999984 ], [ -50.8679599, -29.0772787 ], [ -50.8679954, -29.0770291 ], [ -50.8679522, -29.0766683 ], [ -50.8678351, -29.0764078 ], [ -50.8676474, -29.0761792 ], [ -50.8672313, -29.0758497 ], [ -50.8668789, -29.0756295 ], [ -50.8664954, -29.0754654 ], [ -50.8663344, -29.075391 ], [ -50.856203, -29.07849 ], [ -50.8587049, -29.089863 ], [ -50.8612202, -29.101295 ], [ -50.8612308, -29.1012932 ], [ -50.862104, -29.10108 ], [ -50.862796, -29.1008973 ], [ -50.8635309, -29.1006512 ], [ -50.8636894, -29.1005864 ], [ -50.8660321, -29.0996282 ], [ -50.866541, -29.0994389 ], [ -50.8671345, -29.099276599999989 ], [ -50.8677326, -29.0991478 ], [ -50.8721933, -29.0985527 ], [ -50.8723095, -29.0985366 ], [ -50.8728911, -29.0984557 ], [ -50.8745666, -29.0982294 ], [ -50.8773177, -29.0978711 ], [ -50.8948359, -29.0955898 ], [ -50.8959143, -29.0954444 ], [ -50.8965445, -29.095335 ], [ -50.8971696, -29.0951819 ], [ -50.8981726, -29.0948867 ], [ -50.8997587, -29.0942585 ], [ -50.9000072, -29.09416 ], [ -50.9012733, -29.0936774 ], [ -50.9020317, -29.0933966 ], [ -50.902527395258566, -29.093213006367193 ], [ -50.902470632745697, -29.090337875958074 ], [ -50.9024706, -29.0903373 ], [ -50.902470621061099, -29.090337284095202 ], [ -50.902470621, -29.090337281 ], [ -50.908966173, -29.0835469969999 ], [ -50.90896628993724, -29.083546931494119 ], [ -50.9084746, -29.0753127 ], [ -50.908266096310754, -29.07495857017275 ] ] ] } },
{ "type": "Feature", "properties": { "name": "Sede Distrital de Lajeado Grande", "code_muni": 4318200.0, "name_muni": "São Francisco de Paula" }, "geometry": { "type": "Polygon", "coordinates": [ [ [ -50.6509475, -29.0903529 ], [ -50.6500731, -29.0905552 ], [ -50.6495581, -29.0907052 ], [ -50.6487481, -29.090991 ], [ -50.6474767, -29.091520800000012 ], [ -50.6463931, -29.0919989 ], [ -50.6455561, -29.0922849 ], [ -50.6447461, -29.092509 ], [ -50.6422303, -29.0931521 ], [ -50.6397305, -29.0937615 ], [ -50.639269, -29.0939349 ], [ -50.6386843, -29.0942115 ], [ -50.6377403, -29.0947271 ], [ -50.6369623, -29.0952147 ], [ -50.6361523, -29.095603699999987 ], [ -50.6351335, -29.0959589 ], [ -50.6316221, -29.097191099999989 ], [ -50.6313814, -29.0966302 ], [ -50.6309993, -29.09591940000001 ], [ -50.6308712, -29.0957816 ], [ -50.6308307, -29.0957559 ], [ -50.63076, -29.0957308 ], [ -50.63063, -29.0957088 ], [ -50.6305863, -29.0957121 ], [ -50.6305378, -29.0957229 ], [ -50.6302857, -29.0958265 ], [ -50.6302352, -29.0958424 ], [ -50.6301991, -29.095842900000012 ], [ -50.6301508, -29.0958354 ], [ -50.6297361, -29.0957405 ], [ -50.6288199, -29.0955659 ], [ -50.6287703, -29.0955467 ], [ -50.628449, -29.0953608 ], [ -50.6284097, -29.0953212 ], [ -50.6282757, -29.0950579 ], [ -50.6282587, -29.0950103 ], [ -50.6281028, -29.0944983 ], [ -50.628095, -29.0944671 ], [ -50.6280155, -29.0939399 ], [ -50.6280073, -29.0939018 ], [ -50.6279667, -29.0937336 ], [ -50.6279537, -29.0937045 ], [ -50.62793, -29.0936716 ], [ -50.6282435, -29.093267 ], [ -50.6285424, -29.0921571 ], [ -50.628916, -29.0911613 ], [ -50.6298442, -29.0903209 ], [ -50.6305225, -29.0895127 ], [ -50.6307279, -29.088076099999988 ], [ -50.6306906, -29.0870477 ], [ -50.6301256, -29.0859134 ], [ -50.6296632, -29.0853173 ], [ -50.6290281, -29.0838644 ], [ -50.6291797, -29.0828123 ], [ -50.6296298, -29.0822535 ], [ -50.6300851, -29.0819333 ], [ -50.6307103, -29.0817082 ], [ -50.6316397, -29.0817769 ], [ -50.6326469, -29.0816239 ], [ -50.6332226, -29.0812898 ], [ -50.6340752, -29.0808767 ], [ -50.6345777, -29.0801351 ], [ -50.6345761, -29.0793224 ], [ -50.6347971, -29.0786228 ], [ -50.6329759, -29.0778593 ], [ -50.632755, -29.078559 ], [ -50.6327566, -29.079371699999989 ], [ -50.6322541, -29.0801133 ], [ -50.6314015, -29.0805264 ], [ -50.6308258, -29.0808605 ], [ -50.6298186, -29.081013500000012 ], [ -50.6288892, -29.080944800000012 ], [ -50.628264, -29.0811699 ], [ -50.62780870000001, -29.0814901 ], [ -50.6273586, -29.0820489 ], [ -50.627207, -29.083101 ], [ -50.6278421, -29.0845539 ], [ -50.6283045, -29.08515 ], [ -50.6288695, -29.0862843 ], [ -50.6289068, -29.0873127 ], [ -50.6287014, -29.0887493 ], [ -50.6280231, -29.0895575 ], [ -50.6270949, -29.0903979 ], [ -50.6267213, -29.091393700000012 ], [ -50.6264224, -29.0925037 ], [ -50.6260268, -29.093014100000012 ], [ -50.6251895, -29.0933525 ], [ -50.6251489, -29.0933564 ], [ -50.6236578, -29.0932219 ], [ -50.6218055, -29.0927102 ], [ -50.619791, -29.091736499999985 ], [ -50.6189878, -29.0906918 ], [ -50.6184274, -29.0895328 ], [ -50.6182032, -29.08919 ], [ -50.6178296, -29.0891247 ], [ -50.6163913, -29.0893043 ], [ -50.6158598, -29.089203299999987 ], [ -50.624899, -29.098972 ], [ -50.6247256, -29.0992426 ], [ -50.6243945, -29.0994772 ], [ -50.6226728, -29.0997976 ], [ -50.6220988, -29.0999007 ], [ -50.6216375, -29.100074200000012 ], [ -50.6209079, -29.1004632 ], [ -50.620409, -29.100721 ], [ -50.6200442, -29.1008382 ], [ -50.6196258, -29.1008569 ], [ -50.6193254, -29.1008616 ], [ -50.6175176, -29.1006366 ], [ -50.6162301, -29.1004866 ], [ -50.6144331, -29.1004444 ], [ -50.6135801, -29.1004913 ], [ -50.6116275, -29.1007632 ], [ -50.6090043, -29.1011147 ], [ -50.60737, -29.101429 ], [ -50.6083037, -29.1052718 ], [ -50.609184, -29.108895 ], [ -50.6108157, -29.1085824 ], [ -50.6134389, -29.1082309 ], [ -50.6153915, -29.1079591 ], [ -50.6162445, -29.1079122 ], [ -50.6180415, -29.1079544 ], [ -50.619329, -29.1081044 ], [ -50.6211368, -29.1083293 ], [ -50.6214372, -29.1083246 ], [ -50.6218556, -29.1083059 ], [ -50.6222204, -29.1081887 ], [ -50.6227193, -29.107931 ], [ -50.6234489, -29.107542 ], [ -50.6239102, -29.1073685 ], [ -50.6244842, -29.1072654 ], [ -50.6262438, -29.106992799999986 ], [ -50.6266675, -29.1068576 ], [ -50.6270377, -29.1066748 ], [ -50.6298289, -29.1049723 ], [ -50.630622, -29.104891 ], [ -50.635052, -29.109247 ], [ -50.643502, -29.105284 ], [ -50.641412, -29.101815 ], [ -50.6433869, -29.1012025 ], [ -50.6459027, -29.1005595 ], [ -50.6467127, -29.1003354 ], [ -50.6475497, -29.1000494 ], [ -50.6486333, -29.0995713 ], [ -50.6499047, -29.099041599999989 ], [ -50.6507147, -29.0987558 ], [ -50.6512297, -29.098605800000012 ], [ -50.6521041, -29.0984035 ], [ -50.652553, -29.098335 ], [ -50.6519799, -29.0945086 ], [ -50.6513963, -29.0902852 ], [ -50.6509475, -29.0903529 ] ] ] } },
{ "type": "Feature", "properties": { "name": "Sede Distrital de Cazuza Ferreira", "code_muni": 4318200.0, "name_muni": "São Francisco de Paula" }, "geometry": { "type": "Polygon", "coordinates": [ [ [ -50.663861, -28.933888 ], [ -50.6582283, -28.9289882 ], [ -50.651213, -28.924169 ], [ -50.64962340000001, -28.9248104 ], [ -50.643763, -28.927701 ], [ -50.6436772, -28.929095 ], [ -50.651971, -28.935239 ], [ -50.6553315, -28.9386581 ], [ -50.655563, -28.9386463 ], [ -50.6557602, -28.9386009 ], [ -50.6560716, -28.9387281 ], [ -50.6567047, -28.938937 ], [ -50.6573171, -28.939146 ], [ -50.6578776, -28.9393367 ], [ -50.6580749, -28.9393185 ], [ -50.6582513, -28.939255 ], [ -50.6585938, -28.9389552 ], [ -50.6588949, -28.9384556 ], [ -50.659445, -28.9377652 ], [ -50.660047, -28.9372747 ], [ -50.6607714, -28.93667 ], [ -50.663861, -28.933888 ] ] ] } },
{ "type": "Feature", "properties": { "name": "Sede Distrital de Eletra", "code_muni": 4318200.0, "name_muni": "São Francisco de Paula" }, "geometry": { "type": "Polygon", "coordinates": [ [ [ -50.6793848, -29.3332876 ], [ -50.684369670260551, -29.328827772514018 ], [ -50.686347035, -29.325851493999892 ], [ -50.689929313589936, -29.323853026336224 ], [ -50.692, -29.322 ], [ -50.693109077629629, -29.322736172249222 ], [ -50.695784676, -29.322727815 ], [ -50.69799710394917, -29.323812797257276 ], [ -50.699424, -29.321978 ], [ -50.680444, -29.3068477 ], [ -50.6737964, -29.2981211 ], [ -50.6656421, -29.2980991 ], [ -50.6707485, -29.3142619 ], [ -50.6713661, -29.3140377 ], [ -50.6715163, -29.3139324 ], [ -50.6716102, -29.3138178 ], [ -50.6717953, -29.3137664 ], [ -50.6721413, -29.3137056 ], [ -50.6721976, -29.3135512 ], [ -50.6724092, -29.3134066 ], [ -50.6724792, -29.3131454 ], [ -50.6724752, -29.3130531 ], [ -50.672443, -29.3129279 ], [ -50.6723679, -29.3128531 ], [ -50.6725181, -29.3128636 ], [ -50.6726335, -29.3128613 ], [ -50.6728038, -29.3127619 ], [ -50.6729627, -29.3125432 ], [ -50.6730217, -29.3124152 ], [ -50.6730002, -29.3122807 ], [ -50.673019, -29.3122573 ], [ -50.6730908, -29.312226299999988 ], [ -50.6731344, -29.3121807 ], [ -50.6733623, -29.311797099999989 ], [ -50.6735437, -29.3115998 ], [ -50.6736225, -29.3114054 ], [ -50.6736453, -29.3112276 ], [ -50.6736869, -29.3111142 ], [ -50.6737379, -29.311244 ], [ -50.6738076, -29.3113446 ], [ -50.6738304, -29.3115024 ], [ -50.6738827, -29.3115995 ], [ -50.6739512, -29.3117096 ], [ -50.6740074, -29.3118778 ], [ -50.6743212, -29.311955 ], [ -50.6744959, -29.3120829 ], [ -50.674745, -29.3123807 ], [ -50.6755272, -29.3125223 ], [ -50.6760915, -29.3123175 ], [ -50.676227, -29.3122569 ], [ -50.6766685, -29.3122603 ], [ -50.6773489, -29.3124369 ], [ -50.6774398, -29.3127475 ], [ -50.6776861, -29.3133166 ], [ -50.6778537, -29.313577 ], [ -50.6780977, -29.3139048 ], [ -50.6783673, -29.3141991 ], [ -50.6786582, -29.314447300000012 ], [ -50.6787839, -29.3144963 ], [ -50.6791335, -29.3146752 ], [ -50.679586, -29.3148322 ], [ -50.6801757, -29.31509680000001 ], [ -50.6805966, -29.3152365 ], [ -50.681, -29.3153456 ], [ -50.6805738, -29.3154447 ], [ -50.6803354, -29.3154386 ], [ -50.6801343, -29.3155228 ], [ -50.6798788, -29.3155409 ], [ -50.6795385, -29.3156728 ], [ -50.6793591, -29.3157286 ], [ -50.6791767, -29.3158689 ], [ -50.6784337, -29.316002199999989 ], [ -50.6781762, -29.316205699999987 ], [ -50.6779375, -29.3164325 ], [ -50.6778651, -29.316491 ], [ -50.6777471, -29.316498 ], [ -50.6775566, -29.3164723 ], [ -50.6773244, -29.3165487 ], [ -50.6772589, -29.3166676 ], [ -50.677186, -29.3168558 ], [ -50.6770604, -29.317009 ], [ -50.6768888, -29.3170885 ], [ -50.6768709, -29.3170558 ], [ -50.6767976, -29.3170687 ], [ -50.6767641, -29.3171377 ], [ -50.6766685, -29.3173707 ], [ -50.6766675, -29.317563300000014 ], [ -50.6767372, -29.3176662 ], [ -50.6766648, -29.3178252 ], [ -50.6764677, -29.3179071 ], [ -50.6764403, -29.3182377 ], [ -50.6763438, -29.3186189 ], [ -50.6761911, -29.3186804 ], [ -50.6759415, -29.3186704 ], [ -50.6757807, -29.3185657 ], [ -50.6755767, -29.3184014 ], [ -50.6753891, -29.3183436 ], [ -50.6752494, -29.31838740000001 ], [ -50.6750238, -29.3185631 ], [ -50.6747532, -29.3186189 ], [ -50.6744761, -29.3185473 ], [ -50.6744154, -29.3183927 ], [ -50.6744984, -29.3180927 ], [ -50.6744075, -29.3176396 ], [ -50.6744126, -29.3174519 ], [ -50.6742518, -29.3172654 ], [ -50.6740532, -29.3171245 ], [ -50.6739861, -29.3169468 ], [ -50.6739754, -29.3166381 ], [ -50.67393, -29.3163838 ], [ -50.6738225, -29.31632 ], [ -50.673683, -29.3163621 ], [ -50.6734928, -29.3164797 ], [ -50.673388, -29.3169631 ], [ -50.6732432, -29.3171993 ], [ -50.6732056, -29.317404 ], [ -50.6731791, -29.3174981 ], [ -50.6731295, -29.3175782 ], [ -50.673048, -29.317644899999987 ], [ -50.6729926, -29.3178162 ], [ -50.6729622, -29.3179372 ], [ -50.672981, -29.3180354 ], [ -50.6731097, -29.3182307 ], [ -50.6732472, -29.318378 ], [ -50.6733799, -29.3184762 ], [ -50.673451, -29.3185745 ], [ -50.6734658, -29.3186247 ], [ -50.6734539, -29.3186803 ], [ -50.6734188, -29.3187335 ], [ -50.6733639, -29.3187627 ], [ -50.6732633, -29.3188001 ], [ -50.6731292, -29.3188224 ], [ -50.6730728, -29.318875 ], [ -50.6728636, -29.3189335 ], [ -50.6727015, -29.318997200000013 ], [ -50.6726155, -29.3191018 ], [ -50.6725444, -29.3192457 ], [ -50.672468, -29.3194105 ], [ -50.6723185, -29.3196152 ], [ -50.672293, -29.3198397 ], [ -50.6721854, -29.3200786 ], [ -50.6720395, -29.320275599999988 ], [ -50.6718848, -29.3204071 ], [ -50.6729147, -29.3300442 ], [ -50.6793848, -29.3332876 ] ] ] } },
{ "type": "Feature", "properties": { "name": "Sede Distrital de Rincão dos Kroeff", "code_muni": 4318200.0, "name_muni": "São Francisco de Paula" }, "geometry": { "type": "Polygon", "coordinates": [ [ [ -50.3449673, -29.471293 ], [ -50.3478493, -29.4709934 ], [ -50.3486152, -29.4711235 ], [ -50.3492317, -29.4711235 ], [ -50.351081, -29.4713512 ], [ -50.3522205, -29.4716114 ], [ -50.3527809, -29.4716439 ], [ -50.3534907, -29.4715951 ], [ -50.3540324, -29.4716601 ], [ -50.3555081, -29.4720342 ], [ -50.355807, -29.4722131 ], [ -50.3562927, -29.472701 ], [ -50.3566103, -29.4728636 ], [ -50.3570773, -29.4728636 ], [ -50.3573388, -29.4729612 ], [ -50.3574322, -29.4734816 ], [ -50.3577124, -29.4738881 ], [ -50.3579926, -29.474002 ], [ -50.3584596, -29.4739207 ], [ -50.3596738, -29.4735141 ], [ -50.3599166, -29.4734653 ], [ -50.360066, -29.4735629 ], [ -50.3605144, -29.4741646 ], [ -50.3606825, -29.4742459 ], [ -50.3609253, -29.4741809 ], [ -50.3614484, -29.4740345 ], [ -50.3618593, -29.4740345 ], [ -50.3630362, -29.4743272 ], [ -50.363279, -29.4745224 ], [ -50.3640822, -29.4750916 ], [ -50.3650162, -29.4754819 ], [ -50.3657261, -29.475953499999985 ], [ -50.3661557, -29.476295 ], [ -50.3669029, -29.4763763 ], [ -50.3672205, -29.476425 ], [ -50.3677809, -29.4767828 ], [ -50.368005, -29.476799 ], [ -50.3689017, -29.4765388 ], [ -50.3690348, -29.4765574 ], [ -50.3693687, -29.4766039 ], [ -50.3695695, -29.4766854 ], [ -50.3699291, -29.4768315 ], [ -50.3701719, -29.4768966 ], [ -50.370554, -29.476920799999984 ], [ -50.3708506, -29.4772107 ], [ -50.3716263, -29.4771627 ], [ -50.3717559, -29.4771779 ], [ -50.3719337, -29.477266 ], [ -50.3720399, -29.4775633 ], [ -50.3720026, -29.4779861 ], [ -50.3720773, -29.4783439 ], [ -50.3723201, -29.4786041 ], [ -50.3728618, -29.47907570000001 ], [ -50.3733855, -29.4793163 ], [ -50.3735343, -29.4793847 ], [ -50.373579, -29.479423 ], [ -50.3749531, -29.4782635 ], [ -50.3761333, -29.4764981 ], [ -50.3785992, -29.4728479 ], [ -50.380354, -29.470196 ], [ -50.3787181, -29.4694448 ], [ -50.3773259, -29.4688365 ], [ -50.3772313, -29.4698523 ], [ -50.3770106, -29.4702367 ], [ -50.3763484, -29.4704563 ], [ -50.3756704, -29.470415100000011 ], [ -50.3752605, -29.4704975 ], [ -50.3750082, -29.4707309 ], [ -50.3743302, -29.4712663 ], [ -50.3739203, -29.4714035 ], [ -50.3737153, -29.4713623 ], [ -50.3735408, -29.4712326 ], [ -50.373245, -29.471018 ], [ -50.3718154, -29.4705029 ], [ -50.371002, -29.4702454 ], [ -50.3706729, -29.4701948 ], [ -50.370583, -29.470181 ], [ -50.3703489, -29.4701702 ], [ -50.3701763, -29.4702346 ], [ -50.3698929, -29.470417 ], [ -50.368865, -29.470481 ], [ -50.3687436, -29.4711265 ], [ -50.368735, -29.473688 ], [ -50.3684174, -29.4736392 ], [ -50.3676702, -29.4735579 ], [ -50.3672406, -29.4732164 ], [ -50.3665307, -29.4727448 ], [ -50.3655967, -29.4723545 ], [ -50.3647935, -29.4717853 ], [ -50.3645507, -29.4715901 ], [ -50.3633738, -29.4712974 ], [ -50.3629629, -29.4712974 ], [ -50.3624398, -29.4714438 ], [ -50.362197, -29.471508799999985 ], [ -50.3620289, -29.4714275 ], [ -50.3615805, -29.4708257 ], [ -50.3614311, -29.4707281 ], [ -50.3611883, -29.4707769 ], [ -50.3599741, -29.471183499999984 ], [ -50.3595071, -29.4712649 ], [ -50.3592269, -29.471150900000012 ], [ -50.3589467, -29.4707444 ], [ -50.3588533, -29.470224 ], [ -50.3585918, -29.470126400000012 ], [ -50.3581248, -29.4701264 ], [ -50.3578072, -29.4699638 ], [ -50.3573215, -29.469475899999988 ], [ -50.3570226, -29.469297 ], [ -50.3555469, -29.4689229 ], [ -50.3550052, -29.4688579 ], [ -50.3542954, -29.4689067 ], [ -50.353735, -29.468874199999988 ], [ -50.3525955, -29.468614 ], [ -50.3507462, -29.4683863 ], [ -50.3501297, -29.4683863 ], [ -50.3493638, -29.4682562 ], [ -50.3464818, -29.4685558 ], [ -50.343763, -29.469201 ], [ -50.3449673, -29.471293 ] ] ] } },
{ "type": "Feature", "properties": { "name": "Distrito Sede", "code_muni": 4318200.0, "name_muni": "São Francisco de Paula" }, "geometry": { "type": "Polygon", "coordinates": [ [ [ -50.6077072, -29.4679389 ], [ -50.6081126, -29.4678806 ], [ -50.6081987, -29.4678682 ], [ -50.6326879, -29.4643374 ], [ -50.632938, -29.464295199999988 ], [ -50.6329719, -29.4642228 ], [ -50.633896, -29.461344 ], [ -50.619567, -29.441621399999988 ], [ -50.6195269, -29.4415661 ], [ -50.6194938, -29.4415206 ], [ -50.614542, -29.4347039 ], [ -50.6090983, -29.4272365 ], [ -50.60878, -29.4270929 ], [ -50.6086657, -29.4268243 ], [ -50.60846, -29.4260941 ], [ -50.6081912, -29.4255017 ], [ -50.607859, -29.4248611 ], [ -50.6073528, -29.4243652 ], [ -50.6070049, -29.4240965 ], [ -50.6065456, -29.4238089 ], [ -50.6059214, -29.4236694 ], [ -50.6051147, -29.4235868 ], [ -50.6043634, -29.4233663 ], [ -50.603968, -29.4232906 ], [ -50.6032878, -29.4228979 ], [ -50.6027342, -29.4226155 ], [ -50.6020857, -29.422395 ], [ -50.6013819, -29.4220851 ], [ -50.6011367, -29.421534 ], [ -50.6010655, -29.4210587 ], [ -50.6009311, -29.420872699999986 ], [ -50.6000778, -29.4205438 ], [ -50.5998097, -29.421143 ], [ -50.5995532, -29.421325799999988 ], [ -50.5990868, -29.4225648 ], [ -50.5992267, -29.4227984 ], [ -50.5991334, -29.4232757 ], [ -50.598737, -29.4240272 ], [ -50.5983872, -29.4244842 ], [ -50.5977576, -29.4249209 ], [ -50.5974545, -29.4254185 ], [ -50.5974428, -29.4262411 ], [ -50.5976177, -29.4268605 ], [ -50.5975011, -29.4271957 ], [ -50.5976177, -29.4275816 ], [ -50.5975011, -29.427937 ], [ -50.5970581, -29.4281909 ], [ -50.5968715, -29.4286377 ], [ -50.596615, -29.4292368 ], [ -50.5963818, -29.4293688 ], [ -50.5959625, -29.42921960000001 ], [ -50.5954152, -29.4290942 ], [ -50.5951943, -29.4289436 ], [ -50.5947334, -29.4290774 ], [ -50.5944837, -29.4289353 ], [ -50.5942245, -29.4287513 ], [ -50.5939364, -29.4285422 ], [ -50.5937636, -29.4282578 ], [ -50.5933506, -29.4279233 ], [ -50.593053, -29.428032 ], [ -50.5930338, -29.4281491 ], [ -50.5927649, -29.4281491 ], [ -50.5926593, -29.4279651 ], [ -50.5925056, -29.4278062 ], [ -50.592304, -29.4278731 ], [ -50.5920447, -29.4280905 ], [ -50.5919487, -29.4282578 ], [ -50.5916222, -29.4281658 ], [ -50.5917854, -29.4278731 ], [ -50.5915454, -29.427764399999987 ], [ -50.5913917, -29.4278145 ], [ -50.5912573, -29.4275971 ], [ -50.591046, -29.4275887 ], [ -50.5909596, -29.427722500000016 ], [ -50.5906427, -29.4277225 ], [ -50.5905467, -29.4275971 ], [ -50.5900666, -29.4273796 ], [ -50.5898649, -29.42749670000001 ], [ -50.5895864, -29.427296 ], [ -50.5891831, -29.4271204 ], [ -50.5888662, -29.4269782 ], [ -50.5883957, -29.4268694 ], [ -50.5880788, -29.4266854 ], [ -50.5876179, -29.426468 ], [ -50.5870994, -29.4264178 ], [ -50.5868305, -29.4265851 ], [ -50.5866384, -29.4267858 ], [ -50.5859951, -29.4265684 ], [ -50.5856302, -29.4264764 ], [ -50.5854669, -29.4262589 ], [ -50.5850924, -29.426091600000014 ], [ -50.5848236, -29.4259327 ], [ -50.5805267, -29.4224614 ], [ -50.5787157, -29.4221202 ], [ -50.5746556, -29.421355299999984 ], [ -50.574118, -29.421254 ], [ -50.5623107, -29.4228081 ], [ -50.5620786, -29.4228362 ], [ -50.5619223, -29.422859 ], [ -50.5529457, -29.4240322 ], [ -50.552197, -29.42413 ], [ -50.5280295, -29.4217229 ], [ -50.5274458, -29.4217601 ], [ -50.5267839, -29.4216361 ], [ -50.5244218, -29.423213499999985 ], [ -50.5240802, -29.4241434 ], [ -50.5233542, -29.4238954 ], [ -50.5225997, -29.4233003 ], [ -50.5212901, -29.423635 ], [ -50.5211477, -29.4245154 ], [ -50.5200659, -29.4247881 ], [ -50.5194538, -29.4243294 ], [ -50.518258, -29.4224943 ], [ -50.517774, -29.421676 ], [ -50.5173602, -29.42164450000001 ], [ -50.5160919, -29.422354699999989 ], [ -50.5151256, -29.4239767 ], [ -50.5148136, -29.424266 ], [ -50.5146121, -29.4244763 ], [ -50.513495, -29.4256425 ], [ -50.5127834, -29.4262573 ], [ -50.5130653, -29.427134 ], [ -50.5136216, -29.428351 ], [ -50.5134508, -29.4285494 ], [ -50.5128245, -29.4287973 ], [ -50.5124971, -29.4287849 ], [ -50.5120131, -29.4291817 ], [ -50.5120964, -29.429471 ], [ -50.5123631, -29.4303977 ], [ -50.5124706, -29.4315336 ], [ -50.5127708, -29.4324535 ], [ -50.5135379, -29.4336169 ], [ -50.5160807, -29.4360603 ], [ -50.5171965, -29.4368965 ], [ -50.5182908, -29.4374852 ], [ -50.5193637, -29.437873 ], [ -50.524594, -29.4391296 ], [ -50.5258171, -29.4392698 ], [ -50.528172, -29.438478 ], [ -50.534392, -29.439648 ], [ -50.54383, -29.4414313 ], [ -50.5461827, -29.4418759 ], [ -50.5473946, -29.4421048 ], [ -50.5491449, -29.4424355 ], [ -50.5507528, -29.4427394 ], [ -50.5530451, -29.4431725 ], [ -50.5544083, -29.4434283 ], [ -50.5552918, -29.4435962 ], [ -50.5567339, -29.4438675 ], [ -50.5609855, -29.4446672 ], [ -50.56116, -29.4447 ], [ -50.561294, -29.4451452 ], [ -50.562779, -29.4500773 ], [ -50.5628048, -29.450163 ], [ -50.5635321, -29.4525596 ], [ -50.5636301, -29.4528824 ], [ -50.5638757, -29.4536918 ], [ -50.565345, -29.458533 ], [ -50.5653896, -29.4586407 ], [ -50.5661848, -29.4605624 ], [ -50.56953, -29.468646 ], [ -50.5722886, -29.4701682 ], [ -50.5725961, -29.4703385 ], [ -50.5741118, -29.4711783 ], [ -50.5762015, -29.472336 ], [ -50.57679, -29.472662 ], [ -50.5769912, -29.4726641 ], [ -50.5805303, -29.472698399999985 ], [ -50.5809645, -29.4727046 ], [ -50.5832508, -29.4727279 ], [ -50.584049, -29.472736 ], [ -50.5840723, -29.4725708 ], [ -50.5844084, -29.4701909 ], [ -50.5848972, -29.4667295 ], [ -50.5849802, -29.4661415 ], [ -50.5850315, -29.4657783 ], [ -50.585371, -29.463374 ], [ -50.5882416, -29.4590039 ], [ -50.588538, -29.4585527 ], [ -50.5886366, -29.4584025 ], [ -50.5892451, -29.457476199999988 ], [ -50.5893076, -29.457381 ], [ -50.5895597, -29.4569973 ], [ -50.589772, -29.456674 ], [ -50.5918344, -29.4554503 ], [ -50.5918708, -29.4554253 ], [ -50.5934996, -29.4544593 ], [ -50.5947883, -29.453695 ], [ -50.595408, -29.453327 ], [ -50.5986, -29.4542546 ], [ -50.5988163, -29.4543174 ], [ -50.5992067, -29.4544309 ], [ -50.5993156, -29.4544625 ], [ -50.601302, -29.455038 ], [ -50.6013806, -29.4552382 ], [ -50.6043861, -29.4628913 ], [ -50.6046233, -29.4634952 ], [ -50.6047142, -29.4637267 ], [ -50.6050098, -29.4644795 ], [ -50.6052105, -29.4649903 ], [ -50.605915, -29.4667841 ], [ -50.6061442, -29.4673678 ], [ -50.6063696, -29.4679418 ], [ -50.60644, -29.468121 ], [ -50.6077072, -29.4679389 ] ] ] } }
]
}
