{
"type": "FeatureCollection",
"name": "bairros_coqueiro_baixo",
"crs": { "type": "name", "properties": { "name": "urn:ogc:def:crs:OGC:1.3:CRS84" } },
"features": [
{ "type": "Feature", "properties": { "code_muni": 4305835.0, "name_muni": "Coqueiro Baixo", "code_state": 43.0, "abbrev_state": "RS", "name_state": "Rio Grande do Sul", "code_region": 4.0, "name_region": "Sul", "year": 2022.0 }, "geometry": { "type": "Polygon", "coordinates": [ [ [ -52.158137825, -29.214861708999905 ], [ -52.156740832, -29.209023008 ], [ -52.157692216, -29.206607877 ], [ -52.159818395999899, -29.206253257 ], [ -52.165423038, -29.209616007 ], [ -52.1705006769999, -29.209821532 ], [ -52.171585017, -29.208844391 ], [ -52.169347762, -29.203800047999891 ], [ -52.167201414, -29.191585604999894 ], [ -52.17033192, -29.188531879999989 ], [ -52.175273929999896, -29.188635593 ], [ -52.1757148, -29.187642378 ], [ -52.167381083, -29.175356431999901 ], [ -52.167589921999891, -29.1735917829999 ], [ -52.173138377, -29.1701573 ], [ -52.172991364, -29.164381595999892 ], [ -52.178898922, -29.163264504 ], [ -52.185588741999901, -29.164311853 ], [ -52.187340895, -29.158277128 ], [ -52.184702535, -29.15295835599991 ], [ -52.185200677, -29.147316268999909 ], [ -52.186150923999897, -29.146135633 ], [ -52.19421059, -29.1446147189999 ], [ -52.186723738999902, -29.138420362 ], [ -52.1865912, -29.136890176999902 ], [ -52.191159786999897, -29.136431662999904 ], [ -52.192559934, -29.135058251 ], [ -52.188585126, -29.128045434999898 ], [ -52.190492337, -29.126851191 ], [ -52.199533958, -29.127383591999902 ], [ -52.202630423999892, -29.125075106999901 ], [ -52.195841814999902, -29.119232117999989 ], [ -52.192157043080996, -29.110418076763604 ], [ -52.187964930976889, -29.1103883766778 ], [ -52.187938118399401, -29.108690934276595 ], [ -52.1843797456253, -29.107345492892001 ], [ -52.183081741877494, -29.108322295712398 ], [ -52.174413716849692, -29.107508293362095 ], [ -52.171100782283901, -29.1050038611308 ], [ -52.168097636112698, -29.100501685631205 ], [ -52.167865556, -29.091992165 ], [ -52.165534631, -29.088801599 ], [ -52.151461186999903, -29.088096524 ], [ -52.150298773, -29.090790319 ], [ -52.151262978, -29.094494139999899 ], [ -52.147724905, -29.09801959 ], [ -52.150244175999894, -29.106216049999897 ], [ -52.143531932, -29.108267637000012 ], [ -52.141083911, -29.112101906 ], [ -52.1421597249999, -29.119022575 ], [ -52.137239178999899, -29.132184227 ], [ -52.137620563, -29.134829086 ], [ -52.129273999, -29.139031291 ], [ -52.121988527, -29.148436799999988 ], [ -52.088724078, -29.154470712 ], [ -52.086528733, -29.170593144999906 ], [ -52.080795168, -29.168533873999895 ], [ -52.07052527, -29.1672877899999 ], [ -52.070454132, -29.160714110999894 ], [ -52.063653164, -29.162313116999901 ], [ -52.063371785999905, -29.161092067999988 ], [ -52.059401921999893, -29.161723951999893 ], [ -52.059081546999906, -29.163567421 ], [ -52.056892028999989, -29.161290506999897 ], [ -52.05287218, -29.161563218 ], [ -52.051324985999898, -29.1634071 ], [ -52.046617282999897, -29.162333467999893 ], [ -52.044999828999899, -29.164578918 ], [ -52.04164449599989, -29.160305313 ], [ -52.03601273, -29.164091959 ], [ -52.030800847, -29.163532362999895 ], [ -52.029659933999895, -29.161773626999906 ], [ -52.02457981, -29.164394876 ], [ -52.020131853999899, -29.161488898999899 ], [ -52.018531283999899, -29.162292825999902 ], [ -52.018008322, -29.16727328 ], [ -52.023199468, -29.168087994 ], [ -52.021899566999892, -29.171475705 ], [ -52.023281286, -29.173260698 ], [ -52.03224929, -29.174793743999892 ], [ -52.035617897999892, -29.179463008 ], [ -52.038158409999902, -29.179441698999888 ], [ -52.038508163999893, -29.181070607 ], [ -52.0401418719999, -29.180914701999896 ], [ -52.0415882, -29.186657958999898 ], [ -52.04487863, -29.188237489 ], [ -52.045643417999891, -29.190001696 ], [ -52.053041148, -29.189693330999905 ], [ -52.0621485469999, -29.195178245 ], [ -52.069584686, -29.196684714999897 ], [ -52.071373348, -29.195450426000011 ], [ -52.075593910999892, -29.197409685 ], [ -52.075635191999893, -29.200191172 ], [ -52.078328086999903, -29.203912697 ], [ -52.078763715, -29.2100940609999 ], [ -52.07741876099989, -29.212544436 ], [ -52.092463794, -29.212737836 ], [ -52.092876832999892, -29.214274417 ], [ -52.087978178, -29.220637872999909 ], [ -52.094339628999904, -29.223399225 ], [ -52.09795379, -29.227871173 ], [ -52.097851305999896, -29.231406067 ], [ -52.096216493, -29.232781125 ], [ -52.113395345999891, -29.232815769 ], [ -52.113438311, -29.2316685609999 ], [ -52.122644193, -29.231619199 ], [ -52.12091869599989, -29.227975061999899 ], [ -52.121203759, -29.217012831 ], [ -52.140349442999899, -29.216546423 ], [ -52.139127656, -29.20822279 ], [ -52.14131647300001, -29.207577073 ], [ -52.148032402999895, -29.2101813519999 ], [ -52.150213661999892, -29.213030177 ], [ -52.158137825, -29.214861708999905 ] ] ] } }
]
}
