{
"type": "FeatureCollection",
"name": "bairros_panambi",
"crs": { "type": "name", "properties": { "name": "urn:ogc:def:crs:OGC:1.3:CRS84" } },
"features": [
{ "type": "Feature", "properties": { "name": "Arco-Íris", "code_muni": 4313904.0, "name_muni": "Panambi" }, "geometry": { "type": "Polygon", "coordinates": [ [ [ -53.5143946, -28.3143517 ], [ -53.5143808, -28.3136711 ], [ -53.5164643, -28.3136676 ], [ -53.5172645, -28.3136547 ], [ -53.5221599, -28.3136528 ], [ -53.5221586, -28.3133836 ], [ -53.5221553, -28.3129105 ], [ -53.5221519, -28.3127992 ], [ -53.5221552, -28.3125158 ], [ -53.5221599, -28.3121097 ], [ -53.5221519, -28.3119267 ], [ -53.5156489, -28.3117484 ], [ -53.5156041, -28.3107233 ], [ -53.5154645, -28.3100349 ], [ -53.5152231, -28.3089985 ], [ -53.5133324, -28.3093 ], [ -53.5121087, -28.3094979 ], [ -53.511033500000011, -28.3096827 ], [ -53.5112366, -28.3107361 ], [ -53.5107503, -28.3111724 ], [ -53.5106995, -28.3112118 ], [ -53.5086778, -28.3093799 ], [ -53.508603, -28.3093139 ], [ -53.5071436, -28.3080245 ], [ -53.5067573, -28.3076537 ], [ -53.5065776, -28.3074719 ], [ -53.5066271, -28.307902 ], [ -53.50670010000001, -28.3082434 ], [ -53.5067709, -28.3085749 ], [ -53.5067915, -28.3086636 ], [ -53.5068131, -28.3087567 ], [ -53.5068175, -28.3087766 ], [ -53.506795, -28.309053 ], [ -53.5067467, -28.3092088 ], [ -53.5064489, -28.3099775 ], [ -53.5061864, -28.3106768 ], [ -53.5058984, -28.3113714 ], [ -53.5057355, -28.311817 ], [ -53.5056363, -28.3120177 ], [ -53.5054069, -28.3122574 ], [ -53.504786, -28.312771 ], [ -53.5043488, -28.313098 ], [ -53.5041262, -28.3132538 ], [ -53.5037171, -28.3135738 ], [ -53.5033684, -28.3138772 ], [ -53.5031619, -28.3140898 ], [ -53.502651, -28.3148218 ], [ -53.5027951, -28.3147828 ], [ -53.5040707, -28.3144674 ], [ -53.5040865, -28.3145093 ], [ -53.5042065, -28.3146434 ], [ -53.5043085, -28.3147284 ], [ -53.5046142, -28.3148276 ], [ -53.504684, -28.3149031 ], [ -53.5047215, -28.3150117 ], [ -53.5048181, -28.3150448 ], [ -53.5049039, -28.3152337 ], [ -53.5048932, -28.3156682 ], [ -53.5049146, -28.3157815 ], [ -53.505038, -28.315994 ], [ -53.50514, -28.3163293 ], [ -53.5052151, -28.3166457 ], [ -53.5052365, -28.3169291 ], [ -53.5053116, -28.317169899999989 ], [ -53.5054082, -28.3173588 ], [ -53.5055101, -28.3176469 ], [ -53.5055637, -28.3178736 ], [ -53.5058051, -28.318246699999989 ], [ -53.5059232, -28.3185583 ], [ -53.506068, -28.3192998 ], [ -53.506186, -28.3197531 ], [ -53.5064113, -28.3200081 ], [ -53.506642, -28.3199538 ], [ -53.5082159, -28.319582 ], [ -53.5099353, -28.3191981 ], [ -53.5110495, -28.3189431 ], [ -53.5111199, -28.3188948 ], [ -53.5111481, -28.3188181 ], [ -53.511148, -28.3181284 ], [ -53.5111541, -28.3167947 ], [ -53.5118817, -28.3166374 ], [ -53.5132237, -28.3163502 ], [ -53.5136554, -28.3162639 ], [ -53.514181, -28.3161806 ], [ -53.5143406, -28.3161381 ], [ -53.5144003, -28.3160814 ], [ -53.5144137, -28.3159586 ], [ -53.5144125, -28.3156865 ], [ -53.5144119, -28.3155514 ], [ -53.514407, -28.3152121 ], [ -53.5145625, -28.3147213 ], [ -53.5143104, -28.3144285 ], [ -53.5143961, -28.3144233 ], [ -53.5143946, -28.3143517 ] ] ] } },
{ "type": "Feature", "properties": { "name": "Esperança", "code_muni": 4313904.0, "name_muni": "Panambi" }, "geometry": { "type": "Polygon", "coordinates": [ [ [ -53.5054082, -28.3173588 ], [ -53.5053116, -28.317169899999989 ], [ -53.5052365, -28.3169291 ], [ -53.5052151, -28.3166457 ], [ -53.50514, -28.3163293 ], [ -53.505038, -28.315994 ], [ -53.5049146, -28.3157815 ], [ -53.5048932, -28.3156682 ], [ -53.5049039, -28.3152337 ], [ -53.5048181, -28.3150448 ], [ -53.5047215, -28.3150117 ], [ -53.504684, -28.3149031 ], [ -53.5046142, -28.3148276 ], [ -53.5043085, -28.3147284 ], [ -53.5042065, -28.3146434 ], [ -53.5040865, -28.3145093 ], [ -53.5040707, -28.3144674 ], [ -53.5027951, -28.3147828 ], [ -53.502651, -28.3148218 ], [ -53.502379, -28.3152818 ], [ -53.5022049, -28.3155549 ], [ -53.5021481, -28.315643 ], [ -53.501731, -28.3162358 ], [ -53.5016263, -28.3163978 ], [ -53.5015499, -28.3165444 ], [ -53.5014238, -28.3168222 ], [ -53.5012387, -28.3173063 ], [ -53.5010959, -28.3176605 ], [ -53.5025496, -28.3176744 ], [ -53.5026532, -28.3176794 ], [ -53.5034612, -28.3176954 ], [ -53.5038431, -28.317708299999989 ], [ -53.5045069, -28.3177402 ], [ -53.5050481, -28.3177544 ], [ -53.5051024, -28.3177296 ], [ -53.5051339, -28.3176918 ], [ -53.5055101, -28.3176469 ], [ -53.5054082, -28.3173588 ] ] ] } },
{ "type": "Feature", "properties": { "name": "Piratini", "code_muni": 4313904.0, "name_muni": "Panambi" }, "geometry": { "type": "Polygon", "coordinates": [ [ [ -53.5010959, -28.3176605 ], [ -53.5012387, -28.3173063 ], [ -53.5014238, -28.3168222 ], [ -53.5015499, -28.3165444 ], [ -53.5016263, -28.3163978 ], [ -53.501731, -28.3162358 ], [ -53.5021481, -28.315643 ], [ -53.5022049, -28.3155549 ], [ -53.502379, -28.3152818 ], [ -53.502651, -28.3148218 ], [ -53.5031619, -28.3140898 ], [ -53.5033684, -28.3138772 ], [ -53.5037171, -28.3135738 ], [ -53.5041262, -28.3132538 ], [ -53.5043488, -28.313098 ], [ -53.504786, -28.312771 ], [ -53.5054069, -28.3122574 ], [ -53.5056363, -28.3120177 ], [ -53.5057355, -28.311817 ], [ -53.5058984, -28.3113714 ], [ -53.5061864, -28.3106768 ], [ -53.5064489, -28.3099775 ], [ -53.5067467, -28.3092088 ], [ -53.506795, -28.309053 ], [ -53.5068175, -28.3087766 ], [ -53.5068131, -28.3087567 ], [ -53.5067915, -28.3086636 ], [ -53.5067709, -28.3085749 ], [ -53.50670010000001, -28.3082434 ], [ -53.5066271, -28.307902 ], [ -53.5065776, -28.3074719 ], [ -53.5063952, -28.3069783 ], [ -53.5055396, -28.3051671 ], [ -53.5053591, -28.3048295 ], [ -53.5050917, -28.3043329 ], [ -53.5049081, -28.3040043 ], [ -53.5047407, -28.3036261 ], [ -53.5044666, -28.3029352 ], [ -53.5043722, -28.3027817 ], [ -53.5042271, -28.3025979 ], [ -53.5040559, -28.3024112 ], [ -53.503611, -28.3019685 ], [ -53.5035306, -28.3018367 ], [ -53.5034961, -28.3016851 ], [ -53.5034626, -28.3014061 ], [ -53.5034353, -28.3012883 ], [ -53.5031843, -28.3013579 ], [ -53.5023529, -28.3018491 ], [ -53.5020256, -28.3024065 ], [ -53.5016394, -28.3026568 ], [ -53.501119, -28.3027182 ], [ -53.5006255, -28.3024065 ], [ -53.5000247, -28.3016649 ], [ -53.4998369, -28.301613 ], [ -53.4997028, -28.3017121 ], [ -53.4993863, -28.3026332 ], [ -53.4992522, -28.3034125 ], [ -53.4990752, -28.3036534 ], [ -53.4990996, -28.3036769 ], [ -53.4991586, -28.3038611 ], [ -53.4991264, -28.3041492 ], [ -53.4989119, -28.304409 ], [ -53.4988153, -28.3046499 ], [ -53.4988099, -28.3047963 ], [ -53.4988208, -28.3048846 ], [ -53.4988421, -28.3050561 ], [ -53.4985524, -28.3056606 ], [ -53.4978604, -28.3066666 ], [ -53.4977317, -28.3067044 ], [ -53.4975225, -28.3068225 ], [ -53.4970343, -28.3073703 ], [ -53.4965032, -28.3078757 ], [ -53.496058, -28.3081213 ], [ -53.4953177, -28.308433 ], [ -53.4948671, -28.3090658 ], [ -53.4944916, -28.3094342 ], [ -53.4939015, -28.3096893 ], [ -53.4935153, -28.3097837 ], [ -53.4931612, -28.3098309 ], [ -53.4929681, -28.3099254 ], [ -53.4927897, -28.3099726 ], [ -53.492678, -28.3103137 ], [ -53.4922358, -28.3117236 ], [ -53.4916189, -28.3137024 ], [ -53.4915438, -28.3139928 ], [ -53.4915143, -28.3142455 ], [ -53.491517, -28.3145147 ], [ -53.4915626, -28.3148335 ], [ -53.4916645, -28.3151983 ], [ -53.4918335, -28.3155655 ], [ -53.4920776, -28.3159385 ], [ -53.4922694, -28.3161782 ], [ -53.4925926, -28.3164663 ], [ -53.4928293, -28.3166345 ], [ -53.4930754, -28.3167921 ], [ -53.4941251, -28.3173811 ], [ -53.4944231, -28.3175483 ], [ -53.4946619, -28.3176823 ], [ -53.4961009, -28.3184639 ], [ -53.4967178, -28.3188441 ], [ -53.4969827, -28.3190383 ], [ -53.4972596, -28.3192702 ], [ -53.4977498, -28.3197879 ], [ -53.4983379, -28.3205654 ], [ -53.498999, -28.3203434 ], [ -53.4992826, -28.3201823 ], [ -53.4995904, -28.3199863 ], [ -53.4999163, -28.3197496 ], [ -53.5000334, -28.3196513 ], [ -53.5001769, -28.3194007 ], [ -53.5002665, -28.3192509 ], [ -53.5003029, -28.3191875 ], [ -53.5006133, -28.3191204 ], [ -53.5006709, -28.3188499 ], [ -53.5007109, -28.3186605 ], [ -53.5007525, -28.3184739 ], [ -53.5010959, -28.3176605 ] ] ] } },
{ "type": "Feature", "properties": { "name": "São Jorge", "code_muni": 4313904.0, "name_muni": "Panambi" }, "geometry": { "type": "Polygon", "coordinates": [ [ [ -53.5161049, -28.3087645 ], [ -53.5171178, -28.3085029 ], [ -53.5170899, -28.3083251 ], [ -53.5165286, -28.3052969 ], [ -53.5137882, -28.3052452 ], [ -53.5127067, -28.305233699999985 ], [ -53.5119271, -28.305193 ], [ -53.5111054, -28.3051628 ], [ -53.5100356, -28.3051746 ], [ -53.5089117, -28.3051435 ], [ -53.5078342, -28.3051128 ], [ -53.507735, -28.3051086 ], [ -53.5069551, -28.3051216 ], [ -53.50644350000001, -28.3051364 ], [ -53.5061828, -28.3050684 ], [ -53.5060661, -28.3050245 ], [ -53.5059705, -28.3049289 ], [ -53.5057902, -28.3047891 ], [ -53.5056455, -28.3047523 ], [ -53.505517, -28.3047584 ], [ -53.5053591, -28.3048295 ], [ -53.5055396, -28.3051671 ], [ -53.5063952, -28.3069783 ], [ -53.5065776, -28.3074719 ], [ -53.5067573, -28.3076537 ], [ -53.5071436, -28.3080245 ], [ -53.508603, -28.3093139 ], [ -53.5086778, -28.3093799 ], [ -53.5106995, -28.3112118 ], [ -53.5107503, -28.3111724 ], [ -53.5112366, -28.3107361 ], [ -53.511033500000011, -28.3096827 ], [ -53.5121087, -28.3094979 ], [ -53.5133324, -28.3093 ], [ -53.5152231, -28.3089985 ], [ -53.5161049, -28.3087645 ] ] ] } },
{ "type": "Feature", "properties": { "name": "Jardim Paraguai", "code_muni": 4313904.0, "name_muni": "Panambi" }, "geometry": { "type": "Polygon", "coordinates": [ [ [ -53.5156489, -28.3117484 ], [ -53.5221519, -28.3119267 ], [ -53.5220982, -28.3113411 ], [ -53.5220835, -28.3105783 ], [ -53.5221036, -28.309975 ], [ -53.5220553, -28.3095771 ], [ -53.5220459, -28.3092677 ], [ -53.5220478, -28.3092258 ], [ -53.522054, -28.3090924 ], [ -53.5220526, -28.3089584 ], [ -53.5220566, -28.308773 ], [ -53.5220432, -28.3085888 ], [ -53.5220285, -28.3084944 ], [ -53.5220177, -28.3083055 ], [ -53.5216967, -28.3083241 ], [ -53.5214277, -28.3083362 ], [ -53.5210602, -28.3083444 ], [ -53.5208148, -28.3083421 ], [ -53.520038, -28.3083349 ], [ -53.5191764, -28.3083556 ], [ -53.5190794, -28.3083574 ], [ -53.5180615, -28.3083338 ], [ -53.5170899, -28.3083251 ], [ -53.5171178, -28.3085029 ], [ -53.5161049, -28.3087645 ], [ -53.5152231, -28.3089985 ], [ -53.5154645, -28.3100349 ], [ -53.5156041, -28.3107233 ], [ -53.5156489, -28.3117484 ] ] ] } },
{ "type": "Feature", "properties": { "name": "Érica", "code_muni": 4313904.0, "name_muni": "Panambi" }, "geometry": { "type": "Polygon", "coordinates": [ [ [ -53.5166387, -28.3028698 ], [ -53.5166152, -28.3021962 ], [ -53.5165974, -28.3011106 ], [ -53.5166012, -28.3003239 ], [ -53.5165677, -28.2989996 ], [ -53.516563, -28.2955715 ], [ -53.514943, -28.2954535 ], [ -53.5137413, -28.2954535 ], [ -53.5132049, -28.2956755 ], [ -53.5129098, -28.2959589 ], [ -53.5126631, -28.2969177 ], [ -53.5123251, -28.297909599999986 ], [ -53.5118262, -28.2982119 ], [ -53.5115848, -28.2982733 ], [ -53.5111771, -28.2981458 ], [ -53.5110967, -28.2977632 ], [ -53.5110216, -28.2967996 ], [ -53.5107963, -28.2963084 ], [ -53.5104866, -28.2959887 ], [ -53.5095499, -28.2960569 ], [ -53.5084704, -28.296147 ], [ -53.5076693, -28.2962154 ], [ -53.50761090000001, -28.2962183 ], [ -53.5076389, -28.2974317 ], [ -53.5076252, -28.2974438 ], [ -53.5076157, -28.2974508 ], [ -53.5075965, -28.297463 ], [ -53.5066125, -28.298496799999988 ], [ -53.5059296, -28.2991831 ], [ -53.5052796, -28.2999346 ], [ -53.5051366, -28.300152 ], [ -53.5047282, -28.3008278 ], [ -53.5046769, -28.3009937 ], [ -53.5034961, -28.3016851 ], [ -53.5035306, -28.3018367 ], [ -53.503611, -28.3019685 ], [ -53.5040559, -28.3024112 ], [ -53.5042271, -28.3025979 ], [ -53.5043722, -28.3027817 ], [ -53.5044666, -28.3029352 ], [ -53.5047407, -28.3036261 ], [ -53.5049081, -28.3040043 ], [ -53.5050917, -28.3043329 ], [ -53.5053591, -28.3048295 ], [ -53.505517, -28.3047584 ], [ -53.5056455, -28.3047523 ], [ -53.5057902, -28.3047891 ], [ -53.5059705, -28.3049289 ], [ -53.5060661, -28.3050245 ], [ -53.5061828, -28.3050684 ], [ -53.50644350000001, -28.3051364 ], [ -53.5069551, -28.3051216 ], [ -53.507735, -28.3051086 ], [ -53.5078342, -28.3051128 ], [ -53.5089117, -28.3051435 ], [ -53.5100356, -28.3051746 ], [ -53.5111054, -28.3051628 ], [ -53.5119271, -28.305193 ], [ -53.5127067, -28.305233699999985 ], [ -53.5137882, -28.3052452 ], [ -53.5165286, -28.3052969 ], [ -53.5166387, -28.3028698 ] ] ] } },
{ "type": "Feature", "properties": { "name": "Serrano", "code_muni": 4313904.0, "name_muni": "Panambi" }, "geometry": { "type": "Polygon", "coordinates": [ [ [ -53.491458, -28.3069618 ], [ -53.4918067, -28.3071283 ], [ -53.4920762, -28.3073219 ], [ -53.4922774, -28.3075215 ], [ -53.4925121, -28.3077954 ], [ -53.492665, -28.3080292 ], [ -53.4928179, -28.3083397 ], [ -53.4929091, -28.3086491 ], [ -53.492952, -28.308995 ], [ -53.4929238, -28.3094118 ], [ -53.4927897, -28.3099726 ], [ -53.4929681, -28.3099254 ], [ -53.4931612, -28.3098309 ], [ -53.4935153, -28.3097837 ], [ -53.4939015, -28.3096893 ], [ -53.4944916, -28.3094342 ], [ -53.4948671, -28.3090658 ], [ -53.4953177, -28.308433 ], [ -53.496058, -28.3081213 ], [ -53.4965032, -28.3078757 ], [ -53.4970343, -28.3073703 ], [ -53.4975225, -28.3068225 ], [ -53.4977317, -28.3067044 ], [ -53.4978604, -28.3066666 ], [ -53.4985524, -28.3056606 ], [ -53.4988421, -28.3050561 ], [ -53.4988208, -28.3048846 ], [ -53.4988099, -28.3047963 ], [ -53.4988153, -28.3046499 ], [ -53.4989119, -28.304409 ], [ -53.4991264, -28.3041492 ], [ -53.4991586, -28.3038611 ], [ -53.4990996, -28.3036769 ], [ -53.4990752, -28.3036534 ], [ -53.4987372, -28.3036911 ], [ -53.497718, -28.3035589 ], [ -53.4967578, -28.3032708 ], [ -53.4963179, -28.3033464 ], [ -53.496055, -28.3031527 ], [ -53.4958887, -28.3029213 ], [ -53.4961945, -28.3025859 ], [ -53.4965646, -28.3013343 ], [ -53.4965271, -28.3010037 ], [ -53.4953362, -28.3001063 ], [ -53.495178, -28.2999422 ], [ -53.4951031, -28.3000944 ], [ -53.4950253, -28.3001771 ], [ -53.4945694, -28.3006718 ], [ -53.4944567, -28.3007592 ], [ -53.4941147, -28.3009281 ], [ -53.4941429, -28.3024041 ], [ -53.4941375, -28.302959 ], [ -53.4941398, -28.3032498 ], [ -53.4941469, -28.3048636 ], [ -53.4933744, -28.3048483 ], [ -53.4933865, -28.3056346 ], [ -53.4926516, -28.3056417 ], [ -53.4921849, -28.3056181 ], [ -53.4911321, -28.3068473 ], [ -53.491458, -28.3069618 ] ] ] } },
{ "type": "Feature", "properties": { "name": "Alto Paraíso", "code_muni": 4313904.0, "name_muni": "Panambi" }, "geometry": { "type": "Polygon", "coordinates": [ [ [ -53.4895845, -28.3067628 ], [ -53.4900297, -28.3067457 ], [ -53.49031, -28.306750399999984 ], [ -53.4907646, -28.3067752 ], [ -53.4911321, -28.3068473 ], [ -53.4921849, -28.3056181 ], [ -53.4926516, -28.3056417 ], [ -53.4933865, -28.3056346 ], [ -53.4933744, -28.3048483 ], [ -53.4941469, -28.3048636 ], [ -53.4941398, -28.3032498 ], [ -53.4941375, -28.302959 ], [ -53.4941429, -28.3024041 ], [ -53.4941147, -28.3009281 ], [ -53.4937567, -28.3010202 ], [ -53.493416, -28.3010214 ], [ -53.4931679, -28.3009623 ], [ -53.4922251, -28.3006801 ], [ -53.4915009, -28.3004817 ], [ -53.4910999, -28.3003554 ], [ -53.4909269, -28.3003306 ], [ -53.4907191, -28.3003424 ], [ -53.4892049, -28.3007958 ], [ -53.4892029, -28.3012182 ], [ -53.489193, -28.3016896 ], [ -53.4891996, -28.302914199999989 ], [ -53.4891862, -28.3040052 ], [ -53.4891473, -28.3048376 ], [ -53.4891191, -28.3054032 ], [ -53.4890963, -28.305957 ], [ -53.4890829, -28.3065119 ], [ -53.4890628, -28.3068071 ], [ -53.4895845, -28.3067628 ] ] ] } },
{ "type": "Feature", "properties": { "name": "Vila Nova", "code_muni": 4313904.0, "name_muni": "Panambi" }, "geometry": { "type": "Polygon", "coordinates": [ [ [ -53.4953362, -28.3001063 ], [ -53.4965271, -28.3010037 ], [ -53.4965646, -28.3013343 ], [ -53.4961945, -28.3025859 ], [ -53.4958887, -28.3029213 ], [ -53.496055, -28.3031527 ], [ -53.4963179, -28.3033464 ], [ -53.4967578, -28.3032708 ], [ -53.497718, -28.3035589 ], [ -53.4987372, -28.3036911 ], [ -53.4990752, -28.3036534 ], [ -53.4992522, -28.3034125 ], [ -53.4993863, -28.3026332 ], [ -53.4997028, -28.3017121 ], [ -53.4998369, -28.301613 ], [ -53.5000247, -28.3016649 ], [ -53.5006255, -28.3024065 ], [ -53.501119, -28.3027182 ], [ -53.5016394, -28.3026568 ], [ -53.5020256, -28.3024065 ], [ -53.5023529, -28.3018491 ], [ -53.5031843, -28.3013579 ], [ -53.5034353, -28.3012883 ], [ -53.5034141, -28.3011278 ], [ -53.5033133, -28.3007024 ], [ -53.5032357, -28.3004517 ], [ -53.5031512, -28.3004093 ], [ -53.5028641, -28.3001983 ], [ -53.502629, -28.299998 ], [ -53.5024068, -28.2998087 ], [ -53.5022941, -28.2996918 ], [ -53.502213, -28.2995651 ], [ -53.5021374, -28.299629 ], [ -53.5018778, -28.2998536 ], [ -53.501645, -28.3000413 ], [ -53.5013701, -28.3001516 ], [ -53.5011032, -28.3002012 ], [ -53.5007464, -28.3001975 ], [ -53.500481, -28.3001735 ], [ -53.5002741, -28.3001369 ], [ -53.4995905, -28.2997319 ], [ -53.5000052, -28.299147 ], [ -53.5005027, -28.2983607 ], [ -53.4988824, -28.2986338 ], [ -53.4984398, -28.2977399 ], [ -53.4981957, -28.2972451 ], [ -53.4981166, -28.2969912 ], [ -53.4980399, -28.2961843 ], [ -53.4979724, -28.2949129 ], [ -53.4978752, -28.2949318 ], [ -53.4978001, -28.2949424 ], [ -53.4975493, -28.2949436 ], [ -53.4974876, -28.2949365 ], [ -53.4971228, -28.2949412 ], [ -53.4971309, -28.2952128 ], [ -53.4971899, -28.2962827 ], [ -53.49723680000001, -28.2970042 ], [ -53.4947786, -28.2971258 ], [ -53.494098, -28.2971672 ], [ -53.4939981, -28.297188399999989 ], [ -53.493931, -28.2972197 ], [ -53.4938747, -28.2972469 ], [ -53.4938016, -28.2972598 ], [ -53.4931424, -28.2972368 ], [ -53.4924182, -28.2972297 ], [ -53.4887568, -28.2972595 ], [ -53.4888506, -28.2974187 ], [ -53.4891242, -28.2981083 ], [ -53.4891778, -28.2988451 ], [ -53.48919930000001, -28.2994592 ], [ -53.4893763, -28.299752 ], [ -53.4895855, -28.2999315 ], [ -53.4899235, -28.2998229 ], [ -53.4902346, -28.2995347 ], [ -53.4906531, -28.2989018 ], [ -53.4912485, -28.2981036 ], [ -53.4913826, -28.2980186 ], [ -53.4915865, -28.298113 ], [ -53.4923214, -28.2988121 ], [ -53.4927237, -28.2992655 ], [ -53.4930885, -28.3001252 ], [ -53.4933621, -28.3004227 ], [ -53.493743, -28.3003708 ], [ -53.4940756, -28.2991616 ], [ -53.4942633, -28.2989585 ], [ -53.4948749, -28.2985995 ], [ -53.4954006, -28.2988688 ], [ -53.4955508, -28.299138 ], [ -53.4951323, -28.2997378 ], [ -53.4950948, -28.2998559 ], [ -53.495178, -28.2999422 ], [ -53.4953362, -28.3001063 ] ] ] } },
{ "type": "Feature", "properties": { "name": "Parque Moinho Velho", "code_muni": 4313904.0, "name_muni": "Panambi" }, "geometry": { "type": "Polygon", "coordinates": [ [ [ -53.5172872, -28.2953401 ], [ -53.5179524, -28.2949291 ], [ -53.5182582, -28.2944001 ], [ -53.5179309, -28.2928555 ], [ -53.5180436, -28.2924824 ], [ -53.5175801, -28.2914576 ], [ -53.5150519, -28.2919235 ], [ -53.5139376, -28.290024 ], [ -53.5137498, -28.2900452 ], [ -53.5136077, -28.2900807 ], [ -53.5134012, -28.2901811 ], [ -53.5127614, -28.2906145 ], [ -53.5117261, -28.2911978 ], [ -53.511368, -28.2912911 ], [ -53.5111454, -28.2913289 ], [ -53.5107035, -28.2913578 ], [ -53.5103636, -28.2913195 ], [ -53.5101637, -28.2912498 ], [ -53.5099907, -28.2910774 ], [ -53.509917, -28.2909746 ], [ -53.5098566, -28.2907987 ], [ -53.5097654, -28.2905046 ], [ -53.5096675, -28.2902342 ], [ -53.5096481, -28.2901751 ], [ -53.5095213, -28.2901196 ], [ -53.5092799, -28.2901424 ], [ -53.5076773, -28.290227099999989 ], [ -53.5069439, -28.2902744 ], [ -53.5068911, -28.2903335 ], [ -53.5070056, -28.2918632 ], [ -53.5070208, -28.2920867 ], [ -53.5070232, -28.292109 ], [ -53.5072085, -28.2939176 ], [ -53.5074587, -28.295267199999987 ], [ -53.50761090000001, -28.2962183 ], [ -53.5076693, -28.2962154 ], [ -53.5084704, -28.296147 ], [ -53.5095499, -28.2960569 ], [ -53.5104866, -28.2959887 ], [ -53.5107963, -28.2963084 ], [ -53.5110216, -28.2967996 ], [ -53.5110967, -28.2977632 ], [ -53.5111771, -28.2981458 ], [ -53.5115848, -28.2982733 ], [ -53.5118262, -28.2982119 ], [ -53.5123251, -28.297909599999986 ], [ -53.5126631, -28.2969177 ], [ -53.5129098, -28.2959589 ], [ -53.5132049, -28.2956755 ], [ -53.5137413, -28.2954535 ], [ -53.514943, -28.2954535 ], [ -53.516563, -28.2955715 ], [ -53.5172872, -28.2953401 ] ] ] } },
{ "type": "Feature", "properties": { "name": "Pavão", "code_muni": 4313904.0, "name_muni": "Panambi" }, "geometry": { "type": "Polygon", "coordinates": [ [ [ -53.495178, -28.2999422 ], [ -53.4950948, -28.2998559 ], [ -53.4951323, -28.2997378 ], [ -53.4955508, -28.299138 ], [ -53.4954006, -28.2988688 ], [ -53.4948749, -28.2985995 ], [ -53.4942633, -28.2989585 ], [ -53.4940756, -28.2991616 ], [ -53.493743, -28.3003708 ], [ -53.4933621, -28.3004227 ], [ -53.4930885, -28.3001252 ], [ -53.4927237, -28.2992655 ], [ -53.4923214, -28.2988121 ], [ -53.4915865, -28.298113 ], [ -53.4913826, -28.2980186 ], [ -53.4912485, -28.2981036 ], [ -53.4906531, -28.2989018 ], [ -53.4902346, -28.2995347 ], [ -53.4899235, -28.2998229 ], [ -53.4895855, -28.2999315 ], [ -53.4893763, -28.299752 ], [ -53.48919930000001, -28.2994592 ], [ -53.4891778, -28.2988451 ], [ -53.4891242, -28.2981083 ], [ -53.4888506, -28.2974187 ], [ -53.4887568, -28.2972595 ], [ -53.4885556, -28.296918 ], [ -53.4879923, -28.2960914 ], [ -53.4876704, -28.2952365 ], [ -53.487193, -28.2946649 ], [ -53.4867799, -28.2943343 ], [ -53.4860665, -28.2943437 ], [ -53.4850258, -28.2949106 ], [ -53.4848753, -28.2949996 ], [ -53.4846664, -28.2951231 ], [ -53.4843606, -28.2954868 ], [ -53.4839744, -28.2955199 ], [ -53.4819359, -28.2953262 ], [ -53.4812385, -28.2961198 ], [ -53.4810615, -28.2961623 ], [ -53.4808684, -28.2958883 ], [ -53.48066630000001, -28.2957443 ], [ -53.4810376, -28.2988451 ], [ -53.47754, -28.2993363 ], [ -53.4756518, -28.3016413 ], [ -53.4799433, -28.305211899999989 ], [ -53.4799218, -28.3081401 ], [ -53.4821964, -28.3083102 ], [ -53.4822607, -28.3069878 ], [ -53.4862867, -28.3064895 ], [ -53.4865201, -28.3066017 ], [ -53.4869371, -28.3067587 ], [ -53.487369, -28.3068319 ], [ -53.4877069, -28.3068484 ], [ -53.488187, -28.3068378 ], [ -53.4890628, -28.3068071 ], [ -53.4890829, -28.3065119 ], [ -53.4890963, -28.305957 ], [ -53.4891191, -28.3054032 ], [ -53.4891473, -28.3048376 ], [ -53.4891862, -28.3040052 ], [ -53.4891996, -28.302914199999989 ], [ -53.489193, -28.3016896 ], [ -53.4892029, -28.3012182 ], [ -53.4892049, -28.3007958 ], [ -53.4907191, -28.3003424 ], [ -53.4909269, -28.3003306 ], [ -53.4910999, -28.3003554 ], [ -53.4915009, -28.3004817 ], [ -53.4922251, -28.3006801 ], [ -53.4931679, -28.3009623 ], [ -53.493416, -28.3010214 ], [ -53.4937567, -28.3010202 ], [ -53.4941147, -28.3009281 ], [ -53.4944567, -28.3007592 ], [ -53.4945694, -28.3006718 ], [ -53.4950253, -28.3001771 ], [ -53.4951031, -28.3000944 ], [ -53.495178, -28.2999422 ] ] ] } },
{ "type": "Feature", "properties": { "name": "Wolgien", "code_muni": 4313904.0, "name_muni": "Panambi" }, "geometry": { "type": "Polygon", "coordinates": [ [ [ -53.4806836, -28.2902106 ], [ -53.48066630000001, -28.2957443 ], [ -53.4808684, -28.2958883 ], [ -53.4810615, -28.2961623 ], [ -53.4812385, -28.2961198 ], [ -53.4819359, -28.2953262 ], [ -53.4839744, -28.2955199 ], [ -53.4843606, -28.2954868 ], [ -53.4846664, -28.2951231 ], [ -53.4848753, -28.2949996 ], [ -53.4847427, -28.2946238 ], [ -53.4845647, -28.2933907 ], [ -53.4845143, -28.2928028 ], [ -53.4845258, -28.2920989 ], [ -53.4845996, -28.2913631 ], [ -53.4847292, -28.2906742 ], [ -53.4850711, -28.2896582 ], [ -53.4806836, -28.2902106 ] ] ] } },
{ "type": "Feature", "properties": { "name": "Nossa Senhora de Fátima", "code_muni": 4313904.0, "name_muni": "Panambi" }, "geometry": { "type": "Polygon", "coordinates": [ [ [ -53.4931424, -28.2972368 ], [ -53.4938016, -28.2972598 ], [ -53.4938747, -28.2972469 ], [ -53.493931, -28.2972197 ], [ -53.4939981, -28.297188399999989 ], [ -53.494098, -28.2971672 ], [ -53.4947786, -28.2971258 ], [ -53.49723680000001, -28.2970042 ], [ -53.4971899, -28.2962827 ], [ -53.4971309, -28.2952128 ], [ -53.4971228, -28.2949412 ], [ -53.4970652, -28.293988299999988 ], [ -53.4969882, -28.2929867 ], [ -53.4969458, -28.292459 ], [ -53.4968653, -28.2916926 ], [ -53.4968615, -28.2916452 ], [ -53.4967904, -28.2908478 ], [ -53.495633, -28.2909153 ], [ -53.4949504, -28.2909589 ], [ -53.4938923, -28.2910212 ], [ -53.4926797, -28.2910934 ], [ -53.4915663, -28.2911593 ], [ -53.4914063, -28.291167 ], [ -53.4902843, -28.2912374 ], [ -53.489162, -28.2913136 ], [ -53.4886737, -28.2913394 ], [ -53.4879047, -28.2913894 ], [ -53.4869921, -28.291434 ], [ -53.4845996, -28.2913631 ], [ -53.4845258, -28.2920989 ], [ -53.4845143, -28.2928028 ], [ -53.4845647, -28.2933907 ], [ -53.4847427, -28.2946238 ], [ -53.4848753, -28.2949996 ], [ -53.4850258, -28.2949106 ], [ -53.4860665, -28.2943437 ], [ -53.4867799, -28.2943343 ], [ -53.487193, -28.2946649 ], [ -53.4876704, -28.2952365 ], [ -53.4879923, -28.2960914 ], [ -53.4885556, -28.296918 ], [ -53.4887568, -28.2972595 ], [ -53.4924182, -28.2972297 ], [ -53.4931424, -28.2972368 ] ] ] } },
{ "type": "Feature", "properties": { "name": "Centro", "code_muni": 4313904.0, "name_muni": "Panambi" }, "geometry": { "type": "Polygon", "coordinates": [ [ [ -53.5068911, -28.2903335 ], [ -53.5068247, -28.2902847 ], [ -53.5064254, -28.2903045 ], [ -53.5052258, -28.2903895 ], [ -53.5053608, -28.2902827 ], [ -53.5052365, -28.2899768 ], [ -53.5049978, -28.2896154 ], [ -53.5043111, -28.2891501 ], [ -53.5041824, -28.28911 ], [ -53.5037854, -28.2887297 ], [ -53.5035172, -28.2883943 ], [ -53.5034435, -28.2882892 ], [ -53.5037506, -28.2871283 ], [ -53.5037626, -28.2869559 ], [ -53.5037653, -28.2867374 ], [ -53.5037626, -28.2864174 ], [ -53.5037774, -28.2860383 ], [ -53.5037881, -28.2859686 ], [ -53.5038062, -28.2859001 ], [ -53.5038793, -28.2857514 ], [ -53.5030425, -28.2852034 ], [ -53.5029513, -28.285318 ], [ -53.5028256, -28.2854872 ], [ -53.5026924, -28.2856155 ], [ -53.5026304, -28.2858482 ], [ -53.5025986, -28.2862733 ], [ -53.50180730000001, -28.2862615 ], [ -53.5013232, -28.2862568 ], [ -53.5011274, -28.2862414 ], [ -53.5009919, -28.2862107 ], [ -53.5007131, -28.2860513 ], [ -53.5005091, -28.2859108 ], [ -53.5004274, -28.2859277 ], [ -53.4999714, -28.285606 ], [ -53.4997165, -28.285478499999989 ], [ -53.499561, -28.2853132 ], [ -53.4993705, -28.285051 ], [ -53.499121100000011, -28.284614 ], [ -53.4989494, -28.2844699 ], [ -53.4984615, -28.284116 ], [ -53.4983406, -28.2840283 ], [ -53.4980375, -28.2836716 ], [ -53.4979007, -28.2835818 ], [ -53.4973723, -28.2832866 ], [ -53.4973364, -28.2833183 ], [ -53.4970874, -28.2839077 ], [ -53.4967874, -28.2846573 ], [ -53.4967286, -28.2846244 ], [ -53.4963132, -28.2844237 ], [ -53.4956986, -28.2850711 ], [ -53.495757, -28.2852725 ], [ -53.4957455, -28.2862296 ], [ -53.4958393, -28.2866731 ], [ -53.4959185, -28.2870015 ], [ -53.4960389, -28.2873997 ], [ -53.496548, -28.287375199999989 ], [ -53.4965713, -28.287728799999989 ], [ -53.4966857, -28.2895233 ], [ -53.4967904, -28.2908478 ], [ -53.4968615, -28.2916452 ], [ -53.4968653, -28.2916926 ], [ -53.4969458, -28.292459 ], [ -53.4969882, -28.2929867 ], [ -53.4970652, -28.293988299999988 ], [ -53.4971228, -28.2949412 ], [ -53.4974876, -28.2949365 ], [ -53.4975493, -28.2949436 ], [ -53.4978001, -28.2949424 ], [ -53.4978752, -28.2949318 ], [ -53.4979724, -28.2949129 ], [ -53.4980399, -28.2961843 ], [ -53.4981166, -28.2969912 ], [ -53.4981957, -28.2972451 ], [ -53.4984398, -28.2977399 ], [ -53.4988824, -28.2986338 ], [ -53.5005027, -28.2983607 ], [ -53.5000052, -28.299147 ], [ -53.4995905, -28.2997319 ], [ -53.5002741, -28.3001369 ], [ -53.500481, -28.3001735 ], [ -53.5007464, -28.3001975 ], [ -53.5011032, -28.3002012 ], [ -53.5013701, -28.3001516 ], [ -53.501645, -28.3000413 ], [ -53.5018778, -28.2998536 ], [ -53.5021374, -28.299629 ], [ -53.502213, -28.2995651 ], [ -53.5022941, -28.2996918 ], [ -53.5024068, -28.2998087 ], [ -53.502629, -28.299998 ], [ -53.5028641, -28.3001983 ], [ -53.5031512, -28.3004093 ], [ -53.5032357, -28.3004517 ], [ -53.5033133, -28.3007024 ], [ -53.5034141, -28.3011278 ], [ -53.5034353, -28.3012883 ], [ -53.5034626, -28.3014061 ], [ -53.5034961, -28.3016851 ], [ -53.5046769, -28.3009937 ], [ -53.5047282, -28.3008278 ], [ -53.5051366, -28.300152 ], [ -53.5052796, -28.2999346 ], [ -53.5059296, -28.2991831 ], [ -53.5066125, -28.298496799999988 ], [ -53.5075965, -28.297463 ], [ -53.5076157, -28.2974508 ], [ -53.5076252, -28.2974438 ], [ -53.5076389, -28.2974317 ], [ -53.50761090000001, -28.2962183 ], [ -53.5074587, -28.295267199999987 ], [ -53.5072085, -28.2939176 ], [ -53.5070232, -28.292109 ], [ -53.5070208, -28.2920867 ], [ -53.5070056, -28.2918632 ], [ -53.5068911, -28.2903335 ] ] ] } },
{ "type": "Feature", "properties": { "name": "Italiana", "code_muni": 4313904.0, "name_muni": "Panambi" }, "geometry": { "type": "Polygon", "coordinates": [ [ [ -53.5096675, -28.2902342 ], [ -53.5097654, -28.2905046 ], [ -53.5098566, -28.2907987 ], [ -53.509917, -28.2909746 ], [ -53.5099907, -28.2910774 ], [ -53.5101637, -28.2912498 ], [ -53.5103636, -28.2913195 ], [ -53.5107035, -28.2913578 ], [ -53.5111454, -28.2913289 ], [ -53.511368, -28.2912911 ], [ -53.5117261, -28.2911978 ], [ -53.5127614, -28.2906145 ], [ -53.5134012, -28.2901811 ], [ -53.5136077, -28.2900807 ], [ -53.5137498, -28.2900452 ], [ -53.5139376, -28.290024 ], [ -53.5156153, -28.2897335 ], [ -53.5164522, -28.2895788 ], [ -53.5171656, -28.289417 ], [ -53.5174902, -28.2893355 ], [ -53.5183015, -28.289097 ], [ -53.5184585, -28.2890615 ], [ -53.5190257, -28.2890131 ], [ -53.5193288, -28.2889635 ], [ -53.5195166, -28.288882 ], [ -53.51961450000001, -28.2888124 ], [ -53.5204433, -28.2881168 ], [ -53.5203052, -28.2879715 ], [ -53.5187978, -28.2858647 ], [ -53.5179086, -28.2858847 ], [ -53.5159761, -28.2858364 ], [ -53.5151701, -28.2858446 ], [ -53.5150775, -28.2856143 ], [ -53.5148699, -28.2857574 ], [ -53.5146644, -28.2859032 ], [ -53.5144612, -28.2860063 ], [ -53.51426080000001, -28.2860855 ], [ -53.5139133, -28.2861717 ], [ -53.5136085, -28.2862339 ], [ -53.5125294, -28.2863973 ], [ -53.5123957, -28.2864246 ], [ -53.5123184, -28.2864615 ], [ -53.51223, -28.286518 ], [ -53.5117194, -28.286936 ], [ -53.5115625, -28.2870964 ], [ -53.5114431, -28.2872606 ], [ -53.5112648, -28.2876302 ], [ -53.5110925, -28.2879037 ], [ -53.5110281, -28.2880188 ], [ -53.5109851, -28.2881232 ], [ -53.5103059, -28.2890521 ], [ -53.5097326, -28.289871099999989 ], [ -53.509638, -28.2899354 ], [ -53.5095213, -28.2901196 ], [ -53.5096481, -28.2901751 ], [ -53.5096675, -28.2902342 ] ] ] } },
{ "type": "Feature", "properties": { "name": "Bela Vista", "code_muni": 4313904.0, "name_muni": "Panambi" }, "geometry": { "type": "Polygon", "coordinates": [ [ [ -53.5069439, -28.2902744 ], [ -53.5076773, -28.290227099999989 ], [ -53.5092799, -28.2901424 ], [ -53.5095213, -28.2901196 ], [ -53.509638, -28.2899354 ], [ -53.5097326, -28.289871099999989 ], [ -53.5103059, -28.2890521 ], [ -53.5109851, -28.2881232 ], [ -53.5110281, -28.2880188 ], [ -53.5110925, -28.2879037 ], [ -53.5112648, -28.2876302 ], [ -53.5114431, -28.2872606 ], [ -53.5115625, -28.2870964 ], [ -53.5117194, -28.286936 ], [ -53.51223, -28.286518 ], [ -53.5123184, -28.2864615 ], [ -53.5123957, -28.2864246 ], [ -53.5118341, -28.2853116 ], [ -53.5114939, -28.2846385 ], [ -53.5113975, -28.2844474 ], [ -53.5111847, -28.2840258 ], [ -53.5110647, -28.2837627 ], [ -53.5106304, -28.2828107 ], [ -53.5103582, -28.2821812 ], [ -53.5100978, -28.2815999 ], [ -53.5099716, -28.2812877 ], [ -53.5099414, -28.2812129 ], [ -53.5098659, -28.2810261 ], [ -53.509701, -28.2805827 ], [ -53.5094362, -28.2807557 ], [ -53.5091418, -28.2809884 ], [ -53.5088789, -28.2811832 ], [ -53.5085343, -28.2814442 ], [ -53.5082982, -28.2816456 ], [ -53.5076726, -28.2820618 ], [ -53.5074318, -28.2822505 ], [ -53.5072117, -28.2824479 ], [ -53.5071954, -28.2824625 ], [ -53.5068364, -28.2828154 ], [ -53.506409, -28.2830909 ], [ -53.5062235, -28.2831998 ], [ -53.5060051, -28.2833045 ], [ -53.505722, -28.283408 ], [ -53.5054645, -28.2835169 ], [ -53.5044318, -28.2837389 ], [ -53.5043319, -28.2837933 ], [ -53.5041779, -28.2839604 ], [ -53.5039415, -28.2842367 ], [ -53.5034621, -28.2847853 ], [ -53.5030425, -28.2852034 ], [ -53.5038793, -28.2857514 ], [ -53.5038062, -28.2859001 ], [ -53.5037881, -28.2859686 ], [ -53.5037774, -28.2860383 ], [ -53.5037626, -28.2864174 ], [ -53.5037653, -28.2867374 ], [ -53.5037626, -28.2869559 ], [ -53.5037506, -28.2871283 ], [ -53.5034435, -28.2882892 ], [ -53.5035172, -28.2883943 ], [ -53.5037854, -28.2887297 ], [ -53.5041824, -28.28911 ], [ -53.5043111, -28.2891501 ], [ -53.5049978, -28.2896154 ], [ -53.5052365, -28.2899768 ], [ -53.5053608, -28.2902827 ], [ -53.5052258, -28.2903895 ], [ -53.5064254, -28.2903045 ], [ -53.5068247, -28.2902847 ], [ -53.5069439, -28.2902744 ] ] ] } },
{ "type": "Feature", "properties": { "name": "Planalto", "code_muni": 4313904.0, "name_muni": "Panambi" }, "geometry": { "type": "Polygon", "coordinates": [ [ [ -53.5100978, -28.2815999 ], [ -53.5103582, -28.2821812 ], [ -53.5106304, -28.2828107 ], [ -53.5110647, -28.2837627 ], [ -53.5111847, -28.2840258 ], [ -53.5113975, -28.2844474 ], [ -53.5114939, -28.2846385 ], [ -53.5118341, -28.2853116 ], [ -53.5123957, -28.2864246 ], [ -53.5125294, -28.2863973 ], [ -53.5136085, -28.2862339 ], [ -53.5139133, -28.2861717 ], [ -53.51426080000001, -28.2860855 ], [ -53.5144612, -28.2860063 ], [ -53.5146644, -28.2859032 ], [ -53.5148699, -28.2857574 ], [ -53.5150775, -28.2856143 ], [ -53.5153751, -28.2852978 ], [ -53.5155791, -28.2850628 ], [ -53.51574, -28.2848136 ], [ -53.5158701, -28.2845656 ], [ -53.5159788, -28.2841121 ], [ -53.5160277, -28.2839356 ], [ -53.5161102, -28.2837543 ], [ -53.5143077, -28.280177 ], [ -53.5099716, -28.2812877 ], [ -53.5100978, -28.2815999 ] ] ] } },
{ "type": "Feature", "properties": { "name": "Medianeira", "code_muni": 4313904.0, "name_muni": "Panambi" }, "geometry": { "type": "Polygon", "coordinates": [ [ [ -53.4850711, -28.2896582 ], [ -53.4847292, -28.2906742 ], [ -53.4845996, -28.2913631 ], [ -53.4869921, -28.291434 ], [ -53.4879047, -28.2913894 ], [ -53.4886737, -28.2913394 ], [ -53.489162, -28.2913136 ], [ -53.4902843, -28.2912374 ], [ -53.4914063, -28.291167 ], [ -53.4915663, -28.2911593 ], [ -53.4926797, -28.2910934 ], [ -53.4938923, -28.2910212 ], [ -53.4949504, -28.2909589 ], [ -53.495633, -28.2909153 ], [ -53.4967904, -28.2908478 ], [ -53.4966857, -28.2895233 ], [ -53.4965713, -28.287728799999989 ], [ -53.496548, -28.287375199999989 ], [ -53.4960389, -28.2873997 ], [ -53.4959185, -28.2870015 ], [ -53.4958393, -28.2866731 ], [ -53.4957455, -28.2862296 ], [ -53.495757, -28.2852725 ], [ -53.4956986, -28.2850711 ], [ -53.495146, -28.2850616 ], [ -53.4947759, -28.2850758 ], [ -53.4924799, -28.2851372 ], [ -53.4880436, -28.2855765 ], [ -53.486519, -28.2855808 ], [ -53.4850711, -28.2896582 ] ] ] } },
{ "type": "Feature", "properties": { "name": "Kuhn", "code_muni": 4313904.0, "name_muni": "Panambi" }, "geometry": { "type": "Polygon", "coordinates": [ [ [ -53.4880436, -28.2855765 ], [ -53.4924799, -28.2851372 ], [ -53.4947759, -28.2850758 ], [ -53.495146, -28.2850616 ], [ -53.4956986, -28.2850711 ], [ -53.4963132, -28.2844237 ], [ -53.4958622, -28.2842057 ], [ -53.4956421, -28.284007 ], [ -53.4953913, -28.2834776 ], [ -53.4949054, -28.2826208 ], [ -53.4948006, -28.2824878 ], [ -53.4945268, -28.282172 ], [ -53.494485, -28.2821281 ], [ -53.494776, -28.2808644 ], [ -53.4946364, -28.280901 ], [ -53.4942636, -28.2809222 ], [ -53.4941536, -28.280908 ], [ -53.49385860000001, -28.2805679 ], [ -53.4934348, -28.280327 ], [ -53.4929788, -28.2805301 ], [ -53.4930432, -28.2804781 ], [ -53.4926436, -28.2807616 ], [ -53.4922278, -28.2809907 ], [ -53.4919301, -28.2810191 ], [ -53.4916646, -28.2809695 ], [ -53.4915439, -28.2809175 ], [ -53.491399, -28.2808159 ], [ -53.4913105, -28.2806057 ], [ -53.4912461, -28.2803978 ], [ -53.4911442, -28.2798357 ], [ -53.4909028, -28.2796656 ], [ -53.4906239, -28.2792215 ], [ -53.4905139, -28.2788696 ], [ -53.4903503, -28.2787019 ], [ -53.4902564, -28.278383 ], [ -53.4903261, -28.2781279 ], [ -53.4855704, -28.2748258 ], [ -53.485759, -28.2754211 ], [ -53.4860272, -28.276567 ], [ -53.4862545, -28.2776396 ], [ -53.4864074, -28.2783487 ], [ -53.486589, -28.279196 ], [ -53.4869495, -28.2807806 ], [ -53.4870683, -28.2813139 ], [ -53.4871598, -28.2819053 ], [ -53.4872124, -28.2824857 ], [ -53.4871903, -28.2830159 ], [ -53.4871266, -28.2836112 ], [ -53.4869707, -28.2842291 ], [ -53.486519, -28.2855808 ], [ -53.4880436, -28.2855765 ] ] ] } },
{ "type": "Feature", "properties": { "name": "Morro Grosse", "code_muni": 4313904.0, "name_muni": "Panambi" }, "geometry": { "type": "Polygon", "coordinates": [ [ [ -53.5026304, -28.2858482 ], [ -53.5026924, -28.2856155 ], [ -53.5026683, -28.2855376 ], [ -53.5026591, -28.2854408 ], [ -53.5026665, -28.2853747 ], [ -53.5027085, -28.285222 ], [ -53.5027836, -28.2850688 ], [ -53.5031237, -28.2845604 ], [ -53.5032067, -28.2843985 ], [ -53.5032561, -28.2842575 ], [ -53.5032878, -28.284146 ], [ -53.5033016, -28.2840503 ], [ -53.5033629, -28.2835924 ], [ -53.5034301, -28.2830892 ], [ -53.5034796, -28.2826974 ], [ -53.5035428, -28.2822935 ], [ -53.5036753, -28.2816249 ], [ -53.5036733, -28.2814856 ], [ -53.50364960000001, -28.2811583 ], [ -53.5036239, -28.280834399999989 ], [ -53.5035665, -28.2805367 ], [ -53.5034716, -28.2802877 ], [ -53.5034321, -28.2801693 ], [ -53.5033866, -28.2800457 ], [ -53.5033016, -28.2798263 ], [ -53.5032008, -28.2796156 ], [ -53.5030386, -28.2793805 ], [ -53.5028805, -28.2792221 ], [ -53.5028231, -28.279182 ], [ -53.5027579, -28.2791472 ], [ -53.5026749, -28.2791072 ], [ -53.5026037, -28.2791002 ], [ -53.5025562, -28.2791176 ], [ -53.5019146, -28.2793373 ], [ -53.5009825, -28.279564 ], [ -53.4998989, -28.2795782 ], [ -53.4991807, -28.2795617 ], [ -53.4984727, -28.2795758 ], [ -53.4980134, -28.2801115 ], [ -53.4979906, -28.2816834 ], [ -53.4986571, -28.2825114 ], [ -53.4997944, -28.2826578 ], [ -53.4998212, -28.2830877 ], [ -53.4998966, -28.2834649 ], [ -53.4995584, -28.2834609 ], [ -53.4991668, -28.2835506 ], [ -53.4989468, -28.2836451 ], [ -53.4987693, -28.2837745 ], [ -53.4987208, -28.2838099 ], [ -53.4985626, -28.2839498 ], [ -53.4984801, -28.2840372 ], [ -53.4984615, -28.284116 ], [ -53.4989494, -28.2844699 ], [ -53.499121100000011, -28.284614 ], [ -53.4993705, -28.285051 ], [ -53.499561, -28.2853132 ], [ -53.4997165, -28.285478499999989 ], [ -53.4999714, -28.285606 ], [ -53.5004274, -28.2859277 ], [ -53.5005091, -28.2859108 ], [ -53.5007131, -28.2860513 ], [ -53.5009919, -28.2862107 ], [ -53.5011274, -28.2862414 ], [ -53.5013232, -28.2862568 ], [ -53.50180730000001, -28.2862615 ], [ -53.5025986, -28.2862733 ], [ -53.5026304, -28.2858482 ] ] ] } },
{ "type": "Feature", "properties": { "name": "Fensterseifer", "code_muni": 4313904.0, "name_muni": "Panambi" }, "geometry": { "type": "Polygon", "coordinates": [ [ [ -53.4984801, -28.2840372 ], [ -53.4985626, -28.2839498 ], [ -53.4987208, -28.2838099 ], [ -53.4987693, -28.2837745 ], [ -53.4989468, -28.2836451 ], [ -53.4991668, -28.2835506 ], [ -53.4995584, -28.2834609 ], [ -53.4998966, -28.2834649 ], [ -53.4998212, -28.2830877 ], [ -53.4997944, -28.2826578 ], [ -53.4986571, -28.2825114 ], [ -53.4979906, -28.2816834 ], [ -53.4980134, -28.2801115 ], [ -53.4984727, -28.2795758 ], [ -53.4985782, -28.2794527 ], [ -53.4985833, -28.2788269 ], [ -53.4985922, -28.2782667 ], [ -53.4985657, -28.2772084 ], [ -53.4984984, -28.2752627 ], [ -53.4985657, -28.2748738 ], [ -53.495053, -28.2748937 ], [ -53.4951641, -28.2756586 ], [ -53.495197, -28.275938599999989 ], [ -53.4953044, -28.2768687 ], [ -53.4953344, -28.2775989 ], [ -53.495292, -28.2781957 ], [ -53.4952555, -28.2784567 ], [ -53.495168, -28.278906 ], [ -53.4950276, -28.2796732 ], [ -53.494776, -28.2808644 ], [ -53.494485, -28.2821281 ], [ -53.4945268, -28.282172 ], [ -53.4948006, -28.2824878 ], [ -53.4949054, -28.2826208 ], [ -53.4953913, -28.2834776 ], [ -53.4956421, -28.284007 ], [ -53.4958622, -28.2842057 ], [ -53.4963132, -28.2844237 ], [ -53.4967286, -28.2846244 ], [ -53.4967874, -28.2846573 ], [ -53.4970874, -28.2839077 ], [ -53.4973364, -28.2833183 ], [ -53.4973723, -28.2832866 ], [ -53.4979007, -28.2835818 ], [ -53.4980375, -28.2836716 ], [ -53.4983406, -28.2840283 ], [ -53.4984615, -28.284116 ], [ -53.4984801, -28.2840372 ] ] ] } },
{ "type": "Feature", "properties": { "name": "Becker", "code_muni": 4313904.0, "name_muni": "Panambi" }, "geometry": { "type": "Polygon", "coordinates": [ [ [ -53.4902564, -28.278383 ], [ -53.4903503, -28.2787019 ], [ -53.4905139, -28.2788696 ], [ -53.4906239, -28.2792215 ], [ -53.4909028, -28.2796656 ], [ -53.4911442, -28.2798357 ], [ -53.4912461, -28.2803978 ], [ -53.4913105, -28.2806057 ], [ -53.491399, -28.2808159 ], [ -53.4915439, -28.2809175 ], [ -53.4916646, -28.2809695 ], [ -53.4919301, -28.2810191 ], [ -53.4922278, -28.2809907 ], [ -53.4926436, -28.2807616 ], [ -53.4930432, -28.2804781 ], [ -53.4929788, -28.2805301 ], [ -53.4934348, -28.280327 ], [ -53.49385860000001, -28.2805679 ], [ -53.4941536, -28.280908 ], [ -53.4942636, -28.2809222 ], [ -53.4946364, -28.280901 ], [ -53.494776, -28.2808644 ], [ -53.4950276, -28.2796732 ], [ -53.495168, -28.278906 ], [ -53.4952555, -28.2784567 ], [ -53.495292, -28.2781957 ], [ -53.4953344, -28.2775989 ], [ -53.4953044, -28.2768687 ], [ -53.495197, -28.275938599999989 ], [ -53.4951641, -28.2756586 ], [ -53.495053, -28.2748937 ], [ -53.4947621, -28.2728919 ], [ -53.4902859, -28.2729772 ], [ -53.4903261, -28.2781279 ], [ -53.4902564, -28.278383 ] ] ] } },
{ "type": "Feature", "properties": { "name": "Zona Norte", "code_muni": 4313904.0, "name_muni": "Panambi" }, "geometry": { "type": "Polygon", "coordinates": [ [ [ -53.500904, -28.2686853 ], [ -53.4942263, -28.2692041 ], [ -53.4944407, -28.2706753 ], [ -53.4945193, -28.2712208 ], [ -53.4947621, -28.2728919 ], [ -53.495053, -28.2748937 ], [ -53.4985657, -28.2748738 ], [ -53.4984984, -28.2752627 ], [ -53.4985657, -28.2772084 ], [ -53.4985922, -28.2782667 ], [ -53.4985833, -28.2788269 ], [ -53.4985782, -28.2794527 ], [ -53.4984727, -28.2795758 ], [ -53.4991807, -28.2795617 ], [ -53.4998989, -28.2795782 ], [ -53.5009825, -28.279564 ], [ -53.5019146, -28.2793373 ], [ -53.5025562, -28.2791176 ], [ -53.5026037, -28.2791002 ], [ -53.5026749, -28.2791072 ], [ -53.5027579, -28.2791472 ], [ -53.5028231, -28.279182 ], [ -53.5028805, -28.2792221 ], [ -53.5030386, -28.2793805 ], [ -53.5032008, -28.2796156 ], [ -53.5033016, -28.2798263 ], [ -53.5033866, -28.2800457 ], [ -53.5034321, -28.2801693 ], [ -53.5034716, -28.2802877 ], [ -53.5035665, -28.2805367 ], [ -53.5036239, -28.280834399999989 ], [ -53.50364960000001, -28.2811583 ], [ -53.5036733, -28.2814856 ], [ -53.5036753, -28.2816249 ], [ -53.5035428, -28.2822935 ], [ -53.5034796, -28.2826974 ], [ -53.5034301, -28.2830892 ], [ -53.5033629, -28.2835924 ], [ -53.5033016, -28.2840503 ], [ -53.5032878, -28.284146 ], [ -53.5032561, -28.2842575 ], [ -53.5032067, -28.2843985 ], [ -53.5031237, -28.2845604 ], [ -53.5027836, -28.2850688 ], [ -53.5027085, -28.285222 ], [ -53.5026665, -28.2853747 ], [ -53.5026591, -28.2854408 ], [ -53.5026683, -28.2855376 ], [ -53.5026924, -28.2856155 ], [ -53.5028256, -28.2854872 ], [ -53.5029513, -28.285318 ], [ -53.5030425, -28.2852034 ], [ -53.5034621, -28.2847853 ], [ -53.5039415, -28.2842367 ], [ -53.5041779, -28.2839604 ], [ -53.5043319, -28.2837933 ], [ -53.5044318, -28.2837389 ], [ -53.5054645, -28.2835169 ], [ -53.505722, -28.283408 ], [ -53.5060051, -28.2833045 ], [ -53.5062235, -28.2831998 ], [ -53.506409, -28.2830909 ], [ -53.5068364, -28.2828154 ], [ -53.5071954, -28.2824625 ], [ -53.5072117, -28.2824479 ], [ -53.5074318, -28.2822505 ], [ -53.5076726, -28.2820618 ], [ -53.5082982, -28.2816456 ], [ -53.5085343, -28.2814442 ], [ -53.5088789, -28.2811832 ], [ -53.5091418, -28.2809884 ], [ -53.5094362, -28.2807557 ], [ -53.509701, -28.2805827 ], [ -53.5105956, -28.2799821 ], [ -53.5114311, -28.2793526 ], [ -53.5116121, -28.2792085 ], [ -53.5121727, -28.2786399 ], [ -53.5123377, -28.2784066 ], [ -53.5124423, -28.2781574 ], [ -53.5135017, -28.2755721 ], [ -53.5135481, -28.2754633 ], [ -53.5136217, -28.2752978 ], [ -53.513947, -28.2745988 ], [ -53.514099, -28.2742514 ], [ -53.5143746, -28.2736552 ], [ -53.5129081, -28.2681803 ], [ -53.500904, -28.2686853 ] ] ] } },
{ "type": "Feature", "properties": { "name": "Alvorada", "code_muni": 4313904.0, "name_muni": "Panambi" }, "geometry": { "type": "Polygon", "coordinates": [ [ [ -53.4922845, -28.2651352 ], [ -53.493597800000011, -28.265083 ], [ -53.4934971, -28.2644571 ], [ -53.4934085, -28.2639485 ], [ -53.4933209, -28.2634695 ], [ -53.4932832, -28.2631782 ], [ -53.4932291, -28.2627609 ], [ -53.4931969, -28.2625653 ], [ -53.4931191, -28.2621046 ], [ -53.4931074, -28.2620399 ], [ -53.4930492, -28.2617184 ], [ -53.4929736, -28.2613141 ], [ -53.4928918, -28.2611244 ], [ -53.4925027, -28.2605417 ], [ -53.4920805, -28.2600067 ], [ -53.4917825, -28.2595613 ], [ -53.4895992, -28.2601259 ], [ -53.489679, -28.2614028 ], [ -53.4896944, -28.2619099 ], [ -53.489732, -28.2627718 ], [ -53.4897772, -28.2634224 ], [ -53.4899104, -28.2651201 ], [ -53.4912332, -28.2651686 ], [ -53.4922845, -28.2651352 ] ] ] } },
{ "type": "Feature", "properties": { "name": "Fritsch", "code_muni": 4313904.0, "name_muni": "Panambi" }, "geometry": { "type": "Polygon", "coordinates": [ [ [ -53.500904, -28.2686853 ], [ -53.5003807, -28.267774 ], [ -53.5002127, -28.2675163 ], [ -53.4998117, -28.26686 ], [ -53.4994255, -28.2662942 ], [ -53.4991076, -28.2657929 ], [ -53.4988395, -28.2654151 ], [ -53.4981152, -28.2644111 ], [ -53.4978711, -28.2640881 ], [ -53.4974313, -28.2635336 ], [ -53.497088, -28.2631121 ], [ -53.4969753, -28.2630329 ], [ -53.4968834, -28.2629875 ], [ -53.4967943, -28.262965 ], [ -53.4966601, -28.262952 ], [ -53.4965146, -28.2629579 ], [ -53.4959271, -28.2629856 ], [ -53.4950256, -28.2630551 ], [ -53.493754, -28.2631534 ], [ -53.4932832, -28.2631782 ], [ -53.4933209, -28.2634695 ], [ -53.4934085, -28.2639485 ], [ -53.4934971, -28.2644571 ], [ -53.493597800000011, -28.265083 ], [ -53.4922845, -28.2651352 ], [ -53.4912332, -28.2651686 ], [ -53.4912444, -28.2653532 ], [ -53.4912711, -28.2658989 ], [ -53.4913018, -28.2665256 ], [ -53.4913285, -28.2672323 ], [ -53.4913502, -28.2677011 ], [ -53.4913588, -28.2694243 ], [ -53.4942263, -28.2692041 ], [ -53.500904, -28.2686853 ] ] ] } },
{ "type": "Feature", "properties": { "name": "Trentini", "code_muni": 4313904.0, "name_muni": "Panambi" }, "geometry": { "type": "Polygon", "coordinates": [ [ [ -53.5012904, -28.2624767 ], [ -53.5000896, -28.2626071 ], [ -53.4991612, -28.2627621 ], [ -53.4984524, -28.2629159 ], [ -53.4981863, -28.2630553 ], [ -53.4974313, -28.2635336 ], [ -53.4978711, -28.2640881 ], [ -53.4981152, -28.2644111 ], [ -53.4988395, -28.2654151 ], [ -53.4991076, -28.2657929 ], [ -53.4994255, -28.2662942 ], [ -53.4998117, -28.26686 ], [ -53.5002127, -28.2675163 ], [ -53.5003807, -28.267774 ], [ -53.500904, -28.2686853 ], [ -53.5129081, -28.2681803 ], [ -53.5108536, -28.2657849 ], [ -53.5050436, -28.2623385 ], [ -53.5041971, -28.262374 ], [ -53.5032903, -28.2623896 ], [ -53.5016665, -28.2624447 ], [ -53.5012904, -28.2624767 ] ] ] } },
{ "type": "Feature", "properties": { "name": "Jaciandi", "code_muni": 4313904.0, "name_muni": "Panambi" }, "geometry": { "type": "Polygon", "coordinates": [ [ [ -53.4984613, -28.2575933 ], [ -53.4917825, -28.2595613 ], [ -53.4920805, -28.2600067 ], [ -53.4925027, -28.2605417 ], [ -53.4928918, -28.2611244 ], [ -53.4929736, -28.2613141 ], [ -53.4930492, -28.2617184 ], [ -53.4931074, -28.2620399 ], [ -53.4931191, -28.2621046 ], [ -53.4931969, -28.2625653 ], [ -53.4932291, -28.2627609 ], [ -53.4932832, -28.2631782 ], [ -53.493754, -28.2631534 ], [ -53.4950256, -28.2630551 ], [ -53.4959271, -28.2629856 ], [ -53.4965146, -28.2629579 ], [ -53.4966601, -28.262952 ], [ -53.4967943, -28.262965 ], [ -53.4968834, -28.2629875 ], [ -53.4969753, -28.2630329 ], [ -53.497088, -28.2631121 ], [ -53.4974313, -28.2635336 ], [ -53.4981863, -28.2630553 ], [ -53.4984524, -28.2629159 ], [ -53.4991612, -28.2627621 ], [ -53.5000896, -28.2626071 ], [ -53.5012904, -28.2624767 ], [ -53.5016665, -28.2624447 ], [ -53.5013838, -28.2604206 ], [ -53.501213, -28.2591981 ], [ -53.5011622, -28.259071 ], [ -53.5010912, -28.2589671 ], [ -53.5009578, -28.2588847 ], [ -53.4984613, -28.2575933 ] ] ] } }
]
}
