{
"type": "FeatureCollection",
"name": "bairros_bom_jesus",
"crs": { "type": "name", "properties": { "name": "urn:ogc:def:crs:OGC:1.3:CRS84" } },
"features": [
{ "type": "Feature", "properties": { "name": "Centro", "code_muni": 4302303.0, "name_muni": "Bom Jesus" }, "geometry": { "type": "Polygon", "coordinates": [ [ [ -50.4371461, -28.665072 ], [ -50.4376251, -28.6635543 ], [ -50.4370992, -28.663643 ], [ -50.4367495, -28.6638046 ], [ -50.4362353, -28.6640462 ], [ -50.4356187, -28.6638442 ], [ -50.4354253, -28.6645757 ], [ -50.4353839, -28.6647072 ], [ -50.4341667, -28.6644129 ], [ -50.4337558, -28.6643754 ], [ -50.4336538, -28.6642754 ], [ -50.4335132, -28.6644242 ], [ -50.4328073, -28.6650795 ], [ -50.4327477, -28.6651381 ], [ -50.432713, -28.6651653 ], [ -50.4326853, -28.6651822 ], [ -50.4326507, -28.6651978 ], [ -50.4326116, -28.665211 ], [ -50.4325638, -28.6652225 ], [ -50.432525, -28.6652317 ], [ -50.4324902, -28.6652357 ], [ -50.4324441, -28.6652346 ], [ -50.4323502, -28.6652205 ], [ -50.4322897, -28.6652169 ], [ -50.4320761, -28.6659936 ], [ -50.431953, -28.6663612 ], [ -50.431572, -28.6676386 ], [ -50.4313876, -28.6682336 ], [ -50.430708, -28.6681 ], [ -50.4305772, -28.6680634 ], [ -50.4305885, -28.668118 ], [ -50.4305923, -28.6681717 ], [ -50.430587, -28.6682187 ], [ -50.430508, -28.668486 ], [ -50.4304864, -28.6685785 ], [ -50.4304769, -28.6687143 ], [ -50.4304851, -28.6687736 ], [ -50.4305211, -28.6688672 ], [ -50.4305466, -28.6689396 ], [ -50.4305902, -28.669068299999989 ], [ -50.4306006, -28.6691095 ], [ -50.4306257, -28.6692564 ], [ -50.43063, -28.6693361 ], [ -50.4306284, -28.6693953 ], [ -50.4306028, -28.6695154 ], [ -50.4305593, -28.669646 ], [ -50.4305157, -28.6697765 ], [ -50.4301911, -28.6705707 ], [ -50.4300378, -28.6708646 ], [ -50.4299708, -28.6709423 ], [ -50.430529, -28.671087 ], [ -50.4314807, -28.6713143 ], [ -50.4323088, -28.6715427 ], [ -50.4331867, -28.671764399999986 ], [ -50.4339243, -28.6719559 ], [ -50.4345009, -28.672096 ], [ -50.4349434, -28.6722235 ], [ -50.4350244, -28.6722432 ], [ -50.435659, -28.6700897 ], [ -50.4357535, -28.6701113 ], [ -50.4368545, -28.670363 ], [ -50.4372347, -28.6704436 ], [ -50.4373232, -28.6702919 ], [ -50.4377232, -28.6691682 ], [ -50.438645, -28.6683629 ], [ -50.4389123, -28.6679773 ], [ -50.4392682, -28.6675245 ], [ -50.439418, -28.6674284 ], [ -50.4395597, -28.6671475 ], [ -50.4395765, -28.6671145 ], [ -50.4395953, -28.6670913 ], [ -50.4396321, -28.6670618 ], [ -50.4398042, -28.6669736 ], [ -50.4399866, -28.6668983 ], [ -50.4400617, -28.6668065 ], [ -50.4401261, -28.6663358 ], [ -50.4401073, -28.6661805 ], [ -50.4401102, -28.666049 ], [ -50.4396433, -28.665854 ], [ -50.4395841, -28.6658371 ], [ -50.4392931, -28.6657564 ], [ -50.4386166, -28.6655513 ], [ -50.4379153, -28.6653745 ], [ -50.4372067, -28.6651929 ], [ -50.4371461, -28.665072 ] ] ] } },
{ "type": "Feature", "properties": { "name": "São José", "code_muni": 4302303.0, "name_muni": "Bom Jesus" }, "geometry": { "type": "Polygon", "coordinates": [ [ [ -50.4393941, -28.6615519 ], [ -50.4392837, -28.661599 ], [ -50.4390961, -28.6616877 ], [ -50.4381895, -28.6623208 ], [ -50.4374707, -28.662928 ], [ -50.4372025, -28.6630833 ], [ -50.4368806, -28.6631728 ], [ -50.4365802, -28.663121 ], [ -50.4362744, -28.6627491 ], [ -50.4361242, -28.6626032 ], [ -50.4357594, -28.6625467 ], [ -50.4355985, -28.662607899999987 ], [ -50.4355405, -28.6626903 ], [ -50.4348728, -28.6625776 ], [ -50.4347473, -28.6626286 ], [ -50.4343619, -28.6627852 ], [ -50.434288, -28.6628153 ], [ -50.4336255, -28.6629636 ], [ -50.4334775, -28.6630007 ], [ -50.432906, -28.6631273 ], [ -50.4326758, -28.6639834 ], [ -50.4330817, -28.6640672 ], [ -50.4333338, -28.6641056 ], [ -50.4335853, -28.6641423 ], [ -50.4336538, -28.6642754 ], [ -50.4337558, -28.6643754 ], [ -50.4341667, -28.6644129 ], [ -50.4353839, -28.6647072 ], [ -50.4354253, -28.6645757 ], [ -50.4356187, -28.6638442 ], [ -50.4362353, -28.6640462 ], [ -50.4367495, -28.6638046 ], [ -50.4370992, -28.663643 ], [ -50.4376251, -28.6635543 ], [ -50.4391658, -28.662391400000011 ], [ -50.4393992, -28.6621466 ], [ -50.4394716, -28.6619795 ], [ -50.4394729, -28.661816 ], [ -50.439449, -28.6616849 ], [ -50.4393941, -28.6615519 ] ] ] } },
{ "type": "Feature", "properties": { "name": "Alto da Pedra", "code_muni": 4302303.0, "name_muni": "Bom Jesus" }, "geometry": { "type": "Polygon", "coordinates": [ [ [ -50.434288, -28.6628153 ], [ -50.4343619, -28.6627852 ], [ -50.4347473, -28.6626286 ], [ -50.4348728, -28.6625776 ], [ -50.4355405, -28.6626903 ], [ -50.4355985, -28.662607899999987 ], [ -50.4357594, -28.6625467 ], [ -50.4361242, -28.6626032 ], [ -50.4362744, -28.6627491 ], [ -50.4365802, -28.663121 ], [ -50.4368806, -28.6631728 ], [ -50.4372025, -28.6630833 ], [ -50.4374707, -28.662928 ], [ -50.4381895, -28.6623208 ], [ -50.4390961, -28.6616877 ], [ -50.4392837, -28.661599 ], [ -50.4393941, -28.6615519 ], [ -50.4393596, -28.6614787 ], [ -50.4392637, -28.6614047 ], [ -50.4383024, -28.65932 ], [ -50.4376922, -28.6595108 ], [ -50.4373924, -28.6595913 ], [ -50.4374418, -28.6604489 ], [ -50.4363163, -28.6605702 ], [ -50.4352007, -28.6605962 ], [ -50.4343517, -28.6607781 ], [ -50.4330567, -28.6611479 ], [ -50.4336255, -28.6629636 ], [ -50.434288, -28.6628153 ] ] ] } },
{ "type": "Feature", "properties": { "name": "Vila Santa Isabel", "code_muni": 4302303.0, "name_muni": "Bom Jesus" }, "geometry": { "type": "Polygon", "coordinates": [ [ [ -50.4401117, -28.6659812 ], [ -50.440118, -28.6656981 ], [ -50.4400885, -28.6655239 ], [ -50.4400912, -28.6651379 ], [ -50.4401395, -28.6649002 ], [ -50.4403299, -28.6645354 ], [ -50.4403916, -28.6643683 ], [ -50.4404318, -28.6639447 ], [ -50.4405311, -28.6636788 ], [ -50.4406196, -28.6633116 ], [ -50.4406223, -28.6632151 ], [ -50.4405391, -28.6629633 ], [ -50.4405472, -28.6628645 ], [ -50.440692, -28.6624408 ], [ -50.4407886, -28.6622525 ], [ -50.4408556, -28.6621608 ], [ -50.4409522, -28.6620831 ], [ -50.4410702, -28.6620219 ], [ -50.4414323, -28.6617277 ], [ -50.4415476, -28.6616853 ], [ -50.441722, -28.6616571 ], [ -50.4420465, -28.6615065 ], [ -50.4422128, -28.6614076 ], [ -50.4419661, -28.6612287 ], [ -50.4415476, -28.6611817 ], [ -50.441258, -28.6613229 ], [ -50.4410112, -28.6613323 ], [ -50.4405499, -28.661257 ], [ -50.4401529, -28.6613041 ], [ -50.4396433, -28.6614288 ], [ -50.4394581, -28.6615207 ], [ -50.4393941, -28.6615519 ], [ -50.439449, -28.6616849 ], [ -50.4394729, -28.661816 ], [ -50.4394716, -28.6619795 ], [ -50.4393992, -28.6621466 ], [ -50.4391658, -28.662391400000011 ], [ -50.4376251, -28.6635543 ], [ -50.4371461, -28.665072 ], [ -50.4372067, -28.6651929 ], [ -50.4379153, -28.6653745 ], [ -50.4386166, -28.6655513 ], [ -50.4392931, -28.6657564 ], [ -50.4395841, -28.6658371 ], [ -50.4396433, -28.665854 ], [ -50.4401102, -28.666049 ], [ -50.4401117, -28.6659812 ] ] ] } },
{ "type": "Feature", "properties": { "name": "Área Industrial Norte", "code_muni": 4302303.0, "name_muni": "Bom Jesus" }, "geometry": { "type": "Polygon", "coordinates": [ [ [ -50.4373924, -28.6595913 ], [ -50.4376922, -28.6595108 ], [ -50.4383024, -28.65932 ], [ -50.4379754, -28.6586332 ], [ -50.437858, -28.6584126 ], [ -50.4373738, -28.6577562 ], [ -50.43705270000001, -28.6573118 ], [ -50.436366, -28.6564219 ], [ -50.4356629, -28.6555747 ], [ -50.4352787, -28.6550133 ], [ -50.4351453, -28.6547647 ], [ -50.4350784, -28.6546395 ], [ -50.4350074, -28.6546133 ], [ -50.4349601, -28.6546005 ], [ -50.4349086, -28.6545988 ], [ -50.4348547, -28.6546027 ], [ -50.4348122, -28.6546097 ], [ -50.4347693, -28.6546228 ], [ -50.4347167, -28.6546863 ], [ -50.4341312, -28.6557862 ], [ -50.4334178, -28.657349 ], [ -50.4331603, -28.6577726 ], [ -50.4325434, -28.6591236 ], [ -50.4325112, -28.6592272 ], [ -50.432538, -28.6594578 ], [ -50.4327526, -28.6602251 ], [ -50.4328096, -28.6604308 ], [ -50.4329088, -28.6607188 ], [ -50.4330567, -28.6611479 ], [ -50.4343517, -28.6607781 ], [ -50.4352007, -28.6605962 ], [ -50.4363163, -28.6605702 ], [ -50.4374418, -28.6604489 ], [ -50.4373924, -28.6595913 ] ] ] } },
{ "type": "Feature", "properties": { "name": "Cohab", "code_muni": 4302303.0, "name_muni": "Bom Jesus" }, "geometry": { "type": "Polygon", "coordinates": [ [ [ -50.4330567, -28.6611479 ], [ -50.4329088, -28.6607188 ], [ -50.4326642, -28.6607769 ], [ -50.4305077, -28.6613794 ], [ -50.4302573, -28.661514799999988 ], [ -50.4304039, -28.6618788 ], [ -50.4303949, -28.6623007 ], [ -50.4304554, -28.6625328 ], [ -50.4306253, -28.662993 ], [ -50.4307641, -28.6632526 ], [ -50.4307008, -28.6632729 ], [ -50.4307222, -28.6633187 ], [ -50.4307598, -28.6634693 ], [ -50.4307491, -28.6636741 ], [ -50.431241, -28.663559 ], [ -50.4315414, -28.6634743 ], [ -50.4318419, -28.663399 ], [ -50.432906, -28.6631273 ], [ -50.4334775, -28.6630007 ], [ -50.4336255, -28.6629636 ], [ -50.4330567, -28.6611479 ] ] ] } },
{ "type": "Feature", "properties": { "name": "Ceee", "code_muni": 4302303.0, "name_muni": "Bom Jesus" }, "geometry": { "type": "Polygon", "coordinates": [ [ [ -50.4318419, -28.663399 ], [ -50.4315414, -28.6634743 ], [ -50.431241, -28.663559 ], [ -50.4307491, -28.6636741 ], [ -50.4309744, -28.6639118 ], [ -50.4310495, -28.6642601 ], [ -50.4312158, -28.6645378 ], [ -50.431547, -28.6646987 ], [ -50.4315833, -28.6647218 ], [ -50.4316232, -28.6647459 ], [ -50.4316524, -28.6647697 ], [ -50.4317516, -28.6648636 ], [ -50.432049, -28.6651879 ], [ -50.4320679, -28.6652009 ], [ -50.4320879, -28.6652099 ], [ -50.4321136, -28.6652129 ], [ -50.4322897, -28.6652169 ], [ -50.4323502, -28.6652205 ], [ -50.4324441, -28.6652346 ], [ -50.4324902, -28.6652357 ], [ -50.432525, -28.6652317 ], [ -50.4325638, -28.6652225 ], [ -50.4326116, -28.665211 ], [ -50.4326507, -28.6651978 ], [ -50.4326853, -28.6651822 ], [ -50.432713, -28.6651653 ], [ -50.4327477, -28.6651381 ], [ -50.4328073, -28.6650795 ], [ -50.4335132, -28.6644242 ], [ -50.4336538, -28.6642754 ], [ -50.4335853, -28.6641423 ], [ -50.4333338, -28.6641056 ], [ -50.4330817, -28.6640672 ], [ -50.4326758, -28.6639834 ], [ -50.432906, -28.6631273 ], [ -50.4318419, -28.663399 ] ] ] } },
{ "type": "Feature", "properties": { "name": "Vila Pinto", "code_muni": 4302303.0, "name_muni": "Bom Jesus" }, "geometry": { "type": "Polygon", "coordinates": [ [ [ -50.4321136, -28.6652129 ], [ -50.4320879, -28.6652099 ], [ -50.4320679, -28.6652009 ], [ -50.432049, -28.6651879 ], [ -50.4317516, -28.6648636 ], [ -50.4316524, -28.6647697 ], [ -50.4316232, -28.6647459 ], [ -50.4315833, -28.6647218 ], [ -50.431547, -28.6646987 ], [ -50.4312158, -28.6645378 ], [ -50.4308724, -28.6644648 ], [ -50.4307719, -28.6644511 ], [ -50.4306925, -28.6644446 ], [ -50.4306427, -28.6644445 ], [ -50.4305531, -28.6644522 ], [ -50.4305018, -28.6644659 ], [ -50.4304647, -28.6644818 ], [ -50.4304426, -28.6644979 ], [ -50.430422900000011, -28.6645182 ], [ -50.430376, -28.6645763 ], [ -50.4302341, -28.6647849 ], [ -50.4300785, -28.6649779 ], [ -50.4300689, -28.6649962 ], [ -50.4300642, -28.6650254 ], [ -50.4300731, -28.6652109 ], [ -50.4300731, -28.6654251 ], [ -50.4300383, -28.6655944 ], [ -50.4300183, -28.6656467 ], [ -50.4300099, -28.6656826 ], [ -50.4300041, -28.6657197 ], [ -50.4300008, -28.6659405 ], [ -50.4300997, -28.6659454 ], [ -50.4305432, -28.6659524 ], [ -50.4310244, -28.6660986 ], [ -50.431953, -28.6663612 ], [ -50.4320761, -28.6659936 ], [ -50.4322897, -28.6652169 ], [ -50.4321136, -28.6652129 ] ] ] } },
{ "type": "Feature", "properties": { "name": "Vila Expedicionário", "code_muni": 4302303.0, "name_muni": "Bom Jesus" }, "geometry": { "type": "Polygon", "coordinates": [ [ [ -50.431572, -28.6676386 ], [ -50.431953, -28.6663612 ], [ -50.4310244, -28.6660986 ], [ -50.4305432, -28.6659524 ], [ -50.4300997, -28.6659454 ], [ -50.4300008, -28.6659405 ], [ -50.4300258, -28.6662963 ], [ -50.4300291, -28.6663554 ], [ -50.4301116, -28.6672095 ], [ -50.43012070000001, -28.6672562 ], [ -50.4301369, -28.6672975 ], [ -50.4304218, -28.667762 ], [ -50.4305772, -28.6680634 ], [ -50.430708, -28.6681 ], [ -50.4313876, -28.6682336 ], [ -50.431572, -28.6676386 ] ] ] } },
{ "type": "Feature", "properties": { "name": "Vila Spinelli", "code_muni": 4302303.0, "name_muni": "Bom Jesus" }, "geometry": { "type": "Polygon", "coordinates": [ [ [ -50.4392682, -28.6675245 ], [ -50.4389123, -28.6679773 ], [ -50.438645, -28.6683629 ], [ -50.4377232, -28.6691682 ], [ -50.4373232, -28.6702919 ], [ -50.4372347, -28.6704436 ], [ -50.4387927, -28.6708025 ], [ -50.4395413, -28.6716686 ], [ -50.4407805, -28.6714615 ], [ -50.4429746, -28.6710191 ], [ -50.4431248, -28.668675100000012 ], [ -50.4401102, -28.666049 ], [ -50.4401073, -28.6661805 ], [ -50.4401261, -28.6663358 ], [ -50.4400617, -28.6668065 ], [ -50.4399866, -28.6668983 ], [ -50.4398042, -28.6669736 ], [ -50.4396321, -28.6670618 ], [ -50.4395953, -28.6670913 ], [ -50.4395765, -28.6671145 ], [ -50.4395597, -28.6671475 ], [ -50.439418, -28.6674284 ], [ -50.4392682, -28.6675245 ] ] ] } },
{ "type": "Feature", "properties": { "name": "Vila Tietböhl", "code_muni": 4302303.0, "name_muni": "Bom Jesus" }, "geometry": { "type": "Polygon", "coordinates": [ [ [ -50.4391551, -28.6729771 ], [ -50.4391792, -28.6727347 ], [ -50.4395413, -28.6716686 ], [ -50.4387927, -28.6708025 ], [ -50.4372347, -28.6704436 ], [ -50.4368545, -28.670363 ], [ -50.4357535, -28.6701113 ], [ -50.435659, -28.6700897 ], [ -50.4350244, -28.6722432 ], [ -50.4345766, -28.6738384 ], [ -50.4361429, -28.674422 ], [ -50.438789, -28.6742314 ], [ -50.4388591, -28.6738865 ], [ -50.4390438, -28.6734018 ], [ -50.4390374, -28.6733157 ], [ -50.4391551, -28.6729771 ] ] ] } },
{ "type": "Feature", "properties": { "name": "Vila Fonseca", "code_muni": 4302303.0, "name_muni": "Bom Jesus" }, "geometry": { "type": "Polygon", "coordinates": [ [ [ -50.430529, -28.671087 ], [ -50.4299708, -28.6709423 ], [ -50.4299206, -28.6710005 ], [ -50.4298478, -28.6710776 ], [ -50.4298001, -28.671117 ], [ -50.4295528, -28.671278 ], [ -50.4280561, -28.6724452 ], [ -50.4273856, -28.6728312 ], [ -50.426994, -28.6733112 ], [ -50.4265273, -28.6739043 ], [ -50.4252049, -28.6745561 ], [ -50.4235768, -28.6734312 ], [ -50.4232979, -28.673716 ], [ -50.4229063, -28.6741678 ], [ -50.4285321, -28.6773949 ], [ -50.4284804, -28.6771262 ], [ -50.4284405, -28.676618499999986 ], [ -50.4284377, -28.6759921 ], [ -50.4284843, -28.6757435 ], [ -50.4285329, -28.6756397 ], [ -50.4286005, -28.6754953 ], [ -50.4289653, -28.6750314 ], [ -50.4294756, -28.6745 ], [ -50.4299723, -28.6740077 ], [ -50.4304821, -28.673491099999989 ], [ -50.4309393, -28.673147 ], [ -50.4309667, -28.6729713 ], [ -50.4314807, -28.6713143 ], [ -50.430529, -28.671087 ] ] ] } },
{ "type": "Feature", "properties": { "name": "Vila Rodrigues", "code_muni": 4302303.0, "name_muni": "Bom Jesus" }, "geometry": { "type": "Polygon", "coordinates": [ [ [ -50.4359955, -28.6755139 ], [ -50.4349762, -28.6754645 ], [ -50.4350233, -28.675537800000011 ], [ -50.434932, -28.6757833 ], [ -50.4347181, -28.6765007 ], [ -50.4345085, -28.6771964 ], [ -50.4353598, -28.6773553 ], [ -50.4381546, -28.6767329 ], [ -50.4380943, -28.6763905 ], [ -50.4379535, -28.6753209 ], [ -50.4359955, -28.6755139 ] ] ] } },
{ "type": "Feature", "properties": { "name": "Vila Conceição", "code_muni": 4302303.0, "name_muni": "Bom Jesus" }, "geometry": { "type": "Polygon", "coordinates": [ [ [ -50.4299723, -28.6740077 ], [ -50.4294756, -28.6745 ], [ -50.4289653, -28.6750314 ], [ -50.4286005, -28.6754953 ], [ -50.4285329, -28.6756397 ], [ -50.4284843, -28.6757435 ], [ -50.4284377, -28.6759921 ], [ -50.4284405, -28.676618499999986 ], [ -50.4284804, -28.6771262 ], [ -50.4285321, -28.6773949 ], [ -50.4287523, -28.6783149 ], [ -50.4289072, -28.6786416 ], [ -50.4290614, -28.6788911 ], [ -50.4292541, -28.679194 ], [ -50.4296678, -28.6798137 ], [ -50.4299515, -28.6802267 ], [ -50.4300916, -28.6804216 ], [ -50.4308558, -28.6800818 ], [ -50.4310083, -28.6802372 ], [ -50.4312761, -28.6805744 ], [ -50.4322213, -28.681636 ], [ -50.4322908, -28.6816766 ], [ -50.4324098, -28.6812143 ], [ -50.4336458, -28.6769952 ], [ -50.43373840000001, -28.677014399999987 ], [ -50.4345085, -28.6771964 ], [ -50.4347181, -28.6765007 ], [ -50.434932, -28.6757833 ], [ -50.4350233, -28.675537800000011 ], [ -50.4349762, -28.6754645 ], [ -50.4343325, -28.6753327 ], [ -50.4341487, -28.6752938 ], [ -50.4343123, -28.674719 ], [ -50.4345766, -28.6738384 ], [ -50.4350244, -28.6722432 ], [ -50.4349434, -28.6722235 ], [ -50.4345009, -28.672096 ], [ -50.4339243, -28.6719559 ], [ -50.4331867, -28.671764399999986 ], [ -50.4323088, -28.6715427 ], [ -50.4314807, -28.6713143 ], [ -50.4309667, -28.6729713 ], [ -50.4309393, -28.673147 ], [ -50.4304821, -28.673491099999989 ], [ -50.4299723, -28.6740077 ] ] ] } },
{ "type": "Feature", "properties": { "name": "Vila Santa Catarina", "code_muni": 4302303.0, "name_muni": "Bom Jesus" }, "geometry": { "type": "Polygon", "coordinates": [ [ [ -50.4245183, -28.6822063 ], [ -50.4276645, -28.6866347 ], [ -50.4305827, -28.6901641 ], [ -50.4310978, -28.6896064 ], [ -50.4323477, -28.6882253 ], [ -50.4324335, -28.688314699999989 ], [ -50.4344827, -28.68708650000001 ], [ -50.4345443, -28.6870875 ], [ -50.43345690000001, -28.6854676 ], [ -50.4329478, -28.6847127 ], [ -50.43285, -28.6845678 ], [ -50.432927, -28.6845099 ], [ -50.4336163, -28.6842935 ], [ -50.4365695, -28.6827686 ], [ -50.4360767, -28.6821153 ], [ -50.4350522, -28.68183 ], [ -50.4343367, -28.6816873 ], [ -50.4324794, -28.6812314 ], [ -50.4324098, -28.6812143 ], [ -50.4322908, -28.6816766 ], [ -50.4322213, -28.681636 ], [ -50.4312761, -28.6805744 ], [ -50.4310083, -28.6802372 ], [ -50.4308558, -28.6800818 ], [ -50.4300916, -28.6804216 ], [ -50.4299515, -28.6802267 ], [ -50.4296678, -28.6798137 ], [ -50.4292541, -28.679194 ], [ -50.4290614, -28.6788911 ], [ -50.4289072, -28.6786416 ], [ -50.4287523, -28.6783149 ], [ -50.4245183, -28.6822063 ] ] ] } },
{ "type": "Feature", "properties": { "name": "Área Industrial Sul", "code_muni": 4302303.0, "name_muni": "Bom Jesus" }, "geometry": { "type": "Polygon", "coordinates": [ [ [ -50.4344827, -28.68708650000001 ], [ -50.4324335, -28.688314699999989 ], [ -50.4323477, -28.6882253 ], [ -50.4310978, -28.6896064 ], [ -50.4305827, -28.6901641 ], [ -50.4331684, -28.691585299999986 ], [ -50.4360677, -28.6912219 ], [ -50.4354491, -28.6892443 ], [ -50.4353565, -28.6889537 ], [ -50.4351189, -28.6882081 ], [ -50.4349501, -28.6877873 ], [ -50.4348886, -28.6876478 ], [ -50.435105, -28.687818299999989 ], [ -50.4357352, -28.6884846 ], [ -50.4366988, -28.6895176 ], [ -50.4375109, -28.6903658 ], [ -50.4380589, -28.6909436 ], [ -50.438385, -28.6912874 ], [ -50.4385954, -28.6915092 ], [ -50.4387252, -28.691639 ], [ -50.4389727, -28.6915712 ], [ -50.441663, -28.6895453 ], [ -50.4387984, -28.6865735 ], [ -50.4361725, -28.68847 ], [ -50.434928, -28.6868606 ], [ -50.4345443, -28.6870875 ], [ -50.4344827, -28.68708650000001 ] ] ] } },
{ "type": "Feature", "properties": { "name": "Vila da Alegria", "code_muni": 4302303.0, "name_muni": "Bom Jesus" }, "geometry": { "type": "Polygon", "coordinates": [ [ [ -50.4349501, -28.6877873 ], [ -50.4351189, -28.6882081 ], [ -50.4353565, -28.6889537 ], [ -50.4354491, -28.6892443 ], [ -50.4360677, -28.6912219 ], [ -50.4362605, -28.6918384 ], [ -50.4364904, -28.6924079 ], [ -50.4368594, -28.6931433 ], [ -50.4371703, -28.6936628 ], [ -50.4376071, -28.6942466 ], [ -50.4377948, -28.694484 ], [ -50.4378984, -28.6946175 ], [ -50.4382163, -28.6945075 ], [ -50.4385167, -28.6939569 ], [ -50.4393697, -28.6931711 ], [ -50.4395574, -28.6925264 ], [ -50.4394287, -28.6920747 ], [ -50.4389727, -28.6915712 ], [ -50.4387252, -28.691639 ], [ -50.4385954, -28.6915092 ], [ -50.438385, -28.6912874 ], [ -50.4380589, -28.6909436 ], [ -50.4375109, -28.6903658 ], [ -50.4366988, -28.6895176 ], [ -50.4357352, -28.6884846 ], [ -50.435105, -28.687818299999989 ], [ -50.4348886, -28.6876478 ], [ -50.4349501, -28.6877873 ] ] ] } }
]
}
