{
"type": "FeatureCollection",
"name": "bairros_alegrete",
"crs": { "type": "name", "properties": { "name": "urn:ogc:def:crs:OGC:1.3:CRS84" } },
"features": [
{ "type": "Feature", "properties": { "code_muni": 4300406.0, "name_muni": "Alegrete", "code_state": 43.0, "abbrev_state": "RS", "name_state": "Rio Grande do Sul", "code_region": 4.0, "name_region": "Sul", "year": 2022.0 }, "geometry": { "type": "Polygon", "coordinates": [ [ [ -55.874480601, -30.068765684 ], [ -55.889468856, -30.076662385 ], [ -55.892171574, -30.075430384 ], [ -55.894529513999892, -30.076358699 ], [ -55.900022702999891, -30.085061557 ], [ -55.904261824999899, -30.087233177 ], [ -55.911375154, -30.085907963999894 ], [ -55.914888736, -30.087723633999904 ], [ -55.920963463, -30.087954262 ], [ -55.925213801, -30.091048499999896 ], [ -55.927645783999893, -30.091104847999901 ], [ -55.938429668, -30.084456718 ], [ -55.941133002, -30.084550304999901 ], [ -55.945893766, -30.0889430719999 ], [ -55.968636816, -30.090520844 ], [ -55.977079902, -30.094368449999894 ], [ -55.987605601, -30.095442501 ], [ -55.995371771999899, -30.089501837999904 ], [ -55.99775083, -30.085583405 ], [ -56.004214135, -30.082337717 ], [ -56.007268140999898, -30.082225297 ], [ -56.011762522, -30.085515848999894 ], [ -56.020261043999895, -30.081464481 ], [ -56.030064115, -30.071581216 ], [ -56.032227908, -30.063762510999897 ], [ -56.038856704999901, -30.057730564999904 ], [ -56.043226025, -30.047968379999908 ], [ -56.04437358, -30.050114885 ], [ -56.049455098999893, -30.051963885 ], [ -56.051105129, -30.055131452 ], [ -56.065145363999903, -30.063884689 ], [ -56.070951915, -30.071106952 ], [ -56.076533804, -30.072946069 ], [ -56.082551339, -30.079277976999908 ], [ -56.08956761799989, -30.079733897 ], [ -56.096982353, -30.083140041 ], [ -56.099634102, -30.080882039 ], [ -56.108101103, -30.084231056 ], [ -56.114190677999893, -30.083482197 ], [ -56.11684095, -30.0811724829999 ], [ -56.121156153999891, -30.080175014 ], [ -56.150267888, -30.055011696 ], [ -56.153122450999895, -30.053826071999897 ], [ -56.153968752, -30.042039576 ], [ -56.152816093, -30.039474855 ], [ -56.155404123, -30.035819088 ], [ -56.155563006, -30.032572806 ], [ -56.159552006, -30.02912577 ], [ -56.167361797999909, -30.026259635 ], [ -56.170244912, -30.019149465999902 ], [ -56.178922895, -30.013600932 ], [ -56.184590042, -30.001412515 ], [ -56.187783727999893, -29.9995640829999 ], [ -56.190436102, -29.999786922999892 ], [ -56.193493227, -29.997580824 ], [ -56.197482820999902, -29.997759605999899 ], [ -56.1993865479999, -29.996328291999895 ], [ -56.200129379, -29.99278728 ], [ -56.204034701999902, -29.993897897 ], [ -56.209781227, -29.992771811 ], [ -56.21642879599991, -29.987560674999909 ], [ -56.220433698, -29.986021566 ], [ -56.222635966, -29.9828950039999 ], [ -56.224933490999895, -29.983952766 ], [ -56.226598224999989, -29.982522409 ], [ -56.234297158999908, -29.983138735 ], [ -56.240363777, -29.981261971 ], [ -56.243767049, -29.977790924 ], [ -56.245703643, -29.967410312 ], [ -56.244747652999898, -29.962593190999897 ], [ -56.247706311999899, -29.961130625 ], [ -56.247286335, -29.958124122 ], [ -56.258389316, -29.95080603 ], [ -56.262381887999894, -29.949499476 ], [ -56.265235495999903, -29.942425843999988 ], [ -56.280664605, -29.929108014999901 ], [ -56.280891832999899, -29.926263580999905 ], [ -56.283086181, -29.923967644999895 ], [ -56.28565732, -29.911240043 ], [ -56.291274567999899, -29.906835880999889 ], [ -56.292694927999889, -29.897905557999906 ], [ -56.299331062, -29.888582391999901 ], [ -56.306784985, -29.881236595 ], [ -56.307542267, -29.87756859 ], [ -56.305019641999891, -29.870211116999904 ], [ -56.305691326, -29.867367004999899 ], [ -56.316194262999907, -29.859450774 ], [ -56.328415461, -29.856997796 ], [ -56.339450803, -29.851391498999895 ], [ -56.351014226, -29.848627112 ], [ -56.363663077999895, -29.834232535 ], [ -56.365561006, -29.830276047 ], [ -56.364356104, -29.825122564 ], [ -56.368052245999891, -29.820461178 ], [ -56.372166879, -29.809830844 ], [ -56.369914669, -29.791460537 ], [ -56.36626423, -29.783822356 ], [ -56.369808078999895, -29.778466637 ], [ -56.368954273, -29.773176109 ], [ -56.370519851, -29.771405917 ], [ -56.368799618, -29.769462818 ], [ -56.371013564999892, -29.766022721 ], [ -56.37342151, -29.756166860999905 ], [ -56.371308486, -29.744384738999905 ], [ -56.378477136, -29.736719438 ], [ -56.380233999, -29.737210879 ], [ -56.38267046, -29.73544114 ], [ -56.384201971, -29.728855247999899 ], [ -56.394820302, -29.722362368999892 ], [ -56.401472801999901, -29.705049497999905 ], [ -56.40060834, -29.701211149 ], [ -56.398713992, -29.699696269 ], [ -56.400288988999897, -29.693434059 ], [ -56.397972828, -29.691079166999899 ], [ -56.394679197999892, -29.690207214999909 ], [ -56.392086445, -29.691740094 ], [ -56.390304834999903, -29.690346584999904 ], [ -56.391002075, -29.687365484999901 ], [ -56.38821458, -29.685252458 ], [ -56.381330631, -29.6832580999999 ], [ -56.376455375, -29.678874731 ], [ -56.37056525, -29.677502212 ], [ -56.368754778, -29.675514654 ], [ -56.368026911999891, -29.670427365 ], [ -56.363897984999902, -29.67134958 ], [ -56.361702779, -29.670130752 ], [ -56.365117127, -29.66181167 ], [ -56.370242640999898, -29.655338491 ], [ -56.370378148, -29.65151265 ], [ -56.366850606, -29.640668041 ], [ -56.367551976999898, -29.637226164 ], [ -56.374986062999909, -29.629671910999896 ], [ -56.381520334999898, -29.628295078 ], [ -56.382912558, -29.625794788999901 ], [ -56.378534921, -29.621325779999896 ], [ -56.377467088999893, -29.616929033 ], [ -56.384008767999894, -29.614893697 ], [ -56.383321192, -29.608363843999896 ], [ -56.37877738, -29.598498992 ], [ -56.376251859, -29.595724419 ], [ -56.374316792999892, -29.598843929999905 ], [ -56.371902319999897, -29.597632733 ], [ -56.371867693999896, -29.595580052999892 ], [ -56.376067216, -29.592957532 ], [ -56.378272722, -29.589226276 ], [ -56.381130153, -29.590664780999912 ], [ -56.38265025, -29.593710696 ], [ -56.384093882999899, -29.593063484 ], [ -56.382776089999901, -29.588128391999899 ], [ -56.384372160999895, -29.58584537 ], [ -56.386483243, -29.585620799 ], [ -56.38930928, -29.587347350999885 ], [ -56.391296743999902, -29.585470213 ], [ -56.392175940999891, -29.579284605999892 ], [ -56.395575623999896, -29.580214372999894 ], [ -56.400309793, -29.575720277999888 ], [ -56.403831393, -29.576699934 ], [ -56.40441837, -29.5734177739999 ], [ -56.409385084, -29.569486369999893 ], [ -56.406912963, -29.564614843 ], [ -56.410833525, -29.562677166 ], [ -56.408126355, -29.5626396769999 ], [ -56.408170428999902, -29.561017536 ], [ -56.410458525, -29.559143709999912 ], [ -56.41273906, -29.559082493999899 ], [ -56.413573315999891, -29.554582062 ], [ -56.423026208999893, -29.543089597999895 ], [ -56.4223177269999, -29.539821057 ], [ -56.430205290999893, -29.5392443 ], [ -56.433828814, -29.542752527999898 ], [ -56.4377473, -29.538031374 ], [ -56.440367636, -29.539806628 ], [ -56.446427717999896, -29.536963909999901 ], [ -56.447051291, -29.538861413999896 ], [ -56.4483541439999, -29.538115140999889 ], [ -56.452461791, -29.53284365 ], [ -56.451916829, -29.530443358 ], [ -56.45702934, -29.530905377 ], [ -56.461008072, -29.5285197699999 ], [ -56.460384548, -29.532256365 ], [ -56.464555865, -29.533727402 ], [ -56.467130454, -29.531777013999896 ], [ -56.467929088999909, -29.529780194 ], [ -56.465408296, -29.528289492999892 ], [ -56.467380689, -29.526700137 ], [ -56.46347646, -29.524276509999897 ], [ -56.463982949, -29.522399640999904 ], [ -56.465408196999896, -29.5221613259999 ], [ -56.466602216, -29.523958885 ], [ -56.467145605, -29.5225844879999 ], [ -56.464914883999896, -29.519432808 ], [ -56.467897384, -29.518107872999988 ], [ -56.468521385, -29.513851845 ], [ -56.464149299, -29.508576595 ], [ -56.467511790999893, -29.5072365259999 ], [ -56.468249229, -29.504637580999887 ], [ -56.464884391999895, -29.503067812 ], [ -56.46167709, -29.503527550999902 ], [ -56.46019963, -29.501938061 ], [ -56.459697756, -29.500720977 ], [ -56.461790742999895, -29.498803961 ], [ -56.460183521, -29.497433284 ], [ -56.462261043, -29.49419821 ], [ -56.458354035, -29.491258625999887 ], [ -56.460576327999902, -29.4903022999999 ], [ -56.460081734, -29.488018322999892 ], [ -56.463180431999902, -29.488631011999907 ], [ -56.463020061999899, -29.482898932 ], [ -56.466132273, -29.483819701 ], [ -56.469535736999902, -29.482969394999895 ], [ -56.470127538, -29.485384081999893 ], [ -56.474056308999891, -29.484759265 ], [ -56.468549931, -29.475447363999901 ], [ -56.469985707, -29.470142876999908 ], [ -56.472289194, -29.472808944 ], [ -56.4727070819999, -29.470185251 ], [ -56.475326793, -29.468462961999894 ], [ -56.481827902, -29.470723439 ], [ -56.481395371, -29.466895529999903 ], [ -56.4827904059999, -29.466212166999988 ], [ -56.486803575, -29.470428625999908 ], [ -56.492184274, -29.470714878 ], [ -56.498898679, -29.465927125999901 ], [ -56.500821614, -29.469152573 ], [ -56.504227001999901, -29.46983701100001 ], [ -56.504566342, -29.468497880999987 ], [ -56.511152481000011, -29.47079137 ], [ -56.512401796999896, -29.474155571 ], [ -56.511815997, -29.477289281 ], [ -56.513803816999904, -29.478646727 ], [ -56.5148925949999, -29.475879528999901 ], [ -56.517637304999901, -29.477942191 ], [ -56.517840071, -29.475048349 ], [ -56.520417854, -29.472198845 ], [ -56.519884475, -29.471106138 ], [ -56.521405729, -29.470655339 ], [ -56.520242954, -29.468964985999893 ], [ -56.522115676999896, -29.467800581999896 ], [ -56.522897297, -29.463219476999903 ], [ -56.525962837, -29.463673549 ], [ -56.530716073999891, -29.461664466999903 ], [ -56.531490128, -29.459161023 ], [ -56.53625894, -29.454268678999902 ], [ -56.540566466, -29.453595977 ], [ -56.539540363, -29.456318877999895 ], [ -56.54178489, -29.457015473 ], [ -56.545075848999893, -29.450273661 ], [ -56.553679906, -29.450731195999904 ], [ -56.55913527, -29.447698675 ], [ -56.562181158, -29.452837565 ], [ -56.564708144999898, -29.454143299999899 ], [ -56.566800831, -29.4539641329999 ], [ -56.570197884, -29.449249458999905 ], [ -56.57256423, -29.452196534999899 ], [ -56.574778894, -29.452072598 ], [ -56.575774931, -29.440893896 ], [ -56.585637006, -29.444556755999905 ], [ -56.589160049, -29.448582944999899 ], [ -56.590062277999891, -29.444893705 ], [ -56.591863542999896, -29.444736949999896 ], [ -56.592068895, -29.44920446 ], [ -56.593618357, -29.449197748999907 ], [ -56.59492530499989, -29.447278744999899 ], [ -56.5976666769999, -29.4497031769999 ], [ -56.597864718, -29.455975993 ], [ -56.600201606, -29.457932152999891 ], [ -56.608010523, -29.45830518 ], [ -56.609041347999899, -29.453944271 ], [ -56.604585721, -29.452438172 ], [ -56.60965128999991, -29.452114521999892 ], [ -56.613025653, -29.455360275 ], [ -56.614693544, -29.448712782 ], [ -56.612708867, -29.446421756999897 ], [ -56.608524968, -29.448835499 ], [ -56.607070719, -29.448211140999899 ], [ -56.60663377, -29.446001533999905 ], [ -56.608509582, -29.444124477999893 ], [ -56.614841129, -29.442689325999901 ], [ -56.619543574, -29.446429125999909 ], [ -56.622552011, -29.445866807 ], [ -56.627221909, -29.441165413 ], [ -56.627578630999892, -29.438205369999903 ], [ -56.625225793, -29.4326279389999 ], [ -56.62736359, -29.427816811 ], [ -56.624707211, -29.42749765 ], [ -56.625648779, -29.426433152999902 ], [ -56.654158141, -29.426685463999899 ], [ -56.660469260999896, -29.423344292 ], [ -56.64834196, -29.418133331 ], [ -56.634507325999891, -29.417044083999897 ], [ -56.61816994, -29.425334126999896 ], [ -56.611148008, -29.424561153 ], [ -56.606982566999896, -29.422380336999886 ], [ -56.604310308, -29.4172298 ], [ -56.605629135999898, -29.411558531 ], [ -56.61180196, -29.401979918999899 ], [ -56.611886456, -29.396539254999905 ], [ -56.605801781, -29.391586232 ], [ -56.602197476, -29.391432069 ], [ -56.597478851999902, -29.3932877559999 ], [ -56.593381993, -29.405027345 ], [ -56.59031111, -29.406174479 ], [ -56.582983076999902, -29.404645767 ], [ -56.576733662, -29.401050739 ], [ -56.569180832, -29.391174862 ], [ -56.56225736399989, -29.391011365999894 ], [ -56.55446134999989, -29.394853407 ], [ -56.544081543999894, -29.396181644 ], [ -56.525551031, -29.39583047 ], [ -56.520593146, -29.394566257 ], [ -56.509712293999897, -29.388306026999892 ], [ -56.506077153, -29.387721514 ], [ -56.494692635, -29.387899734 ], [ -56.484941522, -29.390291899 ], [ -56.481731618, -29.393381507 ], [ -56.478426342, -29.4089402829999 ], [ -56.471843458, -29.415731763999894 ], [ -56.4605268, -29.4204786879999 ], [ -56.430025402, -29.427374831999899 ], [ -56.418365921, -29.425444319 ], [ -56.398316811, -29.417287593 ], [ -56.380264814, -29.411766744 ], [ -56.373859124, -29.408865412999891 ], [ -56.3663608539999, -29.399311786999892 ], [ -56.363590320999897, -29.397726893 ], [ -56.3196132899999, -29.407386253 ], [ -56.296601162999899, -29.416781892 ], [ -56.291315492, -29.417217337999901 ], [ -56.256459182999897, -29.399731426 ], [ -56.245618382, -29.399060402 ], [ -56.231300265, -29.402081973999891 ], [ -56.223112097, -29.401421523999893 ], [ -56.219865415, -29.400157141 ], [ -56.207808477, -29.384632955 ], [ -56.201172799999902, -29.380062993 ], [ -56.18508464, -29.379354394 ], [ -56.178051062, -29.37727072 ], [ -56.175951757999897, -29.370699864 ], [ -56.177199561, -29.365098890999892 ], [ -56.175830763, -29.346650488 ], [ -56.176653836, -29.338616031 ], [ -56.181471237, -29.329178935999899 ], [ -56.181904983, -29.322129313999895 ], [ -56.178056421, -29.313472132999898 ], [ -56.175035869999903, -29.311736579999888 ], [ -56.163343007, -29.311341134 ], [ -56.1491024809999, -29.314794225 ], [ -56.139504609, -29.321057508 ], [ -56.133419226999891, -29.327183807 ], [ -56.122296138, -29.357041416 ], [ -56.119357237, -29.360310476999899 ], [ -56.105415997, -29.363533464999893 ], [ -56.094867225, -29.369731192 ], [ -56.085668024, -29.367402371 ], [ -56.078052454, -29.358528584999892 ], [ -56.077512132, -29.355302867 ], [ -56.080735026999903, -29.341471981 ], [ -56.079565831, -29.334304931 ], [ -56.077784416, -29.332126666 ], [ -56.05845243999989, -29.324314515 ], [ -56.055976964, -29.3219464109999 ], [ -56.049696524999902, -29.297399679 ], [ -56.045386043999898, -29.295418428999898 ], [ -56.0378301699999, -29.295925286999893 ], [ -56.029505392, -29.300860897 ], [ -56.018690121, -29.315553437999899 ], [ -55.998304403, -29.335085852 ], [ -55.990173980999892, -29.33882933699989 ], [ -55.979254055999895, -29.340915439999893 ], [ -55.961279685, -29.361461993 ], [ -55.955616355, -29.361935636999906 ], [ -55.935748277, -29.351547524999905 ], [ -55.925783983, -29.3489877069999 ], [ -55.9163642, -29.349080892 ], [ -55.913757055, -29.350433304 ], [ -55.911066004, -29.353749458 ], [ -55.910465988999896, -29.356863376 ], [ -55.911725109, -29.360197797999895 ], [ -55.91768124299989, -29.365011578999901 ], [ -55.919567746, -29.368933964999901 ], [ -55.919021565, -29.372490879999894 ], [ -55.914061897, -29.381265670999905 ], [ -55.908876409999891, -29.387922207 ], [ -55.89021689, -29.399288881 ], [ -55.878756553, -29.41451575 ], [ -55.8716392709999, -29.420572212 ], [ -55.865699982, -29.422609969 ], [ -55.860992094, -29.422443096999899 ], [ -55.857561647, -29.420829598999905 ], [ -55.850122707, -29.411276971999904 ], [ -55.845695358999897, -29.409210682 ], [ -55.84123463, -29.409169549 ], [ -55.836116175, -29.411291155999901 ], [ -55.833277414999891, -29.414350821 ], [ -55.831496659, -29.425267109999897 ], [ -55.829289719, -29.428872705999893 ], [ -55.820865211999902, -29.429991053 ], [ -55.81476288399989, -29.428799861999902 ], [ -55.805265259, -29.423682265 ], [ -55.779183730999897, -29.420414407 ], [ -55.774845379999896, -29.420916014999893 ], [ -55.772271017, -29.42305814 ], [ -55.7717607, -29.433497813 ], [ -55.768796998, -29.436390971 ], [ -55.764198516, -29.437270016 ], [ -55.756180262, -29.436437022 ], [ -55.747984104, -29.4397711149999 ], [ -55.742373088, -29.450486826 ], [ -55.745147620999902, -29.452677429999898 ], [ -55.749087424, -29.454337656 ], [ -55.763915964, -29.450256467 ], [ -55.768109711, -29.451269669999899 ], [ -55.770996048, -29.454758846999901 ], [ -55.770939708999904, -29.459467772 ], [ -55.768478807, -29.4627998089999 ], [ -55.761677689, -29.466470710999893 ], [ -55.758454823, -29.469471715999898 ], [ -55.75726715, -29.472708266 ], [ -55.759005229, -29.476566402999893 ], [ -55.767085047, -29.483080585 ], [ -55.767938898999901, -29.486227863 ], [ -55.765062058999902, -29.492317210999893 ], [ -55.760826881, -29.494550622 ], [ -55.748892188999896, -29.492873453 ], [ -55.740690013999902, -29.493656563999906 ], [ -55.736879863999903, -29.492485108 ], [ -55.728792057, -29.486888264999894 ], [ -55.726927474, -29.482811275 ], [ -55.730486201, -29.463203396 ], [ -55.727717685, -29.460575861999899 ], [ -55.723255951999896, -29.460479443999898 ], [ -55.71699102, -29.462280418 ], [ -55.710357293999898, -29.48259862 ], [ -55.712540308, -29.491545053 ], [ -55.710972173, -29.494457811 ], [ -55.707772755, -29.495183499999904 ], [ -55.698480187, -29.494063148 ], [ -55.69493807899989, -29.49186513 ], [ -55.68892456, -29.493484855 ], [ -55.685764624999891, -29.501208769 ], [ -55.68920005, -29.521631634 ], [ -55.686956704, -29.522589132 ], [ -55.68333372099989, -29.521659117999899 ], [ -55.6758884, -29.515577398999898 ], [ -55.667820817999903, -29.513197498999901 ], [ -55.666401008, -29.514430246 ], [ -55.668848312, -29.522380164 ], [ -55.668043886, -29.525349607999896 ], [ -55.660824251999898, -29.531148529999896 ], [ -55.659180450999898, -29.534922138999899 ], [ -55.65947346, -29.537006535999989 ], [ -55.663908353, -29.539107701 ], [ -55.671289937, -29.540372557999895 ], [ -55.689929325, -29.54910959099989 ], [ -55.692877557, -29.553139898 ], [ -55.693312288999891, -29.558911389999896 ], [ -55.691518368999894, -29.564465934999902 ], [ -55.689321892, -29.566743358999897 ], [ -55.68573946, -29.567357995999895 ], [ -55.681035682, -29.566013247999901 ], [ -55.681807208, -29.555147511 ], [ -55.678020411, -29.552615773999886 ], [ -55.674579947, -29.552364229 ], [ -55.657509299, -29.560040187 ], [ -55.641314807999898, -29.559442971 ], [ -55.625724658, -29.561255471999988 ], [ -55.616370962, -29.567891757 ], [ -55.61309591, -29.579688781 ], [ -55.607822708, -29.582636328 ], [ -55.600924204, -29.583214846 ], [ -55.585225489, -29.5879969279999 ], [ -55.575546808, -29.59549842 ], [ -55.557844453, -29.597336282 ], [ -55.55078386, -29.600154657 ], [ -55.547552762, -29.602878469 ], [ -55.547556772, -29.607129471 ], [ -55.551552009, -29.617686533 ], [ -55.542942275, -29.622828092 ], [ -55.540952821, -29.627265512 ], [ -55.536117566, -29.627654409999899 ], [ -55.534595226, -29.629277556 ], [ -55.536301424, -29.633508857 ], [ -55.53532446, -29.638614563 ], [ -55.536694301999894, -29.643739094999901 ], [ -55.539322909, -29.646592246999898 ], [ -55.540152256999903, -29.654864594999896 ], [ -55.538516181, -29.656705584999905 ], [ -55.539811068999903, -29.658235644999891 ], [ -55.539616746, -29.662297705999901 ], [ -55.535301042, -29.662588577999905 ], [ -55.531345947, -29.665341156999901 ], [ -55.52826457, -29.662486767 ], [ -55.516814817999901, -29.658721676999988 ], [ -55.513538825999895, -29.65559044 ], [ -55.495075998999894, -29.656862424999897 ], [ -55.487761744999901, -29.655400482999902 ], [ -55.476268789999892, -29.648300355999901 ], [ -55.469332419, -29.647263419999895 ], [ -55.456178619999903, -29.654419716999904 ], [ -55.45526305, -29.65676143 ], [ -55.452085443, -29.658616494999901 ], [ -55.450858468, -29.664101441 ], [ -55.448087127, -29.664410455999899 ], [ -55.440974949999898, -29.661532096 ], [ -55.437212358, -29.662741024 ], [ -55.427105659999896, -29.66276721 ], [ -55.413243909999892, -29.660500119999895 ], [ -55.414437635, -29.659953405 ], [ -55.413615411, -29.654783762 ], [ -55.415635208, -29.647654412 ], [ -55.414292169, -29.646154271999901 ], [ -55.41583386699989, -29.64022517 ], [ -55.408785708, -29.62750792 ], [ -55.4082139349999, -29.623298895999902 ], [ -55.411083027, -29.620147460999899 ], [ -55.400548331, -29.615347604 ], [ -55.38589718, -29.617193593 ], [ -55.380136961999902, -29.616084609 ], [ -55.37281173, -29.612702246 ], [ -55.363319829, -29.614612247 ], [ -55.355511921999891, -29.620014152 ], [ -55.338419277, -29.63677496 ], [ -55.326265973, -29.642214458 ], [ -55.321584905, -29.641075018999988 ], [ -55.312242925, -29.632599413 ], [ -55.309066338, -29.631241671999899 ], [ -55.295279826, -29.631551083 ], [ -55.292887545, -29.630616460999896 ], [ -55.28523573, -29.621123839999893 ], [ -55.280233467999899, -29.617821133999886 ], [ -55.275265024, -29.617260099 ], [ -55.268064263, -29.619335233 ], [ -55.258931304, -29.617343893999909 ], [ -55.250238709, -29.617957375999897 ], [ -55.243462114, -29.620311333 ], [ -55.235572525, -29.634124938999896 ], [ -55.232863436999899, -29.635033242 ], [ -55.223956051999899, -29.631429073999989 ], [ -55.218688277, -29.632537472 ], [ -55.21251384499989, -29.636159834999912 ], [ -55.21284868, -29.651084703 ], [ -55.206574014, -29.659142168 ], [ -55.195888626999896, -29.66591591 ], [ -55.193043628999895, -29.672914345 ], [ -55.192555575, -29.677342359 ], [ -55.195181095999892, -29.690640965999904 ], [ -55.194782382, -29.694145381999899 ], [ -55.191654216, -29.696745273 ], [ -55.158419635, -29.697625466 ], [ -55.147337013, -29.694646449999897 ], [ -55.137033464999895, -29.696678638 ], [ -55.131578644999891, -29.695733849 ], [ -55.126159476999902, -29.697694731999896 ], [ -55.1241985939999, -29.703541728999905 ], [ -55.124769033, -29.707820018999893 ], [ -55.129082975, -29.719603143 ], [ -55.12694383, -29.730370173 ], [ -55.126409044, -29.74916791 ], [ -55.127656879, -29.751743797 ], [ -55.135429105999897, -29.757127312000012 ], [ -55.135928239999906, -29.761298645 ], [ -55.131649949, -29.765184758 ], [ -55.121739418999894, -29.766961237 ], [ -55.121459092, -29.768907011 ], [ -55.119559883, -29.7694772729999 ], [ -55.12216875, -29.771045569 ], [ -55.123915928, -29.768215034 ], [ -55.124942945, -29.768603425 ], [ -55.125465260999896, -29.770878809 ], [ -55.123526022, -29.773250514 ], [ -55.125106651999893, -29.77548583 ], [ -55.123959673999892, -29.775927819999904 ], [ -55.123364045, -29.774844207999905 ], [ -55.119677284, -29.777598489999892 ], [ -55.115451709, -29.777712553 ], [ -55.116709038999893, -29.786058436 ], [ -55.112463646, -29.792839396 ], [ -55.115638577, -29.798271418 ], [ -55.111885102, -29.800182447999902 ], [ -55.119932897, -29.807183113 ], [ -55.12086253199989, -29.810556088999892 ], [ -55.11997844, -29.812263652999899 ], [ -55.125615868999901, -29.816400716 ], [ -55.125075147, -29.820141465999892 ], [ -55.129286115, -29.821749089 ], [ -55.133248661, -29.820612416 ], [ -55.139200726, -29.822198871999902 ], [ -55.14170699999989, -29.821412598999899 ], [ -55.150093352999903, -29.826546742999898 ], [ -55.151489279, -29.8294181169999 ], [ -55.149947325, -29.829069788 ], [ -55.149882124, -29.830546662 ], [ -55.147568556, -29.831412149 ], [ -55.147849778, -29.833361566999908 ], [ -55.146754168, -29.8336874079999 ], [ -55.148899706, -29.835867920999892 ], [ -55.1466191969999, -29.837795451 ], [ -55.146634666999894, -29.840808371 ], [ -55.144842744999892, -29.842619672999895 ], [ -55.142172805, -29.841068838 ], [ -55.139736684, -29.843989070999985 ], [ -55.139455589, -29.847916725999905 ], [ -55.141335758, -29.851964999 ], [ -55.144685695, -29.852171412 ], [ -55.147768083999892, -29.854131894 ], [ -55.150043970999903, -29.853295381999892 ], [ -55.153114963, -29.855616956999892 ], [ -55.15270377, -29.859821659 ], [ -55.150444858999897, -29.862288249999896 ], [ -55.151568031999901, -29.864979024 ], [ -55.148572655, -29.870009312 ], [ -55.149522454, -29.872040222999903 ], [ -55.152569392, -29.875225489999899 ], [ -55.15618297799989, -29.875972709999896 ], [ -55.164403267999894, -29.874417715999989 ], [ -55.167106745, -29.877676955 ], [ -55.17174600499991, -29.880193946 ], [ -55.178076932, -29.8971934529999 ], [ -55.194399989, -29.915504025000011 ], [ -55.20074722, -29.916923800999903 ], [ -55.203154912999899, -29.919219867 ], [ -55.204655744, -29.918891384999899 ], [ -55.208277752999891, -29.921874755 ], [ -55.212005663, -29.922916616999899 ], [ -55.219768254, -29.919820726 ], [ -55.222471325, -29.919972668 ], [ -55.226269262, -29.924417478 ], [ -55.229582520999898, -29.929361722 ], [ -55.234275624, -29.942715892 ], [ -55.233292151999898, -29.948558337999891 ], [ -55.235378782999895, -29.952732054 ], [ -55.240036585, -29.957442892 ], [ -55.240002041, -29.963872071 ], [ -55.244576416, -29.972188928 ], [ -55.243878892999902, -29.97655205 ], [ -55.24611069, -29.984214139 ], [ -55.245193146, -29.987933095999896 ], [ -55.252152214, -29.992027603999901 ], [ -55.259474301, -30.002105782999898 ], [ -55.260011523999893, -30.004458208 ], [ -55.258250868999895, -30.008209130999898 ], [ -55.259387848999893, -30.013877468 ], [ -55.267202305, -30.016888555 ], [ -55.266255383, -30.020958850999897 ], [ -55.268025335999894, -30.024569563999904 ], [ -55.266848394, -30.029271057 ], [ -55.268509332, -30.034953463 ], [ -55.270005215, -30.036087164 ], [ -55.269566819, -30.039869608999894 ], [ -55.271637176, -30.039457889999895 ], [ -55.273638860999895, -30.0413785699999 ], [ -55.278032975, -30.042006902 ], [ -55.278890238, -30.045696122 ], [ -55.280829582, -30.046190506999892 ], [ -55.281099097, -30.051737973999899 ], [ -55.28422919, -30.053400444 ], [ -55.287168638, -30.058196377999902 ], [ -55.294468079, -30.063498748 ], [ -55.297623356, -30.064200802 ], [ -55.298405616, -30.066171352 ], [ -55.305127061, -30.071558062 ], [ -55.304457686, -30.07491407 ], [ -55.313066719999902, -30.081306357 ], [ -55.358220021, -30.077310462 ], [ -55.359904246, -30.080718713 ], [ -55.363200806, -30.081696571 ], [ -55.370326492999901, -30.079178933 ], [ -55.372802497, -30.077082993000012 ], [ -55.384255779999897, -30.074698350999896 ], [ -55.385552171, -30.076877115999896 ], [ -55.390248566, -30.079226210999892 ], [ -55.396280604, -30.078078002 ], [ -55.399042279, -30.078952355 ], [ -55.406385313, -30.084771017 ], [ -55.415715986999892, -30.089853967 ], [ -55.424035499999896, -30.091963848 ], [ -55.439375025999901, -30.092699105 ], [ -55.440935677, -30.094093465 ], [ -55.444187870999897, -30.092337304999912 ], [ -55.444811371, -30.09038831 ], [ -55.452074258, -30.089686728999897 ], [ -55.454227741, -30.087927690000011 ], [ -55.457109175, -30.089003175999899 ], [ -55.458518193, -30.087552673999905 ], [ -55.458766781, -30.083791964999904 ], [ -55.461048696, -30.084151074 ], [ -55.461889055, -30.082818663 ], [ -55.464553120999895, -30.083462356 ], [ -55.466605836, -30.073435327 ], [ -55.46964725, -30.074438488999892 ], [ -55.471479309, -30.078672825 ], [ -55.487759792, -30.088061099999905 ], [ -55.493522075, -30.09506598 ], [ -55.496488070999902, -30.100848394 ], [ -55.50108912, -30.105102213 ], [ -55.501314263, -30.112765364999987 ], [ -55.499682709, -30.114732941999897 ], [ -55.499482568, -30.120513656 ], [ -55.502331400999893, -30.123763755 ], [ -55.502066667999891, -30.125065151999898 ], [ -55.507668397, -30.129486646 ], [ -55.508807964, -30.132575959999905 ], [ -55.514658611, -30.13299367 ], [ -55.524503513, -30.140320717999892 ], [ -55.524676175, -30.144138031 ], [ -55.527934279, -30.144978004999899 ], [ -55.529870624, -30.147659471999901 ], [ -55.528203248999901, -30.150235246 ], [ -55.527829489999895, -30.156877483 ], [ -55.529343916, -30.160221985 ], [ -55.538451000999899, -30.163240698 ], [ -55.547576638, -30.15761394 ], [ -55.553592054, -30.157884649 ], [ -55.556598666, -30.154826014 ], [ -55.559842978999896, -30.154272573 ], [ -55.561997114, -30.155311911 ], [ -55.575127979999891, -30.149978752 ], [ -55.580991903, -30.149037049 ], [ -55.585885702, -30.151542127 ], [ -55.594262659, -30.148555159999901 ], [ -55.597819816, -30.143179277999902 ], [ -55.601981384999903, -30.142676719 ], [ -55.606100693, -30.14430935 ], [ -55.609592968, -30.142733354 ], [ -55.612372496, -30.138313305999905 ], [ -55.61711464, -30.136457828999905 ], [ -55.617172879, -30.134467830999903 ], [ -55.620336592999898, -30.1311867699999 ], [ -55.626506782, -30.130233857999905 ], [ -55.631685806999897, -30.126574653 ], [ -55.63815131, -30.118764911 ], [ -55.647358755, -30.118943709 ], [ -55.646446923, -30.113620506 ], [ -55.650763237, -30.112265846 ], [ -55.653423454999903, -30.108955172 ], [ -55.656193523, -30.108220849 ], [ -55.657063001, -30.104276447 ], [ -55.661679131, -30.103119009999901 ], [ -55.663532614, -30.105398465 ], [ -55.665858124999893, -30.106003753 ], [ -55.668795374999902, -30.102776487 ], [ -55.67120245, -30.102928517 ], [ -55.670429165, -30.107338555 ], [ -55.671612791, -30.109392321 ], [ -55.669764308, -30.109949672 ], [ -55.670854066999901, -30.111946071 ], [ -55.670360140999897, -30.11627957 ], [ -55.672276911, -30.116231146 ], [ -55.671015681, -30.115370804999902 ], [ -55.673183476, -30.113296905 ], [ -55.673458283999899, -30.117778261999899 ], [ -55.672324074999892, -30.119325921 ], [ -55.673622952999899, -30.120759346999904 ], [ -55.674474094999901, -30.119168739 ], [ -55.677227774, -30.119361189 ], [ -55.676811921, -30.12182339 ], [ -55.667730862, -30.126310455 ], [ -55.662656308, -30.132036861999897 ], [ -55.652246533, -30.146637868 ], [ -55.65068643, -30.150843289 ], [ -55.652346252, -30.152795404 ], [ -55.658082449999903, -30.152190619 ], [ -55.6575835, -30.156110410999901 ], [ -55.648959857, -30.159912974 ], [ -55.647952792, -30.161846649000012 ], [ -55.649054557999897, -30.163023175 ], [ -55.654873967999897, -30.162517939999894 ], [ -55.65943042, -30.164522255999895 ], [ -55.665771132, -30.172906435 ], [ -55.668883899, -30.173224648 ], [ -55.671398504, -30.171516661999895 ], [ -55.674889430999897, -30.172895314 ], [ -55.6741612329999, -30.175206427 ], [ -55.671637986, -30.176571926 ], [ -55.662159088999893, -30.1769330139999 ], [ -55.652065546, -30.18002082 ], [ -55.667801585999896, -30.191041149999894 ], [ -55.666719068, -30.19513353 ], [ -55.669345501999899, -30.197204813999988 ], [ -55.674112444999892, -30.197965994999905 ], [ -55.674191923, -30.199599619 ], [ -55.671660828, -30.202254008999894 ], [ -55.661757439, -30.206474657999895 ], [ -55.659170042, -30.209374022 ], [ -55.654672445999893, -30.209272643 ], [ -55.643573795999892, -30.212569667 ], [ -55.642469725, -30.21797105 ], [ -55.646315847, -30.219840718999908 ], [ -55.646328975, -30.223760414 ], [ -55.651403175, -30.230667914 ], [ -55.653877971, -30.230169627 ], [ -55.660863997, -30.224038406 ], [ -55.667736578, -30.221806714 ], [ -55.6718585039999, -30.222455236 ], [ -55.674910328999893, -30.220589661 ], [ -55.675554222, -30.226750443 ], [ -55.682741197, -30.222844012999904 ], [ -55.687489033, -30.2262047 ], [ -55.695061364, -30.227708735 ], [ -55.698709145999899, -30.230195776 ], [ -55.710748684999892, -30.228474467 ], [ -55.720908173999902, -30.232821059999896 ], [ -55.727350386999909, -30.232142899999904 ], [ -55.735620672, -30.229016929 ], [ -55.739970325999899, -30.231592704 ], [ -55.745114709999896, -30.230974183999901 ], [ -55.754429560999895, -30.221005165 ], [ -55.75170387299989, -30.215040632999905 ], [ -55.752167046, -30.210989600999898 ], [ -55.760153948, -30.195291294 ], [ -55.768099276, -30.168560623 ], [ -55.77218038, -30.168709403 ], [ -55.776530008, -30.171208276 ], [ -55.787323914999902, -30.167552597999904 ], [ -55.790448942999902, -30.170066769999895 ], [ -55.7972733289999, -30.172042351 ], [ -55.813359329, -30.1694916 ], [ -55.814888442, -30.166810907 ], [ -55.819466871, -30.164696714999902 ], [ -55.824939295999989, -30.164287062 ], [ -55.82584265, -30.159277356 ], [ -55.823917121, -30.157548221 ], [ -55.827938044999897, -30.154397151 ], [ -55.830220418999893, -30.155267201999898 ], [ -55.830851897999892, -30.15174209 ], [ -55.83234147799989, -30.150723866 ], [ -55.833959078, -30.1514642459999 ], [ -55.835913047, -30.147944983999899 ], [ -55.838807636999896, -30.148021719999988 ], [ -55.84597017, -30.142541712 ], [ -55.854196521999896, -30.140760112 ], [ -55.856963482, -30.137025261 ], [ -55.86095461, -30.137416985999895 ], [ -55.86560888, -30.134434397999904 ], [ -55.873325924, -30.134590601 ], [ -55.873519627999897, -30.131657759999904 ], [ -55.870841901999896, -30.124951054 ], [ -55.873098087999892, -30.1223612809999 ], [ -55.8723303, -30.118907349 ], [ -55.874268145, -30.117603613 ], [ -55.874321226999896, -30.112941233 ], [ -55.876685573, -30.110766512999902 ], [ -55.87476622, -30.107601386999903 ], [ -55.876022336999903, -30.106091814 ], [ -55.875523395, -30.103848836999887 ], [ -55.877420463, -30.103369024999903 ], [ -55.878823468999897, -30.10041438 ], [ -55.878568893, -30.099078781999896 ], [ -55.874966441, -30.098257235999899 ], [ -55.877617319, -30.087821131999902 ], [ -55.877062469999899, -30.082504561999897 ], [ -55.873001287, -30.077841310999904 ], [ -55.875147899, -30.075107881999902 ], [ -55.874480601, -30.068765684 ] ] ] } }
]
}
