{
"type": "FeatureCollection",
"name": "bairros_chui",
"crs": { "type": "name", "properties": { "name": "urn:ogc:def:crs:OGC:1.3:CRS84" } },
"features": [
{ "type": "Feature", "properties": { "name": "Centro", "code_muni": 4305439.0, "name_muni": "Chuí" }, "geometry": { "type": "Polygon", "coordinates": [ [ [ -53.4471018, -33.6903212 ], [ -53.44713, -33.6908485 ], [ -53.4472017, -33.691835 ], [ -53.4472861, -33.692964699999983 ], [ -53.4499204, -33.6928574 ], [ -53.4502785, -33.6928417 ], [ -53.4509694, -33.6928134 ], [ -53.4511905, -33.6928045 ], [ -53.4521776, -33.692756 ], [ -53.4540162, -33.6926512 ], [ -53.455285, -33.6925863 ], [ -53.455443, -33.6925824 ], [ -53.4565496, -33.692529899999982 ], [ -53.4566877, -33.6925227 ], [ -53.4578012, -33.6924647 ], [ -53.4587145, -33.6924184 ], [ -53.4590651, -33.6924017 ], [ -53.4603412, -33.692345499999988 ], [ -53.462007, -33.6922498 ], [ -53.4620389, -33.6911917 ], [ -53.462029, -33.6901073 ], [ -53.461204, -33.6901385 ], [ -53.4602216, -33.6901966 ], [ -53.4586633, -33.6902712 ], [ -53.4571476, -33.6903589 ], [ -53.4569621, -33.6903768 ], [ -53.4564241, -33.6904076 ], [ -53.4557274, -33.6904186 ], [ -53.4551433, -33.6904498 ], [ -53.4551237, -33.6902565 ], [ -53.4547372, -33.68973 ], [ -53.4546528, -33.6896609 ], [ -53.454454, -33.6895387 ], [ -53.4543376, -33.6894779 ], [ -53.4542524, -33.6894567 ], [ -53.4541467, -33.6894322 ], [ -53.4540035, -33.689402 ], [ -53.4539091, -33.6893847 ], [ -53.4537943, -33.689381 ], [ -53.4530722, -33.6893808 ], [ -53.4525733, -33.689401499999988 ], [ -53.4524565, -33.6894063 ], [ -53.4519796, -33.6894291 ], [ -53.4518299, -33.6894364 ], [ -53.451672, -33.6894375 ], [ -53.4514837, -33.6894483 ], [ -53.4511598, -33.68946 ], [ -53.4507045, -33.6894652 ], [ -53.4502466, -33.6894673 ], [ -53.4497406, -33.6894878 ], [ -53.4488109, -33.6895166 ], [ -53.448548, -33.689532299999989 ], [ -53.4479113, -33.6895613 ], [ -53.4471436, -33.6895576 ], [ -53.4471014, -33.6901797 ], [ -53.4471018, -33.6903212 ] ] ] } },
{ "type": "Feature", "properties": { "name": "União", "code_muni": 4305439.0, "name_muni": "Chuí" }, "geometry": { "type": "Polygon", "coordinates": [ [ [ -53.4645833, -33.6921131 ], [ -53.465197, -33.6920824 ], [ -53.4667264, -33.6920032 ], [ -53.4685763, -33.6919142 ], [ -53.4685297, -33.6913084 ], [ -53.4685747, -33.6907022 ], [ -53.4686162, -33.6895692 ], [ -53.4686439, -33.6887317 ], [ -53.4686507, -33.6886546 ], [ -53.4686549, -33.6880578 ], [ -53.4686888, -33.6874544 ], [ -53.4686998, -33.6867641 ], [ -53.4687034, -33.686061299999984 ], [ -53.4657061, -33.6851125 ], [ -53.4631956, -33.6850634 ], [ -53.4629058, -33.6900662 ], [ -53.462029, -33.6901073 ], [ -53.4620389, -33.6911917 ], [ -53.462007, -33.6922498 ], [ -53.4622786, -33.6922328 ], [ -53.4625863, -33.6922136 ], [ -53.4639015, -33.6921315 ], [ -53.4645833, -33.6921131 ] ] ] } },
{ "type": "Feature", "properties": { "name": "Euzébio Izabelino Bermudez", "code_muni": 4305439.0, "name_muni": "Chuí" }, "geometry": { "type": "Polygon", "coordinates": [ [ [ -53.4392276, -33.69341 ], [ -53.4406253, -33.6933409 ], [ -53.4409901, -33.6932661 ], [ -53.4415461, -33.6932206 ], [ -53.4425195, -33.6931942 ], [ -53.4447735, -33.6931016 ], [ -53.4455109, -33.69306490000001 ], [ -53.4472861, -33.692964699999983 ], [ -53.4472017, -33.691835 ], [ -53.44713, -33.6908485 ], [ -53.4471018, -33.6903212 ], [ -53.4471014, -33.6901797 ], [ -53.4471436, -33.6895576 ], [ -53.4469473, -33.689558 ], [ -53.4464816, -33.6895483 ], [ -53.4453217, -33.68962040000001 ], [ -53.4441828, -33.6896476 ], [ -53.4423868, -33.6896907 ], [ -53.4410422, -33.6897662 ], [ -53.4404949, -33.6897779 ], [ -53.4401173, -33.6897557 ], [ -53.4397224, -33.6897239 ], [ -53.4392401, -33.6896685 ], [ -53.4390898, -33.6896169 ], [ -53.4390034, -33.6896967 ], [ -53.438916, -33.6898595 ], [ -53.4388216, -33.6899821 ], [ -53.4387341, -33.6900281 ], [ -53.4384164, -33.6900607 ], [ -53.4382621, -33.6901354 ], [ -53.438167, -33.6902506 ], [ -53.4381739, -33.6904483 ], [ -53.4381582, -33.690551399999983 ], [ -53.4381167, -33.6906913 ], [ -53.4379311, -33.690823 ], [ -53.4376244, -33.6909744 ], [ -53.4375577, -33.6910644 ], [ -53.4375175, -33.6911956 ], [ -53.4375585, -33.6912786 ], [ -53.4376479, -33.6913647 ], [ -53.4377802, -33.6914499 ], [ -53.4379569, -33.6915066 ], [ -53.4380812, -33.6914979 ], [ -53.4381436, -33.6914943 ], [ -53.4383219, -33.691445299999984 ], [ -53.4384578, -33.6914283 ], [ -53.4386834, -33.6914666 ], [ -53.4389021, -33.691595 ], [ -53.4389555, -33.6916975 ], [ -53.4389501, -33.691829899999988 ], [ -53.4388746, -33.6919689 ], [ -53.4388602, -33.6921034 ], [ -53.4389133, -33.6923203 ], [ -53.4389634, -33.6926554 ], [ -53.4388879, -33.69281380000001 ], [ -53.4387208, -33.692917 ], [ -53.4384831, -33.6929933 ], [ -53.4382821, -33.6931135 ], [ -53.4381834, -33.693289 ], [ -53.4381819, -33.6934327 ], [ -53.4383149, -33.6935634 ], [ -53.4384516, -33.6936217 ], [ -53.4386852, -33.6935561 ], [ -53.4389004, -33.693502100000011 ], [ -53.4390623, -33.6934931 ], [ -53.4392098, -33.693538 ], [ -53.4393442, -33.6936242 ], [ -53.4392276, -33.69341 ] ] ] } },
{ "type": "Feature", "properties": { "name": "Luiz Maria Gomes", "code_muni": 4305439.0, "name_muni": "Chuí" }, "geometry": { "type": "Polygon", "coordinates": [ [ [ -53.4698638, -33.6918386 ], [ -53.4704135, -33.691807799999985 ], [ -53.4714723, -33.691763399999985 ], [ -53.4715873, -33.6917591 ], [ -53.4726323, -33.691693900000011 ], [ -53.4736964, -33.6916502 ], [ -53.4759652, -33.6915301 ], [ -53.4757618, -33.688327 ], [ -53.4738623, -33.6884017 ], [ -53.4734448, -33.6884374 ], [ -53.4731061, -33.68844510000001 ], [ -53.472342, -33.6884826 ], [ -53.4713443, -33.6885575 ], [ -53.4712367, -33.6885631 ], [ -53.4703802, -33.6885914 ], [ -53.4701648, -33.6886043 ], [ -53.4697589, -33.6886236 ], [ -53.4690176, -33.6886526 ], [ -53.4686507, -33.6886546 ], [ -53.4686439, -33.6887317 ], [ -53.4686162, -33.6895692 ], [ -53.4685747, -33.6907022 ], [ -53.4685297, -33.6913084 ], [ -53.4685763, -33.6919142 ], [ -53.4698638, -33.6918386 ] ] ] } },
{ "type": "Feature", "properties": { "name": "Isolina Gomes", "code_muni": 4305439.0, "name_muni": "Chuí" }, "geometry": { "type": "Polygon", "coordinates": [ [ [ -53.4686998, -33.6867641 ], [ -53.4686888, -33.6874544 ], [ -53.4686549, -33.6880578 ], [ -53.4686507, -33.6886546 ], [ -53.4690176, -33.6886526 ], [ -53.4697589, -33.6886236 ], [ -53.4701648, -33.6886043 ], [ -53.4703802, -33.6885914 ], [ -53.4712367, -33.6885631 ], [ -53.4713443, -33.6885575 ], [ -53.472342, -33.6884826 ], [ -53.4731061, -33.68844510000001 ], [ -53.4734448, -33.6884374 ], [ -53.4738623, -33.6884017 ], [ -53.4757618, -33.688327 ], [ -53.4755927, -33.6858445 ], [ -53.4735489, -33.68589810000001 ], [ -53.4734626, -33.6859011 ], [ -53.4731419, -33.6858949 ], [ -53.47231, -33.6859242 ], [ -53.4704254, -33.686006399999989 ], [ -53.4687034, -33.686061299999984 ], [ -53.4686998, -33.6867641 ] ] ] } },
{ "type": "Feature", "properties": { "name": "Quartel", "code_muni": 4305439.0, "name_muni": "Chuí" }, "geometry": { "type": "Polygon", "coordinates": [ [ [ -53.4590972, -33.6848447 ], [ -53.4575093, -33.6839251 ], [ -53.456651, -33.6835502 ], [ -53.4559858, -33.683452 ], [ -53.4512676, -33.683778499999988 ], [ -53.4513673, -33.6839241 ], [ -53.451982, -33.6848216 ], [ -53.4526064, -33.6857658 ], [ -53.4530473, -33.6863822 ], [ -53.4535606, -33.6871796 ], [ -53.4538715, -33.6876189 ], [ -53.4541945, -33.6880801 ], [ -53.4543717, -33.6883034 ], [ -53.4546503, -33.688719 ], [ -53.4547704, -33.6889834 ], [ -53.4549989, -33.6895135 ], [ -53.4550838, -33.6898502 ], [ -53.4551237, -33.6902565 ], [ -53.4551433, -33.6904498 ], [ -53.4557274, -33.6904186 ], [ -53.4564241, -33.6904076 ], [ -53.4569621, -33.6903768 ], [ -53.4571476, -33.6903589 ], [ -53.4586633, -33.6902712 ], [ -53.4590972, -33.6848447 ] ] ] } },
{ "type": "Feature", "properties": { "name": "Vila Rica", "code_muni": 4305439.0, "name_muni": "Chuí" }, "geometry": { "type": "Polygon", "coordinates": [ [ [ -53.4479169, -33.6790129 ], [ -53.4479754, -33.6791202 ], [ -53.4481677, -33.6794725 ], [ -53.4482036, -33.6795555 ], [ -53.4482986, -33.6797749 ], [ -53.4484587, -33.68019180000001 ], [ -53.4485394, -33.680401900000014 ], [ -53.4486252, -33.680717199999989 ], [ -53.4487041, -33.680982400000012 ], [ -53.4488162, -33.6814257 ], [ -53.4488571, -33.681739 ], [ -53.448908, -33.6821078 ], [ -53.4489208, -33.6825313 ], [ -53.4489289, -33.6827311 ], [ -53.4489356, -33.682961499999983 ], [ -53.4489283, -33.68329 ], [ -53.4489219, -33.6835777 ], [ -53.4488683, -33.6839377 ], [ -53.4488232, -33.6842417 ], [ -53.4487189, -33.6846361 ], [ -53.4485384, -33.6851876 ], [ -53.4484392, -33.685451 ], [ -53.4479423, -33.6868283 ], [ -53.4476545, -33.6875349 ], [ -53.4474832, -33.6879899 ], [ -53.4473901, -33.6882771 ], [ -53.4473054, -33.6885237 ], [ -53.4472016, -33.6889713 ], [ -53.4471436, -33.6895576 ], [ -53.4479113, -33.6895613 ], [ -53.448548, -33.689532299999989 ], [ -53.4488109, -33.6895166 ], [ -53.4497406, -33.6894878 ], [ -53.4502466, -33.6894673 ], [ -53.4507045, -33.6894652 ], [ -53.4511598, -33.68946 ], [ -53.4514837, -33.6894483 ], [ -53.451672, -33.6894375 ], [ -53.4518299, -33.6894364 ], [ -53.4519796, -33.6894291 ], [ -53.4524565, -33.6894063 ], [ -53.4525733, -33.689401499999988 ], [ -53.4530722, -33.6893808 ], [ -53.4537943, -33.689381 ], [ -53.4539091, -33.6893847 ], [ -53.4540035, -33.689402 ], [ -53.4541467, -33.6894322 ], [ -53.4542524, -33.6894567 ], [ -53.4543376, -33.6894779 ], [ -53.454454, -33.6895387 ], [ -53.4546528, -33.6896609 ], [ -53.4547372, -33.68973 ], [ -53.4551237, -33.6902565 ], [ -53.4550838, -33.6898502 ], [ -53.4549989, -33.6895135 ], [ -53.4547704, -33.6889834 ], [ -53.4546503, -33.688719 ], [ -53.4543717, -33.6883034 ], [ -53.4541945, -33.6880801 ], [ -53.4538715, -33.6876189 ], [ -53.4535606, -33.6871796 ], [ -53.4530473, -33.6863822 ], [ -53.4526064, -33.6857658 ], [ -53.451982, -33.6848216 ], [ -53.4513673, -33.6839241 ], [ -53.4512676, -33.683778499999988 ], [ -53.450349, -33.6824371 ], [ -53.4503185, -33.6823926 ], [ -53.4499248, -33.6818177 ], [ -53.4490966, -33.6806235 ], [ -53.4489293, -33.6803641 ], [ -53.4477519, -33.6787055 ], [ -53.4479169, -33.6790129 ] ] ] } },
{ "type": "Feature", "properties": { "name": "Vila América", "code_muni": 4305439.0, "name_muni": "Chuí" }, "geometry": { "type": "Polygon", "coordinates": [ [ [ -53.433604, -33.674177 ], [ -53.4337053, -33.674364 ], [ -53.4336998, -33.67468740000001 ], [ -53.4337532, -33.6748652 ], [ -53.4338251, -33.674974 ], [ -53.4339337, -33.6750752 ], [ -53.4343131, -33.6752055 ], [ -53.4344568, -33.6752652 ], [ -53.4345894, -33.6753664 ], [ -53.4346778, -33.675489 ], [ -53.4346741, -33.675604 ], [ -53.434628, -33.6757281 ], [ -53.434512, -33.6758492 ], [ -53.4342339, -33.675981 ], [ -53.4341621, -33.6760607 ], [ -53.4341381, -33.6761511 ], [ -53.4341823, -33.676315099999982 ], [ -53.4342486, -33.6764117 ], [ -53.434361, -33.676499 ], [ -53.4345949, -33.6765328 ], [ -53.4349375, -33.676522 ], [ -53.4350406, -33.6764868 ], [ -53.4351529, -33.6764898 ], [ -53.4352321, -33.6765159 ], [ -53.4352837, -33.676568 ], [ -53.4352948, -33.6766676 ], [ -53.4352929, -33.6767673 ], [ -53.4353297, -33.6768807 ], [ -53.4354568, -33.6769803 ], [ -53.4355673, -33.677012499999989 ], [ -53.4356649, -33.6770063 ], [ -53.4357644, -33.6770232 ], [ -53.4359099, -33.677098300000019 ], [ -53.4361291, -33.6772792 ], [ -53.4364403, -33.677716 ], [ -53.4365379, -33.6778064 ], [ -53.4366466, -33.6778447 ], [ -53.4367958, -33.6779842 ], [ -53.436921, -33.6781512 ], [ -53.4370168, -33.678463900000011 ], [ -53.4370923, -33.6786509 ], [ -53.4372378, -33.6788179 ], [ -53.4373796, -33.6788838 ], [ -53.4374956, -33.6788716 ], [ -53.437584, -33.6788286 ], [ -53.4376982, -33.6788332 ], [ -53.4378511, -33.6788762 ], [ -53.4382102, -33.6790647 ], [ -53.4384202, -33.6792379 ], [ -53.4385344, -33.6794233 ], [ -53.4385417, -33.6795903 ], [ -53.4384736, -33.6797313 ], [ -53.4383649, -33.679808 ], [ -53.4381844, -33.6798264 ], [ -53.4380039, -33.6797957 ], [ -53.4379303, -33.679762 ], [ -53.437875, -33.6797038 ], [ -53.4377866, -33.6796593 ], [ -53.4376687, -33.6796547 ], [ -53.4375859, -33.6796777 ], [ -53.4375453, -33.6797344 ], [ -53.4375453, -33.6798233 ], [ -53.4376172, -33.679919900000023 ], [ -53.4376982, -33.6800164 ], [ -53.4377129, -33.6801252 ], [ -53.4377056, -33.6802049 ], [ -53.4376466, -33.6802984 ], [ -53.4376374, -33.680349 ], [ -53.4376853, -33.680399600000015 ], [ -53.4377811, -33.6804042 ], [ -53.437934, -33.6803551 ], [ -53.438096, -33.680349 ], [ -53.4382065, -33.6803934 ], [ -53.4383134, -33.6804808 ], [ -53.4383355, -33.6805835 ], [ -53.4383134, -33.6807183 ], [ -53.4383428, -33.6808317 ], [ -53.4384275, -33.680911399999985 ], [ -53.4384625, -33.6810294 ], [ -53.438422, -33.6811168 ], [ -53.4383539, -33.6811704 ], [ -53.4382286, -33.6812287 ], [ -53.4381789, -33.6812701 ], [ -53.4381642, -33.681362 ], [ -53.4382452, -33.6814923 ], [ -53.4384662, -33.68172830000001 ], [ -53.43861720000001, -33.6817835 ], [ -53.4387425, -33.6818019 ], [ -53.4388382, -33.6818295 ], [ -53.4388953, -33.68188 ], [ -53.4389156, -33.681926 ], [ -53.4388917, -33.6819674 ], [ -53.4388382, -33.681995 ], [ -53.4387719, -33.6820685 ], [ -53.4387112, -33.6821942 ], [ -53.4386301, -33.6824793 ], [ -53.4385712, -33.6825498 ], [ -53.4384865, -33.6825835 ], [ -53.4381384, -33.6826049 ], [ -53.4380095, -33.6826294 ], [ -53.4379524, -33.6826708 ], [ -53.4379579, -33.6827398 ], [ -53.4379874, -33.6827996 ], [ -53.4380019, -33.6828486 ], [ -53.4380434, -33.6829208 ], [ -53.4381188, -33.683090900000018 ], [ -53.4382336, -33.6831959 ], [ -53.4383087, -33.6832786 ], [ -53.4384194, -33.68329580000001 ], [ -53.4385094, -33.6832989 ], [ -53.4385955, -33.6833574 ], [ -53.4389156, -33.6836883 ], [ -53.4389856, -33.6838599 ], [ -53.4389764, -33.6839687 ], [ -53.4389082, -33.6840622 ], [ -53.4388067, -33.684177 ], [ -53.4387183, -33.6843027 ], [ -53.438698, -33.684437599999988 ], [ -53.4387709, -33.6845823 ], [ -53.4389217, -33.6848182 ], [ -53.4390353, -33.685054 ], [ -53.4390426, -33.685161299999983 ], [ -53.4389874, -33.685359 ], [ -53.4389188, -33.6854986 ], [ -53.4388232, -33.6855727 ], [ -53.438741, -33.6855973 ], [ -53.4386355, -33.6856248 ], [ -53.4385466, -33.685675 ], [ -53.4384583, -33.6857817 ], [ -53.438401, -33.6859642 ], [ -53.4384164, -33.6860853 ], [ -53.4384435, -33.6861378 ], [ -53.4385288, -33.68618330000001 ], [ -53.4385622, -33.6862491 ], [ -53.4385804, -33.686352 ], [ -53.4385581, -33.6864612 ], [ -53.43859650000001, -33.6865934 ], [ -53.4386259, -33.6867663 ], [ -53.4386904, -33.6868335 ], [ -53.4389107, -33.6868993 ], [ -53.4391079, -33.6869793 ], [ -53.4393814, -33.6872086 ], [ -53.4394305, -33.6873114 ], [ -53.4395176, -33.6875454 ], [ -53.4396485, -33.6877457 ], [ -53.439654, -33.6878361 ], [ -53.4396116, -33.6879004 ], [ -53.4395269, -33.6879326 ], [ -53.4392551, -33.6879127 ], [ -53.4391741, -33.6879449 ], [ -53.4391317, -33.6880076 ], [ -53.4391173, -33.6882021 ], [ -53.4391437, -33.6883467 ], [ -53.4394129, -33.6885709 ], [ -53.439594, -33.6887675 ], [ -53.4397122, -33.6889602 ], [ -53.439703, -33.6891383 ], [ -53.4396431, -33.6892264 ], [ -53.4395237, -33.6893021 ], [ -53.4392129, -33.6895032 ], [ -53.4390898, -33.6896169 ], [ -53.4392401, -33.6896685 ], [ -53.4397224, -33.6897239 ], [ -53.4401173, -33.6897557 ], [ -53.4404949, -33.6897779 ], [ -53.4410422, -33.6897662 ], [ -53.4423868, -33.6896907 ], [ -53.4441828, -33.6896476 ], [ -53.4453217, -33.68962040000001 ], [ -53.4464816, -33.6895483 ], [ -53.4469473, -33.689558 ], [ -53.4471436, -33.6895576 ], [ -53.4472016, -33.6889713 ], [ -53.4473054, -33.6885237 ], [ -53.4473901, -33.6882771 ], [ -53.4474832, -33.6879899 ], [ -53.4476545, -33.6875349 ], [ -53.4479423, -33.6868283 ], [ -53.4484392, -33.685451 ], [ -53.4485384, -33.6851876 ], [ -53.4487189, -33.6846361 ], [ -53.4488232, -33.6842417 ], [ -53.4488683, -33.6839377 ], [ -53.4489219, -33.6835777 ], [ -53.4489283, -33.68329 ], [ -53.4489356, -33.682961499999983 ], [ -53.4489289, -33.6827311 ], [ -53.4489208, -33.6825313 ], [ -53.448908, -33.6821078 ], [ -53.4488571, -33.681739 ], [ -53.4488162, -33.6814257 ], [ -53.4487041, -33.680982400000012 ], [ -53.4486252, -33.680717199999989 ], [ -53.4485394, -33.680401900000014 ], [ -53.4484587, -33.68019180000001 ], [ -53.4482986, -33.6797749 ], [ -53.4482036, -33.6795555 ], [ -53.4481677, -33.6794725 ], [ -53.4479754, -33.6791202 ], [ -53.4479169, -33.6790129 ], [ -53.4477519, -33.6787055 ], [ -53.4470554, -33.6777069 ], [ -53.4466841, -33.677164299999987 ], [ -53.4457572, -33.6757984 ], [ -53.4456097, -33.6755811 ], [ -53.4452248, -33.6750328 ], [ -53.4441511, -33.6734561 ], [ -53.4440395, -33.6733273 ], [ -53.4438118, -33.6729982 ], [ -53.4435752, -33.6726757 ], [ -53.4431892, -33.6721246 ], [ -53.4428282, -33.6716092 ], [ -53.4427949, -33.67155970000001 ], [ -53.4426458, -33.6713319 ], [ -53.4424879, -33.6710893 ], [ -53.4421787, -33.6706284 ], [ -53.4419295, -33.670268 ], [ -53.4334637, -33.6740327 ], [ -53.433604, -33.674177 ] ] ] } }
]
}
