{
"type": "FeatureCollection",
"name": "bairros_barra_do_guarita",
"crs": { "type": "name", "properties": { "name": "urn:ogc:def:crs:OGC:1.3:CRS84" } },
"features": [
{ "type": "Feature", "properties": { "code_muni": 4301859.0, "name_muni": "Barra do Guarita", "code_state": 43.0, "abbrev_state": "RS", "name_state": "Rio Grande do Sul", "code_region": 4.0, "name_region": "Sul", "year": 2022.0 }, "geometry": { "type": "Polygon", "coordinates": [ [ [ -53.717695326999895, -27.182501757 ], [ -53.705057826, -27.192039344 ], [ -53.701644812, -27.196704477 ], [ -53.706928375, -27.198264767 ], [ -53.712791197999898, -27.196155379999894 ], [ -53.718086809999903, -27.199467469 ], [ -53.718282914, -27.20054333 ], [ -53.716393624, -27.200914504 ], [ -53.722146070999898, -27.205414624 ], [ -53.724557821, -27.213616988999899 ], [ -53.728578491999897, -27.215730307999898 ], [ -53.727493760999906, -27.218753435999901 ], [ -53.729643443, -27.222473663999896 ], [ -53.728314176, -27.224420863 ], [ -53.731588842999898, -27.224847965 ], [ -53.7324219, -27.227717867 ], [ -53.735143471, -27.226488930999899 ], [ -53.734905872999903, -27.228448614999902 ], [ -53.736861551999901, -27.228480305999891 ], [ -53.74222767, -27.232715143 ], [ -53.745790615, -27.243906948 ], [ -53.741781144, -27.249350272 ], [ -53.742347332, -27.250863899 ], [ -53.740546633999891, -27.253662205999898 ], [ -53.747880753999901, -27.260280569 ], [ -53.748647229, -27.267907791 ], [ -53.751869872, -27.27176465 ], [ -53.757718957, -27.27418776 ], [ -53.763518091, -27.274182713999892 ], [ -53.763613840999902, -27.279009959999893 ], [ -53.764970089, -27.278625091 ], [ -53.766254875999898, -27.273772017999896 ], [ -53.763605895999895, -27.268922268 ], [ -53.767968504, -27.2675858069999 ], [ -53.770130874999893, -27.262109639999895 ], [ -53.768123446999901, -27.259591171999901 ], [ -53.763101799, -27.260414832 ], [ -53.767759413, -27.254480836 ], [ -53.772793905, -27.253648003 ], [ -53.775528414, -27.245088051 ], [ -53.774828687, -27.242078116999902 ], [ -53.769372171, -27.240710127999897 ], [ -53.769370380999895, -27.233740401 ], [ -53.769973063, -27.232782975 ], [ -53.775369057, -27.23292981 ], [ -53.777187405999896, -27.236446907999898 ], [ -53.778849099, -27.237036143 ], [ -53.786690522, -27.236188257 ], [ -53.788973822999893, -27.2342974439999 ], [ -53.7848278989999, -27.229814911999895 ], [ -53.788241179999893, -27.222913546 ], [ -53.78062163, -27.221263846999893 ], [ -53.787422271, -27.21291388 ], [ -53.778484171999892, -27.216344751999895 ], [ -53.776983066, -27.215359584999895 ], [ -53.777482248, -27.212557316999902 ], [ -53.780983854999896, -27.208451193 ], [ -53.793363064999902, -27.211066389999903 ], [ -53.79449421, -27.208528509 ], [ -53.794386293999892, -27.197478525999902 ], [ -53.79845488, -27.199056535 ], [ -53.801284551, -27.198702293999894 ], [ -53.802983453, -27.203142133 ], [ -53.805316655999903, -27.203351155999897 ], [ -53.80762594, -27.199271573 ], [ -53.807322416, -27.187955083 ], [ -53.805518978, -27.185635046999899 ], [ -53.802858796999892, -27.1850654839999 ], [ -53.800211154999893, -27.181437412 ], [ -53.802321291999895, -27.17740545 ], [ -53.804301207, -27.176788228 ], [ -53.813103985999909, -27.178921945999893 ], [ -53.816856895999905, -27.178285238999894 ], [ -53.8196548559999, -27.175653585 ], [ -53.814846647, -27.175889807 ], [ -53.809003362999903, -27.172759754 ], [ -53.780141278, -27.149589896999903 ], [ -53.773861599, -27.147468635999903 ], [ -53.768699794, -27.149618689 ], [ -53.762942165, -27.155355454 ], [ -53.756349899, -27.176151166 ], [ -53.751589505, -27.188052607 ], [ -53.749001451, -27.191218428999896 ], [ -53.745144964, -27.192502875999899 ], [ -53.740198607, -27.192082916999894 ], [ -53.730889479, -27.189342379 ], [ -53.717695326999895, -27.182501757 ] ] ] } }
]
}
