{
"type": "FeatureCollection",
"name": "bairros_humaita",
"crs": { "type": "name", "properties": { "name": "urn:ogc:def:crs:OGC:1.3:CRS84" } },
"features": [
{ "type": "Feature", "properties": { "code_muni": 4309704.0, "name_muni": "Humaitá", "code_state": 43.0, "abbrev_state": "RS", "name_state": "Rio Grande do Sul", "code_region": 4.0, "name_region": "Sul", "year": 2022.0 }, "geometry": { "type": "Polygon", "coordinates": [ [ [ -53.901007319, -27.592474202999895 ], [ -53.909243056, -27.592354394 ], [ -53.922051307999901, -27.601620107 ], [ -53.928593398, -27.600942298999907 ], [ -53.931163383999895, -27.60233873899989 ], [ -53.932947898, -27.599537598 ], [ -53.9318050689999, -27.598288092 ], [ -53.935538967999904, -27.592638013999892 ], [ -53.942528954999894, -27.60008425 ], [ -53.943595629999891, -27.605921539 ], [ -53.949844578999894, -27.608588783 ], [ -53.952958575, -27.606260728999903 ], [ -53.973381619999898, -27.610283718999899 ], [ -53.9748699639999, -27.604971453 ], [ -53.977956175, -27.6016591929999 ], [ -53.9760726499999, -27.594378150999898 ], [ -53.979525054, -27.591757168 ], [ -53.983623311, -27.590296692 ], [ -53.991634594999894, -27.594910583999901 ], [ -54.006377808, -27.587457588999904 ], [ -54.009423704, -27.591408219 ], [ -54.019987782, -27.591178786999901 ], [ -54.022075684999898, -27.593198089999898 ], [ -54.020117024999898, -27.600069420999898 ], [ -54.001468922999898, -27.607403936 ], [ -54.005336816, -27.6122895399999 ], [ -54.003971269, -27.613534021 ], [ -54.007273003, -27.616013734 ], [ -54.006869974, -27.618881638999902 ], [ -54.008666438, -27.621639328 ], [ -54.011949184999899, -27.623320287999892 ], [ -54.021830597, -27.624007629999898 ], [ -54.031446355, -27.62708844 ], [ -54.030320788, -27.6310692509999 ], [ -54.03553346, -27.633075889999905 ], [ -54.033119101999901, -27.640469077 ], [ -54.029311799, -27.64315913 ], [ -54.032066184, -27.648847292 ], [ -54.03716808, -27.654835519999899 ], [ -54.039840389999895, -27.651875856999901 ], [ -54.044238386, -27.652770019999895 ], [ -54.04739841, -27.65110828 ], [ -54.048727599999893, -27.646081416 ], [ -54.04374002, -27.642313718 ], [ -54.047718339, -27.637662819 ], [ -54.045114149, -27.6344588659999 ], [ -54.048305574, -27.632085655 ], [ -54.050951262, -27.632204276 ], [ -54.051262105, -27.634702763999901 ], [ -54.053921104, -27.632890948999904 ], [ -54.054914706, -27.630316512 ], [ -54.053267316, -27.620668636999898 ], [ -54.056808733, -27.616464036 ], [ -54.056345209, -27.61533263 ], [ -54.058019219999899, -27.6136789769999 ], [ -54.061240397999903, -27.614366432999898 ], [ -54.070084936999898, -27.607032262999986 ], [ -54.0714856869999, -27.610634752 ], [ -54.074264481999897, -27.610779604 ], [ -54.074784381, -27.608602136999895 ], [ -54.07274237, -27.603769586999906 ], [ -54.077963278, -27.600987659999905 ], [ -54.082922399, -27.603270129 ], [ -54.086460476999903, -27.601964949 ], [ -54.087769012, -27.6004920079999 ], [ -54.086037718999897, -27.5965093639999 ], [ -54.086372401999895, -27.592609761999896 ], [ -54.089501142999893, -27.590920409 ], [ -54.09095846, -27.587837815999901 ], [ -54.08868247, -27.588724 ], [ -54.085231628, -27.584685995 ], [ -54.086408051, -27.578898243 ], [ -54.079381176, -27.580989593 ], [ -54.0758615519999, -27.57906873 ], [ -54.075892587999903, -27.576632842 ], [ -54.07303709699989, -27.575827988999901 ], [ -54.063091503999892, -27.578738449 ], [ -54.061578837999896, -27.583162649 ], [ -54.06001464, -27.583659714 ], [ -54.055064388999895, -27.580011708 ], [ -54.051614796, -27.582356794 ], [ -54.050405075999898, -27.58046261 ], [ -54.044109367, -27.580200926 ], [ -54.03987519, -27.57529147 ], [ -54.035922289, -27.576176094999898 ], [ -54.032786915, -27.570920412 ], [ -54.034358627999893, -27.565872464999988 ], [ -54.029580148, -27.562742995999894 ], [ -54.0290047129999, -27.5599130539999 ], [ -54.02463741199989, -27.557149674 ], [ -54.024316413, -27.555344458 ], [ -54.008939606999903, -27.5497404 ], [ -54.012299895, -27.547303386 ], [ -54.011769549999897, -27.544651657 ], [ -54.013412118, -27.542611866 ], [ -54.008105413999893, -27.542430094999894 ], [ -54.004206299, -27.533872538 ], [ -54.000835230999897, -27.533115461 ], [ -53.999510110999893, -27.530447880999898 ], [ -53.994759562999903, -27.526763162 ], [ -53.992365766, -27.5219927969999 ], [ -53.982864633, -27.525519489 ], [ -53.981372365, -27.524237641 ], [ -53.977991392, -27.5266884219999 ], [ -53.977714271, -27.525498974999898 ], [ -53.974734130999892, -27.5257737069999 ], [ -53.973954319, -27.523066271999902 ], [ -53.970812797999891, -27.525208017999901 ], [ -53.967700921999899, -27.525940103 ], [ -53.961118555, -27.524943940999901 ], [ -53.958461714, -27.526803081 ], [ -53.946070403, -27.520903250999897 ], [ -53.936669213, -27.522252933999898 ], [ -53.927767920999891, -27.51727891 ], [ -53.925976459, -27.518649663 ], [ -53.922524759999902, -27.518827367 ], [ -53.9181426869999, -27.526049713 ], [ -53.913727496, -27.524386573 ], [ -53.911450375999905, -27.525114304999892 ], [ -53.910740750999892, -27.527666825 ], [ -53.904692169, -27.530294293999908 ], [ -53.903574802, -27.532372719 ], [ -53.898526327999896, -27.533525137 ], [ -53.896150674999895, -27.537533773999897 ], [ -53.892845128, -27.550236534 ], [ -53.896620798999905, -27.556587056999902 ], [ -53.892759116, -27.556439742 ], [ -53.890009216, -27.561365736 ], [ -53.892937797999899, -27.569517815 ], [ -53.897712872999897, -27.595298195999899 ], [ -53.901007319, -27.592474202999895 ] ] ] } }
]
}
