{
"type": "FeatureCollection",
"name": "bairros_sagrada_familia",
"crs": { "type": "name", "properties": { "name": "urn:ogc:def:crs:OGC:1.3:CRS84" } },
"features": [
{ "type": "Feature", "properties": { "code_muni": 4316428.0, "name_muni": "Sagrada Família", "code_state": 43.0, "abbrev_state": "RS", "name_state": "Rio Grande do Sul", "code_region": 4.0, "name_region": "Sul", "year": 2022.0 }, "geometry": { "type": "Polygon", "coordinates": [ [ [ -53.134578392, -27.751245199 ], [ -53.139848377, -27.749904704 ], [ -53.140322075, -27.748225681 ], [ -53.138471922, -27.74616495 ], [ -53.141893059, -27.745923630999989 ], [ -53.142716778, -27.744744861999902 ], [ -53.146942017, -27.747781201 ], [ -53.14676844, -27.752872959999898 ], [ -53.148085059, -27.754572067 ], [ -53.154670316, -27.749338265999903 ], [ -53.158571507, -27.7525004079999 ], [ -53.160426704, -27.752114649 ], [ -53.162347517999898, -27.7560099899999 ], [ -53.166931518999903, -27.749756444999907 ], [ -53.170673834999896, -27.754389021 ], [ -53.174070657999899, -27.753764169 ], [ -53.176300576, -27.755340331999907 ], [ -53.176825365, -27.758396096 ], [ -53.179101365, -27.757362902 ], [ -53.179464776, -27.749481246 ], [ -53.188391905999893, -27.742649884999899 ], [ -53.19256666, -27.742650851 ], [ -53.195659642, -27.733197783 ], [ -53.197492514, -27.732888991 ], [ -53.193309948, -27.7284900679999 ], [ -53.187464383, -27.727126708 ], [ -53.186417132, -27.723118622999888 ], [ -53.179669820999898, -27.722512122999902 ], [ -53.17707474, -27.721029495 ], [ -53.1766001619999, -27.718193288999895 ], [ -53.171810889, -27.718986760999904 ], [ -53.170164669, -27.714887447 ], [ -53.171320925, -27.712033916999893 ], [ -53.166289193999901, -27.708204808999902 ], [ -53.168112604, -27.708029892 ], [ -53.167795691, -27.705297469 ], [ -53.161164425, -27.705449659 ], [ -53.160436352, -27.699894881 ], [ -53.156487864, -27.700478172 ], [ -53.154928169999899, -27.701969273 ], [ -53.151920092, -27.699193299999905 ], [ -53.150904398, -27.687505232 ], [ -53.149594487999899, -27.685296359999892 ], [ -53.151045204999896, -27.682406898999901 ], [ -53.150526616, -27.678419830999889 ], [ -53.152825256, -27.67558066 ], [ -53.153032068, -27.671239795 ], [ -53.156050304, -27.663497046 ], [ -53.155071231, -27.661913763 ], [ -53.128746366, -27.650071646 ], [ -53.129680042, -27.645679432999902 ], [ -53.116232752, -27.642613914 ], [ -53.106231419, -27.663617002 ], [ -53.103415593, -27.666744405 ], [ -53.098719904999896, -27.66684028 ], [ -53.086708453, -27.663854295 ], [ -53.0735162779999, -27.669834111999897 ], [ -53.071416041, -27.673794878 ], [ -53.072873716999894, -27.675109425999896 ], [ -53.075694020999897, -27.675143977999891 ], [ -53.08625209, -27.672468405 ], [ -53.094830849999902, -27.6729263299999 ], [ -53.100282643, -27.675503738 ], [ -53.104486468999895, -27.682196503999904 ], [ -53.10393131099989, -27.685777168 ], [ -53.095677946, -27.684959432 ], [ -53.100872048, -27.693911116 ], [ -53.100844638999895, -27.700350053 ], [ -53.097401992, -27.703125370999899 ], [ -53.094124687, -27.703538379 ], [ -53.085470954, -27.6986868299999 ], [ -53.07973123499989, -27.710431968 ], [ -53.079646443999899, -27.714163851 ], [ -53.08260877, -27.714856902 ], [ -53.099862684999891, -27.710866376 ], [ -53.112122385, -27.713840898999901 ], [ -53.112725833999903, -27.715173714999889 ], [ -53.105468959999889, -27.716719042 ], [ -53.094322922999901, -27.729059317999898 ], [ -53.089666122, -27.724598318999888 ], [ -53.086398620999894, -27.723324364 ], [ -53.071048958999896, -27.725913671999891 ], [ -53.06790298, -27.728569105 ], [ -53.087501384999896, -27.736279316 ], [ -53.099875016999903, -27.734479056999902 ], [ -53.103533188, -27.735788268 ], [ -53.106793935, -27.741161007 ], [ -53.108757607, -27.749382618 ], [ -53.11133617, -27.752873033999904 ], [ -53.114249727999905, -27.754358384999904 ], [ -53.112622128999895, -27.760933457 ], [ -53.117170656, -27.759332042 ], [ -53.118186452, -27.757778378999898 ], [ -53.116853525, -27.7551359459999 ], [ -53.11947703, -27.753336262999898 ], [ -53.121622035, -27.754903731 ], [ -53.125850404999902, -27.754348509999904 ], [ -53.127789634, -27.75323824 ], [ -53.12771911, -27.750631833999897 ], [ -53.130358653, -27.749202903 ], [ -53.134578392, -27.751245199 ] ] ] } }
]
}
