{
"type": "FeatureCollection",
"name": "bairros_maquine",
"crs": { "type": "name", "properties": { "name": "urn:ogc:def:crs:OGC:1.3:CRS84" } },
"features": [
{ "type": "Feature", "properties": { "code_muni": 4311775.0, "name_muni": "Maquiné", "code_state": 43.0, "abbrev_state": "RS", "name_state": "Rio Grande do Sul", "code_region": 4.0, "name_region": "Sul", "year": 2022.0 }, "geometry": { "type": "Polygon", "coordinates": [ [ [ -50.223343297197992, -29.725936627615496 ], [ -50.227060026083294, -29.718509858619097 ], [ -50.225918475279897, -29.710608186651701 ], [ -50.229138005280106, -29.708102125903501 ], [ -50.235603820377598, -29.709484472579497 ], [ -50.242149900766002, -29.712802104601995 ], [ -50.250212103315199, -29.7101622683691 ], [ -50.259433693399103, -29.711036268202903 ], [ -50.263411284479695, -29.708195768742797 ], [ -50.273997384508291, -29.707977268784408 ], [ -50.275803353552796, -29.702956228922407 ], [ -50.279107608026692, -29.701975208700805 ], [ -50.280686158747102, -29.698260709406799 ], [ -50.283767454079801, -29.696147056747403 ], [ -50.2786037203674, -29.696285291414998 ], [ -50.2762002208243, -29.693627618450698 ], [ -50.276552496267492, -29.689685700832705 ], [ -50.278050781696997, -29.688151741940601 ], [ -50.282929127708492, -29.687973374627497 ], [ -50.289688630329501, -29.6845815229123 ], [ -50.292480697321501, -29.684655742605095 ], [ -50.29249853405279, -29.687750415486292 ], [ -50.294380309205295, -29.688472803103998 ], [ -50.297747366426194, -29.688048583778098 ], [ -50.301630940480194, -29.684334681441598 ], [ -50.31341321630179, -29.685021395596806 ], [ -50.316115720512293, -29.680918937857005 ], [ -50.313640489084399, -29.674250058937712 ], [ -50.3136226816641, -29.667020246277509 ], [ -50.314637704623699, -29.663236169454098 ], [ -50.320371693974998, -29.656560612752298 ], [ -50.324529726625691, -29.656311308867494 ], [ -50.330050026932803, -29.6620452982187 ], [ -50.335605942080491, -29.6627932098732 ], [ -50.338027137475592, -29.660937016451996 ], [ -50.338085625363597, -29.654123222092505 ], [ -50.340899197778199, -29.653304080756694 ], [ -50.345885275474899, -29.657364172595397 ], [ -50.345974312576601, -29.662644072727801 ], [ -50.348093395597708, -29.662911184032996 ], [ -50.350906968012303, -29.661148249418797 ], [ -50.351637072246398, -29.656153268011899 ], [ -50.353624825542489, -29.653871692280106 ], [ -50.3520822577551, -29.650935693850691 ], [ -50.353589210701806, -29.649148274033497 ], [ -50.350421781257992, -29.641089638807998 ], [ -50.354310411225804, -29.636131049761008 ], [ -50.358904725674897, -29.634350307726496 ], [ -50.3597238670107, -29.630681979135392 ], [ -50.354951478358196, -29.6285094738532 ], [ -50.345976538504097, -29.620113275160399 ], [ -50.342602032348694, -29.619071541070198 ], [ -50.345179656443598, -29.615732649755405 ], [ -50.341408935185491, -29.612834492094187 ], [ -50.343296521742097, -29.608329214746806 ], [ -50.33650299088039, -29.607002561931093 ], [ -50.330720031123199, -29.601513424609596 ], [ -50.3318864171558, -29.600213482924399 ], [ -50.337344391491698, -29.601094950231502 ], [ -50.345464575169203, -29.598512874281397 ], [ -50.349079481499302, -29.589315341673007 ], [ -50.347191894942696, -29.588291415003212 ], [ -50.333337721913999, -29.5894310899053 ], [ -50.326268176036791, -29.587525695928292 ], [ -50.336892528200401, -29.583712682046791 ], [ -50.343926459236897, -29.585653690864508 ], [ -50.343303199524797, -29.582216858737794 ], [ -50.347986551075593, -29.5787933821764 ], [ -50.348111203017993, -29.575663728050696 ], [ -50.350403908387491, -29.572770022244587 ], [ -50.352478472857705, -29.565531305874185 ], [ -50.351516872159095, -29.558288137648706 ], [ -50.354277022312594, -29.556667662397299 ], [ -50.353440073556399, -29.553662660213991 ], [ -50.355625934403697, -29.551445636380997 ], [ -50.349896396907596, -29.547581426166094 ], [ -50.340961523749293, -29.544442868330201 ], [ -50.340275938065993, -29.535156298619995 ], [ -50.342626517551601, -29.533108445280295 ], [ -50.345440089966097, -29.525424543401304 ], [ -50.354081140688699, -29.526368336679504 ], [ -50.356534112841302, -29.525130720965599 ], [ -50.356489594290501, -29.515603751080807 ], [ -50.354441740950691, -29.511165251559699 ], [ -50.356480690580298, -29.506811337285193 ], [ -50.3542191481964, -29.501807452168205 ], [ -50.348841307252101, -29.497604900966692 ], [ -50.347719439770295, -29.494328335623102 ], [ -50.3350765819999, -29.48545863 ], [ -50.333855903, -29.481811853 ], [ -50.335054395, -29.479621119999894 ], [ -50.328999446999894, -29.478824592 ], [ -50.322854364, -29.474150257 ], [ -50.318160892, -29.472740800999905 ], [ -50.317293364, -29.475221353999896 ], [ -50.314974778, -29.474762074999894 ], [ -50.315802369, -29.469650092999903 ], [ -50.318109861, -29.466985383999898 ], [ -50.320002448, -29.4603313759999 ], [ -50.321556676999897, -29.459551487999896 ], [ -50.325031703396093, -29.461642158583 ], [ -50.327439147406494, -29.461541848415898 ], [ -50.325217993706396, -29.459034094238394 ], [ -50.314777947, -29.457668624 ], [ -50.320698024, -29.447190876 ], [ -50.323163045999891, -29.447488187 ], [ -50.322883485, -29.443112828 ], [ -50.326386601, -29.441241874 ], [ -50.3239884179999, -29.440210712999889 ], [ -50.317334133, -29.440798125 ], [ -50.313511518, -29.437668034999895 ], [ -50.313375897, -29.435171394999909 ], [ -50.311152995, -29.436057228 ], [ -50.311410369, -29.437770096999895 ], [ -50.315983197, -29.444424104999893 ], [ -50.311894055, -29.449090118999901 ], [ -50.310089128, -29.448948725 ], [ -50.309187189999896, -29.444679259999905 ], [ -50.3063827, -29.444901134 ], [ -50.302158215, -29.447887561 ], [ -50.297481106, -29.446325566999988 ], [ -50.297201545, -29.443534389 ], [ -50.298974012, -29.440652500999899 ], [ -50.29504337, -29.44295992699989 ], [ -50.296600266, -29.448553183999888 ], [ -50.295874737, -29.450190614999904 ], [ -50.293560589, -29.448939245 ], [ -50.292801778999895, -29.446647283999894 ], [ -50.288894574, -29.445659943999885 ], [ -50.291004598, -29.449831178999901 ], [ -50.296839889999902, -29.455346972 ], [ -50.296069708999902, -29.459311308999897 ], [ -50.292499377999903, -29.459444776999892 ], [ -50.283339954, -29.451915686999904 ], [ -50.282940579999895, -29.454320804 ], [ -50.28569293, -29.4577321199999 ], [ -50.283361032, -29.458981272 ], [ -50.291519346, -29.463713847999895 ], [ -50.293922244, -29.468197926 ], [ -50.27267556999989, -29.462817476999891 ], [ -50.275211591999891, -29.467882865 ], [ -50.273658472, -29.468295551 ], [ -50.272249293999892, -29.466056285 ], [ -50.269391554, -29.465133288999901 ], [ -50.269520518, -29.460199361 ], [ -50.267101812, -29.454607575999901 ], [ -50.265884, -29.454603693 ], [ -50.266511349, -29.459400335999895 ], [ -50.264731641, -29.4596186049999 ], [ -50.269313343, -29.471482218999903 ], [ -50.268971657, -29.477108949 ], [ -50.273230161, -29.479639597999899 ], [ -50.274468036, -29.475055503000011 ], [ -50.278026344, -29.473638837 ], [ -50.2797042669999, -29.477558245 ], [ -50.285448035999899, -29.478706444 ], [ -50.286970093, -29.483767394 ], [ -50.290586643, -29.483061834 ], [ -50.291312171, -29.484905609 ], [ -50.294736245, -29.485437552 ], [ -50.296821862999899, -29.494702464999904 ], [ -50.291179601, -29.494061248000012 ], [ -50.289677513, -29.496397584 ], [ -50.293254125, -29.501376440999906 ], [ -50.292022902, -29.506652043 ], [ -50.281237417999897, -29.505837222 ], [ -50.279121558, -29.507096119 ], [ -50.277940894, -29.500367922999899 ], [ -50.279023112999901, -29.495017526 ], [ -50.2768398709999, -29.492332847999904 ], [ -50.27761865, -29.49007195 ], [ -50.27419291199989, -29.487200898 ], [ -50.274008097, -29.483648374 ], [ -50.272629310999896, -29.484621193999899 ], [ -50.271707621, -29.490827102 ], [ -50.267419462, -29.489522684999887 ], [ -50.264285979, -29.4900218239999 ], [ -50.262648802999898, -29.495152973 ], [ -50.255323661, -29.497043045999895 ], [ -50.251295054, -29.500082248 ], [ -50.250505306, -29.496665919 ], [ -50.252565085999898, -29.492592945 ], [ -50.251740952, -29.491033413 ], [ -50.247223189, -29.494616122 ], [ -50.240221933, -29.493925090999902 ], [ -50.237213789, -29.495184031 ], [ -50.235753742, -29.493255222999895 ], [ -50.229624658, -29.494697093 ], [ -50.226625387, -29.49255856 ], [ -50.223406106, -29.494664165 ], [ -50.219594182, -29.492749342 ], [ -50.219412274, -29.49536483 ], [ -50.215132452, -29.496884043 ], [ -50.201183718, -29.495036507999892 ], [ -50.199595347, -29.496238877999893 ], [ -50.200513762999897, -29.497844995999987 ], [ -50.202421840999889, -29.497500901 ], [ -50.203423187999903, -29.499372362 ], [ -50.205902244999898, -29.498936446999902 ], [ -50.210210369, -29.500407243000012 ], [ -50.213994952, -29.504921678 ], [ -50.220829829, -29.506035311999906 ], [ -50.225435218, -29.509930814999986 ], [ -50.230747889, -29.510967978999897 ], [ -50.231748883, -29.512167682 ], [ -50.220032256, -29.5126325059999 ], [ -50.210579732, -29.515761868 ], [ -50.20960142, -29.51375422 ], [ -50.207069121, -29.516060242 ], [ -50.210814882, -29.518412849999901 ], [ -50.20940731, -29.519254730999901 ], [ -50.2035795849999, -29.51873119 ], [ -50.197683645, -29.516489501 ], [ -50.196617150999899, -29.521574063999903 ], [ -50.194611720999902, -29.521609558 ], [ -50.192421609999897, -29.519661807 ], [ -50.189750661999909, -29.524533403 ], [ -50.186189902, -29.5247525149999 ], [ -50.184797280999902, -29.531110505 ], [ -50.182589392, -29.530674132999902 ], [ -50.181493793999891, -29.532439764999896 ], [ -50.178490086999901, -29.532679351999896 ], [ -50.174821262, -29.529458046999892 ], [ -50.174708277, -29.5331424419999 ], [ -50.168243871999898, -29.534752996999888 ], [ -50.170212609801091, -29.543162471081288 ], [ -50.16713134637439, -29.546746466961803 ], [ -50.165785320772201, -29.554763157596508 ], [ -50.160682316079601, -29.564893486827401 ], [ -50.160514738594998, -29.5704938182486 ], [ -50.1620229359565, -29.573402098465294 ], [ -50.1695817275059, -29.577722096942505 ], [ -50.173780388505698, -29.586797485783492 ], [ -50.172277596869598, -29.589813880506401 ], [ -50.171571958770301, -29.5981397373249 ], [ -50.16926660787189, -29.601647013210002 ], [ -50.164033865771898, -29.602338946049699 ], [ -50.161785084042897, -29.600933457469093 ], [ -50.160390406912896, -29.598360332221493 ], [ -50.162047280576303, -29.5930753095538 ], [ -50.158595706109992, -29.589321959503295 ], [ -50.156360905535102, -29.590356511487197 ], [ -50.157641595592793, -29.593895203115501 ], [ -50.156736136603399, -29.595765584072801 ], [ -50.151971371623901, -29.6001044124746 ], [ -50.161674266674098, -29.611423267433207 ], [ -50.160679613216999, -29.614385604902999 ], [ -50.163436533125093, -29.622364455460588 ], [ -50.162500008903102, -29.625404304930303 ], [ -50.159544410902008, -29.626959321974002 ], [ -50.156538827629596, -29.631110919012105 ], [ -50.147176111392703, -29.63202989231479 ], [ -50.119899377559598, -29.648913822709599 ], [ -50.1148627698323, -29.647686863815494 ], [ -50.112940977289092, -29.648903863869993 ], [ -50.049072332751699, -29.653660902142796 ], [ -50.041742169231405, -29.658244957205699 ], [ -50.033371403589001, -29.667521181837699 ], [ -50.027554843155492, -29.676148719432401 ], [ -50.022322101055394, -29.687892657668286 ], [ -50.022186957922692, -29.691198258695405 ], [ -50.029988681999903, -29.712295352999899 ], [ -50.047107351601603, -29.746017719063801 ], [ -50.049393973407703, -29.754466867723306 ], [ -50.052921209172503, -29.759623929669008 ], [ -50.062608268927995, -29.767932529470407 ], [ -50.078068643314502, -29.769246120720691 ], [ -50.082187533314602, -29.767830723318401 ], [ -50.087298088365102, -29.769565272384995 ], [ -50.085111973984901, -29.771977690293802 ], [ -50.086946927717598, -29.779794637787305 ], [ -50.084284795570696, -29.7825593311393 ], [ -50.086035024829791, -29.785560361181105 ], [ -50.091267875875793, -29.787085401707504 ], [ -50.093383758126599, -29.789158921721391 ], [ -50.096638961589392, -29.7874766950004 ], [ -50.098805009647009, -29.790158893470096 ], [ -50.098887504529301, -29.7862860931859 ], [ -50.10396205458499, -29.788125506101597 ], [ -50.103791787202297, -29.785509245316007 ], [ -50.107035222388305, -29.785752502954892 ], [ -50.108965066323904, -29.783557778479103 ], [ -50.112565279380391, -29.78450918613359 ], [ -50.115943857699094, -29.7882337308722 ], [ -50.115981781891094, -29.785800042257097 ], [ -50.123459831490102, -29.784341889472994 ], [ -50.13422429883169, -29.783878134459101 ], [ -50.140306624206197, -29.781693134874509 ], [ -50.144739051935098, -29.782843604043503 ], [ -50.146598531173503, -29.785171297478595 ], [ -50.144928567205191, -29.800225498698694 ], [ -50.137320086508694, -29.813273067647192 ], [ -50.140453219841696, -29.814529442408393 ], [ -50.155703067707897, -29.794622535478503 ], [ -50.166307004467505, -29.793525576503395 ], [ -50.167704958283402, -29.795237902708504 ], [ -50.17059450875449, -29.795242361891304 ], [ -50.173488518408398, -29.793628137708392 ], [ -50.183041202817797, -29.777165949510501 ], [ -50.182309896834397, -29.766977831549092 ], [ -50.186363294022996, -29.757603514453404 ], [ -50.185239579950903, -29.751128780990285 ], [ -50.186541661336101, -29.742353109189001 ], [ -50.198987240603103, -29.734794794299095 ], [ -50.207593463457002, -29.733002202803096 ], [ -50.212248850327192, -29.729399183079895 ], [ -50.218536298111701, -29.728962183162885 ], [ -50.223343297197992, -29.725936627615496 ] ] ] } }
]
}
