{
"type": "FeatureCollection",
"name": "bairros_arambare",
"crs": { "type": "name", "properties": { "name": "urn:ogc:def:crs:OGC:1.3:CRS84" } },
"features": [
{ "type": "Feature", "properties": { "name": "Caramuru", "code_muni": 4300851.0, "name_muni": "Arambaré" }, "geometry": { "type": "Polygon", "coordinates": [ [ [ -51.495645, -30.9001959 ], [ -51.4952802, -30.8995674 ], [ -51.4936891, -30.8971181 ], [ -51.4912107, -30.8933129 ], [ -51.4832459, -30.8960387 ], [ -51.488554, -30.9013155 ], [ -51.4897985, -30.9028735 ], [ -51.490811394528855, -30.904130212547233 ], [ -51.491078145, -30.904413873 ], [ -51.491184346271673, -30.90462543213027 ], [ -51.4916968, -30.9053293 ], [ -51.4924276, -30.9063901 ], [ -51.4927651, -30.9069273 ], [ -51.4929635, -30.9068525 ], [ -51.4943362, -30.9062385 ], [ -51.4950457, -30.9059353 ], [ -51.49579, -30.9056172 ], [ -51.4960085, -30.9047524 ], [ -51.4962994, -30.9036019 ], [ -51.4964054, -30.9031825 ], [ -51.4964348, -30.903066 ], [ -51.4966764, -30.9020959 ], [ -51.4966442, -30.901882 ], [ -51.4965942, -30.9018067 ], [ -51.4962894, -30.9012939 ], [ -51.4961088, -30.9009959 ], [ -51.4957739, -30.9004435 ], [ -51.4956846, -30.9003051 ], [ -51.495645, -30.9001959 ] ] ] } },
{ "type": "Feature", "properties": { "name": "São Carlos", "code_muni": 4300851.0, "name_muni": "Arambaré" }, "geometry": { "type": "Polygon", "coordinates": [ [ [ -51.7161931, -30.824644899999988 ], [ -51.7163421, -30.8247258 ], [ -51.7175428, -30.8253659 ], [ -51.7178383, -30.8255145 ], [ -51.7203811, -30.8268251 ], [ -51.720402437390376, -30.826763558576541 ], [ -51.716221985261605, -30.82460966982573 ], [ -51.7161931, -30.824644899999988 ] ] ] } },
{ "type": "Feature", "properties": { "name": "Costa Doce", "code_muni": 4300851.0, "name_muni": "Arambaré" }, "geometry": { "type": "Polygon", "coordinates": [ [ [ -51.498379, -30.9184965 ], [ -51.4980857, -30.9185556 ], [ -51.4987197, -30.9206293 ], [ -51.500296, -30.9278436 ], [ -51.5003247, -30.9286269 ], [ -51.5005548, -30.9293361 ], [ -51.5005931, -30.9296184 ], [ -51.5008064, -30.931192599999989 ], [ -51.5005404, -30.9317476 ], [ -51.5006339, -30.9322534 ], [ -51.5009502, -30.933715 ], [ -51.5007968, -30.9341989 ], [ -51.500575875658711, -30.936806904736706 ], [ -51.500719799, -30.944323875999896 ], [ -51.499445824210255, -30.950873535770835 ], [ -51.4994029, -30.9521043 ], [ -51.5000478, -30.951732 ], [ -51.5008496, -30.9514289 ], [ -51.5083121, -30.9499313 ], [ -51.5198285, -30.9476201 ], [ -51.519616, -30.947019 ], [ -51.51920290000001, -30.9463887 ], [ -51.5189615, -30.9462207 ], [ -51.5186048, -30.9462552 ], [ -51.5181166, -30.9463933 ], [ -51.51725290000001, -30.9455789 ], [ -51.5173173, -30.9448428 ], [ -51.5172583, -30.9439042 ], [ -51.5170598, -30.94378 ], [ -51.516856, -30.939381399999988 ], [ -51.5110409, -30.9370578 ], [ -51.5117168, -30.9345869 ], [ -51.5115398, -30.933942699999989 ], [ -51.5113092, -30.933662 ], [ -51.5109497, -30.9335102 ], [ -51.5104616, -30.9335332 ], [ -51.510253, -30.932602400000011 ], [ -51.5100781, -30.9322051 ], [ -51.5099031, -30.9303689 ], [ -51.5099031, -30.929954 ], [ -51.5096561, -30.9293978 ], [ -51.5093576, -30.9286385 ], [ -51.5090592, -30.9272436 ], [ -51.508452, -30.9246745 ], [ -51.50803, -30.923156 ], [ -51.5074331, -30.9208074 ], [ -51.5073096, -30.9203925 ], [ -51.5074434, -30.9202865 ], [ -51.5075257, -30.9201364 ], [ -51.507536, -30.919951 ], [ -51.5077521, -30.919695 ], [ -51.50803, -30.9196243 ], [ -51.5082255, -30.9196243 ], [ -51.508349, -30.9198627 ], [ -51.5085755, -30.919898 ], [ -51.5088739, -30.919898 ], [ -51.5090592, -30.919898 ], [ -51.5098688, -30.9198131 ], [ -51.5080342, -30.9164628 ], [ -51.5075859, -30.916554 ], [ -51.5073123, -30.916627699999985 ], [ -51.5060198, -30.9169117 ], [ -51.5048115, -30.9171771 ], [ -51.50356330000001, -30.9174425 ], [ -51.5023753, -30.9176915 ], [ -51.5013091, -30.917906299999988 ], [ -51.5003919, -30.918091100000012 ], [ -51.4994951, -30.9182718 ], [ -51.4985709, -30.918457900000011 ], [ -51.498379, -30.9184965 ] ] ] } },
{ "type": "Feature", "properties": { "name": "Centro", "code_muni": 4300851.0, "name_muni": "Arambaré" }, "geometry": { "type": "Polygon", "coordinates": [ [ [ -51.5080342, -30.9164628 ], [ -51.5070552, -30.9146149 ], [ -51.5108371, -30.9126681 ], [ -51.5111589, -30.9119018 ], [ -51.5060011, -30.910357699999988 ], [ -51.5049899, -30.9095845 ], [ -51.504727, -30.9092853 ], [ -51.5054727, -30.9076238 ], [ -51.5051991, -30.9057735 ], [ -51.50433, -30.905285600000013 ], [ -51.5041316, -30.9047148 ], [ -51.5031016, -30.9041395 ], [ -51.502651, -30.904052 ], [ -51.5014599, -30.9041685 ], [ -51.5015298, -30.9044111 ], [ -51.501684, -30.904663 ], [ -51.50168, -30.9048897 ], [ -51.5015987, -30.9050889 ], [ -51.5014762, -30.90524880000001 ], [ -51.5012604, -30.905361699999986 ], [ -51.5008861, -30.9052534 ], [ -51.5006179, -30.9052304 ], [ -51.5001243, -30.9052119 ], [ -51.4999148, -30.9052407 ], [ -51.4994977, -30.9050795 ], [ -51.4993626, -30.9050647 ], [ -51.4991946, -30.9051528 ], [ -51.499089, -30.9053408 ], [ -51.4991149, -30.9055542 ], [ -51.4991534, -30.9057735 ], [ -51.4992672, -30.9059917 ], [ -51.4993733, -30.9061417 ], [ -51.499534, -30.9062822 ], [ -51.4997834, -30.906488 ], [ -51.49988290000001, -30.9066158 ], [ -51.4998744, -30.906772 ], [ -51.4997917, -30.9068827 ], [ -51.49966, -30.9069405 ], [ -51.4994431, -30.9070208 ], [ -51.4991696, -30.907087 ], [ -51.4980254, -30.907240800000011 ], [ -51.4978176, -30.9073292 ], [ -51.4976313, -30.9074908 ], [ -51.497587, -30.9076261 ], [ -51.497595, -30.9077319 ], [ -51.4976031, -30.9078401 ], [ -51.4976486, -30.9079518 ], [ -51.4977908, -30.9081116 ], [ -51.4979652, -30.9082359 ], [ -51.4982098, -30.9083114 ], [ -51.498834, -30.9083171 ], [ -51.4989924, -30.9083418 ], [ -51.4991561, -30.9083855 ], [ -51.4992607, -30.9084499 ], [ -51.499365, -30.9085458 ], [ -51.4994431, -30.908687 ], [ -51.4994726, -30.9088274 ], [ -51.4994806, -30.9089631 ], [ -51.4994531, -30.9091033 ], [ -51.499325, -30.9093313 ], [ -51.4992285, -30.9094349 ], [ -51.4991037, -30.9095305 ], [ -51.4989334, -30.9095868 ], [ -51.4987618, -30.9095569 ], [ -51.498566, -30.9094533 ], [ -51.4984535, -30.9093495 ], [ -51.498405, -30.9091587 ], [ -51.4983041, -30.9089888 ], [ -51.498161, -30.9089056 ], [ -51.4980521, -30.9088972 ], [ -51.4978686, -30.9089217 ], [ -51.4976519, -30.909028899999985 ], [ -51.4964601, -30.9099791 ], [ -51.4949811, -30.9110413 ], [ -51.4950944, -30.9111534 ], [ -51.4950201, -30.911368 ], [ -51.4949092, -30.911443 ], [ -51.4953437, -30.9119267 ], [ -51.496248, -30.9132929 ], [ -51.4970489, -30.9153722 ], [ -51.4974493, -30.9164737 ], [ -51.4980857, -30.9185556 ], [ -51.498379, -30.9184965 ], [ -51.4985709, -30.918457900000011 ], [ -51.4994951, -30.9182718 ], [ -51.5003919, -30.918091100000012 ], [ -51.5013091, -30.917906299999988 ], [ -51.5023753, -30.9176915 ], [ -51.50356330000001, -30.9174425 ], [ -51.5048115, -30.9171771 ], [ -51.5060198, -30.9169117 ], [ -51.5073123, -30.916627699999985 ], [ -51.5075859, -30.916554 ], [ -51.5080342, -30.9164628 ] ] ] } },
{ "type": "Feature", "properties": { "name": "Cibislândia", "code_muni": 4300851.0, "name_muni": "Arambaré" }, "geometry": { "type": "Polygon", "coordinates": [ [ [ -51.4949811, -30.9110413 ], [ -51.4964601, -30.9099791 ], [ -51.4976519, -30.909028899999985 ], [ -51.4978686, -30.9089217 ], [ -51.4980521, -30.9088972 ], [ -51.498161, -30.9089056 ], [ -51.4983041, -30.9089888 ], [ -51.498405, -30.9091587 ], [ -51.4984535, -30.9093495 ], [ -51.498566, -30.9094533 ], [ -51.4987618, -30.9095569 ], [ -51.4989334, -30.9095868 ], [ -51.4991037, -30.9095305 ], [ -51.4992285, -30.9094349 ], [ -51.499325, -30.9093313 ], [ -51.4994531, -30.9091033 ], [ -51.4994806, -30.9089631 ], [ -51.4994726, -30.9088274 ], [ -51.4994431, -30.908687 ], [ -51.499365, -30.9085458 ], [ -51.4992607, -30.9084499 ], [ -51.4991561, -30.9083855 ], [ -51.4989924, -30.9083418 ], [ -51.498834, -30.9083171 ], [ -51.4982098, -30.9083114 ], [ -51.4979652, -30.9082359 ], [ -51.4977908, -30.9081116 ], [ -51.4976486, -30.9079518 ], [ -51.4976031, -30.9078401 ], [ -51.497595, -30.9077319 ], [ -51.497587, -30.9076261 ], [ -51.4976313, -30.9074908 ], [ -51.4978176, -30.9073292 ], [ -51.4980254, -30.907240800000011 ], [ -51.4991696, -30.907087 ], [ -51.4994431, -30.9070208 ], [ -51.49966, -30.9069405 ], [ -51.4997917, -30.9068827 ], [ -51.4998744, -30.906772 ], [ -51.49988290000001, -30.9066158 ], [ -51.4997834, -30.906488 ], [ -51.499534, -30.9062822 ], [ -51.4993733, -30.9061417 ], [ -51.4992672, -30.9059917 ], [ -51.4991534, -30.9057735 ], [ -51.4991149, -30.9055542 ], [ -51.499089, -30.9053408 ], [ -51.4991946, -30.9051528 ], [ -51.4993626, -30.9050647 ], [ -51.4994977, -30.9050795 ], [ -51.4999148, -30.9052407 ], [ -51.5001243, -30.9052119 ], [ -51.5006179, -30.9052304 ], [ -51.5008861, -30.9052534 ], [ -51.5012604, -30.905361699999986 ], [ -51.5014762, -30.90524880000001 ], [ -51.5015987, -30.9050889 ], [ -51.50168, -30.9048897 ], [ -51.501684, -30.904663 ], [ -51.5015298, -30.9044111 ], [ -51.5014599, -30.9041685 ], [ -51.5014601, -30.903937 ], [ -51.5015079, -30.9036785 ], [ -51.5014654, -30.9033938 ], [ -51.5013043, -30.903237199999989 ], [ -51.5010256, -30.9031131 ], [ -51.5007852, -30.9030248 ], [ -51.5006125, -30.9028783 ], [ -51.5005018, -30.9027219 ], [ -51.5004838, -30.9025699 ], [ -51.5005161, -30.9024785 ], [ -51.5006501, -30.9023858 ], [ -51.5007145, -30.9022803 ], [ -51.5007339, -30.9021417 ], [ -51.500693, -30.9019347 ], [ -51.5005493, -30.9017981 ], [ -51.5003979, -30.9017276 ], [ -51.500142, -30.9016738 ], [ -51.4999023, -30.9017353 ], [ -51.4997381, -30.9018519 ], [ -51.4994936, -30.9019529 ], [ -51.4992722, -30.9019598 ], [ -51.4990461, -30.9018887 ], [ -51.4988166, -30.9017499 ], [ -51.4985063, -30.9015448 ], [ -51.4979556, -30.9011792 ], [ -51.4969149, -30.9002748 ], [ -51.4965817, -30.8997389 ], [ -51.4962418, -30.8995159 ], [ -51.4962026, -30.8993168 ], [ -51.4953412, -30.8995509 ], [ -51.4952802, -30.8995674 ], [ -51.495645, -30.9001959 ], [ -51.4956846, -30.9003051 ], [ -51.4957739, -30.9004435 ], [ -51.4961088, -30.9009959 ], [ -51.4962894, -30.9012939 ], [ -51.4965942, -30.9018067 ], [ -51.4966442, -30.901882 ], [ -51.4966764, -30.9020959 ], [ -51.4964348, -30.903066 ], [ -51.4964054, -30.9031825 ], [ -51.4962994, -30.9036019 ], [ -51.4960085, -30.9047524 ], [ -51.49579, -30.9056172 ], [ -51.4950457, -30.9059353 ], [ -51.4943362, -30.9062385 ], [ -51.4929635, -30.9068525 ], [ -51.4927651, -30.9069273 ], [ -51.4928543, -30.9070855 ], [ -51.4929404, -30.907217 ], [ -51.4933276, -30.907771 ], [ -51.4936488, -30.9083399 ], [ -51.4938802, -30.9089631 ], [ -51.4939953, -30.9096746 ], [ -51.4941108, -30.9100954 ], [ -51.4942597, -30.9105241 ], [ -51.4944422, -30.910861 ], [ -51.4945045, -30.9108698 ], [ -51.4945594, -30.9108494 ], [ -51.494599, -30.9108041 ], [ -51.4947094, -30.9107979 ], [ -51.4949811, -30.9110413 ] ] ] } }
]
}
