{
"type": "FeatureCollection",
"name": "bairros_severiano_de_almeida",
"crs": { "type": "name", "properties": { "name": "urn:ogc:def:crs:OGC:1.3:CRS84" } },
"features": [
{ "type": "Feature", "properties": { "code_muni": 4320602.0, "name_muni": "Severiano de Almeida", "code_state": 43.0, "abbrev_state": "RS", "name_state": "Rio Grande do Sul", "code_region": 4.0, "name_region": "Sul", "year": 2022.0 }, "geometry": { "type": "Polygon", "coordinates": [ [ [ -52.108644845, -27.475171058999905 ], [ -52.132961284, -27.465493265 ], [ -52.144702497, -27.477811281 ], [ -52.158532331999893, -27.467662296 ], [ -52.161166206, -27.469060263999904 ], [ -52.162558949999891, -27.456527654 ], [ -52.168661767999907, -27.458913041999896 ], [ -52.175302138999896, -27.450849913 ], [ -52.182940092, -27.449136328999906 ], [ -52.180615822999989, -27.443802107999893 ], [ -52.191615812999899, -27.44456595 ], [ -52.193530596999899, -27.442530196999893 ], [ -52.190088140999897, -27.427712326999902 ], [ -52.192584078, -27.423015458 ], [ -52.196683564, -27.420825696 ], [ -52.196621502, -27.418731825 ], [ -52.194298761, -27.418830785999898 ], [ -52.194190927, -27.408361339 ], [ -52.188949647, -27.408718328 ], [ -52.200141565, -27.401609579 ], [ -52.173288236, -27.378301 ], [ -52.178044847, -27.3740579289999 ], [ -52.111854819, -27.373809198999901 ], [ -52.111706254999895, -27.360168245999898 ], [ -52.11536202, -27.351305098999894 ], [ -52.107518371, -27.351363267 ], [ -52.107102567, -27.343406662999897 ], [ -52.103287049999892, -27.346695645999901 ], [ -52.096649982, -27.3484354029999 ], [ -52.0918023, -27.347253278 ], [ -52.078662235, -27.338762543 ], [ -52.066057067, -27.339536589 ], [ -52.049033430999891, -27.346312145 ], [ -52.0497831059999, -27.348774019 ], [ -52.047160673999898, -27.358769272 ], [ -52.047895519, -27.372425410999899 ], [ -52.062049185, -27.387858047999899 ], [ -52.065315031999894, -27.404759993 ], [ -52.068854926, -27.405491055 ], [ -52.07415466, -27.401139258999898 ], [ -52.073845384, -27.415180556999896 ], [ -52.065686335, -27.4169991529999 ], [ -52.055219414, -27.41319362 ], [ -52.051309913, -27.409080326 ], [ -52.041152048999891, -27.415970251 ], [ -52.041881663, -27.417093733999899 ], [ -52.032658996, -27.419535953 ], [ -52.032181362, -27.423314574999896 ], [ -52.034159997, -27.427753919999898 ], [ -52.029997761999894, -27.431112465999902 ], [ -52.02880665299989, -27.454530307 ], [ -52.066647964, -27.453918304999892 ], [ -52.067068348, -27.480270254999901 ], [ -52.107902491999894, -27.480950988 ], [ -52.107397741999897, -27.473538365 ], [ -52.108644845, -27.475171058999905 ] ] ] } }
]
}
