{
"type": "FeatureCollection",
"name": "bairros_nova_boa_vista",
"crs": { "type": "name", "properties": { "name": "urn:ogc:def:crs:OGC:1.3:CRS84" } },
"features": [
{ "type": "Feature", "properties": { "code_muni": 4312955.0, "name_muni": "Nova Boa Vista", "code_state": 43.0, "abbrev_state": "RS", "name_state": "Rio Grande do Sul", "code_region": 4.0, "name_region": "Sul", "year": 2022.0 }, "geometry": { "type": "Polygon", "coordinates": [ [ [ -52.987005246, -28.03325087 ], [ -52.992516592, -28.033373185 ], [ -52.998187669999901, -28.037626356 ], [ -53.004271966, -28.030875361 ], [ -53.005262519, -28.027138656 ], [ -53.008916266, -28.027227534 ], [ -53.009773146, -28.0291343 ], [ -53.006241281, -28.034464399999909 ], [ -53.008032704999898, -28.039640913 ], [ -53.010749932, -28.040311673 ], [ -53.020970872, -28.036026633999899 ], [ -53.0223083939999, -28.025659819999898 ], [ -53.020172757999894, -28.021626709 ], [ -53.022008994, -28.003872744 ], [ -53.031053249, -28.0039295559999 ], [ -53.031396496, -27.990899211999899 ], [ -53.043279364999897, -27.982627091 ], [ -53.043688142, -27.978694101 ], [ -53.049150126, -27.968678512999897 ], [ -53.058578509, -27.956341160999987 ], [ -53.056184625, -27.955703984 ], [ -53.046988408999908, -27.960448095999904 ], [ -53.039968101999889, -27.9607485 ], [ -53.035353154999903, -27.964274909 ], [ -53.033311931, -27.964432927 ], [ -53.032347552, -27.961823167 ], [ -53.013474448999894, -27.956083957 ], [ -53.005609572, -27.951167758999897 ], [ -52.98640087, -27.948247541999894 ], [ -52.9866701239999, -27.953476518999889 ], [ -52.974238563, -27.953233769 ], [ -52.974148677, -27.963493964999895 ], [ -52.969780442999898, -27.9695905949999 ], [ -52.947918408, -27.9545166999999 ], [ -52.948261053, -27.966766067 ], [ -52.934636854, -27.961449678 ], [ -52.935385985, -27.987321242 ], [ -52.926863123, -27.98546399 ], [ -52.918954794999891, -28.000902314 ], [ -52.908801664999899, -28.0145890659999 ], [ -52.916563279999899, -28.021957049 ], [ -52.923438694, -28.025621078 ], [ -52.930088938, -28.031224714 ], [ -52.935200952999892, -28.037357491 ], [ -52.935302553, -28.042326207 ], [ -52.938732935, -28.043803608 ], [ -52.944398668, -28.044277845999908 ], [ -52.948299312, -28.041106677 ], [ -52.953535730999896, -28.043005514999901 ], [ -52.95625132899989, -28.040667577 ], [ -52.956189437, -28.035903478 ], [ -52.957519003, -28.034443082999896 ], [ -52.958943771, -28.033575543 ], [ -52.961264008999898, -28.035978499999892 ], [ -52.963500397, -28.033630437999904 ], [ -52.96568961, -28.034644375 ], [ -52.967000004999896, -28.039846167 ], [ -52.966431903999897, -28.046114443 ], [ -52.964469115999989, -28.049357057999906 ], [ -52.968051795999891, -28.050109941 ], [ -52.973722957999897, -28.046298863999901 ], [ -52.973653461, -28.0424391399999 ], [ -52.969628064999903, -28.037122338 ], [ -52.972791925, -28.033039003999903 ], [ -52.979069791, -28.034598871 ], [ -52.978684562999902, -28.040287013 ], [ -52.981445481, -28.042431276999896 ], [ -52.985455140999896, -28.039985505999905 ], [ -52.985469885, -28.034706295 ], [ -52.987005246, -28.03325087 ] ] ] } }
]
}
