{
"type": "FeatureCollection",
"name": "bairros_dom_pedrito",
"crs": { "type": "name", "properties": { "name": "urn:ogc:def:crs:OGC:1.3:CRS84" } },
"features": [
{ "type": "Feature", "properties": { "name": "Getúlio Vargas", "code_muni": 4306601.0, "name_muni": "Dom Pedrito" }, "geometry": { "type": "Polygon", "coordinates": [ [ [ -54.6701736, -30.9741781 ], [ -54.6714166, -30.973964 ], [ -54.6714748, -30.9739518 ], [ -54.672549, -30.973726 ], [ -54.6727533, -30.9736802 ], [ -54.6729261, -30.9737061 ], [ -54.6731016, -30.9736726 ], [ -54.6739312, -30.9734819 ], [ -54.6740285, -30.9734627 ], [ -54.675331300000011, -30.9732179 ], [ -54.6754233, -30.9732004 ], [ -54.6780085, -30.9727776 ], [ -54.6793515, -30.9725418 ], [ -54.6806504, -30.9723317 ], [ -54.6820719, -30.9722697 ], [ -54.6825533, -30.9722474 ], [ -54.6831872, -30.9722406 ], [ -54.6833474, -30.9722221 ], [ -54.6835138, -30.9721904 ], [ -54.6837664, -30.9722168 ], [ -54.6840314, -30.9722802 ], [ -54.684239, -30.9723509 ], [ -54.6850263, -30.9726705 ], [ -54.6857753, -30.9730463 ], [ -54.6859108, -30.973152 ], [ -54.68594, -30.973230300000012 ], [ -54.6861446, -30.973274099999987 ], [ -54.6864969, -30.9734292 ], [ -54.6867199, -30.9735398 ], [ -54.6874871, -30.9739163 ], [ -54.6888343, -30.9747043 ], [ -54.6889548, -30.9743115 ], [ -54.6896303, -30.973626 ], [ -54.6901568, -30.9733162 ], [ -54.6918431, -30.9720459 ], [ -54.6932844, -30.9711498 ], [ -54.6917439, -30.9586397 ], [ -54.6764767, -30.9495079 ], [ -54.6714076, -30.954934099999988 ], [ -54.6706582, -30.9556538 ], [ -54.6697508, -30.9565732 ], [ -54.6686769, -30.9576438 ], [ -54.6685684, -30.9577558 ], [ -54.6684695, -30.9578612 ], [ -54.6683415, -30.9579894 ], [ -54.6674752, -30.9588606 ], [ -54.6665197, -30.9598761 ], [ -54.665595, -30.9609122 ], [ -54.6646066, -30.9619449 ], [ -54.6636533, -30.962736 ], [ -54.6624445, -30.963995 ], [ -54.6605565, -30.9659331 ], [ -54.6587346, -30.9679286 ], [ -54.6560946, -30.970685799999977 ], [ -54.6556614, -30.9710112 ], [ -54.6555045, -30.971097400000012 ], [ -54.6551082, -30.9712762 ], [ -54.6550191, -30.9713039 ], [ -54.6551694, -30.9715087 ], [ -54.6576864, -30.9702605 ], [ -54.6590893, -30.9695588 ], [ -54.6608187, -30.9686795 ], [ -54.6613356, -30.9684188 ], [ -54.6615749, -30.9683088 ], [ -54.6616527, -30.968267799999989 ], [ -54.6621121, -30.9680387 ], [ -54.6629459, -30.9676582 ], [ -54.6631347, -30.9683014 ], [ -54.6631605, -30.9684045 ], [ -54.6633436, -30.969125699999985 ], [ -54.6635804, -30.9700269 ], [ -54.6636796, -30.9704043 ], [ -54.6637307, -30.9706085 ], [ -54.6637768, -30.9708014 ], [ -54.6641091, -30.972191 ], [ -54.6641949, -30.9725152 ], [ -54.6643083, -30.9730048 ], [ -54.6643279, -30.9730694 ], [ -54.6644803, -30.9736589 ], [ -54.6647499, -30.9747848 ], [ -54.6648526, -30.9752162 ], [ -54.6661985, -30.9749493 ], [ -54.6675193, -30.9746894 ], [ -54.6699882, -30.974218 ], [ -54.6701736, -30.9741781 ] ] ] } },
{ "type": "Feature", "properties": { "name": "José Tude de Godoy", "code_muni": 4306601.0, "name_muni": "Dom Pedrito" }, "geometry": { "type": "Polygon", "coordinates": [ [ [ -54.6641949, -30.9725152 ], [ -54.6641091, -30.972191 ], [ -54.6637768, -30.9708014 ], [ -54.6637307, -30.9706085 ], [ -54.6636796, -30.9704043 ], [ -54.6635804, -30.9700269 ], [ -54.6633436, -30.969125699999985 ], [ -54.6631605, -30.9684045 ], [ -54.6631347, -30.9683014 ], [ -54.6629459, -30.9676582 ], [ -54.6621121, -30.9680387 ], [ -54.6616527, -30.968267799999989 ], [ -54.6615749, -30.9683088 ], [ -54.6613356, -30.9684188 ], [ -54.6608187, -30.9686795 ], [ -54.6590893, -30.9695588 ], [ -54.6576864, -30.9702605 ], [ -54.6551694, -30.9715087 ], [ -54.6553644, -30.9717447 ], [ -54.655411, -30.9717995 ], [ -54.6555617, -30.972890899999989 ], [ -54.6556722, -30.9738451 ], [ -54.6557419, -30.974447 ], [ -54.6557862, -30.9745149 ], [ -54.6559028, -30.9746379 ], [ -54.6563531, -30.974876599999988 ], [ -54.6564353, -30.9749202 ], [ -54.6571894, -30.9753199 ], [ -54.6585113, -30.9759619 ], [ -54.659007, -30.9762075 ], [ -54.6592825, -30.9763638 ], [ -54.6581753, -30.9766455 ], [ -54.6580513, -30.976693799999985 ], [ -54.6579762, -30.976751900000011 ], [ -54.6576945, -30.9771584 ], [ -54.6570817, -30.9781449 ], [ -54.6569261, -30.9784025 ], [ -54.65676, -30.9787841 ], [ -54.656755, -30.9789446 ], [ -54.6568238, -30.9793615 ], [ -54.6569178, -30.9798009 ], [ -54.6570772, -30.9804603 ], [ -54.6571838, -30.9809994 ], [ -54.6571657, -30.9811573 ], [ -54.6573265, -30.9815617 ], [ -54.6574628, -30.9819091 ], [ -54.6574788, -30.9819436 ], [ -54.6609414, -30.981299900000014 ], [ -54.6661386, -30.9803589 ], [ -54.6660978, -30.9802611 ], [ -54.6659253, -30.9795122 ], [ -54.6658685, -30.9792439 ], [ -54.6658464, -30.9791656 ], [ -54.6655749, -30.9780848 ], [ -54.6652888, -30.9769709 ], [ -54.6651603, -30.9764596 ], [ -54.6650145, -30.9758792 ], [ -54.665001, -30.9758188 ], [ -54.6648526, -30.9752162 ], [ -54.6647499, -30.9747848 ], [ -54.6644803, -30.9736589 ], [ -54.6643279, -30.9730694 ], [ -54.6643083, -30.9730048 ], [ -54.6641949, -30.9725152 ] ] ] } },
{ "type": "Feature", "properties": { "name": "Ataliba Coutinho da Rocha", "code_muni": 4306601.0, "name_muni": "Dom Pedrito" }, "geometry": { "type": "Polygon", "coordinates": [ [ [ -54.6551694, -30.9715087 ], [ -54.6536212, -30.9722583 ], [ -54.65310370000001, -30.9725187 ], [ -54.6512462, -30.9734344 ], [ -54.6506864, -30.9737199 ], [ -54.6505863, -30.9737699 ], [ -54.6493327, -30.9744757 ], [ -54.648127, -30.9752681 ], [ -54.64790450000001, -30.975436 ], [ -54.647778, -30.9755299 ], [ -54.6469721, -30.9761478 ], [ -54.6466888, -30.9763943 ], [ -54.6462858, -30.9767273 ], [ -54.6460836, -30.9769328 ], [ -54.6451535, -30.9778228 ], [ -54.6438283, -30.9790916 ], [ -54.6396163, -30.9830978 ], [ -54.6388208, -30.9838542 ], [ -54.6382729, -30.9843507 ], [ -54.6387293, -30.9842126 ], [ -54.6388732, -30.9841424 ], [ -54.6390261, -30.9840923 ], [ -54.6402093, -30.9837492 ], [ -54.6416818, -30.9832672 ], [ -54.642122, -30.9831416 ], [ -54.6427182, -30.9829715 ], [ -54.645355, -30.9824624 ], [ -54.646344, -30.9822534 ], [ -54.64732260000001, -30.9821737 ], [ -54.6507332, -30.9818403 ], [ -54.6513471, -30.981783 ], [ -54.6517624, -30.9817356 ], [ -54.6519758, -30.9817111 ], [ -54.6520914, -30.9816995 ], [ -54.6521786, -30.981687500000014 ], [ -54.6525532, -30.9816358 ], [ -54.654141, -30.981431799999985 ], [ -54.6549804, -30.9813508 ], [ -54.6555032, -30.9813003 ], [ -54.6570067, -30.9811788 ], [ -54.6571657, -30.9811573 ], [ -54.6571838, -30.9809994 ], [ -54.6570772, -30.9804603 ], [ -54.6569178, -30.9798009 ], [ -54.6568238, -30.9793615 ], [ -54.656755, -30.9789446 ], [ -54.65676, -30.9787841 ], [ -54.6569261, -30.9784025 ], [ -54.6570817, -30.9781449 ], [ -54.6576945, -30.9771584 ], [ -54.6579762, -30.976751900000011 ], [ -54.6580513, -30.976693799999985 ], [ -54.6581753, -30.9766455 ], [ -54.6592825, -30.9763638 ], [ -54.659007, -30.9762075 ], [ -54.6585113, -30.9759619 ], [ -54.6571894, -30.9753199 ], [ -54.6564353, -30.9749202 ], [ -54.6563531, -30.974876599999988 ], [ -54.6559028, -30.9746379 ], [ -54.6557862, -30.9745149 ], [ -54.6557419, -30.974447 ], [ -54.6556722, -30.9738451 ], [ -54.6555617, -30.972890899999989 ], [ -54.655411, -30.9717995 ], [ -54.6553644, -30.9717447 ], [ -54.6551694, -30.9715087 ] ] ] } },
{ "type": "Feature", "properties": { "name": "Doutor Moacyr Dias", "code_muni": 4306601.0, "name_muni": "Dom Pedrito" }, "geometry": { "type": "Polygon", "coordinates": [ [ [ -54.6476805, -30.9954009 ], [ -54.6502971, -30.9942866 ], [ -54.6518983, -30.993606 ], [ -54.6541926, -30.9927765 ], [ -54.6544279, -30.9926981 ], [ -54.6557472, -30.9922587 ], [ -54.65622590000001, -30.992065600000014 ], [ -54.6579128, -30.9913877 ], [ -54.6586209, -30.9911244 ], [ -54.6592166, -30.9908593 ], [ -54.6592779, -30.9908356 ], [ -54.6596356, -30.9906879 ], [ -54.6604903, -30.9903275 ], [ -54.6610824, -30.990069 ], [ -54.6608333, -30.9894988 ], [ -54.6604523, -30.9886262 ], [ -54.6603678, -30.9884815 ], [ -54.6601754, -30.988098900000011 ], [ -54.6597396, -30.9870899 ], [ -54.6593561, -30.9861796 ], [ -54.65923380000001, -30.9859187 ], [ -54.6590972, -30.9855235 ], [ -54.6590262, -30.98531130000001 ], [ -54.6589942, -30.9852298 ], [ -54.6585287, -30.9840434 ], [ -54.6583147, -30.9836017 ], [ -54.658053, -30.983006 ], [ -54.6576564, -30.982206099999988 ], [ -54.6575056, -30.9819836 ], [ -54.6574788, -30.9819436 ], [ -54.6574628, -30.9819091 ], [ -54.6573265, -30.9815617 ], [ -54.6571657, -30.9811573 ], [ -54.6570067, -30.9811788 ], [ -54.6555032, -30.9813003 ], [ -54.6549804, -30.9813508 ], [ -54.654141, -30.981431799999985 ], [ -54.6525532, -30.9816358 ], [ -54.6521786, -30.981687500000014 ], [ -54.6520914, -30.9816995 ], [ -54.6519758, -30.9817111 ], [ -54.6517624, -30.9817356 ], [ -54.6513471, -30.981783 ], [ -54.6507332, -30.9818403 ], [ -54.64732260000001, -30.9821737 ], [ -54.646344, -30.9822534 ], [ -54.645355, -30.9824624 ], [ -54.6454173, -30.9828675 ], [ -54.6457152, -30.9845597 ], [ -54.6461848, -30.9872035 ], [ -54.6463931, -30.9883938 ], [ -54.6476805, -30.9954009 ] ] ] } },
{ "type": "Feature", "properties": { "name": "Santa Terezinha", "code_muni": 4306601.0, "name_muni": "Dom Pedrito" }, "geometry": { "type": "Polygon", "coordinates": [ [ [ -54.6609414, -30.981299900000014 ], [ -54.6574788, -30.9819436 ], [ -54.6575056, -30.9819836 ], [ -54.6576564, -30.982206099999988 ], [ -54.658053, -30.983006 ], [ -54.6583147, -30.9836017 ], [ -54.6585287, -30.9840434 ], [ -54.6589942, -30.9852298 ], [ -54.6590262, -30.98531130000001 ], [ -54.6590972, -30.9855235 ], [ -54.65923380000001, -30.9859187 ], [ -54.6593561, -30.9861796 ], [ -54.6597396, -30.9870899 ], [ -54.6601754, -30.988098900000011 ], [ -54.6603678, -30.9884815 ], [ -54.6604523, -30.9886262 ], [ -54.6608333, -30.9894988 ], [ -54.6610824, -30.990069 ], [ -54.6613634, -30.9905792 ], [ -54.6619948, -30.991647 ], [ -54.6621071, -30.9916256 ], [ -54.6632811, -30.9914016 ], [ -54.6634036, -30.9913887 ], [ -54.6635068, -30.9913643 ], [ -54.6640802, -30.9912525 ], [ -54.6645877, -30.9911615 ], [ -54.6646542, -30.991149599999989 ], [ -54.664732, -30.9911381 ], [ -54.6648135, -30.9911242 ], [ -54.6659187, -30.9909353 ], [ -54.6660297, -30.9909163 ], [ -54.6661181, -30.9908984 ], [ -54.6673022, -30.9906592 ], [ -54.6685105, -30.9904434 ], [ -54.6685763, -30.9904316 ], [ -54.6686148, -30.9904256 ], [ -54.668354, -30.9893334 ], [ -54.6661414, -30.9803684 ], [ -54.6661386, -30.9803589 ], [ -54.6609414, -30.981299900000014 ] ] ] } },
{ "type": "Feature", "properties": { "name": "Oscar Vicente e Silva", "code_muni": 4306601.0, "name_muni": "Dom Pedrito" }, "geometry": { "type": "Polygon", "coordinates": [ [ [ -54.6570254, -30.994367399999987 ], [ -54.6576047, -30.9964459 ], [ -54.6668744, -30.9991497 ], [ -54.6689196, -30.9943423 ], [ -54.6689177, -30.9939937 ], [ -54.668943, -30.993677 ], [ -54.6689506, -30.993582600000011 ], [ -54.6689725, -30.9932436 ], [ -54.6690135, -30.992728 ], [ -54.6690418, -30.9921185 ], [ -54.6690332, -30.992033 ], [ -54.6689197, -30.9915631 ], [ -54.6687917, -30.9910536 ], [ -54.6686148, -30.9904256 ], [ -54.6685763, -30.9904316 ], [ -54.6685105, -30.9904434 ], [ -54.6673022, -30.9906592 ], [ -54.6661181, -30.9908984 ], [ -54.6660297, -30.9909163 ], [ -54.6659187, -30.9909353 ], [ -54.6648135, -30.9911242 ], [ -54.664732, -30.9911381 ], [ -54.6646542, -30.991149599999989 ], [ -54.6645877, -30.9911615 ], [ -54.6640802, -30.9912525 ], [ -54.6635068, -30.9913643 ], [ -54.6634036, -30.9913887 ], [ -54.6632811, -30.9914016 ], [ -54.6621071, -30.9916256 ], [ -54.6619948, -30.991647 ], [ -54.6613634, -30.9905792 ], [ -54.6610824, -30.990069 ], [ -54.6604903, -30.9903275 ], [ -54.6596356, -30.9906879 ], [ -54.6592779, -30.9908356 ], [ -54.6592166, -30.9908593 ], [ -54.6586209, -30.9911244 ], [ -54.6579128, -30.9913877 ], [ -54.65622590000001, -30.992065600000014 ], [ -54.6557472, -30.9922587 ], [ -54.6570254, -30.994367399999987 ] ] ] } },
{ "type": "Feature", "properties": { "name": "São Gregório", "code_muni": 4306601.0, "name_muni": "Dom Pedrito" }, "geometry": { "type": "Polygon", "coordinates": [ [ [ -54.6687917, -30.9910536 ], [ -54.6689197, -30.9915631 ], [ -54.6690332, -30.992033 ], [ -54.6690418, -30.9921185 ], [ -54.6690135, -30.992728 ], [ -54.6689725, -30.9932436 ], [ -54.6689506, -30.993582600000011 ], [ -54.668943, -30.993677 ], [ -54.6689177, -30.9939937 ], [ -54.6689196, -30.9943423 ], [ -54.6668744, -30.9991497 ], [ -54.6719626, -31.0006146 ], [ -54.6725687, -30.9985439 ], [ -54.6728531, -30.9990003 ], [ -54.6733774, -30.9996555 ], [ -54.6734941, -30.9996963 ], [ -54.6736094, -30.9996929 ], [ -54.6740894, -30.9994791 ], [ -54.6745188, -30.9992247 ], [ -54.674853, -30.99901950000001 ], [ -54.6764941, -30.9979851 ], [ -54.6780885, -30.9966312 ], [ -54.6787317, -30.9961034 ], [ -54.6796605, -30.9953584 ], [ -54.6784652, -30.9911969 ], [ -54.6784361, -30.991123099999985 ], [ -54.6775792, -30.987674 ], [ -54.6773704, -30.9877197 ], [ -54.6762217, -30.9879159 ], [ -54.6749073, -30.988153 ], [ -54.6735943, -30.9883911 ], [ -54.6722932, -30.9886279 ], [ -54.6709677, -30.9888668 ], [ -54.6706589, -30.9888966 ], [ -54.6696832, -30.9890785 ], [ -54.6685012, -30.9893062 ], [ -54.6684013, -30.9893261 ], [ -54.668354, -30.9893334 ], [ -54.6686148, -30.9904256 ], [ -54.6687917, -30.9910536 ] ] ] } },
{ "type": "Feature", "properties": { "name": "Sagrada Face", "code_muni": 4306601.0, "name_muni": "Dom Pedrito" }, "geometry": { "type": "Polygon", "coordinates": [ [ [ -54.6800607, -30.9860238 ], [ -54.6786051, -30.9863243 ], [ -54.6773176, -30.9865497 ], [ -54.6775792, -30.987674 ], [ -54.6784361, -30.991123099999985 ], [ -54.6784652, -30.9911969 ], [ -54.6796605, -30.9953584 ], [ -54.6787317, -30.9961034 ], [ -54.6780885, -30.9966312 ], [ -54.6764941, -30.9979851 ], [ -54.674853, -30.99901950000001 ], [ -54.6745188, -30.9992247 ], [ -54.6740894, -30.9994791 ], [ -54.6736094, -30.9996929 ], [ -54.6734941, -30.9996963 ], [ -54.6733774, -30.9996555 ], [ -54.6728531, -30.9990003 ], [ -54.6725687, -30.9985439 ], [ -54.6719626, -31.0006146 ], [ -54.6823635, -31.0003413 ], [ -54.6820141, -31.0000215 ], [ -54.6817543, -30.9996471 ], [ -54.6815151, -30.9991564 ], [ -54.6814648, -30.998508 ], [ -54.6817456, -30.997955 ], [ -54.6821928, -30.997477799999988 ], [ -54.6827993, -30.9964071 ], [ -54.6832211, -30.9954506 ], [ -54.6836549, -30.995043599999985 ], [ -54.684764, -30.9953206 ], [ -54.685685, -30.995205 ], [ -54.6862609, -30.9946508 ], [ -54.6875282, -30.9921409 ], [ -54.6883769, -30.9913443 ], [ -54.6894558, -30.9913148 ], [ -54.6901121, -30.9913586 ], [ -54.6909054, -30.9911662 ], [ -54.6911187, -30.990758900000014 ], [ -54.6913263, -30.9900319 ], [ -54.6912874, -30.9896613 ], [ -54.6911515, -30.9881348 ], [ -54.6909857, -30.9874774 ], [ -54.6905761, -30.9872083 ], [ -54.6886828, -30.9867984 ], [ -54.6880439, -30.9862906 ], [ -54.6882746, -30.9856922 ], [ -54.6890515, -30.9845343 ], [ -54.6838394, -30.9853137 ], [ -54.683708, -30.985413799999986 ], [ -54.6825908, -30.9856276 ], [ -54.6825173, -30.985636800000016 ], [ -54.6812565, -30.9858489 ], [ -54.6800607, -30.9860238 ] ] ] } },
{ "type": "Feature", "properties": { "name": "Santa Maria", "code_muni": 4306601.0, "name_muni": "Dom Pedrito" }, "geometry": { "type": "Polygon", "coordinates": [ [ [ -54.6781672, -30.9734609 ], [ -54.67841, -30.9744588 ], [ -54.6784278, -30.9745318 ], [ -54.6784466, -30.9746057 ], [ -54.6784694, -30.974695499999985 ], [ -54.6786875, -30.9755564 ], [ -54.6789757, -30.9767725 ], [ -54.6790153, -30.976887 ], [ -54.6792543, -30.9778367 ], [ -54.6795619, -30.9791129 ], [ -54.6798456, -30.98028510000001 ], [ -54.6800839, -30.981246899999984 ], [ -54.6801143, -30.981361299999989 ], [ -54.6809797, -30.984805399999988 ], [ -54.6809854, -30.9848279 ], [ -54.6812565, -30.9858489 ], [ -54.6825173, -30.985636800000016 ], [ -54.6825908, -30.9856276 ], [ -54.683708, -30.985413799999986 ], [ -54.6838394, -30.9853137 ], [ -54.6890515, -30.9845343 ], [ -54.6897829, -30.9839283 ], [ -54.6906058, -30.9835563 ], [ -54.6918149, -30.9822165 ], [ -54.6928827, -30.9813261 ], [ -54.6935313, -30.9806275 ], [ -54.693871, -30.9797699 ], [ -54.6937775, -30.9791425 ], [ -54.6929851, -30.9786926 ], [ -54.6920334, -30.978504 ], [ -54.6912413, -30.9786809 ], [ -54.6906588, -30.9792609 ], [ -54.6896822, -30.979780099999989 ], [ -54.6892226, -30.9798719 ], [ -54.6887228, -30.979738699999988 ], [ -54.6881738, -30.9793495 ], [ -54.687919, -30.9789475 ], [ -54.6880519, -30.9783097 ], [ -54.688131, -30.9773753 ], [ -54.6886048, -30.9763828 ], [ -54.6888917, -30.9757123 ], [ -54.6887559, -30.9749599 ], [ -54.6888343, -30.9747043 ], [ -54.6874871, -30.9739163 ], [ -54.6867199, -30.9735398 ], [ -54.6864969, -30.9734292 ], [ -54.6861446, -30.973274099999987 ], [ -54.68594, -30.973230300000012 ], [ -54.6859108, -30.973152 ], [ -54.6857753, -30.9730463 ], [ -54.6850263, -30.9726705 ], [ -54.684239, -30.9723509 ], [ -54.6840314, -30.9722802 ], [ -54.6837664, -30.9722168 ], [ -54.6835138, -30.9721904 ], [ -54.6833474, -30.9722221 ], [ -54.6831872, -30.9722406 ], [ -54.6825533, -30.9722474 ], [ -54.6820719, -30.9722697 ], [ -54.6806504, -30.9723317 ], [ -54.6793515, -30.9725418 ], [ -54.6780085, -30.9727776 ], [ -54.6781672, -30.9734609 ] ] ] } },
{ "type": "Feature", "properties": { "name": "Centro", "code_muni": 4306601.0, "name_muni": "Dom Pedrito" }, "geometry": { "type": "Polygon", "coordinates": [ [ [ -54.6754233, -30.9732004 ], [ -54.675331300000011, -30.9732179 ], [ -54.6740285, -30.9734627 ], [ -54.6739312, -30.9734819 ], [ -54.6731016, -30.9736726 ], [ -54.6729261, -30.9737061 ], [ -54.6727533, -30.9736802 ], [ -54.672549, -30.973726 ], [ -54.6714748, -30.9739518 ], [ -54.6714166, -30.973964 ], [ -54.6701736, -30.9741781 ], [ -54.6699882, -30.974218 ], [ -54.6675193, -30.9746894 ], [ -54.6661985, -30.9749493 ], [ -54.6648526, -30.9752162 ], [ -54.665001, -30.9758188 ], [ -54.6650145, -30.9758792 ], [ -54.6651603, -30.9764596 ], [ -54.6652888, -30.9769709 ], [ -54.6655749, -30.9780848 ], [ -54.6658464, -30.9791656 ], [ -54.6658685, -30.9792439 ], [ -54.6659253, -30.9795122 ], [ -54.6660978, -30.9802611 ], [ -54.6661386, -30.9803589 ], [ -54.6661414, -30.9803684 ], [ -54.668354, -30.9893334 ], [ -54.6684013, -30.9893261 ], [ -54.6685012, -30.9893062 ], [ -54.6696832, -30.9890785 ], [ -54.6706589, -30.9888966 ], [ -54.6709677, -30.9888668 ], [ -54.6722932, -30.9886279 ], [ -54.6735943, -30.9883911 ], [ -54.6749073, -30.988153 ], [ -54.6762217, -30.9879159 ], [ -54.6773704, -30.9877197 ], [ -54.6775792, -30.987674 ], [ -54.6773176, -30.9865497 ], [ -54.6786051, -30.9863243 ], [ -54.6800607, -30.9860238 ], [ -54.6812565, -30.9858489 ], [ -54.6809854, -30.9848279 ], [ -54.6809797, -30.984805399999988 ], [ -54.6801143, -30.981361299999989 ], [ -54.6800839, -30.981246899999984 ], [ -54.6798456, -30.98028510000001 ], [ -54.6795619, -30.9791129 ], [ -54.6792543, -30.9778367 ], [ -54.6790153, -30.976887 ], [ -54.6789757, -30.9767725 ], [ -54.6786875, -30.9755564 ], [ -54.6784694, -30.974695499999985 ], [ -54.6784466, -30.9746057 ], [ -54.6784278, -30.9745318 ], [ -54.67841, -30.9744588 ], [ -54.6781672, -30.9734609 ], [ -54.6780085, -30.9727776 ], [ -54.6754233, -30.9732004 ] ] ] } }
]
}
