{
"type": "FeatureCollection",
"name": "bairros_pedras_altas",
"crs": { "type": "name", "properties": { "name": "urn:ogc:def:crs:OGC:1.3:CRS84" } },
"features": [
{ "type": "Feature", "properties": { "code_muni": 4314175.0, "name_muni": "Pedras Altas", "code_state": 43.0, "abbrev_state": "RS", "name_state": "Rio Grande do Sul", "code_region": 4.0, "name_region": "Sul", "year": 2022.0 }, "geometry": { "type": "Polygon", "coordinates": [ [ [ -53.769285822, -31.691494195 ], [ -53.771295646999903, -31.683116821999899 ], [ -53.770152493, -31.673227654999902 ], [ -53.76845329199989, -31.670377401999904 ], [ -53.773264142999899, -31.66251728000001 ], [ -53.771580597, -31.657618054999904 ], [ -53.773012437, -31.654584930999899 ], [ -53.771867593, -31.650628208999901 ], [ -53.767570319999891, -31.645944281 ], [ -53.761257749, -31.644189323 ], [ -53.759156659, -31.645420934 ], [ -53.757444753999899, -31.650221932 ], [ -53.754571805999902, -31.650218244 ], [ -53.751943358999903, -31.647868312999901 ], [ -53.740126089999897, -31.652019536000012 ], [ -53.739532977999893, -31.650339055 ], [ -53.736191484, -31.651234959 ], [ -53.718042727, -31.645259186 ], [ -53.717587382, -31.646276385 ], [ -53.715396765, -31.645544616999896 ], [ -53.714425276999989, -31.647441774 ], [ -53.712320055, -31.646709241999893 ], [ -53.709492041, -31.647546081 ], [ -53.70769150599989, -31.646485888 ], [ -53.704472407, -31.650628853999898 ], [ -53.701792773, -31.650502673999902 ], [ -53.698655677, -31.647731996999902 ], [ -53.707464420999898, -31.629109121999893 ], [ -53.697304292999895, -31.621960692999895 ], [ -53.691978618, -31.622255496 ], [ -53.687367088, -31.618893853 ], [ -53.687366383, -31.609960846 ], [ -53.682290683, -31.599211567999909 ], [ -53.686216241999894, -31.596566163 ], [ -53.684132319999897, -31.593359386 ], [ -53.668765198999893, -31.591437368 ], [ -53.664746126999894, -31.59246043 ], [ -53.66331064, -31.596385201 ], [ -53.657999909999894, -31.595264502 ], [ -53.654263720999907, -31.60064131199989 ], [ -53.648818633, -31.599346708999985 ], [ -53.644717386, -31.604935971 ], [ -53.640780414999902, -31.603841818 ], [ -53.634486755999895, -31.60747743 ], [ -53.631017621, -31.602658700999907 ], [ -53.622768913, -31.604972249999904 ], [ -53.616829571, -31.608875887999897 ], [ -53.612812891, -31.613584139999904 ], [ -53.613298401999899, -31.615958416999892 ], [ -53.610192766, -31.619185768 ], [ -53.611879751999901, -31.622326686999905 ], [ -53.609949006, -31.627847422999903 ], [ -53.606089117999893, -31.631840746 ], [ -53.604886525, -31.635550897 ], [ -53.60120998, -31.635732466 ], [ -53.598672552, -31.637969246999898 ], [ -53.594939912, -31.636718303 ], [ -53.592742529, -31.637808876999895 ], [ -53.583561865999989, -31.638275286 ], [ -53.580881554, -31.633947507 ], [ -53.576010531999891, -31.633469673 ], [ -53.569267356, -31.63667486 ], [ -53.565948404, -31.636326324 ], [ -53.565193005, -31.638274475999904 ], [ -53.5621679939999, -31.639753106999905 ], [ -53.558704696999889, -31.638924099 ], [ -53.553575302, -31.640863298999893 ], [ -53.547688915, -31.645819931999895 ], [ -53.543665302, -31.643996487 ], [ -53.541885726, -31.645077753 ], [ -53.5364340369999, -31.644690115999897 ], [ -53.51803399499989, -31.652605545 ], [ -53.518011880999893, -31.657580309 ], [ -53.516108684, -31.6592599059999 ], [ -53.513690542999896, -31.667228504 ], [ -53.509982732, -31.672890573 ], [ -53.508325332, -31.67362101 ], [ -53.5052702099999, -31.672434089 ], [ -53.499388837, -31.674224771 ], [ -53.499163493, -31.683788904 ], [ -53.495779037, -31.685344788 ], [ -53.499279336, -31.691089820999895 ], [ -53.498930397, -31.6926252 ], [ -53.501639444, -31.694136487 ], [ -53.498339417999901, -31.697582134999902 ], [ -53.501407368999892, -31.701437836 ], [ -53.498043552999903, -31.704729004999894 ], [ -53.501320601, -31.708191422 ], [ -53.496861181, -31.719541655999898 ], [ -53.501293796, -31.721280690999901 ], [ -53.497588397, -31.72731751 ], [ -53.497840255, -31.730117822 ], [ -53.49964355, -31.730128519999912 ], [ -53.498368382, -31.736875598 ], [ -53.503261273, -31.737160805 ], [ -53.49950097899989, -31.742515656 ], [ -53.500154925999894, -31.746317675999901 ], [ -53.498167177, -31.748161341 ], [ -53.499541462, -31.750883087 ], [ -53.497649469999899, -31.753737177999898 ], [ -53.493958365, -31.75375594 ], [ -53.4876520729999, -31.757363343 ], [ -53.488254501, -31.762400722999899 ], [ -53.48432390499989, -31.762524658 ], [ -53.480376559, -31.758843554999899 ], [ -53.477583287, -31.758525506999899 ], [ -53.477978656999902, -31.764435960999911 ], [ -53.481480899, -31.76618179 ], [ -53.482130447, -31.768584217999894 ], [ -53.474055353, -31.770904022 ], [ -53.473001871999898, -31.775172561 ], [ -53.470987175999895, -31.777094134 ], [ -53.468119972999901, -31.777613373999895 ], [ -53.467511714999901, -31.782245353999901 ], [ -53.46066272600001, -31.785337775 ], [ -53.464995081, -31.788410555 ], [ -53.465034085, -31.790254965 ], [ -53.4592766439999, -31.793823543 ], [ -53.458556898, -31.796290597999906 ], [ -53.45207354, -31.803585719 ], [ -53.452330565, -31.816404507999895 ], [ -53.449583103999899, -31.816990567999898 ], [ -53.4497801649999, -31.822053373 ], [ -53.448078865999896, -31.826081676999905 ], [ -53.443386996, -31.830973483 ], [ -53.443349704, -31.8331386 ], [ -53.445858035999898, -31.836416857 ], [ -53.442777775, -31.838813974999901 ], [ -53.445726271999902, -31.839712667 ], [ -53.445003608, -31.841454658 ], [ -53.448261562, -31.845045011 ], [ -53.449765321, -31.8448592569999 ], [ -53.45147954, -31.840070351 ], [ -53.450772019999903, -31.834472053999892 ], [ -53.451740738999895, -31.833034095999903 ], [ -53.453898013, -31.833074345999901 ], [ -53.461093091, -31.841832245 ], [ -53.464600693, -31.851200484999893 ], [ -53.47086982, -31.860168211 ], [ -53.47224964, -31.868150393 ], [ -53.485158946, -31.874900685999897 ], [ -53.492282148999891, -31.882803846999895 ], [ -53.497081677, -31.883419773999893 ], [ -53.497345738, -31.884767914999898 ], [ -53.507858466, -31.889594455 ], [ -53.514008917, -31.89919559 ], [ -53.517508412, -31.898057391999906 ], [ -53.523883336, -31.900250716999892 ], [ -53.52969370999989, -31.899645253 ], [ -53.532053617, -31.901146212999898 ], [ -53.533306637, -31.907754315999988 ], [ -53.535601212999893, -31.910006935 ], [ -53.539206272999898, -31.909924793999895 ], [ -53.541327373999891, -31.914261676 ], [ -53.545637230999901, -31.915926944 ], [ -53.547006461, -31.914337777 ], [ -53.549799691, -31.915713231 ], [ -53.551211338, -31.914263483999903 ], [ -53.551331148, -31.916590740999894 ], [ -53.555010448, -31.917912986 ], [ -53.55560019, -31.919416958999903 ], [ -53.554291865, -31.9199948 ], [ -53.558177741999899, -31.923539359999904 ], [ -53.5657384249999, -31.923129499 ], [ -53.572652882999897, -31.920118898999895 ], [ -53.577525231, -31.919622448 ], [ -53.5810648349999, -31.922073985999905 ], [ -53.585477779, -31.922405754 ], [ -53.58611948, -31.917315937999899 ], [ -53.584404253999892, -31.915300964 ], [ -53.586526692999897, -31.912791189 ], [ -53.597020756999903, -31.907563072999896 ], [ -53.595921126999897, -31.916147754 ], [ -53.601341729, -31.917710256 ], [ -53.59868194099991, -31.921450885 ], [ -53.596890469, -31.921679351 ], [ -53.595285449999899, -31.92524338 ], [ -53.597347113, -31.925404514 ], [ -53.6002599609999, -31.92790839 ], [ -53.598012536999903, -31.929727672999896 ], [ -53.596103942999903, -31.929504192 ], [ -53.59573988599989, -31.932928041 ], [ -53.591594127, -31.936914218 ], [ -53.588868971999901, -31.941951401 ], [ -53.591565371999899, -31.945181157 ], [ -53.592226008, -31.951167989999895 ], [ -53.596543402, -31.952227950999902 ], [ -53.602453291, -31.955815129 ], [ -53.605512276999903, -31.952870952999902 ], [ -53.610428135999904, -31.954431824 ], [ -53.610414222, -31.958683612999899 ], [ -53.615455367, -31.963802714999893 ], [ -53.616905146, -31.968837393999902 ], [ -53.618621265999892, -31.96879618 ], [ -53.620928255, -31.9657324729999 ], [ -53.626210156999903, -31.967390372 ], [ -53.628509164, -31.966452101999892 ], [ -53.631010365, -31.960004265999896 ], [ -53.633758143, -31.959815233 ], [ -53.633355243, -31.96265241 ], [ -53.634773577, -31.964290717 ], [ -53.641620434999901, -31.967556315 ], [ -53.642795532, -31.969581833999904 ], [ -53.641306258, -31.97188245 ], [ -53.636660201, -31.974558430999902 ], [ -53.636827398, -31.978877340999897 ], [ -53.635289349999901, -31.981585727 ], [ -53.64537996699989, -31.98275217 ], [ -53.645685866999898, -31.985285154999893 ], [ -53.6510110359999, -31.98634578 ], [ -53.653305261, -31.988363906 ], [ -53.668206443, -31.985051639999902 ], [ -53.670383285, -31.986587984999989 ], [ -53.671455865, -31.989972753 ], [ -53.674309083, -31.990987678 ], [ -53.684390643, -31.98975423 ], [ -53.686583045, -31.987349111 ], [ -53.691278651999895, -31.985697500999901 ], [ -53.697632994999893, -31.981261655 ], [ -53.699437116999896, -31.982414156999894 ], [ -53.699615998999896, -31.984318905999903 ], [ -53.701914739, -31.983777565 ], [ -53.701271601, -31.984965707999898 ], [ -53.703124894, -31.986497775 ], [ -53.703317415, -31.988813921 ], [ -53.705179250999898, -31.989764546999901 ], [ -53.703744128, -31.991919079 ], [ -53.70420747299989, -31.993994108 ], [ -53.708574128999892, -31.994146207 ], [ -53.709844053, -31.995784145999899 ], [ -53.708072796, -31.997090249999893 ], [ -53.712814825999892, -31.999292063 ], [ -53.715215779999895, -32.002201084 ], [ -53.711965635999896, -32.009174211 ], [ -53.712142524999898, -32.014319596 ], [ -53.71021531, -32.016050779999894 ], [ -53.710300178999894, -32.018444934999891 ], [ -53.712571676, -32.018279241999899 ], [ -53.710641836, -32.022901917999903 ], [ -53.715249763, -32.024095395999986 ], [ -53.714173322, -32.027439745 ], [ -53.716643253, -32.028176384999909 ], [ -53.716599093, -32.030006736 ], [ -53.718985811, -32.031935179999898 ], [ -53.717788437, -32.0338872479999 ], [ -53.719427300999897, -32.036281881 ], [ -53.71765878, -32.039368711999906 ], [ -53.719182165999896, -32.041576521 ], [ -53.71701989799989, -32.048743961 ], [ -53.720356266, -32.051729597 ], [ -53.720034929, -32.054723539999898 ], [ -53.715567566999901, -32.057712944999899 ], [ -53.719241478999898, -32.065548495 ], [ -53.719144275, -32.067988725 ], [ -53.717058596999891, -32.070359892999903 ], [ -53.713460923999897, -32.07093093 ], [ -53.711874494, -32.073277843999989 ], [ -53.707970106999902, -32.074229079 ], [ -53.70740231, -32.075600012999892 ], [ -53.703671936, -32.075869412 ], [ -53.703057220999902, -32.078373047 ], [ -53.704227332999892, -32.083581538 ], [ -53.70587154, -32.083898984 ], [ -53.705539, -32.085970026 ], [ -53.707254904, -32.087537854999901 ], [ -53.707758731, -32.092433017 ], [ -53.711593804, -32.099898650999904 ], [ -53.714337805999897, -32.10131833 ], [ -53.720781712, -32.100146997 ], [ -53.722515835, -32.097750214 ], [ -53.725629684999895, -32.098355809999902 ], [ -53.72527415, -32.095846883 ], [ -53.733525011, -32.093024926999902 ], [ -53.745366378, -32.091439946 ], [ -53.747643656, -32.0832031159999 ], [ -53.74582637, -32.078093681 ], [ -53.754173842999897, -32.07942053499989 ], [ -53.756290879999902, -32.076153675999898 ], [ -53.763837453, -32.079571085999895 ], [ -53.768628842999895, -32.076460848 ], [ -53.769439372, -32.073364384999898 ], [ -53.77867821, -32.071740260999903 ], [ -53.781161134999898, -32.069818290999898 ], [ -53.783193679, -32.072270203999899 ], [ -53.787393635999898, -32.071114282999893 ], [ -53.789236667, -32.072214963 ], [ -53.791136539999989, -32.070592517 ], [ -53.789042772, -32.068629091999988 ], [ -53.791031384, -32.06792591300001 ], [ -53.8009574129999, -32.071097311 ], [ -53.803997067999902, -32.070728524999893 ], [ -53.805339140999898, -32.069170469 ], [ -53.8066922249999, -32.069859392 ], [ -53.809424314999895, -32.0657825239999 ], [ -53.811731946, -32.065338809 ], [ -53.814653773, -32.06254075399989 ], [ -53.81422139499989, -32.059352885999893 ], [ -53.827589932, -32.059409703 ], [ -53.830895765, -32.055761889999886 ], [ -53.833316926999892, -32.055143014999899 ], [ -53.835644104, -32.051652221 ], [ -53.836176286999901, -32.048785028999902 ], [ -53.833099282, -32.046215447 ], [ -53.834748208, -32.041514529 ], [ -53.837074715, -32.039583311999898 ], [ -53.841680993999908, -32.040189036 ], [ -53.84272562599989, -32.038888619 ], [ -53.840125634999893, -32.034273534 ], [ -53.837617620999893, -32.033395202 ], [ -53.846821368, -32.028983368 ], [ -53.849996706999896, -32.029175591999902 ], [ -53.851110709, -32.030633927999894 ], [ -53.852617502, -32.029676440999907 ], [ -53.851136726999989, -32.026827097 ], [ -53.853817719999903, -32.021674462 ], [ -53.851533956, -32.013463311 ], [ -53.854158965999893, -32.010385574999894 ], [ -53.853453239, -32.006002797 ], [ -53.849757930999893, -32.00058777 ], [ -53.853509336999899, -31.999882632 ], [ -53.857243557999901, -31.996680356 ], [ -53.860483208999902, -31.997548580999908 ], [ -53.86018309, -31.994953000999903 ], [ -53.863430324, -31.996106590999901 ], [ -53.864753086999897, -31.994655285 ], [ -53.864069797, -31.992906223999988 ], [ -53.870795426, -31.995458289999902 ], [ -53.871262085, -31.997098806999901 ], [ -53.869877698, -31.997980842999901 ], [ -53.87168243299989, -31.999085411 ], [ -53.879320911, -31.994962836 ], [ -53.892125176, -31.99538763 ], [ -53.893040375999902, -31.992832563 ], [ -53.891716194, -31.988774141 ], [ -53.896788453999903, -31.984975399999907 ], [ -53.896547719999894, -31.981149036999987 ], [ -53.899481534, -31.977884584 ], [ -53.902557448, -31.979051943999892 ], [ -53.907848241, -31.975133488 ], [ -53.908328911, -31.972869145999908 ], [ -53.910719458, -31.971473037 ], [ -53.909883438999891, -31.969576973999892 ], [ -53.913243459999897, -31.965676244 ], [ -53.916186748, -31.966055283999903 ], [ -53.917038324, -31.964365181999892 ], [ -53.922806107, -31.962809096999905 ], [ -53.926028468, -31.963593928 ], [ -53.92612086, -31.961951756 ], [ -53.932042059, -31.963175324 ], [ -53.933058234, -31.962433906999902 ], [ -53.932250239, -31.961177786999897 ], [ -53.936388085, -31.958414891 ], [ -53.941875497999895, -31.958690799 ], [ -53.943166633, -31.956710484 ], [ -53.947510715, -31.954634932 ], [ -53.94773673, -31.952475778999901 ], [ -53.945667941999901, -31.952609266 ], [ -53.943731283, -31.951008846 ], [ -53.945995545, -31.948450065 ], [ -53.948032578, -31.948446571 ], [ -53.94704473, -31.944993261 ], [ -53.948130813, -31.942636229 ], [ -53.949688048, -31.942335322 ], [ -53.947690419, -31.937565642 ], [ -53.95124593, -31.934650302 ], [ -53.951193246999892, -31.93225688 ], [ -53.953093066, -31.932356843 ], [ -53.9545191939999, -31.930119872 ], [ -53.955042899, -31.925005789 ], [ -53.952508525, -31.923220613 ], [ -53.95353514, -31.921821058 ], [ -53.952694892999901, -31.918837622999895 ], [ -53.943797635, -31.915708445999901 ], [ -53.943969141, -31.91330135 ], [ -53.936397089, -31.912070635 ], [ -53.932104081, -31.905283746999899 ], [ -53.930330407, -31.896968726 ], [ -53.9328766369999, -31.892874782 ], [ -53.931530569, -31.874644277999895 ], [ -53.925341454, -31.871111541999895 ], [ -53.918448955, -31.864784888 ], [ -53.916989671999893, -31.864955525 ], [ -53.915618028, -31.861391957 ], [ -53.917990513999889, -31.857948168999897 ], [ -53.913804467, -31.856644 ], [ -53.912689106, -31.852229751 ], [ -53.902777934, -31.853604016 ], [ -53.900102369, -31.850894619000012 ], [ -53.897092152, -31.851887851 ], [ -53.894188341, -31.849394586 ], [ -53.889122024999892, -31.850394921 ], [ -53.889564526999891, -31.853221672 ], [ -53.8859859679999, -31.8616967039999 ], [ -53.883281027999892, -31.861540036 ], [ -53.881230724, -31.859317811 ], [ -53.877396274, -31.8591698779999 ], [ -53.875745343999895, -31.855542883999902 ], [ -53.879246126999895, -31.850533831 ], [ -53.878991426, -31.848967995 ], [ -53.870083076, -31.8403385139999 ], [ -53.866116403, -31.8386668969999 ], [ -53.867254175, -31.836456773999895 ], [ -53.861480136, -31.8341473149999 ], [ -53.860122514, -31.834962898999901 ], [ -53.853186228, -31.833647414 ], [ -53.845626623, -31.828047044999884 ], [ -53.846164484, -31.824742442999892 ], [ -53.836168824, -31.828411289 ], [ -53.834145398, -31.827555525 ], [ -53.832522459, -31.824295944 ], [ -53.827844526, -31.820729226 ], [ -53.828173814, -31.818585087 ], [ -53.824863014999899, -31.816134774 ], [ -53.821849684, -31.816716791 ], [ -53.8180366939999, -31.814110479 ], [ -53.817413234, -31.812130941 ], [ -53.819549829, -31.811022013 ], [ -53.819981404, -31.808493852 ], [ -53.818780586999893, -31.8068931769999 ], [ -53.813263831, -31.804714463 ], [ -53.811846803, -31.806185991999897 ], [ -53.809088378999903, -31.805666029999902 ], [ -53.809077582, -31.797563833 ], [ -53.804495159999895, -31.794332778999898 ], [ -53.800057035999899, -31.7874916919999 ], [ -53.802612500999899, -31.777406705 ], [ -53.799338776, -31.77148636 ], [ -53.800322305, -31.769193599999891 ], [ -53.799323293, -31.761051928 ], [ -53.790128265, -31.751752552 ], [ -53.780325285999901, -31.751754967999901 ], [ -53.776087224, -31.748433285 ], [ -53.770501794, -31.747235609 ], [ -53.76901709, -31.741613483 ], [ -53.766236114, -31.741264805999904 ], [ -53.763137325999892, -31.738499413999893 ], [ -53.770373106, -31.729240693999891 ], [ -53.770262411, -31.727489093 ], [ -53.7626228889999, -31.721728474 ], [ -53.762610566, -31.714142938999906 ], [ -53.764360782, -31.710412498 ], [ -53.772818049, -31.707148690999908 ], [ -53.777223169, -31.700215759999907 ], [ -53.774926863, -31.6975413229999 ], [ -53.77487764099989, -31.694773429 ], [ -53.769285822, -31.691494195 ] ] ] } }
]
}
