{
"type": "FeatureCollection",
"name": "bairros_dom_pedro_de_alcantara",
"crs": { "type": "name", "properties": { "name": "urn:ogc:def:crs:OGC:1.3:CRS84" } },
"features": [
{ "type": "Feature", "properties": { "code_muni": 4306551.0, "name_muni": "Dom Pedro de Alcântara", "code_state": 43.0, "abbrev_state": "RS", "name_state": "Rio Grande do Sul", "code_region": 4.0, "name_region": "Sul", "year": 2022.0 }, "geometry": { "type": "Polygon", "coordinates": [ [ [ -49.858539301, -29.312773275 ], [ -49.83062812299989, -29.323622852 ], [ -49.815043241999902, -29.338975287 ], [ -49.82893476, -29.356864264 ], [ -49.818802420999901, -29.379789837 ], [ -49.802644023, -29.391887797 ], [ -49.806080881, -29.396629233999903 ], [ -49.814218750999899, -29.403139751 ], [ -49.821188844999902, -29.411350277999905 ], [ -49.827670832, -29.41546312 ], [ -49.835524458999899, -29.424225266 ], [ -49.863560558, -29.418545337 ], [ -49.865319741, -29.414118499 ], [ -49.88222149699989, -29.4101975039999 ], [ -49.88361902, -29.403875276999898 ], [ -49.887221581999896, -29.398903951 ], [ -49.89485646, -29.395828765 ], [ -49.896732320999895, -29.388016402999906 ], [ -49.890168248999892, -29.383023157 ], [ -49.892274255, -29.377022592999907 ], [ -49.890327659, -29.373581354999892 ], [ -49.890916172999901, -29.364151842 ], [ -49.894042338, -29.354110165999895 ], [ -49.897203819, -29.353723448 ], [ -49.897990283999903, -29.346809146999902 ], [ -49.896637896, -29.343638529 ], [ -49.897672143, -29.3414349459999 ], [ -49.901174908, -29.339874689999899 ], [ -49.896071708, -29.336872808999903 ], [ -49.894814214999897, -29.331546349999897 ], [ -49.888981696, -29.327941612 ], [ -49.885504924, -29.3280157579999 ], [ -49.884051751, -29.32621233 ], [ -49.88862091, -29.312404893 ], [ -49.884019843, -29.307610742 ], [ -49.88153161799989, -29.309218971 ], [ -49.883210557, -29.312881761 ], [ -49.880586514999898, -29.314584888 ], [ -49.876339849, -29.312046623 ], [ -49.86966025, -29.311481025 ], [ -49.868070343999896, -29.309861535 ], [ -49.866745157, -29.31186668 ], [ -49.868052567999889, -29.313875685 ], [ -49.867208634999898, -29.315083028999904 ], [ -49.86035229, -29.315292627 ], [ -49.858539301, -29.312773275 ] ] ] } }
]
}
