{
"type": "FeatureCollection",
"name": "bairros_barros_cassal",
"crs": { "type": "name", "properties": { "name": "urn:ogc:def:crs:OGC:1.3:CRS84" } },
"features": [
{ "type": "Feature", "properties": { "code_muni": 4302006.0, "name_muni": "Barros Cassal", "code_state": 43.0, "abbrev_state": "RS", "name_state": "Rio Grande do Sul", "code_region": 4.0, "name_region": "Sul", "year": 2022.0 }, "geometry": { "type": "Polygon", "coordinates": [ [ [ -52.609008151, -29.222170350999903 ], [ -52.60972910999989, -29.225297184999896 ], [ -52.608239017, -29.225195997999901 ], [ -52.610270812, -29.227761841 ], [ -52.615779055, -29.228221260999895 ], [ -52.616560341, -29.229786308 ], [ -52.61494841, -29.231395151999898 ], [ -52.618542792, -29.232524715999901 ], [ -52.619548676, -29.230849137999911 ], [ -52.627418618, -29.228399807999899 ], [ -52.627212296, -29.229909556999896 ], [ -52.629217933999897, -29.230388371999897 ], [ -52.630613309999895, -29.232666853 ], [ -52.630660384, -29.230675568 ], [ -52.634009299999903, -29.226362729 ], [ -52.635151075, -29.231711925999893 ], [ -52.640376384, -29.234689642 ], [ -52.647714214, -29.233576890999903 ], [ -52.645699804999893, -29.231487162999901 ], [ -52.649630085, -29.228366931 ], [ -52.650674812, -29.22862915 ], [ -52.650712776, -29.231852637 ], [ -52.653454288, -29.23066246 ], [ -52.656521982, -29.231822695999895 ], [ -52.657618321, -29.228684561 ], [ -52.661437056999894, -29.227935309 ], [ -52.662001167, -29.23185776 ], [ -52.665249231, -29.232287117999899 ], [ -52.66664615, -29.236096979 ], [ -52.672610334, -29.233918323999902 ], [ -52.677493536999989, -29.229533328999896 ], [ -52.677783564, -29.22756493 ], [ -52.675673786999894, -29.225032757999902 ], [ -52.67908677, -29.219974719999989 ], [ -52.674105149999903, -29.217899525 ], [ -52.671004256999893, -29.221544806999894 ], [ -52.669266701, -29.221726247999985 ], [ -52.666940946, -29.215947346999901 ], [ -52.670040092, -29.210554916 ], [ -52.661317689, -29.207433477999899 ], [ -52.661764873, -29.204602555999895 ], [ -52.665606409, -29.202159042999895 ], [ -52.669564411999893, -29.20237758299989 ], [ -52.670512413, -29.201286035999903 ], [ -52.668045594, -29.196816504 ], [ -52.6615442, -29.194474022999891 ], [ -52.665162439, -29.188703755999892 ], [ -52.670223227999898, -29.189273547 ], [ -52.672526365999893, -29.182946629999908 ], [ -52.680942843, -29.180163100999895 ], [ -52.684545515, -29.181528912 ], [ -52.682520814, -29.183200159 ], [ -52.686314787, -29.186600933 ], [ -52.695606079999891, -29.189086014999894 ], [ -52.694350348999897, -29.191609224999986 ], [ -52.692111886, -29.192083728999908 ], [ -52.69535912, -29.195220563 ], [ -52.695106422, -29.193902765 ], [ -52.698072951, -29.1932871459999 ], [ -52.702017979999901, -29.189021764 ], [ -52.702201709999898, -29.186940864 ], [ -52.700539178, -29.185582864 ], [ -52.704316277, -29.186436966 ], [ -52.704617626999891, -29.184839113 ], [ -52.708629435, -29.182028258999893 ], [ -52.707259710999899, -29.179781880999904 ], [ -52.713146606, -29.175518102999902 ], [ -52.712306329999905, -29.173310186 ], [ -52.715585317, -29.173498155999905 ], [ -52.714584104, -29.171896150999903 ], [ -52.717023213999902, -29.170417648 ], [ -52.71423499, -29.16744632 ], [ -52.717675527, -29.167186414999897 ], [ -52.717728742, -29.168563154 ], [ -52.720153048, -29.169013775999893 ], [ -52.721865161, -29.166640852999894 ], [ -52.727976279, -29.166687393 ], [ -52.734913881, -29.164039983999903 ], [ -52.737112064, -29.165252918 ], [ -52.737139139, -29.167558242 ], [ -52.740368417999896, -29.168336087999894 ], [ -52.745481046, -29.164961574999896 ], [ -52.75247159, -29.165146141 ], [ -52.75028929, -29.153260551 ], [ -52.752285311, -29.149763096999898 ], [ -52.752081572999899, -29.146570337999893 ], [ -52.745940811, -29.139073045 ], [ -52.739393635999896, -29.112585442 ], [ -52.733248585999903, -29.104350877999902 ], [ -52.731409028, -29.092498783999893 ], [ -52.725922703, -29.080459630000011 ], [ -52.721076057999895, -29.073522352999905 ], [ -52.714363396999893, -29.0696107549999 ], [ -52.707625294, -29.061356755 ], [ -52.691627701999892, -29.052224104999901 ], [ -52.689212424999901, -29.045165954 ], [ -52.689600272, -29.041125607 ], [ -52.686163356999899, -29.03564333 ], [ -52.683479202999898, -29.025558592 ], [ -52.680933087, -29.021693363999894 ], [ -52.680520790999893, -29.012375980999895 ], [ -52.681850883, -29.006894299 ], [ -52.675336725, -28.988019537 ], [ -52.672955523, -28.971968296999897 ], [ -52.663715171, -28.962189092 ], [ -52.64732922199989, -28.95240802 ], [ -52.635369137999902, -28.961510404 ], [ -52.633430182, -28.957985154 ], [ -52.629238524, -28.958194211 ], [ -52.625404126, -28.962733267 ], [ -52.621094701999901, -28.965077037 ], [ -52.61301173399989, -28.96261964 ], [ -52.603989350999896, -28.962991825 ], [ -52.600335378999894, -28.968208576999899 ], [ -52.596630658, -28.967728862999891 ], [ -52.595609906999989, -28.969313116 ], [ -52.590867925999895, -28.971098395 ], [ -52.582386588, -28.969580385000011 ], [ -52.580163542, -28.971954701999902 ], [ -52.573515887, -28.969612019999904 ], [ -52.570666057, -28.97031788 ], [ -52.569570860999896, -28.966242329 ], [ -52.566522493, -28.969372611 ], [ -52.569997175, -28.974786937 ], [ -52.564117634999903, -28.9746332019999 ], [ -52.561925002, -28.971430826999892 ], [ -52.559443713999904, -28.974706821 ], [ -52.561419303, -28.974905672 ], [ -52.559299179999989, -28.977066033 ], [ -52.561216745, -28.978717527 ], [ -52.557843668, -28.980945641999892 ], [ -52.553803817, -28.979973121999901 ], [ -52.553798163, -28.982518743 ], [ -52.5517259659999, -28.984309636 ], [ -52.552767569, -28.987331099 ], [ -52.549009097, -28.987139054999901 ], [ -52.550803012, -28.990299448 ], [ -52.544337158, -28.991132600999904 ], [ -52.540303093, -28.999298703 ], [ -52.531606795999892, -28.999007363 ], [ -52.530612133, -29.005473407999904 ], [ -52.52924650499989, -29.006740325 ], [ -52.525100503, -29.004300798 ], [ -52.523804820999892, -29.004831431 ], [ -52.525578217, -29.012005245999905 ], [ -52.521282221, -29.011512433000011 ], [ -52.511701907, -29.020976775 ], [ -52.507905821, -29.020607234 ], [ -52.509487094, -29.027944169999987 ], [ -52.50728727099991, -29.029067182999896 ], [ -52.503457528, -29.028591592999899 ], [ -52.496689698, -29.0350497109999 ], [ -52.494869165, -29.034000073999902 ], [ -52.495238838, -29.037605256999896 ], [ -52.492664810999891, -29.040218546999895 ], [ -52.493557693, -29.046607052999892 ], [ -52.492230267, -29.047506851 ], [ -52.497172551999903, -29.049056956 ], [ -52.496814586, -29.050799345 ], [ -52.492887668, -29.053070933 ], [ -52.490364432, -29.051460378999892 ], [ -52.488719139, -29.051969582 ], [ -52.487928395, -29.055914414 ], [ -52.490977477999898, -29.059359402 ], [ -52.488824490999896, -29.067278730999895 ], [ -52.49112373, -29.077450048999896 ], [ -52.493399258, -29.077914910999905 ], [ -52.495525180999891, -29.076023682 ], [ -52.499003369, -29.077132462 ], [ -52.495460629, -29.084777443 ], [ -52.487499356999891, -29.08473577 ], [ -52.480774218, -29.087955925 ], [ -52.476374544999892, -29.085513799999902 ], [ -52.475113432999898, -29.086050633 ], [ -52.475690289999896, -29.099609633999904 ], [ -52.468555758, -29.098260105999898 ], [ -52.472429115999894, -29.102972376 ], [ -52.478266921999889, -29.105334442 ], [ -52.478403634, -29.106447321 ], [ -52.473841966999892, -29.107485181 ], [ -52.469612336999901, -29.110379483 ], [ -52.466726380999901, -29.117295006999896 ], [ -52.463521643, -29.113690733999906 ], [ -52.461802534, -29.114595629 ], [ -52.457720005999903, -29.122325288 ], [ -52.457667554, -29.129695295 ], [ -52.449073445, -29.131393935999903 ], [ -52.448899909, -29.135765029 ], [ -52.444950908, -29.143238693999898 ], [ -52.438735212, -29.148446072999892 ], [ -52.435102099999895, -29.146797176 ], [ -52.431157202999898, -29.14835849 ], [ -52.427312404, -29.156969359 ], [ -52.428673134, -29.157728597 ], [ -52.4289948649999, -29.163603711 ], [ -52.431074855, -29.164121495 ], [ -52.427407602999899, -29.170417089 ], [ -52.431145922, -29.173846249999901 ], [ -52.431540040999892, -29.179095284 ], [ -52.433860706, -29.178003917 ], [ -52.436767408, -29.183487055999894 ], [ -52.43587643, -29.185963557999987 ], [ -52.43859775899989, -29.189856915999894 ], [ -52.4374983989999, -29.193393591 ], [ -52.435418453, -29.193780629999903 ], [ -52.435031267999896, -29.200112874 ], [ -52.438244804999989, -29.206291426 ], [ -52.437826798999893, -29.207339218 ], [ -52.433824759999901, -29.207906737 ], [ -52.437212960999901, -29.216546287 ], [ -52.439490596, -29.218821622 ], [ -52.439416966999893, -29.222389190999905 ], [ -52.437767649, -29.224183926 ], [ -52.439439641, -29.22937296 ], [ -52.444364811, -29.233048351 ], [ -52.450615731, -29.234784229999903 ], [ -52.456434774999899, -29.240291643 ], [ -52.462565396999892, -29.238417463 ], [ -52.464117696, -29.236699782999906 ], [ -52.46666004, -29.238124392 ], [ -52.473473234, -29.238895977 ], [ -52.480954219999902, -29.237087761999895 ], [ -52.481142303, -29.245458986 ], [ -52.485206289, -29.2446779059999 ], [ -52.489184296, -29.245613208999899 ], [ -52.495838632, -29.243925625 ], [ -52.4990559089999, -29.247221735 ], [ -52.501006679999897, -29.247284205 ], [ -52.507231491, -29.242648779 ], [ -52.5125223329999, -29.241806579999906 ], [ -52.515306812999903, -29.238199574 ], [ -52.519637429999896, -29.235721843 ], [ -52.520349124999896, -29.233659521999986 ], [ -52.5170785769999, -29.228402275 ], [ -52.523145149999891, -29.226417216999895 ], [ -52.5263398989999, -29.219170206999902 ], [ -52.535605657, -29.224546205 ], [ -52.55315353399989, -29.223516616 ], [ -52.558741641, -29.219929911999895 ], [ -52.55999965, -29.223084410999896 ], [ -52.563717235999896, -29.221809166999893 ], [ -52.571167983, -29.226118675999896 ], [ -52.576835909, -29.224906276 ], [ -52.577097352999893, -29.227497061999898 ], [ -52.580106471, -29.228287658999903 ], [ -52.591300117999893, -29.224595673999897 ], [ -52.591542902, -29.22339036999989 ], [ -52.586461814, -29.217616823999904 ], [ -52.598446534999908, -29.214261808999904 ], [ -52.599802135999902, -29.215921362999897 ], [ -52.603600980999893, -29.216181158 ], [ -52.604670611999893, -29.218762297 ], [ -52.609008151, -29.222170350999903 ] ] ] } }
]
}
