{
"type": "FeatureCollection",
"name": "bairros_pelotas",
"crs": { "type": "name", "properties": { "name": "urn:ogc:def:crs:OGC:1.3:CRS84" } },
"features": [
{ "type": "Feature", "properties": { "name": "São Gonçalo", "code_muni": 4314407.0, "name_muni": "Pelotas" }, "geometry": { "type": "Polygon", "coordinates": [ [ [ -52.2864754, -31.755720400000012 ], [ -52.2863888, -31.7558355 ], [ -52.2862674, -31.755997 ], [ -52.2858291, -31.756579899999988 ], [ -52.2856072, -31.7567224 ], [ -52.2847468, -31.757275 ], [ -52.2838987, -31.7578198 ], [ -52.2828474, -31.7579651 ], [ -52.2819102, -31.7580946 ], [ -52.2792091, -31.757686 ], [ -52.2764998, -31.7575873 ], [ -52.2747848, -31.7582284 ], [ -52.2744865, -31.7588906 ], [ -52.2747351, -31.7597924 ], [ -52.2757948, -31.7608826 ], [ -52.2774778, -31.7622173 ], [ -52.2797757, -31.763029 ], [ -52.2813236, -31.7630806 ], [ -52.2824081, -31.7631168 ], [ -52.2830851, -31.7631394 ], [ -52.2843694, -31.762336400000013 ], [ -52.2848748, -31.7609486 ], [ -52.2852803, -31.7603845 ], [ -52.285347, -31.7603427 ], [ -52.2856881, -31.7602869 ], [ -52.2862087, -31.7602018 ], [ -52.286971, -31.7604202 ], [ -52.2879155, -31.7612304 ], [ -52.2886217, -31.7623212 ], [ -52.2890263, -31.7643575 ], [ -52.2888482, -31.7661975 ], [ -52.28881590000001, -31.7665313 ], [ -52.2874566, -31.7680309 ], [ -52.2849159, -31.7691315 ], [ -52.2826032, -31.7706647 ], [ -52.2815468, -31.7721505 ], [ -52.2807957, -31.7733133 ], [ -52.2818632, -31.7733063 ], [ -52.286311, -31.7734191 ], [ -52.2867706, -31.773434200000015 ], [ -52.2872266, -31.7733385 ], [ -52.2875537, -31.773344600000012 ], [ -52.2882217, -31.7733362 ], [ -52.2892262, -31.773194800000013 ], [ -52.2901341, -31.7732199 ], [ -52.2911212, -31.7731686 ], [ -52.2915916, -31.773073900000011 ], [ -52.2921015, -31.7727801 ], [ -52.2922657, -31.7728041 ], [ -52.2927453, -31.772639199999986 ], [ -52.293145, -31.7727088 ], [ -52.2941553, -31.772563 ], [ -52.2955505, -31.7725588 ], [ -52.2963064, -31.7724565 ], [ -52.2965865, -31.772504600000012 ], [ -52.297022, -31.772342 ], [ -52.2976545, -31.7722613 ], [ -52.2977564, -31.7721631 ], [ -52.2996463, -31.7721714 ], [ -52.2997673, -31.7720946 ], [ -52.2998119, -31.7722127 ], [ -52.3001761, -31.7721197 ], [ -52.301312, -31.772116699999987 ], [ -52.302155, -31.7720537 ], [ -52.3024555, -31.772049 ], [ -52.3033091, -31.772230300000011 ], [ -52.3036472, -31.7722302 ], [ -52.304264, -31.7724389 ], [ -52.3044813, -31.7725828 ], [ -52.3060879, -31.7728474 ], [ -52.3067209, -31.7732655 ], [ -52.3069475, -31.7732065 ], [ -52.3071179, -31.7732518 ], [ -52.307311, -31.7735061 ], [ -52.3072667, -31.7736303 ], [ -52.3073271, -31.77378 ], [ -52.3079842, -31.7740103 ], [ -52.3082323, -31.7742346 ], [ -52.3084268, -31.7742905 ], [ -52.3085958, -31.7744296 ], [ -52.3087943, -31.7745059 ], [ -52.3093173, -31.7745515 ], [ -52.3095587, -31.774677 ], [ -52.3095909, -31.7748708 ], [ -52.309902, -31.7750387 ], [ -52.3101139, -31.7753268 ], [ -52.3099959, -31.7756521 ], [ -52.3101005, -31.775699599999985 ], [ -52.3105887, -31.7756324 ], [ -52.3108703, -31.7758319 ], [ -52.3108824, -31.775947 ], [ -52.3109628, -31.7760086 ], [ -52.31105, -31.7760052 ], [ -52.3111801, -31.7760793 ], [ -52.311223, -31.7762389 ], [ -52.311565, -31.776356299999989 ], [ -52.311632, -31.7765524 ], [ -52.3118278, -31.7766961 ], [ -52.31186, -31.776915 ], [ -52.312198, -31.7770484 ], [ -52.3121953, -31.7771661 ], [ -52.3126915, -31.7774041 ], [ -52.3128498, -31.7776971 ], [ -52.3131502, -31.7778236 ], [ -52.3131797, -31.777901099999987 ], [ -52.313704, -31.7782192 ], [ -52.3141218, -31.7786212 ], [ -52.3142513, -31.778811 ], [ -52.3147109, -31.7790742 ], [ -52.3148882, -31.7790856 ], [ -52.315025, -31.77917 ], [ -52.3149902, -31.7792213 ], [ -52.3152629, -31.7794482 ], [ -52.3167264, -31.7802311 ], [ -52.3172255, -31.7799577 ], [ -52.3172942, -31.7800729 ], [ -52.3172888, -31.7802132 ], [ -52.317579, -31.7803575 ], [ -52.3177273, -31.7808505 ], [ -52.3178038, -31.7809165 ], [ -52.3178931, -31.780858699999989 ], [ -52.3182719, -31.7808974 ], [ -52.3188585, -31.7811497 ], [ -52.3188365, -31.7811947 ], [ -52.3192698, -31.78132690000001 ], [ -52.3193273, -31.7812244 ], [ -52.3194104, -31.7812551 ], [ -52.3193809, -31.7813315 ], [ -52.3196961, -31.7814432 ], [ -52.319566, -31.7815641 ], [ -52.3198611, -31.7818993 ], [ -52.3198587, -31.781974200000011 ], [ -52.3202835, -31.7819939 ], [ -52.32042160000001, -31.7817511 ], [ -52.3205236, -31.7817955 ], [ -52.320478, -31.7819141 ], [ -52.3206617, -31.7819631 ], [ -52.3206402, -31.7820133 ], [ -52.3210111, -31.7820788 ], [ -52.3209695, -31.7821404 ], [ -52.3211527, -31.7821761 ], [ -52.3242152, -31.7822996 ], [ -52.3246104, -31.782257499999989 ], [ -52.324798, -31.7819212 ], [ -52.324876, -31.7819361 ], [ -52.3256551, -31.7806878 ], [ -52.3258601, -31.7804478 ], [ -52.3259068, -31.7802998 ], [ -52.326255, -31.779747499999988 ], [ -52.3263654, -31.7795707 ], [ -52.326892, -31.7788054 ], [ -52.3275034, -31.7779066 ], [ -52.3280257, -31.777246 ], [ -52.3285437, -31.7766829 ], [ -52.329869, -31.7752358 ], [ -52.3301908, -31.7748994 ], [ -52.3302938, -31.7747918 ], [ -52.3306887, -31.7742395 ], [ -52.3310284, -31.7737702 ], [ -52.3312195, -31.773286499999987 ], [ -52.3312535, -31.7729219 ], [ -52.3312747, -31.7726873 ], [ -52.3313512, -31.7715971 ], [ -52.3314785, -31.7701242 ], [ -52.331504, -31.7698932 ], [ -52.3316569, -31.7678535 ], [ -52.3316654, -31.7676658 ], [ -52.3317291, -31.7670485 ], [ -52.3317036, -31.766687399999977 ], [ -52.3316187, -31.7664239 ], [ -52.3312765, -31.7659251 ], [ -52.3308259, -31.7654051 ], [ -52.3299623, -31.764440499999985 ], [ -52.3297585, -31.7638163 ], [ -52.329722, -31.7629868 ], [ -52.3297128, -31.7627854 ], [ -52.3295349, -31.7627284 ], [ -52.3284517, -31.7623308 ], [ -52.3281237, -31.7622151 ], [ -52.326934, -31.7617957 ], [ -52.3262394, -31.7615836 ], [ -52.324791, -31.7610682 ], [ -52.3240319, -31.7608288 ], [ -52.3231334, -31.7605961 ], [ -52.3225218, -31.7604205 ], [ -52.3214516, -31.7601491 ], [ -52.3205236, -31.7599006 ], [ -52.3195955, -31.759640600000012 ], [ -52.317608, -31.7591024 ], [ -52.3171467, -31.7589906 ], [ -52.316004, -31.7586987 ], [ -52.3156124, -31.7586029 ], [ -52.3150063, -31.758498 ], [ -52.3141292, -31.7583338 ], [ -52.3131797, -31.7581513 ], [ -52.3124796, -31.7580214 ], [ -52.3117447, -31.7578685 ], [ -52.3105752, -31.7576496 ], [ -52.3099101, -31.7575584 ], [ -52.3087272, -31.7574421 ], [ -52.3080003, -31.7573554 ], [ -52.3072574, -31.7572505 ], [ -52.3069462, -31.757173 ], [ -52.3066083, -31.7570726 ], [ -52.3060665, -31.7568696 ], [ -52.305302, -31.7565868 ], [ -52.3049131, -31.756456799999984 ], [ -52.3034433, -31.7559186 ], [ -52.302542, -31.7555856 ], [ -52.3022041, -31.755428199999987 ], [ -52.3011231, -31.7548239 ], [ -52.30072890000001, -31.7545867 ], [ -52.2992858, -31.7537063 ], [ -52.2982559, -31.753099600000013 ], [ -52.2976658, -31.7527438 ], [ -52.2972098, -31.7525226 ], [ -52.2968933, -31.7524131 ], [ -52.2963461, -31.7522717 ], [ -52.295689, -31.7521622 ], [ -52.295292, -31.7521372 ], [ -52.294718, -31.752144 ], [ -52.2937954, -31.7522352 ], [ -52.2933286, -31.7522991 ], [ -52.2920895, -31.7524701 ], [ -52.2916979, -31.7525363 ], [ -52.29103, -31.7527279 ], [ -52.2907464, -31.752788399999989 ], [ -52.2902499, -31.7528943 ], [ -52.2902066, -31.7529035 ], [ -52.2898498, -31.7529628 ], [ -52.2887179, -31.7531065 ], [ -52.2875029, -31.7532752 ], [ -52.2868689, -31.7533665 ], [ -52.2868678, -31.7534011 ], [ -52.2868503, -31.7539715 ], [ -52.2864754, -31.755720400000012 ] ] ] } },
{ "type": "Feature", "properties": { "name": "Laranjal / Z3", "code_muni": 4314407.0, "name_muni": "Pelotas" }, "geometry": { "type": "Polygon", "coordinates": [ [ [ -52.2868678, -31.7534011 ], [ -52.2868689, -31.7533665 ], [ -52.2869062, -31.7521538 ], [ -52.2861688, -31.7500331 ], [ -52.2856469, -31.7493233 ], [ -52.2848515, -31.7490063 ], [ -52.2833435, -31.7490979 ], [ -52.2814462, -31.7498658 ], [ -52.2788446, -31.7501811 ], [ -52.2766904, -31.7509438 ], [ -52.2755967, -31.7510917 ], [ -52.2747351, -31.7509085 ], [ -52.2745719, -31.7507895 ], [ -52.2740497, -31.7508983 ], [ -52.2727483, -31.7511701 ], [ -52.2724631, -31.7512297 ], [ -52.2722398, -31.7512764 ], [ -52.2712085, -31.7515031 ], [ -52.271063, -31.7515383 ], [ -52.2698976, -31.751819500000011 ], [ -52.2697038, -31.7518662 ], [ -52.2687063, -31.752108 ], [ -52.2628046, -31.7535385 ], [ -52.2608248, -31.7540422 ], [ -52.2595915, -31.7543561 ], [ -52.2585492, -31.7546281 ], [ -52.2584619, -31.7546509 ], [ -52.2579649, -31.754780500000013 ], [ -52.2547762, -31.75557310000001 ], [ -52.2543343, -31.7553007 ], [ -52.254082, -31.755149399999986 ], [ -52.2539347, -31.755061100000013 ], [ -52.2479178, -31.7506773 ], [ -52.2467156, -31.749756399999985 ], [ -52.2451988, -31.748588399999985 ], [ -52.2446867, -31.7482287 ], [ -52.2437992, -31.7475476 ], [ -52.2420653, -31.7462171 ], [ -52.2401, -31.7447226 ], [ -52.2391288, -31.7439583 ], [ -52.2382034, -31.7432745 ], [ -52.2380955, -31.7431838 ], [ -52.234783, -31.7404475 ], [ -52.2340705, -31.739863399999987 ], [ -52.2316084, -31.7378447 ], [ -52.226297, -31.733382699999989 ], [ -52.2263007, -31.7333862 ], [ -52.2262152, -31.7333055 ], [ -52.2253452, -31.7323746 ], [ -52.2253006, -31.732326800000013 ], [ -52.2248192, -31.7318034 ], [ -52.2242983, -31.731233 ], [ -52.2241019, -31.7310179 ], [ -52.2240265, -31.7309446 ], [ -52.2235938, -31.7304885 ], [ -52.2235533, -31.7304458 ], [ -52.2233238, -31.7301931 ], [ -52.2231001, -31.7299433 ], [ -52.2230523, -31.7298899 ], [ -52.2225727, -31.7293505 ], [ -52.2224541, -31.7292172 ], [ -52.2222595, -31.729016 ], [ -52.2222098, -31.7289646 ], [ -52.2213156, -31.7280297 ], [ -52.2212491, -31.7279601 ], [ -52.2207371, -31.7274248 ], [ -52.2206725, -31.7273573 ], [ -52.220179, -31.7268347 ], [ -52.2201273, -31.72678 ], [ -52.2196145, -31.7262373 ], [ -52.2195191, -31.7261364 ], [ -52.2189728, -31.7255581 ], [ -52.2189048, -31.7254862 ], [ -52.2183819, -31.7249382 ], [ -52.2183434, -31.7248978 ], [ -52.2172835, -31.723772399999987 ], [ -52.2171214, -31.7236003 ], [ -52.2141029, -31.7198119 ], [ -52.2095789, -31.7228615 ], [ -52.2080664, -31.7238679 ], [ -52.2067193, -31.7247702 ], [ -52.2064826, -31.724934300000012 ], [ -52.2049582, -31.7260078 ], [ -52.200945683115023, -31.728659316498383 ], [ -52.206015579319896, -31.733407242036176 ], [ -52.206409, -31.7335373 ], [ -52.2068784, -31.7335807 ], [ -52.2078145, -31.7340164 ], [ -52.2083117, -31.734427699999987 ], [ -52.208999, -31.7352283 ], [ -52.2101807, -31.7366047 ], [ -52.2104967, -31.7369728 ], [ -52.2107756, -31.7371826 ], [ -52.2109741, -31.737465499999988 ], [ -52.2114931, -31.7378465 ], [ -52.2115911, -31.7379983 ], [ -52.2118241, -31.7381913 ], [ -52.2123242, -31.738811 ], [ -52.2129867, -31.7396319 ], [ -52.2135758, -31.7401983 ], [ -52.213732, -31.7403957 ], [ -52.2139674, -31.7406932 ], [ -52.2143537, -31.741008 ], [ -52.2149036, -31.7415523 ], [ -52.2154387, -31.7420863 ], [ -52.2159469, -31.74259330000001 ], [ -52.2166537, -31.7431312 ], [ -52.2170748, -31.743527 ], [ -52.2178051, -31.7442134 ], [ -52.21880250000001, -31.7448615 ], [ -52.2204369, -31.7459235 ], [ -52.2212094, -31.7465964 ], [ -52.2218936, -31.7474169 ], [ -52.2234008, -31.749224 ], [ -52.223588, -31.7494957 ], [ -52.2238934, -31.749939 ], [ -52.2241206, -31.750217600000017 ], [ -52.2243463, -31.750494299999986 ], [ -52.224527868157899, -31.750737906820813 ], [ -52.225767496999893, -31.751898075999978 ], [ -52.226046238593156, -31.753048505430112 ], [ -52.226142, -31.7532344 ], [ -52.2265027, -31.7543166 ], [ -52.2265401, -31.7544322 ], [ -52.2266629, -31.7548115 ], [ -52.2267503, -31.7553322 ], [ -52.2269149, -31.7563125 ], [ -52.2270303, -31.7569997 ], [ -52.227048992956043, -31.757186839274937 ], [ -52.227806941, -31.760314595999901 ], [ -52.227321889313075, -31.762074337625961 ], [ -52.2272466, -31.7629434 ], [ -52.22716470000001, -31.763888299999987 ], [ -52.2270983, -31.7644744 ], [ -52.2270527, -31.764877 ], [ -52.2269138, -31.7657885 ], [ -52.2267727, -31.766714299999986 ], [ -52.2267704, -31.7667293 ], [ -52.2265435, -31.7677254 ], [ -52.2263557, -31.7685504 ], [ -52.2261823, -31.7693116 ], [ -52.2261506, -31.7694161 ], [ -52.225787, -31.7706149 ], [ -52.2255892, -31.771267099999985 ], [ -52.2255028, -31.7715651 ], [ -52.225321, -31.7721919 ], [ -52.2252911, -31.7723003 ], [ -52.22527860000001, -31.7723442 ], [ -52.2252763, -31.7723518 ], [ -52.2252737, -31.772359699999988 ], [ -52.2252018, -31.7725878 ], [ -52.2251735, -31.7726892 ], [ -52.2249259, -31.7734529 ], [ -52.2246434, -31.7743384 ], [ -52.2244216, -31.7750335 ], [ -52.2243637, -31.7752151 ], [ -52.2241347, -31.775752800000014 ], [ -52.2235402, -31.777149 ], [ -52.2235054, -31.7772308 ], [ -52.2233272, -31.7775934 ], [ -52.2229542, -31.7783521 ], [ -52.2224423, -31.7793936 ], [ -52.2224336, -31.7794112 ], [ -52.2215359, -31.7810503 ], [ -52.220497, -31.7831596 ], [ -52.2203887, -31.7835443 ], [ -52.2203913, -31.7839706 ], [ -52.2205898, -31.7845178 ], [ -52.2209825, -31.7851501 ], [ -52.2217539, -31.7856943 ], [ -52.2223978, -31.786365 ], [ -52.222614900000011, -31.7868046 ], [ -52.2227088, -31.7872652 ], [ -52.2228811, -31.7873793 ], [ -52.2229689, -31.787329 ], [ -52.2231513, -31.786936900000011 ], [ -52.223549, -31.7865678 ], [ -52.2242752, -31.7863122 ], [ -52.2252998, -31.7861739 ], [ -52.2285372, -31.7864193 ], [ -52.2293836, -31.7864142 ], [ -52.2297174, -31.7862346 ], [ -52.2300339, -31.7864273 ], [ -52.230345, -31.7864535 ], [ -52.230586, -31.7865504 ], [ -52.2314769, -31.7865288 ], [ -52.2321696, -31.786371 ], [ -52.232936, -31.7864011 ], [ -52.2330782, -31.7862734 ], [ -52.2337729, -31.7862916 ], [ -52.2344078, -31.7861502 ], [ -52.2348709, -31.786047 ], [ -52.2361525, -31.7858612 ], [ -52.2365794, -31.7857479 ], [ -52.2372852, -31.7856918 ], [ -52.2396979, -31.7852907 ], [ -52.2416652, -31.7848247 ], [ -52.2421452, -31.7846916 ], [ -52.2430582, -31.7844383 ], [ -52.2499895, -31.7803819 ], [ -52.25226940000001, -31.7793239 ], [ -52.2544566, -31.7781674 ], [ -52.2576875, -31.7772536 ], [ -52.2578108, -31.7773037 ], [ -52.2605091, -31.7766197 ], [ -52.2626093, -31.7762092 ], [ -52.2640482, -31.7757642 ], [ -52.2663832, -31.7748503 ], [ -52.2687543, -31.7740978 ], [ -52.2698448, -31.773912 ], [ -52.2705241, -31.7739383 ], [ -52.2710983, -31.7738089 ], [ -52.2758524, -31.7734587 ], [ -52.2772676, -31.773354399999985 ], [ -52.2778523, -31.773126399999988 ], [ -52.2790435, -31.7733247 ], [ -52.2807957, -31.7733133 ], [ -52.2815468, -31.7721505 ], [ -52.2826032, -31.7706647 ], [ -52.2849159, -31.7691315 ], [ -52.2874566, -31.7680309 ], [ -52.28881590000001, -31.7665313 ], [ -52.2888482, -31.7661975 ], [ -52.2890263, -31.7643575 ], [ -52.2886217, -31.7623212 ], [ -52.2879155, -31.7612304 ], [ -52.286971, -31.7604202 ], [ -52.2862087, -31.7602018 ], [ -52.2856881, -31.7602869 ], [ -52.285347, -31.7603427 ], [ -52.2852803, -31.7603845 ], [ -52.2848748, -31.7609486 ], [ -52.2843694, -31.762336400000013 ], [ -52.2830851, -31.7631394 ], [ -52.2824081, -31.7631168 ], [ -52.2813236, -31.7630806 ], [ -52.2797757, -31.763029 ], [ -52.2774778, -31.7622173 ], [ -52.2757948, -31.7608826 ], [ -52.2747351, -31.7597924 ], [ -52.2744865, -31.7588906 ], [ -52.2747848, -31.7582284 ], [ -52.2764998, -31.7575873 ], [ -52.2792091, -31.757686 ], [ -52.2819102, -31.7580946 ], [ -52.2828474, -31.7579651 ], [ -52.2838987, -31.7578198 ], [ -52.2847468, -31.757275 ], [ -52.2856072, -31.7567224 ], [ -52.2858291, -31.756579899999988 ], [ -52.2862674, -31.755997 ], [ -52.2863888, -31.7558355 ], [ -52.2864754, -31.755720400000012 ], [ -52.2868503, -31.7539715 ], [ -52.2868678, -31.7534011 ] ] ] } },
{ "type": "Feature", "properties": { "name": "Areal", "code_muni": 4314407.0, "name_muni": "Pelotas" }, "geometry": { "type": "Polygon", "coordinates": [ [ [ -52.3178088, -31.7274739 ], [ -52.3175924, -31.7272053 ], [ -52.3172754, -31.726812 ], [ -52.3171748, -31.726693399999984 ], [ -52.3153469, -31.7245066 ], [ -52.3148982, -31.7239637 ], [ -52.3147072, -31.7237304 ], [ -52.314392, -31.7233419 ], [ -52.3136088, -31.722402 ], [ -52.312941, -31.7216034 ], [ -52.3124073, -31.7209363 ], [ -52.3110874, -31.719326799999987 ], [ -52.3107789, -31.7189324 ], [ -52.3099719, -31.7179045 ], [ -52.3095126, -31.7173757 ], [ -52.3093567, -31.7172146 ], [ -52.30872, -31.7165804 ], [ -52.3085915, -31.716453 ], [ -52.3085001, -31.7163548 ], [ -52.307393, -31.7152444 ], [ -52.3072516, -31.7150967 ], [ -52.3064371, -31.7142757 ], [ -52.3062513, -31.7140954 ], [ -52.3059303, -31.7137806 ], [ -52.3056487, -31.7134381 ], [ -52.3053719, -31.7130374 ], [ -52.3052142, -31.7127877 ], [ -52.3051204, -31.7126531 ], [ -52.3042061, -31.711398 ], [ -52.3041139, -31.7112567 ], [ -52.3031546, -31.7097728 ], [ -52.3024568, -31.708693599999989 ], [ -52.3023676, -31.7085484 ], [ -52.3022984, -31.7084509 ], [ -52.3008074, -31.7060584 ], [ -52.3002121, -31.7050611 ], [ -52.3001098, -31.7049103 ], [ -52.2981064, -31.7015202 ], [ -52.2978135, -31.701024600000011 ], [ -52.2972297, -31.7000366 ], [ -52.2967539, -31.6992313 ], [ -52.295809, -31.6976322 ], [ -52.2951789, -31.6965917 ], [ -52.2946422, -31.6957004 ], [ -52.2945474, -31.6955429 ], [ -52.2943366, -31.6955264 ], [ -52.290818, -31.6942402 ], [ -52.2906943, -31.6941824 ], [ -52.2905029, -31.6940066 ], [ -52.2903916, -31.6939279 ], [ -52.2902977, -31.693864 ], [ -52.2901824, -31.6938149 ], [ -52.2900161, -31.6937875 ], [ -52.2898592, -31.693769299999985 ], [ -52.2897573, -31.693753299999987 ], [ -52.2896267, -31.6937159 ], [ -52.2816094, -31.6912103 ], [ -52.2783345, -31.6941319 ], [ -52.2710723, -31.7002208 ], [ -52.2460628, -31.7215354 ], [ -52.2471893, -31.7218247 ], [ -52.2482468, -31.7223139 ], [ -52.2506744, -31.724111 ], [ -52.2517747, -31.724703 ], [ -52.2525452, -31.7249003 ], [ -52.2532329, -31.7247735 ], [ -52.2537383, -31.7244775 ], [ -52.2540034, -31.7240828 ], [ -52.2547094, -31.7217402 ], [ -52.2553361, -31.7201956 ], [ -52.2561759, -31.7196146 ], [ -52.2576828, -31.7194286 ], [ -52.2594154, -31.7195301 ], [ -52.2603457, -31.719892600000012 ], [ -52.2614344, -31.7208218 ], [ -52.2620005, -31.7218206 ], [ -52.2627047, -31.7225746 ], [ -52.2640221, -31.7229623 ], [ -52.2652649, -31.7236459 ], [ -52.2664663, -31.7246325 ], [ -52.2677422, -31.7250483 ], [ -52.269275, -31.7252174 ], [ -52.270609, -31.7259151 ], [ -52.2717109, -31.7270638 ], [ -52.272666, -31.727929 ], [ -52.2729868, -31.7282196 ], [ -52.2736, -31.7292076 ], [ -52.2736066, -31.7299052 ], [ -52.2732056, -31.7305831 ], [ -52.2718972, -31.7318754 ], [ -52.2712456, -31.7322601 ], [ -52.2706805, -31.7324748 ], [ -52.2694954, -31.7326817 ], [ -52.2686138, -31.733241199999984 ], [ -52.2684001, -31.7340586 ], [ -52.2684829, -31.7351424 ], [ -52.268927, -31.7364009 ], [ -52.2697556, -31.7372535 ], [ -52.270493, -31.7376481 ], [ -52.2712635, -31.7377538 ], [ -52.2727714, -31.7375777 ], [ -52.2741302, -31.7375565 ], [ -52.275315, -31.7379511 ], [ -52.2760193, -31.7385994 ], [ -52.2761922, -31.7390928 ], [ -52.2761166, -31.7395771 ], [ -52.2755926, -31.7415183 ], [ -52.275344, -31.743005 ], [ -52.2754704, -31.7441905 ], [ -52.2762181, -31.7458269 ], [ -52.2764025, -31.7469736 ], [ -52.2761146, -31.74793 ], [ -52.2755139, -31.7485254 ], [ -52.2745714, -31.7489358 ], [ -52.2738837, -31.7497513 ], [ -52.2740971, -31.750443499999989 ], [ -52.2745719, -31.7507895 ], [ -52.2747351, -31.7509085 ], [ -52.2755967, -31.7510917 ], [ -52.2766904, -31.7509438 ], [ -52.2788446, -31.7501811 ], [ -52.2814462, -31.7498658 ], [ -52.2833435, -31.7490979 ], [ -52.2848515, -31.7490063 ], [ -52.2856469, -31.7493233 ], [ -52.2861688, -31.7500331 ], [ -52.2869062, -31.7521538 ], [ -52.2868689, -31.7533665 ], [ -52.2875029, -31.7532752 ], [ -52.2887179, -31.7531065 ], [ -52.2898498, -31.7529628 ], [ -52.2902066, -31.7529035 ], [ -52.2902499, -31.7528943 ], [ -52.2907464, -31.752788399999989 ], [ -52.29103, -31.7527279 ], [ -52.2916979, -31.7525363 ], [ -52.2920895, -31.7524701 ], [ -52.2933286, -31.7522991 ], [ -52.2937954, -31.7522352 ], [ -52.294718, -31.752144 ], [ -52.295292, -31.7521372 ], [ -52.295689, -31.7521622 ], [ -52.2963461, -31.7522717 ], [ -52.2968933, -31.7524131 ], [ -52.2972098, -31.7525226 ], [ -52.2976658, -31.7527438 ], [ -52.2982559, -31.753099600000013 ], [ -52.2992858, -31.7537063 ], [ -52.30072890000001, -31.7545867 ], [ -52.3011231, -31.7548239 ], [ -52.3022041, -31.755428199999987 ], [ -52.302542, -31.7555856 ], [ -52.3034433, -31.7559186 ], [ -52.3049131, -31.756456799999984 ], [ -52.305302, -31.7565868 ], [ -52.3060665, -31.7568696 ], [ -52.3066083, -31.7570726 ], [ -52.3069462, -31.757173 ], [ -52.3072574, -31.7572505 ], [ -52.3080003, -31.7573554 ], [ -52.3087272, -31.7574421 ], [ -52.3099101, -31.7575584 ], [ -52.3105752, -31.7576496 ], [ -52.3117447, -31.7578685 ], [ -52.3124796, -31.7580214 ], [ -52.3131797, -31.7581513 ], [ -52.3141292, -31.7583338 ], [ -52.3150063, -31.758498 ], [ -52.3156124, -31.7586029 ], [ -52.316004, -31.7586987 ], [ -52.3171467, -31.7589906 ], [ -52.317608, -31.7591024 ], [ -52.3195955, -31.759640600000012 ], [ -52.3205236, -31.7599006 ], [ -52.3214516, -31.7601491 ], [ -52.3225218, -31.7604205 ], [ -52.3231334, -31.7605961 ], [ -52.3240319, -31.7608288 ], [ -52.324791, -31.7610682 ], [ -52.3262394, -31.7615836 ], [ -52.326934, -31.7617957 ], [ -52.3281237, -31.7622151 ], [ -52.3284517, -31.7623308 ], [ -52.3295349, -31.7627284 ], [ -52.3297128, -31.7627854 ], [ -52.3297036, -31.762584 ], [ -52.3296784, -31.762131 ], [ -52.3296878, -31.7617212 ], [ -52.3297485, -31.7614871 ], [ -52.3299993, -31.7609069 ], [ -52.3305249, -31.7596175 ], [ -52.3307882, -31.7590651 ], [ -52.3310642, -31.758473 ], [ -52.3311746, -31.7582383 ], [ -52.3312977, -31.7579278 ], [ -52.3313699, -31.7576426 ], [ -52.3313572, -31.7573393 ], [ -52.3312553, -31.7567219 ], [ -52.3310047, -31.7555521 ], [ -52.3309623, -31.7553174 ], [ -52.3309326, -31.7550791 ], [ -52.3308646, -31.7547433 ], [ -52.3306686, -31.7540479 ], [ -52.3305836, -31.753788 ], [ -52.3304223, -31.7534179 ], [ -52.3303442, -31.7532596 ], [ -52.3293548, -31.7515302 ], [ -52.3292197, -31.75129530000001 ], [ -52.3291806, -31.7512136 ], [ -52.3290966, -31.7509736 ], [ -52.3290395, -31.7507872 ], [ -52.3289805, -31.750325600000011 ], [ -52.328825, -31.7483459 ], [ -52.3287713, -31.7477985 ], [ -52.3287445, -31.7471233 ], [ -52.3287338, -31.7465713 ], [ -52.3287552, -31.7459692 ], [ -52.3288357, -31.7451754 ], [ -52.3289323, -31.7441809 ], [ -52.328996600000011, -31.7435057 ], [ -52.329061, -31.7428853 ], [ -52.3291039, -31.7423744 ], [ -52.3290556, -31.7417859 ], [ -52.3289913, -31.7414163 ], [ -52.3288625, -31.7409693 ], [ -52.3280042, -31.7382274 ], [ -52.3274223, -31.7380144 ], [ -52.3273056, -31.737902 ], [ -52.3270858, -31.7376847 ], [ -52.3269148, -31.737510299999986 ], [ -52.3268737, -31.7374696 ], [ -52.326649, -31.737247 ], [ -52.3265834, -31.7371833 ], [ -52.3262545, -31.7368481 ], [ -52.325988, -31.7365849 ], [ -52.3252942, -31.7358967 ], [ -52.3247291, -31.7353266 ], [ -52.324199, -31.7347919 ], [ -52.3241253, -31.7347174 ], [ -52.3237813, -31.734387199999986 ], [ -52.3235529, -31.7341398 ], [ -52.3233098, -31.733890699999989 ], [ -52.3229154, -31.7334948 ], [ -52.3227617, -31.7333405 ], [ -52.3222502, -31.732816 ], [ -52.3220591, -31.7326186 ], [ -52.3219528, -31.7325045 ], [ -52.3218658, -31.7324003 ], [ -52.3203392, -31.7305733 ], [ -52.3187359, -31.728604 ], [ -52.3186943, -31.7285538 ], [ -52.3181823, -31.7279254 ], [ -52.3181109, -31.7278397 ], [ -52.3180513, -31.727774700000012 ], [ -52.3178088, -31.7274739 ] ] ] } },
{ "type": "Feature", "properties": { "name": "Jardim América", "code_muni": 4314407.0, "name_muni": "Pelotas" }, "geometry": { "type": "MultiPolygon", "coordinates": [ [ [ [ -52.4129923, -31.7503576 ], [ -52.4124129, -31.7514615 ], [ -52.4117584, -31.7520089 ], [ -52.4108358, -31.7524833 ], [ -52.4103422, -31.7528756 ], [ -52.410138098128805, -31.75308223848689 ], [ -52.412835234999903, -31.751309132999907 ], [ -52.415575433, -31.747901439 ], [ -52.415576209430604, -31.747895654526076 ], [ -52.41502, -31.748341299999989 ], [ -52.4146016, -31.7487975 ], [ -52.4139257, -31.7494453 ], [ -52.4129923, -31.7503576 ] ] ], [ [ [ -52.4088831, -31.7537423 ], [ -52.4086256, -31.7537788 ], [ -52.4081214, -31.753859 ], [ -52.4077995, -31.753797 ], [ -52.4076493, -31.7535689 ], [ -52.4073489, -31.7531219 ], [ -52.4072738, -31.752611 ], [ -52.4069734, -31.752518 ], [ -52.4065709, -31.752681399999986 ], [ -52.406277, -31.7527364 ], [ -52.4058874, -31.7529021 ], [ -52.4057596, -31.7532644 ], [ -52.4058509, -31.7535698 ], [ -52.4058509, -31.7537509 ], [ -52.4056196, -31.7538234 ], [ -52.4054978, -31.7539425 ], [ -52.4055161, -31.7541029 ], [ -52.4057109, -31.7541857 ], [ -52.4058022, -31.7542582 ], [ -52.4058083, -31.7543721 ], [ -52.4056135, -31.7547965 ], [ -52.4054284, -31.7550359 ], [ -52.4053104, -31.7555486 ], [ -52.405128, -31.7560595 ], [ -52.4042804, -31.7562597 ], [ -52.4041088, -31.7565972 ], [ -52.4041195, -31.7567427 ], [ -52.404199476209705, -31.757474044720873 ], [ -52.404353224, -31.756884817 ], [ -52.409073556360269, -31.753782037478736 ], [ -52.4088831, -31.7537423 ] ] ], [ [ [ -52.403485311349911, -31.759978611123632 ], [ -52.403557732, -31.759933407999892 ], [ -52.403827346579426, -31.7589001762245 ], [ -52.403485311349911, -31.759978611123632 ] ] ], [ [ [ -52.40041810000001, -31.7614307 ], [ -52.3994525, -31.7619781 ], [ -52.3988517, -31.7629085 ], [ -52.3979182, -31.7648068 ], [ -52.3973174, -31.7657555 ], [ -52.3972512, -31.7659244 ], [ -52.3977167, -31.7661758 ], [ -52.397751840093846, -31.766183652975496 ], [ -52.400575167999889, -31.761794978999887 ], [ -52.401816059572312, -31.761020492280206 ], [ -52.40041810000001, -31.7614307 ] ] ], [ [ [ -52.4181975, -31.74293 ], [ -52.417816353781561, -31.743289436635898 ], [ -52.418423988835023, -31.742975169343403 ], [ -52.4181975, -31.74293 ] ] ], [ [ [ -52.4171014, -31.7434419 ], [ -52.4163075, -31.7434036 ], [ -52.416168, -31.7435058 ], [ -52.4161573, -31.7436609 ], [ -52.416266788983272, -31.744090845148229 ], [ -52.41780011546318, -31.74329783498457 ], [ -52.4171014, -31.7434419 ] ] ] ] } }
]
}
