{
"type": "FeatureCollection",
"name": "bairros_barao_do_triunfo",
"crs": { "type": "name", "properties": { "name": "urn:ogc:def:crs:OGC:1.3:CRS84" } },
"features": [
{ "type": "Feature", "properties": { "code_muni": 4301750.0, "name_muni": "Barão do Triunfo", "code_state": 43.0, "abbrev_state": "RS", "name_state": "Rio Grande do Sul", "code_region": 4.0, "name_region": "Sul", "year": 2022.0 }, "geometry": { "type": "Polygon", "coordinates": [ [ [ -51.6800572779999, -30.3976731 ], [ -51.681633715, -30.400511982 ], [ -51.68215119, -30.407647104 ], [ -51.68182677, -30.412331322999897 ], [ -51.680395178, -30.413246273 ], [ -51.687597395999902, -30.418735606 ], [ -51.687162322999896, -30.420694914 ], [ -51.691855834, -30.421625459 ], [ -51.680507889999902, -30.437684397999899 ], [ -51.686275652999896, -30.439443669999893 ], [ -51.700229072, -30.439857268 ], [ -51.704160413, -30.443140667 ], [ -51.715669246999902, -30.445879166999902 ], [ -51.717698950999903, -30.447930587 ], [ -51.714210170999891, -30.45897086 ], [ -51.714172966, -30.470756236999911 ], [ -51.712572929, -30.472695660999896 ], [ -51.718003375, -30.4737225699999 ], [ -51.720667858, -30.4755932969999 ], [ -51.723053670999903, -30.472525162 ], [ -51.725777659999892, -30.471369204999988 ], [ -51.726500170999898, -30.475035585999901 ], [ -51.731238706999903, -30.476755791999903 ], [ -51.730766023999898, -30.478909252999987 ], [ -51.734149868, -30.475783844 ], [ -51.736404338999897, -30.478551329 ], [ -51.738946219, -30.478800482999901 ], [ -51.74361762, -30.482369262999988 ], [ -51.74713786, -30.482357293 ], [ -51.748107053, -30.48039459599989 ], [ -51.751242649999902, -30.481927401 ], [ -51.751595456, -30.48458068 ], [ -51.749265194, -30.4892278959999 ], [ -51.749260094, -30.497114226999908 ], [ -51.752539396, -30.4999234329999 ], [ -51.755083428, -30.505223771 ], [ -51.756046442, -30.5037082549999 ], [ -51.75877478599989, -30.505027277999904 ], [ -51.759610333999895, -30.498885459999894 ], [ -51.763122704, -30.497692389 ], [ -51.766479518, -30.492543520999988 ], [ -51.764444061999903, -30.476907492 ], [ -51.767030708999989, -30.466812174999987 ], [ -51.904755469999898, -30.57674495 ], [ -51.908797240999895, -30.575514133 ], [ -51.912081359, -30.569639762000012 ], [ -51.91177922, -30.566661914999905 ], [ -51.914644181, -30.562569773 ], [ -51.914128698999903, -30.559376605 ], [ -51.917413677, -30.556102671 ], [ -51.918236912999902, -30.550697313999901 ], [ -51.914966917999891, -30.547235573 ], [ -51.914323518999893, -30.544615661 ], [ -51.905726412, -30.540729276 ], [ -51.904627784999903, -30.538693542 ], [ -51.909509129, -30.535659154 ], [ -51.912325396, -30.526152225 ], [ -51.916506388999899, -30.522346162 ], [ -51.915763474, -30.517264723 ], [ -51.911860921, -30.514638641 ], [ -51.914207354, -30.512988148 ], [ -51.915399048, -30.508854705 ], [ -51.920928795999899, -30.503365731 ], [ -51.922614275999898, -30.499557487999905 ], [ -51.925220307, -30.49801912 ], [ -51.921234424, -30.494974495999898 ], [ -51.918620980999897, -30.490404275999904 ], [ -51.9183454019999, -30.48563598 ], [ -51.914238710999904, -30.480766812999903 ], [ -51.916873655, -30.471250444 ], [ -51.913505875999896, -30.468732176999897 ], [ -51.913463011, -30.465321102 ], [ -51.902652347, -30.461775305999897 ], [ -51.901111981, -30.451724998 ], [ -51.903508450999901, -30.444170841999902 ], [ -51.90688764, -30.4429878679999 ], [ -51.909422879, -30.439241162 ], [ -51.908392767, -30.436185786 ], [ -51.912784121999898, -30.435419232 ], [ -51.919834341999902, -30.429315983 ], [ -51.925632349999901, -30.428425299 ], [ -51.926008620999895, -30.424715159999892 ], [ -51.928946498999899, -30.424270325 ], [ -51.927074661999903, -30.420777002 ], [ -51.928037565999894, -30.419054603999907 ], [ -51.927683075999894, -30.417849649999901 ], [ -51.922411484999898, -30.416232034 ], [ -51.921967836, -30.412950719 ], [ -51.925102223, -30.407581008000012 ], [ -51.916171351999893, -30.402397182999884 ], [ -51.914717483999894, -30.395632498999895 ], [ -51.912968916, -30.395442271 ], [ -51.911142449, -30.397640411999912 ], [ -51.909260515, -30.397895268 ], [ -51.90751775199989, -30.394405558999896 ], [ -51.908390725999901, -30.391778308 ], [ -51.906724697999891, -30.389429628999903 ], [ -51.899752798, -30.391246619 ], [ -51.896824453, -30.387692634 ], [ -51.894719817, -30.388197093 ], [ -51.893480976, -30.390351242 ], [ -51.88472676, -30.384745285 ], [ -51.88288506, -30.388498281 ], [ -51.876544760999892, -30.388521669999896 ], [ -51.872298219999898, -30.381346895 ], [ -51.865540295, -30.384182704 ], [ -51.864249403, -30.380714272 ], [ -51.86580567, -30.376283293 ], [ -51.855525192999899, -30.3666504289999 ], [ -51.853567273, -30.362974382999905 ], [ -51.85442756, -30.358597035999892 ], [ -51.848851345999897, -30.358258357 ], [ -51.845830513, -30.352166098999902 ], [ -51.846048849999896, -30.34979812699989 ], [ -51.8440029449999, -30.349167470999898 ], [ -51.843392721, -30.347014885 ], [ -51.848374811, -30.342529624 ], [ -51.846401655, -30.337205755999896 ], [ -51.8511655, -30.33587196 ], [ -51.856936149, -30.329520053999911 ], [ -51.864073381, -30.329502390999892 ], [ -51.868729728999902, -30.318889009 ], [ -51.86541976, -30.316292142 ], [ -51.859690768, -30.318592716999898 ], [ -51.855028798, -30.313530656 ], [ -51.855059357999899, -30.311459850999896 ], [ -51.857565324999896, -30.309983252999896 ], [ -51.855446157999893, -30.308549044999896 ], [ -51.850136554, -30.308939877999901 ], [ -51.844904465, -30.312105526 ], [ -51.841568235999901, -30.312357147999904 ], [ -51.839376016, -30.311037805999899 ], [ -51.844278598, -30.302314931 ], [ -51.841206219, -30.293768998 ], [ -51.844436253, -30.290548880999904 ], [ -51.845669823, -30.28519749 ], [ -51.843116795, -30.286280845 ], [ -51.83965550499989, -30.290522401000011 ], [ -51.836894736, -30.290971883999909 ], [ -51.836417675, -30.293711607 ], [ -51.832401350999909, -30.295272825 ], [ -51.829888806, -30.305731046999895 ], [ -51.825008238, -30.307271375 ], [ -51.8215251949999, -30.311343404999903 ], [ -51.824308293999891, -30.31419499 ], [ -51.823402371, -30.316225062999894 ], [ -51.826564317, -30.316810530999899 ], [ -51.8262493249999, -30.319065949999988 ], [ -51.822212713999896, -30.319937549999985 ], [ -51.822795950999897, -30.323847251 ], [ -51.816832556999898, -30.322770428999895 ], [ -51.812773233, -30.324138203999986 ], [ -51.811147945999892, -30.325997448999903 ], [ -51.809048143, -30.324969506999903 ], [ -51.809300774, -30.329411143999902 ], [ -51.808105386, -30.330827579 ], [ -51.800301138999899, -30.328758809 ], [ -51.797248844, -30.330511816999902 ], [ -51.797612194, -30.332446721999894 ], [ -51.793160364999892, -30.331343751 ], [ -51.792269242, -30.333418912999893 ], [ -51.788564078, -30.334450133 ], [ -51.784707074, -30.33353727 ], [ -51.779430288, -30.336914033 ], [ -51.7748589179999, -30.33520967 ], [ -51.77304158, -30.337378940999898 ], [ -51.759311157999903, -30.343148119 ], [ -51.755456943, -30.339284040999903 ], [ -51.755427833999903, -30.335181656 ], [ -51.751690109, -30.332474569999889 ], [ -51.748735731999894, -30.332086534 ], [ -51.745115739, -30.333466937 ], [ -51.73841507, -30.330355824 ], [ -51.731417869, -30.331101244 ], [ -51.731591137999892, -30.325255786999904 ], [ -51.726876079, -30.322940452999894 ], [ -51.722946319, -30.315235612 ], [ -51.713914269, -30.311127826 ], [ -51.708944205, -30.30605273 ], [ -51.710571666, -30.304437397999905 ], [ -51.709062582999898, -30.302171175 ], [ -51.705181229999901, -30.301493654999899 ], [ -51.704496371999895, -30.303351775 ], [ -51.700107171, -30.3019348239999 ], [ -51.697558840999903, -30.299569065 ], [ -51.693413322, -30.299301338 ], [ -51.691581747, -30.295864255 ], [ -51.692506554, -30.291981615999894 ], [ -51.683363858, -30.294665047 ], [ -51.677974434, -30.288990946999903 ], [ -51.67626202, -30.288840127999894 ], [ -51.669124557, -30.292427293999904 ], [ -51.669808960999902, -30.296290971 ], [ -51.667355921, -30.296072718999895 ], [ -51.667408150999989, -30.293488732000011 ], [ -51.666225062, -30.292864467999902 ], [ -51.660745431, -30.29809849 ], [ -51.6536659389999, -30.297159064 ], [ -51.652873808, -30.299038845 ], [ -51.653938267999898, -30.301414805 ], [ -51.650803407, -30.3070424819999 ], [ -51.651462485, -30.308411706999902 ], [ -51.647704499, -30.310559853 ], [ -51.647009896, -30.312313634 ], [ -51.651662534, -30.321319415999895 ], [ -51.650244890999893, -30.325267337 ], [ -51.651131297999896, -30.329500956999901 ], [ -51.648817204, -30.330602921 ], [ -51.651926263999897, -30.335225519999899 ], [ -51.648752198999901, -30.339762107 ], [ -51.6517071439999, -30.341779284 ], [ -51.653051202, -30.341252368 ], [ -51.653452812999902, -30.3385960969999 ], [ -51.658284048, -30.340338847999899 ], [ -51.65999756, -30.342412624000012 ], [ -51.662337596, -30.342796058 ], [ -51.662755435, -30.344523818 ], [ -51.661736015, -30.345658505 ], [ -51.659646563, -30.343783026 ], [ -51.657626924999903, -30.345270848 ], [ -51.656749342, -30.347218895 ], [ -51.658174889, -30.349138519 ], [ -51.666676144999897, -30.34847049199989 ], [ -51.667852146, -30.349968856 ], [ -51.670078869, -30.356613517 ], [ -51.668840573999908, -30.361153261 ], [ -51.674454419, -30.3685863769999 ], [ -51.676157213, -30.368639303999903 ], [ -51.672926267, -30.374734506 ], [ -51.67897048, -30.378418218 ], [ -51.680939027, -30.381494777999897 ], [ -51.67809127999989, -30.387871693 ], [ -51.672627915, -30.388637200999902 ], [ -51.6730205329999, -30.394007647 ], [ -51.67541283, -30.39454417 ], [ -51.674524624999897, -30.398269200999898 ], [ -51.678138468, -30.397051627999904 ], [ -51.6800572779999, -30.3976731 ] ] ] } }
]
}
