{
"type": "FeatureCollection",
"name": "bairros_alvorada",
"crs": { "type": "name", "properties": { "name": "urn:ogc:def:crs:OGC:1.3:CRS84" } },
"features": [
{ "type": "Feature", "properties": { "name": "Mário Quintana", "code_muni": 4300604.0, "name_muni": "Alvorada" }, "geometry": { "type": "MultiPolygon", "coordinates": [ [ [ [ -51.086256, -30.0230801 ], [ -51.08624839949205, -30.023251899863396 ], [ -51.086257518455277, -30.023077564303012 ], [ -51.086256, -30.0230801 ] ] ], [ [ [ -51.0861313, -30.0249279 ], [ -51.0860963, -30.0250668 ], [ -51.086148611932934, -30.025159590688443 ], [ -51.086189169165841, -30.024384245576144 ], [ -51.0861313, -30.0249279 ] ] ], [ [ [ -51.087840776795531, -30.02635811075147 ], [ -51.087852278, -30.026292812 ], [ -51.087828270882369, -30.026278821450248 ], [ -51.087840776795531, -30.02635811075147 ] ] ], [ [ [ -51.0876757, -30.0271676 ], [ -51.0876175, -30.0272614 ], [ -51.08716, -30.0275518 ], [ -51.0870319, -30.0277421 ], [ -51.0872636, -30.0289013 ], [ -51.087371901566485, -30.029020103178627 ], [ -51.087710857855477, -30.027095727010582 ], [ -51.0876757, -30.0271676 ] ] ], [ [ [ -51.0896248, -30.0331267 ], [ -51.089634, -30.0334334 ], [ -51.0896498, -30.0335836 ], [ -51.0896734, -30.0337338 ], [ -51.0897956, -30.0339022 ], [ -51.0900322, -30.0340717 ], [ -51.0902491, -30.0341502 ], [ -51.090255793370865, -30.034199696872001 ], [ -51.090280751, -30.034172860999909 ], [ -51.089624239129257, -30.033017517415992 ], [ -51.0896248, -30.0331267 ] ] ], [ [ [ -51.0899297, -30.0344745 ], [ -51.089738757459941, -30.034755639158078 ], [ -51.090020439077058, -30.034452762339168 ], [ -51.0899297, -30.0344745 ] ] ], [ [ [ -51.086807, -30.0378468 ], [ -51.0866199, -30.038041 ], [ -51.0866885, -30.0383605 ], [ -51.086921647518814, -30.038512874215513 ], [ -51.086732809999901, -30.037987616999899 ], [ -51.086931441106024, -30.037774058574815 ], [ -51.086807, -30.0378468 ] ] ], [ [ [ -51.0870748, -30.0391333 ], [ -51.086946, -30.0392447 ], [ -51.0869804, -30.0394825 ], [ -51.0870404, -30.0396608 ], [ -51.0872802, -30.039730899999977 ], [ -51.087401391738652, -30.039847270707341 ], [ -51.087126665550983, -30.039083131360623 ], [ -51.0870748, -30.0391333 ] ] ], [ [ [ -51.0875297, -30.0404112 ], [ -51.087653292861674, -30.040547912165867 ], [ -51.087496911980203, -30.040112953331459 ], [ -51.0875297, -30.0404112 ] ] ], [ [ [ -51.0876928, -30.0408942 ], [ -51.0877614, -30.0411543 ], [ -51.0876069, -30.041548 ], [ -51.0873038, -30.0418403 ], [ -51.0872013, -30.0420212 ], [ -51.0871606, -30.0422836 ], [ -51.087049, -30.042878 ], [ -51.0868688, -30.0430415 ], [ -51.0868386, -30.0434342 ], [ -51.0866199, -30.0441485 ], [ -51.0863195, -30.044913799999989 ], [ -51.0862079, -30.0455825 ], [ -51.0860534, -30.0456205 ], [ -51.0858647, -30.0455809 ], [ -51.0856328, -30.0455703 ], [ -51.0854192, -30.0456321 ], [ -51.085383313847501, -30.045664455340713 ], [ -51.086212191, -30.045651624 ], [ -51.08782171099989, -30.041016347 ], [ -51.087685745148505, -30.040638174669606 ], [ -51.0876928, -30.0408942 ] ] ] ] } },
{ "type": "Feature", "properties": { "name": "Rubem Berta", "code_muni": 4300604.0, "name_muni": "Alvorada" }, "geometry": { "type": "MultiPolygon", "coordinates": [ [ [ [ -51.0877496, -30.0005154 ], [ -51.087632, -30.0017385 ], [ -51.0875554, -30.0024212 ], [ -51.087494, -30.0031418 ], [ -51.0874862, -30.0036574 ], [ -51.087509160461948, -30.0037568555672 ], [ -51.087813992891562, -30.000507556770714 ], [ -51.0877496, -30.0005154 ] ] ], [ [ [ -51.0876005, -30.004152499999986 ], [ -51.0881683, -30.0049241 ], [ -51.089359, -30.0063035 ], [ -51.0900102, -30.007141 ], [ -51.0921474, -30.0094971 ], [ -51.092937, -30.0105971 ], [ -51.0930057, -30.0109613 ], [ -51.0931258, -30.0112734 ], [ -51.0930794, -30.0114503 ], [ -51.0929542, -30.0119275 ], [ -51.0928562, -30.0121214 ], [ -51.0927616, -30.0123842 ], [ -51.0926881, -30.0127004 ], [ -51.0928128, -30.0128929 ], [ -51.092937, -30.0130943 ], [ -51.0930336, -30.013289 ], [ -51.0933806, -30.0138899 ], [ -51.0934595, -30.0140401 ], [ -51.0935462, -30.0141971 ], [ -51.0937696, -30.0146328 ], [ -51.093932700000011, -30.014885499999988 ], [ -51.0940312, -30.0151155 ], [ -51.0942244, -30.0152316 ], [ -51.0943426, -30.0153579 ], [ -51.094345868186323, -30.015553174226234 ], [ -51.094395372999905, -30.015496583 ], [ -51.092842241, -30.010277671 ], [ -51.087559219036926, -30.003973688645598 ], [ -51.0876005, -30.004152499999986 ] ] ], [ [ [ -51.093558, -30.0162933 ], [ -51.0933833, -30.016409 ], [ -51.0930743, -30.016877199999989 ], [ -51.0930567728158, -30.017026769063317 ], [ -51.093718662884058, -30.016270154211217 ], [ -51.093558, -30.0162933 ] ] ], [ [ [ -51.0922687, -30.0176862 ], [ -51.0920834, -30.017635 ], [ -51.0918384, -30.0175312 ], [ -51.0914644, -30.0173687 ], [ -51.0912032, -30.0173232 ], [ -51.0908099, -30.0174336 ], [ -51.0905303, -30.0173615 ], [ -51.0905175, -30.017471 ], [ -51.0905401, -30.0175866 ], [ -51.090548602871877, -30.017810951885497 ], [ -51.092491002, -30.017673497 ], [ -51.092572372288949, -30.017580483965286 ], [ -51.0922687, -30.0176862 ] ] ], [ [ [ -51.0894851, -30.0178194 ], [ -51.0893117, -30.0178091 ], [ -51.0891261, -30.0178731 ], [ -51.08910163282134, -30.01791332859727 ], [ -51.089586429061185, -30.017879029859049 ], [ -51.0894851, -30.0178194 ] ] ], [ [ [ -51.0887281, -30.0182734 ], [ -51.0885597, -30.0184082 ], [ -51.0884466, -30.0185782 ], [ -51.0884124, -30.0187618 ], [ -51.0884395, -30.0188467 ], [ -51.08845877735839, -30.018952447677417 ], [ -51.088909475754853, -30.018131035267814 ], [ -51.0887281, -30.0182734 ] ] ] ] } },
{ "type": "Feature", "properties": { "name": "Santa Rosa de Lima", "code_muni": 4300604.0, "name_muni": "Alvorada" }, "geometry": { "type": "MultiPolygon", "coordinates": [ [ [ [ -51.088900755462163, -29.98892171679816 ], [ -51.089016485999892, -29.987687769999987 ], [ -51.089003617918976, -29.987526901485815 ], [ -51.088900755462163, -29.98892171679816 ] ] ], [ [ [ -51.0879238, -29.9987029 ], [ -51.0877496, -30.0005154 ], [ -51.087813992891562, -30.000507556770714 ], [ -51.088164135889826, -29.996775018854297 ], [ -51.0879238, -29.9987029 ] ] ] ] } },
{ "type": "Feature", "properties": { "name": "Algarve", "code_muni": 4300604.0, "name_muni": "Alvorada" }, "geometry": { "type": "Polygon", "coordinates": [ [ [ -51.0859588, -30.0217689 ], [ -51.0854709, -30.0209165 ], [ -51.0850485, -30.0201376 ], [ -51.0847723, -30.0202932 ], [ -51.0840806, -30.0206438 ], [ -51.0833748, -30.0210666 ], [ -51.0827126, -30.0214407 ], [ -51.0817208, -30.0220001 ], [ -51.08098050000001, -30.0219629 ], [ -51.0802509, -30.021990800000012 ], [ -51.0797653, -30.0220449 ], [ -51.0790118, -30.022111 ], [ -51.0784654, -30.0222024 ], [ -51.0779763, -30.022323 ], [ -51.0769728, -30.0222082 ], [ -51.0764222, -30.0221632 ], [ -51.0760172, -30.0221095 ], [ -51.0756367, -30.0220497 ], [ -51.0756836, -30.0226039 ], [ -51.0748951, -30.0226358 ], [ -51.0749684, -30.0233378 ], [ -51.0749869, -30.023515 ], [ -51.0750373, -30.0239985 ], [ -51.075109, -30.0246861 ], [ -51.0752011, -30.0255682 ], [ -51.0752479, -30.026017 ], [ -51.0750507, -30.0262709 ], [ -51.0745685, -30.0268776 ], [ -51.0745302, -30.0269185 ], [ -51.0745684, -30.0269773 ], [ -51.0745599, -30.0273282 ], [ -51.0745522, -30.0276482 ], [ -51.0742711, -30.0276303 ], [ -51.074021, -30.027481 ], [ -51.0734179, -30.0273042 ], [ -51.0728691, -30.0272693 ], [ -51.0722265, -30.026631 ], [ -51.07148, -30.0264728 ], [ -51.0708043, -30.0255875 ], [ -51.0706725, -30.0254149 ], [ -51.0702195, -30.0259849 ], [ -51.0692575, -30.0272802 ], [ -51.0701728, -30.027925 ], [ -51.0708865, -30.0284279 ], [ -51.0693735, -30.0300581 ], [ -51.0684176, -30.0311351 ], [ -51.0683156, -30.0312501 ], [ -51.0673556, -30.030451 ], [ -51.0669458, -30.0299316 ], [ -51.066358, -30.0295177 ], [ -51.0656507, -30.029277 ], [ -51.065078, -30.029188 ], [ -51.0646139, -30.0291747 ], [ -51.0641704, -30.0292389 ], [ -51.0635342, -30.0295078 ], [ -51.0631084, -30.029815 ], [ -51.0628246, -30.0301641 ], [ -51.0624343, -30.0304098 ], [ -51.0608309, -30.0306081 ], [ -51.0595677, -30.033175299999986 ], [ -51.0594312, -30.0339581 ], [ -51.0587895, -30.0348023 ], [ -51.0583303, -30.0357752 ], [ -51.0622733, -30.0372846 ], [ -51.0619012, -30.0380128 ], [ -51.0618588, -30.0381833 ], [ -51.0618943, -30.03838 ], [ -51.0624733, -30.0394199 ], [ -51.0626924, -30.0396116 ], [ -51.0608048, -30.0409704 ], [ -51.0606113, -30.0412683 ], [ -51.0605421, -30.0416841 ], [ -51.0614194, -30.0419036 ], [ -51.0622545, -30.0418605 ], [ -51.0624107, -30.0428381 ], [ -51.0635568, -30.0444151 ], [ -51.0635484, -30.044962 ], [ -51.0635296, -30.0465734 ], [ -51.0634934, -30.047354 ], [ -51.0633873, -30.0500515 ], [ -51.0654721, -30.0504143 ], [ -51.06601280000001, -30.0505084 ], [ -51.0664899, -30.0505899 ], [ -51.06691, -30.0506616 ], [ -51.0676543, -30.0508125 ], [ -51.0683931, -30.0511134 ], [ -51.068978, -30.0513569 ], [ -51.06918236243876, -30.051416559951658 ], [ -51.069479211685859, -30.051485585560677 ], [ -51.069689259034199, -30.051462555941544 ], [ -51.072399739613232, -30.0495115553239 ], [ -51.0729314, -30.0490076 ], [ -51.0731634, -30.0488939 ], [ -51.0732333, -30.0488713 ], [ -51.0733042, -30.0488573 ], [ -51.0733921, -30.0488512 ], [ -51.0734745, -30.0488496 ], [ -51.0736135, -30.0488521 ], [ -51.073949, -30.0488652 ], [ -51.074979, -30.049000799999988 ], [ -51.075177190735758, -30.049038022579648 ], [ -51.075700587111157, -30.049079600268563 ], [ -51.0760642, -30.0490796 ], [ -51.076269087716611, -30.049072495441838 ], [ -51.081809890735201, -30.046174227082506 ], [ -51.0818509, -30.0461435 ], [ -51.0819933, -30.0460369 ], [ -51.0823629, -30.0458335 ], [ -51.0825333, -30.0457538 ], [ -51.0826711, -30.0456984 ], [ -51.0827373, -30.0456797 ], [ -51.08292, -30.0456347 ], [ -51.0830986, -30.0456169 ], [ -51.0832737, -30.0456166 ], [ -51.0834551, -30.0456372 ], [ -51.0836153, -30.0456701 ], [ -51.083695432277821, -30.045690568246282 ], [ -51.085383313847501, -30.045664455340713 ], [ -51.0854192, -30.0456321 ], [ -51.0856328, -30.0455703 ], [ -51.0858647, -30.0455809 ], [ -51.0860534, -30.0456205 ], [ -51.0862079, -30.0455825 ], [ -51.0863195, -30.044913799999989 ], [ -51.0866199, -30.0441485 ], [ -51.0868386, -30.0434342 ], [ -51.0868688, -30.0430415 ], [ -51.087049, -30.042878 ], [ -51.0871606, -30.0422836 ], [ -51.0872013, -30.0420212 ], [ -51.0873038, -30.0418403 ], [ -51.0876069, -30.041548 ], [ -51.0877614, -30.0411543 ], [ -51.0876928, -30.0408942 ], [ -51.087685745148505, -30.040638174669606 ], [ -51.087653292861674, -30.040547912165867 ], [ -51.0875297, -30.0404112 ], [ -51.087496911980203, -30.040112953331459 ], [ -51.087401391738652, -30.039847270707341 ], [ -51.0872802, -30.039730899999977 ], [ -51.0870404, -30.0396608 ], [ -51.0869804, -30.0394825 ], [ -51.086946, -30.0392447 ], [ -51.0870748, -30.0391333 ], [ -51.087126665550983, -30.039083131360623 ], [ -51.086921647518814, -30.038512874215513 ], [ -51.0866885, -30.0383605 ], [ -51.0866199, -30.038041 ], [ -51.086807, -30.0378468 ], [ -51.086931441106024, -30.037774058574815 ], [ -51.089738757459941, -30.034755639158078 ], [ -51.0899297, -30.0344745 ], [ -51.090020439077058, -30.034452762339168 ], [ -51.090255793370865, -30.034199696872001 ], [ -51.0902491, -30.0341502 ], [ -51.0900322, -30.0340717 ], [ -51.0897956, -30.0339022 ], [ -51.0896734, -30.0337338 ], [ -51.0896498, -30.0335836 ], [ -51.089634, -30.0334334 ], [ -51.0896248, -30.0331267 ], [ -51.089624239129257, -30.033017517415992 ], [ -51.087367400999902, -30.029045654 ], [ -51.087371901566485, -30.029020103178627 ], [ -51.0872636, -30.0289013 ], [ -51.0870319, -30.0277421 ], [ -51.08716, -30.0275518 ], [ -51.0876175, -30.0272614 ], [ -51.0876757, -30.0271676 ], [ -51.087710857855477, -30.027095727010582 ], [ -51.087840776795531, -30.02635811075147 ], [ -51.087828270882369, -30.026278821450248 ], [ -51.086141487, -30.025295798999895 ], [ -51.086148611932934, -30.025159590688443 ], [ -51.0860963, -30.0250668 ], [ -51.0861313, -30.0249279 ], [ -51.086189169165841, -30.024384245576144 ], [ -51.08624839949205, -30.023251899863396 ], [ -51.086256, -30.0230801 ], [ -51.086257518455277, -30.023077564303012 ], [ -51.086264078999896, -30.02295214 ], [ -51.08659685525059, -30.022345700434613 ], [ -51.0864873, -30.0222467 ], [ -51.0859588, -30.0217689 ] ] ] } },
{ "type": "Feature", "properties": { "name": "Americana / Sumaré", "code_muni": 4300604.0, "name_muni": "Alvorada" }, "geometry": { "type": "Polygon", "coordinates": [ [ [ -51.0695975, -29.9933932 ], [ -51.0706163, -29.9934656 ], [ -51.0716438, -29.9935386 ], [ -51.0727106, -29.9936142 ], [ -51.0726806, -29.994207 ], [ -51.0734757, -29.9942425 ], [ -51.0741649, -29.9942624 ], [ -51.0749003, -29.9942776 ], [ -51.0756448, -29.9950527 ], [ -51.0762773, -29.9950826 ], [ -51.0770911, -29.9950002 ], [ -51.0776893, -29.994979199999985 ], [ -51.0783831, -29.9949866 ], [ -51.0784091, -29.9956964 ], [ -51.0783909, -29.9972546 ], [ -51.0783682, -29.9977971 ], [ -51.0792482, -29.9983878 ], [ -51.0793143, -29.9983851 ], [ -51.0793769, -29.9983614 ], [ -51.0794386, -29.9983056 ], [ -51.0794878, -29.9982496 ], [ -51.0795459, -29.9981476 ], [ -51.0795562, -29.9980841 ], [ -51.0795496, -29.9980243 ], [ -51.079511, -29.9979502 ], [ -51.0794557, -29.9978486 ], [ -51.0802637, -29.9978066 ], [ -51.0811622, -29.9977695 ], [ -51.0812015, -29.9984579 ], [ -51.0819665, -29.998052 ], [ -51.082153, -29.9979475 ], [ -51.082236, -29.9985327 ], [ -51.0822863, -29.9988871 ], [ -51.0815903, -30.000144 ], [ -51.081545, -30.0002296 ], [ -51.0816668, -30.0003187 ], [ -51.0817733, -30.0002594 ], [ -51.0823008, -30.0010736 ], [ -51.081627, -30.0014272 ], [ -51.0823247, -30.0019283 ], [ -51.0820918, -30.0029382 ], [ -51.083167, -30.00367 ], [ -51.0837221, -30.0040478 ], [ -51.0844661, -30.004817 ], [ -51.084974, -30.0045365 ], [ -51.0853354, -30.0051836 ], [ -51.0854599, -30.0054875 ], [ -51.0854915, -30.0057051 ], [ -51.0854921, -30.0057865 ], [ -51.0854927, -30.006141200000013 ], [ -51.0854921, -30.0061658 ], [ -51.085535, -30.0071227 ], [ -51.0855337, -30.007519899999988 ], [ -51.0856316, -30.0077731 ], [ -51.0858354, -30.0079682 ], [ -51.0868031, -30.0085962 ], [ -51.087261, -30.0089679 ], [ -51.0880565, -30.0091749 ], [ -51.088747, -30.009334 ], [ -51.0888676, -30.0093381 ], [ -51.0902827, -30.009601 ], [ -51.0903599, -30.0094508 ], [ -51.0908463, -30.0097666 ], [ -51.091185, -30.0099866 ], [ -51.0915314, -30.0102116 ], [ -51.0911903, -30.0105975 ], [ -51.0911507, -30.010637 ], [ -51.0911787, -30.0106578 ], [ -51.0917901, -30.0110545 ], [ -51.0930794, -30.0114503 ], [ -51.0931258, -30.0112734 ], [ -51.0930057, -30.0109613 ], [ -51.092937, -30.0105971 ], [ -51.0921474, -30.0094971 ], [ -51.0900102, -30.007141 ], [ -51.089359, -30.0063035 ], [ -51.0881683, -30.0049241 ], [ -51.0876005, -30.004152499999986 ], [ -51.087559219036926, -30.003973688645598 ], [ -51.087495906, -30.003898133999897 ], [ -51.087509160461948, -30.0037568555672 ], [ -51.0874862, -30.0036574 ], [ -51.087494, -30.0031418 ], [ -51.0875554, -30.0024212 ], [ -51.087632, -30.0017385 ], [ -51.0877496, -30.0005154 ], [ -51.0879238, -29.9987029 ], [ -51.088164135889826, -29.996775018854297 ], [ -51.088900755462163, -29.98892171679816 ], [ -51.089003617918976, -29.987526901485815 ], [ -51.088157791554778, -29.976951753424402 ], [ -51.088135674585459, -29.976822177695819 ], [ -51.088047097375537, -29.976508312052893 ], [ -51.0878358, -29.9759704 ], [ -51.087358, -29.9744098 ], [ -51.0868209, -29.9725554 ], [ -51.086596023349152, -29.971366264398302 ], [ -51.086506512702606, -29.971049055046667 ], [ -51.0862149, -29.9710996 ], [ -51.086196847913087, -29.971096307260368 ], [ -51.0848016253872, -29.971880464100366 ], [ -51.0847987, -29.9719547 ], [ -51.0847557, -29.9721554 ], [ -51.0845498, -29.9723562 ], [ -51.0843352, -29.9724677 ], [ -51.0840004, -29.9725049 ], [ -51.0836485, -29.9724528 ], [ -51.0833825, -29.9723264 ], [ -51.0827387, -29.9719547 ], [ -51.082567749283427, -29.971868646340365 ], [ -51.082429060402937, -29.971812298339358 ], [ -51.0821293, -29.9717539 ], [ -51.0818375, -29.9717465 ], [ -51.0816058, -29.971739 ], [ -51.0814427, -29.9717167 ], [ -51.0812367, -29.971687 ], [ -51.0810822, -29.971568 ], [ -51.0809105, -29.9713821 ], [ -51.0808075, -29.9710922 ], [ -51.0809277, -29.9708245 ], [ -51.0811423, -29.9704973 ], [ -51.0814084, -29.9702966 ], [ -51.0816315, -29.9701479 ], [ -51.0816658, -29.9699992 ], [ -51.0823353, -29.9694043 ], [ -51.0825842, -29.969211 ], [ -51.0828503, -29.9690251 ], [ -51.0829533, -29.9689062 ], [ -51.0830134, -29.9687798 ], [ -51.082980035850539, -29.968620663714233 ], [ -51.082950671976917, -29.968581728821444 ], [ -51.0828074, -29.968408 ], [ -51.08261, -29.9682072 ], [ -51.0823439, -29.9680659 ], [ -51.082202021357993, -29.96799714247388 ], [ -51.080950040762552, -29.967948182424227 ], [ -51.0806273, -29.9680585 ], [ -51.0802067, -29.9681924 ], [ -51.0798119, -29.9682221 ], [ -51.0794686, -29.9681849 ], [ -51.0791768, -29.9680957 ], [ -51.0790738, -29.9678949 ], [ -51.0791167, -29.9675455 ], [ -51.079121440660067, -29.967534612550036 ], [ -51.077975449076021, -29.965249761405399 ], [ -51.0777691, -29.9652107 ], [ -51.07769639732669, -29.965217843277955 ], [ -51.074495623075869, -29.967069410561951 ], [ -51.0744904, -29.9671439 ], [ -51.0741728, -29.9674339 ], [ -51.0738896, -29.9676421 ], [ -51.0734175, -29.9677983 ], [ -51.0731085, -29.9677834 ], [ -51.0727738, -29.9677388 ], [ -51.0723961, -29.9674785 ], [ -51.0719927, -29.9671365 ], [ -51.0717352, -29.9668837 ], [ -51.0715035, -29.9666086 ], [ -51.071436511284176, -29.966529098060512 ], [ -51.070526715187277, -29.96600632902182 ], [ -51.0701903, -29.9661699 ], [ -51.0697869, -29.9663111 ], [ -51.0693663, -29.9664822 ], [ -51.0690487, -29.9665863 ], [ -51.0688513, -29.9668539 ], [ -51.0687912, -29.9669804 ], [ -51.0687912, -29.9670845 ], [ -51.0689715, -29.967315 ], [ -51.0690316, -29.967538 ], [ -51.0690316, -29.9677834 ], [ -51.0689801, -29.9680808 ], [ -51.0687998, -29.9682593 ], [ -51.0686196, -29.9683188 ], [ -51.0686453, -29.9684303 ], [ -51.0687741, -29.9686162 ], [ -51.0691946, -29.9687872 ], [ -51.0700444, -29.9690103 ], [ -51.0705594, -29.9692408 ], [ -51.0709198, -29.9695084 ], [ -51.0711344, -29.9698802 ], [ -51.0711773, -29.9701776 ], [ -51.0711688, -29.9704899 ], [ -51.0709885, -29.9706832 ], [ -51.0711719, -29.9710728 ], [ -51.0711505, -29.971807 ], [ -51.0704088, -29.9795035 ], [ -51.0700991, -29.9827177 ], [ -51.0699596, -29.9833217 ], [ -51.0699596, -29.9837585 ], [ -51.0700132, -29.9840466 ], [ -51.0699359, -29.9853368 ], [ -51.0698785, -29.985425799999987 ], [ -51.0696354, -29.9879708 ], [ -51.0693871, -29.9906495 ], [ -51.0691443, -29.993361 ], [ -51.0695975, -29.9933932 ] ] ] } },
{ "type": "Feature", "properties": { "name": "Aparecida", "code_muni": 4300604.0, "name_muni": "Alvorada" }, "geometry": { "type": "Polygon", "coordinates": [ [ [ -51.0635568, -30.0444151 ], [ -51.0624107, -30.0428381 ], [ -51.0622545, -30.0418605 ], [ -51.0614194, -30.0419036 ], [ -51.0605421, -30.0416841 ], [ -51.0606113, -30.0412683 ], [ -51.0608048, -30.0409704 ], [ -51.0626924, -30.0396116 ], [ -51.0624733, -30.0394199 ], [ -51.0618943, -30.03838 ], [ -51.0618588, -30.0381833 ], [ -51.0619012, -30.0380128 ], [ -51.0622733, -30.0372846 ], [ -51.0583303, -30.0357752 ], [ -51.0587895, -30.0348023 ], [ -51.0594312, -30.0339581 ], [ -51.0595677, -30.033175299999986 ], [ -51.0608309, -30.0306081 ], [ -51.0624343, -30.0304098 ], [ -51.0628246, -30.0301641 ], [ -51.0631084, -30.029815 ], [ -51.0635342, -30.0295078 ], [ -51.0641704, -30.0292389 ], [ -51.0636908, -30.0288692 ], [ -51.0628396, -30.0269818 ], [ -51.0625908, -30.0264557 ], [ -51.0624034, -30.0259468 ], [ -51.0623796, -30.025945 ], [ -51.0620039, -30.02597 ], [ -51.0613971, -30.0259744 ], [ -51.0603677, -30.0260004 ], [ -51.0606493, -30.024383599999986 ], [ -51.0608837, -30.0242263 ], [ -51.0610337, -30.0240984 ], [ -51.0613654, -30.023766 ], [ -51.0615685, -30.0235435 ], [ -51.0622269, -30.0227372 ], [ -51.0628319, -30.0220032 ], [ -51.0629603, -30.0218906 ], [ -51.0633029, -30.021590299999986 ], [ -51.0634009, -30.0204319 ], [ -51.0635189, -30.0194194 ], [ -51.0636723, -30.0184753 ], [ -51.0637012, -30.0182975 ], [ -51.0627272, -30.0190035 ], [ -51.061676, -30.019709 ], [ -51.0613685, -30.0199298 ], [ -51.0595402, -30.0211323 ], [ -51.0590731, -30.0213966 ], [ -51.058522, -30.021224 ], [ -51.0578206, -30.0210856 ], [ -51.0566735, -30.0210265 ], [ -51.0556766, -30.0211782 ], [ -51.0547542, -30.0214703 ], [ -51.0541633, -30.0217242 ], [ -51.0538474, -30.0220166 ], [ -51.053742, -30.022368099999987 ], [ -51.0538589, -30.0233693 ], [ -51.0535024, -30.0236613 ], [ -51.0521887, -30.0247309 ], [ -51.0515604, -30.025253199999987 ], [ -51.0512104, -30.0256677 ], [ -51.05081389054186, -30.027656091808552 ], [ -51.05138255922251, -30.027798666976761 ], [ -51.0522095, -30.027919 ], [ -51.0525288, -30.0279726 ], [ -51.0528452, -30.0280468 ], [ -51.0534922, -30.0282151 ], [ -51.05404168275949, -30.028465317594971 ], [ -51.054209428999989, -30.0285073699999 ], [ -51.054203719563901, -30.028539103505409 ], [ -51.0542103, -30.02854210000001 ], [ -51.054201315004491, -30.028552468234082 ], [ -51.053784178006254, -30.030870893103032 ], [ -51.0537882, -30.0309047 ], [ -51.053781, -30.031148 ], [ -51.0537474, -30.0313408 ], [ -51.0536979, -30.0314978 ], [ -51.0536531, -30.0316276 ], [ -51.0535648, -30.0318013 ], [ -51.0532644, -30.0321636 ], [ -51.0531979, -30.0322509 ], [ -51.0530165, -30.0325234 ], [ -51.052954, -30.032617300000013 ], [ -51.0528325, -30.032804800000012 ], [ -51.0527514, -30.0329352 ], [ -51.0527065, -30.0330181 ], [ -51.0526031, -30.0332246 ], [ -51.0525455, -30.0333432 ], [ -51.0524675, -30.0335087 ], [ -51.052391, -30.033645 ], [ -51.0523417, -30.0337333 ], [ -51.0521489, -30.0340734 ], [ -51.0519894, -30.0343593 ], [ -51.0515203, -30.0349385 ], [ -51.0510868, -30.0354447 ], [ -51.050070136731499, -30.036457651772437 ], [ -51.049535681999892, -30.037180543 ], [ -51.049943187076764, -30.039750928888342 ], [ -51.0499989, -30.0399645 ], [ -51.0501623, -30.0405908 ], [ -51.0502271, -30.0413203 ], [ -51.050218264113298, -30.041485932779548 ], [ -51.050242146, -30.041636561 ], [ -51.050207748783976, -30.041684358469283 ], [ -51.0502038, -30.041759 ], [ -51.0500995, -30.0420921 ], [ -51.0498973, -30.0423982 ], [ -51.0494207, -30.0428905 ], [ -51.049225331360859, -30.043049476668454 ], [ -51.048287945, -30.044351979999892 ], [ -51.049707964367236, -30.047088806769636 ], [ -51.0500765, -30.0474036 ], [ -51.0506633, -30.0478206 ], [ -51.0507991, -30.047923499999989 ], [ -51.0508953, -30.048034899999987 ], [ -51.0509414, -30.0481487 ], [ -51.0509834, -30.048299299999986 ], [ -51.0511708, -30.0491953 ], [ -51.0512996, -30.0500893 ], [ -51.051301033471596, -30.050158956145825 ], [ -51.051332806665044, -30.050220187036487 ], [ -51.051466292569785, -30.050218817540465 ], [ -51.052915581480612, -30.05003512653397 ], [ -51.0529867, -30.0499749 ], [ -51.0531037, -30.0498997 ], [ -51.05323, -30.0498421 ], [ -51.0538961, -30.0498288 ], [ -51.0541187, -30.0498104 ], [ -51.0546153, -30.0498191 ], [ -51.054632316405716, -30.049817516376852 ], [ -51.055379755241447, -30.049722765106686 ], [ -51.0555083, -30.049701 ], [ -51.0558683, -30.0496439 ], [ -51.0560087, -30.049618599999985 ], [ -51.0561272, -30.0496017 ], [ -51.0563326, -30.0495659 ], [ -51.0566032, -30.0494869 ], [ -51.0568534, -30.0494295 ], [ -51.0571803, -30.0494032 ], [ -51.057765, -30.0494752 ], [ -51.0579059, -30.049488 ], [ -51.0582993, -30.0495383 ], [ -51.0586502, -30.0496621 ], [ -51.0587695, -30.0497259 ], [ -51.0589004, -30.0498247 ], [ -51.0590438, -30.0498868 ], [ -51.0593542, -30.0499883 ], [ -51.0597458, -30.0501067 ], [ -51.0599054, -30.0501729 ], [ -51.0603091, -30.0503249 ], [ -51.0606605, -30.0504909 ], [ -51.0610642, -30.0506952 ], [ -51.0615705, -30.0509448 ], [ -51.0620539, -30.0503574 ], [ -51.0622484, -30.0502518 ], [ -51.0628304, -30.0501079 ], [ -51.0633873, -30.0500515 ], [ -51.0634934, -30.047354 ], [ -51.0635296, -30.0465734 ], [ -51.0635484, -30.044962 ], [ -51.0635568, -30.0444151 ] ] ] } },
{ "type": "Feature", "properties": { "name": "Bela Vista", "code_muni": 4300604.0, "name_muni": "Alvorada" }, "geometry": { "type": "Polygon", "coordinates": [ [ [ -51.0874723, -30.010492 ], [ -51.0861218, -30.0104324 ], [ -51.0846672, -30.0094501 ], [ -51.0833395, -30.0081152 ], [ -51.0834578, -30.006711 ], [ -51.0827385, -30.0058335 ], [ -51.0825495, -30.0056436 ], [ -51.0825052, -30.0056038 ], [ -51.0816546, -30.0049749 ], [ -51.0809033, -30.0044283 ], [ -51.0807939, -30.0043731 ], [ -51.0807349, -30.0043533 ], [ -51.0807097, -30.0044043 ], [ -51.0806644, -30.0049123 ], [ -51.080216, -30.0042631 ], [ -51.079613, -30.0033751 ], [ -51.0794598, -30.003149499999989 ], [ -51.0786414, -30.0034395 ], [ -51.0783212, -30.0035521 ], [ -51.0780649, -30.0030704 ], [ -51.0775626, -30.0034803 ], [ -51.0771646, -30.0038048 ], [ -51.0767515, -30.003808799999987 ], [ -51.0765789, -30.0037942 ], [ -51.0760333, -30.0037541 ], [ -51.0759323, -30.0037448 ], [ -51.0748817, -30.0036506 ], [ -51.0740896, -30.003577 ], [ -51.074037, -30.0035715 ], [ -51.0740325, -30.003628699999989 ], [ -51.0739864, -30.0042285 ], [ -51.0739736, -30.004331 ], [ -51.0738718, -30.0051353 ], [ -51.0738251, -30.0055626 ], [ -51.0738188, -30.0056183 ], [ -51.0737833, -30.0059331 ], [ -51.0737806, -30.005988 ], [ -51.0737761, -30.0060779 ], [ -51.0737905, -30.0061879 ], [ -51.0737557, -30.0063153 ], [ -51.0736441, -30.0075374 ], [ -51.0732819, -30.0075088 ], [ -51.0731324, -30.009205 ], [ -51.0730523, -30.0094061 ], [ -51.0729318, -30.0095883 ], [ -51.0730121, -30.009779599999987 ], [ -51.0731145, -30.0100728 ], [ -51.073196, -30.0104273 ], [ -51.0731838, -30.0107849 ], [ -51.0730766, -30.0112494 ], [ -51.0730122, -30.0119555 ], [ -51.0728285, -30.0128049 ], [ -51.07302760000001, -30.0132123 ], [ -51.0731944, -30.0135148 ], [ -51.0731757, -30.014049 ], [ -51.0731756, -30.0145343 ], [ -51.0731824, -30.0145565 ], [ -51.0732039, -30.0145733 ], [ -51.0733317, -30.0146087 ], [ -51.0735418, -30.0146633 ], [ -51.0740174, -30.0147825 ], [ -51.0747564, -30.0150329 ], [ -51.0748487, -30.0149288 ], [ -51.0749518, -30.014839 ], [ -51.0751071, -30.0147121 ], [ -51.0756854, -30.014222 ], [ -51.0763314, -30.0137801 ], [ -51.0769644, -30.0134178 ], [ -51.0773399, -30.0132598 ], [ -51.0775631, -30.01322 ], [ -51.0777429, -30.0132314 ], [ -51.0784276, -30.0133298 ], [ -51.0791952, -30.0134836 ], [ -51.0793118, -30.013502 ], [ -51.0796568, -30.0135564 ], [ -51.0797955, -30.0135718 ], [ -51.080076, -30.013603 ], [ -51.0804563, -30.0136284 ], [ -51.0807206, -30.0136461 ], [ -51.0809198, -30.0136594 ], [ -51.0810978, -30.0136513 ], [ -51.0811152, -30.013650500000011 ], [ -51.0812998, -30.013620899999985 ], [ -51.0814664, -30.013556 ], [ -51.0819239, -30.013223 ], [ -51.0821367, -30.0130428 ], [ -51.0822103, -30.0129833 ], [ -51.0826148, -30.0126812 ], [ -51.0826998, -30.0126394 ], [ -51.0830849, -30.0125164 ], [ -51.0836231, -30.012393 ], [ -51.0842063, -30.0122751 ], [ -51.0844639, -30.0122292 ], [ -51.0853007, -30.01208 ], [ -51.0856578, -30.0119801 ], [ -51.0859334, -30.011877 ], [ -51.0863501, -30.0117073 ], [ -51.0868533, -30.0115065 ], [ -51.0870659, -30.0114025 ], [ -51.0872463, -30.0112987 ], [ -51.0874028, -30.0111893 ], [ -51.0877503, -30.0109367 ], [ -51.0874723, -30.010492 ] ] ] } },
{ "type": "Feature", "properties": { "name": "Centro", "code_muni": 4300604.0, "name_muni": "Alvorada" }, "geometry": { "type": "Polygon", "coordinates": [ [ [ -51.0891757, -30.010059500000011 ], [ -51.0895648, -30.0100169 ], [ -51.0899462, -30.0100681 ], [ -51.0903094, -30.0101808 ], [ -51.0908073, -30.0104097 ], [ -51.0911345, -30.0106257 ], [ -51.0911507, -30.010637 ], [ -51.0911903, -30.0105975 ], [ -51.0915314, -30.0102116 ], [ -51.091185, -30.0099866 ], [ -51.0908463, -30.0097666 ], [ -51.0903599, -30.0094508 ], [ -51.0902827, -30.009601 ], [ -51.0888676, -30.0093381 ], [ -51.088747, -30.009334 ], [ -51.0880565, -30.0091749 ], [ -51.087261, -30.0089679 ], [ -51.0868031, -30.0085962 ], [ -51.0858354, -30.0079682 ], [ -51.0856316, -30.0077731 ], [ -51.0855337, -30.007519899999988 ], [ -51.085535, -30.0071227 ], [ -51.0854921, -30.0061658 ], [ -51.0854927, -30.006141200000013 ], [ -51.0854921, -30.0057865 ], [ -51.0854915, -30.0057051 ], [ -51.0854599, -30.0054875 ], [ -51.0853354, -30.0051836 ], [ -51.084974, -30.0045365 ], [ -51.0844661, -30.004817 ], [ -51.0837221, -30.0040478 ], [ -51.083167, -30.00367 ], [ -51.0820918, -30.0029382 ], [ -51.0823247, -30.0019283 ], [ -51.081627, -30.0014272 ], [ -51.0823008, -30.0010736 ], [ -51.0817733, -30.0002594 ], [ -51.0816668, -30.0003187 ], [ -51.081545, -30.0002296 ], [ -51.0815903, -30.000144 ], [ -51.0822863, -29.9988871 ], [ -51.082236, -29.9985327 ], [ -51.082153, -29.9979475 ], [ -51.0819665, -29.998052 ], [ -51.0812015, -29.9984579 ], [ -51.0811622, -29.9977695 ], [ -51.0802637, -29.9978066 ], [ -51.0794557, -29.9978486 ], [ -51.079511, -29.9979502 ], [ -51.0795496, -29.9980243 ], [ -51.0795562, -29.9980841 ], [ -51.0795459, -29.9981476 ], [ -51.0794878, -29.9982496 ], [ -51.0794386, -29.9983056 ], [ -51.0793769, -29.9983614 ], [ -51.0793143, -29.9983851 ], [ -51.0792482, -29.9983878 ], [ -51.0783682, -29.9977971 ], [ -51.0783909, -29.9972546 ], [ -51.0784091, -29.9956964 ], [ -51.0783831, -29.9949866 ], [ -51.0776893, -29.994979199999985 ], [ -51.0770911, -29.9950002 ], [ -51.0762773, -29.9950826 ], [ -51.0756448, -29.9950527 ], [ -51.0749003, -29.9942776 ], [ -51.0741649, -29.9942624 ], [ -51.0734757, -29.9942425 ], [ -51.0726806, -29.994207 ], [ -51.0727106, -29.9936142 ], [ -51.0716438, -29.9935386 ], [ -51.0706163, -29.9934656 ], [ -51.0695975, -29.9933932 ], [ -51.0691443, -29.993361 ], [ -51.069145, -29.993441499999985 ], [ -51.0690642, -29.9943762 ], [ -51.0690105, -29.9953499 ], [ -51.0693663, -29.9955022 ], [ -51.069333, -29.9955795 ], [ -51.0693301, -29.995634 ], [ -51.069331, -29.9956916 ], [ -51.0695213, -29.9964983 ], [ -51.0696152, -29.9966582 ], [ -51.0697391, -29.9968181 ], [ -51.070129, -29.9971595 ], [ -51.0704791, -29.9975095 ], [ -51.0706511, -29.997705 ], [ -51.0711796, -29.9982668 ], [ -51.0714777, -29.998705 ], [ -51.0720358, -29.9996326 ], [ -51.0728418, -30.0009331 ], [ -51.0728981, -30.0010239 ], [ -51.0736724, -30.0006601 ], [ -51.0738649, -30.0008765 ], [ -51.0740496, -30.0012656 ], [ -51.0741461, -30.0017116 ], [ -51.0741033, -30.0025395 ], [ -51.0740398, -30.0035366 ], [ -51.074037, -30.0035715 ], [ -51.0740896, -30.003577 ], [ -51.0748817, -30.0036506 ], [ -51.0759323, -30.0037448 ], [ -51.0760333, -30.0037541 ], [ -51.0765789, -30.0037942 ], [ -51.0767515, -30.003808799999987 ], [ -51.0771646, -30.0038048 ], [ -51.0775626, -30.0034803 ], [ -51.0780649, -30.0030704 ], [ -51.0783212, -30.0035521 ], [ -51.0786414, -30.0034395 ], [ -51.0794598, -30.003149499999989 ], [ -51.079613, -30.0033751 ], [ -51.080216, -30.0042631 ], [ -51.0806644, -30.0049123 ], [ -51.0807097, -30.0044043 ], [ -51.0807349, -30.0043533 ], [ -51.0807939, -30.0043731 ], [ -51.0809033, -30.0044283 ], [ -51.0816546, -30.0049749 ], [ -51.0825052, -30.0056038 ], [ -51.0825495, -30.0056436 ], [ -51.0827385, -30.0058335 ], [ -51.0834578, -30.006711 ], [ -51.0833395, -30.0081152 ], [ -51.0846672, -30.0094501 ], [ -51.0861218, -30.0104324 ], [ -51.0874723, -30.010492 ], [ -51.0877503, -30.0109367 ], [ -51.088251, -30.0105941 ], [ -51.088546, -30.0103954 ], [ -51.088724, -30.0102398 ], [ -51.0891757, -30.010059500000011 ] ] ] } },
{ "type": "Feature", "properties": { "name": "Cocão", "code_muni": 4300604.0, "name_muni": "Alvorada" }, "geometry": { "type": "Polygon", "coordinates": [ [ [ -51.0641809, -30.0167779 ], [ -51.0643137, -30.016469 ], [ -51.0644202, -30.0161865 ], [ -51.0646562, -30.0158521 ], [ -51.0650161, -30.0155423 ], [ -51.0659066, -30.0149633 ], [ -51.0662066, -30.014802800000012 ], [ -51.0665488, -30.0146197 ], [ -51.0671989, -30.015118199999989 ], [ -51.067553, -30.0154155 ], [ -51.0678427, -30.0156942 ], [ -51.0684816, -30.016337799999988 ], [ -51.0690367, -30.0164213 ], [ -51.0712203, -30.016764 ], [ -51.0714111, -30.0168195 ], [ -51.0723056, -30.0171651 ], [ -51.0726466, -30.0172831 ], [ -51.0728149, -30.0173179 ], [ -51.072953, -30.0173254 ], [ -51.0730894, -30.017312 ], [ -51.07322, -30.0172917 ], [ -51.0735512, -30.0171555 ], [ -51.0736377, -30.0171117 ], [ -51.0738342, -30.0169695 ], [ -51.0739791, -30.0168248 ], [ -51.0740607, -30.0167117 ], [ -51.0741856, -30.0165299 ], [ -51.0743195, -30.0162611 ], [ -51.0744068, -30.0160858 ], [ -51.074599, -30.0154994 ], [ -51.0746456, -30.0153501 ], [ -51.0746755, -30.0152444 ], [ -51.0747037, -30.0151593 ], [ -51.0747564, -30.0150329 ], [ -51.0740174, -30.0147825 ], [ -51.0735418, -30.0146633 ], [ -51.0733317, -30.0146087 ], [ -51.0732039, -30.0145733 ], [ -51.0731824, -30.0145565 ], [ -51.0731756, -30.0145343 ], [ -51.0731757, -30.014049 ], [ -51.0731944, -30.0135148 ], [ -51.07302760000001, -30.0132123 ], [ -51.0728285, -30.0128049 ], [ -51.0730122, -30.0119555 ], [ -51.0730766, -30.0112494 ], [ -51.0731838, -30.0107849 ], [ -51.073196, -30.0104273 ], [ -51.0731145, -30.0100728 ], [ -51.0730121, -30.009779599999987 ], [ -51.0729318, -30.0095883 ], [ -51.0728468, -30.0096152 ], [ -51.071673, -30.0099284 ], [ -51.0708493, -30.0098924 ], [ -51.0701503, -30.0097404 ], [ -51.0698566, -30.0092385 ], [ -51.0682377, -30.0097972 ], [ -51.0680615, -30.0098798 ], [ -51.067781, -30.0100113 ], [ -51.0672621, -30.0101125 ], [ -51.0672631, -30.0101415 ], [ -51.0667995, -30.0102621 ], [ -51.0663693, -30.010401900000012 ], [ -51.0650041, -30.0108175 ], [ -51.0647022, -30.0094624 ], [ -51.0646118, -30.0090567 ], [ -51.0630943, -30.009278 ], [ -51.062897, -30.0087117 ], [ -51.0613117, -30.0090499 ], [ -51.0612835, -30.0095004 ], [ -51.0611767, -30.0112058 ], [ -51.0610668, -30.0116951 ], [ -51.059965, -30.0098467 ], [ -51.0596646, -30.0092986 ], [ -51.0596361, -30.0091545 ], [ -51.0596217, -30.0090106 ], [ -51.0596324, -30.008704 ], [ -51.0596314, -30.0085836 ], [ -51.0596002, -30.0084717 ], [ -51.0594827, -30.0082339 ], [ -51.0593642, -30.0079514 ], [ -51.0593519, -30.0078566 ], [ -51.0593535, -30.0077656 ], [ -51.0595509, -30.0059702 ], [ -51.059701, -30.0046047 ], [ -51.05979, -30.0037946 ], [ -51.0598766, -30.0030066 ], [ -51.0599507, -30.002333 ], [ -51.0600625, -30.0016931 ], [ -51.0601726, -30.0010631 ], [ -51.0603223, -30.0002058 ], [ -51.0600451, -30.0002678 ], [ -51.0590478, -30.0007791 ], [ -51.0589492, -30.000831800000011 ], [ -51.0573688, -30.0017562 ], [ -51.0570527, -30.0018826 ], [ -51.0567153, -30.0019783 ], [ -51.0560928, -30.0021225 ], [ -51.055023, -30.0024313 ], [ -51.0550361, -30.0024686 ], [ -51.055048, -30.0025413 ], [ -51.0550439, -30.0026284 ], [ -51.0545913, -30.0061358 ], [ -51.0545301, -30.0065402 ], [ -51.0545224, -30.0068187 ], [ -51.0546606, -30.0103975 ], [ -51.0546682, -30.0110469 ], [ -51.0547262, -30.0113383 ], [ -51.0548071, -30.0115545 ], [ -51.0548556, -30.0116817 ], [ -51.0548792, -30.0117528 ], [ -51.054916, -30.0118295 ], [ -51.0549813, -30.0119264 ], [ -51.0550533, -30.012017599999989 ], [ -51.0551347, -30.0121041 ], [ -51.0552063, -30.012159 ], [ -51.0552966, -30.012206 ], [ -51.0554154, -30.012224 ], [ -51.0556335, -30.0134709 ], [ -51.0558321, -30.0145384 ], [ -51.055976, -30.0152985 ], [ -51.0560231, -30.0154746 ], [ -51.056086, -30.0156318 ], [ -51.0564748, -30.0159384 ], [ -51.05708, -30.0164258 ], [ -51.058225, -30.0173127 ], [ -51.0569968, -30.018087 ], [ -51.0559655, -30.0186621 ], [ -51.0552751, -30.0194251 ], [ -51.0554074, -30.019588200000012 ], [ -51.0546537, -30.019783099999987 ], [ -51.0542713, -30.0198792 ], [ -51.0545842, -30.0209108 ], [ -51.0547542, -30.0214703 ], [ -51.0556766, -30.0211782 ], [ -51.0566735, -30.0210265 ], [ -51.0578206, -30.0210856 ], [ -51.058522, -30.021224 ], [ -51.0590731, -30.0213966 ], [ -51.0595402, -30.0211323 ], [ -51.0613685, -30.0199298 ], [ -51.061676, -30.019709 ], [ -51.0627272, -30.0190035 ], [ -51.0637012, -30.0182975 ], [ -51.0638166, -30.0178056 ], [ -51.0638515, -30.0176636 ], [ -51.0639696, -30.0172642 ], [ -51.0641809, -30.0167779 ] ] ] } },
{ "type": "Feature", "properties": { "name": "Industrial", "code_muni": 4300604.0, "name_muni": "Alvorada" }, "geometry": { "type": "Polygon", "coordinates": [ [ [ -50.9499112, -29.9663013 ], [ -50.9501237, -29.9662978 ], [ -50.9503935, -29.9662653 ], [ -50.95065910000001, -29.9663327 ], [ -50.9509057, -29.9666172 ], [ -50.9514133, -29.9670817 ], [ -50.9517479, -29.9674547 ], [ -50.9519444, -29.9675987 ], [ -50.952368, -29.9678563 ], [ -50.9528753, -29.9680806 ], [ -50.9531639, -29.9682009 ], [ -50.9533742, -29.9683057 ], [ -50.9545662, -29.968994 ], [ -50.9556144, -29.9695033 ], [ -50.9558284, -29.9696383 ], [ -50.9560409, -29.9698172 ], [ -50.9562187, -29.9700745 ], [ -50.956286519007904, -29.970245233249205 ], [ -50.956291866, -29.97024827 ], [ -50.959954452, -29.978750427 ], [ -50.961356820239139, -29.985744911448712 ], [ -50.9614369, -29.9858952 ], [ -50.9618231, -29.9869732 ], [ -50.9621665, -29.9886272 ], [ -50.962133401695489, -29.989617777102257 ], [ -50.962189071999902, -29.989895396999898 ], [ -50.96237217502884, -29.98998071659107 ], [ -50.9624029, -29.9899882 ], [ -50.9650203, -29.9906158 ], [ -50.9659216, -29.9908946 ], [ -50.9673599, -29.9917635 ], [ -50.9706643, -29.9936434 ], [ -50.972845046331017, -29.994860039246078 ], [ -50.973488220352415, -29.99515965194848 ], [ -50.97348948689968, -29.99516012421099 ], [ -50.975907661694436, -29.995142720999883 ], [ -50.9764176, -29.9950593 ], [ -50.9772663, -29.9948622 ], [ -50.9782151, -29.9946775 ], [ -50.9784928, -29.9946553 ], [ -50.9787582, -29.9946546 ], [ -50.9802258, -29.9947352 ], [ -50.9816687, -29.9948693 ], [ -50.9834591, -29.9949929 ], [ -50.9845874, -29.9949925 ], [ -50.9848278, -29.9949929 ], [ -50.9854716, -29.994975 ], [ -50.9858214, -29.9949741 ], [ -50.9861142, -29.9950287 ], [ -50.986235237084365, -29.995067895173765 ], [ -50.986236770999895, -29.995067884 ], [ -50.986243624796401, -29.995070611342904 ], [ -50.986272, -29.9950798 ], [ -50.98628540589236, -29.995087237354532 ], [ -50.988916977863823, -29.996134384614226 ], [ -50.9899576, -29.996284 ], [ -50.9903387, -29.9963165 ], [ -50.9907569, -29.9963682 ], [ -50.9910435, -29.9964413 ], [ -50.9912927, -29.996534699999987 ], [ -50.9917854, -29.9968642 ], [ -50.992071, -29.9970594 ], [ -50.9922682, -29.9971906 ], [ -50.9925833, -29.9974174 ], [ -50.9927159, -29.9974829 ], [ -50.9928717, -29.9975292 ], [ -50.9930564, -29.9976132 ], [ -50.9932306, -29.9976897 ], [ -50.9935825, -29.9978591 ], [ -50.9936879, -29.9978896 ], [ -50.9942336, -29.9980573 ], [ -50.9950458, -29.9983389 ], [ -50.9957361, -29.9986452 ], [ -50.9963686, -29.9989483 ], [ -50.9969699, -29.999271 ], [ -50.997400859052078, -29.999509756410095 ], [ -50.998947814148615, -30.000125139639483 ], [ -50.999120536011915, -30.000159087040284 ], [ -51.000130089602074, -30.000175600630648 ], [ -51.0008719, -30.000119199999986 ], [ -51.001372, -30.000082 ], [ -51.0016229, -30.0000634 ], [ -51.0020676, -30.000050300000012 ], [ -51.0022559, -30.0000448 ], [ -51.0027601, -30.0000913 ], [ -51.0032858, -30.0001935 ], [ -51.003543860627239, -30.000231383383746 ], [ -51.005527886498164, -30.000263762672905 ], [ -51.005778064379143, -30.000240202298436 ], [ -51.006978082280412, -30.000017851780726 ], [ -51.0074261, -29.9998885 ], [ -51.0078726, -29.9997471 ], [ -51.0086024, -29.9994353 ], [ -51.0090638, -29.9992304 ], [ -51.009789, -29.9989191 ], [ -51.0098716, -29.9988885 ], [ -51.0102875, -29.998752 ], [ -51.0106381, -29.9986369 ], [ -51.011003, -29.9985454 ], [ -51.0111515, -29.9985165 ], [ -51.0116224, -29.998424899999986 ], [ -51.0120545, -29.998375 ], [ -51.0125835, -29.9983158 ], [ -51.0130086, -29.9982832 ], [ -51.0137288, -29.9982484 ], [ -51.0143001, -29.9982717 ], [ -51.014787, -29.998338 ], [ -51.01534370000001, -29.9984491 ], [ -51.01538723113034, -29.998459391293395 ], [ -51.015463638999989, -29.998445228 ], [ -51.015723271532167, -29.998538834811477 ], [ -51.0158919, -29.9985787 ], [ -51.0166927, -29.9988834 ], [ -51.01676544580782, -29.998914568967791 ], [ -51.020593833256704, -30.000294718746545 ], [ -51.0207098, -30.0003116 ], [ -51.0218934, -30.0004484 ], [ -51.0225829, -30.0005672 ], [ -51.0230852, -30.0007126 ], [ -51.0242748, -30.0010769 ], [ -51.0243943, -30.0011202 ], [ -51.0245605, -30.0011804 ], [ -51.0247878, -30.0012991 ], [ -51.0249903, -30.0014293 ], [ -51.025427, -30.0017825 ], [ -51.0256984, -30.0019774 ], [ -51.0260739, -30.0022562 ], [ -51.026133477942487, -30.002291518685631 ], [ -51.026730624303745, -30.002506745133484 ], [ -51.02680830790915, -30.002523724462158 ], [ -51.02930979716605, -30.002191113855897 ], [ -51.0297431, -30.0020059 ], [ -51.0301494, -30.0018873 ], [ -51.0303406, -30.001862 ], [ -51.0305622, -30.0018494 ], [ -51.0308476, -30.0018967 ], [ -51.0310373, -30.0019781 ], [ -51.0310721, -30.001997700000011 ], [ -51.0312617, -30.002104299999989 ], [ -51.0315014, -30.002264 ], [ -51.0316436, -30.0023795 ], [ -51.031833, -30.0025612 ], [ -51.0319703, -30.0027883 ], [ -51.032108896589705, -30.003332286614782 ], [ -51.032511374755401, -30.003831216133232 ], [ -51.0325406, -30.0037712 ], [ -51.0325545, -30.0036964 ], [ -51.0327549, -30.0019048 ], [ -51.0330582, -30.0010536 ], [ -51.0330838, -30.0010125 ], [ -51.0331164, -30.0009799 ], [ -51.0331915, -30.0009154 ], [ -51.0349188, -29.9994977 ], [ -51.0371703, -29.9975585 ], [ -51.0375285, -29.9959323 ], [ -51.0374739, -29.995915300000011 ], [ -51.0374372, -29.9959039 ], [ -51.0355623, -29.9953126 ], [ -51.0324924, -29.9942325 ], [ -51.0316536, -29.9939525 ], [ -51.0305856, -29.9936134 ], [ -51.0328097, -29.9774081 ], [ -51.0338252, -29.977792 ], [ -51.0338958, -29.9772446 ], [ -51.0364893, -29.9687848 ], [ -51.0365001, -29.9687358 ], [ -51.0364723, -29.9687417 ], [ -51.0364624, -29.968290299999989 ], [ -51.0364985, -29.9682591 ], [ -51.0365062, -29.9681769 ], [ -51.0364653, -29.968170099999988 ], [ -51.0364067, -29.9683416 ], [ -51.0363544, -29.9683323 ], [ -51.0364489, -29.96776 ], [ -51.0366774, -29.9674181 ], [ -51.0368903, -29.9673461 ], [ -51.0370461, -29.9671616 ], [ -51.0369734, -29.9669547 ], [ -51.0366358, -29.9669007 ], [ -51.0362204, -29.9668017 ], [ -51.0357218, -29.9666488 ], [ -51.0354725, -29.9664058 ], [ -51.035501639016097, -29.966312555219702 ], [ -51.034640168968906, -29.965966677295135 ], [ -51.0341275, -29.9659739 ], [ -51.0337173, -29.965686 ], [ -51.033538574597927, -29.96552437836727 ], [ -51.031668498208695, -29.964773497639293 ], [ -51.0313596, -29.9647952 ], [ -51.0310584, -29.9647052 ], [ -51.0308299, -29.9643588 ], [ -51.0306236, -29.9639401 ], [ -51.0300509, -29.9628831 ], [ -51.0293469, -29.9623042 ], [ -51.0285529, -29.9617187 ], [ -51.0278556, -29.9618116 ], [ -51.02706160000001, -29.9618767 ], [ -51.025978, -29.9612725 ], [ -51.0254309, -29.9608635 ], [ -51.0248622, -29.960352299999986 ], [ -51.023843, -29.9600827 ], [ -51.0234889, -29.9602779 ], [ -51.0224697, -29.96025 ], [ -51.0219976, -29.9600177 ], [ -51.0193905, -29.9592554 ], [ -51.0175773, -29.9590417 ], [ -51.0161075, -29.9585955 ], [ -51.0151526, -29.958223699999987 ], [ -51.0113975, -29.9570803 ], [ -51.0102066, -29.9568108 ], [ -51.009123, -29.9568108 ], [ -51.007857, -29.9569502 ], [ -51.0076103, -29.9573034 ], [ -51.0079321, -29.9577682 ], [ -51.00776050000001, -29.9581214 ], [ -51.0074386, -29.9582609 ], [ -51.0067198, -29.9580378 ], [ -51.0063335, -29.9582423 ], [ -51.0063443, -29.9589301 ], [ -51.0063979, -29.9595343 ], [ -51.00646230000001, -29.9600641 ], [ -51.006237, -29.9604824 ], [ -51.0058722, -29.9609844 ], [ -51.005734178326954, -29.961025602597491 ], [ -51.005531517807256, -29.961684126309006 ], [ -51.0055181, -29.9619603 ], [ -51.0057327, -29.962583099999989 ], [ -51.005561, -29.963559099999987 ], [ -51.0054216, -29.9641725 ], [ -51.0050675, -29.9645815 ], [ -51.0046598, -29.9649161 ], [ -51.0042092, -29.9647581 ], [ -51.0039088, -29.9645257 ], [ -51.0032543, -29.964284100000011 ], [ -51.0033402, -29.9639401 ], [ -51.0036942, -29.9638844 ], [ -51.004059, -29.9636148 ], [ -51.0041234, -29.9634475 ], [ -51.0034689, -29.9633174 ], [ -51.0026964, -29.9632337 ], [ -51.00216, -29.9630757 ], [ -51.00097980000001, -29.9633453 ], [ -51.000658, -29.9633825 ], [ -51.000316989434019, -29.963419341855243 ], [ -50.999839357548879, -29.963983869925105 ], [ -50.9997353, -29.9641353 ], [ -50.9993812, -29.964711600000015 ], [ -50.9990808, -29.965009 ], [ -50.9985873, -29.9651578 ], [ -50.9982225, -29.9651764 ], [ -50.9977826, -29.9652135 ], [ -50.9974715, -29.9652507 ], [ -50.9970102, -29.9652228 ], [ -50.9966025, -29.9651206 ], [ -50.996409116048945, -29.964947043944402 ], [ -50.995998780717159, -29.964844070315841 ], [ -50.9955189, -29.965009 ], [ -50.994682, -29.9649998 ], [ -50.9941134, -29.9648975 ], [ -50.9938237, -29.964786 ], [ -50.9925362, -29.9641167 ], [ -50.992031002924932, -29.963848279739935 ], [ -50.990613803071987, -29.963492572217241 ], [ -50.9897682, -29.9635684 ], [ -50.9894034, -29.9634847 ], [ -50.9883091, -29.9633639 ], [ -50.98761964870166, -29.963645775321904 ], [ -50.987182153000198, -29.964082237564568 ], [ -50.9869251, -29.9645722 ], [ -50.9860989, -29.9658177 ], [ -50.9855303, -29.966626300000016 ], [ -50.9839854, -29.967342 ], [ -50.9829876, -29.9668959 ], [ -50.9826443, -29.9663382 ], [ -50.9828374, -29.9660036 ], [ -50.9832376, -29.9656593 ], [ -50.9845969, -29.965353 ], [ -50.984318, -29.9652414 ], [ -50.983524, -29.9654087 ], [ -50.9832665, -29.9652693 ], [ -50.9831592, -29.9648975 ], [ -50.9831592, -29.9645908 ], [ -50.9833738, -29.9644792 ], [ -50.9837922, -29.9646094 ], [ -50.9839317, -29.9643584 ], [ -50.9836742, -29.9641818 ], [ -50.9831378, -29.9642097 ], [ -50.9826872, -29.96415390000001 ], [ -50.9822687, -29.9641818 ], [ -50.9813997, -29.9642655 ], [ -50.9805736, -29.9642655 ], [ -50.9796402, -29.9642748 ], [ -50.9781596, -29.9648324 ], [ -50.977744784564514, -29.964912308845374 ], [ -50.973432855823383, -29.966564341109116 ], [ -50.973278, -29.96671 ], [ -50.9730956, -29.9668215 ], [ -50.9717223, -29.9675929 ], [ -50.9709498, -29.9678532 ], [ -50.9701881, -29.9680856 ], [ -50.9689972, -29.9682157 ], [ -50.9673986, -29.968299300000016 ], [ -50.9667548, -29.9681041 ], [ -50.966154, -29.9678904 ], [ -50.9656069, -29.9677231 ], [ -50.9650275, -29.9674442 ], [ -50.9642872, -29.9668401 ], [ -50.964255, -29.9662452 ], [ -50.9645018, -29.9653901 ], [ -50.964534, -29.9645815 ], [ -50.9644374, -29.9641353 ], [ -50.96477, -29.9638007 ], [ -50.9647056, -29.9635405 ], [ -50.9643301, -29.9630107 ], [ -50.9639546, -29.9625645 ], [ -50.9632894, -29.9622857 ], [ -50.9621522, -29.9620812 ], [ -50.9611115, -29.961886 ], [ -50.9602639, -29.9617651 ], [ -50.9592447, -29.9617558 ], [ -50.9583005, -29.9617187 ], [ -50.9575066, -29.961662899999986 ], [ -50.9561118, -29.961569900000015 ], [ -50.9548029, -29.96140260000001 ], [ -50.9540626, -29.9612539 ], [ -50.953573898839096, -29.961088914206051 ], [ -50.949525324531244, -29.960747740552492 ], [ -50.9493312, -29.960752 ], [ -50.9490308, -29.9607984 ], [ -50.948799943595709, -29.961413990326122 ], [ -50.949035196578777, -29.96367620814609 ], [ -50.9492668, -29.9641911 ], [ -50.9495391, -29.9655567 ], [ -50.9494394, -29.9662627 ], [ -50.9499112, -29.9663013 ] ] ] } },
{ "type": "Feature", "properties": { "name": "Formosa / Maria Regina", "code_muni": 4300604.0, "name_muni": "Alvorada" }, "geometry": { "type": "Polygon", "coordinates": [ [ [ -51.0601726, -30.0010631 ], [ -51.0600625, -30.0016931 ], [ -51.0599507, -30.002333 ], [ -51.0598766, -30.0030066 ], [ -51.05979, -30.0037946 ], [ -51.059701, -30.0046047 ], [ -51.0595509, -30.0059702 ], [ -51.0593535, -30.0077656 ], [ -51.0593519, -30.0078566 ], [ -51.0593642, -30.0079514 ], [ -51.0594827, -30.0082339 ], [ -51.0596002, -30.0084717 ], [ -51.0596314, -30.0085836 ], [ -51.0596324, -30.008704 ], [ -51.0596217, -30.0090106 ], [ -51.0596361, -30.0091545 ], [ -51.0596646, -30.0092986 ], [ -51.059965, -30.0098467 ], [ -51.0610668, -30.0116951 ], [ -51.0611767, -30.0112058 ], [ -51.0612835, -30.0095004 ], [ -51.0613117, -30.0090499 ], [ -51.062897, -30.0087117 ], [ -51.0630943, -30.009278 ], [ -51.0646118, -30.0090567 ], [ -51.0647022, -30.0094624 ], [ -51.0650041, -30.0108175 ], [ -51.0663693, -30.010401900000012 ], [ -51.0667995, -30.0102621 ], [ -51.0672631, -30.0101415 ], [ -51.0672621, -30.0101125 ], [ -51.067781, -30.0100113 ], [ -51.0680615, -30.0098798 ], [ -51.0682377, -30.0097972 ], [ -51.0698566, -30.0092385 ], [ -51.0701503, -30.0097404 ], [ -51.0708493, -30.0098924 ], [ -51.071673, -30.0099284 ], [ -51.0728468, -30.0096152 ], [ -51.0729318, -30.0095883 ], [ -51.0730523, -30.0094061 ], [ -51.0731324, -30.009205 ], [ -51.0732819, -30.0075088 ], [ -51.0736441, -30.0075374 ], [ -51.0737557, -30.0063153 ], [ -51.0737905, -30.0061879 ], [ -51.0737761, -30.0060779 ], [ -51.0737806, -30.005988 ], [ -51.0737833, -30.0059331 ], [ -51.0738188, -30.0056183 ], [ -51.0738251, -30.0055626 ], [ -51.0738718, -30.0051353 ], [ -51.0739736, -30.004331 ], [ -51.0739864, -30.0042285 ], [ -51.0740325, -30.003628699999989 ], [ -51.074037, -30.0035715 ], [ -51.0740398, -30.0035366 ], [ -51.0741033, -30.0025395 ], [ -51.0741461, -30.0017116 ], [ -51.0740496, -30.0012656 ], [ -51.0738649, -30.0008765 ], [ -51.0736724, -30.0006601 ], [ -51.0728981, -30.0010239 ], [ -51.0728418, -30.0009331 ], [ -51.0720358, -29.9996326 ], [ -51.0714777, -29.998705 ], [ -51.0711796, -29.9982668 ], [ -51.0706511, -29.997705 ], [ -51.0704791, -29.9975095 ], [ -51.070129, -29.9971595 ], [ -51.0697391, -29.9968181 ], [ -51.0696152, -29.9966582 ], [ -51.0695213, -29.9964983 ], [ -51.069331, -29.9956916 ], [ -51.0693301, -29.995634 ], [ -51.069333, -29.9955795 ], [ -51.0693663, -29.9955022 ], [ -51.0690105, -29.9953499 ], [ -51.0690642, -29.9943762 ], [ -51.069145, -29.993441499999985 ], [ -51.0691443, -29.993361 ], [ -51.0693871, -29.9906495 ], [ -51.0696354, -29.9879708 ], [ -51.0698785, -29.985425799999987 ], [ -51.0699359, -29.9853368 ], [ -51.0700132, -29.9840466 ], [ -51.0699596, -29.9837585 ], [ -51.0699596, -29.9833217 ], [ -51.0700991, -29.9827177 ], [ -51.0704088, -29.9795035 ], [ -51.0711505, -29.971807 ], [ -51.0711719, -29.9710728 ], [ -51.0709885, -29.9706832 ], [ -51.0707653, -29.9708319 ], [ -51.0703705, -29.970936 ], [ -51.0699328, -29.9709137 ], [ -51.069724186034868, -29.970826449288342 ], [ -51.069028669720211, -29.971010520526924 ], [ -51.0690745, -29.9712409 ], [ -51.0691088, -29.9715606 ], [ -51.0689801, -29.971880299999984 ], [ -51.0686882, -29.9721257 ], [ -51.0681389, -29.972393300000014 ], [ -51.0677613, -29.9724082 ], [ -51.067478, -29.972356200000011 ], [ -51.0673064, -29.9723413 ], [ -51.066963, -29.97249 ], [ -51.0664395, -29.972542 ], [ -51.0660361, -29.9724156 ], [ -51.065667, -29.9722372 ], [ -51.0653752, -29.9721777 ], [ -51.0650748, -29.9722669 ], [ -51.0646542, -29.972371 ], [ -51.064371, -29.9722818 ], [ -51.0640877, -29.972148 ], [ -51.0638045, -29.9717019 ], [ -51.0638903, -29.971226 ], [ -51.0641221, -29.9704379 ], [ -51.0642508, -29.9701925 ], [ -51.0641736, -29.9695456 ], [ -51.0640963, -29.9692482 ], [ -51.0641306, -29.9689731 ], [ -51.0644053, -29.9686013 ], [ -51.064499582963848, -29.968383431084519 ], [ -51.064493828219547, -29.968210117976437 ], [ -51.0644225, -29.9680436 ], [ -51.063979979268801, -29.967874086019286 ], [ -51.063973990070494, -29.96787251157836 ], [ -51.063444, -29.9678503 ], [ -51.0627488, -29.9677983 ], [ -51.0622681, -29.9677313 ], [ -51.061899, -29.967486 ], [ -51.0617188, -29.9671142 ], [ -51.0618733, -29.9664376 ], [ -51.0621394, -29.9660732 ], [ -51.062156336100294, -29.966054009353993 ], [ -51.062274400248036, -29.965384495430847 ], [ -51.0620535, -29.9652627 ], [ -51.061796, -29.9652107 ], [ -51.0615214, -29.9652107 ], [ -51.0611351, -29.9651809 ], [ -51.0608519, -29.9651586 ], [ -51.0606888, -29.9650619 ], [ -51.0601653, -29.964890900000011 ], [ -51.0598906, -29.9648166 ], [ -51.0595129, -29.9648612 ], [ -51.059315396600653, -29.964875071983418 ], [ -51.05881734322751, -29.965526034584773 ], [ -51.0588091, -29.9655973 ], [ -51.0587576, -29.9659319 ], [ -51.0586546, -29.966207 ], [ -51.0584744, -29.9663781 ], [ -51.0580023, -29.9664896 ], [ -51.0576504, -29.966497 ], [ -51.0573843, -29.9664599 ], [ -51.057384299999931, -29.966384538229608 ], [ -51.057110858202272, -29.966394910253221 ], [ -51.0571011, -29.9664152 ], [ -51.0569294, -29.9664524 ], [ -51.056689705694382, -29.966410884032907 ], [ -51.056132963346222, -29.96643199848894 ], [ -51.0558823, -29.9665863 ], [ -51.055745, -29.9667424 ], [ -51.0553587, -29.9667201 ], [ -51.054921, -29.9665863 ], [ -51.0547064, -29.9663929 ], [ -51.054509, -29.9661476 ], [ -51.0542944, -29.9659319 ], [ -51.0540983, -29.9658735 ], [ -51.0540339, -29.9661988 ], [ -51.0537228, -29.9660315 ], [ -51.0534331, -29.9660129 ], [ -51.0527572, -29.9659664 ], [ -51.0523602, -29.966143 ], [ -51.0519096, -29.9662452 ], [ -51.0512766, -29.9664218 ], [ -51.0510942, -29.9668122 ], [ -51.050944, -29.967035299999985 ], [ -51.0511693, -29.9671654 ], [ -51.0514625, -29.9672288 ], [ -51.0516134, -29.9675233 ], [ -51.0512838, -29.9678506 ], [ -51.0513895, -29.9682167 ], [ -51.0512758, -29.9684485 ], [ -51.0509493, -29.9685931 ], [ -51.050746, -29.9691554 ], [ -51.0504689, -29.9694058 ], [ -51.0502839, -29.9694101 ], [ -51.049153, -29.9707011 ], [ -51.048324, -29.9716196 ], [ -51.0478854, -29.9720146 ], [ -51.0473233, -29.9725318 ], [ -51.0471134, -29.9730022 ], [ -51.0470336, -29.9733554 ], [ -51.04708, -29.9738134 ], [ -51.0474877, -29.974380300000011 ], [ -51.0489147, -29.9755699 ], [ -51.0496335, -29.976174 ], [ -51.0501485, -29.9766387 ], [ -51.0502772, -29.9768803 ], [ -51.0509853, -29.9773171 ], [ -51.0515218, -29.9779119 ], [ -51.0523586, -29.9789899 ], [ -51.0524015, -29.979278 ], [ -51.052501, -29.9795443 ], [ -51.0527234, -29.9799378 ], [ -51.053292, -29.9813504 ], [ -51.0535924, -29.982196099999989 ], [ -51.0536675, -29.9823262 ], [ -51.0536568, -29.9824749 ], [ -51.0537319, -29.9827444 ], [ -51.0538285, -29.983302 ], [ -51.0538392, -29.9834878 ], [ -51.0538398, -29.9835061 ], [ -51.0538507, -29.9838229 ], [ -51.0537963, -29.9842406 ], [ -51.0537148, -29.984379299999986 ], [ -51.05368450000001, -29.9844309 ], [ -51.0532598, -29.985365 ], [ -51.0532277, -29.985681 ], [ -51.0528092, -29.986368599999988 ], [ -51.0526113, -29.9867764 ], [ -51.0526143, -29.9869599 ], [ -51.0527143, -29.9875857 ], [ -51.0529524, -29.9890756 ], [ -51.0530678, -29.9897665 ], [ -51.0531864, -29.9904766 ], [ -51.0533023, -29.9911704 ], [ -51.05342550000001, -29.9918948 ], [ -51.0534461, -29.9920205 ], [ -51.0535456, -29.9925779 ], [ -51.0536678, -29.9932621 ], [ -51.0537927, -29.9939614 ], [ -51.0539173, -29.9946587 ], [ -51.0540402, -29.9953471 ], [ -51.0541672, -29.9960578 ], [ -51.0543224, -29.9969268 ], [ -51.0543804, -29.9976708 ], [ -51.0544337, -29.9983542 ], [ -51.0544883, -29.999055 ], [ -51.0545433, -29.9997597 ], [ -51.0545929, -30.0004713 ], [ -51.0543533, -30.0007784 ], [ -51.0541184, -30.0011439 ], [ -51.0540918, -30.0011418 ], [ -51.0547649, -30.0024669 ], [ -51.0547821, -30.002502 ], [ -51.0548448, -30.0024821 ], [ -51.055023, -30.0024313 ], [ -51.0560928, -30.0021225 ], [ -51.0567153, -30.0019783 ], [ -51.0570527, -30.0018826 ], [ -51.0573688, -30.0017562 ], [ -51.0589492, -30.000831800000011 ], [ -51.0590478, -30.0007791 ], [ -51.0600451, -30.0002678 ], [ -51.0603223, -30.0002058 ], [ -51.0601726, -30.0010631 ] ] ] } },
{ "type": "Feature", "properties": { "name": "Intersul", "code_muni": 4300604.0, "name_muni": "Alvorada" }, "geometry": { "type": "Polygon", "coordinates": [ [ [ -51.0911345, -30.0106257 ], [ -51.0908073, -30.0104097 ], [ -51.0903094, -30.0101808 ], [ -51.0899462, -30.0100681 ], [ -51.0895648, -30.0100169 ], [ -51.0891757, -30.010059500000011 ], [ -51.088724, -30.0102398 ], [ -51.088546, -30.0103954 ], [ -51.088251, -30.0105941 ], [ -51.0877503, -30.0109367 ], [ -51.0874028, -30.0111893 ], [ -51.0872463, -30.0112987 ], [ -51.0870659, -30.0114025 ], [ -51.0868533, -30.0115065 ], [ -51.0863501, -30.0117073 ], [ -51.0859334, -30.011877 ], [ -51.0856578, -30.0119801 ], [ -51.0853007, -30.01208 ], [ -51.0844639, -30.0122292 ], [ -51.0842063, -30.0122751 ], [ -51.0836231, -30.012393 ], [ -51.0830849, -30.0125164 ], [ -51.0826998, -30.0126394 ], [ -51.0826148, -30.0126812 ], [ -51.0822103, -30.0129833 ], [ -51.0821367, -30.0130428 ], [ -51.0819239, -30.013223 ], [ -51.0814664, -30.013556 ], [ -51.0812998, -30.013620899999985 ], [ -51.0811152, -30.013650500000011 ], [ -51.0810978, -30.0136513 ], [ -51.0809198, -30.0136594 ], [ -51.0807206, -30.0136461 ], [ -51.0804563, -30.0136284 ], [ -51.080076, -30.013603 ], [ -51.0797955, -30.0135718 ], [ -51.0796568, -30.0135564 ], [ -51.0793118, -30.013502 ], [ -51.0791952, -30.0134836 ], [ -51.0784276, -30.0133298 ], [ -51.0777429, -30.0132314 ], [ -51.0775631, -30.01322 ], [ -51.0773399, -30.0132598 ], [ -51.0769644, -30.0134178 ], [ -51.0763314, -30.0137801 ], [ -51.0756854, -30.014222 ], [ -51.0751071, -30.0147121 ], [ -51.0749518, -30.014839 ], [ -51.0748487, -30.0149288 ], [ -51.0747564, -30.0150329 ], [ -51.0747037, -30.0151593 ], [ -51.0746755, -30.0152444 ], [ -51.0746456, -30.0153501 ], [ -51.074599, -30.0154994 ], [ -51.0744068, -30.0160858 ], [ -51.0743195, -30.0162611 ], [ -51.0741856, -30.0165299 ], [ -51.0740607, -30.0167117 ], [ -51.0739791, -30.0168248 ], [ -51.0738342, -30.0169695 ], [ -51.0736377, -30.0171117 ], [ -51.0735512, -30.0171555 ], [ -51.07322, -30.0172917 ], [ -51.0730894, -30.017312 ], [ -51.072953, -30.0173254 ], [ -51.0728149, -30.0173179 ], [ -51.0726466, -30.0172831 ], [ -51.0723056, -30.0171651 ], [ -51.0714111, -30.0168195 ], [ -51.0712203, -30.016764 ], [ -51.0690367, -30.0164213 ], [ -51.0684816, -30.016337799999988 ], [ -51.0678427, -30.0156942 ], [ -51.067553, -30.0154155 ], [ -51.0671989, -30.015118199999989 ], [ -51.0665488, -30.0146197 ], [ -51.0662066, -30.014802800000012 ], [ -51.0659066, -30.0149633 ], [ -51.0650161, -30.0155423 ], [ -51.0646562, -30.0158521 ], [ -51.0644202, -30.0161865 ], [ -51.0643137, -30.016469 ], [ -51.0641809, -30.0167779 ], [ -51.0639696, -30.0172642 ], [ -51.0638515, -30.0176636 ], [ -51.0638166, -30.0178056 ], [ -51.0637012, -30.0182975 ], [ -51.0636723, -30.0184753 ], [ -51.0635189, -30.0194194 ], [ -51.0634009, -30.0204319 ], [ -51.0633029, -30.021590299999986 ], [ -51.0629603, -30.0218906 ], [ -51.0628319, -30.0220032 ], [ -51.0622269, -30.0227372 ], [ -51.0615685, -30.0235435 ], [ -51.0613654, -30.023766 ], [ -51.0610337, -30.0240984 ], [ -51.0608837, -30.0242263 ], [ -51.0606493, -30.024383599999986 ], [ -51.0603677, -30.0260004 ], [ -51.0613971, -30.0259744 ], [ -51.0620039, -30.02597 ], [ -51.0623796, -30.025945 ], [ -51.0624034, -30.0259468 ], [ -51.0625908, -30.0264557 ], [ -51.0628396, -30.0269818 ], [ -51.0636908, -30.0288692 ], [ -51.0641704, -30.0292389 ], [ -51.0646139, -30.0291747 ], [ -51.065078, -30.029188 ], [ -51.0656507, -30.029277 ], [ -51.066358, -30.0295177 ], [ -51.0669458, -30.0299316 ], [ -51.0673556, -30.030451 ], [ -51.0683156, -30.0312501 ], [ -51.0684176, -30.0311351 ], [ -51.0693735, -30.0300581 ], [ -51.0708865, -30.0284279 ], [ -51.0701728, -30.027925 ], [ -51.0692575, -30.0272802 ], [ -51.0702195, -30.0259849 ], [ -51.0706725, -30.0254149 ], [ -51.0708043, -30.0255875 ], [ -51.07148, -30.0264728 ], [ -51.0722265, -30.026631 ], [ -51.0728691, -30.0272693 ], [ -51.0734179, -30.0273042 ], [ -51.074021, -30.027481 ], [ -51.0742711, -30.0276303 ], [ -51.0745522, -30.0276482 ], [ -51.0745599, -30.0273282 ], [ -51.0745684, -30.0269773 ], [ -51.0745302, -30.0269185 ], [ -51.0745685, -30.0268776 ], [ -51.0750507, -30.0262709 ], [ -51.0752479, -30.026017 ], [ -51.0752011, -30.0255682 ], [ -51.075109, -30.0246861 ], [ -51.0750373, -30.0239985 ], [ -51.0749869, -30.023515 ], [ -51.0749684, -30.0233378 ], [ -51.0748951, -30.0226358 ], [ -51.0756836, -30.0226039 ], [ -51.0756367, -30.0220497 ], [ -51.0760172, -30.0221095 ], [ -51.0764222, -30.0221632 ], [ -51.0769728, -30.0222082 ], [ -51.0779763, -30.022323 ], [ -51.0784654, -30.0222024 ], [ -51.0790118, -30.022111 ], [ -51.0797653, -30.0220449 ], [ -51.0802509, -30.021990800000012 ], [ -51.08098050000001, -30.0219629 ], [ -51.0817208, -30.0220001 ], [ -51.0827126, -30.0214407 ], [ -51.0833748, -30.0210666 ], [ -51.0840806, -30.0206438 ], [ -51.0847723, -30.0202932 ], [ -51.0850485, -30.0201376 ], [ -51.0854709, -30.0209165 ], [ -51.0859588, -30.0217689 ], [ -51.0864873, -30.0222467 ], [ -51.08659685525059, -30.022345700434613 ], [ -51.08845877735839, -30.018952447677417 ], [ -51.0884395, -30.0188467 ], [ -51.0884124, -30.0187618 ], [ -51.0884466, -30.0185782 ], [ -51.0885597, -30.0184082 ], [ -51.0887281, -30.0182734 ], [ -51.088909475754853, -30.018131035267814 ], [ -51.089025991, -30.01791868 ], [ -51.08910163282134, -30.01791332859727 ], [ -51.0891261, -30.0178731 ], [ -51.0893117, -30.0178091 ], [ -51.0894851, -30.0178194 ], [ -51.089586429061185, -30.017879029859049 ], [ -51.090548602871877, -30.017810951885497 ], [ -51.0905401, -30.0175866 ], [ -51.0905175, -30.017471 ], [ -51.0905303, -30.0173615 ], [ -51.0908099, -30.0174336 ], [ -51.0912032, -30.0173232 ], [ -51.0914644, -30.0173687 ], [ -51.0918384, -30.0175312 ], [ -51.0920834, -30.017635 ], [ -51.0922687, -30.0176862 ], [ -51.092572372288949, -30.017580483965286 ], [ -51.0930567728158, -30.017026769063317 ], [ -51.0930743, -30.016877199999989 ], [ -51.0933833, -30.016409 ], [ -51.093558, -30.0162933 ], [ -51.093718662884058, -30.016270154211217 ], [ -51.094345868186323, -30.015553174226234 ], [ -51.0943426, -30.0153579 ], [ -51.0942244, -30.0152316 ], [ -51.0940312, -30.0151155 ], [ -51.093932700000011, -30.014885499999988 ], [ -51.0937696, -30.0146328 ], [ -51.0935462, -30.0141971 ], [ -51.0934595, -30.0140401 ], [ -51.0933806, -30.0138899 ], [ -51.0930336, -30.013289 ], [ -51.092937, -30.0130943 ], [ -51.0928128, -30.0128929 ], [ -51.0926881, -30.0127004 ], [ -51.0927616, -30.0123842 ], [ -51.0928562, -30.0121214 ], [ -51.0929542, -30.0119275 ], [ -51.0930794, -30.0114503 ], [ -51.0917901, -30.0110545 ], [ -51.0911787, -30.0106578 ], [ -51.0911507, -30.010637 ], [ -51.0911345, -30.0106257 ] ] ] } },
{ "type": "Feature", "properties": { "name": "Piratini", "code_muni": 4300604.0, "name_muni": "Alvorada" }, "geometry": { "type": "Polygon", "coordinates": [ [ [ -51.0545842, -30.0209108 ], [ -51.0542713, -30.0198792 ], [ -51.0546537, -30.019783099999987 ], [ -51.0554074, -30.019588200000012 ], [ -51.0552751, -30.0194251 ], [ -51.0559655, -30.0186621 ], [ -51.0569968, -30.018087 ], [ -51.058225, -30.0173127 ], [ -51.05708, -30.0164258 ], [ -51.0564748, -30.0159384 ], [ -51.056086, -30.0156318 ], [ -51.0560231, -30.0154746 ], [ -51.055976, -30.0152985 ], [ -51.0558321, -30.0145384 ], [ -51.0556335, -30.0134709 ], [ -51.0554154, -30.012224 ], [ -51.0552966, -30.012206 ], [ -51.0552063, -30.012159 ], [ -51.0551347, -30.0121041 ], [ -51.0550533, -30.012017599999989 ], [ -51.0549813, -30.0119264 ], [ -51.054916, -30.0118295 ], [ -51.0548792, -30.0117528 ], [ -51.0548556, -30.0116817 ], [ -51.0548071, -30.0115545 ], [ -51.0547262, -30.0113383 ], [ -51.0546682, -30.0110469 ], [ -51.0546606, -30.0103975 ], [ -51.0545224, -30.0068187 ], [ -51.0545301, -30.0065402 ], [ -51.0545913, -30.0061358 ], [ -51.0550439, -30.0026284 ], [ -51.055048, -30.0025413 ], [ -51.0550361, -30.0024686 ], [ -51.055023, -30.0024313 ], [ -51.0548448, -30.0024821 ], [ -51.0547821, -30.002502 ], [ -51.0547195, -30.002522 ], [ -51.0539183, -30.0027605 ], [ -51.0535376, -30.0028936 ], [ -51.05326, -30.0030226 ], [ -51.0530409, -30.0031429 ], [ -51.0529974, -30.0030895 ], [ -51.052716, -30.0027128 ], [ -51.0505252, -30.0003834 ], [ -51.0500244, -29.9998315 ], [ -51.0496891, -29.9994626 ], [ -51.0493752, -29.9991161 ], [ -51.0490943, -29.998806499999986 ], [ -51.0486777, -29.998529 ], [ -51.0475786, -29.9980145 ], [ -51.0473044, -29.997877 ], [ -51.04711, -29.997735299999984 ], [ -51.0469274, -29.9975421 ], [ -51.04690440000001, -29.9975114 ], [ -51.0468561, -29.997538 ], [ -51.0464475, -29.9977629 ], [ -51.0455329, -29.9982663 ], [ -51.0445029, -29.9990096 ], [ -51.044407, -29.9992397 ], [ -51.044194, -29.9995259 ], [ -51.0440839, -29.999653099999986 ], [ -51.0440104, -29.9999712 ], [ -51.0438428, -30.0003019 ], [ -51.0434086, -30.0007378 ], [ -51.0420782, -30.0016855 ], [ -51.0414195, -30.0026362 ], [ -51.0413057, -30.00280050000001 ], [ -51.0411181, -30.0032456 ], [ -51.0408207, -30.003814800000011 ], [ -51.040275800000011, -30.0049932 ], [ -51.0402478, -30.0055225 ], [ -51.0400789, -30.0058627 ], [ -51.0396501, -30.0065395 ], [ -51.039648835257751, -30.006541542255576 ], [ -51.039669697, -30.006548655999893 ], [ -51.037396174544767, -30.011369537407909 ], [ -51.0374519, -30.0117898 ], [ -51.0374727, -30.012185 ], [ -51.0374701, -30.0122455 ], [ -51.03745940000001, -30.0122815 ], [ -51.0373883, -30.0124336 ], [ -51.037344, -30.0125591 ], [ -51.0372798, -30.0126958 ], [ -51.0372488, -30.0127658 ], [ -51.0372019, -30.0128564 ], [ -51.0370356, -30.0130549 ], [ -51.0366958, -30.0133789 ], [ -51.036638600000011, -30.0134416 ], [ -51.0366078, -30.0134695 ], [ -51.0365702, -30.0135264 ], [ -51.0365354, -30.01361 ], [ -51.0365139, -30.0136611 ], [ -51.0364978, -30.0137122 ], [ -51.0364552, -30.0137944 ], [ -51.0363369, -30.0139015 ], [ -51.03628, -30.0139757 ], [ -51.0362268, -30.0140597 ], [ -51.0361746, -30.0141686 ], [ -51.0361411, -30.0142139 ], [ -51.0360767, -30.0142545 ], [ -51.0360257, -30.0142998 ], [ -51.035993907679078, -30.014342715000577 ], [ -51.035883484796358, -30.014576832578729 ], [ -51.0358809, -30.0145855 ], [ -51.035874510774867, -30.014595859163688 ], [ -51.035144291782068, -30.016144031910514 ], [ -51.0351235, -30.0166691 ], [ -51.0348847, -30.0172739 ], [ -51.034241156329394, -30.018124823199543 ], [ -51.035008289, -30.021359560000011 ], [ -51.034167422765371, -30.02257881899439 ], [ -51.034133, -30.0226424 ], [ -51.034118097097654, -30.02265034028655 ], [ -51.033710916002462, -30.023240740576441 ], [ -51.034064, -30.023337499999986 ], [ -51.040687468743251, -30.025116740473258 ], [ -51.05081389054186, -30.027656091808552 ], [ -51.0512104, -30.0256677 ], [ -51.0515604, -30.025253199999987 ], [ -51.0521887, -30.0247309 ], [ -51.0535024, -30.0236613 ], [ -51.0538589, -30.0233693 ], [ -51.053742, -30.022368099999987 ], [ -51.0538474, -30.0220166 ], [ -51.0541633, -30.0217242 ], [ -51.0547542, -30.0214703 ], [ -51.0545842, -30.0209108 ] ] ] } },
{ "type": "Feature", "properties": { "name": "Umbu", "code_muni": 4300604.0, "name_muni": "Alvorada" }, "geometry": { "type": "Polygon", "coordinates": [ [ [ -51.0533023, -29.9911704 ], [ -51.0531864, -29.9904766 ], [ -51.0530678, -29.9897665 ], [ -51.0529524, -29.9890756 ], [ -51.0527143, -29.9875857 ], [ -51.0526143, -29.9869599 ], [ -51.0526113, -29.9867764 ], [ -51.0528092, -29.986368599999988 ], [ -51.0532277, -29.985681 ], [ -51.0532598, -29.985365 ], [ -51.05368450000001, -29.9844309 ], [ -51.0537148, -29.984379299999986 ], [ -51.0537963, -29.9842406 ], [ -51.0538507, -29.9838229 ], [ -51.0538398, -29.9835061 ], [ -51.0538392, -29.9834878 ], [ -51.0538285, -29.983302 ], [ -51.0537319, -29.9827444 ], [ -51.0536568, -29.9824749 ], [ -51.0536675, -29.9823262 ], [ -51.0535924, -29.982196099999989 ], [ -51.053292, -29.9813504 ], [ -51.0527234, -29.9799378 ], [ -51.052501, -29.9795443 ], [ -51.0524015, -29.979278 ], [ -51.0523586, -29.9789899 ], [ -51.0515218, -29.9779119 ], [ -51.0509853, -29.9773171 ], [ -51.0502772, -29.9768803 ], [ -51.0501485, -29.9766387 ], [ -51.0496335, -29.976174 ], [ -51.0489147, -29.9755699 ], [ -51.0474877, -29.974380300000011 ], [ -51.04708, -29.9738134 ], [ -51.0470336, -29.9733554 ], [ -51.0471134, -29.9730022 ], [ -51.0473233, -29.9725318 ], [ -51.0478854, -29.9720146 ], [ -51.048324, -29.9716196 ], [ -51.049153, -29.9707011 ], [ -51.0502839, -29.9694101 ], [ -51.0504689, -29.9694058 ], [ -51.050746, -29.9691554 ], [ -51.0509493, -29.9685931 ], [ -51.0512758, -29.9684485 ], [ -51.0513895, -29.9682167 ], [ -51.0512838, -29.9678506 ], [ -51.0516134, -29.9675233 ], [ -51.0514625, -29.9672288 ], [ -51.0511693, -29.9671654 ], [ -51.050944, -29.967035299999985 ], [ -51.050735150444972, -29.967011384782868 ], [ -51.051453432999899, -29.967528802999905 ], [ -51.050269398999895, -29.969094922 ], [ -51.046969886999889, -29.967903795 ], [ -51.047663307468433, -29.966552707638812 ], [ -51.0473284, -29.9663754 ], [ -51.047168681493936, -29.965586746568363 ], [ -51.046951238874762, -29.965203034001497 ], [ -51.0466203, -29.965009 ], [ -51.0464243, -29.9646707 ], [ -51.0461076, -29.964499699999987 ], [ -51.0458842, -29.9643423 ], [ -51.0452663, -29.9643333 ], [ -51.0445236, -29.9644502 ], [ -51.0441861, -29.9643513 ], [ -51.044004549467751, -29.964265738303691 ], [ -51.043279895609757, -29.964944384480997 ], [ -51.0431012, -29.9652879 ], [ -51.0428312, -29.9654835 ], [ -51.042698060020363, -29.965489270202049 ], [ -51.040554929931076, -29.967496225570475 ], [ -51.0405722, -29.967607 ], [ -51.040432, -29.967796 ], [ -51.0401256, -29.967962399999987 ], [ -51.039518, -29.9680389 ], [ -51.0392791, -29.9679984 ], [ -51.03917209909612, -29.967933184539188 ], [ -51.037482626714912, -29.968025038331348 ], [ -51.0374823, -29.9680254 ], [ -51.037206, -29.9683162 ], [ -51.0370109, -29.9682823 ], [ -51.0369241, -29.9682397 ], [ -51.0365062, -29.9681769 ], [ -51.0364985, -29.9682591 ], [ -51.0364624, -29.968290299999989 ], [ -51.0364723, -29.9687417 ], [ -51.0365001, -29.9687358 ], [ -51.0364893, -29.9687848 ], [ -51.0338958, -29.9772446 ], [ -51.0338252, -29.977792 ], [ -51.0328097, -29.9774081 ], [ -51.0305856, -29.9936134 ], [ -51.0316536, -29.9939525 ], [ -51.0324924, -29.9942325 ], [ -51.0355623, -29.9953126 ], [ -51.0374372, -29.9959039 ], [ -51.0374739, -29.995915300000011 ], [ -51.0375285, -29.9959323 ], [ -51.0371703, -29.9975585 ], [ -51.0349188, -29.9994977 ], [ -51.0331915, -30.0009154 ], [ -51.0331164, -30.0009799 ], [ -51.0330838, -30.0010125 ], [ -51.0330582, -30.0010536 ], [ -51.0327549, -30.0019048 ], [ -51.0325545, -30.0036964 ], [ -51.0325406, -30.0037712 ], [ -51.032511374755401, -30.003831216133232 ], [ -51.03281879299989, -30.0042123009999 ], [ -51.034388616170723, -30.004747697026062 ], [ -51.03442840000001, -30.0047538 ], [ -51.0351478, -30.0048569 ], [ -51.0354586, -30.004916 ], [ -51.0357328, -30.0049961 ], [ -51.0360936, -30.0051173 ], [ -51.0364057, -30.0052515 ], [ -51.0365619, -30.0053361 ], [ -51.0366603, -30.0053918 ], [ -51.036831, -30.0054979 ], [ -51.0369729, -30.0055931 ], [ -51.037130179997291, -30.005682662245945 ], [ -51.038100057224717, -30.006013405002943 ], [ -51.0387829, -30.0061903 ], [ -51.0393126, -30.0063808 ], [ -51.039551850318261, -30.006508470844771 ], [ -51.039597776028536, -30.006524131308876 ], [ -51.0396501, -30.0065395 ], [ -51.0400789, -30.0058627 ], [ -51.0402478, -30.0055225 ], [ -51.040275800000011, -30.0049932 ], [ -51.0408207, -30.003814800000011 ], [ -51.0411181, -30.0032456 ], [ -51.0413057, -30.00280050000001 ], [ -51.0414195, -30.0026362 ], [ -51.0420782, -30.0016855 ], [ -51.0434086, -30.0007378 ], [ -51.0438428, -30.0003019 ], [ -51.0440104, -29.9999712 ], [ -51.0440839, -29.999653099999986 ], [ -51.044194, -29.9995259 ], [ -51.044407, -29.9992397 ], [ -51.0445029, -29.9990096 ], [ -51.0455329, -29.9982663 ], [ -51.0464475, -29.9977629 ], [ -51.0468561, -29.997538 ], [ -51.04690440000001, -29.9975114 ], [ -51.0469274, -29.9975421 ], [ -51.04711, -29.997735299999984 ], [ -51.0473044, -29.997877 ], [ -51.0475786, -29.9980145 ], [ -51.0486777, -29.998529 ], [ -51.0490943, -29.998806499999986 ], [ -51.0493752, -29.9991161 ], [ -51.0496891, -29.9994626 ], [ -51.0500244, -29.9998315 ], [ -51.0505252, -30.0003834 ], [ -51.052716, -30.0027128 ], [ -51.0529974, -30.0030895 ], [ -51.0530409, -30.0031429 ], [ -51.05326, -30.0030226 ], [ -51.0535376, -30.0028936 ], [ -51.0539183, -30.0027605 ], [ -51.0547195, -30.002522 ], [ -51.0547821, -30.002502 ], [ -51.0547649, -30.0024669 ], [ -51.0540918, -30.0011418 ], [ -51.0541184, -30.0011439 ], [ -51.0543533, -30.0007784 ], [ -51.0545929, -30.0004713 ], [ -51.0545433, -29.9997597 ], [ -51.0544883, -29.999055 ], [ -51.0544337, -29.9983542 ], [ -51.0543804, -29.9976708 ], [ -51.0543224, -29.9969268 ], [ -51.0541672, -29.9960578 ], [ -51.0540402, -29.9953471 ], [ -51.0539173, -29.9946587 ], [ -51.0537927, -29.9939614 ], [ -51.0536678, -29.9932621 ], [ -51.0535456, -29.9925779 ], [ -51.0534461, -29.9920205 ], [ -51.05342550000001, -29.9918948 ], [ -51.0533023, -29.9911704 ] ] ] } },
{ "type": "Feature", "properties": { "name": "Cocão", "code_muni": 4300604.0, "name_muni": "Alvorada" }, "geometry": { "type": "MultiPolygon", "coordinates": [ [ [ [ -51.0393126, -30.0063808 ], [ -51.0387829, -30.0061903 ], [ -51.038705908836256, -30.00622000478716 ], [ -51.039551850318261, -30.006508470844771 ], [ -51.0393126, -30.0063808 ] ] ], [ [ [ -51.0615705, -30.0509448 ], [ -51.0610642, -30.0506952 ], [ -51.0606605, -30.0504909 ], [ -51.0603091, -30.0503249 ], [ -51.0599054, -30.0501729 ], [ -51.0597458, -30.0501067 ], [ -51.0593542, -30.0499883 ], [ -51.0590438, -30.0498868 ], [ -51.0589004, -30.0498247 ], [ -51.0587695, -30.0497259 ], [ -51.0586502, -30.0496621 ], [ -51.0582993, -30.0495383 ], [ -51.0579059, -30.049488 ], [ -51.057765, -30.0494752 ], [ -51.0571803, -30.0494032 ], [ -51.0568534, -30.0494295 ], [ -51.0566032, -30.0494869 ], [ -51.0563326, -30.0495659 ], [ -51.0561272, -30.0496017 ], [ -51.0560087, -30.049618599999985 ], [ -51.0558683, -30.0496439 ], [ -51.0555083, -30.049701 ], [ -51.055379755241447, -30.049722765106686 ], [ -51.057450618, -30.049460223 ], [ -51.061518126063206, -30.051009336817174 ], [ -51.0615705, -30.0509448 ] ] ], [ [ [ -51.0546153, -30.0498191 ], [ -51.0541187, -30.0498104 ], [ -51.0538961, -30.0498288 ], [ -51.05323, -30.0498421 ], [ -51.0531037, -30.0498997 ], [ -51.0529867, -30.0499749 ], [ -51.052915581480612, -30.05003512653397 ], [ -51.054632316405716, -30.049817516376852 ], [ -51.0546153, -30.0498191 ] ] ], [ [ [ -51.051332806665044, -30.050220187036487 ], [ -51.051340377, -30.050234776 ], [ -51.051466292569785, -30.050218817540465 ], [ -51.051332806665044, -30.050220187036487 ] ] ], [ [ [ -51.0512996, -30.0500893 ], [ -51.0511708, -30.0491953 ], [ -51.0509834, -30.048299299999986 ], [ -51.0509414, -30.0481487 ], [ -51.0508953, -30.048034899999987 ], [ -51.0507991, -30.047923499999989 ], [ -51.0506633, -30.0478206 ], [ -51.0500765, -30.0474036 ], [ -51.049707964367236, -30.047088806769636 ], [ -51.051301033471596, -30.050158956145825 ], [ -51.0512996, -30.0500893 ] ] ], [ [ [ -51.0494207, -30.0428905 ], [ -51.0498973, -30.0423982 ], [ -51.0500995, -30.0420921 ], [ -51.0502038, -30.041759 ], [ -51.050207748783976, -30.041684358469283 ], [ -51.049225331360859, -30.043049476668454 ], [ -51.0494207, -30.0428905 ] ] ], [ [ [ -51.0502271, -30.0413203 ], [ -51.0501623, -30.0405908 ], [ -51.0499989, -30.0399645 ], [ -51.049943187076764, -30.039750928888342 ], [ -51.050218264113298, -30.041485932779548 ], [ -51.0502271, -30.0413203 ] ] ], [ [ [ -51.0510868, -30.0354447 ], [ -51.0515203, -30.0349385 ], [ -51.0519894, -30.0343593 ], [ -51.0521489, -30.0340734 ], [ -51.0523417, -30.0337333 ], [ -51.052391, -30.033645 ], [ -51.0524675, -30.0335087 ], [ -51.0525455, -30.0333432 ], [ -51.0526031, -30.0332246 ], [ -51.0527065, -30.0330181 ], [ -51.0527514, -30.0329352 ], [ -51.0528325, -30.032804800000012 ], [ -51.052954, -30.032617300000013 ], [ -51.0530165, -30.0325234 ], [ -51.0531979, -30.0322509 ], [ -51.0532644, -30.0321636 ], [ -51.0535648, -30.0318013 ], [ -51.0536531, -30.0316276 ], [ -51.0536979, -30.0314978 ], [ -51.0537474, -30.0313408 ], [ -51.053781, -30.031148 ], [ -51.0537882, -30.0309047 ], [ -51.053784178006254, -30.030870893103032 ], [ -51.053650319, -30.031614851 ], [ -51.050070136731499, -30.036457651772437 ], [ -51.0510868, -30.0354447 ] ] ], [ [ [ -51.0542103, -30.02854210000001 ], [ -51.054203719563901, -30.028539103505409 ], [ -51.054201315004491, -30.028552468234082 ], [ -51.0542103, -30.02854210000001 ] ] ], [ [ [ -51.0534922, -30.0282151 ], [ -51.0528452, -30.0280468 ], [ -51.0525288, -30.0279726 ], [ -51.0522095, -30.027919 ], [ -51.05138255922251, -30.027798666976761 ], [ -51.05404168275949, -30.028465317594971 ], [ -51.0534922, -30.0282151 ] ] ], [ [ [ -51.034064, -30.023337499999986 ], [ -51.033710916002462, -30.023240740576441 ], [ -51.033636837, -30.023348152 ], [ -51.040687468743251, -30.025116740473258 ], [ -51.034064, -30.023337499999986 ] ] ], [ [ [ -51.034133, -30.0226424 ], [ -51.034167422765371, -30.02257881899439 ], [ -51.034118097097654, -30.02265034028655 ], [ -51.034133, -30.0226424 ] ] ], [ [ [ -51.0348847, -30.0172739 ], [ -51.0351235, -30.0166691 ], [ -51.035144291782068, -30.016144031910514 ], [ -51.034230728, -30.018080848999901 ], [ -51.034241156329394, -30.018124823199543 ], [ -51.0348847, -30.0172739 ] ] ], [ [ [ -51.0358809, -30.0145855 ], [ -51.035883484796358, -30.014576832578729 ], [ -51.035874510774867, -30.014595859163688 ], [ -51.0358809, -30.0145855 ] ] ], [ [ [ -51.0360257, -30.0142998 ], [ -51.0360767, -30.0142545 ], [ -51.0361411, -30.0142139 ], [ -51.0361746, -30.0141686 ], [ -51.0362268, -30.0140597 ], [ -51.03628, -30.0139757 ], [ -51.0363369, -30.0139015 ], [ -51.0364552, -30.0137944 ], [ -51.0364978, -30.0137122 ], [ -51.0365139, -30.0136611 ], [ -51.0365354, -30.01361 ], [ -51.0365702, -30.0135264 ], [ -51.0366078, -30.0134695 ], [ -51.036638600000011, -30.0134416 ], [ -51.0366958, -30.0133789 ], [ -51.0370356, -30.0130549 ], [ -51.0372019, -30.0128564 ], [ -51.0372488, -30.0127658 ], [ -51.0372798, -30.0126958 ], [ -51.037344, -30.0125591 ], [ -51.0373883, -30.0124336 ], [ -51.03745940000001, -30.0122815 ], [ -51.0374701, -30.0122455 ], [ -51.0374727, -30.012185 ], [ -51.0374519, -30.0117898 ], [ -51.037396174544767, -30.011369537407909 ], [ -51.035993907679078, -30.014342715000577 ], [ -51.0360257, -30.0142998 ] ] ], [ [ [ -51.0396501, -30.0065395 ], [ -51.039597776028536, -30.006524131308876 ], [ -51.039648835257751, -30.006541542255576 ], [ -51.0396501, -30.0065395 ] ] ] ] } },
{ "type": "Feature", "properties": { "name": "Augusta", "code_muni": 4300604.0, "name_muni": "Alvorada" }, "geometry": { "type": "MultiPolygon", "coordinates": [ [ [ [ -51.0836153, -30.0456701 ], [ -51.0834551, -30.0456372 ], [ -51.0832737, -30.0456166 ], [ -51.0830986, -30.0456169 ], [ -51.08292, -30.0456347 ], [ -51.0827373, -30.0456797 ], [ -51.0826711, -30.0456984 ], [ -51.0825333, -30.0457538 ], [ -51.0823629, -30.0458335 ], [ -51.0819933, -30.0460369 ], [ -51.0818509, -30.0461435 ], [ -51.081809890735201, -30.046174227082506 ], [ -51.082705190999903, -30.045705878 ], [ -51.083695432277821, -30.045690568246282 ], [ -51.0836153, -30.0456701 ] ] ], [ [ [ -51.0760642, -30.0490796 ], [ -51.075700587111157, -30.049079600268563 ], [ -51.076182339999896, -30.049117867999893 ], [ -51.076269087716611, -30.049072495441838 ], [ -51.0760642, -30.0490796 ] ] ], [ [ [ -51.074979, -30.049000799999988 ], [ -51.073949, -30.0488652 ], [ -51.0736135, -30.0488521 ], [ -51.0734745, -30.0488496 ], [ -51.0733921, -30.0488512 ], [ -51.0733042, -30.0488573 ], [ -51.0732333, -30.0488713 ], [ -51.0731634, -30.0488939 ], [ -51.0729314, -30.0490076 ], [ -51.072399739613232, -30.0495115553239 ], [ -51.073268266, -30.048886363 ], [ -51.075177190735758, -30.049038022579648 ], [ -51.074979, -30.049000799999988 ] ] ], [ [ [ -51.069479211685859, -30.051485585560677 ], [ -51.069613788, -30.051516878 ], [ -51.069689259034199, -30.051462555941544 ], [ -51.069479211685859, -30.051485585560677 ] ] ], [ [ [ -51.068978, -30.0513569 ], [ -51.0683931, -30.0511134 ], [ -51.0676543, -30.0508125 ], [ -51.06691, -30.0506616 ], [ -51.0664899, -30.0505899 ], [ -51.06601280000001, -30.0505084 ], [ -51.0654721, -30.0504143 ], [ -51.0633873, -30.0500515 ], [ -51.0628304, -30.0501079 ], [ -51.0622484, -30.0502518 ], [ -51.0620539, -30.0503574 ], [ -51.0615705, -30.0509448 ], [ -51.061518126063206, -30.051009336817174 ], [ -51.061524573, -30.051011791999898 ], [ -51.063440786999891, -30.050081335 ], [ -51.06918236243876, -30.051416559951658 ], [ -51.068978, -30.0513569 ] ] ] ] } },
{ "type": "Feature", "properties": { "name": "Estância Grande", "code_muni": 4300604.0, "name_muni": "Alvorada" }, "geometry": { "type": "MultiPolygon", "coordinates": [ [ [ [ -51.026730624303745, -30.002506745133484 ], [ -51.026785973, -30.002526694 ], [ -51.02680830790915, -30.002523724462158 ], [ -51.026730624303745, -30.002506745133484 ] ] ], [ [ [ -51.0260739, -30.0022562 ], [ -51.0256984, -30.0019774 ], [ -51.025427, -30.0017825 ], [ -51.0249903, -30.0014293 ], [ -51.0247878, -30.0012991 ], [ -51.0245605, -30.0011804 ], [ -51.0243943, -30.0011202 ], [ -51.0242748, -30.0010769 ], [ -51.0230852, -30.0007126 ], [ -51.0225829, -30.0005672 ], [ -51.0218934, -30.0004484 ], [ -51.0207098, -30.0003116 ], [ -51.020593833256704, -30.000294718746545 ], [ -51.026133477942487, -30.002291518685631 ], [ -51.0260739, -30.0022562 ] ] ], [ [ [ -51.0166927, -29.9988834 ], [ -51.0158919, -29.9985787 ], [ -51.015723271532167, -29.998538834811477 ], [ -51.01676544580782, -29.998914568967791 ], [ -51.0166927, -29.9988834 ] ] ], [ [ [ -51.01534370000001, -29.9984491 ], [ -51.014787, -29.998338 ], [ -51.0143001, -29.9982717 ], [ -51.0137288, -29.9982484 ], [ -51.0130086, -29.9982832 ], [ -51.0125835, -29.9983158 ], [ -51.0120545, -29.998375 ], [ -51.0116224, -29.998424899999986 ], [ -51.0111515, -29.9985165 ], [ -51.011003, -29.9985454 ], [ -51.0106381, -29.9986369 ], [ -51.0102875, -29.998752 ], [ -51.0098716, -29.9988885 ], [ -51.009789, -29.9989191 ], [ -51.0090638, -29.9992304 ], [ -51.0086024, -29.9994353 ], [ -51.0078726, -29.9997471 ], [ -51.0074261, -29.9998885 ], [ -51.006978082280412, -30.000017851780726 ], [ -51.01538723113034, -29.998459391293395 ], [ -51.01534370000001, -29.9984491 ] ] ], [ [ [ -51.005527886498164, -30.000263762672905 ], [ -51.005640952, -30.000265607 ], [ -51.005778064379143, -30.000240202298436 ], [ -51.005527886498164, -30.000263762672905 ] ] ], [ [ [ -51.0032858, -30.0001935 ], [ -51.0027601, -30.0000913 ], [ -51.0022559, -30.0000448 ], [ -51.0020676, -30.000050300000012 ], [ -51.0016229, -30.0000634 ], [ -51.001372, -30.000082 ], [ -51.0008719, -30.000119199999986 ], [ -51.000130089602074, -30.000175600630648 ], [ -51.003543860627239, -30.000231383383746 ], [ -51.0032858, -30.0001935 ] ] ], [ [ [ -50.998947814148615, -30.000125139639483 ], [ -50.999029404999895, -30.000157596 ], [ -50.999120536011915, -30.000159087040284 ], [ -50.998947814148615, -30.000125139639483 ] ] ], [ [ [ -50.9969699, -29.999271 ], [ -50.9963686, -29.9989483 ], [ -50.9957361, -29.9986452 ], [ -50.9950458, -29.9983389 ], [ -50.9942336, -29.9980573 ], [ -50.9936879, -29.9978896 ], [ -50.9935825, -29.9978591 ], [ -50.9932306, -29.9976897 ], [ -50.9930564, -29.9976132 ], [ -50.9928717, -29.9975292 ], [ -50.9927159, -29.9974829 ], [ -50.9925833, -29.9974174 ], [ -50.9922682, -29.9971906 ], [ -50.992071, -29.9970594 ], [ -50.9917854, -29.9968642 ], [ -50.9912927, -29.996534699999987 ], [ -50.9910435, -29.9964413 ], [ -50.9907569, -29.9963682 ], [ -50.9903387, -29.9963165 ], [ -50.9899576, -29.996284 ], [ -50.988916977863823, -29.996134384614226 ], [ -50.997400859052078, -29.999509756410095 ], [ -50.9969699, -29.999271 ] ] ], [ [ [ -50.986272, -29.9950798 ], [ -50.986243624796401, -29.995070611342904 ], [ -50.98628540589236, -29.995087237354532 ], [ -50.986272, -29.9950798 ] ] ], [ [ [ -50.9861142, -29.9950287 ], [ -50.9858214, -29.9949741 ], [ -50.9854716, -29.994975 ], [ -50.9848278, -29.9949929 ], [ -50.984782615090886, -29.995078468741639 ], [ -50.986235237084365, -29.995067895173765 ], [ -50.9861142, -29.9950287 ] ] ] ] } },
{ "type": "Feature", "properties": { "name": "Elsa", "code_muni": 4300604.0, "name_muni": "Alvorada" }, "geometry": { "type": "MultiPolygon", "coordinates": [ [ [ [ -51.0387829, -30.0061903 ], [ -51.038100057224717, -30.006013405002943 ], [ -51.038705908836256, -30.00622000478716 ], [ -51.0387829, -30.0061903 ] ] ], [ [ [ -51.0369729, -30.0055931 ], [ -51.036831, -30.0054979 ], [ -51.0366603, -30.0053918 ], [ -51.0365619, -30.0053361 ], [ -51.0364057, -30.0052515 ], [ -51.0360936, -30.0051173 ], [ -51.0357328, -30.0049961 ], [ -51.0354586, -30.004916 ], [ -51.0351478, -30.0048569 ], [ -51.03442840000001, -30.0047538 ], [ -51.034388616170723, -30.004747697026062 ], [ -51.037130179997291, -30.005682662245945 ], [ -51.0369729, -30.0055931 ] ] ], [ [ [ -51.0319703, -30.0027883 ], [ -51.031833, -30.0025612 ], [ -51.0316436, -30.0023795 ], [ -51.0315014, -30.002264 ], [ -51.0312617, -30.002104299999989 ], [ -51.0310721, -30.001997700000011 ], [ -51.0310373, -30.0019781 ], [ -51.0308476, -30.0018967 ], [ -51.0305622, -30.0018494 ], [ -51.0303406, -30.001862 ], [ -51.0301494, -30.0018873 ], [ -51.0297431, -30.0020059 ], [ -51.02930979716605, -30.002191113855897 ], [ -51.031006359999893, -30.001965502 ], [ -51.032108896589705, -30.003332286614782 ], [ -51.0319703, -30.0027883 ] ] ] ] } }
]
}
