{
"type": "FeatureCollection",
"name": "bairros_campo_novo",
"crs": { "type": "name", "properties": { "name": "urn:ogc:def:crs:OGC:1.3:CRS84" } },
"features": [
{ "type": "Feature", "properties": { "code_muni": 4304002.0, "name_muni": "Campo Novo", "code_state": 43.0, "abbrev_state": "RS", "name_state": "Rio Grande do Sul", "code_region": 4.0, "name_region": "Sul", "year": 2022.0 }, "geometry": { "type": "Polygon", "coordinates": [ [ [ -53.841932347, -27.735055386999903 ], [ -53.84358506, -27.728948008 ], [ -53.845851072999899, -27.729348509 ], [ -53.849899342, -27.726493247 ], [ -53.861712372999897, -27.725914482 ], [ -53.865669843, -27.728027294 ], [ -53.873753608, -27.7243170049999 ], [ -53.881586221, -27.722606653999907 ], [ -53.889112665, -27.722584914 ], [ -53.894085366999903, -27.720788512999892 ], [ -53.901577056999891, -27.715283961999905 ], [ -53.901108586, -27.710788748 ], [ -53.906073605999893, -27.706451634 ], [ -53.905953601, -27.700962214999901 ], [ -53.907631236, -27.700134934999895 ], [ -53.90877704199989, -27.701183388999901 ], [ -53.917262122999901, -27.697155860999903 ], [ -53.920933382, -27.696923379999902 ], [ -53.917115975999891, -27.69333498 ], [ -53.917538404, -27.6924192879999 ], [ -53.913990861999899, -27.690202621 ], [ -53.909097252, -27.690378172999903 ], [ -53.902655787999898, -27.69604994 ], [ -53.898985126, -27.692318563999905 ], [ -53.897010515, -27.686649987 ], [ -53.895185053, -27.687421078999893 ], [ -53.886510658, -27.680351092 ], [ -53.890896069, -27.677051795999901 ], [ -53.881336714, -27.670150431 ], [ -53.885238358, -27.6668978189999 ], [ -53.881492123, -27.659506625999903 ], [ -53.889797783999896, -27.661388689 ], [ -53.88997280199991, -27.657656453 ], [ -53.883212922, -27.648154835 ], [ -53.881114415999896, -27.642338800999902 ], [ -53.881194225999899, -27.637873724 ], [ -53.891394186999889, -27.6314975 ], [ -53.891345725, -27.628244252999906 ], [ -53.899235506, -27.624917584999892 ], [ -53.900962636, -27.621895733 ], [ -53.897642194999889, -27.616858737 ], [ -53.89647093699989, -27.607290431 ], [ -53.892732654, -27.6023901639999 ], [ -53.895268921, -27.600454606 ], [ -53.897712872999897, -27.595298195999899 ], [ -53.894472401, -27.5934133219999 ], [ -53.878938916, -27.593403354 ], [ -53.874115899999893, -27.591359594 ], [ -53.871433738, -27.593191756999893 ], [ -53.862161409, -27.5951808189999 ], [ -53.854830733, -27.592377650999904 ], [ -53.838143897999899, -27.5936361249999 ], [ -53.835721732, -27.592525109 ], [ -53.832118174999898, -27.587715413999884 ], [ -53.82886203399989, -27.588959486 ], [ -53.824988601, -27.585984794 ], [ -53.820137097, -27.585451582 ], [ -53.814162683999896, -27.58237278 ], [ -53.811218121, -27.579068658 ], [ -53.810911013, -27.576258101999898 ], [ -53.807637437, -27.577103688 ], [ -53.797502064, -27.573232334999894 ], [ -53.794657644, -27.573649589999899 ], [ -53.786832456, -27.577356675 ], [ -53.789098459999899, -27.5792010709999 ], [ -53.795696373999895, -27.580917408999898 ], [ -53.796627183999902, -27.583070144 ], [ -53.794812131, -27.587501059 ], [ -53.786115929999895, -27.590678888 ], [ -53.786612315999903, -27.592726335999895 ], [ -53.791575627, -27.594744463 ], [ -53.7985413339999, -27.595268221 ], [ -53.799757617, -27.597610851999896 ], [ -53.794939547, -27.59849631 ], [ -53.792307191, -27.602668783 ], [ -53.784242097999893, -27.608292972999891 ], [ -53.781513682, -27.604901937 ], [ -53.775129357, -27.605144418 ], [ -53.770198342, -27.609415595 ], [ -53.767934431999898, -27.608837891999904 ], [ -53.766404351999903, -27.611423451 ], [ -53.763897133999897, -27.610446405999902 ], [ -53.760439786999903, -27.6131738939999 ], [ -53.758627213, -27.620662592 ], [ -53.753382589, -27.629549352 ], [ -53.752419704, -27.633750167 ], [ -53.755659814999902, -27.639343642 ], [ -53.760834825, -27.643036304 ], [ -53.752892591, -27.643807475 ], [ -53.744515623, -27.641479418999893 ], [ -53.744727871999899, -27.655956385 ], [ -53.762350378999891, -27.671918052 ], [ -53.766996811, -27.677859844999908 ], [ -53.770188441999892, -27.684540792999908 ], [ -53.770068729999899, -27.691498506999899 ], [ -53.772959493, -27.693396043999904 ], [ -53.772034004, -27.695821948999896 ], [ -53.773542378999899, -27.700081253 ], [ -53.772159442, -27.704415294999894 ], [ -53.774399102, -27.707080898 ], [ -53.774116103, -27.710037051 ], [ -53.771685261999892, -27.712645091 ], [ -53.7661344529999, -27.710734605 ], [ -53.762743199999896, -27.712248153 ], [ -53.761408455, -27.719014216999899 ], [ -53.758524451, -27.716959938999899 ], [ -53.758072028, -27.714805111 ], [ -53.754179826, -27.718187672999903 ], [ -53.75564251, -27.721859966 ], [ -53.760187225, -27.7236021639999 ], [ -53.767461217999895, -27.723614241999901 ], [ -53.7710302569999, -27.724903543 ], [ -53.770577761, -27.729364518 ], [ -53.76816547100001, -27.730417845 ], [ -53.767563657, -27.728785202 ], [ -53.763900565, -27.730941859 ], [ -53.767064085999898, -27.735267751 ], [ -53.763007778, -27.736891591 ], [ -53.760975887, -27.740426770999903 ], [ -53.762650892999893, -27.742681863 ], [ -53.766651456, -27.743284405999894 ], [ -53.762958254999901, -27.746576024 ], [ -53.759904852, -27.746351881999903 ], [ -53.757638669, -27.753088736999899 ], [ -53.759629542, -27.754899254999891 ], [ -53.762612122, -27.754668751999898 ], [ -53.764150801, -27.750180838999896 ], [ -53.766829306, -27.754259009999892 ], [ -53.772151995999891, -27.754394652 ], [ -53.779448361999989, -27.752617194 ], [ -53.780475146999898, -27.756106590999892 ], [ -53.785056531, -27.760530113999895 ], [ -53.789303565, -27.760711715 ], [ -53.800835337, -27.758028834 ], [ -53.816832172, -27.767251783999903 ], [ -53.823479727999896, -27.761811759999901 ], [ -53.824832296999901, -27.757169743 ], [ -53.828911736999892, -27.752905605 ], [ -53.829554363999897, -27.747344914999896 ], [ -53.841932347, -27.735055386999903 ] ] ] } }
]
}
