{
"type": "FeatureCollection",
"name": "bairros_antonio_prado",
"crs": { "type": "name", "properties": { "name": "urn:ogc:def:crs:OGC:1.3:CRS84" } },
"features": [
{ "type": "Feature", "properties": { "code_muni": 4300802.0, "name_muni": "Antônio Prado", "code_state": 43.0, "abbrev_state": "RS", "name_state": "Rio Grande do Sul", "code_region": 4.0, "name_region": "Sul", "year": 2022.0 }, "geometry": { "type": "Polygon", "coordinates": [ [ [ -51.251313258346997, -28.818825225579896 ], [ -51.239034944332296, -28.819201768781902 ], [ -51.234235827196201, -28.817137237847799 ], [ -51.223617308790992, -28.824306246863102 ], [ -51.221634087834097, -28.823914431765299 ], [ -51.2178591968988, -28.830006169720594 ], [ -51.210949114999899, -28.832354200999895 ], [ -51.211021194225097, -28.835823635198196 ], [ -51.204744204999891, -28.839719563 ], [ -51.204580939341199, -28.840793211563994 ], [ -51.207613253454191, -28.8420526172353 ], [ -51.205020238, -28.843411871999894 ], [ -51.2057200292424, -28.844498992173293 ], [ -51.204098990308601, -28.846667694226898 ], [ -51.195058397291703, -28.848740825267097 ], [ -51.192786837874792, -28.850891164575906 ], [ -51.192503266391391, -28.853618845267601 ], [ -51.188262855728006, -28.851736047508105 ], [ -51.182687447614491, -28.852949906046202 ], [ -51.176945216266091, -28.856483375814193 ], [ -51.176904207533596, -28.858745089564493 ], [ -51.17243868899989, -28.864029463999891 ], [ -51.166829317395994, -28.866404991872304 ], [ -51.163125878672403, -28.873000104091105 ], [ -51.160561917998898, -28.873639935803102 ], [ -51.172612435752193, -28.888538744469702 ], [ -51.174198857, -28.901587196 ], [ -51.1701358, -28.917543762 ], [ -51.155196635028297, -28.926949233981802 ], [ -51.152771591150099, -28.929733140855504 ], [ -51.150727369, -28.9355974539999 ], [ -51.152868829999903, -28.941962580999899 ], [ -51.162689396, -28.94612267 ], [ -51.167251611, -28.946366941 ], [ -51.169667150965601, -28.945243996991707 ], [ -51.170074838999902, -28.939099704999894 ], [ -51.172838768, -28.937174605999896 ], [ -51.17773274199989, -28.937917676000012 ], [ -51.184163014, -28.941857243 ], [ -51.187057935, -28.94211066 ], [ -51.189752933, -28.939799842 ], [ -51.191507548999901, -28.930636848999896 ], [ -51.196977821, -28.9297022 ], [ -51.2071810210645, -28.933147776630204 ], [ -51.209202790999896, -28.935126601 ], [ -51.210470014, -28.940625543999893 ], [ -51.213012026999891, -28.942900920999907 ], [ -51.237577680999898, -28.939610619 ], [ -51.242474549999898, -28.947569464 ], [ -51.25371548, -28.953336121999897 ], [ -51.260863610999891, -28.962518101999898 ], [ -51.263948523999893, -28.963561696999903 ], [ -51.270037395465692, -28.960945697329599 ], [ -51.271305498999894, -28.956084949999894 ], [ -51.264759123, -28.934804223 ], [ -51.26929354, -28.929268830999902 ], [ -51.275179271999896, -28.925935584999895 ], [ -51.278680767787996, -28.925652273139104 ], [ -51.284238095, -28.927156774 ], [ -51.287361136999898, -28.929408968 ], [ -51.293967572, -28.941070325999895 ], [ -51.301499908, -28.945309455 ], [ -51.30935756199991, -28.955689564999897 ], [ -51.318596559999897, -28.959202987 ], [ -51.330017685, -28.955569447999903 ], [ -51.335543066, -28.956610462 ], [ -51.338834535486399, -28.958653414635407 ], [ -51.340167924475992, -28.964606824858404 ], [ -51.342823908, -28.963079262 ], [ -51.34476121222869, -28.958513856803904 ], [ -51.3429433355399, -28.955943817776184 ], [ -51.34376980789289, -28.952882607679093 ], [ -51.355166692, -28.941919900999906 ], [ -51.3535009955229, -28.938608286768591 ], [ -51.35673056183289, -28.92762264016951 ], [ -51.354612258686302, -28.91930074953121 ], [ -51.464245786004192, -28.924885578035404 ], [ -51.472959013630302, -28.916327971121 ], [ -51.471800233999893, -28.911961382999891 ], [ -51.465718318344301, -28.904530803257096 ], [ -51.470288502, -28.899554667 ], [ -51.470292915315902, -28.894725506261501 ], [ -51.465672746591295, -28.891982621678601 ], [ -51.458066199321102, -28.8921627169914 ], [ -51.455529922, -28.891050954 ], [ -51.455165466, -28.887793556 ], [ -51.459023167308899, -28.880062871752507 ], [ -51.450769834, -28.874201591 ], [ -51.447070492540298, -28.86975123058809 ], [ -51.448666888744597, -28.864396145832099 ], [ -51.458773050675696, -28.862105222467498 ], [ -51.462620406349892, -28.8561581557823 ], [ -51.446610968, -28.850558916999912 ], [ -51.441916394, -28.844609039 ], [ -51.443412249999895, -28.840835506000012 ], [ -51.446402698860794, -28.838178757224895 ], [ -51.457909876425397, -28.835467347926297 ], [ -51.465245158999892, -28.830434964999895 ], [ -51.465203534, -28.827070365999898 ], [ -51.456954720877, -28.816944217557705 ], [ -51.464870693, -28.80792871300001 ], [ -51.466142491, -28.803343275 ], [ -51.4651043329999, -28.801407384999905 ], [ -51.460208049547397, -28.802773716976496 ], [ -51.45187349, -28.808290385 ], [ -51.447733029358794, -28.808447501787793 ], [ -51.438037023510695, -28.805896973636692 ], [ -51.436120065398292, -28.809157434985298 ], [ -51.432228254931594, -28.8068526402927 ], [ -51.427198648999898, -28.806306089 ], [ -51.417179729063797, -28.801182022208302 ], [ -51.4111913039999, -28.799948284 ], [ -51.410098521751102, -28.802731722258805 ], [ -51.407133019246601, -28.8017615134453 ], [ -51.401726629410497, -28.804531657161601 ], [ -51.401621953321097, -28.807042648662485 ], [ -51.393325515563298, -28.812728769237506 ], [ -51.392396738183102, -28.814831757202693 ], [ -51.385783349312199, -28.814851375397296 ], [ -51.38740287915649, -28.816859016203296 ], [ -51.383425873598, -28.820857011853391 ], [ -51.3811504376038, -28.8206919720893 ], [ -51.380298215, -28.824707300999904 ], [ -51.378436816233403, -28.825896966770408 ], [ -51.376526854818202, -28.825367824323202 ], [ -51.372892413092295, -28.830475688370488 ], [ -51.364812461412797, -28.833620086843908 ], [ -51.364477168661097, -28.834709925477103 ], [ -51.351644958, -28.834169845 ], [ -51.348403969483599, -28.835892504658698 ], [ -51.340348163272303, -28.828203270555704 ], [ -51.336688790607603, -28.828312521429599 ], [ -51.3295213439999, -28.842766389 ], [ -51.322663738, -28.848644728999901 ], [ -51.318486901070294, -28.850151769678298 ], [ -51.315909371747203, -28.8448270027543 ], [ -51.317942476915199, -28.840585653475692 ], [ -51.316859738102792, -28.838619752785696 ], [ -51.308359396411291, -28.836910730028201 ], [ -51.305268776480695, -28.837896304139587 ], [ -51.303058917378991, -28.836478032262793 ], [ -51.303846526088698, -28.835196676165701 ], [ -51.302111344941601, -28.834471763358799 ], [ -51.3022862623964, -28.831981487569699 ], [ -51.297514651431491, -28.831887375119599 ], [ -51.293712426139891, -28.828344302040495 ], [ -51.277893165948598, -28.829400940654804 ], [ -51.274291014408803, -28.828454555354693 ], [ -51.272111915858289, -28.831272931372798 ], [ -51.272560954482692, -28.827843000877898 ], [ -51.268513611881396, -28.824280455112909 ], [ -51.265014714033804, -28.824508190778996 ], [ -51.262525535765796, -28.821105326043604 ], [ -51.25588034290719, -28.821857627646402 ], [ -51.252751667, -28.816724665 ], [ -51.251513144409991, -28.81672758802911 ], [ -51.251313258346997, -28.818825225579896 ] ] ] } }
]
}
