{
"type": "FeatureCollection",
"name": "bairros_redentora",
"crs": { "type": "name", "properties": { "name": "urn:ogc:def:crs:OGC:1.3:CRS84" } },
"features": [
{ "type": "Feature", "properties": { "code_muni": 4315404.0, "name_muni": "Redentora", "code_state": 43.0, "abbrev_state": "RS", "name_state": "Rio Grande do Sul", "code_region": 4.0, "name_region": "Sul", "year": 2022.0 }, "geometry": { "type": "Polygon", "coordinates": [ [ [ -53.63227331, -27.70901779 ], [ -53.675384088, -27.688127757 ], [ -53.676534697, -27.683780290999888 ], [ -53.685001241999899, -27.678825016 ], [ -53.689642847, -27.673046656999897 ], [ -53.706805373, -27.667716519 ], [ -53.715653019999891, -27.666944136 ], [ -53.733676666, -27.66188023 ], [ -53.723197762, -27.663855215999902 ], [ -53.717634314, -27.659195699 ], [ -53.713475656, -27.64882302 ], [ -53.715768763, -27.6465464529999 ], [ -53.71035261, -27.629753415999989 ], [ -53.70844606299989, -27.630531176 ], [ -53.707455242, -27.633544462 ], [ -53.701914081, -27.638913422 ], [ -53.694708422, -27.639905192999901 ], [ -53.688384016, -27.6251982389999 ], [ -53.67310916, -27.605824723 ], [ -53.66810823, -27.603070885 ], [ -53.671607643999899, -27.596873807 ], [ -53.674146827, -27.596661938999898 ], [ -53.685084345, -27.590836087999907 ], [ -53.684316179999897, -27.577549596 ], [ -53.682416334, -27.574671085 ], [ -53.678228092, -27.573115830999903 ], [ -53.677332814, -27.570145528999898 ], [ -53.677873871, -27.564593651999896 ], [ -53.681244297, -27.558690498 ], [ -53.681189107, -27.547975299 ], [ -53.679878343, -27.550245683 ], [ -53.676283791999893, -27.551256231 ], [ -53.66782185999989, -27.550189842 ], [ -53.664446602999895, -27.548079792 ], [ -53.659262618, -27.540333193999984 ], [ -53.664033344, -27.534707034 ], [ -53.670378221, -27.530211837 ], [ -53.672006779, -27.526525686999904 ], [ -53.677683889, -27.504459094 ], [ -53.684691648999902, -27.488207439 ], [ -53.683907518, -27.484847290999898 ], [ -53.686160738, -27.480090527999902 ], [ -53.687250870999897, -27.480308517 ], [ -53.687358021, -27.475489954999901 ], [ -53.691298043, -27.466715087 ], [ -53.690952786, -27.461266496 ], [ -53.6926436749999, -27.457463232999899 ], [ -53.697527911999892, -27.454402521 ], [ -53.700122168, -27.446842102999895 ], [ -53.694081303, -27.445693807999895 ], [ -53.688721318, -27.448338303 ], [ -53.680874919, -27.44841192 ], [ -53.679844553999892, -27.444285362999892 ], [ -53.674365885, -27.438547093 ], [ -53.674155169999899, -27.4356448089999 ], [ -53.671649508, -27.434371814 ], [ -53.670873402, -27.432351717999893 ], [ -53.666367884999893, -27.432509885999895 ], [ -53.66416747999989, -27.430643178 ], [ -53.663290291, -27.427521340999895 ], [ -53.659269724999895, -27.426823661 ], [ -53.648089706, -27.419343096 ], [ -53.644598899999892, -27.423509668999898 ], [ -53.650322112, -27.425201676 ], [ -53.650545436, -27.426292877 ], [ -53.645732796999901, -27.429063535 ], [ -53.645131605, -27.431235328 ], [ -53.64344628, -27.431401966999893 ], [ -53.638134706999892, -27.44086241 ], [ -53.633784790999989, -27.4433031 ], [ -53.630257642999901, -27.4477112759999 ], [ -53.626262776, -27.449577539 ], [ -53.619983415, -27.460219510999899 ], [ -53.618305495, -27.469836890999897 ], [ -53.616219682, -27.472668923999901 ], [ -53.610600207999894, -27.467621021 ], [ -53.612080100999897, -27.466003692999905 ], [ -53.610752455999908, -27.463970028999896 ], [ -53.601928180999899, -27.462691188 ], [ -53.583132596, -27.455780196 ], [ -53.578289755, -27.449317780999895 ], [ -53.573969002999903, -27.446804065 ], [ -53.572863156, -27.442717016 ], [ -53.5706582, -27.442237668 ], [ -53.565976588, -27.4444905309999 ], [ -53.563547064, -27.441306712 ], [ -53.561148444, -27.440889556999903 ], [ -53.562383527, -27.447326964999899 ], [ -53.557908196, -27.452658184 ], [ -53.552692276, -27.455986528 ], [ -53.555989105, -27.458359969 ], [ -53.566762785, -27.460985585999893 ], [ -53.5703448739999, -27.466933466999905 ], [ -53.56943817, -27.470264066 ], [ -53.566841638, -27.472011919999897 ], [ -53.565536247, -27.470225065 ], [ -53.565609857, -27.464342943 ], [ -53.561103475, -27.463763904 ], [ -53.553907712, -27.476764666 ], [ -53.557897038, -27.481548258 ], [ -53.560844231, -27.477262874 ], [ -53.566567005, -27.475138888999904 ], [ -53.572661610999909, -27.481711898999894 ], [ -53.570058084, -27.490548103 ], [ -53.57050739399989, -27.492531202999899 ], [ -53.573699078999901, -27.494060508 ], [ -53.571214988, -27.4968305639999 ], [ -53.572642110999901, -27.50843315 ], [ -53.5689343929999, -27.514044028999898 ], [ -53.563761289999903, -27.515589072999905 ], [ -53.573509596, -27.519052426 ], [ -53.581818724999906, -27.517648485999899 ], [ -53.583123735999891, -27.520061123999898 ], [ -53.578435583, -27.524688997999903 ], [ -53.570070100999899, -27.524740237999897 ], [ -53.566633807999892, -27.527358642 ], [ -53.564348381999899, -27.532418892 ], [ -53.565826908, -27.53451308 ], [ -53.572686096, -27.5314925919999 ], [ -53.579868378, -27.532493298 ], [ -53.582989243, -27.531419185999901 ], [ -53.581492291, -27.533105838 ], [ -53.570551716, -27.536240881 ], [ -53.568762064999902, -27.539037169 ], [ -53.568933495999893, -27.542956014 ], [ -53.570497689, -27.545888772999888 ], [ -53.572149985999893, -27.546375359 ], [ -53.582977907999989, -27.5411915399999 ], [ -53.580505509, -27.544772502999901 ], [ -53.582208022, -27.549720324 ], [ -53.573149122, -27.550762490999897 ], [ -53.575531387, -27.558171401 ], [ -53.585278596, -27.558571050999902 ], [ -53.588136065, -27.561234688 ], [ -53.593082914, -27.561052829999895 ], [ -53.59520559899989, -27.563935210999901 ], [ -53.593649001, -27.565981001999898 ], [ -53.591261867999897, -27.566141099999985 ], [ -53.579887904, -27.560875070999895 ], [ -53.573675887, -27.562619159 ], [ -53.569537219, -27.566142222999904 ], [ -53.571527749, -27.567975659999895 ], [ -53.5775111089999, -27.564985787 ], [ -53.583627867, -27.569176105999905 ], [ -53.582222466, -27.571431339999901 ], [ -53.572352606, -27.573582309999896 ], [ -53.56851219, -27.578126870999906 ], [ -53.57187948699989, -27.578894305999903 ], [ -53.579957225, -27.577361918 ], [ -53.580432026, -27.580870251 ], [ -53.5861483199999, -27.58574716 ], [ -53.586741673999903, -27.589041643 ], [ -53.584452472999892, -27.590658768 ], [ -53.582403321999898, -27.5899160069999 ], [ -53.579013362, -27.590862354 ], [ -53.581417748, -27.599643016999892 ], [ -53.575367338, -27.600682209 ], [ -53.573722066999899, -27.604362492999901 ], [ -53.57447195799989, -27.606715418 ], [ -53.578800896, -27.607094866 ], [ -53.575624106, -27.609889365999905 ], [ -53.578440788, -27.614332229 ], [ -53.576467933999893, -27.615484084999895 ], [ -53.572306344, -27.613501681999903 ], [ -53.572078722, -27.616063516999901 ], [ -53.569895007, -27.618054942 ], [ -53.564529159, -27.618265311999902 ], [ -53.564945926999897, -27.624344746 ], [ -53.561075495999901, -27.626019544 ], [ -53.560410341, -27.62911445 ], [ -53.565550163999902, -27.629257492 ], [ -53.567602221, -27.630506103999899 ], [ -53.563972367, -27.633515293999903 ], [ -53.563749425, -27.638334668 ], [ -53.559262481, -27.639561147999892 ], [ -53.557586704999892, -27.642706846 ], [ -53.560930582, -27.643120850999896 ], [ -53.564133883999901, -27.640668631 ], [ -53.567409469, -27.641241234999907 ], [ -53.572642519999896, -27.6394356559999 ], [ -53.573934595, -27.637324017 ], [ -53.569537673, -27.638101053999897 ], [ -53.567660326999899, -27.636878260999904 ], [ -53.570745799, -27.634046533999893 ], [ -53.573301445, -27.627099691 ], [ -53.575617741, -27.629135361 ], [ -53.580194505999891, -27.627158123 ], [ -53.581936707999894, -27.627773765 ], [ -53.580355837, -27.635203286 ], [ -53.576889853999894, -27.639096424999902 ], [ -53.5870370969999, -27.638099261 ], [ -53.586514953999902, -27.6416654679999 ], [ -53.581595541999903, -27.642761698999905 ], [ -53.58078475, -27.644221049999896 ], [ -53.581844800999903, -27.645346714 ], [ -53.585880889999892, -27.644205481 ], [ -53.585930048, -27.651083243999892 ], [ -53.589428836, -27.652062000999909 ], [ -53.588967359, -27.655773645999897 ], [ -53.585279289, -27.65782696 ], [ -53.578148222, -27.656318368 ], [ -53.576685319, -27.656990602999905 ], [ -53.576696284, -27.660097780999902 ], [ -53.580855663, -27.659283765999895 ], [ -53.582401424999901, -27.662310150999904 ], [ -53.581055109, -27.665349539 ], [ -53.578105743, -27.663789187 ], [ -53.576064752, -27.664157374999892 ], [ -53.578384953999901, -27.6701461819999 ], [ -53.576738577, -27.672841058 ], [ -53.578191961999892, -27.6759504189999 ], [ -53.577885081, -27.679992250999906 ], [ -53.586413373, -27.682604864 ], [ -53.590049801, -27.688433335999907 ], [ -53.593809518999898, -27.687504106999903 ], [ -53.596551446, -27.689372281 ], [ -53.598746217, -27.688463456 ], [ -53.60462662, -27.689285460999898 ], [ -53.60685783, -27.695381763999894 ], [ -53.617550794999893, -27.697532672 ], [ -53.624334335999905, -27.704773589999895 ], [ -53.63227331, -27.70901779 ] ] ] } }
]
}
