{
"type": "FeatureCollection",
"name": "bairros_roca_sales",
"crs": { "type": "name", "properties": { "name": "urn:ogc:def:crs:OGC:1.3:CRS84" } },
"features": [
{ "type": "Feature", "properties": { "name": "Fátima", "code_muni": 4315800.0, "name_muni": "Roca Sales" }, "geometry": { "type": "MultiPolygon", "coordinates": [ [ [ [ -51.859855540112676, -29.145605904416964 ], [ -51.8598570999999, -29.145604265 ], [ -51.859856137444069, -29.145603024395882 ], [ -51.859855540112676, -29.145605904416964 ] ] ], [ [ [ -51.8560814, -29.149191800000015 ], [ -51.8547636, -29.1501631 ], [ -51.8542116, -29.151149 ], [ -51.8540153, -29.151839 ], [ -51.8537908, -29.1530257 ], [ -51.8536944, -29.1541347 ], [ -51.8535903, -29.1557206 ], [ -51.8536376, -29.15691 ], [ -51.853922693735583, -29.157692057914243 ], [ -51.855085209, -29.150619123 ], [ -51.856774773563977, -29.148843606305626 ], [ -51.8560814, -29.149191800000015 ] ] ], [ [ [ -51.8547438, -29.1586902 ], [ -51.8556371, -29.1596892 ], [ -51.856459268470893, -29.160441170491033 ], [ -51.85453676862096, -29.158441372851801 ], [ -51.8547438, -29.1586902 ] ] ] ] } },
{ "type": "Feature", "properties": { "name": "Lajeadinho", "code_muni": 4315800.0, "name_muni": "Roca Sales" }, "geometry": { "type": "MultiPolygon", "coordinates": [ [ [ [ -51.8670334, -29.2650253 ], [ -51.866598, -29.2665763 ], [ -51.8664391, -29.2685376 ], [ -51.866736467187316, -29.270877934134926 ], [ -51.867366445, -29.264468787999903 ], [ -51.867188896677099, -29.2632861908256 ], [ -51.8670334, -29.2650253 ] ] ], [ [ [ -51.867959, -29.279625 ], [ -51.8684427, -29.2803729 ], [ -51.868778756873276, -29.280747178790879 ], [ -51.867938081957867, -29.279434140724717 ], [ -51.867959, -29.279625 ] ] ] ] } },
{ "type": "Feature", "properties": { "name": "Barra do Jacaré", "code_muni": 4315800.0, "name_muni": "Roca Sales" }, "geometry": { "type": "Polygon", "coordinates": [ [ [ -51.875533313130035, -29.217822968580261 ], [ -51.875789638999898, -29.21704871399989 ], [ -51.875683218447435, -29.216771941724641 ], [ -51.875533313130035, -29.217822968580261 ] ] ] } },
{ "type": "Feature", "properties": { "name": "Vila Moça", "code_muni": 4315800.0, "name_muni": "Roca Sales" }, "geometry": { "type": "Polygon", "coordinates": [ [ [ -51.868815681234814, -29.225413189671652 ], [ -51.872908663, -29.225750279 ], [ -51.873163257984316, -29.224981371795433 ], [ -51.8728316, -29.2252106 ], [ -51.8722236, -29.2253966 ], [ -51.8707164, -29.2253988 ], [ -51.8685902, -29.2250699 ], [ -51.868815681234814, -29.225413189671652 ] ] ] } },
{ "type": "Feature", "properties": { "name": "Porto Quinze", "code_muni": 4315800.0, "name_muni": "Roca Sales" }, "geometry": { "type": "Polygon", "coordinates": [ [ [ -51.8663068, -29.2246966 ], [ -51.8616826, -29.2242097 ], [ -51.8594351, -29.2242922 ], [ -51.8559108, -29.224622399999987 ], [ -51.8544977, -29.2248134 ], [ -51.8534694, -29.2251285 ], [ -51.8529065, -29.2254737 ], [ -51.8508912, -29.2269764 ], [ -51.8505526, -29.2275119 ], [ -51.8504836, -29.22812 ], [ -51.85075, -29.2302956 ], [ -51.8511316, -29.2313039 ], [ -51.852773096626784, -29.233532470842174 ], [ -51.850576423999897, -29.228815184999988 ], [ -51.851313622, -29.227061160999884 ], [ -51.854506989999898, -29.225421383 ], [ -51.859472228999898, -29.224643203999989 ], [ -51.868815681234814, -29.225413189671652 ], [ -51.8685902, -29.2250699 ], [ -51.8663068, -29.2246966 ] ] ] } },
{ "type": "Feature", "properties": { "name": "Santa Clara", "code_muni": 4315800.0, "name_muni": "Roca Sales" }, "geometry": { "type": "Polygon", "coordinates": [ [ [ -51.86537437557503, -29.251198470528134 ], [ -51.865349674999898, -29.251033902 ], [ -51.865301983421595, -29.250969897600211 ], [ -51.86537437557503, -29.251198470528134 ] ] ] } },
{ "type": "Feature", "properties": { "name": "Cidade Nova", "code_muni": 4315800.0, "name_muni": "Roca Sales" }, "geometry": { "type": "Polygon", "coordinates": [ [ [ -51.8737973, -29.2859178 ], [ -51.875145, -29.2871426 ], [ -51.8752422, -29.2872551 ], [ -51.8753278, -29.2873136 ], [ -51.8755424, -29.287355699999988 ], [ -51.8763229, -29.2877889 ], [ -51.8769323, -29.2880488 ], [ -51.8771707, -29.2883146 ], [ -51.877184, -29.2886207 ], [ -51.877184, -29.2888749 ], [ -51.8769257, -29.2892042 ], [ -51.8769588, -29.289533500000012 ], [ -51.8771575, -29.2895335 ], [ -51.8773628, -29.2893255 ], [ -51.877588, -29.289545 ], [ -51.8779987, -29.2895739 ], [ -51.8783961, -29.2898916 ], [ -51.8790915, -29.2904808 ], [ -51.879787, -29.290943 ], [ -51.8799873, -29.2910403 ], [ -51.8800515, -29.2910715 ], [ -51.8801282, -29.2904752 ], [ -51.8801268, -29.2903994 ], [ -51.8801339, -29.2898218 ], [ -51.8801484, -29.2891697 ], [ -51.8801458, -29.2885345 ], [ -51.8801432, -29.287870399999989 ], [ -51.8801316, -29.2870936 ], [ -51.8801453, -29.2870489 ], [ -51.8803213, -29.2867564 ], [ -51.8805342, -29.286368 ], [ -51.8805677, -29.2862907 ], [ -51.8807835, -29.2858714 ], [ -51.8809713, -29.2854817 ], [ -51.8811093, -29.2850654 ], [ -51.8811455, -29.2847683 ], [ -51.8811496, -29.2844572 ], [ -51.8811066, -29.2839344 ], [ -51.881078, -29.2835004 ], [ -51.8804215, -29.2837403 ], [ -51.8795005, -29.2841843 ], [ -51.8790399, -29.2843217 ], [ -51.8780825, -29.284089100000013 ], [ -51.877374003328292, -29.284044958191043 ], [ -51.876068030429458, -29.284476606584931 ], [ -51.8759859, -29.2845542 ], [ -51.8753314, -29.2852307 ], [ -51.8744831, -29.285569 ], [ -51.8740347, -29.2856218 ], [ -51.8736318, -29.2856512 ], [ -51.8737973, -29.2859178 ] ] ] } },
{ "type": "Feature", "properties": { "name": "Júlio de Castilhos", "code_muni": 4315800.0, "name_muni": "Roca Sales" }, "geometry": { "type": "Polygon", "coordinates": [ [ [ -51.867389, -29.289578800000012 ], [ -51.8665529, -29.28957560000001 ], [ -51.8663478, -29.2904506 ], [ -51.8657363, -29.2915828 ], [ -51.8624318, -29.2946425 ], [ -51.8590093, -29.2967104 ], [ -51.8564445, -29.297786 ], [ -51.8557294, -29.2980385 ], [ -51.8556726, -29.2980507 ], [ -51.8522581, -29.2987975 ], [ -51.8522219, -29.3004576 ], [ -51.854222, -29.3004703 ], [ -51.8653671, -29.3005771 ], [ -51.8651944, -29.2941841 ], [ -51.8688074, -29.294226199999986 ], [ -51.8689414, -29.2896397 ], [ -51.867389, -29.289578800000012 ] ] ] } },
{ "type": "Feature", "properties": { "name": "Por do Sol", "code_muni": 4315800.0, "name_muni": "Roca Sales" }, "geometry": { "type": "Polygon", "coordinates": [ [ [ -51.8685131, -29.2821775 ], [ -51.868497, -29.2815664 ], [ -51.8679716, -29.2815933 ], [ -51.8674208, -29.281609 ], [ -51.867444, -29.2812847 ], [ -51.8670643, -29.281264 ], [ -51.8666881, -29.2812434 ], [ -51.8667944, -29.2816168 ], [ -51.8664584, -29.2816163 ], [ -51.8635583, -29.2816124 ], [ -51.8622762, -29.2816171 ], [ -51.8621743, -29.2831986 ], [ -51.8606226, -29.2831986 ], [ -51.8603397, -29.2831986 ], [ -51.8603182, -29.2873159 ], [ -51.8604, -29.2879885 ], [ -51.8631933, -29.2880344 ], [ -51.8656749, -29.2880046 ], [ -51.8656306, -29.2878583 ], [ -51.8656549, -29.2877648 ], [ -51.8657436, -29.2876642 ], [ -51.8661191, -29.2875663 ], [ -51.8665124, -29.287433 ], [ -51.8669784, -29.2871599 ], [ -51.8673498, -29.2867978 ], [ -51.8675374, -29.2865966 ], [ -51.8678887, -29.2864485 ], [ -51.8683423, -29.2863442 ], [ -51.8684768, -29.286324099999987 ], [ -51.8683766, -29.2861286 ], [ -51.8681412, -29.2856789 ], [ -51.8680613, -29.2855147 ], [ -51.8679242, -29.2851996 ], [ -51.8677801, -29.2848104 ], [ -51.8676892, -29.2845391 ], [ -51.8676423, -29.2843762 ], [ -51.8673326, -29.2833849 ], [ -51.8673337, -29.2833856 ], [ -51.8675077, -29.2833926 ], [ -51.8686299, -29.2834017 ], [ -51.8686076, -29.282711 ], [ -51.8685817, -29.2823219 ], [ -51.8685131, -29.2821775 ] ] ] } },
{ "type": "Feature", "properties": { "name": "Dois Lajeados", "code_muni": 4315800.0, "name_muni": "Roca Sales" }, "geometry": { "type": "Polygon", "coordinates": [ [ [ -51.8688074, -29.294226199999986 ], [ -51.8706648, -29.2942358 ], [ -51.8742869, -29.2935116 ], [ -51.8733158, -29.2923116 ], [ -51.8728404, -29.2917305 ], [ -51.8721833, -29.2909482 ], [ -51.8716646, -29.2902938 ], [ -51.8697191, -29.2879921 ], [ -51.8694688, -29.2879781 ], [ -51.8689844, -29.2879714 ], [ -51.8689414, -29.2896397 ], [ -51.8688074, -29.294226199999986 ] ] ] } },
{ "type": "Feature", "properties": { "name": "7 de Setembro", "code_muni": 4315800.0, "name_muni": "Roca Sales" }, "geometry": { "type": "Polygon", "coordinates": [ [ [ -51.872769, -29.3027078 ], [ -51.8738794, -29.3027171 ], [ -51.8744047, -29.3027626 ], [ -51.8757387, -29.3027616 ], [ -51.8762076, -29.3027158 ], [ -51.876213, -29.3011921 ], [ -51.8793964, -29.3011657 ], [ -51.8807137, -29.3011556 ], [ -51.8808157, -29.302703 ], [ -51.8857885, -29.3026891 ], [ -51.8856606, -29.301173799999987 ], [ -51.8856415, -29.3009482 ], [ -51.8850972, -29.3006192 ], [ -51.88372, -29.2999628 ], [ -51.8829118, -29.2995825 ], [ -51.8818624, -29.2990959 ], [ -51.8803819, -29.2984379 ], [ -51.8796959, -29.2981023 ], [ -51.8791129, -29.2977872 ], [ -51.8784797, -29.2973788 ], [ -51.8776112, -29.2968281 ], [ -51.8769528, -29.2963075 ], [ -51.8768966, -29.2962591 ], [ -51.8762075, -29.2956657 ], [ -51.8756905, -29.2951518 ], [ -51.8750732, -29.294424299999989 ], [ -51.874507, -29.293759 ], [ -51.8742869, -29.2935116 ], [ -51.8706648, -29.2942358 ], [ -51.8707663, -29.2969478 ], [ -51.8706769, -29.2969162 ], [ -51.8708403, -29.3006468 ], [ -51.8715459, -29.30064710000001 ], [ -51.8716116, -29.300654099999985 ], [ -51.8723111, -29.3006726 ], [ -51.8727942, -29.3006715 ], [ -51.872769, -29.3027078 ] ] ] } },
{ "type": "Feature", "properties": { "name": "Centro", "code_muni": 4315800.0, "name_muni": "Roca Sales" }, "geometry": { "type": "Polygon", "coordinates": [ [ [ -51.8673337, -29.2833856 ], [ -51.8673326, -29.2833849 ], [ -51.8676423, -29.2843762 ], [ -51.8676892, -29.2845391 ], [ -51.8677801, -29.2848104 ], [ -51.8679242, -29.2851996 ], [ -51.8680613, -29.2855147 ], [ -51.8681412, -29.2856789 ], [ -51.8683766, -29.2861286 ], [ -51.8684768, -29.286324099999987 ], [ -51.8683423, -29.2863442 ], [ -51.8678887, -29.2864485 ], [ -51.8675374, -29.2865966 ], [ -51.8673498, -29.2867978 ], [ -51.8669784, -29.2871599 ], [ -51.8665124, -29.287433 ], [ -51.8661191, -29.2875663 ], [ -51.8657436, -29.2876642 ], [ -51.8656549, -29.2877648 ], [ -51.8656306, -29.2878583 ], [ -51.8656749, -29.2880046 ], [ -51.8658145, -29.288253 ], [ -51.865927, -29.2885142 ], [ -51.8658643, -29.2886343 ], [ -51.865931, -29.2887391 ], [ -51.8660722, -29.2889847 ], [ -51.8662386, -29.2892108 ], [ -51.8662707, -29.289322599999988 ], [ -51.86623190000001, -29.2894132 ], [ -51.8661494, -29.2894588 ], [ -51.8659007, -29.289459 ], [ -51.8656895, -29.2894717 ], [ -51.86557950000001, -29.2895406 ], [ -51.8665529, -29.28957560000001 ], [ -51.867389, -29.289578800000012 ], [ -51.8689414, -29.2896397 ], [ -51.8689844, -29.2879714 ], [ -51.8694688, -29.2879781 ], [ -51.8697191, -29.2879921 ], [ -51.8716646, -29.2902938 ], [ -51.8721833, -29.2909482 ], [ -51.8728404, -29.2917305 ], [ -51.8733158, -29.2923116 ], [ -51.8742869, -29.2935116 ], [ -51.874507, -29.293759 ], [ -51.8750732, -29.294424299999989 ], [ -51.8756905, -29.2951518 ], [ -51.8762075, -29.2956657 ], [ -51.8768966, -29.2962591 ], [ -51.87685, -29.2936331 ], [ -51.8768608, -29.293508 ], [ -51.8768621, -29.2928706 ], [ -51.8768931, -29.2921527 ], [ -51.8770873, -29.2921543 ], [ -51.87788, -29.2921452 ], [ -51.8779214, -29.2922241 ], [ -51.8779383, -29.2922562 ], [ -51.877992, -29.2923635 ], [ -51.8780723, -29.2925195 ], [ -51.8781522, -29.2926747 ], [ -51.8782769, -29.2928847 ], [ -51.8783776, -29.2931022 ], [ -51.878509, -29.2934004 ], [ -51.878605, -29.293616 ], [ -51.8789636, -29.2944139 ], [ -51.8791464, -29.2948205 ], [ -51.8793616, -29.2953323 ], [ -51.8795024, -29.2956006 ], [ -51.8797333, -29.2959415 ], [ -51.8801791, -29.2964876 ], [ -51.8805508, -29.2968461 ], [ -51.8808978, -29.2971848 ], [ -51.8812356, -29.2974981 ], [ -51.8812877, -29.2955408 ], [ -51.8813788, -29.292333 ], [ -51.8808534, -29.2919192 ], [ -51.8805354, -29.2916477 ], [ -51.8803102, -29.2911971 ], [ -51.8800515, -29.2910715 ], [ -51.8799873, -29.2910403 ], [ -51.879787, -29.290943 ], [ -51.8790915, -29.2904808 ], [ -51.8783961, -29.2898916 ], [ -51.8779987, -29.2895739 ], [ -51.877588, -29.289545 ], [ -51.8773628, -29.2893255 ], [ -51.8771575, -29.2895335 ], [ -51.8769588, -29.289533500000012 ], [ -51.8769257, -29.2892042 ], [ -51.877184, -29.2888749 ], [ -51.877184, -29.2886207 ], [ -51.8771707, -29.2883146 ], [ -51.8769323, -29.2880488 ], [ -51.8763229, -29.2877889 ], [ -51.8755424, -29.287355699999988 ], [ -51.8753278, -29.2873136 ], [ -51.8752422, -29.2872551 ], [ -51.875145, -29.2871426 ], [ -51.8737973, -29.2859178 ], [ -51.8736318, -29.2856512 ], [ -51.8736145, -29.2855923 ], [ -51.8732833, -29.285569 ], [ -51.8717805, -29.2848396 ], [ -51.870577, -29.2836608 ], [ -51.8702049, -29.2832963 ], [ -51.8698213, -29.2828096 ], [ -51.8692392, -29.2820663 ], [ -51.8686052, -29.2812668 ], [ -51.8676497, -29.280149 ], [ -51.8672838, -29.2802087 ], [ -51.8664019, -29.2802378 ], [ -51.8666881, -29.2812434 ], [ -51.8670643, -29.281264 ], [ -51.867444, -29.2812847 ], [ -51.8674208, -29.281609 ], [ -51.8679716, -29.2815933 ], [ -51.868497, -29.2815664 ], [ -51.8685131, -29.2821775 ], [ -51.8685817, -29.2823219 ], [ -51.8686076, -29.282711 ], [ -51.8686299, -29.2834017 ], [ -51.8675077, -29.2833926 ], [ -51.8673337, -29.2833856 ] ] ] } },
{ "type": "Feature", "properties": { "name": "Morada do Sol", "code_muni": 4315800.0, "name_muni": "Roca Sales" }, "geometry": { "type": "Polygon", "coordinates": [ [ [ -51.8774092, -29.2936343 ], [ -51.87823, -29.2935922 ], [ -51.878605, -29.293616 ], [ -51.878509, -29.2934004 ], [ -51.8783776, -29.2931022 ], [ -51.8782769, -29.2928847 ], [ -51.8781522, -29.2926747 ], [ -51.8780723, -29.2925195 ], [ -51.877992, -29.2923635 ], [ -51.8779383, -29.2922562 ], [ -51.8779214, -29.2922241 ], [ -51.87788, -29.2921452 ], [ -51.8770873, -29.2921543 ], [ -51.8768931, -29.2921527 ], [ -51.8768621, -29.2928706 ], [ -51.8768608, -29.293508 ], [ -51.87685, -29.2936331 ], [ -51.8774092, -29.2936343 ] ] ] } },
{ "type": "Feature", "properties": { "name": "21 de Abril", "code_muni": 4315800.0, "name_muni": "Roca Sales" }, "geometry": { "type": "Polygon", "coordinates": [ [ [ -51.8811066, -29.2839344 ], [ -51.8811496, -29.2844572 ], [ -51.8811455, -29.2847683 ], [ -51.8811093, -29.2850654 ], [ -51.8809713, -29.2854817 ], [ -51.8807835, -29.2858714 ], [ -51.8805677, -29.2862907 ], [ -51.8805342, -29.286368 ], [ -51.8803213, -29.2867564 ], [ -51.8801453, -29.2870489 ], [ -51.8801316, -29.2870936 ], [ -51.8801432, -29.287870399999989 ], [ -51.8801458, -29.2885345 ], [ -51.8801484, -29.2891697 ], [ -51.8801339, -29.2898218 ], [ -51.8801268, -29.2903994 ], [ -51.8801282, -29.2904752 ], [ -51.8800515, -29.2910715 ], [ -51.8803102, -29.2911971 ], [ -51.8805354, -29.2916477 ], [ -51.8808534, -29.2919192 ], [ -51.8813788, -29.292333 ], [ -51.8812877, -29.2955408 ], [ -51.8812356, -29.2974981 ], [ -51.8815596, -29.2978281 ], [ -51.8818723, -29.2981232 ], [ -51.8832403, -29.2994144 ], [ -51.8835166, -29.2996243 ], [ -51.88372, -29.2999628 ], [ -51.8850972, -29.3006192 ], [ -51.8856415, -29.3009482 ], [ -51.8858186, -29.2924624 ], [ -51.8858193, -29.2924076 ], [ -51.8857388, -29.2905512 ], [ -51.8869257, -29.2902354 ], [ -51.8890929, -29.2902354 ], [ -51.8890609, -29.2857459 ], [ -51.8873659, -29.2857314 ], [ -51.8873709, -29.285264 ], [ -51.8857156, -29.2852505 ], [ -51.8857323, -29.2836823 ], [ -51.8869685, -29.2836923 ], [ -51.8919418, -29.2837325 ], [ -51.8942481, -29.2837741 ], [ -51.893878, -29.283367 ], [ -51.8936259, -29.2830676 ], [ -51.8911851, -29.2816498 ], [ -51.8889588, -29.2813551 ], [ -51.8852198, -29.2822581 ], [ -51.882602, -29.2828991 ], [ -51.881078, -29.2835004 ], [ -51.8811066, -29.2839344 ] ] ] } },
{ "type": "Feature", "properties": { "name": "Distrito Industrial", "code_muni": 4315800.0, "name_muni": "Roca Sales" }, "geometry": { "type": "Polygon", "coordinates": [ [ [ -51.8959218, -29.2858047 ], [ -51.8951815, -29.2847987 ], [ -51.8942481, -29.2837741 ], [ -51.8919418, -29.2837325 ], [ -51.8869685, -29.2836923 ], [ -51.8857323, -29.2836823 ], [ -51.8857156, -29.2852505 ], [ -51.8873709, -29.285264 ], [ -51.8873659, -29.2857314 ], [ -51.8890609, -29.2857459 ], [ -51.8959218, -29.2858047 ] ] ] } }
]
}
