{
"type": "FeatureCollection",
"name": "bairros_encantado",
"crs": { "type": "name", "properties": { "name": "urn:ogc:def:crs:OGC:1.3:CRS84" } },
"features": [
{ "type": "Feature", "properties": { "name": "São José", "code_muni": 4306809.0, "name_muni": "Encantado" }, "geometry": { "type": "Polygon", "coordinates": [ [ [ -51.8866791, -29.1685945 ], [ -51.8868722, -29.1681966 ], [ -51.886471092013224, -29.168039457276596 ], [ -51.886287911845933, -29.169811481673662 ], [ -51.8866791, -29.1685945 ] ] ] } },
{ "type": "Feature", "properties": { "name": "Vespasiano Corrêa", "code_muni": 4306809.0, "name_muni": "Encantado" }, "geometry": { "type": "Polygon", "coordinates": [ [ [ -51.8868722, -29.1681966 ], [ -51.88719, -29.167587 ], [ -51.8872921, -29.1672612 ], [ -51.8872869, -29.1669798 ], [ -51.8872155, -29.1664772 ], [ -51.8870112, -29.1648065 ], [ -51.886915612603076, -29.163739090136136 ], [ -51.886471092013224, -29.168039457276596 ], [ -51.8868722, -29.1681966 ] ] ] } },
{ "type": "Feature", "properties": { "name": "Jacarezinho", "code_muni": 4306809.0, "name_muni": "Encantado" }, "geometry": { "type": "Polygon", "coordinates": [ [ [ -51.9035564, -29.1999574 ], [ -51.90303380000001, -29.2001008 ], [ -51.9027213, -29.2001046 ], [ -51.9025285, -29.2000379 ], [ -51.9022941, -29.2000239 ], [ -51.9019565, -29.200082099999989 ], [ -51.9015295, -29.2000692 ], [ -51.9011321, -29.199993 ], [ -51.9007229, -29.200001 ], [ -51.9003722, -29.2000509 ], [ -51.89995840000001, -29.200168299999987 ], [ -51.8996589, -29.2003383 ], [ -51.8992099, -29.2007522 ], [ -51.8993819, -29.2014206 ], [ -51.8994114, -29.201554 ], [ -51.9003314, -29.2075547 ], [ -51.8988347, -29.2101908 ], [ -51.8998171, -29.2104977 ], [ -51.9017422, -29.2110992 ], [ -51.9031477, -29.2079152 ], [ -51.9052935, -29.2046 ], [ -51.907053, -29.2026896 ], [ -51.9084048, -29.202727 ], [ -51.9098854, -29.2030267 ], [ -51.915974, -29.2064566 ], [ -51.9160545, -29.2062132 ], [ -51.9161269, -29.2060774 ], [ -51.9163039, -29.2059369 ], [ -51.916438, -29.2058831 ], [ -51.9166285, -29.2057613 ], [ -51.9167143, -29.2056864 ], [ -51.9167599, -29.2055763 ], [ -51.9167197, -29.2050425 ], [ -51.9166419, -29.2048131 ], [ -51.9167706, -29.204593 ], [ -51.9168001, -29.2039422 ], [ -51.9169608, -29.2037711 ], [ -51.916765, -29.203558899999987 ], [ -51.9163193, -29.2029341 ], [ -51.9159682, -29.2022562 ], [ -51.9155698, -29.2015312 ], [ -51.9149756, -29.2005115 ], [ -51.9142345, -29.1995017 ], [ -51.9139098, -29.199154299999989 ], [ -51.9137431, -29.1991184 ], [ -51.9135707, -29.1991515 ], [ -51.9134278, -29.1992017 ], [ -51.913178, -29.1993019 ], [ -51.9129681, -29.1993876 ], [ -51.9128133, -29.1993844 ], [ -51.9124892, -29.1992842 ], [ -51.9122056, -29.199296 ], [ -51.9118747, -29.199349 ], [ -51.9114696, -29.199431600000011 ], [ -51.9110779, -29.1995494 ], [ -51.9107207, -29.1996303 ], [ -51.9103653, -29.1997414 ], [ -51.9100671, -29.199898 ], [ -51.9096219, -29.2001894 ], [ -51.909334, -29.2003387 ], [ -51.9090014, -29.20037090000001 ], [ -51.9086907, -29.2003164 ], [ -51.9084096, -29.2001767 ], [ -51.9080393, -29.2000151 ], [ -51.9076004, -29.199797 ], [ -51.9071412, -29.1995553 ], [ -51.9068441, -29.19952 ], [ -51.90652, -29.199508199999986 ], [ -51.9058583, -29.1996261 ], [ -51.9055484, -29.1996579 ], [ -51.9052978, -29.199632 ], [ -51.9050092, -29.1995977 ], [ -51.9047517, -29.1997459 ], [ -51.9044472, -29.1998895 ], [ -51.9041691, -29.1999267 ], [ -51.9040143, -29.1999293 ], [ -51.9035564, -29.1999574 ] ] ] } },
{ "type": "Feature", "properties": { "name": "São José", "code_muni": 4306809.0, "name_muni": "Encantado" }, "geometry": { "type": "Polygon", "coordinates": [ [ [ -51.8998171, -29.2104977 ], [ -51.8988347, -29.2101908 ], [ -51.8971074, -29.2135901 ], [ -51.8958306, -29.2135807 ], [ -51.8946876, -29.2133321 ], [ -51.8943723, -29.2133601 ], [ -51.8940002, -29.2132978 ], [ -51.8936248, -29.2131023 ], [ -51.893164, -29.2127965 ], [ -51.8929564, -29.2125267 ], [ -51.8927089, -29.2122817 ], [ -51.8921942, -29.2119419 ], [ -51.8917904, -29.2116366 ], [ -51.8916843, -29.2113768 ], [ -51.8914483, -29.2107183 ], [ -51.8910361, -29.2098748 ], [ -51.8907641, -29.2093376 ], [ -51.8905092, -29.2089853 ], [ -51.8901538, -29.2087196 ], [ -51.8894908, -29.2083706 ], [ -51.8892435, -29.2082869 ], [ -51.8889905, -29.2082729 ], [ -51.8887985, -29.2083196 ], [ -51.888564, -29.2084816 ], [ -51.8883637, -29.2087183 ], [ -51.8881635, -29.2090688 ], [ -51.8879805, -29.2095063 ], [ -51.8877845, -29.2102684 ], [ -51.8875959, -29.2107847 ], [ -51.887341, -29.2113897 ], [ -51.8870859, -29.2120927 ], [ -51.886944, -29.2123377 ], [ -51.8867695, -29.2125546 ], [ -51.8864246, -29.2127418 ], [ -51.8858613, -29.2129148 ], [ -51.8859506, -29.2133973 ], [ -51.8860496, -29.2135566 ], [ -51.8862723, -29.2139487 ], [ -51.8865267, -29.2143668 ], [ -51.88699, -29.2152786 ], [ -51.8876983, -29.2164573 ], [ -51.8884288, -29.2176131 ], [ -51.888586, -29.2178794 ], [ -51.8889218, -29.2184248 ], [ -51.8890971, -29.2187203 ], [ -51.8894254, -29.2193153 ], [ -51.8896763, -29.2200189 ], [ -51.8897195, -29.220206 ], [ -51.8897886, -29.2205052 ], [ -51.8898955, -29.2211779 ], [ -51.889925, -29.2214743 ], [ -51.8899248, -29.2218941 ], [ -51.8899148, -29.2221426 ], [ -51.88990840000001, -29.2222998 ], [ -51.889732, -29.2227215 ], [ -51.8896669, -29.2229634 ], [ -51.8896094, -29.2231213 ], [ -51.8895418, -29.2232927 ], [ -51.8894324, -29.2234985 ], [ -51.8893702, -29.2236261 ], [ -51.889315, -29.2237488 ], [ -51.8892163, -29.223983 ], [ -51.8891558, -29.2241772 ], [ -51.8891265, -29.224289 ], [ -51.8891552, -29.2244754 ], [ -51.8895079, -29.224478 ], [ -51.8895705, -29.2244785 ], [ -51.8912568, -29.2246192 ], [ -51.8918789, -29.224709 ], [ -51.8925116, -29.2247743 ], [ -51.8932708, -29.22484 ], [ -51.8934472, -29.2248551 ], [ -51.8942574, -29.2249243 ], [ -51.8951149, -29.2250107 ], [ -51.8960614, -29.2251107 ], [ -51.897427, -29.2252524 ], [ -51.8986083, -29.225381 ], [ -51.8987258, -29.2253726 ], [ -51.8997457, -29.225328399999984 ], [ -51.9051004, -29.2216991 ], [ -51.9053793, -29.2163056 ], [ -51.9053579, -29.2125974 ], [ -51.9010878, -29.2125413 ], [ -51.9017422, -29.2110992 ], [ -51.8998171, -29.2104977 ] ] ] } },
{ "type": "Feature", "properties": { "name": "Lambari", "code_muni": 4306809.0, "name_muni": "Encantado" }, "geometry": { "type": "Polygon", "coordinates": [ [ [ -51.900301, -29.2332895 ], [ -51.9002959, -29.2332157 ], [ -51.9001794, -29.2316402 ], [ -51.9000103, -29.2293529 ], [ -51.8997457, -29.225328399999984 ], [ -51.8987258, -29.2253726 ], [ -51.8986083, -29.225381 ], [ -51.897427, -29.2252524 ], [ -51.8960614, -29.2251107 ], [ -51.8951149, -29.2250107 ], [ -51.8942574, -29.2249243 ], [ -51.8934472, -29.2248551 ], [ -51.8932708, -29.22484 ], [ -51.8925116, -29.2247743 ], [ -51.8918789, -29.224709 ], [ -51.8912568, -29.2246192 ], [ -51.8895705, -29.2244785 ], [ -51.8895079, -29.224478 ], [ -51.8891552, -29.2244754 ], [ -51.8891384, -29.2246067 ], [ -51.8890759, -29.22486970000001 ], [ -51.8889926, -29.225393 ], [ -51.8886268, -29.2264384 ], [ -51.8883733, -29.2272516 ], [ -51.888294, -29.2275061 ], [ -51.8881889, -29.2277709 ], [ -51.8881667, -29.2278324 ], [ -51.88802230000001, -29.228233 ], [ -51.8878856, -29.2286123 ], [ -51.8877334, -29.2290033 ], [ -51.8870584, -29.2302436 ], [ -51.8866309, -29.2307602 ], [ -51.886218, -29.2313599 ], [ -51.8857774, -29.2318392 ], [ -51.8852815, -29.2322948 ], [ -51.8852689, -29.2323036 ], [ -51.8847409, -29.232673099999989 ], [ -51.8844457, -29.2329037 ], [ -51.884276, -29.2330473 ], [ -51.8841, -29.2331682 ], [ -51.8837976, -29.2333506 ], [ -51.8842971, -29.2333583 ], [ -51.8843193, -29.233414499999984 ], [ -51.8843267, -29.23349 ], [ -51.8843454, -29.233580099999987 ], [ -51.8843132, -29.2336649 ], [ -51.884383, -29.2339224 ], [ -51.8844795, -29.2340933 ], [ -51.8845814, -29.2341846 ], [ -51.8847236, -29.2342501 ], [ -51.8849435, -29.2343929 ], [ -51.8852547, -29.2345005 ], [ -51.885531, -29.234552 ], [ -51.8857509, -29.234662 ], [ -51.8860808, -29.2349265 ], [ -51.8861988, -29.2349499 ], [ -51.8863651, -29.2349546 ], [ -51.8867379, -29.2348493 ], [ -51.8869861, -29.234891 ], [ -51.8871442, -29.2349594 ], [ -51.8872563, -29.2350266 ], [ -51.8874028, -29.2351164 ], [ -51.8874165, -29.2351711 ], [ -51.8873844, -29.2352355 ], [ -51.8874009, -29.2354712 ], [ -51.8874595, -29.2363753 ], [ -51.887497, -29.2365298 ], [ -51.8875453, -29.2369932 ], [ -51.8879771, -29.2421188 ], [ -51.9052076, -29.2428864 ], [ -51.9062046, -29.240867 ], [ -51.9004963, -29.2361108 ], [ -51.900301, -29.2332895 ] ] ] } },
{ "type": "Feature", "properties": { "name": "Palmas", "code_muni": 4306809.0, "name_muni": "Encantado" }, "geometry": { "type": "Polygon", "coordinates": [ [ [ -51.91042190000001, -29.2911337 ], [ -51.9072676, -29.2872504 ], [ -51.8999291, -29.2827307 ], [ -51.897922800000011, -29.2820241 ], [ -51.8979764, -29.2821505 ], [ -51.8979389, -29.2822441 ], [ -51.8978423, -29.2824453 ], [ -51.8975365, -29.2827728 ], [ -51.8974748, -29.2828079 ], [ -51.8973461, -29.2828991 ], [ -51.8967372, -29.2833015 ], [ -51.8963134, -29.2837787 ], [ -51.895954, -29.2839051 ], [ -51.8957155, -29.284028299999989 ], [ -51.8982027, -29.2869854 ], [ -51.8986864, -29.2875604 ], [ -51.9003172, -29.290274 ], [ -51.9005942, -29.2920975 ], [ -51.8997164, -29.2944472 ], [ -51.9005424, -29.294414 ], [ -51.9012916, -29.2944882 ], [ -51.9018696, -29.2946562 ], [ -51.902206518693617, -29.294718421192581 ], [ -51.902506709914, -29.294597524143974 ], [ -51.9025087, -29.294596 ], [ -51.9026546, -29.2943409 ], [ -51.9028409, -29.2939815 ], [ -51.9030817, -29.293669 ], [ -51.903173, -29.293476699999985 ], [ -51.9035058, -29.2934332 ], [ -51.904477, -29.2934757 ], [ -51.9050339, -29.2934862 ], [ -51.9054232, -29.2933869 ], [ -51.9057106, -29.2931989 ], [ -51.9059921, -29.2930631 ], [ -51.9062676, -29.2931206 ], [ -51.9064053, -29.2932773 ], [ -51.9065131, -29.2934131 ], [ -51.9066269, -29.2937839 ], [ -51.9064173, -29.2941495 ], [ -51.9062676, -29.2943584 ], [ -51.906272886501831, -29.294418683942567 ], [ -51.906485509372558, -29.294580674044596 ], [ -51.9067466, -29.2945359 ], [ -51.9074413, -29.294186 ], [ -51.9078345, -29.293959 ], [ -51.9079802, -29.2937212 ], [ -51.90813, -29.2935645 ], [ -51.9084713, -29.2933713 ], [ -51.9087827, -29.2931937 ], [ -51.9088066, -29.293084 ], [ -51.9088426, -29.2929691 ], [ -51.909118, -29.2928229 ], [ -51.9094654, -29.2927811 ], [ -51.9099804, -29.292755 ], [ -51.9103736, -29.2927492 ], [ -51.91042190000001, -29.2911337 ] ] ] } },
{ "type": "Feature", "properties": { "name": "Lajeadinho", "code_muni": 4306809.0, "name_muni": "Encantado" }, "geometry": { "type": "Polygon", "coordinates": [ [ [ -51.8672808, -29.262258299999989 ], [ -51.867188896677099, -29.2632861908256 ], [ -51.867366445, -29.264468787999903 ], [ -51.866736467187316, -29.270877934134926 ], [ -51.8670482, -29.2733312 ], [ -51.867336, -29.2747876 ], [ -51.8676811, -29.2764741 ], [ -51.8680524, -29.2784295 ], [ -51.867936668229135, -29.279084617801743 ], [ -51.870813472868036, -29.283013084554909 ], [ -51.8722165, -29.2841998 ], [ -51.873302255233256, -29.284765012276257 ], [ -51.875592236952471, -29.284101112498139 ], [ -51.8759772, -29.2838349 ], [ -51.8775767, -29.2831561 ], [ -51.879163436938008, -29.283065673555868 ], [ -51.879226430335919, -29.283047408119849 ], [ -51.8798585, -29.2823641 ], [ -51.8801391, -29.2820449 ], [ -51.8812249, -29.2816769 ], [ -51.883238, -29.281286599999987 ], [ -51.8872099, -29.2801662 ], [ -51.8887443, -29.280046699999986 ], [ -51.8899372, -29.2800742 ], [ -51.8911333, -29.2805009 ], [ -51.8919122, -29.2809732 ], [ -51.8930197, -29.2816639 ], [ -51.8950815, -29.2832746 ], [ -51.8957155, -29.284028299999989 ], [ -51.895954, -29.2839051 ], [ -51.8963134, -29.2837787 ], [ -51.8967372, -29.2833015 ], [ -51.8973461, -29.2828991 ], [ -51.8974748, -29.2828079 ], [ -51.8975365, -29.2827728 ], [ -51.8978423, -29.2824453 ], [ -51.8979389, -29.2822441 ], [ -51.8979764, -29.2821505 ], [ -51.897922800000011, -29.2820241 ], [ -51.8977511, -29.2817996 ], [ -51.8975526, -29.281224 ], [ -51.8973488, -29.2811398 ], [ -51.8972307, -29.281130499999989 ], [ -51.8962973, -29.2811351 ], [ -51.8960828, -29.2811164 ], [ -51.896013, -29.2810416 ], [ -51.896013, -29.2808216 ], [ -51.8960398, -29.2807281 ], [ -51.893996, -29.2798765 ], [ -51.890831, -29.2775088 ], [ -51.8887711, -29.2764794 ], [ -51.8861103, -29.2759179 ], [ -51.8850374, -29.2744392 ], [ -51.8834067, -29.2707893 ], [ -51.8837714, -29.269816 ], [ -51.8835139, -29.2688801 ], [ -51.8835569, -29.2677382 ], [ -51.8806601, -29.2683934 ], [ -51.8794799, -29.2664092 ], [ -51.8773127, -29.2648181 ], [ -51.873343, -29.2628339 ], [ -51.8722647, -29.2617061 ], [ -51.8672808, -29.262258299999989 ] ] ] } },
{ "type": "Feature", "properties": { "name": "Santo Antão", "code_muni": 4306809.0, "name_muni": "Encantado" }, "geometry": { "type": "Polygon", "coordinates": [ [ [ -51.8872563, -29.2350266 ], [ -51.8871442, -29.2349594 ], [ -51.8869861, -29.234891 ], [ -51.8867379, -29.2348493 ], [ -51.8863651, -29.2349546 ], [ -51.8861988, -29.2349499 ], [ -51.8860808, -29.2349265 ], [ -51.8857509, -29.234662 ], [ -51.885531, -29.234552 ], [ -51.8852547, -29.2345005 ], [ -51.8849435, -29.2343929 ], [ -51.8847236, -29.2342501 ], [ -51.8845814, -29.2341846 ], [ -51.8844795, -29.2340933 ], [ -51.884383, -29.2339224 ], [ -51.8843132, -29.2336649 ], [ -51.8843454, -29.233580099999987 ], [ -51.8843267, -29.23349 ], [ -51.8843193, -29.233414499999984 ], [ -51.8842971, -29.2333583 ], [ -51.8837976, -29.2333506 ], [ -51.8822652, -29.2342421 ], [ -51.8812639, -29.234787 ], [ -51.8802898, -29.2353761 ], [ -51.8794424, -29.2358556 ], [ -51.8792097, -29.2360085 ], [ -51.8787129, -29.2363471 ], [ -51.8783421, -29.236646 ], [ -51.8780438, -29.2368979 ], [ -51.8774737, -29.2374284 ], [ -51.8771893, -29.2377492 ], [ -51.8769009, -29.2381588 ], [ -51.8764503, -29.238841 ], [ -51.8753747, -29.2404557 ], [ -51.8750502, -29.2409428 ], [ -51.8748705, -29.2412189 ], [ -51.8750046, -29.2413558 ], [ -51.8750972, -29.241467 ], [ -51.8751924, -29.2415735 ], [ -51.8753949, -29.2418684 ], [ -51.87547940000001, -29.241993599999986 ], [ -51.8754244, -29.2421247 ], [ -51.8752635, -29.242361 ], [ -51.8843065, -29.2421738 ], [ -51.8879771, -29.2421188 ], [ -51.8875453, -29.2369932 ], [ -51.887497, -29.2365298 ], [ -51.8874595, -29.2363753 ], [ -51.8874009, -29.2354712 ], [ -51.8873844, -29.2352355 ], [ -51.8874165, -29.2351711 ], [ -51.8874028, -29.2351164 ], [ -51.8872563, -29.2350266 ] ] ] } },
{ "type": "Feature", "properties": { "name": "Planalto", "code_muni": 4306809.0, "name_muni": "Encantado" }, "geometry": { "type": "Polygon", "coordinates": [ [ [ -51.884276, -29.2330473 ], [ -51.8844457, -29.2329037 ], [ -51.8847409, -29.232673099999989 ], [ -51.8852689, -29.2323036 ], [ -51.8852815, -29.2322948 ], [ -51.8857774, -29.2318392 ], [ -51.886218, -29.2313599 ], [ -51.8866309, -29.2307602 ], [ -51.8870584, -29.2302436 ], [ -51.8877334, -29.2290033 ], [ -51.8878856, -29.2286123 ], [ -51.88802230000001, -29.228233 ], [ -51.8881667, -29.2278324 ], [ -51.8881889, -29.2277709 ], [ -51.888294, -29.2275061 ], [ -51.8883733, -29.2272516 ], [ -51.8886268, -29.2264384 ], [ -51.8889926, -29.225393 ], [ -51.8890759, -29.22486970000001 ], [ -51.8891384, -29.2246067 ], [ -51.8891552, -29.2244754 ], [ -51.8889181, -29.224500200000012 ], [ -51.8879325, -29.2244014 ], [ -51.8869033, -29.2243322 ], [ -51.8858563, -29.2242198 ], [ -51.8856342, -29.2241942 ], [ -51.8846892, -29.224105 ], [ -51.8838667, -29.2240392 ], [ -51.8837531, -29.2240277 ], [ -51.8828169, -29.2239053 ], [ -51.8816884, -29.223868899999985 ], [ -51.881533, -29.2238892 ], [ -51.8815987, -29.2239666 ], [ -51.882706, -29.2249778 ], [ -51.8827951, -29.2251283 ], [ -51.8828782, -29.2252712 ], [ -51.8829348, -29.2260231 ], [ -51.8830251, -29.2269034 ], [ -51.8831298, -29.2280217 ], [ -51.8832148, -29.2289052 ], [ -51.8832821, -29.2297339 ], [ -51.8833896, -29.2307036 ], [ -51.8833921, -29.2312838 ], [ -51.8833903, -29.2315586 ], [ -51.8832549, -29.231794 ], [ -51.8831369, -29.2320925 ], [ -51.8829974, -29.23230310000001 ], [ -51.8828805, -29.2324461 ], [ -51.8828899, -29.2324607 ], [ -51.8829422, -29.2325204 ], [ -51.8830043, -29.2325953 ], [ -51.883074, -29.232667799999987 ], [ -51.8833771, -29.2328925 ], [ -51.883707, -29.2331945 ], [ -51.8837976, -29.2333506 ], [ -51.8841, -29.2331682 ], [ -51.884276, -29.2330473 ] ] ] } },
{ "type": "Feature", "properties": { "name": "Barra do Jacaré", "code_muni": 4306809.0, "name_muni": "Encantado" }, "geometry": { "type": "Polygon", "coordinates": [ [ [ -51.8854327, -29.2130821 ], [ -51.8852095, -29.2131695 ], [ -51.8848929, -29.2132961 ], [ -51.8832137, -29.2141799 ], [ -51.8805958, -29.2159591 ], [ -51.8798395, -29.216417899999989 ], [ -51.8795013, -29.2164438 ], [ -51.879126, -29.2163992 ], [ -51.8786029, -29.2161941 ], [ -51.8776883, -29.2154722 ], [ -51.8768898, -29.2150774 ], [ -51.8758673, -29.2147291 ], [ -51.8758472, -29.2156222 ], [ -51.87525, -29.2198093 ], [ -51.8748046, -29.2219638 ], [ -51.8744023, -29.2233361 ], [ -51.8785974, -29.2241664 ], [ -51.8797056, -29.223886299999986 ], [ -51.8811268, -29.2235765 ], [ -51.881533, -29.2238892 ], [ -51.8816884, -29.223868899999985 ], [ -51.8828169, -29.2239053 ], [ -51.8837531, -29.2240277 ], [ -51.8838667, -29.2240392 ], [ -51.8846892, -29.224105 ], [ -51.8856342, -29.2241942 ], [ -51.8858563, -29.2242198 ], [ -51.8869033, -29.2243322 ], [ -51.8879325, -29.2244014 ], [ -51.8889181, -29.224500200000012 ], [ -51.8891552, -29.2244754 ], [ -51.8891265, -29.224289 ], [ -51.8891558, -29.2241772 ], [ -51.8892163, -29.223983 ], [ -51.889315, -29.2237488 ], [ -51.8893702, -29.2236261 ], [ -51.8894324, -29.2234985 ], [ -51.8895418, -29.2232927 ], [ -51.8896094, -29.2231213 ], [ -51.8896669, -29.2229634 ], [ -51.889732, -29.2227215 ], [ -51.88990840000001, -29.2222998 ], [ -51.8899148, -29.2221426 ], [ -51.8899248, -29.2218941 ], [ -51.889925, -29.2214743 ], [ -51.8898955, -29.2211779 ], [ -51.8897886, -29.2205052 ], [ -51.8897195, -29.220206 ], [ -51.8896763, -29.2200189 ], [ -51.8894254, -29.2193153 ], [ -51.8890971, -29.2187203 ], [ -51.8889218, -29.2184248 ], [ -51.888586, -29.2178794 ], [ -51.8884288, -29.2176131 ], [ -51.8876983, -29.2164573 ], [ -51.88699, -29.2152786 ], [ -51.8865267, -29.2143668 ], [ -51.8862723, -29.2139487 ], [ -51.8860496, -29.2135566 ], [ -51.8859506, -29.2133973 ], [ -51.8858613, -29.2129148 ], [ -51.8854327, -29.2130821 ] ] ] } },
{ "type": "Feature", "properties": { "name": "Vila Amazonas", "code_muni": 4306809.0, "name_muni": "Encantado" }, "geometry": { "type": "Polygon", "coordinates": [ [ [ -51.874174221115602, -29.223772845550545 ], [ -51.8740986, -29.224269362 ], [ -51.8736093719331, -29.224619580139677 ], [ -51.8735093, -29.2247422 ], [ -51.8747377, -29.2254117 ], [ -51.8748987, -29.22554280000001 ], [ -51.8749684, -29.2256317 ], [ -51.8756422, -29.22612830000001 ], [ -51.875722, -29.2262515 ], [ -51.8757194, -29.2263433 ], [ -51.8756229, -29.2265727 ], [ -51.8755853, -29.2268817 ], [ -51.8756175, -29.226970600000012 ], [ -51.8756872, -29.2270455 ], [ -51.8758482, -29.2271719 ], [ -51.876213, -29.2275371 ], [ -51.8761861, -29.227729 ], [ -51.8761057, -29.2279069 ], [ -51.876111, -29.2282065 ], [ -51.8761432, -29.2283048 ], [ -51.8762022, -29.2283844 ], [ -51.8764812, -29.228684 ], [ -51.8768513, -29.228979 ], [ -51.8784124, -29.2295922 ], [ -51.8784982, -29.2296437 ], [ -51.8790814, -29.229704899999987 ], [ -51.8794685, -29.2298668 ], [ -51.8796281, -29.2299891 ], [ -51.8798195, -29.2302221 ], [ -51.8800107, -29.2305112 ], [ -51.8799698, -29.2307164 ], [ -51.8801397, -29.2309592 ], [ -51.8805796, -29.2312354 ], [ -51.8809283, -29.2315116 ], [ -51.8816847, -29.2319797 ], [ -51.8820414, -29.2321529 ], [ -51.8824786, -29.2321365 ], [ -51.882728, -29.2322793 ], [ -51.8828805, -29.2324461 ], [ -51.8829974, -29.23230310000001 ], [ -51.8831369, -29.2320925 ], [ -51.8832549, -29.231794 ], [ -51.8833903, -29.2315586 ], [ -51.8833921, -29.2312838 ], [ -51.8833896, -29.2307036 ], [ -51.8832821, -29.2297339 ], [ -51.8832148, -29.2289052 ], [ -51.8831298, -29.2280217 ], [ -51.8830251, -29.2269034 ], [ -51.8829348, -29.2260231 ], [ -51.8828782, -29.2252712 ], [ -51.8827951, -29.2251283 ], [ -51.882706, -29.2249778 ], [ -51.8815987, -29.2239666 ], [ -51.881533, -29.2238892 ], [ -51.8811268, -29.2235765 ], [ -51.8797056, -29.223886299999986 ], [ -51.8785974, -29.2241664 ], [ -51.8744023, -29.2233361 ], [ -51.874174221115602, -29.223772845550545 ] ] ] } },
{ "type": "Feature", "properties": { "name": "Vila Moça", "code_muni": 4306809.0, "name_muni": "Encantado" }, "geometry": { "type": "Polygon", "coordinates": [ [ [ -51.8741677, -29.2335607 ], [ -51.8739114, -29.2336659 ], [ -51.8737366, -29.2337075 ], [ -51.873891, -29.234593100000012 ], [ -51.8746007, -29.234515 ], [ -51.8750668, -29.234349 ], [ -51.8765455, -29.2336694 ], [ -51.8770373, -29.2334408 ], [ -51.8809283, -29.2315116 ], [ -51.8805796, -29.2312354 ], [ -51.8801397, -29.2309592 ], [ -51.8799698, -29.2307164 ], [ -51.8800107, -29.2305112 ], [ -51.8798195, -29.2302221 ], [ -51.8796281, -29.2299891 ], [ -51.8794685, -29.2298668 ], [ -51.8790814, -29.229704899999987 ], [ -51.8784982, -29.2296437 ], [ -51.8784124, -29.2295922 ], [ -51.8768513, -29.228979 ], [ -51.8764812, -29.228684 ], [ -51.8762022, -29.2283844 ], [ -51.8761432, -29.2283048 ], [ -51.876111, -29.2282065 ], [ -51.8761057, -29.2279069 ], [ -51.8761861, -29.227729 ], [ -51.876213, -29.2275371 ], [ -51.8758482, -29.2271719 ], [ -51.8756872, -29.2270455 ], [ -51.8756175, -29.226970600000012 ], [ -51.8755853, -29.2268817 ], [ -51.8756229, -29.2265727 ], [ -51.8757194, -29.2263433 ], [ -51.875722, -29.2262515 ], [ -51.8756422, -29.22612830000001 ], [ -51.8749684, -29.2256317 ], [ -51.8748987, -29.22554280000001 ], [ -51.8747377, -29.2254117 ], [ -51.8735093, -29.2247422 ], [ -51.8728316, -29.2252106 ], [ -51.872748037655725, -29.225236163682762 ], [ -51.871543585, -29.226098346 ], [ -51.86906991408781, -29.225800249680614 ], [ -51.8741677, -29.2335607 ] ] ] } },
{ "type": "Feature", "properties": { "name": "Porto Quinze", "code_muni": 4306809.0, "name_muni": "Encantado" }, "geometry": { "type": "Polygon", "coordinates": [ [ [ -51.8605984, -29.2362828 ], [ -51.8613008, -29.235945 ], [ -51.8613987, -29.2358978 ], [ -51.861668, -29.2357056 ], [ -51.8621715, -29.2354433 ], [ -51.8632261, -29.2349169 ], [ -51.8643112, -29.2343797 ], [ -51.8652303, -29.2339592 ], [ -51.8654621, -29.2348277 ], [ -51.8668272, -29.2346597 ], [ -51.8692625, -29.2343225 ], [ -51.8702763, -29.2341916 ], [ -51.871338, -29.2340688 ], [ -51.8718568, -29.2339701 ], [ -51.8724855, -29.233832099999987 ], [ -51.8737366, -29.2337075 ], [ -51.8739114, -29.2336659 ], [ -51.8741677, -29.2335607 ], [ -51.86906991408781, -29.225800249680614 ], [ -51.859472228999898, -29.224643203999989 ], [ -51.854506989999898, -29.225421383 ], [ -51.851313622, -29.227061160999884 ], [ -51.850576423999897, -29.228815184999988 ], [ -51.856737759129665, -29.238083133314436 ], [ -51.8605984, -29.2362828 ] ] ] } },
{ "type": "Feature", "properties": { "name": "Centro", "code_muni": 4306809.0, "name_muni": "Encantado" }, "geometry": { "type": "Polygon", "coordinates": [ [ [ -51.8783421, -29.236646 ], [ -51.8787129, -29.2363471 ], [ -51.8792097, -29.2360085 ], [ -51.8794424, -29.2358556 ], [ -51.8802898, -29.2353761 ], [ -51.8812639, -29.234787 ], [ -51.8822652, -29.2342421 ], [ -51.8837976, -29.2333506 ], [ -51.883707, -29.2331945 ], [ -51.8833771, -29.2328925 ], [ -51.883074, -29.232667799999987 ], [ -51.8830043, -29.2325953 ], [ -51.8829422, -29.2325204 ], [ -51.8828899, -29.2324607 ], [ -51.8828805, -29.2324461 ], [ -51.882728, -29.2322793 ], [ -51.8824786, -29.2321365 ], [ -51.8820414, -29.2321529 ], [ -51.8816847, -29.2319797 ], [ -51.8809283, -29.2315116 ], [ -51.8770373, -29.2334408 ], [ -51.8765455, -29.2336694 ], [ -51.8750668, -29.234349 ], [ -51.8746007, -29.234515 ], [ -51.873891, -29.234593100000012 ], [ -51.8737366, -29.2337075 ], [ -51.8724855, -29.233832099999987 ], [ -51.8718568, -29.2339701 ], [ -51.871338, -29.2340688 ], [ -51.8702763, -29.2341916 ], [ -51.8692625, -29.2343225 ], [ -51.8668272, -29.2346597 ], [ -51.8654621, -29.2348277 ], [ -51.8652303, -29.2339592 ], [ -51.8643112, -29.2343797 ], [ -51.8632261, -29.2349169 ], [ -51.8621715, -29.2354433 ], [ -51.861668, -29.2357056 ], [ -51.8613987, -29.2358978 ], [ -51.8613008, -29.235945 ], [ -51.8605984, -29.2362828 ], [ -51.856737759129665, -29.238083133314436 ], [ -51.857773548863122, -29.239640982199731 ], [ -51.8590261, -29.2393643 ], [ -51.8617219, -29.2389766 ], [ -51.8621478, -29.2389223 ], [ -51.8630434, -29.2388042 ], [ -51.8631887, -29.2396793 ], [ -51.863361, -29.2405743 ], [ -51.863564, -29.2414931 ], [ -51.864504, -29.2413324 ], [ -51.8650942, -29.2412552 ], [ -51.8665484, -29.2410563 ], [ -51.8666415, -29.2415881 ], [ -51.866721, -29.2419696 ], [ -51.8668545, -29.242847399999988 ], [ -51.8668655, -29.2429695 ], [ -51.8669982, -29.2437407 ], [ -51.8690132, -29.2434864 ], [ -51.8708232, -29.243118 ], [ -51.8709129, -29.2431872 ], [ -51.8717556, -29.2430972 ], [ -51.8718553, -29.2430565 ], [ -51.8718597, -29.2430848 ], [ -51.8722862, -29.2430509 ], [ -51.8731754, -29.242892900000012 ], [ -51.8738652, -29.2428182 ], [ -51.8739653, -29.2426173 ], [ -51.8741798, -29.2422709 ], [ -51.8744293, -29.2418976 ], [ -51.8748705, -29.2412189 ], [ -51.8750502, -29.2409428 ], [ -51.8753747, -29.2404557 ], [ -51.8764503, -29.238841 ], [ -51.8769009, -29.2381588 ], [ -51.8771893, -29.2377492 ], [ -51.8774737, -29.2374284 ], [ -51.8780438, -29.2368979 ], [ -51.8783421, -29.236646 ] ] ] } },
{ "type": "Feature", "properties": { "name": "Nossa Senhora Aparecida", "code_muni": 4306809.0, "name_muni": "Encantado" }, "geometry": { "type": "Polygon", "coordinates": [ [ [ -51.8640006, -29.248723 ], [ -51.86501950000001, -29.2500778 ], [ -51.8652731, -29.2508787 ], [ -51.86809250000001, -29.2493293 ], [ -51.8678727, -29.2488254 ], [ -51.8677681, -29.2482963 ], [ -51.8687246, -29.2482672 ], [ -51.8690075, -29.24822630000001 ], [ -51.8698038, -29.2479228 ], [ -51.8690132, -29.2434864 ], [ -51.8669982, -29.2437407 ], [ -51.8668655, -29.2429695 ], [ -51.8668545, -29.242847399999988 ], [ -51.866721, -29.2419696 ], [ -51.8666415, -29.2415881 ], [ -51.8665484, -29.2410563 ], [ -51.8650942, -29.2412552 ], [ -51.864504, -29.2413324 ], [ -51.863564, -29.2414931 ], [ -51.8636703, -29.2422376 ], [ -51.8638085, -29.2429331 ], [ -51.8640081, -29.2441742 ], [ -51.861102404249323, -29.244647263706632 ], [ -51.86301842400043, -29.247528508733247 ], [ -51.8640006, -29.248723 ] ] ] } },
{ "type": "Feature", "properties": { "name": "Santa Clara", "code_muni": 4306809.0, "name_muni": "Encantado" }, "geometry": { "type": "Polygon", "coordinates": [ [ [ -51.8722647, -29.2617061 ], [ -51.8718195, -29.2600072 ], [ -51.8720341, -29.2579106 ], [ -51.8728924, -29.2561883 ], [ -51.8737936, -29.2550276 ], [ -51.8755961, -29.255065 ], [ -51.8768835, -29.2536048 ], [ -51.878686, -29.2500852 ], [ -51.8790937, -29.247276899999985 ], [ -51.8774843, -29.2439256 ], [ -51.8752635, -29.242361 ], [ -51.8754244, -29.2421247 ], [ -51.87547940000001, -29.241993599999986 ], [ -51.8753949, -29.2418684 ], [ -51.8751924, -29.2415735 ], [ -51.8750972, -29.241467 ], [ -51.8750046, -29.2413558 ], [ -51.8748705, -29.2412189 ], [ -51.8744293, -29.2418976 ], [ -51.8741798, -29.2422709 ], [ -51.8739653, -29.2426173 ], [ -51.8738652, -29.2428182 ], [ -51.8731754, -29.242892900000012 ], [ -51.8722862, -29.2430509 ], [ -51.8718597, -29.2430848 ], [ -51.8718553, -29.2430565 ], [ -51.8717556, -29.2430972 ], [ -51.8709129, -29.2431872 ], [ -51.8708232, -29.243118 ], [ -51.8690132, -29.2434864 ], [ -51.8698038, -29.2479228 ], [ -51.8690075, -29.24822630000001 ], [ -51.8687246, -29.2482672 ], [ -51.8677681, -29.2482963 ], [ -51.8678727, -29.2488254 ], [ -51.86809250000001, -29.2493293 ], [ -51.8652731, -29.2508787 ], [ -51.865297324984049, -29.250955188886469 ], [ -51.865349674999898, -29.251033902 ], [ -51.86537437557503, -29.251198470528134 ], [ -51.8655558, -29.2517713 ], [ -51.8662263, -29.2536211 ], [ -51.8672965, -29.2560266 ], [ -51.8672651, -29.2573867 ], [ -51.8670535, -29.2590088 ], [ -51.8672808, -29.262258299999989 ], [ -51.8722647, -29.2617061 ] ] ] } },
{ "type": "Feature", "properties": { "name": "Navegantes", "code_muni": 4306809.0, "name_muni": "Encantado" }, "geometry": { "type": "Polygon", "coordinates": [ [ [ -51.8640081, -29.2441742 ], [ -51.8638085, -29.2429331 ], [ -51.8636703, -29.2422376 ], [ -51.863564, -29.2414931 ], [ -51.863361, -29.2405743 ], [ -51.8631887, -29.2396793 ], [ -51.8630434, -29.2388042 ], [ -51.8621478, -29.2389223 ], [ -51.8617219, -29.2389766 ], [ -51.8590261, -29.2393643 ], [ -51.857773548863122, -29.239640982199731 ], [ -51.861102404249323, -29.244647263706632 ], [ -51.8640081, -29.2441742 ] ] ] } }
]
}
