{
"type": "FeatureCollection",
"name": "bairros_lagoao",
"crs": { "type": "name", "properties": { "name": "urn:ogc:def:crs:OGC:1.3:CRS84" } },
"features": [
{ "type": "Feature", "properties": { "code_muni": 4311254.0, "name_muni": "Lagoão", "code_state": 43.0, "abbrev_state": "RS", "name_state": "Rio Grande do Sul", "code_region": 4.0, "name_region": "Sul", "year": 2022.0 }, "geometry": { "type": "Polygon", "coordinates": [ [ [ -52.820474150546602, -29.316264340358192 ], [ -52.822672990999898, -29.319503658 ], [ -52.8245081008873, -29.327471239083994 ], [ -52.83100729465189, -29.327285041172594 ], [ -52.832829374213503, -29.328450994760701 ], [ -52.834256891534302, -29.326518083108994 ], [ -52.837284824236399, -29.325795457881402 ], [ -52.840380222, -29.328619739 ], [ -52.8450915889999, -29.323873153 ], [ -52.852586006, -29.319386331 ], [ -52.85541168399989, -29.320087303 ], [ -52.855877108999891, -29.321992771999895 ], [ -52.857137394999896, -29.321631146999902 ], [ -52.857967105999897, -29.317271441999903 ], [ -52.871959854999901, -29.321822380999905 ], [ -52.87443624, -29.31967028 ], [ -52.879198946, -29.321316534999902 ], [ -52.879539805, -29.319778173 ], [ -52.883951416999899, -29.318425911 ], [ -52.887915942999896, -29.315433208999895 ], [ -52.890165553, -29.319690894 ], [ -52.899445630999899, -29.316239426 ], [ -52.891227843, -29.312668502 ], [ -52.891144633, -29.308309053 ], [ -52.882578946, -29.300934471999899 ], [ -52.8884507, -29.295609279 ], [ -52.886000575, -29.294591484 ], [ -52.885960247999897, -29.285074113999901 ], [ -52.8929526639999, -29.279745714999891 ], [ -52.895605847999903, -29.273932374 ], [ -52.893083351, -29.272177325 ], [ -52.896414150999902, -29.266476929 ], [ -52.891661239, -29.263198240999902 ], [ -52.885964521999902, -29.262881259 ], [ -52.884498101, -29.255395431999897 ], [ -52.885195914, -29.250584531999888 ], [ -52.892546997, -29.245414530999899 ], [ -52.890156648, -29.241651866 ], [ -52.889786095, -29.236905475999901 ], [ -52.892958265999901, -29.232061764 ], [ -52.89613000899989, -29.234826046 ], [ -52.899276181999902, -29.234324347 ], [ -52.899445656999902, -29.223619631 ], [ -52.896101226, -29.213646541999886 ], [ -52.884755434999903, -29.208716357999897 ], [ -52.883021088, -29.204316914999897 ], [ -52.883304285999898, -29.197816139999901 ], [ -52.87964878199989, -29.193356487999907 ], [ -52.873065859, -29.191892681 ], [ -52.868803753999892, -29.188629800999902 ], [ -52.869141237, -29.184789835999901 ], [ -52.840665093, -29.140206849 ], [ -52.83802708799989, -29.139944575999891 ], [ -52.836587428, -29.141108879999909 ], [ -52.834345782, -29.138093011 ], [ -52.830263809, -29.137705023 ], [ -52.830126527999909, -29.133746932999895 ], [ -52.8264305, -29.133441267 ], [ -52.825036091999898, -29.131742679 ], [ -52.824736577, -29.1258375479999 ], [ -52.821023548, -29.124451092999895 ], [ -52.821509877, -29.12217702 ], [ -52.81697402399989, -29.121807353999888 ], [ -52.816524693, -29.118349807 ], [ -52.803582580999901, -29.120222968999908 ], [ -52.797178994, -29.114664897 ], [ -52.792070915999901, -29.117537683 ], [ -52.78911993, -29.115654621 ], [ -52.784338520999903, -29.11508537 ], [ -52.782539453, -29.1181265119999 ], [ -52.773090776999894, -29.124469091999988 ], [ -52.769583255, -29.129811190999895 ], [ -52.7580063629999, -29.140450605 ], [ -52.750974020999891, -29.144093567 ], [ -52.752403967, -29.149275836 ], [ -52.75028929, -29.153260551 ], [ -52.75247159, -29.165146141 ], [ -52.745481046, -29.164961574999896 ], [ -52.740368417999896, -29.168336087999894 ], [ -52.737139139, -29.167558242 ], [ -52.737112064, -29.165252918 ], [ -52.734913881, -29.164039983999903 ], [ -52.727976279, -29.166687393 ], [ -52.721865161, -29.166640852999894 ], [ -52.720153048, -29.169013775999893 ], [ -52.717728742, -29.168563154 ], [ -52.717675527, -29.167186414999897 ], [ -52.71423499, -29.16744632 ], [ -52.717023213999902, -29.170417648 ], [ -52.714584104, -29.171896150999903 ], [ -52.715585317, -29.173498155999905 ], [ -52.712306329999905, -29.173310186 ], [ -52.713146606, -29.175518102999902 ], [ -52.707259710999899, -29.179781880999904 ], [ -52.708629435, -29.182028258999893 ], [ -52.704617626999891, -29.184839113 ], [ -52.704316277, -29.186436966 ], [ -52.700539178, -29.185582864 ], [ -52.702201709999898, -29.186940864 ], [ -52.702017979999901, -29.189021764 ], [ -52.698072951, -29.1932871459999 ], [ -52.695106422, -29.193902765 ], [ -52.69535912, -29.195220563 ], [ -52.692111886, -29.192083728999908 ], [ -52.694350348999897, -29.191609224999986 ], [ -52.695606079999891, -29.189086014999894 ], [ -52.686314787, -29.186600933 ], [ -52.682520814, -29.183200159 ], [ -52.684343376999898, -29.181417456 ], [ -52.680942843, -29.180163100999895 ], [ -52.672715619, -29.182854829999894 ], [ -52.670223227999898, -29.189273547 ], [ -52.665162439, -29.188703755999892 ], [ -52.661458599999897, -29.194188175 ], [ -52.6688049159999, -29.197443267 ], [ -52.670371239, -29.201672016 ], [ -52.665606409, -29.202159042999895 ], [ -52.661764873, -29.204602555999895 ], [ -52.661002179, -29.206609401 ], [ -52.663065559, -29.208580814999902 ], [ -52.670040092, -29.210554916 ], [ -52.666940946, -29.215947346999901 ], [ -52.669266701, -29.221726247999985 ], [ -52.671004256999893, -29.221544806999894 ], [ -52.674105149999903, -29.217899525 ], [ -52.67908677, -29.219974719999989 ], [ -52.675673786999894, -29.225032757999902 ], [ -52.6778057779999, -29.228585457 ], [ -52.6740293249999, -29.233148238999899 ], [ -52.67540759, -29.239467271 ], [ -52.674122101, -29.243028169999899 ], [ -52.676883022, -29.248100317 ], [ -52.67974821099989, -29.246891779999903 ], [ -52.680649937999895, -29.247890051 ], [ -52.675842568999897, -29.253806172999891 ], [ -52.684976866999897, -29.260766886999903 ], [ -52.686548673999901, -29.266706176 ], [ -52.688192237999893, -29.26618364 ], [ -52.691788046999896, -29.260425831 ], [ -52.694702396, -29.260650353999903 ], [ -52.696446103, -29.262686287999898 ], [ -52.699038594999898, -29.271257106999911 ], [ -52.693142359, -29.272160718999903 ], [ -52.695302345999899, -29.280524369 ], [ -52.691621731999895, -29.284192953999899 ], [ -52.691082364999907, -29.2865428429999 ], [ -52.697930903, -29.287253506 ], [ -52.705039252999903, -29.29365983 ], [ -52.708701995999895, -29.288223129999906 ], [ -52.714993536, -29.288882542999904 ], [ -52.71583528, -29.289853254 ], [ -52.712741907, -29.294161706 ], [ -52.714009131999909, -29.295877656 ], [ -52.717599562, -29.292133845 ], [ -52.721802443999891, -29.292502009 ], [ -52.727427163, -29.291021877999984 ], [ -52.730097249000011, -29.291828611 ], [ -52.728807832, -29.296550569 ], [ -52.72116377, -29.296199409999907 ], [ -52.719966133999904, -29.297706505999898 ], [ -52.720503499, -29.30217574800001 ], [ -52.713154523999897, -29.30331889699989 ], [ -52.709631155, -29.30615585999989 ], [ -52.711449403, -29.307518624999901 ], [ -52.716838114, -29.305446966 ], [ -52.719054352999898, -29.305963302999906 ], [ -52.719951379, -29.311449186999898 ], [ -52.724288720999894, -29.316445829 ], [ -52.723562569, -29.317884539 ], [ -52.719747016, -29.3187672349999 ], [ -52.718978561, -29.320800383999895 ], [ -52.720794463999901, -29.321475453999902 ], [ -52.72396800300001, -29.319363501999906 ], [ -52.72659149, -29.320229019999896 ], [ -52.727628400999897, -29.327695336 ], [ -52.732549749, -29.328347570999899 ], [ -52.728681098, -29.336274359 ], [ -52.728883826999891, -29.342075902 ], [ -52.731699864999896, -29.342334612999899 ], [ -52.736590667, -29.336312216 ], [ -52.739348397, -29.334591821999897 ], [ -52.740498547, -29.335177272999911 ], [ -52.741186924, -29.344742075999893 ], [ -52.73659137499989, -29.346418012 ], [ -52.734195005999901, -29.349203723999899 ], [ -52.735775938, -29.350173087 ], [ -52.739680001, -29.348283877 ], [ -52.741388617, -29.348810181 ], [ -52.741260954, -29.35498838 ], [ -52.743293338999898, -29.35903253 ], [ -52.744633515, -29.367623427 ], [ -52.750303714786995, -29.363406370036998 ], [ -52.754236147593403, -29.364199584758794 ], [ -52.757115092097493, -29.362935398795798 ], [ -52.75904501184489, -29.364603274394092 ], [ -52.760395955668194, -29.360617724530194 ], [ -52.763535173752793, -29.359946679039997 ], [ -52.764739262, -29.357504710999905 ], [ -52.771203506254096, -29.355291854254595 ], [ -52.775959253448399, -29.351694058908809 ], [ -52.77812642938499, -29.352894504403093 ], [ -52.781049638103404, -29.351777275631797 ], [ -52.778084821023391, -29.349846470600106 ], [ -52.779658557999902, -29.348623385999904 ], [ -52.776601969841295, -29.345743177925904 ], [ -52.779319792604902, -29.342510119706798 ], [ -52.781455098307191, -29.343014731750792 ], [ -52.781315223389697, -29.340456260159002 ], [ -52.785711545163096, -29.335672183867501 ], [ -52.787781339827994, -29.336286571163193 ], [ -52.789245179276001, -29.334160412036699 ], [ -52.792774484831192, -29.333072716574584 ], [ -52.792249067658091, -29.332256506155204 ], [ -52.794759134109, -29.330041328630003 ], [ -52.796053227, -29.330312762999899 ], [ -52.796082774999903, -29.327296385 ], [ -52.798224935, -29.328735005999892 ], [ -52.798023975786393, -29.330221538529091 ], [ -52.801597584, -29.33059831799989 ], [ -52.8036736731407, -29.329154321464603 ], [ -52.802516351126798, -29.325326031304201 ], [ -52.8042306855559, -29.323838714539985 ], [ -52.808155516733699, -29.323838714540102 ], [ -52.810945259586397, -29.318013488063304 ], [ -52.816213473647892, -29.3158462884982 ], [ -52.820474150546602, -29.316264340358192 ] ] ] } }
]
}
