{
"type": "FeatureCollection",
"name": "bairros_dois_irmaos_das_missoes",
"crs": { "type": "name", "properties": { "name": "urn:ogc:def:crs:OGC:1.3:CRS84" } },
"features": [
{ "type": "Feature", "properties": { "code_muni": 4306429.0, "name_muni": "Dois Irmãos das Missões", "code_state": 43.0, "abbrev_state": "RS", "name_state": "Rio Grande do Sul", "code_region": 4.0, "name_region": "Sul", "year": 2022.0 }, "geometry": { "type": "Polygon", "coordinates": [ [ [ -53.5089328, -27.605114725 ], [ -53.496837893, -27.604734818999898 ], [ -53.496219116, -27.607555117999897 ], [ -53.493076233, -27.610260277 ], [ -53.492750699999895, -27.614315317 ], [ -53.485315876, -27.620710954999897 ], [ -53.481420531, -27.627917913 ], [ -53.476904713999893, -27.627833532999901 ], [ -53.47663154299989, -27.629898861999898 ], [ -53.470882028999903, -27.630554495 ], [ -53.466985367999889, -27.62854163 ], [ -53.462972054, -27.628585498999904 ], [ -53.461128464999895, -27.626483387999908 ], [ -53.459392432999898, -27.626809137 ], [ -53.45755686, -27.625242097 ], [ -53.456860816, -27.620818094 ], [ -53.455170255, -27.618828137 ], [ -53.452128107, -27.622664853999904 ], [ -53.434801368, -27.631876352999896 ], [ -53.431236, -27.635076725 ], [ -53.422727326, -27.635020261 ], [ -53.420825405, -27.629559997999898 ], [ -53.414836625, -27.623410532 ], [ -53.401115354999895, -27.621852929999903 ], [ -53.400477627, -27.620505449999907 ], [ -53.391202047, -27.627808671 ], [ -53.39139779899989, -27.6297656089999 ], [ -53.39797047, -27.629532443999896 ], [ -53.397526622, -27.633205948999901 ], [ -53.399122851, -27.634174618 ], [ -53.401064963, -27.63228988 ], [ -53.402988869, -27.632403247999893 ], [ -53.403686772999897, -27.634519849999901 ], [ -53.401135752, -27.639983129 ], [ -53.397485704, -27.642169243999898 ], [ -53.400566407, -27.646430677 ], [ -53.399946403999898, -27.648294872 ], [ -53.393773015, -27.654337746 ], [ -53.395445263999896, -27.654448430999889 ], [ -53.394970186, -27.655655438999908 ], [ -53.396789079, -27.655397163 ], [ -53.397813114, -27.657765719999897 ], [ -53.394557722999899, -27.666648689999896 ], [ -53.3972472, -27.66847136 ], [ -53.398439732, -27.675376623 ], [ -53.402745416999899, -27.679248813 ], [ -53.40072657799989, -27.68448703 ], [ -53.401549988999911, -27.687222424 ], [ -53.400882661, -27.6879509669999 ], [ -53.399704132, -27.686920206 ], [ -53.39660245999989, -27.688683629 ], [ -53.392776211, -27.687749955 ], [ -53.390683812, -27.689255986 ], [ -53.397705026, -27.692583138 ], [ -53.420518442999899, -27.692178564 ], [ -53.423000594, -27.696415558 ], [ -53.429555287, -27.6994741849999 ], [ -53.434192401, -27.705982662999901 ], [ -53.427875497999892, -27.709526133999901 ], [ -53.425667668, -27.712169477 ], [ -53.423476816999901, -27.717218698999901 ], [ -53.423739563, -27.721025024 ], [ -53.429424357999899, -27.7286044109999 ], [ -53.435253648, -27.733517545 ], [ -53.436865790999896, -27.737920045 ], [ -53.439651340999902, -27.740832058 ], [ -53.447381418, -27.747069471 ], [ -53.451897384999896, -27.746872862 ], [ -53.460172276, -27.755989814 ], [ -53.4686936109999, -27.747671121999904 ], [ -53.471767274999905, -27.747056057 ], [ -53.473730019999891, -27.744179142999904 ], [ -53.479150065999903, -27.741310378 ], [ -53.481988168, -27.741458474999902 ], [ -53.489694384, -27.738015545999904 ], [ -53.499600292, -27.741375214999891 ], [ -53.504087268, -27.737833612 ], [ -53.50817068899989, -27.738993082 ], [ -53.522037127, -27.734740117999898 ], [ -53.525789830999898, -27.735360625999906 ], [ -53.529177398999892, -27.732150073999904 ], [ -53.532762642, -27.735159758999902 ], [ -53.536235244, -27.734619216999899 ], [ -53.539304455, -27.736384775 ], [ -53.541036156, -27.733123411 ], [ -53.542905848, -27.733045126 ], [ -53.544099046, -27.736156808 ], [ -53.54888848, -27.7363710509999 ], [ -53.55169576, -27.740271288 ], [ -53.557106183, -27.741731788 ], [ -53.559371923, -27.744482877999911 ], [ -53.566158174999892, -27.740084200999892 ], [ -53.566565349, -27.735179764999895 ], [ -53.564068689, -27.732152390999889 ], [ -53.568436157999891, -27.729370839 ], [ -53.570416909, -27.729976952 ], [ -53.568327348, -27.732767082999899 ], [ -53.569158844, -27.735660532999894 ], [ -53.574605546, -27.730562985999907 ], [ -53.575676044, -27.7320018939999 ], [ -53.574561919, -27.735409443 ], [ -53.578534891999901, -27.736400752 ], [ -53.580648535, -27.7349447789999 ], [ -53.581268969, -27.729382815999902 ], [ -53.579195988, -27.728799726 ], [ -53.577508767, -27.725260259 ], [ -53.575403643999891, -27.724935128 ], [ -53.573752294, -27.71987424 ], [ -53.571086411, -27.718467238 ], [ -53.570681943, -27.716229304 ], [ -53.574399515, -27.717664247 ], [ -53.577150209, -27.717268399 ], [ -53.581235264, -27.711981735999895 ], [ -53.584190323, -27.712066519 ], [ -53.588907682999896, -27.71550079 ], [ -53.591610886, -27.713396041999896 ], [ -53.59167235000001, -27.710821252 ], [ -53.585786782, -27.707016123999907 ], [ -53.582813082, -27.706371405 ], [ -53.578477892, -27.708457135999897 ], [ -53.576426517, -27.706673942999895 ], [ -53.577365718, -27.702624436 ], [ -53.58212062, -27.700364588999896 ], [ -53.581393284999898, -27.694321363 ], [ -53.583440161999896, -27.690505883 ], [ -53.582528151, -27.687653478999898 ], [ -53.580633188, -27.686288003999898 ], [ -53.575803103999903, -27.688634771 ], [ -53.575874865999893, -27.686392106 ], [ -53.574213497999907, -27.685890363999899 ], [ -53.570241210999896, -27.687220709 ], [ -53.571484122, -27.68515966 ], [ -53.571079977, -27.681854873 ], [ -53.576360533999903, -27.683959340999895 ], [ -53.579857795, -27.681598407 ], [ -53.57781502599989, -27.679728482 ], [ -53.578191961999892, -27.6759504189999 ], [ -53.576738577, -27.672841058 ], [ -53.578384953999901, -27.6701461819999 ], [ -53.576064752, -27.664157374999892 ], [ -53.578105743, -27.663789187 ], [ -53.581055109, -27.665349539 ], [ -53.582401424999901, -27.662310150999904 ], [ -53.580855663, -27.659283765999895 ], [ -53.576696284, -27.660097780999902 ], [ -53.576685319, -27.656990602999905 ], [ -53.578148222, -27.656318368 ], [ -53.585279289, -27.65782696 ], [ -53.589090698999897, -27.655196815999894 ], [ -53.589325898, -27.651723788 ], [ -53.585813405, -27.650822166 ], [ -53.585991561, -27.64433686 ], [ -53.581844800999903, -27.645346714 ], [ -53.58078475, -27.644221049999896 ], [ -53.581595541999903, -27.642761698999905 ], [ -53.586514953999902, -27.6416654679999 ], [ -53.5870370969999, -27.638099261 ], [ -53.576889853999894, -27.639096424999902 ], [ -53.580355837, -27.635203286 ], [ -53.582517095, -27.628268192999894 ], [ -53.580194505999891, -27.627158123 ], [ -53.575617741, -27.629135361 ], [ -53.573301445, -27.627099691 ], [ -53.570745799, -27.634046533999893 ], [ -53.567660326999899, -27.636878260999904 ], [ -53.569537673, -27.638101053999897 ], [ -53.573630712999901, -27.637202004999892 ], [ -53.573487127999989, -27.638583781 ], [ -53.568079567, -27.641053787 ], [ -53.564133883999901, -27.640668631 ], [ -53.561750104999895, -27.642845737 ], [ -53.558171828999903, -27.643049818999906 ], [ -53.558866424, -27.639864315999898 ], [ -53.564039419, -27.637958361999907 ], [ -53.563972367, -27.633515293999903 ], [ -53.567602221, -27.630506103999899 ], [ -53.565550163999902, -27.629257492 ], [ -53.56081556, -27.629769143 ], [ -53.56022516, -27.627826515 ], [ -53.562358535, -27.624925119999904 ], [ -53.564874271999891, -27.624526644999897 ], [ -53.564889257999901, -27.617804679 ], [ -53.56962242, -27.618114956999893 ], [ -53.570521668, -27.617040468 ], [ -53.568081237999891, -27.61035491 ], [ -53.565738532, -27.6099688319999 ], [ -53.562572012, -27.6070449159999 ], [ -53.557875274, -27.607977546 ], [ -53.556159446, -27.610507954999903 ], [ -53.552695861, -27.606201153 ], [ -53.548618779, -27.605561813 ], [ -53.544540309999903, -27.607682112 ], [ -53.531790687, -27.6080181099999 ], [ -53.51997825, -27.602100702 ], [ -53.518168709999891, -27.602589302999903 ], [ -53.514050143, -27.600890547999896 ], [ -53.5089328, -27.605114725 ] ] ] } }
]
}
