{
"type": "FeatureCollection",
"name": "bairros_nicolau_vergueiro",
"crs": { "type": "name", "properties": { "name": "urn:ogc:def:crs:OGC:1.3:CRS84" } },
"features": [
{ "type": "Feature", "properties": { "code_muni": 4312674.0, "name_muni": "Nicolau Vergueiro", "code_state": 43.0, "abbrev_state": "RS", "name_state": "Rio Grande do Sul", "code_region": 4.0, "name_region": "Sul", "year": 2022.0 }, "geometry": { "type": "Polygon", "coordinates": [ [ [ -52.493717123999893, -28.481437051999904 ], [ -52.476575194, -28.477044017 ], [ -52.464510709, -28.4767071959999 ], [ -52.458397203999894, -28.473626754 ], [ -52.448873228, -28.472292509999903 ], [ -52.445888618, -28.473100128999903 ], [ -52.440963413, -28.477189027 ], [ -52.437116113999892, -28.480876049 ], [ -52.435942587999889, -28.484343840999909 ], [ -52.431817405999894, -28.485931880999903 ], [ -52.42596979599989, -28.482511160999898 ], [ -52.424860657999901, -28.483610631 ], [ -52.424172483999897, -28.481808348999895 ], [ -52.419502889999897, -28.479690127 ], [ -52.417869497, -28.478136639 ], [ -52.419291169, -28.474293009999901 ], [ -52.415098776, -28.47690367 ], [ -52.411469639, -28.475916825 ], [ -52.411849844999892, -28.474258666 ], [ -52.408654148, -28.473250645999904 ], [ -52.402376389, -28.4731960139999 ], [ -52.403035932, -28.468726568 ], [ -52.400137099999895, -28.468025850999894 ], [ -52.396370138, -28.469364443 ], [ -52.391642708999903, -28.467629813 ], [ -52.389123438999903, -28.469245459999989 ], [ -52.389405778, -28.472781465 ], [ -52.384061602, -28.477614737 ], [ -52.375408776, -28.477047089999903 ], [ -52.372852682, -28.479101305 ], [ -52.372089129, -28.481473725999905 ], [ -52.385615292, -28.488604618999897 ], [ -52.382111892999902, -28.488740701 ], [ -52.381903936, -28.4917945619999 ], [ -52.375846700999901, -28.498345599999904 ], [ -52.377980814999894, -28.502804915999899 ], [ -52.376483284999892, -28.506739153999902 ], [ -52.377136137, -28.510004441 ], [ -52.374472757, -28.51034248 ], [ -52.371639928, -28.508076775999903 ], [ -52.370994222, -28.511006279999904 ], [ -52.362273129, -28.509130666 ], [ -52.357183274, -28.515015874 ], [ -52.354140418999989, -28.520369084 ], [ -52.3544265519999, -28.525430597 ], [ -52.349052055, -28.530091473 ], [ -52.349928835, -28.535398310999895 ], [ -52.353284862, -28.539519197999894 ], [ -52.350505227, -28.546543440999987 ], [ -52.356944982, -28.547832104 ], [ -52.363029168, -28.552957298 ], [ -52.366671664, -28.550901982 ], [ -52.363967734, -28.55941136 ], [ -52.365344755, -28.563757992 ], [ -52.368538405, -28.565709746 ], [ -52.370940555999894, -28.569350574999902 ], [ -52.37435357, -28.569484405 ], [ -52.377785292999903, -28.565134057 ], [ -52.385722889, -28.567293570999901 ], [ -52.388459377999901, -28.569534209 ], [ -52.39369859, -28.568170403 ], [ -52.398114063, -28.566244861 ], [ -52.399332677, -28.5638391049999 ], [ -52.403124099, -28.563850376999891 ], [ -52.40510919, -28.560852098999899 ], [ -52.414056095, -28.559951140999896 ], [ -52.416434809999892, -28.555994266 ], [ -52.421664042, -28.556511123 ], [ -52.422673367, -28.553831554999899 ], [ -52.4253226169999, -28.553375612 ], [ -52.424908618, -28.550912179 ], [ -52.42791191, -28.551206534999899 ], [ -52.428989644, -28.549201899 ], [ -52.431667567, -28.549832296 ], [ -52.43424114, -28.548854182999889 ], [ -52.438237619999903, -28.555724363 ], [ -52.440217620999903, -28.555729528 ], [ -52.443382664, -28.559580047999901 ], [ -52.449024521999903, -28.559494835999903 ], [ -52.449489712999892, -28.556712814 ], [ -52.452322588, -28.5578606989999 ], [ -52.453076521, -28.560325552999899 ], [ -52.45114907, -28.561168886 ], [ -52.45074511099989, -28.563045035 ], [ -52.457631122999899, -28.565192215 ], [ -52.464928584999903, -28.561288012999988 ], [ -52.470192529, -28.562604189 ], [ -52.473385667999899, -28.561524334999895 ], [ -52.473360963999902, -28.557312072999899 ], [ -52.4755296, -28.559239969 ], [ -52.480675505, -28.556611166 ], [ -52.482793568, -28.5586099729999 ], [ -52.484928472, -28.558460398 ], [ -52.485718339999899, -28.556795615999903 ], [ -52.49093285, -28.558834051 ], [ -52.489233406, -28.555289194999901 ], [ -52.490392804, -28.554461343999886 ], [ -52.493228479, -28.555232766 ], [ -52.492194298, -28.552729367 ], [ -52.494128137, -28.551394636999898 ], [ -52.493909526, -28.54966264 ], [ -52.495649429, -28.549411771999896 ], [ -52.501828864999894, -28.551620961 ], [ -52.502620444999899, -28.554914584 ], [ -52.498053097, -28.562978764 ], [ -52.498732689999898, -28.567034399 ], [ -52.497252155999902, -28.568788240999901 ], [ -52.503933878999902, -28.566279922 ], [ -52.506493942, -28.566664714999899 ], [ -52.507420856999893, -28.567289016 ], [ -52.506122569, -28.571642722 ], [ -52.507799088999903, -28.572179153 ], [ -52.507811932, -28.574589199999899 ], [ -52.510756928, -28.574626056999904 ], [ -52.513061487999892, -28.571763764 ], [ -52.514352206, -28.571821821 ], [ -52.515447421, -28.562329233999908 ], [ -52.523900383, -28.562170882 ], [ -52.526312675, -28.563618135 ], [ -52.525726069, -28.559270066999904 ], [ -52.52213619, -28.551882639999988 ], [ -52.522778791999897, -28.543719133 ], [ -52.5263557809999, -28.535060859999902 ], [ -52.532572035, -28.530798622 ], [ -52.53601201299989, -28.531138464 ], [ -52.540852103, -28.536648829999901 ], [ -52.5428972, -28.544095868999907 ], [ -52.546173173999897, -28.547378045 ], [ -52.549438672999898, -28.54606344 ], [ -52.552263468, -28.543190013 ], [ -52.552474319999902, -28.526750121 ], [ -52.5551869, -28.52316411 ], [ -52.555384537, -28.519534187 ], [ -52.547202464, -28.518902973 ], [ -52.544417982, -28.516778407999904 ], [ -52.546713779, -28.505141895999905 ], [ -52.544566015, -28.498033493 ], [ -52.525635554, -28.499258519 ], [ -52.518314489, -28.495027297 ], [ -52.515142179999899, -28.489315545 ], [ -52.511663021999901, -28.476011582999895 ], [ -52.508953923, -28.475627374999895 ], [ -52.502122793999895, -28.479316941 ], [ -52.493717123999893, -28.481437051999904 ] ] ] } }
]
}
