{
"type": "FeatureCollection",
"name": "bairros_westfalia",
"crs": { "type": "name", "properties": { "name": "urn:ogc:def:crs:OGC:1.3:CRS84" } },
"features": [
{ "type": "Feature", "properties": { "name": "Boa Vista", "code_muni": 4323770.0, "name_muni": "Westfália" }, "geometry": { "type": "MultiPolygon", "coordinates": [ [ [ [ -51.7782895, -29.4606348 ], [ -51.7778362, -29.4602137 ], [ -51.777468, -29.4598611 ], [ -51.7770443, -29.4594322 ], [ -51.7768132, -29.4590876 ], [ -51.7766577, -29.4589255 ], [ -51.7764509, -29.4586705 ], [ -51.7761572, -29.458433 ], [ -51.7758409, -29.458204499999987 ], [ -51.775466, -29.4578799 ], [ -51.7751593, -29.4576382 ], [ -51.7748257, -29.4573089 ], [ -51.7744385, -29.4570833 ], [ -51.7740669, -29.4568445 ], [ -51.7735447, -29.4565318 ], [ -51.7730788, -29.4564973 ], [ -51.7726062, -29.4563542 ], [ -51.772099, -29.456219099999988 ], [ -51.7714017, -29.4559688 ], [ -51.77061530000001, -29.4555999 ], [ -51.770325, -29.4555505 ], [ -51.7699454, -29.4556145 ], [ -51.7698241, -29.4556349 ], [ -51.769271, -29.4556838 ], [ -51.769, -29.4556297 ], [ -51.76877, -29.4555837 ], [ -51.7683985, -29.4558203 ], [ -51.7679876, -29.4560113 ], [ -51.7676287, -29.4562758 ], [ -51.7672656, -29.4565737 ], [ -51.7672333, -29.4569532 ], [ -51.7671653, -29.4573422 ], [ -51.7670503, -29.4575932 ], [ -51.7669673, -29.4581412 ], [ -51.767030720758513, -29.458442362018982 ], [ -51.76908731799989, -29.455984917 ], [ -51.772440206999896, -29.456646154999888 ], [ -51.779388286, -29.462043240999897 ], [ -51.779860604487077, -29.461900934636184 ], [ -51.7797484, -29.4618105 ], [ -51.7782895, -29.4606348 ] ] ], [ [ [ -51.7686886, -29.4637709 ], [ -51.7681613, -29.4637111 ], [ -51.7674276, -29.4635641 ], [ -51.767417629936951, -29.463625235759693 ], [ -51.768672683, -29.464138517 ], [ -51.768826668962134, -29.463749769909075 ], [ -51.7686886, -29.4637709 ] ] ] ] } }
]
}
