{
"type": "FeatureCollection",
"name": "bairros_tucunduva",
"crs": { "type": "name", "properties": { "name": "urn:ogc:def:crs:OGC:1.3:CRS84" } },
"features": [
{ "type": "Feature", "properties": { "code_muni": 4322103.0, "name_muni": "Tucunduva", "code_state": 43.0, "abbrev_state": "RS", "name_state": "Rio Grande do Sul", "code_region": 4.0, "name_region": "Sul", "year": 2022.0 }, "geometry": { "type": "Polygon", "coordinates": [ [ [ -54.463472743, -27.682192401999899 ], [ -54.465220442, -27.674793236 ], [ -54.463315619999896, -27.672582436 ], [ -54.457310558, -27.671752327 ], [ -54.456428089, -27.667697166 ], [ -54.465770463999895, -27.665858586999896 ], [ -54.469376904999891, -27.662352348 ], [ -54.477008051, -27.660566627 ], [ -54.479799963999909, -27.65400019 ], [ -54.48386115999989, -27.660521217999904 ], [ -54.477555757999895, -27.668590634999905 ], [ -54.480185348, -27.673544712 ], [ -54.483499531999897, -27.671850225999897 ], [ -54.484260092999889, -27.666642566999908 ], [ -54.489689224, -27.666528739999904 ], [ -54.492174404, -27.665156420999899 ], [ -54.493536288, -27.661248728 ], [ -54.488895801, -27.650168428 ], [ -54.496077981, -27.646385344999896 ], [ -54.499472308999891, -27.647843162 ], [ -54.49979981, -27.651003069 ], [ -54.518122674, -27.656442207999898 ], [ -54.519767278, -27.64867277 ], [ -54.507762178, -27.649238834999899 ], [ -54.505740757999909, -27.647764492 ], [ -54.506635867999897, -27.644968314 ], [ -54.511863031, -27.6434980679999 ], [ -54.52464859, -27.645017743 ], [ -54.52648078, -27.648411014 ], [ -54.526750365999902, -27.656029788 ], [ -54.530348467999893, -27.659243922 ], [ -54.532619742999891, -27.656114746999908 ], [ -54.53875641, -27.655523430999896 ], [ -54.541874275999895, -27.653973606 ], [ -54.54260262, -27.652060397 ], [ -54.536449366999904, -27.644847161 ], [ -54.529232034999893, -27.641440386999893 ], [ -54.521576873, -27.635783402999905 ], [ -54.524952203999902, -27.631771258 ], [ -54.528225235, -27.634148372 ], [ -54.532586357999897, -27.63394851 ], [ -54.538092062, -27.630562235 ], [ -54.543874516999892, -27.6323986149999 ], [ -54.545806921999898, -27.626912595 ], [ -54.547920559, -27.626527966 ], [ -54.557704921, -27.631119151999901 ], [ -54.556587592, -27.635178085999897 ], [ -54.557990484999898, -27.635880826999902 ], [ -54.562406981, -27.635409087 ], [ -54.56669693, -27.630842064 ], [ -54.563862018, -27.62944055 ], [ -54.557464345, -27.621072185999903 ], [ -54.554221605999892, -27.622199341999899 ], [ -54.550703778999903, -27.620962886 ], [ -54.547133709, -27.6133368019999 ], [ -54.54321899099989, -27.6122556299999 ], [ -54.539452078999894, -27.613753511 ], [ -54.534838610999891, -27.611303361 ], [ -54.529813124, -27.611770513 ], [ -54.528217185, -27.608188836 ], [ -54.520727622, -27.612194590999898 ], [ -54.517206062, -27.609957699999899 ], [ -54.51429143, -27.609785429999899 ], [ -54.508891354, -27.605791413 ], [ -54.492644571, -27.605273538999903 ], [ -54.483839455, -27.601874174999988 ], [ -54.478717401, -27.593419705 ], [ -54.444135902, -27.579755667 ], [ -54.444154145, -27.573811324 ], [ -54.448597137, -27.565647366999897 ], [ -54.423908277999899, -27.547358271 ], [ -54.42027624, -27.550647327 ], [ -54.417659848, -27.550817825 ], [ -54.415862121, -27.562419937999906 ], [ -54.412706269, -27.563152710999905 ], [ -54.411209459, -27.566416871999895 ], [ -54.405998920999899, -27.565190108 ], [ -54.398741485, -27.569988061999901 ], [ -54.400314094999899, -27.571738296 ], [ -54.407255143, -27.571356953 ], [ -54.40902843, -27.574911922 ], [ -54.401967641999903, -27.57718599 ], [ -54.400169516999902, -27.580049808 ], [ -54.396055956999902, -27.580983644 ], [ -54.393691175, -27.583783016 ], [ -54.399227541, -27.583838385 ], [ -54.404363348999901, -27.587763832 ], [ -54.404772351, -27.590734745 ], [ -54.399571911999892, -27.590005364 ], [ -54.396090790999899, -27.592901685 ], [ -54.391824555, -27.590776493 ], [ -54.388367543, -27.592160507 ], [ -54.389579318, -27.594609648 ], [ -54.397283049, -27.599822586999903 ], [ -54.394298728, -27.601782584 ], [ -54.394030809, -27.605176027 ], [ -54.3851035879999, -27.609009294 ], [ -54.380801589, -27.613535952999904 ], [ -54.385465962999895, -27.620941724 ], [ -54.388367451, -27.620220843 ], [ -54.389353653999891, -27.623483865 ], [ -54.386849168, -27.627741049 ], [ -54.381773790999901, -27.628565679 ], [ -54.381043745999897, -27.630936092999896 ], [ -54.382392670999899, -27.633573994 ], [ -54.380084237999895, -27.635834893 ], [ -54.379536757, -27.640380201 ], [ -54.374350702, -27.642957651 ], [ -54.374478208, -27.645282501999908 ], [ -54.372262424, -27.647491940999899 ], [ -54.36128739, -27.6551592769999 ], [ -54.356661663999894, -27.655552061 ], [ -54.355639064999892, -27.658729063999893 ], [ -54.352102371999891, -27.66018195 ], [ -54.349023063999908, -27.659853117 ], [ -54.346353539999896, -27.663828258 ], [ -54.333772536, -27.665098964 ], [ -54.33115239499989, -27.668350994 ], [ -54.326281230999903, -27.669894327999902 ], [ -54.324559689, -27.671921873 ], [ -54.315971378, -27.672674105999896 ], [ -54.314121392999901, -27.67469755 ], [ -54.31116345800001, -27.673966064 ], [ -54.3080033049999, -27.6755003 ], [ -54.306216446, -27.674052103 ], [ -54.301901191, -27.674809264 ], [ -54.294297818, -27.678069596999901 ], [ -54.284753716, -27.675424633 ], [ -54.287056914999894, -27.678985344999894 ], [ -54.286678232, -27.680901155 ], [ -54.292662499999899, -27.680230815 ], [ -54.296049760999892, -27.682465427 ], [ -54.299620992, -27.682452334999898 ], [ -54.30196697, -27.685869152 ], [ -54.312281507, -27.68758431 ], [ -54.317842175, -27.6918743099999 ], [ -54.324635998, -27.694418663 ], [ -54.333876238, -27.691537895 ], [ -54.341842925, -27.694583011 ], [ -54.351992504, -27.695305677 ], [ -54.364128827999899, -27.69099152 ], [ -54.38238448899989, -27.695209761999894 ], [ -54.385576334999897, -27.698191454 ], [ -54.3876514, -27.698398627 ], [ -54.388354472999893, -27.700824102 ], [ -54.391442056, -27.697509934 ], [ -54.396502283, -27.6992326499999 ], [ -54.402176996, -27.697890668 ], [ -54.40936537999989, -27.700122886 ], [ -54.411115071, -27.702763521999902 ], [ -54.415797661999903, -27.705555081999901 ], [ -54.420877447, -27.7021359089999 ], [ -54.422307706, -27.699678849 ], [ -54.427861549999903, -27.700694138999904 ], [ -54.434899539999897, -27.697546326999905 ], [ -54.438265091999902, -27.705311632 ], [ -54.442797017, -27.706750063999898 ], [ -54.4524655, -27.716005301999907 ], [ -54.45564744699989, -27.71380206 ], [ -54.455887482, -27.712027172 ], [ -54.451805811, -27.700112751999896 ], [ -54.447507737, -27.69332989 ], [ -54.454647077999901, -27.689445302 ], [ -54.448629970999896, -27.687365954 ], [ -54.443961859, -27.689923034999893 ], [ -54.441194982, -27.693129054999901 ], [ -54.439288381, -27.692966367999894 ], [ -54.439345891999899, -27.6906181579999 ], [ -54.44589933, -27.682472967 ], [ -54.436752892, -27.679979005999904 ], [ -54.436788148999895, -27.678394289 ], [ -54.4477796319999, -27.671008292999904 ], [ -54.448732999999891, -27.672144032999903 ], [ -54.448035326, -27.677037271 ], [ -54.449042206999891, -27.677859703 ], [ -54.454319649999903, -27.676711798999989 ], [ -54.458976111, -27.678105993 ], [ -54.460183015, -27.683096737 ], [ -54.462230265, -27.683472536999901 ], [ -54.463472743, -27.682192401999899 ] ] ] } }
]
}
