{
"type": "FeatureCollection",
"name": "bairros_tio_hugo",
"crs": { "type": "name", "properties": { "name": "urn:ogc:def:crs:OGC:1.3:CRS84" } },
"features": [
{ "type": "Feature", "properties": { "code_muni": 4321469.0, "name_muni": "Tio Hugo", "code_state": 43.0, "abbrev_state": "RS", "name_state": "Rio Grande do Sul", "code_region": 4.0, "name_region": "Sul", "year": 2022.0 }, "geometry": { "type": "Polygon", "coordinates": [ [ [ -52.61479055, -28.636984213999895 ], [ -52.61700397, -28.638046796 ], [ -52.617610148, -28.641663934999901 ], [ -52.621332008, -28.639864753 ], [ -52.623586144999898, -28.640124780999898 ], [ -52.628630286, -28.635814594 ], [ -52.625961587999903, -28.630551838 ], [ -52.628797678, -28.626843016999903 ], [ -52.638287804, -28.628230215 ], [ -52.64434696699989, -28.627272209999902 ], [ -52.649625175, -28.624915383 ], [ -52.651582709, -28.621856507 ], [ -52.657042509, -28.620573656 ], [ -52.657876793, -28.61342897 ], [ -52.663178038, -28.612837242 ], [ -52.661452025, -28.611466549999889 ], [ -52.658691967, -28.612073774 ], [ -52.653596098, -28.610828827 ], [ -52.647577225, -28.607730494 ], [ -52.646633956, -28.60649416 ], [ -52.647458527, -28.60087206 ], [ -52.642941439, -28.598876494 ], [ -52.636080541999902, -28.586712556 ], [ -52.639507409, -28.584085611 ], [ -52.640391772, -28.579946377999892 ], [ -52.637768858999898, -28.578664279 ], [ -52.639406821, -28.578637407 ], [ -52.638433291, -28.576443531999896 ], [ -52.639896193, -28.575957505 ], [ -52.638695559, -28.575604454 ], [ -52.639450962999902, -28.574174898 ], [ -52.637589046, -28.573897304 ], [ -52.637380929999892, -28.571882511 ], [ -52.6391232779999, -28.5718377429999 ], [ -52.63786720600001, -28.570634301 ], [ -52.639140175, -28.569492312 ], [ -52.638295124, -28.568043098 ], [ -52.641161361999892, -28.567153426999894 ], [ -52.637775234999893, -28.564760357 ], [ -52.638369108999903, -28.561978657999902 ], [ -52.637043876, -28.560678888 ], [ -52.63827779199989, -28.559544630999891 ], [ -52.636987158, -28.558417518999899 ], [ -52.63853489600001, -28.5537021449999 ], [ -52.63634599999989, -28.552337774 ], [ -52.638112964999898, -28.54884612 ], [ -52.646223268, -28.541402307999899 ], [ -52.649815547999907, -28.541530986999899 ], [ -52.650555327999903, -28.5394507419999 ], [ -52.646137606, -28.534755248 ], [ -52.64521336, -28.528166582 ], [ -52.642990649999902, -28.526360694999905 ], [ -52.640708259, -28.526594896999889 ], [ -52.636169896, -28.52001094 ], [ -52.633177641, -28.519413777 ], [ -52.633060268999898, -28.517473421 ], [ -52.626657413, -28.526458842 ], [ -52.623034058, -28.522745642 ], [ -52.620251775, -28.523881002999889 ], [ -52.621231445, -28.521699774 ], [ -52.619322485999895, -28.518010327 ], [ -52.615254950999891, -28.519058334 ], [ -52.613058796, -28.517087024999988 ], [ -52.610560662, -28.517011044 ], [ -52.609023459, -28.513991615999899 ], [ -52.604345388, -28.5109391189999 ], [ -52.600292119999892, -28.513900352999901 ], [ -52.599085666, -28.516987677 ], [ -52.594918542, -28.515406414 ], [ -52.588907541, -28.518758758999986 ], [ -52.587401251, -28.517375743999899 ], [ -52.579352195, -28.51840434699989 ], [ -52.574522671, -28.521708584999896 ], [ -52.573457677, -28.524628988 ], [ -52.552315393999898, -28.529797475999899 ], [ -52.552263468, -28.543190013 ], [ -52.546173173999897, -28.547378045 ], [ -52.544238389, -28.564070262 ], [ -52.545904559999897, -28.564736416 ], [ -52.5553776799999, -28.562512592 ], [ -52.556067810999892, -28.567486204 ], [ -52.5537791839999, -28.567109952 ], [ -52.552979701, -28.568906620999904 ], [ -52.55877766, -28.570200354 ], [ -52.560496959, -28.57301853 ], [ -52.558620743999896, -28.575124832 ], [ -52.559163301, -28.576841757 ], [ -52.567266216, -28.575450256999893 ], [ -52.569200269, -28.580097195 ], [ -52.573092018, -28.578649524 ], [ -52.580596173999901, -28.581891067 ], [ -52.582146381, -28.588908395 ], [ -52.5788226069999, -28.593926329999892 ], [ -52.582454271, -28.5977738139999 ], [ -52.580375923, -28.600775215999896 ], [ -52.580255418, -28.60424381 ], [ -52.577631413999896, -28.604437424 ], [ -52.576301735999891, -28.601333429 ], [ -52.573877062, -28.600929347 ], [ -52.571735582, -28.601793250999901 ], [ -52.569683360999896, -28.607331342 ], [ -52.566524858, -28.603715237 ], [ -52.564293862999897, -28.603152633 ], [ -52.561820375, -28.60626574 ], [ -52.557501633, -28.606005292 ], [ -52.558067767, -28.609935454 ], [ -52.556004684, -28.614672417 ], [ -52.551425782, -28.614782015999904 ], [ -52.548616844, -28.618556521999896 ], [ -52.546298250999889, -28.618923845 ], [ -52.544298903, -28.626774866999895 ], [ -52.546528227, -28.633814173 ], [ -52.544358578, -28.635625185 ], [ -52.545904419999893, -28.639793805 ], [ -52.549460983999893, -28.641886889 ], [ -52.551290365999897, -28.646798952 ], [ -52.556145312, -28.649689884999901 ], [ -52.559039351, -28.649078301 ], [ -52.560538821, -28.652261594 ], [ -52.564464528, -28.654015628 ], [ -52.568500833, -28.653081332999907 ], [ -52.568895649, -28.649699375 ], [ -52.579102115, -28.652089356 ], [ -52.578406752, -28.645274851999901 ], [ -52.580818041, -28.643525264999905 ], [ -52.58378462, -28.643709875 ], [ -52.590721135, -28.648498123 ], [ -52.598625141999896, -28.645101256 ], [ -52.602144454, -28.634738900999896 ], [ -52.607580391999896, -28.640102466 ], [ -52.61479055, -28.636984213999895 ] ] ] } }
]
}
