{
"type": "FeatureCollection",
"name": "bairros_sao_jose_do_sul",
"crs": { "type": "name", "properties": { "name": "urn:ogc:def:crs:OGC:1.3:CRS84" } },
"features": [
{ "type": "Feature", "properties": { "code_muni": 4318614.0, "name_muni": "São José do Sul", "code_state": 43.0, "abbrev_state": "RS", "name_state": "Rio Grande do Sul", "code_region": 4.0, "name_region": "Sul", "year": 2022.0 }, "geometry": { "type": "Polygon", "coordinates": [ [ [ -51.474608878, -29.619469679 ], [ -51.47540384, -29.617635654 ], [ -51.47434767, -29.615594855 ], [ -51.476176183, -29.612255461 ], [ -51.479081103999903, -29.612835436999905 ], [ -51.479630721, -29.609423907999901 ], [ -51.484942342999894, -29.606191919999986 ], [ -51.49064043899989, -29.60510135 ], [ -51.493305224, -29.600942502 ], [ -51.495715738999898, -29.601254883999985 ], [ -51.502670012999893, -29.58692597 ], [ -51.504638206, -29.572652991 ], [ -51.5028545, -29.566033659 ], [ -51.517171570999892, -29.541879432 ], [ -51.513972641999892, -29.525710516999904 ], [ -51.512327421, -29.522402202 ], [ -51.509587688, -29.52341283 ], [ -51.51440909, -29.515691102999895 ], [ -51.519937873999901, -29.512453547999904 ], [ -51.523159785, -29.512353252 ], [ -51.520291796, -29.510657769 ], [ -51.523220625, -29.506353807 ], [ -51.520071205, -29.502672904 ], [ -51.511103891999909, -29.505457744 ], [ -51.497774316999902, -29.505228504999891 ], [ -51.498345934, -29.503126519 ], [ -51.510240359, -29.497412622999892 ], [ -51.510803692, -29.495889324 ], [ -51.501428862, -29.493188838 ], [ -51.500688973, -29.489926938999897 ], [ -51.494016885, -29.484851046999903 ], [ -51.490544569, -29.4871391299999 ], [ -51.490347417, -29.499440278999902 ], [ -51.486097195, -29.509637832999903 ], [ -51.471900350999903, -29.501986541999909 ], [ -51.471615522, -29.497882849 ], [ -51.478937351999896, -29.494711545 ], [ -51.481131301999902, -29.495377972 ], [ -51.480074379, -29.493406653 ], [ -51.457416099999897, -29.495723267999892 ], [ -51.453401162, -29.5017078559999 ], [ -51.46229657, -29.506396665 ], [ -51.457723836, -29.510166043 ], [ -51.469457067, -29.549336502999903 ], [ -51.470240245, -29.557279999999899 ], [ -51.465155098, -29.559219162 ], [ -51.460659085293393, -29.572135848757306 ], [ -51.461065364571191, -29.577007678365995 ], [ -51.46370089728709, -29.578398440527994 ], [ -51.4648227275393, -29.581752405631498 ], [ -51.466201618879296, -29.5827492946006 ], [ -51.469004618736392, -29.581902239123998 ], [ -51.46978067939029, -29.583039436913992 ], [ -51.465065726729193, -29.59879404447161 ], [ -51.459238548526898, -29.609274705184301 ], [ -51.468722180201894, -29.617820041629695 ], [ -51.467110569714592, -29.619770733434596 ], [ -51.467302779, -29.623841029999902 ], [ -51.471596763, -29.623359325 ], [ -51.470933986, -29.62128181 ], [ -51.474608878, -29.619469679 ] ] ] } }
]
}
