{
"type": "FeatureCollection",
"name": "bairros_ipe",
"crs": { "type": "name", "properties": { "name": "urn:ogc:def:crs:OGC:1.3:CRS84" } },
"features": [
{ "type": "Feature", "properties": { "name": "Cruzeiro", "code_muni": 4310439.0, "name_muni": "Ipê" }, "geometry": { "type": "Polygon", "coordinates": [ [ [ -51.2894671, -28.8168699 ], [ -51.2893872, -28.8167246 ], [ -51.2893394, -28.8166572 ], [ -51.2892142, -28.8164943 ], [ -51.2890619, -28.8163334 ], [ -51.2889052, -28.8162035 ], [ -51.2887582, -28.8161277 ], [ -51.2886165, -28.8160693 ], [ -51.2884095, -28.8159832 ], [ -51.2879241, -28.815989099999985 ], [ -51.2876531, -28.8159949 ], [ -51.2872481, -28.8160314 ], [ -51.2870662, -28.8160597 ], [ -51.286878, -28.8160889 ], [ -51.2865816, -28.8161398 ], [ -51.2855959, -28.8162793 ], [ -51.2852874, -28.8163287 ], [ -51.2849745, -28.8163785 ], [ -51.2839182, -28.816539 ], [ -51.2832128, -28.81664 ], [ -51.2829968, -28.816675299999989 ], [ -51.2827758, -28.8167086 ], [ -51.2823813, -28.8167681 ], [ -51.2817818, -28.8168609 ], [ -51.2819805, -28.8181353 ], [ -51.2820701, -28.8187049 ], [ -51.2822181, -28.819354900000011 ], [ -51.2835981, -28.8191679 ], [ -51.2847115, -28.8190098 ], [ -51.2872174, -28.8187586 ], [ -51.28822060000001, -28.8186729 ], [ -51.287908, -28.8174261 ], [ -51.2896002, -28.8171034 ], [ -51.2894671, -28.8168699 ] ] ] } }
]
}
