{
"type": "FeatureCollection",
"name": "bairros_vila_nova_do_sul",
"crs": { "type": "name", "properties": { "name": "urn:ogc:def:crs:OGC:1.3:CRS84" } },
"features": [
{ "type": "Feature", "properties": { "code_muni": 4323457.0, "name_muni": "Vila Nova do Sul", "code_state": 43.0, "abbrev_state": "RS", "name_state": "Rio Grande do Sul", "code_region": 4.0, "name_region": "Sul", "year": 2022.0 }, "geometry": { "type": "Polygon", "coordinates": [ [ [ -53.909063029, -30.229761156999906 ], [ -53.899812878, -30.232623123999897 ], [ -53.897808058, -30.234257962999902 ], [ -53.891078606, -30.235201025 ], [ -53.886130152, -30.240465249 ], [ -53.88311967499989, -30.241358009999907 ], [ -53.876449492999896, -30.246402557999897 ], [ -53.871398859999893, -30.246458136999902 ], [ -53.869940621999895, -30.247289801 ], [ -53.870338217, -30.248423069 ], [ -53.867756547999896, -30.248195968999909 ], [ -53.86642761, -30.250115380999901 ], [ -53.857098825, -30.2512447249999 ], [ -53.848127467, -30.256547270999899 ], [ -53.843696751, -30.2569472059999 ], [ -53.834064543999894, -30.261854096 ], [ -53.833438636, -30.258506764999897 ], [ -53.825669056, -30.250237931999902 ], [ -53.82413299, -30.246035203 ], [ -53.809934649999896, -30.247716685999897 ], [ -53.802458156999897, -30.247198098 ], [ -53.785320592999895, -30.255103603 ], [ -53.777927476999899, -30.253427302 ], [ -53.771659304, -30.249988669999905 ], [ -53.766711186, -30.245144769 ], [ -53.759377793999903, -30.243725749 ], [ -53.761152705, -30.255434356 ], [ -53.759087694999891, -30.266790876 ], [ -53.762443971, -30.27006414600001 ], [ -53.759595001, -30.278770495999904 ], [ -53.762004867, -30.279877026999891 ], [ -53.770950257, -30.278039534 ], [ -53.767640979, -30.283232864 ], [ -53.772743393, -30.283582887 ], [ -53.773957512, -30.288767902 ], [ -53.772881810999891, -30.292500178 ], [ -53.775308082, -30.294372699 ], [ -53.775969613, -30.298696354999894 ], [ -53.780811184999891, -30.300090969999896 ], [ -53.787776043, -30.304820917 ], [ -53.789695143999893, -30.309098046 ], [ -53.787261905, -30.31144545 ], [ -53.783314764999901, -30.311905099999908 ], [ -53.781297125, -30.316947666 ], [ -53.778823154, -30.316306714999904 ], [ -53.777635437999891, -30.325333319 ], [ -53.775858593, -30.328208452999892 ], [ -53.763918836999899, -30.326126937 ], [ -53.754889458, -30.322615544 ], [ -53.751225849, -30.323336025999911 ], [ -53.74830423, -30.320746095999905 ], [ -53.745070118999898, -30.321844790999901 ], [ -53.74112143100001, -30.321129119 ], [ -53.741823338, -30.325527698 ], [ -53.739045888, -30.325524615999907 ], [ -53.73744713, -30.327452611 ], [ -53.741778698, -30.329487254999901 ], [ -53.740358125999897, -30.337270251999897 ], [ -53.743884858999898, -30.3389028 ], [ -53.741599338999897, -30.341411434 ], [ -53.735752771, -30.34200090400001 ], [ -53.733284676, -30.345608535999908 ], [ -53.734645917, -30.347280236 ], [ -53.736816422999894, -30.345421116 ], [ -53.741976534999893, -30.348927202 ], [ -53.740389243, -30.350992321 ], [ -53.735325406, -30.35136954 ], [ -53.733467362999896, -30.353631257 ], [ -53.734244525, -30.355826358999892 ], [ -53.739478176, -30.35941974 ], [ -53.740713813999903, -30.362305358999894 ], [ -53.744190487, -30.362356572999893 ], [ -53.740440342999896, -30.363967154 ], [ -53.740725888999989, -30.366487686 ], [ -53.743231631, -30.366463247 ], [ -53.745017982, -30.368114552999899 ], [ -53.744543102, -30.371790164999897 ], [ -53.746284191, -30.374165939 ], [ -53.741229873999892, -30.377413397999906 ], [ -53.745769466, -30.380264216999894 ], [ -53.745793004999904, -30.385110356 ], [ -53.752972121, -30.384495305 ], [ -53.755807144, -30.386737384999901 ], [ -53.759490421, -30.385252509999891 ], [ -53.764449161, -30.386693237 ], [ -53.763157329, -30.388843058 ], [ -53.765515218, -30.392287978 ], [ -53.767141748, -30.390113116999899 ], [ -53.773269142999894, -30.389228411 ], [ -53.77458258, -30.39186242999989 ], [ -53.777486919999902, -30.392567367 ], [ -53.777344373999902, -30.393788371 ], [ -53.781405803, -30.39409463 ], [ -53.78162674, -30.396014516 ], [ -53.78612708, -30.398734509999901 ], [ -53.788195857999895, -30.402698337999905 ], [ -53.791488922, -30.403003641999906 ], [ -53.793196645, -30.404485305 ], [ -53.797734189, -30.411451346 ], [ -53.796786166999901, -30.417052184999903 ], [ -53.806241408999902, -30.419773603 ], [ -53.81024444, -30.43033645 ], [ -53.817071311999889, -30.436326621 ], [ -53.820914637, -30.435272478999895 ], [ -53.822408206, -30.437571327999901 ], [ -53.821586101, -30.440506422999899 ], [ -53.827348803999897, -30.442580929 ], [ -53.826243728999899, -30.445121334 ], [ -53.828725441, -30.448417510999896 ], [ -53.827597968, -30.449929117999904 ], [ -53.83122220699989, -30.452437646 ], [ -53.831834269999902, -30.458231051 ], [ -53.8339523, -30.461178597999897 ], [ -53.833061219999891, -30.465462405000011 ], [ -53.837563589, -30.470675298999904 ], [ -53.838529691, -30.473931467999904 ], [ -53.84400505699989, -30.476974406999904 ], [ -53.845239146, -30.482977522999906 ], [ -53.8509069959999, -30.480751730999902 ], [ -53.854471546, -30.477528287 ], [ -53.858893216, -30.476278419 ], [ -53.862690950999891, -30.477265687999893 ], [ -53.871816803999891, -30.48143154 ], [ -53.878670008, -30.488776121999901 ], [ -53.880607759, -30.494377717 ], [ -53.887276083, -30.497188063999896 ], [ -53.896001356999896, -30.495803484 ], [ -53.89709898, -30.492089792999888 ], [ -53.901286303999903, -30.489910114999894 ], [ -53.907414649, -30.490178905999986 ], [ -53.918338441999893, -30.492943714 ], [ -53.92440354, -30.490447843 ], [ -53.945625332, -30.489142355 ], [ -53.960721463, -30.482025329 ], [ -53.961791419, -30.478462616999892 ], [ -53.959152184999901, -30.471468349 ], [ -53.960966707, -30.46511858 ], [ -53.958986517, -30.464225859999903 ], [ -53.962355373, -30.458129114 ], [ -53.960580394, -30.45474415 ], [ -53.966379091, -30.450903997 ], [ -53.968863337999906, -30.450741345 ], [ -53.974643521, -30.443853734999905 ], [ -53.968702015, -30.444050892999908 ], [ -53.967800011, -30.442179847 ], [ -53.960274877, -30.437873244999896 ], [ -53.956195099, -30.433291384 ], [ -53.940435057999899, -30.424374793 ], [ -53.937846059, -30.416711647999907 ], [ -53.941937244, -30.409962648 ], [ -53.938387148999894, -30.403648523999902 ], [ -53.940623027999898, -30.401009277 ], [ -53.939132115999897, -30.3988409789999 ], [ -53.941662563, -30.395841032 ], [ -53.939215117999893, -30.394197292999895 ], [ -53.945284434, -30.389009608 ], [ -53.946931561, -30.381273436999894 ], [ -53.951108787, -30.379274327 ], [ -53.949938263, -30.377389508 ], [ -53.951818814, -30.371935532999895 ], [ -53.961205407, -30.367145170999905 ], [ -53.958692704, -30.36328724 ], [ -53.962435246, -30.361063914999896 ], [ -53.966417494, -30.36307205899989 ], [ -53.971667581, -30.359185468 ], [ -53.9727919649999, -30.348103113 ], [ -53.968738339, -30.346379288 ], [ -53.967555710999896, -30.343513182 ], [ -53.965531212, -30.342333681999893 ], [ -53.964299635, -30.337186238999902 ], [ -53.968215272, -30.336485453 ], [ -53.972387592, -30.332522777999895 ], [ -53.971877423, -30.331046006999902 ], [ -53.977407378, -30.327179973999904 ], [ -53.97854652, -30.320050325 ], [ -53.981076609, -30.318326887000012 ], [ -53.980249279, -30.316773425 ], [ -53.982280169, -30.315162643999901 ], [ -53.98204974, -30.313035564 ], [ -53.984743682, -30.312432429999902 ], [ -53.984413333, -30.310710366 ], [ -53.991762874, -30.309354341 ], [ -53.99287021, -30.307925548 ], [ -53.988010544, -30.302557952 ], [ -53.987309115999899, -30.3002928189999 ], [ -53.98852247, -30.298686365 ], [ -53.987458165, -30.297215009999885 ], [ -54.000525030999903, -30.297215407999904 ], [ -53.999896053, -30.285412278 ], [ -54.001611936, -30.283696394999893 ], [ -54.003121913, -30.285618183999905 ], [ -54.004975067, -30.2839709359999 ], [ -54.006073231999892, -30.281362794 ], [ -54.010923283, -30.277019465 ], [ -54.010254088, -30.276178682 ], [ -54.012295988999902, -30.274771658 ], [ -54.012913706999903, -30.2719747689999 ], [ -54.01636853, -30.269626154 ], [ -54.018370214999891, -30.265214188999902 ], [ -54.013897659, -30.263105798 ], [ -54.012456316999895, -30.259124949 ], [ -54.010054081, -30.258575866999902 ], [ -54.008269562, -30.261458549999894 ], [ -54.006347773, -30.261458549999894 ], [ -54.005249608, -30.258164055 ], [ -54.000307865, -30.254320477 ], [ -54.001268759, -30.253085041 ], [ -54.000523723, -30.247369472999896 ], [ -53.998698165, -30.24964628 ], [ -53.994856859, -30.250138713 ], [ -53.989871842999897, -30.247625269 ], [ -53.989459848, -30.243034624 ], [ -53.985083017, -30.234204771999892 ], [ -53.986280408, -30.229738766 ], [ -53.988018537999899, -30.228186477999905 ], [ -53.987800705, -30.225630899 ], [ -53.981829534, -30.221606079 ], [ -53.975933109, -30.219736944 ], [ -53.96696337799991, -30.217984976 ], [ -53.964538257999891, -30.220242222 ], [ -53.962797472, -30.219964804 ], [ -53.959265191, -30.216504318 ], [ -53.961983088, -30.2146459689999 ], [ -53.954645125, -30.207502847999894 ], [ -53.949786344, -30.208069381 ], [ -53.948643048, -30.211701575999896 ], [ -53.947236123, -30.210922530999898 ], [ -53.946261123999896, -30.212347404999896 ], [ -53.938571872, -30.211062187 ], [ -53.934673615999898, -30.208389272 ], [ -53.927348891, -30.216230719 ], [ -53.9245085599999, -30.217006698 ], [ -53.922384473, -30.220949302999902 ], [ -53.915808227, -30.224700554 ], [ -53.910900696999896, -30.225151952 ], [ -53.909063029, -30.229761156999906 ] ] ] } }
]
}
