{
"type": "FeatureCollection",
"name": "bairros_campina_das_missoes",
"crs": { "type": "name", "properties": { "name": "urn:ogc:def:crs:OGC:1.3:CRS84" } },
"features": [
{ "type": "Feature", "properties": { "code_muni": 4303707.0, "name_muni": "Campina das Missões", "code_state": 43.0, "abbrev_state": "RS", "name_state": "Rio Grande do Sul", "code_region": 4.0, "name_region": "Sul", "year": 2022.0 }, "geometry": { "type": "Polygon", "coordinates": [ [ [ -54.8394178, -28.020278805 ], [ -54.849004855, -28.017427886 ], [ -54.849198811, -28.013690668 ], [ -54.850869835, -28.012935802999898 ], [ -54.852946589999902, -28.014909651 ], [ -54.855344265, -28.022032085 ], [ -54.857244647, -28.023209587999894 ], [ -54.85932859, -28.022227996 ], [ -54.860952832, -28.019908079999901 ], [ -54.862940904, -28.008875132999904 ], [ -54.864416534, -28.007584157999897 ], [ -54.870576146, -28.014865196 ], [ -54.876068572, -28.017211167 ], [ -54.872995968999902, -28.008887425999902 ], [ -54.861871037, -27.999420116 ], [ -54.861738127, -27.997826470999897 ], [ -54.864950171, -27.997076137 ], [ -54.869550407, -28.000553393 ], [ -54.873352257, -28.001529483999899 ], [ -54.876530996, -27.999599045 ], [ -54.877045251, -27.997619922999899 ], [ -54.883916996, -27.99690756 ], [ -54.882796704, -27.992521971 ], [ -54.886010531999901, -27.9887616779999 ], [ -54.891975339999902, -27.990729637 ], [ -54.899812402, -27.989912956 ], [ -54.901325965999895, -27.99449012 ], [ -54.911874919, -27.989729666999896 ], [ -54.91018486, -27.984980483999902 ], [ -54.894905313, -27.97228797 ], [ -54.897722578, -27.968015711 ], [ -54.897210964, -27.965326042999905 ], [ -54.898574993999901, -27.962475332999908 ], [ -54.900916313, -27.964488463999903 ], [ -54.903902813999899, -27.971516143999988 ], [ -54.909912256, -27.967419446999902 ], [ -54.914951894999902, -27.960079814 ], [ -54.921769593, -27.959733464 ], [ -54.92064234, -27.95602115 ], [ -54.911391769, -27.955836947 ], [ -54.907819952, -27.94921224 ], [ -54.9242364199999, -27.951498747 ], [ -54.932191443, -27.9467798979999 ], [ -54.93043018, -27.939765948999895 ], [ -54.936338269, -27.943159540999897 ], [ -54.937686266, -27.947147149999985 ], [ -54.941259613999897, -27.947809278 ], [ -54.941571242, -27.939548124999902 ], [ -54.93941933, -27.935877033999891 ], [ -54.939162935, -27.930969989999895 ], [ -54.940041885, -27.910639081999893 ], [ -54.890969219999903, -27.909687772 ], [ -54.892161976999894, -27.855235181 ], [ -54.882138869999899, -27.854806080999893 ], [ -54.881932763999899, -27.8572408439999 ], [ -54.873428818, -27.85718666 ], [ -54.871989341, -27.862043066999902 ], [ -54.8654584189999, -27.863134752999898 ], [ -54.860061415, -27.868731606 ], [ -54.861885282999893, -27.872419169 ], [ -54.857309167, -27.873604663 ], [ -54.858142695, -27.874574077 ], [ -54.855097676, -27.876072685999901 ], [ -54.842476336999894, -27.869141563 ], [ -54.837056237999903, -27.869823848 ], [ -54.834857244, -27.872195283999901 ], [ -54.829256669, -27.871820058 ], [ -54.828369847, -27.870307528 ], [ -54.826908951, -27.881543685999894 ], [ -54.825270921, -27.88298996 ], [ -54.827908984, -27.889241701999907 ], [ -54.824488502, -27.8939866969999 ], [ -54.826816638, -27.900746012999896 ], [ -54.826102783999893, -27.902803221999896 ], [ -54.818922277999896, -27.906492235 ], [ -54.818835857, -27.915557197999892 ], [ -54.808126359, -27.915513777999898 ], [ -54.808084015, -27.921393107 ], [ -54.797329501, -27.921720287 ], [ -54.797190207, -27.935875398 ], [ -54.787129571, -27.935742332 ], [ -54.78588532, -27.991222321999906 ], [ -54.782121167, -27.991415301 ], [ -54.775857499, -27.986988177999901 ], [ -54.768545754999899, -27.985340055999899 ], [ -54.760886139, -27.979895344999889 ], [ -54.753564474, -27.979313713999904 ], [ -54.748080046, -27.980951654 ], [ -54.739777464, -27.9801474349999 ], [ -54.729283477, -27.984598634999898 ], [ -54.72459222899991, -27.985190509999899 ], [ -54.72176238, -27.983912356 ], [ -54.717800145, -27.985205982 ], [ -54.717775103, -28.010076872 ], [ -54.722365915999895, -28.008810341 ], [ -54.724943449, -28.010087761 ], [ -54.732720330999896, -28.010303031 ], [ -54.735786026, -28.009790537 ], [ -54.738137912999903, -28.006975379 ], [ -54.738222493, -28.058572211 ], [ -54.741492203999897, -28.060409853 ], [ -54.74105797, -28.064026856999895 ], [ -54.742389288, -28.066527325 ], [ -54.747487378, -28.0691421349999 ], [ -54.753038075999896, -28.065953450999903 ], [ -54.75807952, -28.058737524 ], [ -54.75747813, -28.053263344 ], [ -54.752088602999891, -28.050295637 ], [ -54.749486826, -28.046040167999902 ], [ -54.750220290999891, -28.042941218999903 ], [ -54.754994412, -28.04323184 ], [ -54.758197238, -28.041204267999895 ], [ -54.762610588, -28.042008606 ], [ -54.766750389, -28.039073411999897 ], [ -54.767510777, -28.041297024 ], [ -54.769841325999892, -28.042592693999904 ], [ -54.775780717, -28.043835708999893 ], [ -54.783875575, -28.043121237 ], [ -54.786614367, -28.044677001 ], [ -54.783901057, -28.050431713 ], [ -54.794557923, -28.053710895999902 ], [ -54.798660470999899, -28.052038907999897 ], [ -54.799140393999892, -28.050363303 ], [ -54.793488146999891, -28.042007216999899 ], [ -54.798955922999902, -28.041548792999897 ], [ -54.800765234, -28.044779833999897 ], [ -54.809339929, -28.046965663 ], [ -54.81257363, -28.0507395 ], [ -54.815150032, -28.051340099 ], [ -54.816345655, -28.042659366 ], [ -54.810766321999893, -28.037901244999901 ], [ -54.809772025, -28.034780328 ], [ -54.822150092999898, -28.031459941 ], [ -54.822858547, -28.029440677 ], [ -54.820581811, -28.026234443 ], [ -54.81317379099989, -28.02740233 ], [ -54.81051982799989, -28.026229905 ], [ -54.809435852, -28.022891161 ], [ -54.811448333, -28.020324213999988 ], [ -54.817635147, -28.021798107999896 ], [ -54.826685646, -28.020041959 ], [ -54.830731286999892, -28.024017236 ], [ -54.83455702, -28.021974056 ], [ -54.834889196999896, -28.030588474999888 ], [ -54.831507730999903, -28.034377140999901 ], [ -54.833840462999902, -28.035238315 ], [ -54.840860753999898, -28.033658191 ], [ -54.843152424, -28.029321305999904 ], [ -54.842843108999901, -28.027291576 ], [ -54.838902890999989, -28.023411999 ], [ -54.8394178, -28.020278805 ] ] ] } }
]
}
