{
"type": "FeatureCollection",
"name": "bairros_naometoque",
"crs": { "type": "name", "properties": { "name": "urn:ogc:def:crs:OGC:1.3:CRS84" } },
"features": [
{ "type": "Feature", "properties": { "name": "Vila Nova", "code_muni": 4312658.0, "name_muni": "Não-Me-Toque" }, "geometry": { "type": "Polygon", "coordinates": [ [ [ -52.8262192, -28.4567645 ], [ -52.8258276, -28.4506379 ], [ -52.8238565, -28.4508832 ], [ -52.8225917, -28.4509645 ], [ -52.8213787, -28.4510474 ], [ -52.8201503, -28.451153 ], [ -52.8189585, -28.451218 ], [ -52.8165237, -28.4518275 ], [ -52.8165626, -28.4523482 ], [ -52.8166617, -28.4536388 ], [ -52.8167292, -28.454345 ], [ -52.8168308, -28.4554178 ], [ -52.8168305, -28.4555426 ], [ -52.8168475, -28.4558543 ], [ -52.8169281, -28.4561573 ], [ -52.8171561, -28.4564945 ], [ -52.8198161, -28.4563831 ], [ -52.8206228, -28.4562896 ], [ -52.8206563, -28.4567386 ], [ -52.8206791, -28.4569013 ], [ -52.8207663, -28.4570204 ], [ -52.8210747, -28.4572833 ], [ -52.8216807, -28.4577973 ], [ -52.8225694, -28.4586325 ], [ -52.8230438, -28.4582793 ], [ -52.8237154, -28.4577064 ], [ -52.8237824, -28.4576327 ], [ -52.8246135, -28.4584011 ], [ -52.8247653, -28.4582707 ], [ -52.8252295, -28.4578945 ], [ -52.8256707, -28.4574472 ], [ -52.8256962, -28.4573953 ], [ -52.8257015, -28.4573364 ], [ -52.8256248, -28.4567787 ], [ -52.8262192, -28.4567645 ] ] ] } },
{ "type": "Feature", "properties": { "name": "Solano", "code_muni": 4312658.0, "name_muni": "Não-Me-Toque" }, "geometry": { "type": "Polygon", "coordinates": [ [ [ -52.8106653, -28.4436369 ], [ -52.8092605, -28.4437491 ], [ -52.8087724, -28.443795 ], [ -52.808483, -28.4438552 ], [ -52.8081571, -28.4439423 ], [ -52.807938, -28.4440681 ], [ -52.8077062, -28.4442296 ], [ -52.8075267, -28.4443681 ], [ -52.8073635, -28.4445254 ], [ -52.807209, -28.444731499999989 ], [ -52.807091, -28.4449485 ], [ -52.8069515, -28.4453635 ], [ -52.8068984, -28.4457131 ], [ -52.8068485, -28.4461102 ], [ -52.8067761, -28.4464621 ], [ -52.8067048, -28.4468446 ], [ -52.8065159, -28.4478087 ], [ -52.8062799, -28.4491105 ], [ -52.8060439, -28.4502236 ], [ -52.8060009, -28.4504024 ], [ -52.8059752, -28.450599 ], [ -52.8059795, -28.4507703 ], [ -52.8059752, -28.4509292 ], [ -52.8060117, -28.4511098 ], [ -52.8060288, -28.4512971 ], [ -52.8060331, -28.4514777 ], [ -52.8076637, -28.4515246 ], [ -52.8098095, -28.4516567 ], [ -52.8124112, -28.4547742 ], [ -52.8147715, -28.4573116 ], [ -52.8171561, -28.4564945 ], [ -52.8169281, -28.4561573 ], [ -52.8168475, -28.4558543 ], [ -52.8168305, -28.4555426 ], [ -52.8168308, -28.4554178 ], [ -52.8167292, -28.454345 ], [ -52.8166617, -28.4536388 ], [ -52.8165626, -28.4523482 ], [ -52.8165237, -28.4518275 ], [ -52.8164979, -28.4517165 ], [ -52.8163742, -28.4514397 ], [ -52.8163003, -28.4512911 ], [ -52.816161, -28.4510588 ], [ -52.8160416, -28.4508631 ], [ -52.8159101, -28.4506344 ], [ -52.8153656, -28.4498208 ], [ -52.8152423, -28.4496333 ], [ -52.8150103, -28.4491593 ], [ -52.8149714, -28.44896 ], [ -52.8149633, -28.4488102 ], [ -52.8149499, -28.4486381 ], [ -52.8149027, -28.4482125 ], [ -52.8147477, -28.4469115 ], [ -52.81470740000001, -28.4463089 ], [ -52.8146936, -28.4461032 ], [ -52.8144552, -28.4442438 ], [ -52.8143886, -28.4436784 ], [ -52.8142405, -28.4431147 ], [ -52.8140668, -28.4428606 ], [ -52.8138019, -28.4429638 ], [ -52.813177, -28.4433058 ], [ -52.8127049, -28.4434202 ], [ -52.8121218, -28.443505 ], [ -52.8106653, -28.4436369 ] ] ] } },
{ "type": "Feature", "properties": { "name": "Arlindo Hermes", "code_muni": 4312658.0, "name_muni": "Não-Me-Toque" }, "geometry": { "type": "Polygon", "coordinates": [ [ [ -52.8124112, -28.4547742 ], [ -52.8098095, -28.4516567 ], [ -52.8076637, -28.4515246 ], [ -52.8064366, -28.4535763 ], [ -52.8051352, -28.4559952 ], [ -52.8050804, -28.4560753 ], [ -52.8051586, -28.4561108 ], [ -52.8059916, -28.4564866 ], [ -52.8069811, -28.4569072 ], [ -52.8070548, -28.4569438 ], [ -52.8071849, -28.456868299999989 ], [ -52.8124112, -28.4547742 ] ] ] } },
{ "type": "Feature", "properties": { "name": "Santo Antônio", "code_muni": 4312658.0, "name_muni": "Não-Me-Toque" }, "geometry": { "type": "Polygon", "coordinates": [ [ [ -52.8146936, -28.4461032 ], [ -52.81470740000001, -28.4463089 ], [ -52.8147477, -28.4469115 ], [ -52.8149027, -28.4482125 ], [ -52.8149499, -28.4486381 ], [ -52.8149633, -28.4488102 ], [ -52.8149714, -28.44896 ], [ -52.8150103, -28.4491593 ], [ -52.8152423, -28.4496333 ], [ -52.8153656, -28.4498208 ], [ -52.8159101, -28.4506344 ], [ -52.8160416, -28.4508631 ], [ -52.816161, -28.4510588 ], [ -52.8163003, -28.4512911 ], [ -52.8163742, -28.4514397 ], [ -52.8164979, -28.4517165 ], [ -52.8165237, -28.4518275 ], [ -52.8189585, -28.451218 ], [ -52.8201503, -28.451153 ], [ -52.8213787, -28.4510474 ], [ -52.8225917, -28.4509645 ], [ -52.8238565, -28.4508832 ], [ -52.8258276, -28.4506379 ], [ -52.8296042, -28.4504021 ], [ -52.8294271, -28.4491663 ], [ -52.8292608, -28.4475155 ], [ -52.8292365, -28.4474539 ], [ -52.8294163, -28.4474164 ], [ -52.8303686, -28.4472042 ], [ -52.8304732, -28.4471193 ], [ -52.8302372, -28.4445439 ], [ -52.8284884, -28.4449213 ], [ -52.8284347, -28.4441194 ], [ -52.8251302, -28.4443081 ], [ -52.8227913, -28.4428836 ], [ -52.8182745, -28.4431289 ], [ -52.8181833, -28.4426761 ], [ -52.8176308, -28.4427041 ], [ -52.8156466, -28.4428045 ], [ -52.8154354, -28.4428152 ], [ -52.8140668, -28.4428606 ], [ -52.8142405, -28.4431147 ], [ -52.8143886, -28.4436784 ], [ -52.8144552, -28.4442438 ], [ -52.8146936, -28.4461032 ] ] ] } },
{ "type": "Feature", "properties": { "name": "Industrial", "code_muni": 4312658.0, "name_muni": "Não-Me-Toque" }, "geometry": { "type": "Polygon", "coordinates": [ [ [ -52.8262192, -28.4567645 ], [ -52.8256248, -28.4567787 ], [ -52.8257015, -28.4573364 ], [ -52.8256962, -28.4573953 ], [ -52.8256707, -28.4574472 ], [ -52.8252295, -28.4578945 ], [ -52.8247653, -28.4582707 ], [ -52.8250538, -28.4585508 ], [ -52.8251839, -28.4586687 ], [ -52.8253314, -28.4587925 ], [ -52.8257897, -28.459619299999989 ], [ -52.8262353, -28.460479 ], [ -52.8264047, -28.4604653 ], [ -52.8273961, -28.4603165 ], [ -52.8279016, -28.4602798 ], [ -52.8287627, -28.4601087 ], [ -52.8290726, -28.460062 ], [ -52.8304627, -28.4598225 ], [ -52.8313255, -28.459686399999988 ], [ -52.8318547, -28.4595796 ], [ -52.8322966, -28.4595161 ], [ -52.8328866, -28.4593961 ], [ -52.8331673, -28.459346 ], [ -52.8333954, -28.4593087 ], [ -52.8334417, -28.4593012 ], [ -52.8334639, -28.4591391 ], [ -52.8337964, -28.4557128 ], [ -52.8336865, -28.4556939 ], [ -52.8329462, -28.4556609 ], [ -52.8317928, -28.4556326 ], [ -52.8316963, -28.455576 ], [ -52.8315568, -28.4554156 ], [ -52.8313583, -28.455302499999988 ], [ -52.831074, -28.4550997 ], [ -52.8306073, -28.454661 ], [ -52.8305215, -28.4544912 ], [ -52.8305537, -28.4539017 ], [ -52.8306073, -28.453713 ], [ -52.8305644, -28.4533263 ], [ -52.8305107, -28.4532367 ], [ -52.8303552, -28.4528358 ], [ -52.8301728, -28.4525764 ], [ -52.8300065, -28.4524302 ], [ -52.829973, -28.4523566 ], [ -52.8299509, -28.452308 ], [ -52.8298241, -28.4520293 ], [ -52.8297329, -28.4513407 ], [ -52.8296793, -28.4512463 ], [ -52.8296256, -28.4510482 ], [ -52.8296042, -28.4508596 ], [ -52.8296042, -28.4504021 ], [ -52.8258276, -28.4506379 ], [ -52.8262192, -28.4567645 ] ] ] } },
{ "type": "Feature", "properties": { "name": "Cohab", "code_muni": 4312658.0, "name_muni": "Não-Me-Toque" }, "geometry": { "type": "Polygon", "coordinates": [ [ [ -52.834121, -28.4647866 ], [ -52.8344643, -28.4647913 ], [ -52.8345609, -28.4648337 ], [ -52.8348935, -28.4649186 ], [ -52.8354996, -28.4649516 ], [ -52.8358591, -28.4649375 ], [ -52.8362346, -28.4648809 ], [ -52.8364438, -28.4647772 ], [ -52.8366852, -28.4647017 ], [ -52.8370339, -28.4645414 ], [ -52.837109, -28.464447 ], [ -52.8377742, -28.4639377 ], [ -52.8378707, -28.4638858 ], [ -52.8380477, -28.4637302 ], [ -52.8382516, -28.4633907 ], [ -52.8384447, -28.462999199999988 ], [ -52.8384608, -28.4627776 ], [ -52.8384233, -28.4625654 ], [ -52.8383696, -28.4624805 ], [ -52.8383052, -28.4622918 ], [ -52.8383374, -28.4621975 ], [ -52.838493, -28.4620277 ], [ -52.8389061, -28.4618061 ], [ -52.8392601, -28.4613816 ], [ -52.8394747, -28.4612307 ], [ -52.8397107, -28.4609949 ], [ -52.8400736, -28.460501 ], [ -52.8392896, -28.4601932 ], [ -52.8374657, -28.4595565 ], [ -52.8376803, -28.4586345 ], [ -52.8376918, -28.4585484 ], [ -52.8375263, -28.458578 ], [ -52.8357243, -28.4589002 ], [ -52.835334, -28.4589624 ], [ -52.8346489, -28.4590835 ], [ -52.8339857, -28.4592024 ], [ -52.8334417, -28.4593012 ], [ -52.8333954, -28.4593087 ], [ -52.8331673, -28.459346 ], [ -52.8328866, -28.4593961 ], [ -52.8322966, -28.4595161 ], [ -52.8318547, -28.4595796 ], [ -52.8313255, -28.459686399999988 ], [ -52.8304627, -28.4598225 ], [ -52.8306412, -28.4603992 ], [ -52.8306596, -28.460508 ], [ -52.830893, -28.4606896 ], [ -52.8324875, -28.4619594 ], [ -52.8332439, -28.4614453 ], [ -52.8339915, -28.4648001 ], [ -52.834121, -28.4647866 ] ] ] } },
{ "type": "Feature", "properties": { "name": "São João", "code_muni": 4312658.0, "name_muni": "Não-Me-Toque" }, "geometry": { "type": "Polygon", "coordinates": [ [ [ -52.8306412, -28.4603992 ], [ -52.8304627, -28.4598225 ], [ -52.8290726, -28.460062 ], [ -52.8287627, -28.4601087 ], [ -52.8279016, -28.4602798 ], [ -52.8273961, -28.4603165 ], [ -52.8264047, -28.4604653 ], [ -52.8262353, -28.460479 ], [ -52.8253068, -28.460511 ], [ -52.8249984, -28.4607589 ], [ -52.8258454, -28.4615326 ], [ -52.8267305, -28.4623305 ], [ -52.827597, -28.4631319 ], [ -52.8284576, -28.462377 ], [ -52.8293379, -28.4631771 ], [ -52.8301581, -28.4639674 ], [ -52.8308771, -28.4646143 ], [ -52.8313715, -28.4650602 ], [ -52.8317933, -28.4654248 ], [ -52.8318913, -28.4653916 ], [ -52.8321925, -28.4653289 ], [ -52.8327075, -28.4653124 ], [ -52.8328389, -28.4652912 ], [ -52.8333941, -28.4649257 ], [ -52.8336221, -28.4648385 ], [ -52.8339915, -28.4648001 ], [ -52.8332439, -28.4614453 ], [ -52.8324875, -28.4619594 ], [ -52.830893, -28.4606896 ], [ -52.8306596, -28.460508 ], [ -52.8306412, -28.4603992 ] ] ] } },
{ "type": "Feature", "properties": { "name": "Ioris", "code_muni": 4312658.0, "name_muni": "Não-Me-Toque" }, "geometry": { "type": "Polygon", "coordinates": [ [ [ -52.8259966, -28.4680735 ], [ -52.8260663, -28.4679981 ], [ -52.8262433, -28.4679604 ], [ -52.8263748, -28.4677929 ], [ -52.8266054, -28.4677741 ], [ -52.8266564, -28.4677505 ], [ -52.8267074, -28.467635 ], [ -52.826938, -28.4674676 ], [ -52.8272706, -28.4673072 ], [ -52.82763, -28.4669465 ], [ -52.8279009, -28.4667272 ], [ -52.8280726, -28.4666399 ], [ -52.8291589, -28.4659467 ], [ -52.8296658, -28.4657557 ], [ -52.8299662, -28.4656944 ], [ -52.8302184, -28.465552899999988 ], [ -52.8309238, -28.465505799999988 ], [ -52.8310472, -28.4654822 ], [ -52.8313369, -28.4654893 ], [ -52.8316373, -28.4654445 ], [ -52.8317356, -28.465424 ], [ -52.8317933, -28.4654248 ], [ -52.8313715, -28.4650602 ], [ -52.8308771, -28.4646143 ], [ -52.8301581, -28.4639674 ], [ -52.8293379, -28.4631771 ], [ -52.8284576, -28.462377 ], [ -52.827597, -28.4631319 ], [ -52.8266915, -28.4638961 ], [ -52.8257885, -28.4646183 ], [ -52.824906, -28.4653704 ], [ -52.8243694, -28.4657879 ], [ -52.824821, -28.466799 ], [ -52.8250008, -28.4672183 ], [ -52.8251084, -28.4674663 ], [ -52.8252032, -28.4676063 ], [ -52.8253147, -28.467721 ], [ -52.825433, -28.4678457 ], [ -52.8256401, -28.4680497 ], [ -52.8258003, -28.4682371 ], [ -52.8258902, -28.4681539 ], [ -52.8259966, -28.4680735 ] ] ] } },
{ "type": "Feature", "properties": { "name": "Martini", "code_muni": 4312658.0, "name_muni": "Não-Me-Toque" }, "geometry": { "type": "Polygon", "coordinates": [ [ [ -52.8166877, -28.4677254 ], [ -52.8174898, -28.4685867 ], [ -52.8176506, -28.4687647 ], [ -52.8177567, -28.468899 ], [ -52.8178555, -28.4690855 ], [ -52.8183474, -28.4706851 ], [ -52.8184567, -28.4712518 ], [ -52.8185668, -28.4717132 ], [ -52.8187541, -28.4727136 ], [ -52.8189477, -28.4726477 ], [ -52.8194976, -28.4719498 ], [ -52.8195727, -28.4718744 ], [ -52.819857, -28.4716763 ], [ -52.8200126, -28.4715254 ], [ -52.8204042, -28.4713179 ], [ -52.8205061, -28.4712826 ], [ -52.8208816, -28.4710208 ], [ -52.8209996, -28.4709831 ], [ -52.8212571, -28.4709383 ], [ -52.8214368, -28.4709902 ], [ -52.8218284, -28.471233 ], [ -52.8225124, -28.4710774 ], [ -52.8235129, -28.470747299999989 ], [ -52.8239635, -28.4705257 ], [ -52.8241485, -28.4703583 ], [ -52.8242317, -28.4700282 ], [ -52.8242639, -28.4697712 ], [ -52.8242531, -28.4693114 ], [ -52.8242719, -28.4690662 ], [ -52.8243122, -28.4689648 ], [ -52.8243497, -28.4689247 ], [ -52.8244489, -28.4688634 ], [ -52.8249398, -28.4687903 ], [ -52.8250632, -28.4687479 ], [ -52.8253475, -28.468564 ], [ -52.8257241, -28.4683011 ], [ -52.8258003, -28.4682371 ], [ -52.8256401, -28.4680497 ], [ -52.825433, -28.4678457 ], [ -52.8253147, -28.467721 ], [ -52.8252032, -28.4676063 ], [ -52.8251084, -28.4674663 ], [ -52.8250008, -28.4672183 ], [ -52.824821, -28.466799 ], [ -52.8243694, -28.4657879 ], [ -52.8239913, -28.466108 ], [ -52.823104, -28.4653082 ], [ -52.82230830000001, -28.4645041 ], [ -52.8214676, -28.463741 ], [ -52.8207852, -28.4630814 ], [ -52.8198552, -28.463820099999989 ], [ -52.8189663, -28.4645465 ], [ -52.818087, -28.4652884 ], [ -52.8172085, -28.4660324 ], [ -52.8159989, -28.4669913 ], [ -52.8166877, -28.4677254 ] ] ] } },
{ "type": "Feature", "properties": { "name": "Stara", "code_muni": 4312658.0, "name_muni": "Não-Me-Toque" }, "geometry": { "type": "Polygon", "coordinates": [ [ [ -52.8182584, -28.4781837 ], [ -52.8192642, -28.4775824 ], [ -52.8191569, -28.4771486 ], [ -52.8206483, -28.4753191 ], [ -52.8207325, -28.4752306 ], [ -52.8206626, -28.4751786 ], [ -52.8198585, -28.4745803 ], [ -52.8191642, -28.474061699999989 ], [ -52.8189719, -28.4737347 ], [ -52.81895020000001, -28.4736074 ], [ -52.8188743, -28.4731863 ], [ -52.8187607, -28.4727392 ], [ -52.8187541, -28.4727136 ], [ -52.8185668, -28.4717132 ], [ -52.8184567, -28.4712518 ], [ -52.8183474, -28.4706851 ], [ -52.8178555, -28.4690855 ], [ -52.8177567, -28.468899 ], [ -52.8176506, -28.4687647 ], [ -52.8174898, -28.4685867 ], [ -52.8166877, -28.4677254 ], [ -52.8159989, -28.4669913 ], [ -52.8152477, -28.4661609 ], [ -52.814982, -28.4658955 ], [ -52.8149467, -28.4658762 ], [ -52.8127009, -28.4704809 ], [ -52.8125373, -28.4708794 ], [ -52.8123382, -28.4712331 ], [ -52.8120853, -28.471924199999989 ], [ -52.8119502, -28.4724373 ], [ -52.81192, -28.4725617 ], [ -52.8118579, -28.4731029 ], [ -52.8118411, -28.4738557 ], [ -52.811832, -28.4742716 ], [ -52.8118305, -28.4749212 ], [ -52.8118389, -28.4751555 ], [ -52.8118737, -28.4754826 ], [ -52.8118932, -28.4756209 ], [ -52.8119448, -28.4758301 ], [ -52.8121081, -28.4763058 ], [ -52.8122516, -28.476659399999988 ], [ -52.8126204, -28.4774858 ], [ -52.8127166, -28.4777457 ], [ -52.8128715, -28.4781539 ], [ -52.8131212, -28.4788823 ], [ -52.8132206, -28.4792387 ], [ -52.8133124, -28.4797167 ], [ -52.8183228, -28.478924 ], [ -52.8182584, -28.4781837 ] ] ] } },
{ "type": "Feature", "properties": { "name": "Vargas", "code_muni": 4312658.0, "name_muni": "Não-Me-Toque" }, "geometry": { "type": "Polygon", "coordinates": [ [ [ -52.8115126, -28.4748605 ], [ -52.8113347, -28.4749151 ], [ -52.811051, -28.4749823 ], [ -52.8107118, -28.4750275 ], [ -52.8104942, -28.4750088 ], [ -52.8103822, -28.4749992 ], [ -52.8101538, -28.4749562 ], [ -52.8098566, -28.4749003 ], [ -52.80972, -28.4748653 ], [ -52.8095769, -28.4748219 ], [ -52.8093153, -28.47475 ], [ -52.809126, -28.4746975 ], [ -52.8088792, -28.4746559 ], [ -52.808733, -28.4746431 ], [ -52.8085786, -28.4746431 ], [ -52.8084018, -28.4746905 ], [ -52.808176, -28.4747731 ], [ -52.8080739, -28.4748134 ], [ -52.8078861, -28.4749324 ], [ -52.8077066, -28.4750466 ], [ -52.8073505, -28.4753553 ], [ -52.80673560000001, -28.4758866 ], [ -52.8064407, -28.4761021 ], [ -52.8063482, -28.476172 ], [ -52.806267, -28.4762165 ], [ -52.806173, -28.4762307 ], [ -52.8060934, -28.4762123 ], [ -52.8059659, -28.4761596 ], [ -52.8057907, -28.476463 ], [ -52.805595, -28.4767343 ], [ -52.8053493, -28.4769976 ], [ -52.8050323, -28.4772616 ], [ -52.8050727, -28.4772948 ], [ -52.8059386, -28.4778869 ], [ -52.8060007, -28.477922 ], [ -52.8066874, -28.4783534 ], [ -52.809037, -28.476505 ], [ -52.81030830000001, -28.4773868 ], [ -52.810334, -28.4774105 ], [ -52.811000300000011, -28.4769577 ], [ -52.8119524, -28.4763723 ], [ -52.8121081, -28.4763058 ], [ -52.8119448, -28.4758301 ], [ -52.8118932, -28.4756209 ], [ -52.8118737, -28.4754826 ], [ -52.8118389, -28.4751555 ], [ -52.8118305, -28.4749212 ], [ -52.811832, -28.4742716 ], [ -52.8118007, -28.4742775 ], [ -52.8117334, -28.4743008 ], [ -52.8117138, -28.4743235 ], [ -52.8116903, -28.4743984 ], [ -52.8116826, -28.4745997 ], [ -52.8116759, -28.4747249 ], [ -52.8116823, -28.4747467 ], [ -52.8115126, -28.4748605 ] ] ] } },
{ "type": "Feature", "properties": { "name": "Viau", "code_muni": 4312658.0, "name_muni": "Não-Me-Toque" }, "geometry": { "type": "Polygon", "coordinates": [ [ [ -52.8116759, -28.4747249 ], [ -52.8116826, -28.4745997 ], [ -52.8116903, -28.4743984 ], [ -52.8117138, -28.4743235 ], [ -52.8117334, -28.4743008 ], [ -52.8118007, -28.4742775 ], [ -52.811832, -28.4742716 ], [ -52.8118411, -28.4738557 ], [ -52.8118579, -28.4731029 ], [ -52.81192, -28.4725617 ], [ -52.8119502, -28.4724373 ], [ -52.8120853, -28.471924199999989 ], [ -52.8123382, -28.4712331 ], [ -52.8125373, -28.4708794 ], [ -52.8121258, -28.4709559 ], [ -52.8110495, -28.4712846 ], [ -52.809383, -28.4716971 ], [ -52.8091889, -28.4717426 ], [ -52.8086749, -28.4718449 ], [ -52.8079346, -28.4720418 ], [ -52.8076369, -28.4724591 ], [ -52.8074686, -28.4728751 ], [ -52.8072783, -28.4733347 ], [ -52.8072366, -28.473443700000011 ], [ -52.8067265, -28.4745277 ], [ -52.8061752, -28.4757317 ], [ -52.8059659, -28.4761596 ], [ -52.8060934, -28.4762123 ], [ -52.806173, -28.4762307 ], [ -52.806267, -28.4762165 ], [ -52.8063482, -28.476172 ], [ -52.8064407, -28.4761021 ], [ -52.80673560000001, -28.4758866 ], [ -52.8073505, -28.4753553 ], [ -52.8077066, -28.4750466 ], [ -52.8078861, -28.4749324 ], [ -52.8080739, -28.4748134 ], [ -52.808176, -28.4747731 ], [ -52.8084018, -28.4746905 ], [ -52.8085786, -28.4746431 ], [ -52.808733, -28.4746431 ], [ -52.8088792, -28.4746559 ], [ -52.809126, -28.4746975 ], [ -52.8093153, -28.47475 ], [ -52.8095769, -28.4748219 ], [ -52.80972, -28.4748653 ], [ -52.8098566, -28.4749003 ], [ -52.8101538, -28.4749562 ], [ -52.8103822, -28.4749992 ], [ -52.8104942, -28.4750088 ], [ -52.8107118, -28.4750275 ], [ -52.811051, -28.4749823 ], [ -52.8113347, -28.4749151 ], [ -52.8115126, -28.4748605 ], [ -52.8116823, -28.4747467 ], [ -52.8116759, -28.4747249 ] ] ] } },
{ "type": "Feature", "properties": { "name": "Ipiranga", "code_muni": 4312658.0, "name_muni": "Não-Me-Toque" }, "geometry": { "type": "Polygon", "coordinates": [ [ [ -52.8125373, -28.4708794 ], [ -52.8127009, -28.4704809 ], [ -52.8149467, -28.4658762 ], [ -52.8090586, -28.4658327 ], [ -52.8065345, -28.4658811 ], [ -52.8068343, -28.4662159 ], [ -52.8070025, -28.4664157 ], [ -52.8073656, -28.4668946 ], [ -52.8074551, -28.4670201 ], [ -52.8077081, -28.467375 ], [ -52.8080959, -28.4679764 ], [ -52.808516, -28.4687135 ], [ -52.808579, -28.4688455 ], [ -52.8086467, -28.4690108 ], [ -52.8086796, -28.4691002 ], [ -52.8086937, -28.4691386 ], [ -52.8087209, -28.4692864 ], [ -52.8087407, -28.4694552 ], [ -52.808739, -28.4696546 ], [ -52.8086743, -28.4699689 ], [ -52.8085621, -28.4704144 ], [ -52.8083057, -28.4713091 ], [ -52.8079346, -28.4720418 ], [ -52.8086749, -28.4718449 ], [ -52.8091889, -28.4717426 ], [ -52.809383, -28.4716971 ], [ -52.8110495, -28.4712846 ], [ -52.8121258, -28.4709559 ], [ -52.8125373, -28.4708794 ] ] ] } },
{ "type": "Feature", "properties": { "name": "Boa Vista", "code_muni": 4312658.0, "name_muni": "Não-Me-Toque" }, "geometry": { "type": "Polygon", "coordinates": [ [ [ -52.8131756, -28.4618654 ], [ -52.8128952, -28.4626113 ], [ -52.8113659, -28.4621286 ], [ -52.8102709, -28.4618031 ], [ -52.8094916, -28.4615613 ], [ -52.8079688, -28.4611035 ], [ -52.8059632, -28.4624097 ], [ -52.806285, -28.462603099999988 ], [ -52.8067464, -28.463551 ], [ -52.807433, -28.4639141 ], [ -52.8076047, -28.4640745 ], [ -52.807712, -28.4642584 ], [ -52.8082645, -28.4646923 ], [ -52.8084201, -28.4648573 ], [ -52.8088278, -28.4652157 ], [ -52.8089672, -28.4653997 ], [ -52.8090586, -28.4658327 ], [ -52.8149467, -28.4658762 ], [ -52.8153992, -28.4644588 ], [ -52.8153415, -28.4642095 ], [ -52.8152927, -28.4641381 ], [ -52.8154107, -28.462884 ], [ -52.8154242, -28.4627677 ], [ -52.8154952, -28.4619562 ], [ -52.8141402, -28.4615637 ], [ -52.8139364, -28.4615038 ], [ -52.8133925, -28.4613286 ], [ -52.8131756, -28.4618654 ] ] ] } },
{ "type": "Feature", "properties": { "name": "Jardim", "code_muni": 4312658.0, "name_muni": "Não-Me-Toque" }, "geometry": { "type": "Polygon", "coordinates": [ [ [ -52.8006631, -28.45792 ], [ -52.8009743, -28.458052 ], [ -52.8014249, -28.4582926 ], [ -52.8016555, -28.4585048 ], [ -52.8018862, -28.4587595 ], [ -52.8019828, -28.4588255 ], [ -52.8021973, -28.4588444 ], [ -52.8022939, -28.4588066 ], [ -52.8025353, -28.458651 ], [ -52.8025407, -28.4588585 ], [ -52.802648, -28.459033 ], [ -52.802771300000011, -28.4593773 ], [ -52.8027606, -28.460179 ], [ -52.8028411, -28.4603677 ], [ -52.8030419, -28.460512 ], [ -52.8031433, -28.4605849 ], [ -52.803399, -28.4607686 ], [ -52.8035063, -28.4609383 ], [ -52.80393, -28.4614241 ], [ -52.8040856, -28.461565599999989 ], [ -52.8041768, -28.4616316 ], [ -52.8044826, -28.4617872 ], [ -52.804901, -28.4621126 ], [ -52.8054375, -28.4623484 ], [ -52.8056949, -28.4621881 ], [ -52.8057861, -28.4622447 ], [ -52.8059632, -28.4624097 ], [ -52.8079688, -28.4611035 ], [ -52.8094916, -28.4615613 ], [ -52.8102709, -28.4618031 ], [ -52.8113659, -28.4621286 ], [ -52.8128952, -28.4626113 ], [ -52.8131756, -28.4618654 ], [ -52.8133925, -28.4613286 ], [ -52.8139546, -28.4598053 ], [ -52.8138964, -28.459858 ], [ -52.8138262, -28.4598778 ], [ -52.8137416, -28.4598772 ], [ -52.8126016, -28.4593808 ], [ -52.8117017, -28.4589847 ], [ -52.8107804, -28.4585862 ], [ -52.8099214, -28.4582255 ], [ -52.8093836, -28.4579996 ], [ -52.8092968, -28.45796 ], [ -52.8088509, -28.4577567 ], [ -52.8084154, -28.4575581 ], [ -52.8082862, -28.4574992 ], [ -52.8077329, -28.4572465 ], [ -52.8070548, -28.4569438 ], [ -52.8069811, -28.4569072 ], [ -52.8059916, -28.4564866 ], [ -52.8051586, -28.4561108 ], [ -52.8050804, -28.4560753 ], [ -52.8047941, -28.4559451 ], [ -52.8043967, -28.4557644 ], [ -52.8042573, -28.4557057 ], [ -52.8037289, -28.4554699 ], [ -52.8004593, -28.4578021 ], [ -52.8006631, -28.45792 ] ] ] } },
{ "type": "Feature", "properties": { "name": "Centro", "code_muni": 4312658.0, "name_muni": "Não-Me-Toque" }, "geometry": { "type": "Polygon", "coordinates": [ [ [ -52.8206228, -28.4562896 ], [ -52.8198161, -28.4563831 ], [ -52.8171561, -28.4564945 ], [ -52.8147715, -28.4573116 ], [ -52.8124112, -28.4547742 ], [ -52.8071849, -28.456868299999989 ], [ -52.8070548, -28.4569438 ], [ -52.8077329, -28.4572465 ], [ -52.8082862, -28.4574992 ], [ -52.8084154, -28.4575581 ], [ -52.8088509, -28.4577567 ], [ -52.8092968, -28.45796 ], [ -52.8093836, -28.4579996 ], [ -52.8099214, -28.4582255 ], [ -52.8107804, -28.4585862 ], [ -52.8117017, -28.4589847 ], [ -52.8126016, -28.4593808 ], [ -52.8137416, -28.4598772 ], [ -52.8138262, -28.4598778 ], [ -52.8138964, -28.459858 ], [ -52.8139546, -28.4598053 ], [ -52.8133925, -28.4613286 ], [ -52.8139364, -28.4615038 ], [ -52.8141402, -28.4615637 ], [ -52.8154952, -28.4619562 ], [ -52.8154242, -28.4627677 ], [ -52.8154107, -28.462884 ], [ -52.8152927, -28.4641381 ], [ -52.8153415, -28.4642095 ], [ -52.8153992, -28.4644588 ], [ -52.8149467, -28.4658762 ], [ -52.814982, -28.4658955 ], [ -52.8152477, -28.4661609 ], [ -52.8159989, -28.4669913 ], [ -52.8172085, -28.4660324 ], [ -52.818087, -28.4652884 ], [ -52.8189663, -28.4645465 ], [ -52.8198552, -28.463820099999989 ], [ -52.8207852, -28.4630814 ], [ -52.8214676, -28.463741 ], [ -52.82230830000001, -28.4645041 ], [ -52.823104, -28.4653082 ], [ -52.8239913, -28.466108 ], [ -52.8243694, -28.4657879 ], [ -52.824906, -28.4653704 ], [ -52.8257885, -28.4646183 ], [ -52.8266915, -28.4638961 ], [ -52.827597, -28.4631319 ], [ -52.8267305, -28.4623305 ], [ -52.8258454, -28.4615326 ], [ -52.8249984, -28.4607589 ], [ -52.8253068, -28.460511 ], [ -52.8262353, -28.460479 ], [ -52.8257897, -28.459619299999989 ], [ -52.8253314, -28.4587925 ], [ -52.8251839, -28.4586687 ], [ -52.8250538, -28.4585508 ], [ -52.8247653, -28.4582707 ], [ -52.8246135, -28.4584011 ], [ -52.8237824, -28.4576327 ], [ -52.8237154, -28.4577064 ], [ -52.8230438, -28.4582793 ], [ -52.8225694, -28.4586325 ], [ -52.8216807, -28.4577973 ], [ -52.8210747, -28.4572833 ], [ -52.8207663, -28.4570204 ], [ -52.8206791, -28.4569013 ], [ -52.8206563, -28.4567386 ], [ -52.8206228, -28.4562896 ] ] ] } }
]
}
