{
"type": "FeatureCollection",
"name": "bairros_vista_alegre_do_prata",
"crs": { "type": "name", "properties": { "name": "urn:ogc:def:crs:OGC:1.3:CRS84" } },
"features": [
{ "type": "Feature", "properties": { "code_muni": 4323606.0, "name_muni": "Vista Alegre do Prata", "code_state": 43.0, "abbrev_state": "RS", "name_state": "Rio Grande do Sul", "code_region": 4.0, "name_region": "Sul", "year": 2022.0 }, "geometry": { "type": "Polygon", "coordinates": [ [ [ -51.711749833999903, -28.784229798 ], [ -51.706704572, -28.784244381 ], [ -51.70646635299989, -28.791803448999893 ], [ -51.688860599, -28.792123934 ], [ -51.68915392799989, -28.803203870999894 ], [ -51.683648276, -28.8032854369999 ], [ -51.683838119, -28.81498586 ], [ -51.703973237999897, -28.814865234 ], [ -51.704344803, -28.824315925 ], [ -51.712281221999895, -28.824327076 ], [ -51.712115501, -28.835462370999899 ], [ -51.754675597, -28.835984939 ], [ -51.750009984, -28.8400072049999 ], [ -51.753963219999896, -28.843574160999896 ], [ -51.755182683, -28.848212093 ], [ -51.752143818, -28.855826598 ], [ -51.754379957, -28.859998963 ], [ -51.756260515999898, -28.858971443 ], [ -51.756929612, -28.856358993 ], [ -51.758693174, -28.856623693 ], [ -51.765554972, -28.864573988 ], [ -51.764618487999897, -28.86699356 ], [ -51.759131626999903, -28.867672726 ], [ -51.758291658, -28.872607393 ], [ -51.765105835, -28.872817884 ], [ -51.770545427999892, -28.874554755 ], [ -51.776413624, -28.880339835 ], [ -51.777508794, -28.885386809 ], [ -51.786029352999897, -28.880746073 ], [ -51.791067692, -28.883939324 ], [ -51.791082908, -28.881525210999897 ], [ -51.793479567, -28.879171730999907 ], [ -51.80119551, -28.876798614999892 ], [ -51.801995702999903, -28.868643192 ], [ -51.804347611, -28.865075713999893 ], [ -51.812578774, -28.865986882 ], [ -51.812510569, -28.872325227 ], [ -51.826197998999902, -28.871390295 ], [ -51.829367133999902, -28.868763581999897 ], [ -51.826096697, -28.858872936999898 ], [ -51.826491938999901, -28.857465117999901 ], [ -51.831992047, -28.854764017 ], [ -51.834706782, -28.837327710999912 ], [ -51.83869515899989, -28.835857485 ], [ -51.843801523, -28.83677162 ], [ -51.85485205, -28.839987161 ], [ -51.858126994, -28.842115388 ], [ -51.86390405, -28.83219745 ], [ -51.863720147, -28.830414149 ], [ -51.849892396, -28.830082773999901 ], [ -51.840745473, -28.828233060999906 ], [ -51.834980175999902, -28.818576849999893 ], [ -51.836527616999902, -28.816040219999902 ], [ -51.8481970939999, -28.808275377 ], [ -51.861240106, -28.808963282 ], [ -51.870259087, -28.802834722999894 ], [ -51.866432371, -28.795250476 ], [ -51.861700543, -28.796402278999896 ], [ -51.857561986999897, -28.7920345379999 ], [ -51.851717010999899, -28.791071370999898 ], [ -51.84970737, -28.782176225999898 ], [ -51.847684429, -28.780526876999897 ], [ -51.839558938, -28.785631953999893 ], [ -51.836574697999893, -28.785746552 ], [ -51.833588928, -28.778205596 ], [ -51.762970709999891, -28.778168102999889 ], [ -51.762381688999895, -28.781768631 ], [ -51.764937717999892, -28.780599685 ], [ -51.767450358, -28.783820395 ], [ -51.76469797, -28.787564651 ], [ -51.76191754, -28.786138730999898 ], [ -51.759732541999895, -28.787529316 ], [ -51.762193125999893, -28.790836742 ], [ -51.761032219, -28.795688624 ], [ -51.711749833999903, -28.784229798 ] ] ] } }
]
}
