{
"type": "FeatureCollection",
"name": "bairros_tabai",
"crs": { "type": "name", "properties": { "name": "urn:ogc:def:crs:OGC:1.3:CRS84" } },
"features": [
{ "type": "Feature", "properties": { "code_muni": 4320859.0, "name_muni": "Tabaí", "code_state": 43.0, "abbrev_state": "RS", "name_state": "Rio Grande do Sul", "code_region": 4.0, "name_region": "Sul", "year": 2022.0 }, "geometry": { "type": "Polygon", "coordinates": [ [ [ -51.729743707, -29.623725094 ], [ -51.718382917, -29.620316337 ], [ -51.713810574, -29.615172357999892 ], [ -51.709671237999899, -29.615922531 ], [ -51.705503748999895, -29.61440321 ], [ -51.704311839, -29.611908121999893 ], [ -51.705175642, -29.608603603999892 ], [ -51.709246375, -29.60653758 ], [ -51.710544087, -29.603486689 ], [ -51.709555834, -29.601756259999895 ], [ -51.699651301, -29.600144913 ], [ -51.697677519, -29.602264154 ], [ -51.694615416, -29.602882851999894 ], [ -51.695102102, -29.606089003 ], [ -51.693918822999898, -29.607991947 ], [ -51.688905716, -29.608349357999895 ], [ -51.679183025, -29.614468721 ], [ -51.679181873999902, -29.618708825999899 ], [ -51.676043439, -29.619476333 ], [ -51.674980127, -29.622562503 ], [ -51.675285196999901, -29.627535688 ], [ -51.669636509, -29.631632544999889 ], [ -51.663719957, -29.643818650999911 ], [ -51.66089313, -29.643042926 ], [ -51.658764146999907, -29.644429256 ], [ -51.662252807999899, -29.645978678999903 ], [ -51.662986717, -29.649980101 ], [ -51.665463527, -29.653307025999901 ], [ -51.670370768999902, -29.6544177 ], [ -51.672997113, -29.653193213 ], [ -51.674389388, -29.655316035999899 ], [ -51.679514186999903, -29.655283147 ], [ -51.681861784, -29.657786018 ], [ -51.681541068999898, -29.659652479999984 ], [ -51.685454555, -29.660823692 ], [ -51.685239138, -29.666665188 ], [ -51.69126863, -29.668346586 ], [ -51.693431994, -29.667086586 ], [ -51.696178964999902, -29.671720739 ], [ -51.69545041, -29.680330795 ], [ -51.696927268, -29.681407921999899 ], [ -51.696945839, -29.6836293009999 ], [ -51.70471871, -29.687722884 ], [ -51.703181314999902, -29.688481695999901 ], [ -51.703531498, -29.694166208999906 ], [ -51.707681587, -29.695317471 ], [ -51.709486094999896, -29.700870214 ], [ -51.711060189, -29.699593450999895 ], [ -51.716685185, -29.702308334 ], [ -51.716772281, -29.704077309 ], [ -51.720832345, -29.708139356999908 ], [ -51.720745375, -29.713268951 ], [ -51.724225697999906, -29.715742829 ], [ -51.734697462, -29.714797787999892 ], [ -51.733251079, -29.712280536000012 ], [ -51.742799635, -29.711784359 ], [ -51.746571713, -29.715517016 ], [ -51.750345766999899, -29.716115013 ], [ -51.750488828, -29.719988791999985 ], [ -51.753817190999889, -29.722597317 ], [ -51.756077639999901, -29.733247806999898 ], [ -51.768220948, -29.731910957 ], [ -51.775677588999898, -29.732681186 ], [ -51.7789571, -29.725496662 ], [ -51.784956607, -29.723967593999905 ], [ -51.786656389, -29.720234631 ], [ -51.793526594999896, -29.720323998 ], [ -51.798069617, -29.713467481 ], [ -51.791757892, -29.7076252009999 ], [ -51.786724997, -29.708489012 ], [ -51.784651039, -29.702348303 ], [ -51.781309558, -29.69826138 ], [ -51.770735293, -29.695620233999907 ], [ -51.775503371, -29.686913279999889 ], [ -51.775394863, -29.68231682 ], [ -51.783532330999897, -29.683259330999896 ], [ -51.787593208, -29.68086075 ], [ -51.786181365999902, -29.677953231999908 ], [ -51.787795952, -29.672877807 ], [ -51.782294666, -29.66658605 ], [ -51.783229166, -29.659073458999984 ], [ -51.779867797999898, -29.653178993 ], [ -51.771969563, -29.656538317999885 ], [ -51.767708661, -29.655673095999898 ], [ -51.763002478, -29.657380261999904 ], [ -51.763564786, -29.654751097 ], [ -51.75841269499989, -29.645256633 ], [ -51.755635394, -29.635978028999912 ], [ -51.75109824, -29.628579561 ], [ -51.742942465999896, -29.624543573 ], [ -51.740858169, -29.621036220999898 ], [ -51.734093292999901, -29.621340244 ], [ -51.729743707, -29.623725094 ] ] ] } }
]
}
