{
"type": "FeatureCollection",
"name": "bairros_roque_gonzales",
"crs": { "type": "name", "properties": { "name": "urn:ogc:def:crs:OGC:1.3:CRS84" } },
"features": [
{ "type": "Feature", "properties": { "code_muni": 4316303.0, "name_muni": "Roque Gonzales", "code_state": 43.0, "abbrev_state": "RS", "name_state": "Rio Grande do Sul", "code_region": 4.0, "name_region": "Sul", "year": 2022.0 }, "geometry": { "type": "Polygon", "coordinates": [ [ [ -55.002287029999891, -28.167771788 ], [ -55.009707755, -28.16735947 ], [ -55.032446568999902, -28.179867269999903 ], [ -55.038254487, -28.1781341679999 ], [ -55.043638712, -28.173574113 ], [ -55.044828573, -28.169725019999891 ], [ -55.040004014, -28.162368979999901 ], [ -55.03725213300001, -28.15258003 ], [ -55.0307670299999, -28.145644462 ], [ -55.031213884999893, -28.141627919 ], [ -55.035934336, -28.137837712 ], [ -55.043855506999897, -28.136783658999899 ], [ -55.050664728999891, -28.139901513 ], [ -55.052684757, -28.141590056 ], [ -55.054323772, -28.146605861 ], [ -55.05903964, -28.148794766 ], [ -55.064754198999893, -28.146873325999891 ], [ -55.066885575999891, -28.143626684 ], [ -55.064825599, -28.132565494999895 ], [ -55.055156527999898, -28.1269570709999 ], [ -55.050337082999896, -28.122617085999906 ], [ -55.049892165, -28.117695531 ], [ -55.060583228, -28.111977259 ], [ -55.066855787, -28.111384444999889 ], [ -55.083820843999895, -28.125144900999899 ], [ -55.088034485, -28.127191149999902 ], [ -55.0962580939999, -28.123837116999901 ], [ -55.104108031, -28.117745484999901 ], [ -55.105941766999898, -28.112132281999894 ], [ -55.101789524, -28.105003285 ], [ -55.101319707999892, -28.097513853 ], [ -55.10302186, -28.096640771999901 ], [ -55.112136163999899, -28.099319932 ], [ -55.114305523, -28.097816167 ], [ -55.116540438999898, -28.092314517 ], [ -55.114165263, -28.080476236 ], [ -55.108800496999898, -28.072658838999899 ], [ -55.101396238999897, -28.067769405 ], [ -55.100165875999892, -28.065116142 ], [ -55.101438662, -28.063915576999907 ], [ -55.115133621, -28.060902671 ], [ -55.121196621, -28.058026619 ], [ -55.12557715, -28.058169249999892 ], [ -55.129131394999902, -28.061004997999895 ], [ -55.137495341, -28.073027647999893 ], [ -55.140682758, -28.086105448 ], [ -55.142368473, -28.086919692 ], [ -55.145309397999895, -28.085790674999899 ], [ -55.149243515, -28.079654687 ], [ -55.151580904, -28.070918402 ], [ -55.149843462, -28.063265497 ], [ -55.152372933, -28.043705019 ], [ -55.157040310999896, -28.042446006 ], [ -55.160698994, -28.043657373 ], [ -55.166647188, -28.0476442299999 ], [ -55.17125746499989, -28.053337585 ], [ -55.1736842729999, -28.054058735 ], [ -55.179349268, -28.051032850999899 ], [ -55.181661912, -28.047565016 ], [ -55.179418351, -28.0406212 ], [ -55.1800972469999, -28.035972842 ], [ -55.182368793, -28.034303297999898 ], [ -55.191453415, -28.032431721 ], [ -55.193757322, -28.030393381 ], [ -55.193822756, -28.027107773999901 ], [ -55.188477114, -28.023554186999899 ], [ -55.182820163, -28.015667731 ], [ -55.183321806, -28.012430520999899 ], [ -55.189689431, -28.010064822999901 ], [ -55.194440162, -28.010927970999898 ], [ -55.206454177999902, -28.018596924 ], [ -55.218093938, -28.021011051999899 ], [ -55.221461808, -28.025390688 ], [ -55.220842053, -28.0358995829999 ], [ -55.221944019, -28.03745133 ], [ -55.224704894, -28.037881624 ], [ -55.227240177999896, -28.034335160999898 ], [ -55.228055204, -28.025981393999896 ], [ -55.231385875999905, -28.024143497999908 ], [ -55.241048516, -28.023768387 ], [ -55.243072718, -28.022172146999907 ], [ -55.244043335, -28.018796892 ], [ -55.241497986999896, -28.016108173 ], [ -55.230053548999898, -28.016241509999901 ], [ -55.223219875, -28.009116155999898 ], [ -55.21429269, -28.006716089 ], [ -55.213291574, -28.004455705999899 ], [ -55.214683352999891, -28.003081669 ], [ -55.218149277999906, -28.002207828999897 ], [ -55.227294695999895, -28.0031763439999 ], [ -55.246065154, -28.002629825999989 ], [ -55.249131975, -27.999847007 ], [ -55.253597355999901, -27.990887014 ], [ -55.265598712, -27.989612817 ], [ -55.278477231, -27.982240691999895 ], [ -55.285116216999896, -27.983498545 ], [ -55.292515485, -27.980777071 ], [ -55.29645017099989, -27.98233319 ], [ -55.296700812, -27.992701965 ], [ -55.297968323, -27.995104479 ], [ -55.30311975, -27.996444604 ], [ -55.310380852, -27.995574625 ], [ -55.312046879, -27.993165374999904 ], [ -55.310675323999895, -27.989212589 ], [ -55.311253372, -27.984442057 ], [ -55.318320954999891, -27.972539582 ], [ -55.325244590999894, -27.971435314 ], [ -55.339777067999897, -27.965978078 ], [ -55.333328762, -27.939311749999899 ], [ -55.327282026, -27.926738015 ], [ -55.319258227, -27.921947880999891 ], [ -55.309370843, -27.922249824999895 ], [ -55.285800923, -27.93228426 ], [ -55.277768976999901, -27.932916846 ], [ -55.27821527, -27.948914336 ], [ -55.276568358, -27.949409398999897 ], [ -55.274156912, -27.947987070999904 ], [ -55.272937434, -27.949231734 ], [ -55.2650594569999, -27.950779833999889 ], [ -55.260385609, -27.948633324 ], [ -55.257633704999897, -27.950290686999892 ], [ -55.254265539999906, -27.949896727999896 ], [ -55.250353791999899, -27.951893527999985 ], [ -55.249322068, -27.955750897 ], [ -55.242133087, -27.95964759 ], [ -55.24025166, -27.959210167 ], [ -55.239385759999891, -27.956829340999899 ], [ -55.231119817, -27.958356063999901 ], [ -55.22793892, -27.95485121 ], [ -55.213068576, -27.953212724 ], [ -55.206402684, -27.960601473999901 ], [ -55.200288975, -27.964584467999895 ], [ -55.196811687, -27.969588380999891 ], [ -55.190075866, -27.973617533 ], [ -55.188898396, -27.976995334 ], [ -55.183259211999896, -27.978380714 ], [ -55.180485362, -27.982568337 ], [ -55.179951957, -27.992270845999901 ], [ -55.168264228999902, -27.991885969999903 ], [ -55.168115864999898, -28.011463131 ], [ -55.152878353999903, -28.013597483 ], [ -55.15438197399989, -28.015988549999989 ], [ -55.161866824999898, -28.017140474 ], [ -55.165011092, -28.019910739999904 ], [ -55.160038132, -28.026951567 ], [ -55.158447652999897, -28.034492091999905 ], [ -55.154522431, -28.036236883 ], [ -55.150216621, -28.037169848 ], [ -55.138679095, -28.032984202 ], [ -55.134220722, -28.034269681999898 ], [ -55.125867786999891, -28.032606937 ], [ -55.109250453999898, -28.033673329 ], [ -55.108817739, -28.024195528999893 ], [ -55.107427554, -28.021309921999897 ], [ -55.089323884999899, -28.027203256999897 ], [ -55.089477468, -28.009516547 ], [ -55.073445868, -28.009880829999897 ], [ -55.073249773, -28.011505192 ], [ -55.067086931999896, -28.011569294 ], [ -55.068076403, -28.009160850999905 ], [ -55.067044208, -28.0069948629999 ], [ -55.0636885219999, -28.006207323999888 ], [ -55.057487384, -28.0021436 ], [ -55.050378521, -28.001682592999899 ], [ -55.045749717, -28.00287112 ], [ -55.031064672, -28.019635004999902 ], [ -55.029735136999903, -28.016271332 ], [ -55.026667244999899, -28.0192645999999 ], [ -55.029072184, -28.021621426 ], [ -55.022485978, -28.028638018 ], [ -55.023324631, -28.029032389 ], [ -55.017768914, -28.03953997199989 ], [ -55.016386108999903, -28.038093850999886 ], [ -55.007402844, -28.041173339999901 ], [ -55.006430093999903, -28.043314692999989 ], [ -54.996900981, -28.047905804 ], [ -54.9935949219999, -28.053261198 ], [ -54.99217935, -28.052757522 ], [ -54.989833776, -28.054466315 ], [ -54.986097597, -28.054155567 ], [ -54.981093766999898, -28.056102155 ], [ -54.928047982999892, -28.05583911 ], [ -54.927868867, -28.1290121 ], [ -54.925294344999891, -28.129219468 ], [ -54.925188825, -28.138938333999906 ], [ -54.9278397799999, -28.142275046 ], [ -54.929193229, -28.148068994 ], [ -54.934965785, -28.148732776 ], [ -54.937533472, -28.150478242 ], [ -54.937437691, -28.154705724999904 ], [ -54.940403574, -28.159941826 ], [ -54.9406223619999, -28.165660648 ], [ -54.943097846999898, -28.167037692 ], [ -54.942757801, -28.171049622999892 ], [ -54.944382362999896, -28.1739976379999 ], [ -54.937340763, -28.176502807 ], [ -54.937204688999898, -28.179489544 ], [ -54.943994632999896, -28.182523967 ], [ -54.94608302599989, -28.179826111999898 ], [ -54.952041328, -28.178921611 ], [ -54.955364543, -28.1818403 ], [ -54.961624958, -28.191943527 ], [ -54.96531099, -28.192571839 ], [ -54.970321349999899, -28.185796132 ], [ -54.971143721, -28.166554048 ], [ -54.973349206, -28.160412603999902 ], [ -54.977177159999897, -28.158180704 ], [ -54.987032122999892, -28.159405411 ], [ -54.989406926, -28.157439106 ], [ -54.992635798, -28.150571087999904 ], [ -54.998924062999897, -28.144403521 ], [ -55.006225683, -28.141780098 ], [ -55.008481784, -28.144098943999904 ], [ -55.008029840999903, -28.14749927 ], [ -54.997931853999901, -28.159234582999897 ], [ -54.992552009999891, -28.169496578 ], [ -54.995391374999897, -28.170410026999896 ], [ -55.002287029999891, -28.167771788 ] ] ] } }
]
}
