{
"type": "FeatureCollection",
"name": "bairros_mato_queimado",
"crs": { "type": "name", "properties": { "name": "urn:ogc:def:crs:OGC:1.3:CRS84" } },
"features": [
{ "type": "Feature", "properties": { "code_muni": 4312179.0, "name_muni": "Mato Queimado", "code_state": 43.0, "abbrev_state": "RS", "name_state": "Rio Grande do Sul", "code_region": 4.0, "name_region": "Sul", "year": 2022.0 }, "geometry": { "type": "Polygon", "coordinates": [ [ [ -54.607891476, -28.210681592 ], [ -54.602462319, -28.214070907999901 ], [ -54.601318154, -28.222075813999908 ], [ -54.591978146, -28.223944756 ], [ -54.584520885, -28.23105466 ], [ -54.578260041, -28.23496604 ], [ -54.568827836, -28.236746947 ], [ -54.560903637, -28.235221145 ], [ -54.55714955, -28.240014125 ], [ -54.557154689, -28.242003404999902 ], [ -54.56159558, -28.248161261 ], [ -54.574753632999894, -28.25776076499989 ], [ -54.579155708, -28.280721013999901 ], [ -54.585121666, -28.287809353999901 ], [ -54.58524646, -28.296346667 ], [ -54.597180184, -28.288276983999904 ], [ -54.60213590099989, -28.289044707 ], [ -54.603629554, -28.291349569 ], [ -54.61061447, -28.282376589 ], [ -54.616011720999893, -28.282469327999905 ], [ -54.619214723, -28.27739066 ], [ -54.639249119999896, -28.27653664 ], [ -54.648682744, -28.273160049999902 ], [ -54.654265242, -28.27279859 ], [ -54.658527208, -28.269013216 ], [ -54.66412895, -28.272830898999899 ], [ -54.672005567, -28.274630375 ], [ -54.676237036, -28.273716470999901 ], [ -54.678485142999897, -28.275474145 ], [ -54.693816064, -28.267287828999891 ], [ -54.696296816, -28.258022986999901 ], [ -54.698763726, -28.255447145999891 ], [ -54.704502771, -28.256691515999897 ], [ -54.711397999, -28.255665356999899 ], [ -54.714578507999896, -28.256985669 ], [ -54.722864328999897, -28.256171417 ], [ -54.735861450999892, -28.262891751 ], [ -54.739807131, -28.2681519879999 ], [ -54.743862129999989, -28.2678025989999 ], [ -54.745116488999891, -28.267305829 ], [ -54.744307746999894, -28.261533594 ], [ -54.741602676999896, -28.25540605 ], [ -54.748571888999898, -28.253705213999989 ], [ -54.759819502, -28.247388568 ], [ -54.757543244, -28.2363567099999 ], [ -54.754322580999897, -28.231161003 ], [ -54.752563637, -28.211586479999909 ], [ -54.750245887999903, -28.208248835999896 ], [ -54.745688567999899, -28.208032839999902 ], [ -54.742900202, -28.21203472 ], [ -54.7391837609999, -28.213097073 ], [ -54.732871687999911, -28.212296694 ], [ -54.716582155, -28.20575582 ], [ -54.712403149999894, -28.206035772 ], [ -54.710144818999893, -28.20820594 ], [ -54.706459133999893, -28.231385791 ], [ -54.704550807, -28.234198615 ], [ -54.70098246, -28.235682498999896 ], [ -54.694645329, -28.234293444999899 ], [ -54.690206577, -28.228411396999892 ], [ -54.69790720799989, -28.208337749 ], [ -54.697305174999897, -28.202024574999896 ], [ -54.694725569999903, -28.199659864999898 ], [ -54.690657730999895, -28.201029278 ], [ -54.685181298, -28.208016788999895 ], [ -54.679564523, -28.221449462999896 ], [ -54.674974569, -28.227260188999903 ], [ -54.671810288999893, -28.225330201 ], [ -54.669434767, -28.217247308 ], [ -54.66575728, -28.215983345 ], [ -54.663902602999897, -28.213343463999905 ], [ -54.663279501, -28.208726708 ], [ -54.667666875, -28.201730738 ], [ -54.662516602, -28.195278946 ], [ -54.639342615, -28.201607397 ], [ -54.628117915, -28.214660197999901 ], [ -54.621846521999892, -28.220184533999902 ], [ -54.617665527, -28.2218468209999 ], [ -54.613450682999897, -28.221792143999899 ], [ -54.611526227, -28.219851769999902 ], [ -54.611697563, -28.211520984999893 ], [ -54.607891476, -28.210681592 ] ] ] } }
]
}
