{
"type": "FeatureCollection",
"name": "bairros_salvador_do_sul",
"crs": { "type": "name", "properties": { "name": "urn:ogc:def:crs:OGC:1.3:CRS84" } },
"features": [
{ "type": "Feature", "properties": { "name": "Centro", "code_muni": 4316501.0, "name_muni": "Salvador do Sul" }, "geometry": { "type": "Polygon", "coordinates": [ [ [ -51.5130217, -29.4370129 ], [ -51.5127265, -29.4365511 ], [ -51.5116268, -29.4369153 ], [ -51.5107631, -29.4372715 ], [ -51.5098676, -29.4362101 ], [ -51.5097126, -29.4359604 ], [ -51.5097064, -29.4354584 ], [ -51.5086461, -29.4354026 ], [ -51.5080368, -29.4354677 ], [ -51.5075523, -29.435678 ], [ -51.5081877, -29.4361831 ], [ -51.5069562, -29.436148299999985 ], [ -51.5071745, -29.4364056 ], [ -51.5073769, -29.4366194 ], [ -51.5067429, -29.4369113 ], [ -51.5064088, -29.437034 ], [ -51.5055855, -29.4372127 ], [ -51.5053694, -29.4372535 ], [ -51.5050918, -29.4373785 ], [ -51.5069586, -29.4396162 ], [ -51.5077056, -29.4395275 ], [ -51.5077981, -29.4398639 ], [ -51.507856, -29.440259700000013 ], [ -51.5078688, -29.4407012 ], [ -51.5078612, -29.440958 ], [ -51.5077574, -29.4412373 ], [ -51.5076264, -29.4414463 ], [ -51.5074222, -29.4417527 ], [ -51.5072959, -29.4419462 ], [ -51.5075142, -29.4419874 ], [ -51.5078297, -29.4419182 ], [ -51.508372, -29.4416941 ], [ -51.5087499, -29.4415309 ], [ -51.5089663, -29.4414374 ], [ -51.5105572, -29.4423262 ], [ -51.5097266, -29.443547400000011 ], [ -51.5107284, -29.4440823 ], [ -51.5132765, -29.4442307 ], [ -51.5135379, -29.443952 ], [ -51.5136554, -29.4437081 ], [ -51.5140815, -29.4421825 ], [ -51.5144453, -29.4409191 ], [ -51.5144963, -29.4406499 ], [ -51.5144867, -29.4404203 ], [ -51.5144681, -29.4402375 ], [ -51.5144219, -29.4399219 ], [ -51.5142581, -29.439541499999986 ], [ -51.513896, -29.4386823 ], [ -51.5137554, -29.4383334 ], [ -51.5135085, -29.4378188 ], [ -51.5133329, -29.4374754 ], [ -51.5132131, -29.4372874 ], [ -51.5130217, -29.4370129 ] ] ] } },
{ "type": "Feature", "properties": { "name": "Bela Vista", "code_muni": 4316501.0, "name_muni": "Salvador do Sul" }, "geometry": { "type": "Polygon", "coordinates": [ [ [ -51.5126993, -29.4485788 ], [ -51.5126994, -29.4475886 ], [ -51.5127065, -29.4467521 ], [ -51.5142227, -29.4467573 ], [ -51.5155899, -29.4467871 ], [ -51.5165341, -29.4467918 ], [ -51.5165019, -29.4459696 ], [ -51.5221238, -29.4459509 ], [ -51.5167379, -29.4402703 ], [ -51.5159869, -29.4402418 ], [ -51.5153016, -29.4402282 ], [ -51.5144681, -29.4402375 ], [ -51.5144867, -29.4404203 ], [ -51.5144963, -29.4406499 ], [ -51.5144453, -29.4409191 ], [ -51.5140815, -29.4421825 ], [ -51.5136554, -29.4437081 ], [ -51.5135379, -29.443952 ], [ -51.5132765, -29.4442307 ], [ -51.5107284, -29.4440823 ], [ -51.5102993, -29.4446558 ], [ -51.5099868, -29.4449991 ], [ -51.5097669, -29.4452023 ], [ -51.5096059, -29.4453588 ], [ -51.5094081, -29.4455518 ], [ -51.5093819, -29.4455773 ], [ -51.509368, -29.4456342 ], [ -51.5089649, -29.4459065 ], [ -51.5085492, -29.446202 ], [ -51.5078209, -29.4467416 ], [ -51.5076466, -29.4469366 ], [ -51.5075433, -29.4472379 ], [ -51.5074642, -29.4475135 ], [ -51.5072992, -29.4480776 ], [ -51.5071449, -29.4485727 ], [ -51.507036, -29.4488434 ], [ -51.5074039, -29.4496927 ], [ -51.5118456, -29.448707 ], [ -51.5126993, -29.4485788 ] ] ] } },
{ "type": "Feature", "properties": { "name": "Vila Nova", "code_muni": 4316501.0, "name_muni": "Salvador do Sul" }, "geometry": { "type": "Polygon", "coordinates": [ [ [ -51.5042105, -29.4464096 ], [ -51.5043374, -29.4462592 ], [ -51.5045728, -29.446021 ], [ -51.5048021, -29.4457699 ], [ -51.5049604, -29.445534 ], [ -51.5052688, -29.4449325 ], [ -51.5052983, -29.4448764 ], [ -51.5055008, -29.4444374 ], [ -51.5056752, -29.4440531 ], [ -51.5058763, -29.4436877 ], [ -51.5060442, -29.4434244 ], [ -51.5062285, -29.4431911 ], [ -51.5066372, -29.442705 ], [ -51.5067411, -29.4425789 ], [ -51.5068173, -29.4424839 ], [ -51.5072959, -29.4419462 ], [ -51.5074222, -29.4417527 ], [ -51.5076264, -29.4414463 ], [ -51.5077574, -29.4412373 ], [ -51.5078612, -29.440958 ], [ -51.5078688, -29.4407012 ], [ -51.507856, -29.440259700000013 ], [ -51.5077981, -29.4398639 ], [ -51.5077056, -29.4395275 ], [ -51.5069586, -29.4396162 ], [ -51.5047002, -29.4399433 ], [ -51.5022862, -29.4411486 ], [ -51.504098, -29.4465597 ], [ -51.5042105, -29.4464096 ] ] ] } },
{ "type": "Feature", "properties": { "name": "Liberdade", "code_muni": 4316501.0, "name_muni": "Salvador do Sul" }, "geometry": { "type": "Polygon", "coordinates": [ [ [ -51.5071449, -29.4485727 ], [ -51.5072992, -29.4480776 ], [ -51.5074642, -29.4475135 ], [ -51.5075433, -29.4472379 ], [ -51.5076466, -29.4469366 ], [ -51.5078209, -29.4467416 ], [ -51.5085492, -29.446202 ], [ -51.5089649, -29.4459065 ], [ -51.509368, -29.4456342 ], [ -51.5093819, -29.4455773 ], [ -51.5094081, -29.4455518 ], [ -51.5096059, -29.4453588 ], [ -51.5097669, -29.4452023 ], [ -51.5099868, -29.4449991 ], [ -51.5102993, -29.4446558 ], [ -51.5107284, -29.4440823 ], [ -51.5097266, -29.443547400000011 ], [ -51.5105572, -29.4423262 ], [ -51.5089663, -29.4414374 ], [ -51.5087499, -29.4415309 ], [ -51.508372, -29.4416941 ], [ -51.5078297, -29.4419182 ], [ -51.5075142, -29.4419874 ], [ -51.5072959, -29.4419462 ], [ -51.5068173, -29.4424839 ], [ -51.5067411, -29.4425789 ], [ -51.5066372, -29.442705 ], [ -51.5062285, -29.4431911 ], [ -51.5060442, -29.4434244 ], [ -51.5058763, -29.4436877 ], [ -51.5056752, -29.4440531 ], [ -51.5055008, -29.4444374 ], [ -51.5052983, -29.4448764 ], [ -51.5052688, -29.4449325 ], [ -51.5049604, -29.445534 ], [ -51.5048021, -29.4457699 ], [ -51.5045728, -29.446021 ], [ -51.5043374, -29.4462592 ], [ -51.5042105, -29.4464096 ], [ -51.504098, -29.4465597 ], [ -51.507036, -29.4488434 ], [ -51.5071449, -29.4485727 ] ] ] } },
{ "type": "Feature", "properties": { "name": "Linha do Meio", "code_muni": 4316501.0, "name_muni": "Salvador do Sul" }, "geometry": { "type": "Polygon", "coordinates": [ [ [ -51.5126579, -29.4538664 ], [ -51.5133904, -29.45378 ], [ -51.5137909, -29.4538321 ], [ -51.5138733, -29.4486416 ], [ -51.5147746, -29.448613599999987 ], [ -51.5151711, -29.4539949 ], [ -51.5156861, -29.4538641 ], [ -51.5162201, -29.453752 ], [ -51.5171345, -29.4536772 ], [ -51.5165341, -29.4467918 ], [ -51.5155899, -29.4467871 ], [ -51.5142227, -29.4467573 ], [ -51.5127065, -29.4467521 ], [ -51.5126994, -29.4475886 ], [ -51.5126993, -29.4485788 ], [ -51.5118456, -29.448707 ], [ -51.5120083, -29.4538632 ], [ -51.5126579, -29.4538664 ] ] ] } },
{ "type": "Feature", "properties": { "name": "Santo Inácio", "code_muni": 4316501.0, "name_muni": "Salvador do Sul" }, "geometry": { "type": "Polygon", "coordinates": [ [ [ -51.5099452, -29.4316156 ], [ -51.5093511, -29.4318258 ], [ -51.5092342, -29.4319101 ], [ -51.5090467, -29.432045399999989 ], [ -51.5087463, -29.4323199 ], [ -51.5082219, -29.4328514 ], [ -51.5079215, -29.4333244 ], [ -51.5077673, -29.4336526 ], [ -51.5076037, -29.4340509 ], [ -51.5074709, -29.43474 ], [ -51.5073811, -29.4353007 ], [ -51.5074169, -29.435519 ], [ -51.5075523, -29.435678 ], [ -51.5080368, -29.4354677 ], [ -51.5086461, -29.4354026 ], [ -51.5097064, -29.4354584 ], [ -51.5097126, -29.4359604 ], [ -51.5098676, -29.4362101 ], [ -51.5107631, -29.4372715 ], [ -51.5116268, -29.4369153 ], [ -51.5127265, -29.4365511 ], [ -51.5130217, -29.4370129 ], [ -51.5132131, -29.4372874 ], [ -51.5133329, -29.4374754 ], [ -51.5135085, -29.4378188 ], [ -51.5137554, -29.4383334 ], [ -51.513896, -29.4386823 ], [ -51.5142581, -29.439541499999986 ], [ -51.5144219, -29.4399219 ], [ -51.5144681, -29.4402375 ], [ -51.5153016, -29.4402282 ], [ -51.5159869, -29.4402418 ], [ -51.5167379, -29.4402703 ], [ -51.5135086, -29.4349444 ], [ -51.5088308, -29.4349444 ], [ -51.5104079, -29.4317908 ], [ -51.510370363236191, -29.431570034566064 ], [ -51.510318239871708, -29.431564726992317 ], [ -51.5099452, -29.4316156 ] ] ] } },
{ "type": "Feature", "properties": { "name": "Estação São Salvador", "code_muni": 4316501.0, "name_muni": "Salvador do Sul" }, "geometry": { "type": "Polygon", "coordinates": [ [ [ -51.503638, -29.4350192 ], [ -51.5050918, -29.4373785 ], [ -51.5053694, -29.4372535 ], [ -51.5055855, -29.4372127 ], [ -51.5064088, -29.437034 ], [ -51.5067429, -29.4369113 ], [ -51.5073769, -29.4366194 ], [ -51.5071745, -29.4364056 ], [ -51.5069562, -29.436148299999985 ], [ -51.5081877, -29.4361831 ], [ -51.5075523, -29.435678 ], [ -51.5074169, -29.435519 ], [ -51.5073811, -29.4353007 ], [ -51.5074709, -29.43474 ], [ -51.5076037, -29.4340509 ], [ -51.5077673, -29.4336526 ], [ -51.5079215, -29.4333244 ], [ -51.5082219, -29.4328514 ], [ -51.5087463, -29.4323199 ], [ -51.5090467, -29.432045399999989 ], [ -51.5092342, -29.4319101 ], [ -51.5093511, -29.4318258 ], [ -51.5099452, -29.4316156 ], [ -51.510318239871708, -29.431564726992317 ], [ -51.510106549999904, -29.431543170999891 ], [ -51.509803132273959, -29.430864076946467 ], [ -51.5095017, -29.43033710000001 ], [ -51.503638, -29.4350192 ] ] ] } }
]
}
