{
"type": "FeatureCollection",
"name": "bairros_terra_de_areia",
"crs": { "type": "name", "properties": { "name": "urn:ogc:def:crs:OGC:1.3:CRS84" } },
"features": [
{ "type": "Feature", "properties": { "name": "Centro", "code_muni": 4321436.0, "name_muni": "Terra de Areia" }, "geometry": { "type": "Polygon", "coordinates": [ [ [ -50.052681, -29.5773387 ], [ -50.06422520000001, -29.5942446 ], [ -50.0725347, -29.5892324 ], [ -50.0691363, -29.5845978 ], [ -50.0692677, -29.5843598 ], [ -50.0692812, -29.5841208 ], [ -50.0695127, -29.5834515 ], [ -50.069782, -29.5825751 ], [ -50.0697948, -29.5825364 ], [ -50.0704538, -29.5805679 ], [ -50.0705887, -29.5801239 ], [ -50.0708242, -29.5794143 ], [ -50.0711909, -29.5783097 ], [ -50.0696111, -29.5758738 ], [ -50.0653303, -29.570891 ], [ -50.0627768, -29.572468 ], [ -50.0604027, -29.5705591 ], [ -50.0603215, -29.5706075 ], [ -50.0597305, -29.5709643 ], [ -50.059429, -29.5711395 ], [ -50.0589478, -29.5715012 ], [ -50.0586462, -29.5716468 ], [ -50.0574848, -29.570723 ], [ -50.0557762, -29.5717728 ], [ -50.0576196, -29.5737426 ], [ -50.0581108, -29.5741999 ], [ -50.0560527, -29.575534499999989 ], [ -50.0543485, -29.5765105 ], [ -50.052681, -29.5773387 ] ] ] } },
{ "type": "Feature", "properties": { "name": "Bela Vista", "code_muni": 4321436.0, "name_muni": "Terra de Areia" }, "geometry": { "type": "Polygon", "coordinates": [ [ [ -50.0728433, -29.5808993 ], [ -50.0711909, -29.5783097 ], [ -50.0708242, -29.5794143 ], [ -50.0705887, -29.5801239 ], [ -50.0704538, -29.5805679 ], [ -50.0697948, -29.5825364 ], [ -50.069782, -29.5825751 ], [ -50.0695127, -29.5834515 ], [ -50.0692812, -29.5841208 ], [ -50.0692677, -29.5843598 ], [ -50.0691363, -29.5845978 ], [ -50.0725347, -29.5892324 ], [ -50.0736009, -29.5907042 ], [ -50.0738742, -29.5905738 ], [ -50.0757356, -29.5894166 ], [ -50.0757984, -29.5893769 ], [ -50.0766029, -29.588868600000012 ], [ -50.0792617, -29.5874644 ], [ -50.079314, -29.586583900000011 ], [ -50.0791933, -29.5862609 ], [ -50.0785603, -29.5856591 ], [ -50.0780051, -29.5849446 ], [ -50.0777341, -29.5846573 ], [ -50.0772984, -29.5840692 ], [ -50.077117, -29.5838012 ], [ -50.0767632, -29.5832519 ], [ -50.0764453, -29.582687499999988 ], [ -50.0761248, -29.5822653 ], [ -50.0756702, -29.5816775 ], [ -50.0751995, -29.5812226 ], [ -50.0748453, -29.5808354 ], [ -50.0742647, -29.580082 ], [ -50.0728433, -29.5808993 ] ] ] } },
{ "type": "Feature", "properties": { "name": "Serraria", "code_muni": 4321436.0, "name_muni": "Terra de Areia" }, "geometry": { "type": "Polygon", "coordinates": [ [ [ -50.0586462, -29.5716468 ], [ -50.0589478, -29.5715012 ], [ -50.059429, -29.5711395 ], [ -50.0597305, -29.5709643 ], [ -50.0603215, -29.5706075 ], [ -50.0604027, -29.5705591 ], [ -50.0562537, -29.5671957 ], [ -50.0586248, -29.56532 ], [ -50.0557257, -29.5635984 ], [ -50.0540211, -29.5643525 ], [ -50.0537707, -29.5644759 ], [ -50.0537089, -29.5645087 ], [ -50.0519175, -29.565417700000012 ], [ -50.0517237, -29.5655141 ], [ -50.0516375, -29.5655628 ], [ -50.0512044, -29.5658041 ], [ -50.0574848, -29.570723 ], [ -50.0586462, -29.5716468 ] ] ] } }
]
}
