{
"type": "FeatureCollection",
"name": "bairros_morro_reuter",
"crs": { "type": "name", "properties": { "name": "urn:ogc:def:crs:OGC:1.3:CRS84" } },
"features": [
{ "type": "Feature", "properties": { "code_muni": 4312476.0, "name_muni": "Morro Reuter", "code_state": 43.0, "abbrev_state": "RS", "name_state": "Rio Grande do Sul", "code_region": 4.0, "name_region": "Sul", "year": 2022.0 }, "geometry": { "type": "Polygon", "coordinates": [ [ [ -51.109090266, -29.48874534 ], [ -51.106126302, -29.47694956 ], [ -51.078803611999902, -29.480047774 ], [ -51.079525869, -29.469468451999905 ], [ -51.077551618, -29.465167972 ], [ -51.063704737, -29.467512801999899 ], [ -51.060928411, -29.4701946499999 ], [ -51.062067091999893, -29.472905243 ], [ -51.059587318, -29.474911470999892 ], [ -51.062485264, -29.4797743949999 ], [ -51.06112504, -29.481186619 ], [ -51.062072525, -29.482698453 ], [ -51.054155404, -29.488805070999891 ], [ -51.054658138, -29.491511031 ], [ -51.051264105, -29.492162036 ], [ -51.049900186999899, -29.495971013 ], [ -51.047961583, -29.496185066 ], [ -51.046244862, -29.493923305999889 ], [ -51.042176668, -29.493657496 ], [ -51.0432807339999, -29.491381146 ], [ -51.038245601, -29.491425154999909 ], [ -51.032055962999898, -29.493532392 ], [ -51.032083763999893, -29.497246135999891 ], [ -51.028659612999896, -29.4980546799999 ], [ -51.026487464999903, -29.502714726 ], [ -51.032990422999902, -29.514154446 ], [ -51.03272895899989, -29.517826597999896 ], [ -51.017362095, -29.519897603999897 ], [ -51.016856275999899, -29.51488763 ], [ -50.968643256, -29.519494971 ], [ -50.968006422, -29.524993492 ], [ -50.963135063, -29.523827148 ], [ -50.963964077, -29.52915039 ], [ -50.959622894999896, -29.531420458 ], [ -50.94653006, -29.533106377 ], [ -50.947813262999901, -29.540867987 ], [ -50.939954681, -29.542353590999898 ], [ -50.945505878999896, -29.549100763999899 ], [ -50.947125722999907, -29.553244881999902 ], [ -50.951465578999894, -29.554328101 ], [ -50.958540942999903, -29.550551275 ], [ -50.962229587, -29.550575151 ], [ -50.962051023, -29.548903428999903 ], [ -50.968163572, -29.544969244999894 ], [ -50.973362935, -29.546816059 ], [ -50.976012891, -29.545814291999893 ], [ -50.980386482, -29.5464712409999 ], [ -50.981934822, -29.545412546 ], [ -50.984882407, -29.5476398439999 ], [ -50.993163164999899, -29.542714960999898 ], [ -50.995372763, -29.544504832 ], [ -51.002683046, -29.541653723 ], [ -51.005047436, -29.544195951999903 ], [ -51.008683284999989, -29.542986223 ], [ -51.011699560999901, -29.544542916999902 ], [ -51.010772093999904, -29.546132650999905 ], [ -51.014016778, -29.548016211999908 ], [ -51.043784321, -29.544914828999904 ], [ -51.046466009, -29.562053915 ], [ -51.117646475, -29.550950106999899 ], [ -51.109090266, -29.48874534 ] ] ] } }
]
}
