{
"type": "FeatureCollection",
"name": "bairros_mucum",
"crs": { "type": "name", "properties": { "name": "urn:ogc:def:crs:OGC:1.3:CRS84" } },
"features": [
{ "type": "Feature", "properties": { "name": "Centro", "code_muni": 4312609.0, "name_muni": "Muçum" }, "geometry": { "type": "Polygon", "coordinates": [ [ [ -51.8631381, -29.1641246 ], [ -51.8638756, -29.1644843 ], [ -51.8644508, -29.1649714 ], [ -51.8661567, -29.1668324 ], [ -51.8676998, -29.1681678 ], [ -51.8713988, -29.1703658 ], [ -51.8730585, -29.1709772 ], [ -51.8760382, -29.1712826 ], [ -51.8773145, -29.1712731 ], [ -51.8784733, -29.1712496 ], [ -51.8794973, -29.1711441 ], [ -51.8782394, -29.1664469 ], [ -51.8779407, -29.1654317 ], [ -51.8777679, -29.1647994 ], [ -51.8777214, -29.1645064 ], [ -51.8776799, -29.1642329 ], [ -51.8776743, -29.1639962 ], [ -51.8776778, -29.1637323 ], [ -51.8776978, -29.1634326 ], [ -51.8777483, -29.163123 ], [ -51.877816, -29.162866 ], [ -51.8779058, -29.1626186 ], [ -51.8779955, -29.1623503 ], [ -51.8781527, -29.1621231 ], [ -51.8780672, -29.1621077 ], [ -51.8780068, -29.1620989 ], [ -51.8778035, -29.1620705 ], [ -51.8775938, -29.1620733 ], [ -51.8773797, -29.1620795 ], [ -51.8771893, -29.1621088 ], [ -51.8769128, -29.162198700000012 ], [ -51.8766348, -29.162319 ], [ -51.8763783, -29.1624515 ], [ -51.876082, -29.1626339 ], [ -51.8758447, -29.1627945 ], [ -51.8755234, -29.1629989 ], [ -51.8751588, -29.1631965 ], [ -51.8747431, -29.1633857 ], [ -51.8744032, -29.1635023 ], [ -51.8740152, -29.1636018 ], [ -51.87361880000001, -29.1636652 ], [ -51.8733019, -29.1636987 ], [ -51.8730386, -29.1637066 ], [ -51.8728295, -29.1637036 ], [ -51.8725649, -29.1636801 ], [ -51.8714935, -29.1635936 ], [ -51.8706988, -29.1635294 ], [ -51.8701539, -29.1634814 ], [ -51.8697173, -29.1634137 ], [ -51.8693461, -29.1633215 ], [ -51.8688642, -29.163203 ], [ -51.8684852, -29.163071 ], [ -51.8680692, -29.1629053 ], [ -51.8677662, -29.1627473 ], [ -51.8672314, -29.1624328 ], [ -51.866966, -29.1622539 ], [ -51.8667394, -29.1620776 ], [ -51.8662968, -29.1616753 ], [ -51.8660098, -29.1613673 ], [ -51.8657289, -29.1610927 ], [ -51.8648411, -29.1602055 ], [ -51.8645883, -29.1599567 ], [ -51.8642627, -29.159636 ], [ -51.8641578, -29.1595327 ], [ -51.8635865, -29.1588652 ], [ -51.8631469, -29.1591736 ], [ -51.8618361, -29.1603969 ], [ -51.861729, -29.1605909 ], [ -51.8618576, -29.1608399 ], [ -51.8619833, -29.1610464 ], [ -51.8622166, -29.1617072 ], [ -51.8622453, -29.16182 ], [ -51.8623821, -29.1620103 ], [ -51.862216, -29.162177400000012 ], [ -51.8620906, -29.1623043 ], [ -51.861976, -29.1624558 ], [ -51.8617503, -29.1626662 ], [ -51.8614961, -29.162988 ], [ -51.8609155, -29.1636452 ], [ -51.8631381, -29.1641246 ] ] ] } },
{ "type": "Feature", "properties": { "name": "Jardim Cidade Alta", "code_muni": 4312609.0, "name_muni": "Muçum" }, "geometry": { "type": "Polygon", "coordinates": [ [ [ -51.8635865, -29.1588652 ], [ -51.8641578, -29.1595327 ], [ -51.8642627, -29.159636 ], [ -51.8645883, -29.1599567 ], [ -51.8648411, -29.1602055 ], [ -51.8657289, -29.1610927 ], [ -51.8660098, -29.1613673 ], [ -51.8662968, -29.1616753 ], [ -51.8667394, -29.1620776 ], [ -51.866966, -29.1622539 ], [ -51.8672314, -29.1624328 ], [ -51.8677662, -29.1627473 ], [ -51.8680692, -29.1629053 ], [ -51.8684852, -29.163071 ], [ -51.8688642, -29.163203 ], [ -51.8693461, -29.1633215 ], [ -51.8697173, -29.1634137 ], [ -51.8701539, -29.1634814 ], [ -51.8706988, -29.1635294 ], [ -51.8714935, -29.1635936 ], [ -51.8725649, -29.1636801 ], [ -51.8728295, -29.1637036 ], [ -51.8730386, -29.1637066 ], [ -51.8733019, -29.1636987 ], [ -51.87361880000001, -29.1636652 ], [ -51.8740152, -29.1636018 ], [ -51.8744032, -29.1635023 ], [ -51.8747431, -29.1633857 ], [ -51.8751588, -29.1631965 ], [ -51.8755234, -29.1629989 ], [ -51.8758447, -29.1627945 ], [ -51.876082, -29.1626339 ], [ -51.8763783, -29.1624515 ], [ -51.8766348, -29.162319 ], [ -51.8769128, -29.162198700000012 ], [ -51.8771893, -29.1621088 ], [ -51.8773797, -29.1620795 ], [ -51.8775938, -29.1620733 ], [ -51.8778035, -29.1620705 ], [ -51.8780068, -29.1620989 ], [ -51.8780672, -29.1621077 ], [ -51.8781527, -29.1621231 ], [ -51.8782213, -29.161869599999985 ], [ -51.8782628, -29.1617858 ], [ -51.8784288, -29.1615544 ], [ -51.8786573, -29.1612591 ], [ -51.8788912, -29.1610032 ], [ -51.8792054, -29.1608017 ], [ -51.879624, -29.1604905 ], [ -51.8798898, -29.1602294 ], [ -51.880725, -29.1596511 ], [ -51.8810431, -29.1593684 ], [ -51.8806697, -29.158909 ], [ -51.880026, -29.1585155 ], [ -51.8789102, -29.1581969 ], [ -51.8775798, -29.1581594 ], [ -51.875992, -29.158403 ], [ -51.8737818, -29.159414900000016 ], [ -51.8727733, -29.1596772 ], [ -51.8711854, -29.15965850000001 ], [ -51.8698551, -29.1594149 ], [ -51.8684603, -29.1584592 ], [ -51.8668081, -29.1565666 ], [ -51.8663789, -29.1560232 ], [ -51.866336, -29.1548427 ], [ -51.8669583, -29.153456 ], [ -51.8678595, -29.1522191 ], [ -51.8692757, -29.1494457 ], [ -51.8698121, -29.1480148 ], [ -51.8700696, -29.147328 ], [ -51.8703486, -29.146409699999989 ], [ -51.8700911, -29.1450604 ], [ -51.8691255, -29.1432425 ], [ -51.8664218, -29.141106 ], [ -51.8656547, -29.1402474 ], [ -51.8655152, -29.1407628 ], [ -51.8653329, -29.141081400000015 ], [ -51.8649144, -29.1414937 ], [ -51.8647691, -29.1419007 ], [ -51.8646193, -29.1429589 ], [ -51.86441090000001, -29.1436131 ], [ -51.8643979, -29.1439658 ], [ -51.8643262, -29.1441194 ], [ -51.8642262, -29.1442756 ], [ -51.8645019, -29.1443903 ], [ -51.8654587, -29.1449138 ], [ -51.8655382, -29.144959900000011 ], [ -51.8657761, -29.1451178 ], [ -51.8660867, -29.1454437 ], [ -51.8661993, -29.1456474 ], [ -51.8662969, -29.1458509 ], [ -51.8663436, -29.146119 ], [ -51.8663266, -29.1463624 ], [ -51.8662894, -29.1465593 ], [ -51.8661885, -29.1467752 ], [ -51.8660336, -29.1470443 ], [ -51.8659508, -29.1472592 ], [ -51.8659002, -29.1473809 ], [ -51.8657568, -29.1476534 ], [ -51.8657216, -29.1477315 ], [ -51.8655639, -29.1480625 ], [ -51.865237, -29.1487841 ], [ -51.8649643, -29.1493749 ], [ -51.8648543, -29.1496239 ], [ -51.8647652, -29.1498256 ], [ -51.8646068, -29.1501732 ], [ -51.8644491, -29.1505937 ], [ -51.8642207, -29.1510075 ], [ -51.8640029, -29.151345 ], [ -51.8636717, -29.1518155 ], [ -51.8633799, -29.1522061 ], [ -51.8631467, -29.1525183 ], [ -51.8627777, -29.1530127 ], [ -51.8624733, -29.1534109 ], [ -51.8623405, -29.1536112 ], [ -51.8621809, -29.1538326 ], [ -51.8620878, -29.1539778 ], [ -51.8620053, -29.1541395 ], [ -51.8619127, -29.1543702 ], [ -51.8619796, -29.1544733 ], [ -51.8615982, -29.1549221 ], [ -51.8613552, -29.1554383 ], [ -51.8612356, -29.1557894 ], [ -51.861677, -29.1577495 ], [ -51.8621598, -29.1584803 ], [ -51.8631469, -29.1591736 ], [ -51.8635865, -29.1588652 ] ] ] } },
{ "type": "Feature", "properties": { "name": "Fátima", "code_muni": 4312609.0, "name_muni": "Muçum" }, "geometry": { "type": "Polygon", "coordinates": [ [ [ -51.8561826, -29.1405146 ], [ -51.8583292, -29.1421855 ], [ -51.8590102, -29.1428776 ], [ -51.8596783, -29.1437723 ], [ -51.860032, -29.1447551 ], [ -51.859856137444069, -29.145603024395882 ], [ -51.8598570999999, -29.145604265 ], [ -51.859855540112676, -29.145605904416964 ], [ -51.8596763, -29.1464701 ], [ -51.8588558, -29.1473781 ], [ -51.8577182, -29.148093 ], [ -51.8569552, -29.148753 ], [ -51.856774773563977, -29.148843606305626 ], [ -51.855085209, -29.150619123 ], [ -51.853922693735583, -29.157692057914243 ], [ -51.85393, -29.1577121 ], [ -51.85453676862096, -29.158441372851801 ], [ -51.856459268470893, -29.160441170491033 ], [ -51.8573211, -29.161229400000011 ], [ -51.8583333, -29.1621964 ], [ -51.8596193, -29.1632438 ], [ -51.8603753, -29.1636017 ], [ -51.8609155, -29.1636452 ], [ -51.8614961, -29.162988 ], [ -51.8617503, -29.1626662 ], [ -51.861976, -29.1624558 ], [ -51.8620906, -29.1623043 ], [ -51.862216, -29.162177400000012 ], [ -51.8623821, -29.1620103 ], [ -51.8622453, -29.16182 ], [ -51.8622166, -29.1617072 ], [ -51.8619833, -29.1610464 ], [ -51.8618576, -29.1608399 ], [ -51.861729, -29.1605909 ], [ -51.8618361, -29.1603969 ], [ -51.8631469, -29.1591736 ], [ -51.8621598, -29.1584803 ], [ -51.861677, -29.1577495 ], [ -51.8612356, -29.1557894 ], [ -51.8613552, -29.1554383 ], [ -51.8615982, -29.1549221 ], [ -51.8619796, -29.1544733 ], [ -51.8619127, -29.1543702 ], [ -51.8620053, -29.1541395 ], [ -51.8620878, -29.1539778 ], [ -51.8621809, -29.1538326 ], [ -51.8623405, -29.1536112 ], [ -51.8624733, -29.1534109 ], [ -51.8627777, -29.1530127 ], [ -51.8631467, -29.1525183 ], [ -51.8633799, -29.1522061 ], [ -51.8636717, -29.1518155 ], [ -51.8640029, -29.151345 ], [ -51.8642207, -29.1510075 ], [ -51.8644491, -29.1505937 ], [ -51.8646068, -29.1501732 ], [ -51.8647652, -29.1498256 ], [ -51.8648543, -29.1496239 ], [ -51.8649643, -29.1493749 ], [ -51.865237, -29.1487841 ], [ -51.8655639, -29.1480625 ], [ -51.8657216, -29.1477315 ], [ -51.8657568, -29.1476534 ], [ -51.8659002, -29.1473809 ], [ -51.8659508, -29.1472592 ], [ -51.8660336, -29.1470443 ], [ -51.8661885, -29.1467752 ], [ -51.8662894, -29.1465593 ], [ -51.8663266, -29.1463624 ], [ -51.8663436, -29.146119 ], [ -51.8662969, -29.1458509 ], [ -51.8661993, -29.1456474 ], [ -51.8660867, -29.1454437 ], [ -51.8657761, -29.1451178 ], [ -51.8655382, -29.144959900000011 ], [ -51.8654587, -29.1449138 ], [ -51.8645019, -29.1443903 ], [ -51.8642262, -29.1442756 ], [ -51.8643262, -29.1441194 ], [ -51.8643979, -29.1439658 ], [ -51.86441090000001, -29.1436131 ], [ -51.8646193, -29.1429589 ], [ -51.8647691, -29.1419007 ], [ -51.8649144, -29.1414937 ], [ -51.8653329, -29.141081400000015 ], [ -51.8655152, -29.1407628 ], [ -51.8656547, -29.1402474 ], [ -51.8647106, -29.139235299999985 ], [ -51.8635841, -29.1365552 ], [ -51.8554159, -29.1400396 ], [ -51.8561826, -29.1405146 ] ] ] } },
{ "type": "Feature", "properties": { "name": "São José", "code_muni": 4312609.0, "name_muni": "Muçum" }, "geometry": { "type": "Polygon", "coordinates": [ [ [ -51.8827928, -29.1704228 ], [ -51.8846446, -29.1702608 ], [ -51.8860627, -29.1705121 ], [ -51.886287911845933, -29.169811481673662 ], [ -51.886471092013224, -29.168039457276596 ], [ -51.8858923, -29.1678127 ], [ -51.88254220000001, -29.1664792 ], [ -51.8822784, -29.1663602 ], [ -51.8818764, -29.1661099 ], [ -51.8816839, -29.1659537 ], [ -51.8816673, -29.165937299999989 ], [ -51.8814513, -29.1657232 ], [ -51.8811264, -29.1653654 ], [ -51.8808487, -29.1649268 ], [ -51.880276, -29.1641058 ], [ -51.8801351, -29.1639447 ], [ -51.8796209, -29.1633567 ], [ -51.8794935, -29.1631869 ], [ -51.8790391, -29.1626735 ], [ -51.8789622, -29.1625698 ], [ -51.8788283, -29.16243 ], [ -51.8786441, -29.1623267 ], [ -51.8784239, -29.162220699999985 ], [ -51.8781527, -29.1621231 ], [ -51.8779955, -29.1623503 ], [ -51.8779058, -29.1626186 ], [ -51.877816, -29.162866 ], [ -51.8777483, -29.163123 ], [ -51.8776978, -29.1634326 ], [ -51.8776778, -29.1637323 ], [ -51.8776743, -29.1639962 ], [ -51.8776799, -29.1642329 ], [ -51.8777214, -29.1645064 ], [ -51.8777679, -29.1647994 ], [ -51.8779407, -29.1654317 ], [ -51.8782394, -29.1664469 ], [ -51.8794973, -29.1711441 ], [ -51.8827928, -29.1704228 ] ] ] } },
{ "type": "Feature", "properties": { "name": "Vespasiano Corrêa", "code_muni": 4312609.0, "name_muni": "Muçum" }, "geometry": { "type": "Polygon", "coordinates": [ [ [ -51.8784239, -29.162220699999985 ], [ -51.8786441, -29.1623267 ], [ -51.8788283, -29.16243 ], [ -51.8789622, -29.1625698 ], [ -51.8790391, -29.1626735 ], [ -51.8794935, -29.1631869 ], [ -51.8796209, -29.1633567 ], [ -51.8801351, -29.1639447 ], [ -51.880276, -29.1641058 ], [ -51.8808487, -29.1649268 ], [ -51.8811264, -29.1653654 ], [ -51.8814513, -29.1657232 ], [ -51.8816673, -29.165937299999989 ], [ -51.8816839, -29.1659537 ], [ -51.8818764, -29.1661099 ], [ -51.8822784, -29.1663602 ], [ -51.88254220000001, -29.1664792 ], [ -51.8858923, -29.1678127 ], [ -51.886471092013224, -29.168039457276596 ], [ -51.886915612603076, -29.163739090136136 ], [ -51.8868094, -29.162553 ], [ -51.8868204, -29.1619317 ], [ -51.8869642, -29.1613237 ], [ -51.8871876, -29.1609456 ], [ -51.8874793, -29.1607298 ], [ -51.8879331, -29.160518599999985 ], [ -51.8907923, -29.159357 ], [ -51.8924059, -29.1581495 ], [ -51.8931833, -29.1577675 ], [ -51.8859725, -29.1536453 ], [ -51.8858734, -29.1537665 ], [ -51.8843063, -29.1562266 ], [ -51.8840013, -29.1567884 ], [ -51.8837641, -29.1570781 ], [ -51.8834397, -29.1574571 ], [ -51.882601, -29.1581489 ], [ -51.8815571, -29.1589804 ], [ -51.8810431, -29.1593684 ], [ -51.880725, -29.1596511 ], [ -51.8798898, -29.1602294 ], [ -51.879624, -29.1604905 ], [ -51.8792054, -29.1608017 ], [ -51.8788912, -29.1610032 ], [ -51.8786573, -29.1612591 ], [ -51.8784288, -29.1615544 ], [ -51.8782628, -29.1617858 ], [ -51.8782213, -29.161869599999985 ], [ -51.8781527, -29.1621231 ], [ -51.8784239, -29.162220699999985 ] ] ] } }
]
}
