{
"type": "FeatureCollection",
"name": "bairros_muitos_capoes",
"crs": { "type": "name", "properties": { "name": "urn:ogc:def:crs:OGC:1.3:CRS84" } },
"features": [
{ "type": "Feature", "properties": { "code_muni": 4312617.0, "name_muni": "Muitos Capões", "code_state": 43.0, "abbrev_state": "RS", "name_state": "Rio Grande do Sul", "code_region": 4.0, "name_region": "Sul", "year": 2022.0 }, "geometry": { "type": "Polygon", "coordinates": [ [ [ -51.123599068, -28.199614482 ], [ -51.118808742999896, -28.195128804 ], [ -51.116388496999903, -28.195266334999904 ], [ -51.111136984, -28.190938421999896 ], [ -51.102891211, -28.193620888999902 ], [ -51.10352227, -28.210591592999894 ], [ -51.0982980859999, -28.216810901 ], [ -51.096830135999895, -28.222290943 ], [ -51.094766493999892, -28.223158778 ], [ -51.087350382, -28.2219750749999 ], [ -51.085057176, -28.2231877309999 ], [ -51.080234963, -28.230373304999901 ], [ -51.08128884699989, -28.232914192 ], [ -51.080467094, -28.2346468389999 ], [ -51.076987403, -28.236711364 ], [ -51.072506161, -28.245174346999907 ], [ -51.061900367, -28.253879938 ], [ -51.063087061, -28.263163827 ], [ -51.061683898999902, -28.266595219999893 ], [ -51.063861367, -28.2744396699999 ], [ -51.062483826999895, -28.278565899999897 ], [ -51.065793261999893, -28.280392521999897 ], [ -51.064664680999989, -28.285180533 ], [ -51.069843761999898, -28.290231019 ], [ -51.074239065, -28.297854174 ], [ -51.079631637, -28.299495152 ], [ -51.08376085, -28.307675011 ], [ -51.087187964999892, -28.308708404999901 ], [ -51.084475035, -28.311551247999901 ], [ -51.084051039, -28.313035382 ], [ -51.085553710999903, -28.314368570999903 ], [ -51.083151148999896, -28.316819455 ], [ -51.078892068, -28.313007226 ], [ -51.076932010999897, -28.314713654999892 ], [ -51.078621453, -28.315518021999896 ], [ -51.076620895, -28.316093775999899 ], [ -51.076103031999892, -28.317797680999895 ], [ -51.073884923, -28.314622276 ], [ -51.071823219999892, -28.314191283 ], [ -51.063007684999896, -28.318875579999901 ], [ -51.055272386, -28.330407266 ], [ -51.051259484999896, -28.332950831999895 ], [ -51.046783574999893, -28.34355412 ], [ -51.049483764999898, -28.349319115 ], [ -51.049581637, -28.352899020999899 ], [ -51.04761658, -28.355255848 ], [ -51.049016254, -28.356848694000011 ], [ -51.041070651, -28.363657292 ], [ -51.037970128, -28.359196266 ], [ -51.034962647, -28.359689986 ], [ -51.03751181, -28.376418725999901 ], [ -51.044624171999892, -28.381079464 ], [ -51.047687095, -28.380630942 ], [ -51.048152058, -28.382597600999897 ], [ -51.049865277, -28.382536383999895 ], [ -51.050214782, -28.387420108 ], [ -51.056025733999896, -28.39098279 ], [ -51.054494680999895, -28.392239103 ], [ -51.053457283999897, -28.397747465 ], [ -51.048077056999901, -28.4058415709999 ], [ -51.048900292, -28.406781786999908 ], [ -51.051929281999897, -28.4071421629999 ], [ -51.055106662, -28.402953206999893 ], [ -51.058344292, -28.403665080999904 ], [ -51.059634167999896, -28.401093418 ], [ -51.063026072999897, -28.4005786399999 ], [ -51.06449071, -28.401509139 ], [ -51.064552471999903, -28.405412863 ], [ -51.067169726, -28.406526842999888 ], [ -51.068375640999896, -28.404588053999902 ], [ -51.069465081, -28.405690768999893 ], [ -51.067732771, -28.407283728 ], [ -51.068253857999892, -28.408711449 ], [ -51.072900295, -28.408465958 ], [ -51.075173935, -28.411204429999895 ], [ -51.075537940999894, -28.408398137999896 ], [ -51.08052821, -28.406707172 ], [ -51.081300691, -28.408689352 ], [ -51.079451244, -28.40945944 ], [ -51.079395182, -28.411650194999897 ], [ -51.08149438, -28.410596923 ], [ -51.08409718, -28.411355025 ], [ -51.084159308, -28.414637531 ], [ -51.085545034999903, -28.415256860999897 ], [ -51.090245588, -28.412481855 ], [ -51.093696357999903, -28.414415628 ], [ -51.093618924999895, -28.412990233999899 ], [ -51.097200911, -28.411839382 ], [ -51.09887484, -28.40702039 ], [ -51.101534205, -28.406415125 ], [ -51.10282834, -28.408410999 ], [ -51.102557233, -28.412892891 ], [ -51.098811273, -28.420841738 ], [ -51.092257031, -28.422476545999903 ], [ -51.091777209999989, -28.425573471 ], [ -51.089098152, -28.426243917 ], [ -51.089336483999894, -28.433759925999897 ], [ -51.084853395, -28.44077914 ], [ -51.082233029999891, -28.441527326 ], [ -51.083119078, -28.4435840689999 ], [ -51.078746275, -28.448083439 ], [ -51.073107563999891, -28.461073437 ], [ -51.066803759, -28.46222355 ], [ -51.072365631, -28.464496418999907 ], [ -51.085946025999903, -28.462216211999895 ], [ -51.090423898, -28.458851373 ], [ -51.098144885999901, -28.459714931 ], [ -51.101712049999897, -28.458753080999895 ], [ -51.1070214329999, -28.463901845999892 ], [ -51.115019318999899, -28.464478212999886 ], [ -51.125952519999899, -28.469096141 ], [ -51.131523006, -28.469293883 ], [ -51.1411283099999, -28.474979115999897 ], [ -51.145318132999897, -28.474568419 ], [ -51.148470227, -28.476890523999899 ], [ -51.149830339999902, -28.475425809999894 ], [ -51.156418553, -28.475013574999899 ], [ -51.159252943, -28.477841871 ], [ -51.154824326, -28.488104416999899 ], [ -51.147625599, -28.490408106 ], [ -51.142709225, -28.493494224 ], [ -51.133060268, -28.492875569 ], [ -51.12298164899989, -28.506998612 ], [ -51.126842142, -28.509136946999895 ], [ -51.13068054, -28.508889766 ], [ -51.13515225, -28.510424919999895 ], [ -51.143444278999901, -28.515345811 ], [ -51.144863359999896, -28.517516215999901 ], [ -51.146538983, -28.523441206 ], [ -51.1442928559999, -28.525371443 ], [ -51.145734995999902, -28.527297971999896 ], [ -51.143818439, -28.530039417999902 ], [ -51.14362439699989, -28.535336343 ], [ -51.149565514, -28.539509632 ], [ -51.149220666, -28.542825111 ], [ -51.151703729, -28.549796715 ], [ -51.14893024, -28.55200809 ], [ -51.148436402, -28.555310515 ], [ -51.1538485149999, -28.562666916999895 ], [ -51.152448829, -28.564902910999908 ], [ -51.153500093942391, -28.568441323546395 ], [ -51.147761397999901, -28.571415637 ], [ -51.148397197214599, -28.572773756826493 ], [ -51.150890123288093, -28.572875844948296 ], [ -51.151032827114392, -28.575767244013804 ], [ -51.1534983101444, -28.576098755979501 ], [ -51.156008011, -28.573840514 ], [ -51.157788206707593, -28.5741085864633 ], [ -51.153488414, -28.582781317 ], [ -51.159887599536901, -28.583441965565189 ], [ -51.161702682435497, -28.580828290099998 ], [ -51.164092971526195, -28.584517732871301 ], [ -51.166262069686191, -28.580219054533895 ], [ -51.170431216857892, -28.578056542704594 ], [ -51.168540940020101, -28.575358342665595 ], [ -51.170161177309602, -28.573535026854003 ], [ -51.171248440999911, -28.5760213 ], [ -51.173465319749603, -28.5739340487068 ], [ -51.174885771682298, -28.574957125369298 ], [ -51.177360036486192, -28.583023184721103 ], [ -51.177167911608699, -28.586781331104302 ], [ -51.179634515933294, -28.5924273668751 ], [ -51.183508662999891, -28.59017518 ], [ -51.186556200370291, -28.591232496759904 ], [ -51.1925362429999, -28.590652538 ], [ -51.195092529, -28.58876716 ], [ -51.199088844, -28.589119317 ], [ -51.200476958627, -28.585145080846203 ], [ -51.210226923129298, -28.589364723218107 ], [ -51.21171227, -28.586257417 ], [ -51.214169665192493, -28.587971714329196 ], [ -51.216505891486996, -28.587684111232903 ], [ -51.217970252289291, -28.585104465141793 ], [ -51.222892162145399, -28.583976007192508 ], [ -51.227788275539503, -28.580689428300101 ], [ -51.231349284866901, -28.584377773349399 ], [ -51.238171213841099, -28.586109703826395 ], [ -51.239035532496402, -28.587956346224598 ], [ -51.241108854434991, -28.586812520170902 ], [ -51.246269518768699, -28.588609490660396 ], [ -51.25355180479751, -28.584811373436999 ], [ -51.254645876, -28.589118100999897 ], [ -51.255735469508792, -28.58866180447 ], [ -51.254241719508592, -28.579961242483098 ], [ -51.259937615999903, -28.578355697999893 ], [ -51.261471092194498, -28.5814363110863 ], [ -51.265764595450392, -28.580264158356904 ], [ -51.26795634545099, -28.577344751746292 ], [ -51.271100057972596, -28.583505687466399 ], [ -51.266762653865406, -28.590016183712304 ], [ -51.270119559898191, -28.5930919871033 ], [ -51.272704634087198, -28.592716086066496 ], [ -51.272114167637291, -28.589034999686003 ], [ -51.279144888970997, -28.585149774347109 ], [ -51.279086308773799, -28.581225587000201 ], [ -51.281771257399299, -28.581098000153602 ], [ -51.284820994660201, -28.585951376437105 ], [ -51.287029070292995, -28.586594661112702 ], [ -51.29375797327419, -28.586102971578196 ], [ -51.295843263712698, -28.58248128849219 ], [ -51.303361696062396, -28.5827201366087 ], [ -51.306214153874897, -28.5895170859093 ], [ -51.303017074379902, -28.593228902885595 ], [ -51.3116300098335, -28.593965614043899 ], [ -51.314521841220397, -28.592593438063201 ], [ -51.313826149919194, -28.587586820351795 ], [ -51.317238343585494, -28.583332827861994 ], [ -51.32305561794999, -28.583816560369598 ], [ -51.325238587780191, -28.582306371085284 ], [ -51.331216374635595, -28.583820127311302 ], [ -51.334086804357199, -28.583232679047502 ], [ -51.336253997320902, -28.587103910987601 ], [ -51.334684541887398, -28.590396474834208 ], [ -51.328742561665493, -28.592178849396504 ], [ -51.324863921454295, -28.591950564969796 ], [ -51.320642168650402, -28.594798358319192 ], [ -51.319951004623299, -28.597304136580806 ], [ -51.335386955508, -28.595576775286201 ], [ -51.347968939487103, -28.589729181894601 ], [ -51.349057680599003, -28.591037427263 ], [ -51.347329496148092, -28.594095944698601 ], [ -51.347784555911701, -28.599791257009805 ], [ -51.342948877142291, -28.602074101276802 ], [ -51.339782939811698, -28.606893042848796 ], [ -51.340815295769701, -28.610020155359901 ], [ -51.343306669080292, -28.6111703576636 ], [ -51.348355266978395, -28.610573306086096 ], [ -51.351696121761393, -28.618501799828692 ], [ -51.353829703133997, -28.619774924516101 ], [ -51.355618662823993, -28.618176933529199 ], [ -51.356647451833794, -28.611087769189293 ], [ -51.360271467107601, -28.608526154516699 ], [ -51.360849449254992, -28.615560442792393 ], [ -51.364313226421601, -28.623734781302204 ], [ -51.367330723994598, -28.624374361831496 ], [ -51.370799165630196, -28.6196304632651 ], [ -51.372849061001496, -28.621249718741097 ], [ -51.3690534208394, -28.633608082756901 ], [ -51.374870695203292, -28.6357282194957 ], [ -51.384726024749192, -28.636211403238299 ], [ -51.384651393301993, -28.640311742748601 ], [ -51.380086802289391, -28.644644756770699 ], [ -51.38223794400249, -28.650562591524299 ], [ -51.384912603367198, -28.649504581008294 ], [ -51.38958584898679, -28.643801860425988 ], [ -51.400573683324808, -28.6440154654717 ], [ -51.397018263109793, -28.6403556435999 ], [ -51.398707348363089, -28.6387796030386 ], [ -51.397613190999898, -28.63627869 ], [ -51.401370789999902, -28.636578355 ], [ -51.402487622, -28.635476722 ], [ -51.402452548, -28.631480784 ], [ -51.400090943999892, -28.627653942999899 ], [ -51.401635391999903, -28.62031246 ], [ -51.399457409999989, -28.618184497999906 ], [ -51.392508805, -28.620201672 ], [ -51.389763788, -28.614468094 ], [ -51.390540637999891, -28.61285577 ], [ -51.392617512, -28.612385527 ], [ -51.401424936, -28.615487408 ], [ -51.403718118, -28.614308725999901 ], [ -51.402790158999899, -28.611947094 ], [ -51.396919526, -28.607396023 ], [ -51.398056687999897, -28.605147539 ], [ -51.400940039, -28.605485181999892 ], [ -51.402512822999896, -28.603991017999892 ], [ -51.402231262, -28.601156327 ], [ -51.398368756, -28.595746942999895 ], [ -51.398275411, -28.591142062 ], [ -51.399953431, -28.587687028999902 ], [ -51.403184462999903, -28.58728231999989 ], [ -51.40399851, -28.58530336 ], [ -51.399561811, -28.581703763 ], [ -51.400638167, -28.579168513 ], [ -51.393210989999893, -28.574645078999907 ], [ -51.401842506, -28.572703938 ], [ -51.407226296, -28.573651261 ], [ -51.405538125, -28.567903237999904 ], [ -51.395705854, -28.567504206 ], [ -51.393738739999897, -28.5660297599999 ], [ -51.398086928999895, -28.561115088999902 ], [ -51.407151214, -28.563177412999888 ], [ -51.407929539, -28.561179903 ], [ -51.400656719, -28.553120711 ], [ -51.403828121999894, -28.549203669 ], [ -51.4005782099999, -28.543328757 ], [ -51.393640763999898, -28.542851468999988 ], [ -51.392993128999898, -28.541719881999899 ], [ -51.396561012999904, -28.539169616 ], [ -51.390754055999892, -28.539370344999988 ], [ -51.389483083, -28.538358482 ], [ -51.394063068, -28.532866125999899 ], [ -51.392916074, -28.53022444 ], [ -51.385907378999903, -28.530026705 ], [ -51.382026212, -28.534648490999906 ], [ -51.378528232999905, -28.530180376 ], [ -51.375386389, -28.532587014999891 ], [ -51.370694619999895, -28.530485370999905 ], [ -51.372145565, -28.524770901999894 ], [ -51.377450067, -28.518462572 ], [ -51.376361554, -28.516369277 ], [ -51.372654150999892, -28.516751284 ], [ -51.372913427, -28.512930039 ], [ -51.369977591, -28.514669633 ], [ -51.366278642999895, -28.512698891999896 ], [ -51.361867285, -28.513410549999897 ], [ -51.356841110999902, -28.516769445 ], [ -51.354658478, -28.514643 ], [ -51.353891239999903, -28.507887314999895 ], [ -51.369313577, -28.503016615 ], [ -51.370403672999892, -28.501082633999896 ], [ -51.367777296, -28.49646161 ], [ -51.371204416, -28.49285222 ], [ -51.376588461, -28.491890242999908 ], [ -51.376070478, -28.485781485 ], [ -51.373848611, -28.484587942 ], [ -51.369559755999894, -28.484735052 ], [ -51.368309427, -28.48222376 ], [ -51.374230732999898, -28.475298817999892 ], [ -51.379599334, -28.476165205 ], [ -51.380699383, -28.470786475 ], [ -51.365850945, -28.473122303 ], [ -51.362339036, -28.476013028999894 ], [ -51.360268892, -28.476001747999895 ], [ -51.3609496139999, -28.4692065099999 ], [ -51.365897979, -28.468593559999899 ], [ -51.371622418999891, -28.464065435999899 ], [ -51.36593576, -28.46056752 ], [ -51.367139288, -28.455770764 ], [ -51.361076102, -28.458201819999903 ], [ -51.35825117799989, -28.4552929 ], [ -51.354393628, -28.454037571 ], [ -51.356265446, -28.449937460999895 ], [ -51.34995617, -28.446640563999907 ], [ -51.346311541, -28.446483924999896 ], [ -51.350976573, -28.441960342999899 ], [ -51.3535264779999, -28.442402188999896 ], [ -51.3563382849999, -28.440895812 ], [ -51.346760074, -28.438090800999895 ], [ -51.347560385, -28.435807753999899 ], [ -51.356845157999892, -28.431436033 ], [ -51.356152408, -28.427720771999898 ], [ -51.360767293, -28.421215491999902 ], [ -51.350753992, -28.418032675999896 ], [ -51.340216444, -28.419508326 ], [ -51.334414528000011, -28.418540074 ], [ -51.333933147, -28.415914608 ], [ -51.335553747999903, -28.411940612 ], [ -51.333369187, -28.408153715 ], [ -51.334027583, -28.406605618999905 ], [ -51.342923737, -28.410561387 ], [ -51.35309483, -28.405805793 ], [ -51.357213789999903, -28.405960561 ], [ -51.35909272899989, -28.404408029 ], [ -51.3590654, -28.402177380999905 ], [ -51.356865206999899, -28.400350105 ], [ -51.346675637, -28.405589011 ], [ -51.341884917999899, -28.404335987 ], [ -51.343819405, -28.399870201999899 ], [ -51.348492404999902, -28.397974540999908 ], [ -51.34838716, -28.391299296999897 ], [ -51.341144982999893, -28.391950036 ], [ -51.337835020999897, -28.386279088 ], [ -51.34863424, -28.371286281 ], [ -51.340856276, -28.373834829 ], [ -51.334804259999892, -28.370968994999902 ], [ -51.342985059999897, -28.365520381 ], [ -51.34224847, -28.361382175999896 ], [ -51.34139521, -28.360697331 ], [ -51.339250587, -28.363433020999896 ], [ -51.337265177999896, -28.363589074999908 ], [ -51.33712114, -28.35689594 ], [ -51.333197282, -28.354156356 ], [ -51.32841661, -28.353820275 ], [ -51.325244604, -28.351543375999896 ], [ -51.323138946, -28.346538708 ], [ -51.327213489, -28.346012556999899 ], [ -51.328257865999902, -28.3427649509999 ], [ -51.332206192999898, -28.340955642 ], [ -51.33512609600001, -28.342047018 ], [ -51.334608177999897, -28.347342997999903 ], [ -51.340828106999901, -28.346245102 ], [ -51.343617654, -28.344058479 ], [ -51.340510033, -28.342716531 ], [ -51.340213471, -28.340453583999896 ], [ -51.343272114999898, -28.339211863999889 ], [ -51.343186277, -28.337865629 ], [ -51.329047847, -28.337981130999893 ], [ -51.326435099, -28.334774659999905 ], [ -51.326782932, -28.333308862 ], [ -51.334158414999898, -28.3301453199999 ], [ -51.334004923, -28.327264729 ], [ -51.336812434, -28.323810662 ], [ -51.349947632, -28.31821716 ], [ -51.356567691999899, -28.317482427 ], [ -51.369581438999901, -28.305560267 ], [ -51.379980302, -28.303517293 ], [ -51.38540819, -28.300570456999893 ], [ -51.388741935, -28.295944994 ], [ -51.387496950999896, -28.293963942999895 ], [ -51.387661593, -28.289017951999899 ], [ -51.391730431, -28.280447352999904 ], [ -51.397591006, -28.272978916999904 ], [ -51.389495117, -28.263919277999896 ], [ -51.389623916999895, -28.258864871 ], [ -51.386943969999898, -28.251406755999895 ], [ -51.387715882, -28.241994217 ], [ -51.374442737, -28.239595812999898 ], [ -51.355231494999899, -28.232234916 ], [ -51.348474616, -28.232409592999897 ], [ -51.34138033499989, -28.236177136 ], [ -51.334071638, -28.235411035 ], [ -51.330198912999897, -28.233385930999898 ], [ -51.327412132999903, -28.231511127 ], [ -51.327909250999909, -28.228135124999898 ], [ -51.326041227, -28.224351828 ], [ -51.327344889, -28.220092334999908 ], [ -51.324517159, -28.217577425999892 ], [ -51.318347304, -28.215873842 ], [ -51.300825308, -28.201689326999908 ], [ -51.296290008, -28.195286149 ], [ -51.295416116, -28.190584105 ], [ -51.282740496, -28.187496705999898 ], [ -51.273302067, -28.179152969 ], [ -51.263286096999899, -28.180942393 ], [ -51.25551079199991, -28.176538653 ], [ -51.254459562, -28.168484572 ], [ -51.25042062499989, -28.157871386 ], [ -51.246928382, -28.1540047149999 ], [ -51.243283106, -28.153937305999893 ], [ -51.241918198, -28.156589477 ], [ -51.239770407, -28.156629215 ], [ -51.237885456, -28.158805980999901 ], [ -51.238629542999895, -28.161001430999899 ], [ -51.235685539, -28.163128867999902 ], [ -51.237561824999894, -28.165059488999898 ], [ -51.234037285999896, -28.164925291 ], [ -51.234623992, -28.169593816 ], [ -51.226868152999891, -28.168600284 ], [ -51.226128883999891, -28.170132737999904 ], [ -51.223908767, -28.170477345999902 ], [ -51.225009341, -28.172585394 ], [ -51.221936447, -28.172110136999901 ], [ -51.220156597, -28.175553011 ], [ -51.215526747, -28.176905427 ], [ -51.213487942, -28.181955264 ], [ -51.209272845, -28.179680038 ], [ -51.209168024, -28.17810796 ], [ -51.205998708, -28.177811629 ], [ -51.20342018, -28.180880874 ], [ -51.200029954999891, -28.182022683999893 ], [ -51.197067207, -28.186961368 ], [ -51.194980798999893, -28.186498457 ], [ -51.191885065999898, -28.188210567999903 ], [ -51.187031922, -28.186578957999906 ], [ -51.183434667, -28.189696298999895 ], [ -51.178070781, -28.188158475 ], [ -51.175385475, -28.189204155 ], [ -51.172176196, -28.184574289999901 ], [ -51.167770751, -28.183094635 ], [ -51.15897450499989, -28.182598737 ], [ -51.154450116, -28.178927717 ], [ -51.153752660999899, -28.176109773 ], [ -51.143054992, -28.181064853 ], [ -51.123599068, -28.199614482 ] ] ] } }
]
}
