{
"type": "FeatureCollection",
"name": "bairros_barra_do_ribeiro",
"crs": { "type": "name", "properties": { "name": "urn:ogc:def:crs:OGC:1.3:CRS84" } },
"features": [
{ "type": "Feature", "properties": { "name": "Cidade Baixa", "code_muni": 4301909.0, "name_muni": "Barra do Ribeiro" }, "geometry": { "type": "Polygon", "coordinates": [ [ [ -51.304763, -30.3003261 ], [ -51.3045627, -30.2998104 ], [ -51.3045395, -30.299814 ], [ -51.3030834, -30.3001025 ], [ -51.3016, -30.3003914 ], [ -51.3017262, -30.3010517 ], [ -51.301867, -30.3017103 ], [ -51.3019727, -30.3023743 ], [ -51.3021186, -30.3023439 ], [ -51.3034659, -30.3019214 ], [ -51.304105, -30.3017175 ], [ -51.3044043, -30.3024713 ], [ -51.304315, -30.3025758 ], [ -51.3047804, -30.303617299999988 ], [ -51.3052397, -30.3034807 ], [ -51.3059941, -30.3032451 ], [ -51.306096, -30.3032161 ], [ -51.3062985, -30.3037105 ], [ -51.3063911, -30.3038576 ], [ -51.3065788, -30.3039618 ], [ -51.3069284, -30.3038756 ], [ -51.307849, -30.3036005 ], [ -51.3089512, -30.3032827 ], [ -51.3105568, -30.3027911 ], [ -51.3108786, -30.302751 ], [ -51.3107956, -30.3024528 ], [ -51.3109276, -30.3021443 ], [ -51.3108953, -30.3020007 ], [ -51.3107237, -30.301741400000012 ], [ -51.3105735, -30.3015932 ], [ -51.3103589, -30.3012968 ], [ -51.3102591, -30.3010541 ], [ -51.310037, -30.3009077 ], [ -51.3099727, -30.3006483 ], [ -51.3099297, -30.3004075 ], [ -51.3099512, -30.3002408 ], [ -51.3100585, -30.299888699999986 ], [ -51.3100585, -30.299666399999985 ], [ -51.3101658, -30.2994626 ], [ -51.3101229, -30.299221800000012 ], [ -51.3100799, -30.2989809 ], [ -51.3100156, -30.298703 ], [ -51.3098514, -30.2984789 ], [ -51.3097817, -30.2982612 ], [ -51.309846, -30.298094399999986 ], [ -51.3100209, -30.2978786 ], [ -51.3099822, -30.2977568 ], [ -51.3098268, -30.2979265 ], [ -51.3093201, -30.2983703 ], [ -51.3091042, -30.2985486 ], [ -51.3085449, -30.2990558 ], [ -51.3084562, -30.2991133 ], [ -51.308282, -30.2992041 ], [ -51.3063818, -30.2998105 ], [ -51.304763, -30.3003261 ] ] ] } },
{ "type": "Feature", "properties": { "name": "Quatorze de Julho", "code_muni": 4301909.0, "name_muni": "Barra do Ribeiro" }, "geometry": { "type": "Polygon", "coordinates": [ [ [ -51.3093201, -30.2983703 ], [ -51.3098268, -30.2979265 ], [ -51.3099822, -30.2977568 ], [ -51.3098332, -30.2976285 ], [ -51.3096132, -30.2975034 ], [ -51.3093825, -30.2974016 ], [ -51.3090447, -30.2972719 ], [ -51.3089159, -30.2970357 ], [ -51.3087388, -30.296716 ], [ -51.3087656, -30.2965308 ], [ -51.3088247, -30.2962343 ], [ -51.3088569, -30.2961093 ], [ -51.3090285, -30.2957943 ], [ -51.3092485, -30.2954793 ], [ -51.3093182, -30.2952848 ], [ -51.3093289, -30.2950717 ], [ -51.3093579, -30.294829 ], [ -51.3092002, -30.2946271 ], [ -51.3089502, -30.294477 ], [ -51.3087657, -30.2944325 ], [ -51.3085565, -30.2942936 ], [ -51.3084599, -30.293881399999986 ], [ -51.3083848, -30.29371 ], [ -51.3083794, -30.2932468 ], [ -51.3083902, -30.2930754 ], [ -51.3064327, -30.293416 ], [ -51.3041515, -30.293868 ], [ -51.3042937, -30.2943263 ], [ -51.30453210000001, -30.2950944 ], [ -51.3048224, -30.2960297 ], [ -51.3054489, -30.2980347 ], [ -51.3058091, -30.2979551 ], [ -51.3063645, -30.2997561 ], [ -51.3063818, -30.2998105 ], [ -51.308282, -30.2992041 ], [ -51.3084562, -30.2991133 ], [ -51.3085449, -30.2990558 ], [ -51.3091042, -30.2985486 ], [ -51.3093201, -30.2983703 ] ] ] } },
{ "type": "Feature", "properties": { "name": "Centro", "code_muni": 4301909.0, "name_muni": "Barra do Ribeiro" }, "geometry": { "type": "Polygon", "coordinates": [ [ [ -51.3083902, -30.2930754 ], [ -51.3084492, -30.2928484 ], [ -51.3084062, -30.292589 ], [ -51.3081917, -30.2923667 ], [ -51.3079556, -30.292255499999985 ], [ -51.3075555, -30.2918646 ], [ -51.3072475, -30.2916626 ], [ -51.3070115, -30.2915515 ], [ -51.3067969, -30.2915144 ], [ -51.3066038, -30.2916256 ], [ -51.306239, -30.2915515 ], [ -51.3059172, -30.291440299999987 ], [ -51.3054933, -30.2913152 ], [ -51.3051898, -30.29097070000001 ], [ -51.3051661, -30.2906807 ], [ -51.3052809, -30.290475 ], [ -51.3054236, -30.2902545 ], [ -51.3056811, -30.2901433 ], [ -51.3051307, -30.2900303 ], [ -51.3040491, -30.2899834 ], [ -51.3029383, -30.2899352 ], [ -51.3019006, -30.2898933 ], [ -51.3000916, -30.2898116 ], [ -51.2996996, -30.2897976 ], [ -51.2992622, -30.2920961 ], [ -51.2976201, -30.2980684 ], [ -51.2962464, -30.301267 ], [ -51.2972749, -30.3010832 ], [ -51.2973484, -30.301163599999985 ], [ -51.29749420000001, -30.301168 ], [ -51.2987721, -30.3009152 ], [ -51.3004243, -30.3005883 ], [ -51.3016, -30.3003914 ], [ -51.3030834, -30.3001025 ], [ -51.3045395, -30.299814 ], [ -51.3045627, -30.2998104 ], [ -51.304763, -30.3003261 ], [ -51.3063818, -30.2998105 ], [ -51.3063645, -30.2997561 ], [ -51.3058091, -30.2979551 ], [ -51.3054489, -30.2980347 ], [ -51.3048224, -30.2960297 ], [ -51.30453210000001, -30.2950944 ], [ -51.3042937, -30.2943263 ], [ -51.3041515, -30.293868 ], [ -51.3064327, -30.293416 ], [ -51.3083902, -30.2930754 ] ] ] } },
{ "type": "Feature", "properties": { "name": "Picada", "code_muni": 4301909.0, "name_muni": "Barra do Ribeiro" }, "geometry": { "type": "Polygon", "coordinates": [ [ [ -51.3040491, -30.2899834 ], [ -51.3051307, -30.2900303 ], [ -51.3056811, -30.2901433 ], [ -51.3059461, -30.2899562 ], [ -51.3062176, -30.2899025 ], [ -51.3063892, -30.2898098 ], [ -51.3065394, -30.2896616 ], [ -51.306518, -30.2894948 ], [ -51.3064321, -30.289254 ], [ -51.3061961, -30.2889575 ], [ -51.3059601, -30.2886796 ], [ -51.305753, -30.288548 ], [ -51.3053163, -30.2884017 ], [ -51.3049247, -30.288309 ], [ -51.3046726, -30.288364599999987 ], [ -51.3044151, -30.2884202 ], [ -51.3042435, -30.2884387 ], [ -51.3040879, -30.2882349 ], [ -51.3040557, -30.2880311 ], [ -51.3040257, -30.2878022 ], [ -51.3038196, -30.2875957 ], [ -51.3037285, -30.2874937 ], [ -51.3036373, -30.2872853 ], [ -51.3037822, -30.286785 ], [ -51.3038679, -30.2866507 ], [ -51.3034924, -30.2861597 ], [ -51.3032993, -30.2858447 ], [ -51.3030023, -30.28529 ], [ -51.3025859, -30.2849813 ], [ -51.3021481, -30.2848793 ], [ -51.3018187, -30.2847144 ], [ -51.3017351, -30.2845179 ], [ -51.3018638, -30.284342 ], [ -51.3024839, -30.2841585 ], [ -51.3028562, -30.284064 ], [ -51.3033637, -30.2839547 ], [ -51.3038787, -30.2837323 ], [ -51.304487, -30.2834896 ], [ -51.3049376, -30.2831375 ], [ -51.3051307, -30.282785499999989 ], [ -51.3052734, -30.2823241 ], [ -51.3052734, -30.281972 ], [ -51.3051661, -30.281675499999988 ], [ -51.3049086, -30.2814902 ], [ -51.3045439, -30.2812123 ], [ -51.3041866, -30.2808954 ], [ -51.3037821, -30.280712 ], [ -51.3033707, -30.280771 ], [ -51.30316, -30.281113 ], [ -51.3030676, -30.2820051 ], [ -51.3026938, -30.2825636 ], [ -51.3020429, -30.2829698 ], [ -51.3006747, -30.2833784 ], [ -51.3003252, -30.2839335 ], [ -51.2998806, -30.2847027 ], [ -51.2999075, -30.285696 ], [ -51.2999787, -30.2883306 ], [ -51.2996996, -30.2897976 ], [ -51.3000916, -30.2898116 ], [ -51.3019006, -30.2898933 ], [ -51.3029383, -30.2899352 ], [ -51.3040491, -30.2899834 ] ] ] } },
{ "type": "Feature", "properties": { "name": "Mate Doce", "code_muni": 4301909.0, "name_muni": "Barra do Ribeiro" }, "geometry": { "type": "Polygon", "coordinates": [ [ [ -51.3116987, -30.3192727 ], [ -51.3120098, -30.3192634 ], [ -51.3125355, -30.3192264 ], [ -51.3129647, -30.3191986 ], [ -51.3133724, -30.31915230000001 ], [ -51.313637, -30.3190892 ], [ -51.3132637, -30.31851940000001 ], [ -51.3130665, -30.318218300000012 ], [ -51.3128268, -30.3178215 ], [ -51.3119915, -30.3164809 ], [ -51.3121551, -30.3164138 ], [ -51.3160712, -30.3143345 ], [ -51.3162598, -30.3142087 ], [ -51.3164743, -30.3137826 ], [ -51.3165387, -30.3135974 ], [ -51.3166245, -30.3132084 ], [ -51.316646, -30.3129676 ], [ -51.3168177, -30.3126341 ], [ -51.3169035, -30.312523 ], [ -51.3169754, -30.3123729 ], [ -51.3167533, -30.3119487 ], [ -51.3166889, -30.3117079 ], [ -51.3166675, -30.3114856 ], [ -51.3167318, -30.311318900000011 ], [ -51.3167104, -30.3110966 ], [ -51.3165816, -30.3109484 ], [ -51.3165248, -30.3107984 ], [ -51.3166106, -30.3106317 ], [ -51.3167823, -30.3105946 ], [ -51.3169893, -30.310652 ], [ -51.3171824, -30.3104853 ], [ -51.3171824, -30.3102445 ], [ -51.3170827, -30.3099833 ], [ -51.3172683, -30.309874 ], [ -51.3174399, -30.3096888 ], [ -51.3172468, -30.309466499999989 ], [ -51.317161, -30.3092627 ], [ -51.3170751, -30.309021899999987 ], [ -51.3170183, -30.308797699999989 ], [ -51.3169464, -30.3087255 ], [ -51.3167962, -30.3085402 ], [ -51.3168177, -30.3084476 ], [ -51.3168391, -30.3081883 ], [ -51.316882, -30.3079104 ], [ -51.3169035, -30.3076325 ], [ -51.316882, -30.307391700000011 ], [ -51.3167747, -30.3071879 ], [ -51.316646, -30.3069841 ], [ -51.3164743, -30.3068545 ], [ -51.3162482, -30.306827400000014 ], [ -51.3160336, -30.3068274 ], [ -51.3158083, -30.3068645 ], [ -51.3155508, -30.3068367 ], [ -51.3153577, -30.3067348 ], [ -51.3151968, -30.3066144 ], [ -51.3148213, -30.3064384 ], [ -51.3144457, -30.3062254 ], [ -51.3137162, -30.3060216 ], [ -51.3134909, -30.3059104 ], [ -51.3128901, -30.3056696 ], [ -51.3118923, -30.3048452 ], [ -51.3114953, -30.3047248 ], [ -51.3113129, -30.3046137 ], [ -51.3112593, -30.3044284 ], [ -51.3113666, -30.304039399999986 ], [ -51.3114309, -30.303659600000014 ], [ -51.3113236, -30.3032937 ], [ -51.3108786, -30.302751 ], [ -51.3105568, -30.3027911 ], [ -51.3089512, -30.3032827 ], [ -51.307849, -30.3036005 ], [ -51.3069284, -30.3038756 ], [ -51.3065788, -30.3039618 ], [ -51.3063911, -30.3038576 ], [ -51.3062985, -30.3037105 ], [ -51.306096, -30.3032161 ], [ -51.3059941, -30.3032451 ], [ -51.3052397, -30.3034807 ], [ -51.3047804, -30.303617299999988 ], [ -51.3116987, -30.3192727 ] ] ] } },
{ "type": "Feature", "properties": { "name": "Tangará", "code_muni": 4301909.0, "name_muni": "Barra do Ribeiro" }, "geometry": { "type": "Polygon", "coordinates": [ [ [ -51.2951017, -30.3061883 ], [ -51.3047804, -30.303617299999988 ], [ -51.304315, -30.3025758 ], [ -51.3044043, -30.3024713 ], [ -51.304105, -30.3017175 ], [ -51.3034659, -30.3019214 ], [ -51.3021186, -30.3023439 ], [ -51.3019727, -30.3023743 ], [ -51.301867, -30.3017103 ], [ -51.3017262, -30.3010517 ], [ -51.3016, -30.3003914 ], [ -51.3004243, -30.3005883 ], [ -51.2987721, -30.3009152 ], [ -51.29749420000001, -30.301168 ], [ -51.2973484, -30.301163599999985 ], [ -51.2972749, -30.3010832 ], [ -51.2962464, -30.301267 ], [ -51.2959838, -30.3018784 ], [ -51.295355304216855, -30.302739125484322 ], [ -51.295273294, -30.302946935 ], [ -51.295131490645446, -30.303045633995271 ], [ -51.2944687, -30.303953299999986 ], [ -51.2951017, -30.3061883 ] ] ] } },
{ "type": "Feature", "properties": { "name": "Pavão", "code_muni": 4301909.0, "name_muni": "Barra do Ribeiro" }, "geometry": { "type": "Polygon", "coordinates": [ [ [ -51.3178039, -30.3067626 ], [ -51.3217092, -30.3116161 ], [ -51.3264084, -30.3087077 ], [ -51.3266342, -30.3020812 ], [ -51.3257099, -30.3019548 ], [ -51.3239321, -30.3017116 ], [ -51.3237702, -30.301689400000015 ], [ -51.3213418, -30.3013082 ], [ -51.3211416, -30.3012883 ], [ -51.3200825, -30.3012555 ], [ -51.3192759, -30.3012355 ], [ -51.3182437, -30.30133 ], [ -51.3171775, -30.3014717 ], [ -51.3153457, -30.3017541 ], [ -51.3152533, -30.301846 ], [ -51.3154167, -30.3020478 ], [ -51.3153178, -30.302747299999989 ], [ -51.3154411, -30.3030011 ], [ -51.3155527, -30.3033504 ], [ -51.3157233, -30.3036496 ], [ -51.3158091, -30.303946 ], [ -51.3157877, -30.304223799999988 ], [ -51.3157233, -30.3044091 ], [ -51.315895, -30.3047796 ], [ -51.3160881, -30.3050204 ], [ -51.3161954, -30.3052983 ], [ -51.3163241, -30.3055762 ], [ -51.3163456, -30.305817 ], [ -51.3162812, -30.3060023 ], [ -51.3163456, -30.3062802 ], [ -51.3163885, -30.3065395 ], [ -51.3164743, -30.3068545 ], [ -51.3178039, -30.3067626 ] ] ] } },
{ "type": "Feature", "properties": { "name": "Três Vendas", "code_muni": 4301909.0, "name_muni": "Barra do Ribeiro" }, "geometry": { "type": "Polygon", "coordinates": [ [ [ -51.3171775, -30.3014717 ], [ -51.3182437, -30.30133 ], [ -51.3192759, -30.3012355 ], [ -51.3200825, -30.3012555 ], [ -51.3211416, -30.3012883 ], [ -51.3213418, -30.3013082 ], [ -51.3237702, -30.301689400000015 ], [ -51.3239321, -30.3017116 ], [ -51.3257099, -30.3019548 ], [ -51.3266342, -30.3020812 ], [ -51.3266874, -30.3005194 ], [ -51.3275457, -30.3006861 ], [ -51.327833, -30.2990347 ], [ -51.3266678, -30.2983881 ], [ -51.3251658, -30.2982399 ], [ -51.3241851, -30.2975896 ], [ -51.3234127, -30.2966632 ], [ -51.3228977, -30.2956998 ], [ -51.322726, -30.2942176 ], [ -51.3228483, -30.2933857 ], [ -51.3228448, -30.293120099999985 ], [ -51.3227037, -30.292928 ], [ -51.3223874, -30.2927077 ], [ -51.3219106, -30.292476 ], [ -51.3211317, -30.292237 ], [ -51.3203592, -30.2919776 ], [ -51.3194215, -30.291809 ], [ -51.3183916, -30.2914385 ], [ -51.317441, -30.2911624 ], [ -51.3169325, -30.2905491 ], [ -51.3129115, -30.2912049 ], [ -51.3129062, -30.2913021 ], [ -51.3130671, -30.2916912 ], [ -51.3131315, -30.2920757 ], [ -51.3131797, -30.2921683 ], [ -51.3135445, -30.292219299999989 ], [ -51.3135553, -30.2928677 ], [ -51.3133085, -30.2934884 ], [ -51.3133192, -30.2937107 ], [ -51.3133729, -30.2939423 ], [ -51.3135016, -30.294164699999985 ], [ -51.3136304, -30.2945445 ], [ -51.3136411, -30.294739 ], [ -51.3137269, -30.2949336 ], [ -51.3139951, -30.2952948 ], [ -51.3141453, -30.2959248 ], [ -51.3141668, -30.2967585 ], [ -51.3141534, -30.297193900000011 ], [ -51.3141454, -30.2973652 ], [ -51.3141132, -30.297916399999988 ], [ -51.314038, -30.298111 ], [ -51.3140273, -30.2982962 ], [ -51.3140595, -30.2990373 ], [ -51.3146067, -30.3000007 ], [ -51.3147247, -30.3004824 ], [ -51.314735400000011, -30.301279 ], [ -51.3152533, -30.301846 ], [ -51.3153457, -30.3017541 ], [ -51.3171775, -30.3014717 ] ] ] } }
]
}
