{
"type": "FeatureCollection",
"name": "bairros_teutonia",
"crs": { "type": "name", "properties": { "name": "urn:ogc:def:crs:OGC:1.3:CRS84" } },
"features": [
{ "type": "Feature", "properties": { "name": "Teutônia", "code_muni": 4321451.0, "name_muni": "Teutônia" }, "geometry": { "type": "Polygon", "coordinates": [ [ [ -51.8041511, -29.4638148 ], [ -51.8046481, -29.4642651 ], [ -51.8052878, -29.4645978 ], [ -51.8060403, -29.4651032 ], [ -51.8061543, -29.4654445 ], [ -51.8061259, -29.4657768 ], [ -51.8061763, -29.4662482 ], [ -51.8061789, -29.4665149 ], [ -51.8061951, -29.4668795 ], [ -51.8064321, -29.4670747 ], [ -51.8067297, -29.4672844 ], [ -51.8070518, -29.4675063 ], [ -51.8073549, -29.4676729 ], [ -51.8075332, -29.4677442 ], [ -51.8076962, -29.4677274 ], [ -51.8079132, -29.4675791 ], [ -51.8084292, -29.4667854 ], [ -51.8087512, -29.4661544 ], [ -51.8090692, -29.4653479 ], [ -51.8093297, -29.4647902 ], [ -51.8093536, -29.464483 ], [ -51.8092334, -29.4641913 ], [ -51.8092419, -29.4640199 ], [ -51.8093378, -29.4637872 ], [ -51.8095546, -29.4635969 ], [ -51.8106173, -29.463174 ], [ -51.8116409, -29.4629882 ], [ -51.8127377, -29.4626489 ], [ -51.8133953, -29.4625017 ], [ -51.8135537, -29.4624662 ], [ -51.8137821, -29.4624342 ], [ -51.8138003, -29.4624366 ], [ -51.8181579, -29.4630173 ], [ -51.8197981, -29.4634008 ], [ -51.8209088, -29.463647600000012 ], [ -51.8217655, -29.4638496 ], [ -51.8222831, -29.4638611 ], [ -51.8238042, -29.462677 ], [ -51.8244436, -29.4622845 ], [ -51.8248452, -29.4620699 ], [ -51.825074, -29.4618433 ], [ -51.8251837, -29.4614019 ], [ -51.8252051, -29.4607231 ], [ -51.8250743, -29.4595992 ], [ -51.8248452, -29.4586072 ], [ -51.8247933, -29.4580252 ], [ -51.8243777, -29.4571344 ], [ -51.8244152, -29.456506 ], [ -51.8249865, -29.4561776 ], [ -51.8257665, -29.455924 ], [ -51.826433, -29.455984 ], [ -51.8269526, -29.4564371 ], [ -51.8286064, -29.457226699999989 ], [ -51.8286309, -29.4572297 ], [ -51.8286151, -29.4462083 ], [ -51.8106104, -29.437839 ], [ -51.8066352, -29.4364498 ], [ -51.7989586, -29.4351941 ], [ -51.7990451, -29.4372488 ], [ -51.7988762, -29.437334 ], [ -51.7986914, -29.4375091 ], [ -51.7985023, -29.4376007 ], [ -51.7981671, -29.4378225 ], [ -51.7979494, -29.4380068 ], [ -51.79786510000001, -29.4382361 ], [ -51.7972639, -29.439096 ], [ -51.7970768, -29.4392392 ], [ -51.7968606, -29.4393458 ], [ -51.7962782, -29.4394053 ], [ -51.7960419, -29.4396816 ], [ -51.7948753, -29.4400922 ], [ -51.794765, -29.4401769 ], [ -51.7945707, -29.4405291 ], [ -51.7944252, -29.440695 ], [ -51.7943125, -29.4408836 ], [ -51.7943334, -29.441191300000011 ], [ -51.7942706, -29.441498299999989 ], [ -51.7942873, -29.4418741 ], [ -51.7942246, -29.4420052 ], [ -51.7942664, -29.4421654 ], [ -51.7943835, -29.4422345 ], [ -51.7946339, -29.4425433 ], [ -51.7947202, -29.44266210000001 ], [ -51.7947501, -29.4428117 ], [ -51.7946514, -29.4431831 ], [ -51.7945955, -29.443289 ], [ -51.7945503, -29.4434575 ], [ -51.7946409, -29.4435643 ], [ -51.7947374, -29.4436518 ], [ -51.7948924, -29.443732 ], [ -51.7949637, -29.4438377 ], [ -51.795127, -29.4439578 ], [ -51.7951482, -29.4441251 ], [ -51.7952319, -29.4442741 ], [ -51.7954241, -29.4444266 ], [ -51.7958491, -29.4445341 ], [ -51.7960854, -29.4445668 ], [ -51.7965304, -29.444453600000013 ], [ -51.7971669, -29.4444648 ], [ -51.7972793, -29.4444781 ], [ -51.7973399, -29.4445571 ], [ -51.7972848, -29.4447275 ], [ -51.7973094, -29.4448253 ], [ -51.797409, -29.4449158 ], [ -51.7975547, -29.4449556 ], [ -51.7981719, -29.4453591 ], [ -51.798369, -29.4454767 ], [ -51.7896614, -29.4454746 ], [ -51.7896611, -29.449186 ], [ -51.8010971, -29.4491905 ], [ -51.80089670000001, -29.4494496 ], [ -51.8009054, -29.4496602 ], [ -51.8009599, -29.4498342 ], [ -51.8010371, -29.4499972 ], [ -51.8010242, -29.4501043 ], [ -51.8009507, -29.4502284 ], [ -51.8010083, -29.4503917 ], [ -51.8013101, -29.4506329 ], [ -51.8013688, -29.4509793 ], [ -51.8015653, -29.4512378 ], [ -51.8016238, -29.4513615 ], [ -51.8016582, -29.4515182 ], [ -51.8016961, -29.4516803 ], [ -51.8017936, -29.4518067 ], [ -51.8019349, -29.4518791 ], [ -51.8025287, -29.4519493 ], [ -51.8026786, -29.4520254 ], [ -51.8028571, -29.45221 ], [ -51.8030279, -29.452284499999987 ], [ -51.8030997, -29.4523645 ], [ -51.803135, -29.4525054 ], [ -51.8031736, -29.452651 ], [ -51.8032414, -29.4530831 ], [ -51.8032757, -29.4531732 ], [ -51.8033471, -29.4532357 ], [ -51.8036187, -29.463816 ], [ -51.8041511, -29.4638148 ] ] ] } },
{ "type": "Feature", "properties": { "name": "Languiru", "code_muni": 4321451.0, "name_muni": "Teutônia" }, "geometry": { "type": "Polygon", "coordinates": [ [ [ -51.8030059, -29.463816799999989 ], [ -51.8021611, -29.4638407 ], [ -51.8008662, -29.4645287 ], [ -51.8000371, -29.4649423 ], [ -51.7992724, -29.4654097 ], [ -51.7987698, -29.4660873 ], [ -51.7981371, -29.4667153 ], [ -51.7975668, -29.4672474 ], [ -51.7970783, -29.4675978 ], [ -51.7966723, -29.4677594 ], [ -51.7961935, -29.4677099 ], [ -51.7957255, -29.4674675 ], [ -51.7954279, -29.4671383 ], [ -51.7947721, -29.466773100000012 ], [ -51.7943114, -29.4666092 ], [ -51.79398, -29.4664843 ], [ -51.7937833, -29.4664775 ], [ -51.7935976, -29.4666026 ], [ -51.7930237, -29.4674924 ], [ -51.7926141, -29.4679004 ], [ -51.792143, -29.4681303 ], [ -51.7916919, -29.4682752 ], [ -51.7910531, -29.4683326 ], [ -51.7909725, -29.4704315 ], [ -51.7908134, -29.4746609 ], [ -51.8002014, -29.4745434 ], [ -51.8069548, -29.4744588 ], [ -51.8081645, -29.4744534 ], [ -51.8095753, -29.4744454 ], [ -51.8111546, -29.4744633 ], [ -51.8120006, -29.4744743 ], [ -51.8128954, -29.4744739 ], [ -51.8139663, -29.4744874 ], [ -51.8149905, -29.474484899999986 ], [ -51.8150264, -29.473478 ], [ -51.8150518, -29.4725614 ], [ -51.8158555, -29.4725771 ], [ -51.8159027, -29.4725781 ], [ -51.8159031, -29.4724646 ], [ -51.8160026, -29.4724663 ], [ -51.817092, -29.4724872 ], [ -51.8172227, -29.4724832 ], [ -51.8171724, -29.472410799999988 ], [ -51.8168271, -29.4718195 ], [ -51.8165837, -29.4713692 ], [ -51.81617, -29.4707138 ], [ -51.8157223, -29.469719200000011 ], [ -51.8150198, -29.4685337 ], [ -51.8144555, -29.4675876 ], [ -51.81418, -29.467121 ], [ -51.813976, -29.46669 ], [ -51.8138596, -29.4662638 ], [ -51.8136905, -29.4657166 ], [ -51.813582, -29.465207 ], [ -51.813546, -29.4648 ], [ -51.813553, -29.464146 ], [ -51.8137769, -29.4625026 ], [ -51.8138003, -29.4624366 ], [ -51.8137821, -29.4624342 ], [ -51.8135537, -29.4624662 ], [ -51.8133953, -29.4625017 ], [ -51.8127377, -29.4626489 ], [ -51.8116409, -29.4629882 ], [ -51.8106173, -29.463174 ], [ -51.8095546, -29.4635969 ], [ -51.8093378, -29.4637872 ], [ -51.8092419, -29.4640199 ], [ -51.8092334, -29.4641913 ], [ -51.8093536, -29.464483 ], [ -51.8093297, -29.4647902 ], [ -51.8090692, -29.4653479 ], [ -51.8087512, -29.4661544 ], [ -51.8084292, -29.4667854 ], [ -51.8079132, -29.4675791 ], [ -51.8076962, -29.4677274 ], [ -51.8075332, -29.4677442 ], [ -51.8073549, -29.4676729 ], [ -51.8070518, -29.4675063 ], [ -51.8067297, -29.4672844 ], [ -51.8064321, -29.4670747 ], [ -51.8061951, -29.4668795 ], [ -51.8061789, -29.4665149 ], [ -51.8061763, -29.4662482 ], [ -51.8061259, -29.4657768 ], [ -51.8061543, -29.4654445 ], [ -51.8060403, -29.4651032 ], [ -51.8052878, -29.4645978 ], [ -51.8046481, -29.4642651 ], [ -51.8041511, -29.4638148 ], [ -51.8036187, -29.463816 ], [ -51.8030059, -29.463816799999989 ] ] ] } },
{ "type": "Feature", "properties": { "name": "Alesgut", "code_muni": 4321451.0, "name_muni": "Teutônia" }, "geometry": { "type": "Polygon", "coordinates": [ [ [ -51.8363348, -29.4697775 ], [ -51.83872130000001, -29.4665563 ], [ -51.8387791, -29.4663829 ], [ -51.8377305, -29.4657171 ], [ -51.8372777, -29.465252 ], [ -51.8367319, -29.4648895 ], [ -51.835938, -29.4648008 ], [ -51.8329551, -29.4649692 ], [ -51.8316405, -29.4645444 ], [ -51.8310134, -29.4646464 ], [ -51.83037860000001, -29.4649381 ], [ -51.8299309, -29.465255 ], [ -51.8295648, -29.4652438 ], [ -51.8291415, -29.4650072 ], [ -51.8287239, -29.4645829 ], [ -51.8283602, -29.4640138 ], [ -51.8286309, -29.4572297 ], [ -51.8286064, -29.457226699999989 ], [ -51.8269526, -29.4564371 ], [ -51.826433, -29.455984 ], [ -51.8257665, -29.455924 ], [ -51.8249865, -29.4561776 ], [ -51.8244152, -29.456506 ], [ -51.8243777, -29.4571344 ], [ -51.8247933, -29.4580252 ], [ -51.8248452, -29.4586072 ], [ -51.8250743, -29.4595992 ], [ -51.8252051, -29.4607231 ], [ -51.8251837, -29.4614019 ], [ -51.825074, -29.4618433 ], [ -51.8248452, -29.4620699 ], [ -51.8244436, -29.4622845 ], [ -51.8238042, -29.462677 ], [ -51.8222831, -29.4638611 ], [ -51.8217655, -29.4638496 ], [ -51.8209088, -29.463647600000012 ], [ -51.8197981, -29.4634008 ], [ -51.8181579, -29.4630173 ], [ -51.8138003, -29.4624366 ], [ -51.8137769, -29.4625026 ], [ -51.813553, -29.464146 ], [ -51.813546, -29.4648 ], [ -51.813582, -29.465207 ], [ -51.8136905, -29.4657166 ], [ -51.8138596, -29.4662638 ], [ -51.813976, -29.46669 ], [ -51.81418, -29.467121 ], [ -51.8144555, -29.4675876 ], [ -51.8150198, -29.4685337 ], [ -51.8157223, -29.469719200000011 ], [ -51.81617, -29.4707138 ], [ -51.8165837, -29.4713692 ], [ -51.8168271, -29.4718195 ], [ -51.8171724, -29.472410799999988 ], [ -51.8172227, -29.4724832 ], [ -51.817329, -29.472671 ], [ -51.817572, -29.473239 ], [ -51.817744, -29.473764 ], [ -51.817859, -29.47424 ], [ -51.8178751, -29.474412499999985 ], [ -51.8178918, -29.4745907 ], [ -51.8324209, -29.4750601 ], [ -51.8363348, -29.4697775 ] ] ] } },
{ "type": "Feature", "properties": { "name": "Centro Administrativo", "code_muni": 4321451.0, "name_muni": "Teutônia" }, "geometry": { "type": "Polygon", "coordinates": [ [ [ -51.8177082, -29.498117199999989 ], [ -51.8178519, -29.498084899999984 ], [ -51.8180068, -29.4980671 ], [ -51.818154, -29.497801 ], [ -51.81842, -29.497188 ], [ -51.818627, -29.496574 ], [ -51.819518, -29.493333 ], [ -51.819735, -29.492676 ], [ -51.820056, -29.491981 ], [ -51.8204436, -29.4912361 ], [ -51.821752, -29.489457 ], [ -51.8324209, -29.4750601 ], [ -51.8178918, -29.4745907 ], [ -51.8178751, -29.474412499999985 ], [ -51.817859, -29.47424 ], [ -51.817744, -29.473764 ], [ -51.817572, -29.473239 ], [ -51.817329, -29.472671 ], [ -51.8172227, -29.4724832 ], [ -51.817092, -29.4724872 ], [ -51.8160026, -29.4724663 ], [ -51.8159031, -29.4724646 ], [ -51.8159027, -29.4725781 ], [ -51.8158555, -29.4725771 ], [ -51.8150518, -29.4725614 ], [ -51.8150264, -29.473478 ], [ -51.8149905, -29.474484899999986 ], [ -51.8139663, -29.4744874 ], [ -51.8128954, -29.4744739 ], [ -51.8120006, -29.4744743 ], [ -51.8111546, -29.4744633 ], [ -51.8095753, -29.4744454 ], [ -51.8081645, -29.4744534 ], [ -51.8069548, -29.4744588 ], [ -51.8078376, -29.477055199999985 ], [ -51.8084968, -29.4789399 ], [ -51.8081842, -29.4810406 ], [ -51.8075917, -29.482874 ], [ -51.8057741, -29.4865283 ], [ -51.805151, -29.4876192 ], [ -51.8046074, -29.4885708 ], [ -51.8045727, -29.4914799 ], [ -51.8045363, -29.4945355 ], [ -51.8096161, -29.4945374 ], [ -51.8096199, -29.4980659 ], [ -51.81627790000001, -29.4981422 ], [ -51.8177082, -29.498117199999989 ] ] ] } },
{ "type": "Feature", "properties": { "name": "Canabarro", "code_muni": 4321451.0, "name_muni": "Teutônia" }, "geometry": { "type": "Polygon", "coordinates": [ [ [ -51.7906344, -29.5167219 ], [ -51.7910206, -29.5167079 ], [ -51.7921364, -29.5170207 ], [ -51.7925978, -29.5173848 ], [ -51.7932254, -29.5181224 ], [ -51.7935687, -29.5185612 ], [ -51.793688512272652, -29.519107747322284 ], [ -51.809502242999891, -29.519072415 ], [ -51.809848285843749, -29.519338213196008 ], [ -51.8102272, -29.5194865 ], [ -51.8108187, -29.5196652 ], [ -51.8111345, -29.519822 ], [ -51.8114459, -29.5200277 ], [ -51.8117385, -29.520245 ], [ -51.812071, -29.520519 ], [ -51.8124058, -29.5207695 ], [ -51.8125542, -29.520884700000011 ], [ -51.8126779, -29.5209591 ], [ -51.8129475, -29.5212454 ], [ -51.813243, -29.521621 ], [ -51.8133619, -29.5218004 ], [ -51.8135807, -29.5220741 ], [ -51.8136509, -29.5221502 ], [ -51.813859867505599, -29.522419370053321 ], [ -51.814674499, -29.523045021999987 ], [ -51.81536768, -29.524403656999912 ], [ -51.814594578392025, -29.525462973552173 ], [ -51.8145959, -29.5255229 ], [ -51.8145995, -29.5256817 ], [ -51.8147689, -29.5256665 ], [ -51.8152279, -29.5258112 ], [ -51.8162086, -29.5258518 ], [ -51.8166756, -29.5260225 ], [ -51.8170212, -29.5261444 ], [ -51.8171426, -29.5260631 ], [ -51.8174135, -29.525543 ], [ -51.8177777, -29.525380399999989 ], [ -51.8179459, -29.5254536 ], [ -51.8180019, -29.525608 ], [ -51.8179459, -29.5259737 ], [ -51.8179552, -29.5265426 ], [ -51.8179926, -29.5268108 ], [ -51.8180579, -29.5269571 ], [ -51.8184222, -29.5270627 ], [ -51.8187958, -29.5270871 ], [ -51.8191414, -29.5270465 ], [ -51.8193469, -29.5269165 ], [ -51.8194776, -29.526697 ], [ -51.8197672, -29.5264207 ], [ -51.8197765, -29.5262257 ], [ -51.8197205, -29.52599 ], [ -51.8193749, -29.5253561 ], [ -51.8192657, -29.5247396 ], [ -51.8192578, -29.5246116 ], [ -51.8190709, -29.5244489 ], [ -51.8190152, -29.524224 ], [ -51.8193532, -29.524064899999988 ], [ -51.8200969, -29.523673800000012 ], [ -51.8205939, -29.5233866 ], [ -51.82059, -29.5230891 ], [ -51.8204985, -29.5228641 ], [ -51.820668, -29.522707 ], [ -51.8206507, -29.5224773 ], [ -51.8204066, -29.5220878 ], [ -51.8201119, -29.5216047 ], [ -51.8197552, -29.5210469 ], [ -51.8194306, -29.5205615 ], [ -51.8192321, -29.520307 ], [ -51.8190379, -29.5200777 ], [ -51.8188351, -29.5198495 ], [ -51.818618, -29.5196196 ], [ -51.8185721, -29.51956 ], [ -51.8182643, -29.5191818 ], [ -51.8180814, -29.5188879 ], [ -51.8179366, -29.5185775 ], [ -51.8178213, -29.518222699999985 ], [ -51.8176845, -29.5175412 ], [ -51.817604, -29.516883 ], [ -51.8174967, -29.5162551 ], [ -51.821106, -29.516283 ], [ -51.8205528, -29.5121727 ], [ -51.818512, -29.5121708 ], [ -51.8177147, -29.5066261 ], [ -51.8186836, -29.5066261 ], [ -51.8181942, -29.498067599999981 ], [ -51.8180068, -29.4980671 ], [ -51.8178519, -29.498084899999984 ], [ -51.8177082, -29.498117199999989 ], [ -51.81627790000001, -29.4981422 ], [ -51.8096199, -29.4980659 ], [ -51.8096161, -29.4945374 ], [ -51.8045363, -29.4945355 ], [ -51.7993889, -29.4945335 ], [ -51.7993848, -29.5000952 ], [ -51.7861061, -29.5000992 ], [ -51.7861162, -29.5012282 ], [ -51.7847322, -29.5012235 ], [ -51.7833664, -29.5011978 ], [ -51.783352590506553, -29.516498432424783 ], [ -51.788677581999899, -29.516340404999895 ], [ -51.789733406031687, -29.516923936954715 ], [ -51.7906344, -29.5167219 ] ] ] } },
{ "type": "Feature", "properties": { "name": "Boa Vista", "code_muni": 4321451.0, "name_muni": "Teutônia" }, "geometry": { "type": "Polygon", "coordinates": [ [ [ -51.7670763, -29.458658799999988 ], [ -51.7672607, -29.459143199999986 ], [ -51.7678352, -29.4597948 ], [ -51.7687993, -29.460809 ], [ -51.769, -29.4613897 ], [ -51.7690997, -29.4616781 ], [ -51.7692546, -29.462182800000011 ], [ -51.769322, -29.4626219 ], [ -51.7695236, -29.463114 ], [ -51.7695391, -29.4632014 ], [ -51.7695603, -29.463458 ], [ -51.7693296, -29.4636728 ], [ -51.768826668962134, -29.463749769909075 ], [ -51.768672683, -29.464138517 ], [ -51.767417629936951, -29.463625235759693 ], [ -51.7667214, -29.4678943 ], [ -51.7690576, -29.4672189 ], [ -51.7728478, -29.4669591 ], [ -51.7731551, -29.4674611 ], [ -51.7748409, -29.4669233 ], [ -51.7771766, -29.4683069 ], [ -51.7819761, -29.4694954 ], [ -51.7909725, -29.4704315 ], [ -51.7910531, -29.4683326 ], [ -51.7908411, -29.468265 ], [ -51.7906019, -29.4681457 ], [ -51.7897636, -29.467705599999988 ], [ -51.7891868, -29.4675983 ], [ -51.7884677, -29.4676705 ], [ -51.7878947, -29.4675184 ], [ -51.7872882, -29.467207599999984 ], [ -51.7865949, -29.4668752 ], [ -51.7851432, -29.4662289 ], [ -51.7843269, -29.4653115 ], [ -51.7829953, -29.4642288 ], [ -51.7823273, -29.4636857 ], [ -51.7814827, -29.4633417 ], [ -51.7806533, -29.4628812 ], [ -51.7801499, -29.462134099999989 ], [ -51.779860604487077, -29.461900934636184 ], [ -51.779388286, -29.462043240999897 ], [ -51.772440206999896, -29.456646154999888 ], [ -51.76908731799989, -29.455984917 ], [ -51.767030720758513, -29.458442362018982 ], [ -51.7670763, -29.458658799999988 ] ] ] } }
]
}
