{
"type": "FeatureCollection",
"name": "bairros_david_canabarro",
"crs": { "type": "name", "properties": { "name": "urn:ogc:def:crs:OGC:1.3:CRS84" } },
"features": [
{ "type": "Feature", "properties": { "code_muni": 4306304.0, "name_muni": "David Canabarro", "code_state": 43.0, "abbrev_state": "RS", "name_state": "Rio Grande do Sul", "code_region": 4.0, "name_region": "Sul", "year": 2022.0 }, "geometry": { "type": "Polygon", "coordinates": [ [ [ -51.853177000999892, -28.458449905999899 ], [ -51.855914614, -28.457799448999896 ], [ -51.859247002, -28.459100212999896 ], [ -51.860293426999895, -28.457289291999896 ], [ -51.866095997999899, -28.458491599999896 ], [ -51.8670430129999, -28.463404105999892 ], [ -51.870668662999897, -28.462776286999897 ], [ -51.878501362, -28.458480768999902 ], [ -51.884397404, -28.458130572 ], [ -51.8879967949999, -28.4608626149999 ], [ -51.888085659, -28.463326373 ], [ -51.891341691, -28.460168547 ], [ -51.89470346, -28.461557311 ], [ -51.893471362, -28.466320502 ], [ -51.900089838, -28.464160637 ], [ -51.904331791999901, -28.465877539 ], [ -51.905771897, -28.464574706 ], [ -51.906928088, -28.465654118 ], [ -51.905988565, -28.467362438 ], [ -51.909437642999897, -28.467657195999898 ], [ -51.909563057, -28.462376245 ], [ -51.907706307, -28.460676351 ], [ -51.903524623999893, -28.460569611 ], [ -51.901894607, -28.458667483999903 ], [ -51.911453609, -28.452700885 ], [ -51.911676456, -28.450038956 ], [ -51.914460214, -28.4471628209999 ], [ -51.913917985999895, -28.445916997 ], [ -51.908551584, -28.444454642 ], [ -51.909078071999907, -28.433209629 ], [ -51.911533178999896, -28.430257232 ], [ -51.911875323999894, -28.42718221 ], [ -51.910647992999891, -28.425896106 ], [ -51.90676393199989, -28.4265048409999 ], [ -51.908435437, -28.42145056 ], [ -51.905330294999892, -28.420094978 ], [ -51.902781207, -28.416737376 ], [ -51.903091683, -28.415693152 ], [ -51.905602062, -28.415519799 ], [ -51.907332386, -28.411619157 ], [ -51.898462332999898, -28.404074681999905 ], [ -51.894406008, -28.394851566999897 ], [ -51.894382393999898, -28.390729151999896 ], [ -51.88603803, -28.392406674 ], [ -51.887067025, -28.387401314999988 ], [ -51.876123951999901, -28.389265232999897 ], [ -51.872788231999891, -28.386081571 ], [ -51.874566549999891, -28.384258453 ], [ -51.879115328, -28.385868058 ], [ -51.874601880999897, -28.380645692 ], [ -51.876733429999902, -28.378858712 ], [ -51.87393933899989, -28.376056935999895 ], [ -51.872004375, -28.3795994779999 ], [ -51.866747083999897, -28.379555216 ], [ -51.863741776, -28.374321827 ], [ -51.860339333999903, -28.372926353 ], [ -51.860830026, -28.370490608999901 ], [ -51.85939336900001, -28.368205922999898 ], [ -51.85426081100001, -28.371725039 ], [ -51.849519786, -28.370942321 ], [ -51.846740758, -28.369055755 ], [ -51.848720476, -28.3671189 ], [ -51.847154321999895, -28.363884986999889 ], [ -51.851003756999894, -28.362012763999896 ], [ -51.848367501, -28.356750610999896 ], [ -51.843331098, -28.358854755 ], [ -51.84203452, -28.354714064999904 ], [ -51.83774879, -28.354309778999895 ], [ -51.834739847, -28.358000707 ], [ -51.832331286999896, -28.356537357 ], [ -51.826597482999908, -28.359556102999896 ], [ -51.826921776999896, -28.360664368999895 ], [ -51.823008683999909, -28.362937157 ], [ -51.821173816999902, -28.366104408 ], [ -51.816969404, -28.366941848999897 ], [ -51.808502816, -28.372706674 ], [ -51.795871933999898, -28.376156029999901 ], [ -51.794189984999903, -28.378588450999906 ], [ -51.785676200999895, -28.381901317 ], [ -51.740689151, -28.369219986 ], [ -51.733843481, -28.371776134999902 ], [ -51.723102297, -28.367757749 ], [ -51.722109067, -28.369641524 ], [ -51.719616846, -28.368379576999899 ], [ -51.713623783999893, -28.370552099 ], [ -51.712694153, -28.371935393999902 ], [ -51.71392353999989, -28.376556711 ], [ -51.710227851, -28.376451419 ], [ -51.704428482, -28.379406920999902 ], [ -51.7045881889999, -28.382366998999892 ], [ -51.706570628, -28.384799459999989 ], [ -51.705170535, -28.388209505 ], [ -51.707737892, -28.390450668 ], [ -51.702671839999901, -28.394286929 ], [ -51.70491686, -28.396287314999899 ], [ -51.71135983499989, -28.393487851 ], [ -51.718293011, -28.393323571999897 ], [ -51.718830536, -28.395291540999899 ], [ -51.713681257, -28.398591082999896 ], [ -51.707727991, -28.399349725 ], [ -51.709103741, -28.401439148 ], [ -51.712616457, -28.401930161999903 ], [ -51.712738289999891, -28.405522743999907 ], [ -51.715403055, -28.407388415 ], [ -51.714986215999893, -28.409878838999902 ], [ -51.716760025, -28.412505196 ], [ -51.713615821, -28.413611440999897 ], [ -51.713206699999901, -28.417211344 ], [ -51.720389124, -28.420588532 ], [ -51.721416824, -28.417932434 ], [ -51.72909987, -28.420634791999895 ], [ -51.7288201389999, -28.424173781 ], [ -51.725941100999897, -28.42657086 ], [ -51.7250180999999, -28.43192097 ], [ -51.722045658999903, -28.436375472 ], [ -51.729021028, -28.437806963 ], [ -51.735153705, -28.436963874999904 ], [ -51.739580735999901, -28.440562144 ], [ -51.740593230999892, -28.443508395 ], [ -51.743978442999897, -28.444785728999904 ], [ -51.743002642, -28.446885472 ], [ -51.745225089, -28.449119383 ], [ -51.7481843959999, -28.448774218 ], [ -51.752683143999896, -28.443810379999899 ], [ -51.755576323, -28.443880647 ], [ -51.759612397999902, -28.447127479999903 ], [ -51.760260456, -28.44932834 ], [ -51.762495364, -28.449185359999898 ], [ -51.764072419999899, -28.450628981 ], [ -51.761829677, -28.458075682999901 ], [ -51.769417625, -28.4577737339999 ], [ -51.772721998, -28.460759981 ], [ -51.776416282999897, -28.461352588 ], [ -51.770675296, -28.467306511999904 ], [ -51.762373344, -28.4697315139999 ], [ -51.760894299, -28.472592058 ], [ -51.761651378, -28.473722844 ], [ -51.771328577, -28.475054457999899 ], [ -51.771418582, -28.469255641 ], [ -51.773090156, -28.467990313 ], [ -51.777352525, -28.467966764 ], [ -51.782603162, -28.471690765999902 ], [ -51.785387897, -28.467626127999893 ], [ -51.794012666, -28.465111798 ], [ -51.812845228, -28.467697669 ], [ -51.816796784, -28.471408589 ], [ -51.823719514999901, -28.470394749 ], [ -51.826453741, -28.468437924999893 ], [ -51.829548092, -28.468242883 ], [ -51.831679529, -28.463889767 ], [ -51.835731347, -28.4606026 ], [ -51.840021174999897, -28.461165015999899 ], [ -51.844298946, -28.460109898999988 ], [ -51.845431705999907, -28.462361981 ], [ -51.85056099, -28.462878728 ], [ -51.853177000999892, -28.458449905999899 ] ] ] } }
]
}
