{
"type": "FeatureCollection",
"name": "bairros_candelaria",
"crs": { "type": "name", "properties": { "name": "urn:ogc:def:crs:OGC:1.3:CRS84" } },
"features": [
{ "type": "Feature", "properties": { "code_muni": 4304200.0, "name_muni": "Candelária", "code_state": 43.0, "abbrev_state": "RS", "name_state": "Rio Grande do Sul", "code_region": 4.0, "name_region": "Sul", "year": 2022.0 }, "geometry": { "type": "Polygon", "coordinates": [ [ [ -52.758583567, -29.608076234999899 ], [ -52.750446031, -29.611242717 ], [ -52.733766554999896, -29.613540886 ], [ -52.73848207799989, -29.617181322 ], [ -52.740139192999898, -29.620261291 ], [ -52.737923023999898, -29.624094640999896 ], [ -52.73772274, -29.628978172 ], [ -52.741236387999891, -29.633584887 ], [ -52.743284487, -29.639969080999904 ], [ -52.741559395, -29.6500456059999 ], [ -52.733989640999901, -29.654735393 ], [ -52.722047523999898, -29.655511143999902 ], [ -52.709315776, -29.662781756 ], [ -52.707484641, -29.665094756 ], [ -52.706926451, -29.667625813 ], [ -52.709744531, -29.672407855 ], [ -52.709168658999893, -29.67737512 ], [ -52.710978526, -29.681198381999891 ], [ -52.709558289, -29.685048837 ], [ -52.715055294, -29.689418444999902 ], [ -52.710992274, -29.697849892 ], [ -52.702691007999903, -29.69786899 ], [ -52.704030718, -29.699844901999903 ], [ -52.69969083, -29.702867445 ], [ -52.691926236, -29.713193084 ], [ -52.687124282999896, -29.713446845 ], [ -52.681710252, -29.709602792999906 ], [ -52.6761087, -29.7111029 ], [ -52.671886101, -29.708253555999899 ], [ -52.665040787999892, -29.7082993 ], [ -52.660643614, -29.712249925 ], [ -52.656641146, -29.7132331729999 ], [ -52.64969242, -29.720900854 ], [ -52.645452035999902, -29.722017530999889 ], [ -52.642701361, -29.7204974439999 ], [ -52.641983172, -29.722327471 ], [ -52.635203662, -29.723395201999899 ], [ -52.631497216, -29.726353409999891 ], [ -52.624483975, -29.724673369999895 ], [ -52.623251874999895, -29.72641406 ], [ -52.620342904, -29.726280051999886 ], [ -52.621798457, -29.728537589 ], [ -52.619583361, -29.729209958 ], [ -52.618953274, -29.731288816 ], [ -52.616604605, -29.729786818 ], [ -52.615845285, -29.733367944999902 ], [ -52.61227931699991, -29.733411794999899 ], [ -52.610518596, -29.737405423 ], [ -52.605766243999895, -29.737111015 ], [ -52.603183078, -29.738958136999901 ], [ -52.59928946, -29.737941034 ], [ -52.599164157, -29.739964691 ], [ -52.590292733999902, -29.7424998299999 ], [ -52.589244650999895, -29.74602809 ], [ -52.585830151, -29.745043656999904 ], [ -52.582161905, -29.746887774999895 ], [ -52.581661563999894, -29.749086884 ], [ -52.578855996, -29.748395629 ], [ -52.5787160369999, -29.751500585 ], [ -52.580115018999898, -29.751421794999892 ], [ -52.580110592, -29.752615983999885 ], [ -52.577076979, -29.754301695 ], [ -52.579634924999894, -29.754159598999902 ], [ -52.578668644999894, -29.757130305 ], [ -52.580526016, -29.758720608 ], [ -52.58019591, -29.760352376 ], [ -52.578152766, -29.760273611999892 ], [ -52.579824325999908, -29.7625781089999 ], [ -52.577209292, -29.762866613 ], [ -52.57870913499989, -29.766128995 ], [ -52.577385739, -29.767210688 ], [ -52.578854109, -29.768458586999891 ], [ -52.577424697, -29.768990732 ], [ -52.575031869999989, -29.767230455999911 ], [ -52.574172109999893, -29.770765105 ], [ -52.57609438, -29.778524866999888 ], [ -52.579582084, -29.785311941 ], [ -52.578386074, -29.788852017 ], [ -52.581135958999901, -29.788656955 ], [ -52.580816187, -29.79028161 ], [ -52.576440707, -29.791689484 ], [ -52.577948754, -29.7941780539999 ], [ -52.583192854999893, -29.792205778 ], [ -52.585224356, -29.793599451999984 ], [ -52.58712595, -29.791580388999897 ], [ -52.589645904, -29.791927496 ], [ -52.596931348999902, -29.785732557999903 ], [ -52.599133647, -29.788680159 ], [ -52.602154417999898, -29.789902751999907 ], [ -52.603521142, -29.788459573999905 ], [ -52.611834539, -29.792381474 ], [ -52.614153889, -29.790629776999907 ], [ -52.617450976, -29.790354003999894 ], [ -52.627644288999903, -29.794139424 ], [ -52.634218723999901, -29.794745986999899 ], [ -52.638539016, -29.792396639999904 ], [ -52.653219937, -29.794598129999912 ], [ -52.655634768, -29.798187411 ], [ -52.660792019, -29.800614719 ], [ -52.666877595, -29.800298284 ], [ -52.669806010999899, -29.797798563 ], [ -52.678057365, -29.798507312 ], [ -52.694774568999897, -29.792829293 ], [ -52.703672627999893, -29.7926976379999 ], [ -52.708813696999989, -29.795243803999899 ], [ -52.72348971000001, -29.7990367519999 ], [ -52.727954789, -29.803567304 ], [ -52.730696714, -29.802943306999985 ], [ -52.740966934, -29.804324182999903 ], [ -52.736875169, -29.814899146 ], [ -52.736851687999895, -29.820140518 ], [ -52.746330880999899, -29.834560161999903 ], [ -52.75492894, -29.842636916999897 ], [ -52.755974753, -29.848681234 ], [ -52.752399468, -29.865546673 ], [ -52.754280853, -29.869994205 ], [ -52.752705068, -29.875177601 ], [ -52.755035592, -29.881484793 ], [ -52.754610197, -29.885558755 ], [ -52.748935426999893, -29.896113568 ], [ -52.7413410509999, -29.904739357 ], [ -52.76530661999989, -29.907829697 ], [ -52.771622083999901, -29.905818548999896 ], [ -52.776670801, -29.907289733 ], [ -52.7876516379999, -29.904874498 ], [ -52.791139289999897, -29.905378253 ], [ -52.801378541, -29.909590269 ], [ -52.808994581, -29.919275607 ], [ -52.81709086, -29.923155869 ], [ -52.831585538999896, -29.911855647 ], [ -52.837900772, -29.921093968 ], [ -52.844255948999894, -29.926883937 ], [ -52.849842354, -29.92726292 ], [ -52.849289396, -29.923651828999898 ], [ -52.852549971, -29.9196554339999 ], [ -52.851417153999897, -29.9105279619999 ], [ -52.85858569, -29.907030811 ], [ -52.8577297799999, -29.905902189999896 ], [ -52.861537602999896, -29.902869132 ], [ -52.860911646, -29.900550041 ], [ -52.863749167, -29.900330061 ], [ -52.865505626, -29.897556118999901 ], [ -52.866416812999901, -29.890875439999903 ], [ -52.864692356, -29.887824399 ], [ -52.866667011999901, -29.886056263999894 ], [ -52.867149786, -29.882639024999886 ], [ -52.870204746999896, -29.878604287000012 ], [ -52.871293994, -29.878861663 ], [ -52.870876957, -29.874529267 ], [ -52.8784395, -29.873730496999901 ], [ -52.878144741, -29.871672267999902 ], [ -52.879374011, -29.869028936999893 ], [ -52.882565239, -29.86698673 ], [ -52.881902446, -29.865810282 ], [ -52.885280241, -29.867082745999902 ], [ -52.886090662, -29.8655967239999 ], [ -52.89139075, -29.865456418 ], [ -52.892487081999903, -29.863189791 ], [ -52.894918527, -29.862145765 ], [ -52.894126312, -29.860962881 ], [ -52.89527039099989, -29.858579364 ], [ -52.893102851, -29.8560697949999 ], [ -52.894184805, -29.854812405 ], [ -52.8919104, -29.852523823 ], [ -52.893416989999899, -29.852361460999912 ], [ -52.892942423, -29.848098077 ], [ -52.899660145, -29.846093965 ], [ -52.899267697, -29.843567699999905 ], [ -52.901506383, -29.840418384 ], [ -52.900614559, -29.83917337 ], [ -52.901966585, -29.835052382 ], [ -52.908485169, -29.829852023999901 ], [ -52.907578969, -29.828121639 ], [ -52.90511491, -29.827311057 ], [ -52.906622447, -29.825789170999908 ], [ -52.904616201, -29.822377278 ], [ -52.906354125999897, -29.821544656999905 ], [ -52.908399292, -29.817475322 ], [ -52.907344668999897, -29.814942695999907 ], [ -52.910750771, -29.813095467 ], [ -52.912355309, -29.806788068999893 ], [ -52.914313847, -29.808101307 ], [ -52.917466006, -29.805402086 ], [ -52.917185275, -29.800444857999903 ], [ -52.921908902, -29.798462880999988 ], [ -52.921331713, -29.792581344 ], [ -52.924535407, -29.789544088999893 ], [ -52.923736348, -29.785829271999905 ], [ -52.926713289, -29.78433983 ], [ -52.925023766, -29.783526891999902 ], [ -52.92696778, -29.782684832 ], [ -52.925655097999901, -29.778835057 ], [ -52.927863849999902, -29.77856703 ], [ -52.925062183, -29.776252182999901 ], [ -52.926978619, -29.775073431 ], [ -52.925664362, -29.774286097999902 ], [ -52.927486937, -29.771139204999898 ], [ -52.925501691, -29.770343722999893 ], [ -52.92401984899989, -29.766666648999902 ], [ -52.921762015, -29.766134098 ], [ -52.922459953, -29.763432731999988 ], [ -52.924118876, -29.764173285 ], [ -52.924546335999892, -29.762682965 ], [ -52.927459297, -29.761794638 ], [ -52.926274487999898, -29.760907331999903 ], [ -52.927177481999891, -29.759809644 ], [ -52.925113279, -29.758876406999899 ], [ -52.926606117999903, -29.758217398999889 ], [ -52.926441140999891, -29.756719556999897 ], [ -52.924095774, -29.754624887 ], [ -52.925288849, -29.753663071999895 ], [ -52.927404958999901, -29.755052263 ], [ -52.926411480999903, -29.749995419 ], [ -52.932081308, -29.745115177999892 ], [ -52.929430414, -29.743572899 ], [ -52.930108436, -29.738329327 ], [ -52.928477264, -29.733846452000012 ], [ -52.932189171999894, -29.730738191999901 ], [ -52.930039522, -29.7286542259999 ], [ -52.927207154, -29.7282786019999 ], [ -52.925874646999901, -29.7252819939999 ], [ -52.92603916, -29.720121763 ], [ -52.930036582, -29.718841106 ], [ -52.927485228, -29.713309758999987 ], [ -52.929124241, -29.711165149999893 ], [ -52.926292454, -29.710524976999988 ], [ -52.926800264999898, -29.704846855 ], [ -52.924908461, -29.703561543 ], [ -52.927619479, -29.700089735999899 ], [ -52.929864006999892, -29.699420799999899 ], [ -52.929133562999901, -29.696376321999903 ], [ -52.931377772, -29.691686385 ], [ -52.935652798, -29.693454936999988 ], [ -52.934171445999894, -29.69009295 ], [ -52.935273673, -29.683767648999901 ], [ -52.93399025, -29.682353546999906 ], [ -52.93208526, -29.682682724 ], [ -52.93431387, -29.678838875999904 ], [ -52.931507876, -29.67721628 ], [ -52.934493175999897, -29.674159698 ], [ -52.931651530999893, -29.669129590999891 ], [ -52.933199483, -29.665019886 ], [ -52.930485759, -29.659972067 ], [ -52.932634219, -29.657458631999905 ], [ -52.933816303999897, -29.651959806 ], [ -52.938521362, -29.651827133 ], [ -52.944396047999909, -29.646666143999898 ], [ -52.941318154, -29.642854031 ], [ -52.941964970999891, -29.639030874 ], [ -52.940666575, -29.639193643999899 ], [ -52.943352519, -29.636049704999895 ], [ -52.949356421999894, -29.633589636999901 ], [ -52.949760391, -29.630883914 ], [ -52.951433779999896, -29.629940052999899 ], [ -52.952435496, -29.620653006999895 ], [ -52.958762598, -29.615568197 ], [ -52.960224877, -29.60457704 ], [ -52.962065885999905, -29.602132385999894 ], [ -52.957805972, -29.590219549 ], [ -52.961651382999896, -29.585351643 ], [ -52.960859667, -29.581948904999894 ], [ -52.964013274, -29.580458546999989 ], [ -52.962693867, -29.578698582 ], [ -52.971860052, -29.576276794 ], [ -52.969604938, -29.575342506 ], [ -52.969770701, -29.572221865999897 ], [ -52.965609538, -29.571258526999902 ], [ -52.964393645, -29.569750508 ], [ -52.970517094999899, -29.562955461999902 ], [ -52.977314419, -29.560719772 ], [ -52.979207399, -29.558786165 ], [ -52.979734607999895, -29.556846951999901 ], [ -52.976693514, -29.555875302999898 ], [ -52.974263619999903, -29.557386503 ], [ -52.973367158, -29.556339475 ], [ -52.973157855999901, -29.554791683 ], [ -52.976190484999989, -29.551523373999895 ], [ -52.973448242, -29.547194756 ], [ -52.975485186, -29.546462645 ], [ -52.976437365, -29.544226492 ], [ -52.974381004, -29.542390226999888 ], [ -52.974793002999895, -29.539085450999902 ], [ -52.9729091889999, -29.537747544999899 ], [ -52.973675268, -29.535241148 ], [ -52.969676397999898, -29.533822802 ], [ -52.971077530999899, -29.530243343999892 ], [ -52.968973703, -29.526919087 ], [ -52.971151987, -29.526861991 ], [ -52.9715612319999, -29.524342014999899 ], [ -52.966910917, -29.520076068 ], [ -52.970970681, -29.519599672 ], [ -52.966445805, -29.516106869999895 ], [ -52.963140361999891, -29.516823454 ], [ -52.961736046382399, -29.514228669723398 ], [ -52.958630345092701, -29.514251974968001 ], [ -52.953570332574891, -29.516213499724092 ], [ -52.9515105928594, -29.519698188682497 ], [ -52.947012680646502, -29.520571580469202 ], [ -52.938555531, -29.519342036999898 ], [ -52.938530381, -29.518000276999903 ], [ -52.9336121649864, -29.516878254082695 ], [ -52.932389840768593, -29.523444540834788 ], [ -52.923240360306401, -29.514843910579096 ], [ -52.9190141072256, -29.515595559617001 ], [ -52.9168867986279, -29.518043382710093 ], [ -52.912206365161403, -29.515494867009998 ], [ -52.910459135699796, -29.517032556574705 ], [ -52.908406282902995, -29.5156937703639 ], [ -52.908004930680903, -29.517048156837696 ], [ -52.900626006258193, -29.515027213669892 ], [ -52.896996627999989, -29.516946275 ], [ -52.896503282195802, -29.514915175417098 ], [ -52.893828546185603, -29.514464185994399 ], [ -52.892001897202995, -29.511849014624897 ], [ -52.889491673057691, -29.511843341801903 ], [ -52.886723335469092, -29.508920419788705 ], [ -52.885683790667692, -29.510154258775401 ], [ -52.876973171062907, -29.510260624205205 ], [ -52.8769533161826, -29.512016362901196 ], [ -52.874857208110996, -29.512542517227704 ], [ -52.871186891676999, -29.512484370792695 ], [ -52.86918793069799, -29.509672068826493 ], [ -52.865577178904793, -29.511748322017905 ], [ -52.863532126239498, -29.509765670404803 ], [ -52.857842284843393, -29.511779522543986 ], [ -52.85620425722319, -29.510016692819299 ], [ -52.849033809043092, -29.511551191421205 ], [ -52.843990400021298, -29.508253044076099 ], [ -52.801238857674896, -29.502712578748998 ], [ -52.798204211, -29.4955049 ], [ -52.772845404, -29.495464786999896 ], [ -52.769030648999902, -29.501603243 ], [ -52.7615273279999, -29.502211042999903 ], [ -52.756756197, -29.504408149 ], [ -52.750693656, -29.503738851 ], [ -52.746319692, -29.509336442999892 ], [ -52.747371551, -29.511112576999899 ], [ -52.74423003, -29.528713571 ], [ -52.736334514, -29.547329213999905 ], [ -52.743496116, -29.550189861 ], [ -52.75112387, -29.573486806999899 ], [ -52.748456496, -29.576368092999903 ], [ -52.74218465, -29.577504957 ], [ -52.772056043, -29.580365260999908 ], [ -52.764478627999893, -29.602756854999893 ], [ -52.758583567, -29.608076234999899 ] ] ] } }
]
}
