{
"type": "FeatureCollection",
"name": "bairros_campinas_do_sul",
"crs": { "type": "name", "properties": { "name": "urn:ogc:def:crs:OGC:1.3:CRS84" } },
"features": [
{ "type": "Feature", "properties": { "code_muni": 4303806.0, "name_muni": "Campinas do Sul", "code_state": 43.0, "abbrev_state": "RS", "name_state": "Rio Grande do Sul", "code_region": 4.0, "name_region": "Sul", "year": 2022.0 }, "geometry": { "type": "Polygon", "coordinates": [ [ [ -52.669872585, -27.685005202999896 ], [ -52.642626586999903, -27.68521917 ], [ -52.641625851999891, -27.689898429 ], [ -52.632924454, -27.69158398 ], [ -52.630848121, -27.690363467999909 ], [ -52.629552761999896, -27.684898295 ], [ -52.625911959, -27.682331394999895 ], [ -52.614794232999891, -27.6827187489999 ], [ -52.604521765, -27.6805648489999 ], [ -52.603359436999902, -27.677582007999892 ], [ -52.600056563, -27.679981165 ], [ -52.5986751679999, -27.675745548 ], [ -52.601252346, -27.668873826 ], [ -52.600919973000011, -27.661544137 ], [ -52.602858522, -27.660619923999896 ], [ -52.602602289999901, -27.658293123 ], [ -52.591377397, -27.660422546999907 ], [ -52.582555026, -27.666654724 ], [ -52.585103074, -27.671783903999891 ], [ -52.581721135999892, -27.677696988 ], [ -52.576252280999896, -27.676042122999899 ], [ -52.571191997, -27.676966281 ], [ -52.575873841, -27.683413231 ], [ -52.56935334, -27.684105756 ], [ -52.565382779999901, -27.689347363 ], [ -52.561379619, -27.690008702999904 ], [ -52.559212374, -27.701794763 ], [ -52.56104985799989, -27.706801470999896 ], [ -52.559596713, -27.714912867999892 ], [ -52.564326039, -27.719192604999893 ], [ -52.566080639999903, -27.724060347 ], [ -52.565789660999897, -27.728470200999901 ], [ -52.574231692999895, -27.743826079 ], [ -52.57334205, -27.756750538999896 ], [ -52.58449409, -27.767401498 ], [ -52.582971332999897, -27.772562962999899 ], [ -52.579293309, -27.775616294 ], [ -52.587610884, -27.779255439999908 ], [ -52.589662382, -27.782884446 ], [ -52.595184957, -27.78678423 ], [ -52.595264740999902, -27.801967046999899 ], [ -52.578514551999895, -27.801244476 ], [ -52.57320743, -27.803216198 ], [ -52.574344926, -27.805562923 ], [ -52.577390083999902, -27.806697745999902 ], [ -52.583349982999891, -27.81324426 ], [ -52.583879683, -27.816539243 ], [ -52.588873698, -27.816289909 ], [ -52.591472845999903, -27.819693511 ], [ -52.593844296, -27.8288050039999 ], [ -52.598581441, -27.830181255999896 ], [ -52.60423581, -27.83802845 ], [ -52.605846444, -27.83782909 ], [ -52.605229689999895, -27.83906073 ], [ -52.610714276, -27.837196971 ], [ -52.613533101, -27.8384243849999 ], [ -52.617642206, -27.837259296 ], [ -52.619229699999892, -27.837521493999908 ], [ -52.622036668, -27.841382259999897 ], [ -52.631718426, -27.841829537 ], [ -52.640093236, -27.849552499 ], [ -52.645535901999892, -27.852689891999894 ], [ -52.647938661999895, -27.851998680999891 ], [ -52.650822542, -27.855270244999904 ], [ -52.653516845, -27.856189673 ], [ -52.6554403499999, -27.85513363 ], [ -52.6564586759999, -27.851135757 ], [ -52.654064589, -27.845358167 ], [ -52.660645234, -27.833756845 ], [ -52.661826564, -27.833778322999901 ], [ -52.666084616, -27.840137841999894 ], [ -52.668357567, -27.841091015 ], [ -52.669544269, -27.84006998 ], [ -52.672836872999902, -27.823440712999989 ], [ -52.672536785, -27.811905708 ], [ -52.678929872, -27.804902136999896 ], [ -52.675934218999899, -27.800840234 ], [ -52.676494388, -27.796801473 ], [ -52.680012303999902, -27.795914818 ], [ -52.699697715, -27.799478619 ], [ -52.702997460999896, -27.799521361 ], [ -52.705065422, -27.797918486 ], [ -52.7057096569999, -27.793633048999894 ], [ -52.696836439, -27.785732761 ], [ -52.701782223999899, -27.777182545999903 ], [ -52.710308067, -27.771543763999897 ], [ -52.708046719, -27.766735273999899 ], [ -52.714631888, -27.763568228999905 ], [ -52.716064386, -27.761194374999896 ], [ -52.715518916999898, -27.747992231 ], [ -52.709229324, -27.735859627 ], [ -52.710743679, -27.736023341 ], [ -52.718233596999895, -27.745846183 ], [ -52.7301028649999, -27.744168113999908 ], [ -52.730675864, -27.751944532 ], [ -52.7346459299999, -27.750757604999905 ], [ -52.734441287, -27.743431401 ], [ -52.745983128, -27.747524251999899 ], [ -52.747129125999891, -27.746664753999905 ], [ -52.747456553999896, -27.736841910999896 ], [ -52.751754048, -27.725545641999897 ], [ -52.745528405, -27.716680266 ], [ -52.740020768, -27.717213263 ], [ -52.739398938, -27.715347774 ], [ -52.73996674499989, -27.713916965 ], [ -52.75005888, -27.712593954999907 ], [ -52.750947208999897, -27.710461967 ], [ -52.751542173, -27.706987136999896 ], [ -52.744939734999903, -27.704070020999904 ], [ -52.748329167, -27.69637655 ], [ -52.74660755, -27.691104101 ], [ -52.750573839, -27.689853712999899 ], [ -52.753136894, -27.691002857999901 ], [ -52.757707307, -27.697174957999895 ], [ -52.760253917999897, -27.697198677 ], [ -52.760952436, -27.695946235999905 ], [ -52.760054222, -27.690915163999897 ], [ -52.755524334, -27.689226066999897 ], [ -52.752706719999892, -27.683358421 ], [ -52.755063532999891, -27.678327951 ], [ -52.755594797, -27.672643423999901 ], [ -52.750760294, -27.664993221 ], [ -52.752872437999891, -27.658148298 ], [ -52.750675128, -27.654896278999985 ], [ -52.746708595, -27.654086634 ], [ -52.745401582999897, -27.652435291 ], [ -52.747332114, -27.650137679999897 ], [ -52.746456291999898, -27.646985962 ], [ -52.755157641, -27.637493581999902 ], [ -52.758069438999904, -27.630474496 ], [ -52.75805809, -27.626419138 ], [ -52.754718179, -27.624837075 ], [ -52.743591, -27.627829553 ], [ -52.739434205999899, -27.626513234999901 ], [ -52.734502925, -27.632395822 ], [ -52.7217563459999, -27.63398217 ], [ -52.708935389, -27.6420625 ], [ -52.70017210799989, -27.645025852999893 ], [ -52.694382786999896, -27.649780625999895 ], [ -52.691286971999901, -27.650778237999901 ], [ -52.690628155999896, -27.657078945 ], [ -52.686285644999892, -27.6626383 ], [ -52.679951419, -27.666552652 ], [ -52.669608466999897, -27.670241511 ], [ -52.669872585, -27.685005202999896 ] ] ] } }
]
}
