{
"type": "FeatureCollection",
"name": "bairros_pinheiro_machado",
"crs": { "type": "name", "properties": { "name": "urn:ogc:def:crs:OGC:1.3:CRS84" } },
"features": [
{ "type": "Feature", "properties": { "code_muni": 4314506.0, "name_muni": "Pinheiro Machado", "code_state": 43.0, "abbrev_state": "RS", "name_state": "Rio Grande do Sul", "code_region": 4.0, "name_region": "Sul", "year": 2022.0 }, "geometry": { "type": "Polygon", "coordinates": [ [ [ -53.447549807, -31.82712099 ], [ -53.4497801649999, -31.822053373 ], [ -53.449583103999899, -31.816990567999898 ], [ -53.452330565, -31.816404507999895 ], [ -53.452802604999903, -31.814626330999907 ], [ -53.45207354, -31.803585719 ], [ -53.458556898, -31.796290597999906 ], [ -53.4592766439999, -31.793823543 ], [ -53.465034085, -31.790254965 ], [ -53.464995081, -31.788410555 ], [ -53.46066272600001, -31.785337775 ], [ -53.467511714999901, -31.782245353999901 ], [ -53.468119972999901, -31.777613373999895 ], [ -53.470987175999895, -31.777094134 ], [ -53.473001871999898, -31.775172561 ], [ -53.474055353, -31.770904022 ], [ -53.482130447, -31.768584217999894 ], [ -53.481480899, -31.76618179 ], [ -53.477978656999902, -31.764435960999911 ], [ -53.477583287, -31.758525506999899 ], [ -53.480376559, -31.758843554999899 ], [ -53.48432390499989, -31.762524658 ], [ -53.488254501, -31.762400722999899 ], [ -53.4876520729999, -31.757363343 ], [ -53.493958365, -31.75375594 ], [ -53.497649469999899, -31.753737177999898 ], [ -53.499541462, -31.750883087 ], [ -53.498167177, -31.748161341 ], [ -53.500154925999894, -31.746317675999901 ], [ -53.49950097899989, -31.742515656 ], [ -53.503261273, -31.737160805 ], [ -53.498368382, -31.736875598 ], [ -53.49964355, -31.730128519999912 ], [ -53.497840255, -31.730117822 ], [ -53.497588397, -31.72731751 ], [ -53.501293796, -31.721280690999901 ], [ -53.496861181, -31.719541655999898 ], [ -53.501320601, -31.708191422 ], [ -53.498043552999903, -31.704729004999894 ], [ -53.501407368999892, -31.701437836 ], [ -53.498339417999901, -31.697582134999902 ], [ -53.501639444, -31.694136487 ], [ -53.498930397, -31.6926252 ], [ -53.499279336, -31.691089820999895 ], [ -53.495779037, -31.685344788 ], [ -53.499163493, -31.683788904 ], [ -53.499388837, -31.674224771 ], [ -53.5052702099999, -31.672434089 ], [ -53.508325332, -31.67362101 ], [ -53.509982732, -31.672890573 ], [ -53.513690542999896, -31.667228504 ], [ -53.516108684, -31.6592599059999 ], [ -53.518011880999893, -31.657580309 ], [ -53.51803399499989, -31.652605545 ], [ -53.5364340369999, -31.644690115999897 ], [ -53.541885726, -31.645077753 ], [ -53.543665302, -31.643996487 ], [ -53.547688915, -31.645819931999895 ], [ -53.553575302, -31.640863298999893 ], [ -53.558704696999889, -31.638924099 ], [ -53.5621679939999, -31.639753106999905 ], [ -53.565193005, -31.638274475999904 ], [ -53.565948404, -31.636326324 ], [ -53.569267356, -31.63667486 ], [ -53.576010531999891, -31.633469673 ], [ -53.580881554, -31.633947507 ], [ -53.583561865999989, -31.638275286 ], [ -53.592742529, -31.637808876999895 ], [ -53.594939912, -31.636718303 ], [ -53.598672552, -31.637969246999898 ], [ -53.60120998, -31.635732466 ], [ -53.604886525, -31.635550897 ], [ -53.606089117999893, -31.631840746 ], [ -53.609949006, -31.627847422999903 ], [ -53.611879751999901, -31.622326686999905 ], [ -53.610192766, -31.619185768 ], [ -53.613298401999899, -31.615958416999892 ], [ -53.612812891, -31.613584139999904 ], [ -53.616829571, -31.608875887999897 ], [ -53.622768913, -31.604972249999904 ], [ -53.612660031, -31.602140802 ], [ -53.609705888999898, -31.596185803 ], [ -53.602630967, -31.590082703 ], [ -53.60048368, -31.590330333999901 ], [ -53.596210809, -31.593846812 ], [ -53.591562709999906, -31.594658148999901 ], [ -53.58875341999989, -31.591583692 ], [ -53.590824833999896, -31.586530866 ], [ -53.587305313999899, -31.580918046 ], [ -53.593819045, -31.57610219 ], [ -53.595478477, -31.573123166 ], [ -53.599381224999895, -31.572435606999896 ], [ -53.600673492999903, -31.566817388999901 ], [ -53.597918675, -31.563444773999905 ], [ -53.59828164399989, -31.55936675 ], [ -53.593156494, -31.556673787 ], [ -53.59156415199989, -31.554459123999905 ], [ -53.585745255999896, -31.554422367 ], [ -53.583798801999897, -31.548038004 ], [ -53.581257047999898, -31.548857625 ], [ -53.579383946999897, -31.548047908999905 ], [ -53.578676421999894, -31.545426542 ], [ -53.58222208, -31.542871443 ], [ -53.578975815, -31.540196663 ], [ -53.576275245, -31.535181442 ], [ -53.578156473, -31.534120743 ], [ -53.580377768999902, -31.534944245999988 ], [ -53.581878245, -31.533302337 ], [ -53.584588702, -31.534475487999906 ], [ -53.586131322, -31.537822836 ], [ -53.588517563, -31.536368597 ], [ -53.588812554, -31.53393268 ], [ -53.585055183, -31.525425781 ], [ -53.588224366, -31.523034324 ], [ -53.588456146999896, -31.5186772009999 ], [ -53.585373628, -31.515783946999893 ], [ -53.58529858, -31.512514397 ], [ -53.587944588, -31.51121432 ], [ -53.589196652999902, -31.508003148999908 ], [ -53.586676322, -31.504451550999896 ], [ -53.58788670900001, -31.492971817 ], [ -53.595058361, -31.488646735 ], [ -53.594206175, -31.484182426 ], [ -53.595994451, -31.479484763999892 ], [ -53.603785593999902, -31.474154627 ], [ -53.604781223, -31.470616904999904 ], [ -53.601538763999898, -31.460519269 ], [ -53.596644001999891, -31.456116272 ], [ -53.597140674999899, -31.454870526 ], [ -53.581955096999899, -31.4502484 ], [ -53.573023908, -31.442423936 ], [ -53.566862478, -31.423446468 ], [ -53.565965208, -31.415022485999895 ], [ -53.560933152, -31.407537691999895 ], [ -53.561484526, -31.404297278999898 ], [ -53.560012612, -31.400637769 ], [ -53.561324696, -31.391634159 ], [ -53.566178201999897, -31.393412971 ], [ -53.576792452999889, -31.388457356999911 ], [ -53.583240030999903, -31.389273945 ], [ -53.585707322, -31.386944226 ], [ -53.585705764999901, -31.383706415999892 ], [ -53.588227831, -31.382750411 ], [ -53.593904968999901, -31.385902601999899 ], [ -53.599372356999893, -31.38679103 ], [ -53.615502949, -31.385297260999891 ], [ -53.62605317, -31.375711515 ], [ -53.6285538079999, -31.370957652999891 ], [ -53.627966941999901, -31.36703449 ], [ -53.625737989, -31.364259171999898 ], [ -53.626300686, -31.362839417 ], [ -53.629819174, -31.358681929999893 ], [ -53.637857062, -31.353305179 ], [ -53.640228989, -31.349747529 ], [ -53.640782720999901, -31.343692796 ], [ -53.650794913, -31.338126813 ], [ -53.646836929999893, -31.3357701269999 ], [ -53.641083437, -31.334790031999898 ], [ -53.636108999, -31.329355572999901 ], [ -53.631815441999898, -31.329180085 ], [ -53.629756761999893, -31.3330271049999 ], [ -53.625228351, -31.333478445 ], [ -53.622927698999902, -31.330718191 ], [ -53.620590512, -31.331074773 ], [ -53.617091371, -31.329053135 ], [ -53.620180413, -31.32618162499989 ], [ -53.6214074439999, -31.322019344999891 ], [ -53.624977133, -31.318923653999899 ], [ -53.623722818, -31.316522715 ], [ -53.619641736999895, -31.314863808 ], [ -53.618748036999897, -31.312959937 ], [ -53.615424338, -31.313953849 ], [ -53.612125873, -31.310311044999906 ], [ -53.606492934999892, -31.311617005999892 ], [ -53.602388264999902, -31.306441844999892 ], [ -53.602311852, -31.301375591 ], [ -53.606581440999904, -31.300430913 ], [ -53.607241801, -31.298991682999901 ], [ -53.604777372999898, -31.295781444999893 ], [ -53.603120024, -31.287489588 ], [ -53.605601307, -31.284820357999902 ], [ -53.598465893, -31.282155657 ], [ -53.596431961, -31.279131490999905 ], [ -53.5947958739999, -31.282804333999902 ], [ -53.590049747, -31.284089832999896 ], [ -53.591520401, -31.282299715 ], [ -53.590881512, -31.281170293999899 ], [ -53.581920415, -31.278781148999894 ], [ -53.586066081999903, -31.273322677 ], [ -53.584813267, -31.271898124 ], [ -53.578513368, -31.274376812 ], [ -53.574323030999899, -31.272604273 ], [ -53.570239108999907, -31.273566548 ], [ -53.568799487, -31.272170076999899 ], [ -53.569626436999989, -31.270200369999891 ], [ -53.573610887, -31.267743316 ], [ -53.5675931, -31.26476945 ], [ -53.567466110999902, -31.257849552 ], [ -53.562712386, -31.2520909899999 ], [ -53.562039762, -31.248607314 ], [ -53.559392655, -31.247589929999894 ], [ -53.558407824, -31.243779573 ], [ -53.563217736, -31.241518669 ], [ -53.561672664, -31.239669896999903 ], [ -53.5547798979999, -31.236831339999984 ], [ -53.555127207999895, -31.232828039 ], [ -53.551452314999899, -31.22973884 ], [ -53.548585996, -31.229485293 ], [ -53.548722686, -31.233189036999896 ], [ -53.552333077999904, -31.237500183 ], [ -53.550238341, -31.240064231 ], [ -53.544728548, -31.242432205999897 ], [ -53.536304035999891, -31.239268852999892 ], [ -53.535157921999897, -31.247592977999901 ], [ -53.536767727, -31.250940372999899 ], [ -53.53352841, -31.251694383 ], [ -53.52932890999989, -31.248328473999898 ], [ -53.530073946999899, -31.242034949999908 ], [ -53.524465667999898, -31.229152145999898 ], [ -53.526184239, -31.225290178 ], [ -53.520036392, -31.21605883 ], [ -53.520854877, -31.214828059999892 ], [ -53.524525185999899, -31.215375612999892 ], [ -53.52759794299989, -31.208415117 ], [ -53.526000665, -31.206758733999894 ], [ -53.52043636, -31.205844313999894 ], [ -53.51729941299989, -31.203455129999984 ], [ -53.515014843999893, -31.198764685 ], [ -53.515216715, -31.191480651999893 ], [ -53.506208431999902, -31.182584147999901 ], [ -53.504021893999898, -31.174982477999901 ], [ -53.504441278999899, -31.173210916999903 ], [ -53.505854335, -31.1729944759999 ], [ -53.510567862, -31.177801680999899 ], [ -53.517171789, -31.179198442 ], [ -53.521711916999891, -31.178186298999904 ], [ -53.521646674, -31.176557187 ], [ -53.515971873999895, -31.172147225999904 ], [ -53.517159519, -31.167970376 ], [ -53.5151939839999, -31.165674813 ], [ -53.51051991, -31.169176428 ], [ -53.507795539999989, -31.164360601999892 ], [ -53.502528818, -31.16541455 ], [ -53.501632269, -31.16436305 ], [ -53.503708923, -31.158554573999904 ], [ -53.501937196, -31.155797771 ], [ -53.49632003499989, -31.156161946999902 ], [ -53.492940390999905, -31.154074261999902 ], [ -53.490748082, -31.154732133 ], [ -53.488879873, -31.153816495999905 ], [ -53.488799742, -31.151550547999904 ], [ -53.4920836209999, -31.149536017999896 ], [ -53.49274414, -31.143463262999909 ], [ -53.496618735, -31.142705513999893 ], [ -53.495733752, -31.139124116999884 ], [ -53.499018785, -31.132191206 ], [ -53.493986487, -31.1320669159999 ], [ -53.492603497999895, -31.133441423000011 ], [ -53.48632903299989, -31.129931519 ], [ -53.480689154999901, -31.122029687 ], [ -53.485169017, -31.119707162999909 ], [ -53.485253692, -31.118198578 ], [ -53.481107790999893, -31.115612360999897 ], [ -53.480491608, -31.113641872999903 ], [ -53.48543518199989, -31.112734524 ], [ -53.48778781, -31.110549503999898 ], [ -53.492976569999897, -31.11198695 ], [ -53.49530548500001, -31.106519578 ], [ -53.49673204, -31.10614364 ], [ -53.49595142, -31.104097719 ], [ -53.48210753099989, -31.101778097 ], [ -53.486464154, -31.0970450619999 ], [ -53.4865716589999, -31.084070309999987 ], [ -53.482675307, -31.085207405999896 ], [ -53.478544972, -31.088680340999897 ], [ -53.478616717, -31.091472106 ], [ -53.474555467, -31.088790414999899 ], [ -53.475826283999901, -31.083912532999904 ], [ -53.48781295, -31.079490725 ], [ -53.489555235, -31.077223859999908 ], [ -53.486862377, -31.070335029 ], [ -53.481398426999903, -31.070609009999899 ], [ -53.479245197999894, -31.068856896999904 ], [ -53.481764249, -31.0651763289999 ], [ -53.486500298, -31.063420261 ], [ -53.487917094, -31.057906048999904 ], [ -53.486902072, -31.057084862999901 ], [ -53.481820866, -31.060337676999886 ], [ -53.478309931999895, -31.060135021999898 ], [ -53.475091183, -31.058623852 ], [ -53.474360458, -31.055467712999903 ], [ -53.477943251999896, -31.053797444999894 ], [ -53.480088586, -31.049806020999892 ], [ -53.480542838, -31.044674928999896 ], [ -53.48416142, -31.047539566 ], [ -53.486486807999903, -31.04739912 ], [ -53.485709875999895, -31.040896663999895 ], [ -53.483644376, -31.038524437 ], [ -53.489321007999898, -31.038683217 ], [ -53.490848305, -31.037495986999904 ], [ -53.489380631999893, -31.035558235999893 ], [ -53.48522221799989, -31.034574838 ], [ -53.481250835, -31.035238096999898 ], [ -53.4765407639999, -31.033250149 ], [ -53.482676468, -31.027869565999897 ], [ -53.481739483, -31.026823164999897 ], [ -53.479281016999892, -31.028028183999904 ], [ -53.475678908, -31.027478753 ], [ -53.473509147999899, -31.032733634999893 ], [ -53.471467225, -31.032057854999906 ], [ -53.470472139, -31.02808615 ], [ -53.471910715, -31.025526027 ], [ -53.4684340169999, -31.025238468999895 ], [ -53.463651318, -31.029057335999894 ], [ -53.460740303, -31.027620145 ], [ -53.464067048999894, -31.023086426 ], [ -53.469300381, -31.0202903869999 ], [ -53.467579706, -31.018021238 ], [ -53.46604544, -31.018208818999895 ], [ -53.462467537, -31.022380773 ], [ -53.458857270999893, -31.02221687 ], [ -53.450675122, -31.016630881999987 ], [ -53.446572504999892, -31.016168705 ], [ -53.446134607, -31.01492576 ], [ -53.45149334, -31.012189604 ], [ -53.455653734, -31.016279467999894 ], [ -53.458259835, -31.016374309 ], [ -53.463482192999891, -31.013071566 ], [ -53.45747254, -31.006161943999899 ], [ -53.452702132999896, -31.006454786999907 ], [ -53.450713951, -31.005477662 ], [ -53.45419338499989, -30.999084122999896 ], [ -53.458730831, -30.994366219 ], [ -53.450648309, -30.995740027 ], [ -53.447284184, -30.991743600999904 ], [ -53.44471391, -30.992630008999988 ], [ -53.438075999, -30.992076373 ], [ -53.436970168999892, -30.985335855999896 ], [ -53.441760441, -30.986493994999901 ], [ -53.443635839, -30.98824103 ], [ -53.44590614, -30.987973892 ], [ -53.44606607, -30.986024578 ], [ -53.441377514, -30.979981214 ], [ -53.444487552999902, -30.979474202999896 ], [ -53.448567141999895, -30.982574523 ], [ -53.449961932, -30.98178766 ], [ -53.447777652, -30.972051775999898 ], [ -53.44123239999989, -30.973982661 ], [ -53.438821565999909, -30.976853923 ], [ -53.432844450999895, -30.976271326 ], [ -53.433799371, -30.9700277499999 ], [ -53.429769929, -30.967112085999901 ], [ -53.432755345, -30.960357932 ], [ -53.434705156999897, -30.959664760999903 ], [ -53.439785206, -30.9647486 ], [ -53.443145342, -30.964168739999902 ], [ -53.442996685, -30.959664683 ], [ -53.439919018, -30.952400634999893 ], [ -53.438974175999896, -30.950753189999901 ], [ -53.435738637, -30.949796573 ], [ -53.433375920999893, -30.950798221999907 ], [ -53.432598834, -30.953724335999905 ], [ -53.427824697999903, -30.955769648999901 ], [ -53.416598493031692, -30.965867464524401 ], [ -53.414622546551392, -30.974153856261697 ], [ -53.412391529527099, -30.975419006159598 ], [ -53.404725809446795, -30.9752557610115 ], [ -53.400984774802396, -30.982084849707793 ], [ -53.38955761443421, -30.9872814869228 ], [ -53.385241820830096, -30.988073906078995 ], [ -53.381504187126993, -30.984914432275094 ], [ -53.3687914712173, -30.979636172486003 ], [ -53.359649742922691, -30.978874361794809 ], [ -53.356384839960391, -30.983737706832503 ], [ -53.356252203276796, -30.986342827320797 ], [ -53.348897914, -30.987254391 ], [ -53.344427132860794, -30.996844931850102 ], [ -53.327926619373699, -30.995998947879411 ], [ -53.326889332494993, -30.994393703922899 ], [ -53.327311049127701, -30.988285614630801 ], [ -53.326277163189594, -30.986721181961403 ], [ -53.323107486563593, -30.985823333646696 ], [ -53.307490367393797, -30.998474832625785 ], [ -53.297328356923501, -31.003331375782295 ], [ -53.285451782391, -30.999919201915699 ], [ -53.2861188567528, -30.994189647487701 ], [ -53.2809222195377, -30.992421158383099 ], [ -53.278904611534308, -30.994760155270601 ], [ -53.281724841515995, -31.000882698560492 ], [ -53.278582372414689, -31.005888883102791 ], [ -53.272459829124202, -31.006600529919996 ], [ -53.269182172635603, -31.009058559728697 ], [ -53.261713707109301, -31.010527766061788 ], [ -53.259809180381197, -31.009480276361408 ], [ -53.259972425529398, -31.002936866674396 ], [ -53.25413641148419, -30.999712774999004 ], [ -53.248518057636502, -30.998733304110296 ], [ -53.244314495072494, -31.000991528659306 ], [ -53.238396858453193, -31.009249012401504 ], [ -53.234751050145292, -31.009357842500293 ], [ -53.227840338874991, -30.994026402339586 ], [ -53.225516646218502, -30.991078637086503 ], [ -53.223067968996801, -30.990507279068098 ], [ -53.216794083852399, -30.995182722138807 ], [ -53.2066456771445, -31.008725267551405 ], [ -53.203775283290092, -31.009269418045101 ], [ -53.198966353301799, -31.006861552110397 ], [ -53.186144807293502, -31.014738130506998 ], [ -53.165460286650791, -31.023961481375608 ], [ -53.167453237834103, -31.024427410235898 ], [ -53.166946497686801, -31.026155088053393 ], [ -53.168837420652501, -31.026433965181507 ], [ -53.174899944999893, -31.034913141999901 ], [ -53.174416902, -31.038694473 ], [ -53.178227572, -31.043232858999897 ], [ -53.179745884999896, -31.049663220999893 ], [ -53.178698985, -31.052870067 ], [ -53.1829475649999, -31.053210002999904 ], [ -53.183997585, -31.056005354 ], [ -53.189105013, -31.053061251 ], [ -53.19109499, -31.062669164999896 ], [ -53.197816153, -31.060592546999892 ], [ -53.201853501, -31.06632668299989 ], [ -53.199694485, -31.071140327 ], [ -53.201458633, -31.073204006 ], [ -53.198170699999892, -31.075655739999888 ], [ -53.198077043999902, -31.078323904999895 ], [ -53.192258723, -31.079818132 ], [ -53.193523748, -31.081913964 ], [ -53.192364716, -31.086121321999897 ], [ -53.195169161, -31.089368583999896 ], [ -53.199750558999895, -31.091840363999896 ], [ -53.203718761999902, -31.1026373 ], [ -53.206936707, -31.103280353999899 ], [ -53.2106085, -31.106467678999898 ], [ -53.218289004, -31.107252246 ], [ -53.222869419999896, -31.110664798 ], [ -53.219863352999901, -31.114578947 ], [ -53.223699027, -31.119504865999897 ], [ -53.224466457999903, -31.124662069 ], [ -53.231736838, -31.12800479 ], [ -53.229659926999901, -31.141476751 ], [ -53.232102794999896, -31.143618925999899 ], [ -53.238119895999901, -31.144690942 ], [ -53.235710127999894, -31.152128183999899 ], [ -53.238830913999891, -31.157157632 ], [ -53.241504414, -31.157545892 ], [ -53.240723358, -31.155401076 ], [ -53.242522799, -31.152010598999897 ], [ -53.248716542999894, -31.151378568 ], [ -53.251345312999902, -31.152638501999903 ], [ -53.254739477, -31.151120441999989 ], [ -53.258483525, -31.145327473 ], [ -53.25832531, -31.142615435 ], [ -53.252775291, -31.140005715 ], [ -53.251070209, -31.137070934999901 ], [ -53.255999688, -31.138009521 ], [ -53.267181476, -31.131266018 ], [ -53.269974755, -31.132637443 ], [ -53.269328053, -31.135613679 ], [ -53.263509837, -31.140450843999893 ], [ -53.263471715, -31.142262555999899 ], [ -53.271243699, -31.145638402 ], [ -53.270567125, -31.151823448999899 ], [ -53.27563943, -31.156446382999896 ], [ -53.280318469999898, -31.157517925 ], [ -53.280021878, -31.15582339 ], [ -53.282444891999894, -31.152028163999901 ], [ -53.284674853, -31.15198916 ], [ -53.29149957, -31.157430209 ], [ -53.300224066999895, -31.161942352 ], [ -53.303289541, -31.162280053 ], [ -53.307107899999892, -31.165243578999899 ], [ -53.315619802, -31.166552673999892 ], [ -53.317774567999898, -31.17456222 ], [ -53.315113184, -31.176901162 ], [ -53.315655181999894, -31.179138065 ], [ -53.321638671, -31.183305876 ], [ -53.325914934, -31.183882110999896 ], [ -53.326443851, -31.178376037 ], [ -53.33114331, -31.179162651999903 ], [ -53.33194982, -31.176204976999895 ], [ -53.33443856, -31.175090483 ], [ -53.338728911, -31.175710556999896 ], [ -53.337323133, -31.179640155999898 ], [ -53.338992869, -31.181505768 ], [ -53.344098918, -31.18285228 ], [ -53.344804074, -31.186789088999905 ], [ -53.346782549999894, -31.188041070999901 ], [ -53.351511601, -31.186273797 ], [ -53.354344614, -31.188077425 ], [ -53.354837750999899, -31.191011096999912 ], [ -53.353356941999891, -31.192305116999901 ], [ -53.345364446, -31.193629293999901 ], [ -53.34595866, -31.195713011999903 ], [ -53.351403196, -31.196631652 ], [ -53.350950159, -31.200746567999889 ], [ -53.345168386, -31.202749266999891 ], [ -53.342228014999897, -31.201865735 ], [ -53.34103834, -31.203042045 ], [ -53.34332598, -31.2075813 ], [ -53.341347149999891, -31.21117429 ], [ -53.343351566, -31.212383164999899 ], [ -53.347017523, -31.212336888 ], [ -53.345373374, -31.218081771999898 ], [ -53.34822882, -31.220253623 ], [ -53.346856945999896, -31.222719680999898 ], [ -53.341214422, -31.223959880999892 ], [ -53.337972263, -31.226984445 ], [ -53.339596755999892, -31.229135712999899 ], [ -53.344770814, -31.227689371999897 ], [ -53.347707651, -31.229359289999884 ], [ -53.347358986, -31.237633361999901 ], [ -53.349233022, -31.241721251999898 ], [ -53.350923619999904, -31.241647725 ], [ -53.350926559, -31.243980953999898 ], [ -53.353274465, -31.24697176 ], [ -53.352734959, -31.249882178999901 ], [ -53.350917749, -31.249566371000011 ], [ -53.348291204, -31.251227006999986 ], [ -53.347985488999903, -31.254770818999887 ], [ -53.3466162779999, -31.255707252 ], [ -53.352077365999897, -31.262544219999899 ], [ -53.35325700499989, -31.269088913 ], [ -53.360240921, -31.274841892 ], [ -53.366399642, -31.284139387 ], [ -53.364609045, -31.2872682359999 ], [ -53.365597298, -31.290566839 ], [ -53.386565651, -31.31482411 ], [ -53.382869723999903, -31.319345623999897 ], [ -53.379058616, -31.319590601999899 ], [ -53.379950564, -31.323280941999897 ], [ -53.378268796, -31.329146820999899 ], [ -53.381449965999892, -31.336276294 ], [ -53.38418429099989, -31.335606711 ], [ -53.386969134, -31.337512204999893 ], [ -53.385016733, -31.352857513999904 ], [ -53.38052633, -31.356799706999908 ], [ -53.383823606, -31.358055676999989 ], [ -53.387578506999901, -31.362827497000012 ], [ -53.387577241, -31.366589255999902 ], [ -53.383902631, -31.368822767 ], [ -53.38321948, -31.372187122 ], [ -53.379258945999894, -31.371331971 ], [ -53.377521504999891, -31.373060580999901 ], [ -53.375099689, -31.370971767 ], [ -53.36948280099989, -31.376073291999901 ], [ -53.37048306, -31.377727749 ], [ -53.368049143999897, -31.383419282 ], [ -53.362898671, -31.388099815 ], [ -53.364445101999891, -31.393583705 ], [ -53.362085935, -31.394635306999891 ], [ -53.356735422, -31.390119922999894 ], [ -53.355727499999901, -31.390836367 ], [ -53.353722527999899, -31.395279757 ], [ -53.355871185, -31.398588738999905 ], [ -53.3513472079999, -31.399574232 ], [ -53.3504126939999, -31.401214525999901 ], [ -53.344623124, -31.402865259999892 ], [ -53.33807982, -31.407599864 ], [ -53.329987552, -31.410893862 ], [ -53.322280647999897, -31.410387982 ], [ -53.31490697, -31.413819195 ], [ -53.316067319999902, -31.412174062 ], [ -53.312737684999895, -31.410893631 ], [ -53.308316933, -31.415583039999905 ], [ -53.306247562, -31.413536330999893 ], [ -53.303508398, -31.415331534 ], [ -53.298877789999892, -31.412794577999904 ], [ -53.296319457, -31.412890586999886 ], [ -53.295464146, -31.411385175 ], [ -53.291842217, -31.411397684999898 ], [ -53.287124967, -31.415657227999908 ], [ -53.284634849, -31.416037471999985 ], [ -53.280690969, -31.420591486 ], [ -53.277815544, -31.429190643 ], [ -53.288441425, -31.443544002 ], [ -53.288634223, -31.456036813 ], [ -53.291590452, -31.464178995999898 ], [ -53.286909076, -31.480005051 ], [ -53.288683927, -31.487033206 ], [ -53.286758114, -31.490054545 ], [ -53.284028277999901, -31.487377916999904 ], [ -53.282105475, -31.490811350999895 ], [ -53.2772871889999, -31.489146462999891 ], [ -53.27298748, -31.49094387100001 ], [ -53.269352964999889, -31.489878825999899 ], [ -53.265391555, -31.495232127 ], [ -53.260478984, -31.494856624 ], [ -53.259799246999897, -31.497367070999907 ], [ -53.257171050999894, -31.499345849 ], [ -53.253726556999901, -31.497397643999889 ], [ -53.250388199, -31.497995908 ], [ -53.24897442199989, -31.503278802999912 ], [ -53.245560076999901, -31.50413352 ], [ -53.240078324, -31.503280401 ], [ -53.234147543999903, -31.500058801 ], [ -53.232239078, -31.501352348 ], [ -53.23349658, -31.509142875 ], [ -53.230219156, -31.510202718999896 ], [ -53.226108372999903, -31.50800807 ], [ -53.220240933999889, -31.508083380999899 ], [ -53.214982618, -31.512865309999899 ], [ -53.206525859, -31.516829082999898 ], [ -53.206571481, -31.518780966 ], [ -53.203012739, -31.521524815 ], [ -53.198450487999892, -31.521912066 ], [ -53.190267429, -31.518137715 ], [ -53.186410405999894, -31.518071763 ], [ -53.187578144, -31.523408190999898 ], [ -53.185268834999896, -31.527446397999888 ], [ -53.185502315, -31.531360087999904 ], [ -53.184552115, -31.531891533 ], [ -53.177851254, -31.527160857 ], [ -53.176707711999903, -31.529087056 ], [ -53.168962861999901, -31.531976986 ], [ -53.166465429, -31.537043518 ], [ -53.168111325, -31.537402343999894 ], [ -53.171253443, -31.541596465999895 ], [ -53.1780762449999, -31.541744206 ], [ -53.180289279, -31.543016479 ], [ -53.1880044709999, -31.535466761 ], [ -53.190107371, -31.536077114 ], [ -53.198210393999901, -31.547300210999893 ], [ -53.200315861, -31.548142189 ], [ -53.20581258, -31.545132717999898 ], [ -53.207312473999899, -31.54896855 ], [ -53.211205409999899, -31.548673369 ], [ -53.215451680999891, -31.550452677 ], [ -53.219084079, -31.548691963 ], [ -53.224212611, -31.551418795 ], [ -53.226261559, -31.555191904 ], [ -53.229925839, -31.557881682999891 ], [ -53.235961339, -31.578139044999901 ], [ -53.239318966, -31.579294493 ], [ -53.242067816, -31.590462107 ], [ -53.24600579, -31.596940785999898 ], [ -53.251843295, -31.600116215 ], [ -53.256072365, -31.605505964 ], [ -53.260430387, -31.614507289 ], [ -53.269165267999902, -31.6212465159999 ], [ -53.280457633, -31.618655615 ], [ -53.290587232, -31.626437456 ], [ -53.298386036, -31.626590565999898 ], [ -53.307542402, -31.636714117999901 ], [ -53.305868118, -31.639163445999905 ], [ -53.308017558, -31.646856989999904 ], [ -53.314189325, -31.653601787999907 ], [ -53.315168177, -31.660589984 ], [ -53.318107134999899, -31.665174433999901 ], [ -53.317916447999899, -31.669046809 ], [ -53.324982819, -31.680565676 ], [ -53.323220326, -31.682041663999904 ], [ -53.325130875999903, -31.683862672 ], [ -53.324483442, -31.685007282 ], [ -53.322621929, -31.685146215 ], [ -53.32038256, -31.688071583 ], [ -53.322226047999898, -31.689840870999905 ], [ -53.322581731999897, -31.692568106 ], [ -53.321146606999896, -31.694245103 ], [ -53.323828186, -31.696101794 ], [ -53.326407605999989, -31.692548686 ], [ -53.329105329, -31.697007146 ], [ -53.327878937, -31.698708763999896 ], [ -53.330172214, -31.700469484999893 ], [ -53.32760655, -31.701958439999903 ], [ -53.331937438, -31.708065872 ], [ -53.330831898, -31.711435637 ], [ -53.332991635, -31.712889885 ], [ -53.332775110999897, -31.714544517 ], [ -53.328421380999892, -31.716534549999896 ], [ -53.328796537999899, -31.718792908 ], [ -53.332386317, -31.722127790999902 ], [ -53.330995816, -31.723134160000011 ], [ -53.332039649, -31.723680731999899 ], [ -53.331396163, -31.724982309 ], [ -53.328608155, -31.726630632 ], [ -53.333392234, -31.734013772 ], [ -53.32882935299989, -31.734150353 ], [ -53.327887874999902, -31.735198728999901 ], [ -53.330686569, -31.741641693 ], [ -53.329616329, -31.742536995 ], [ -53.330022863999893, -31.745877701 ], [ -53.3249015009999, -31.748139511 ], [ -53.326780374999899, -31.752484534 ], [ -53.32265525, -31.752096530999896 ], [ -53.321133309999901, -31.753102987 ], [ -53.322132231, -31.755070678 ], [ -53.32370155, -31.754809371 ], [ -53.324663879999903, -31.7618261709999 ], [ -53.3204716669999, -31.769118578 ], [ -53.32249281, -31.773380539999899 ], [ -53.32195166199989, -31.774913465999898 ], [ -53.318550538999894, -31.778454809 ], [ -53.314536666, -31.77886344 ], [ -53.311762777, -31.781052533 ], [ -53.31191918, -31.786593266 ], [ -53.316270062999891, -31.791513586 ], [ -53.315998458, -31.793552947 ], [ -53.310589735999891, -31.799270169999893 ], [ -53.306398461, -31.799552220999885 ], [ -53.302582038, -31.807145418999902 ], [ -53.300404805, -31.807648410999903 ], [ -53.297239413999897, -31.811727926999904 ], [ -53.303176339999894, -31.814919626999902 ], [ -53.303730992999903, -31.817151049 ], [ -53.301932985999898, -31.818600338 ], [ -53.296147124999898, -31.819556862999899 ], [ -53.28845955, -31.823175482999897 ], [ -53.284248681, -31.827216341999893 ], [ -53.27757388700001, -31.824759965999892 ], [ -53.272951956, -31.827266834999904 ], [ -53.268823781, -31.827006007 ], [ -53.267329893, -31.829711867 ], [ -53.269987887, -31.833711342 ], [ -53.266058256, -31.836358995999902 ], [ -53.265841823, -31.839944244 ], [ -53.2619543449999, -31.840167946999898 ], [ -53.258303255, -31.844383410999985 ], [ -53.259898490999895, -31.853658772 ], [ -53.257217486999892, -31.863190564 ], [ -53.268060538, -31.864355143 ], [ -53.269500133999898, -31.862278703 ], [ -53.27180245999989, -31.861959258 ], [ -53.282382303, -31.866692921 ], [ -53.286427818999989, -31.865454605 ], [ -53.2891024689999, -31.860285361 ], [ -53.291049211, -31.859645133999905 ], [ -53.292738067999892, -31.862705245 ], [ -53.296973683, -31.865935872 ], [ -53.298188905, -31.8654506519999 ], [ -53.296991622, -31.861392893 ], [ -53.298391841999901, -31.858979996 ], [ -53.309225505, -31.855084753999989 ], [ -53.314256156999896, -31.851063548 ], [ -53.319349336999899, -31.851096973 ], [ -53.32067097, -31.848176249999899 ], [ -53.323696237999989, -31.847540201999895 ], [ -53.326114361999892, -31.843868687999898 ], [ -53.331964731, -31.840182762 ], [ -53.336144539, -31.841480933999897 ], [ -53.336153856999893, -31.847088314 ], [ -53.338035676999901, -31.849974539000012 ], [ -53.340901038, -31.850827818 ], [ -53.345888214999896, -31.849943598 ], [ -53.344293611999902, -31.845355520999895 ], [ -53.345377090999889, -31.841560081999891 ], [ -53.351690388, -31.839662457 ], [ -53.354975054, -31.837223388999988 ], [ -53.363737161, -31.837450707 ], [ -53.371053719, -31.842465795 ], [ -53.377348546, -31.8401974719999 ], [ -53.38462565, -31.839485744999902 ], [ -53.39090633699989, -31.835961515999898 ], [ -53.394771679, -31.840333803 ], [ -53.401981815999903, -31.840513921 ], [ -53.406567625, -31.84339299 ], [ -53.408612466, -31.842773722999901 ], [ -53.41047825, -31.838994866 ], [ -53.41585458, -31.838559233 ], [ -53.416986268, -31.835207125999901 ], [ -53.421782916, -31.83347364 ], [ -53.428018547, -31.835504831 ], [ -53.430884622, -31.839061166 ], [ -53.433432621, -31.840022754 ], [ -53.43655342599989, -31.838344117 ], [ -53.442777775, -31.838813974999901 ], [ -53.445858035999898, -31.836416857 ], [ -53.443349704, -31.8331386 ], [ -53.443386996, -31.830973483 ], [ -53.447549807, -31.82712099 ] ] ] } }
]
}
