{
"type": "FeatureCollection",
"name": "bairros_ilopolis",
"crs": { "type": "name", "properties": { "name": "urn:ogc:def:crs:OGC:1.3:CRS84" } },
"features": [
{ "type": "Feature", "properties": { "code_muni": 4310306.0, "name_muni": "Ilópolis", "code_state": 43.0, "abbrev_state": "RS", "name_state": "Rio Grande do Sul", "code_region": 4.0, "name_region": "Sul", "year": 2022.0 }, "geometry": { "type": "Polygon", "coordinates": [ [ [ -52.121615127530603, -28.982829919194007 ], [ -52.122514258974391, -28.972933580753502 ], [ -52.157589061637495, -28.975115199129402 ], [ -52.158197050764798, -28.966208979644694 ], [ -52.159884579879602, -28.966366878071799 ], [ -52.161125455814201, -28.948312166233297 ], [ -52.17777779845899, -28.949394899466395 ], [ -52.177019063138395, -28.9583131219661 ], [ -52.194363076777989, -28.959247523208685 ], [ -52.193769418286699, -28.968497189390394 ], [ -52.228290510708092, -28.970056559510205 ], [ -52.229624526261198, -28.968725877018905 ], [ -52.227114069298999, -28.967170077970298 ], [ -52.227882671231903, -28.961941057428898 ], [ -52.230322478276399, -28.960603453566797 ], [ -52.230274078136695, -28.958539847608503 ], [ -52.226023115863001, -28.951769878061601 ], [ -52.224729512128, -28.9513925769722 ], [ -52.22397779745809, -28.952658130626691 ], [ -52.22116426433459, -28.948385718290801 ], [ -52.219431896832099, -28.948964869962598 ], [ -52.216480588310695, -28.947238964979402 ], [ -52.217250590533993, -28.944008255651294 ], [ -52.215086746786795, -28.943322953672997 ], [ -52.2151484844645, -28.941027247044104 ], [ -52.214308632039597, -28.939564792821592 ], [ -52.212572827027792, -28.939732543305904 ], [ -52.211673024429501, -28.937003985427594 ], [ -52.213254416496305, -28.932965873768801 ], [ -52.211206073081591, -28.934202277338294 ], [ -52.20811341415169, -28.930641567057197 ], [ -52.2045186037723, -28.9295987640463 ], [ -52.204150377709595, -28.927955359301396 ], [ -52.206026027978098, -28.927305936364707 ], [ -52.205943382886602, -28.926043553781501 ], [ -52.203615776165989, -28.926615555432992 ], [ -52.198760224646897, -28.924512899362284 ], [ -52.196653581063501, -28.919830735842893 ], [ -52.191091965005292, -28.916667126708504 ], [ -52.189183321994904, -28.913032716214992 ], [ -52.186437714067495, -28.912130713610701 ], [ -52.185710061966503, -28.908718503758497 ], [ -52.187013153228492, -28.907235699477003 ], [ -52.181697525381097, -28.905254559381895 ], [ -52.181966201156797, -28.900074678801101 ], [ -52.168739762967796, -28.891103052897108 ], [ -52.165988364887795, -28.886059510737095 ], [ -52.162639627338997, -28.885314440923704 ], [ -52.162577545175502, -28.887064941237803 ], [ -52.158456383276402, -28.889806149152594 ], [ -52.154177645922296, -28.888719071013892 ], [ -52.14927713177299, -28.892292981332904 ], [ -52.146720449389498, -28.892167821595699 ], [ -52.13984240453189, -28.890856377184999 ], [ -52.138449800511097, -28.888735571061503 ], [ -52.134926490338103, -28.890608876470385 ], [ -52.133695311781196, -28.8881715100569 ], [ -52.131657280898899, -28.888294469787894 ], [ -52.128240671033993, -28.886015263207099 ], [ -52.126245265272594, -28.886824865544703 ], [ -52.124747060946795, -28.884673259332299 ], [ -52.119613758624801, -28.882991629476596 ], [ -52.112696938653706, -28.883528431026502 ], [ -52.109212128591892, -28.8825428281807 ], [ -52.108592414303203, -28.885299161139592 ], [ -52.104310514439398, -28.883484430899394 ], [ -52.102771197495493, -28.886086763413601 ], [ -52.100961936404296, -28.8850880327597 ], [ -52.101528967211095, -28.879110998072399 ], [ -52.07899719449339, -28.877664242136891 ], [ -52.077577066988901, -28.88764486480699 ], [ -52.070742988428293, -28.887064842147101 ], [ -52.068987834951898, -28.906794654813702 ], [ -52.066952523099701, -28.9066052269017 ], [ -52.066537228018397, -28.916245135269104 ], [ -52.068601616631703, -28.916353073292296 ], [ -52.068687076601492, -28.926137806478497 ], [ -52.066999563795093, -28.943122024584 ], [ -52.069732101775102, -28.943367214718801 ], [ -52.068670777722595, -28.960675355005495 ], [ -52.070800028059999, -28.960780779951005 ], [ -52.069588755692799, -28.979624272202411 ], [ -52.121615127530603, -28.982829919194007 ] ] ] } }
]
}
