{
"type": "FeatureCollection",
"name": "bairros_quatro_irmaos",
"crs": { "type": "name", "properties": { "name": "urn:ogc:def:crs:OGC:1.3:CRS84" } },
"features": [
{ "type": "Feature", "properties": { "code_muni": 4315313.0, "name_muni": "Quatro Irmãos", "code_state": 43.0, "abbrev_state": "RS", "name_state": "Rio Grande do Sul", "code_region": 4.0, "name_region": "Sul", "year": 2022.0 }, "geometry": { "type": "Polygon", "coordinates": [ [ [ -52.368008811, -27.795161305 ], [ -52.36657574, -27.797074978999891 ], [ -52.366682055, -27.806085561 ], [ -52.365391707999898, -27.807635142 ], [ -52.37779709599991, -27.811299377 ], [ -52.379940878, -27.813530541 ], [ -52.380053018999895, -27.815661215 ], [ -52.367959294999899, -27.8262403109999 ], [ -52.364563032, -27.827476044 ], [ -52.366086399, -27.829450157999904 ], [ -52.376611973, -27.827156005999896 ], [ -52.380369416, -27.831420266999892 ], [ -52.383602564999897, -27.832302829 ], [ -52.386599781, -27.835745695999897 ], [ -52.386860495, -27.850118176 ], [ -52.38869914299989, -27.850491475999899 ], [ -52.388655452, -27.851819688 ], [ -52.393092292999896, -27.850410646999897 ], [ -52.396404086, -27.851590309 ], [ -52.396054556, -27.848008176999901 ], [ -52.400141867999892, -27.849747087 ], [ -52.401414738, -27.844501229999903 ], [ -52.404694491, -27.845980905 ], [ -52.404892558, -27.84910337 ], [ -52.408701428, -27.852762517 ], [ -52.408993704999894, -27.857993072999896 ], [ -52.412027330999898, -27.857754226999894 ], [ -52.422932654, -27.862880661 ], [ -52.426987197999892, -27.862018487999901 ], [ -52.429206710999892, -27.863381654 ], [ -52.434397224999898, -27.879382828 ], [ -52.436715771, -27.881229509 ], [ -52.441111105999894, -27.880445979999902 ], [ -52.449106596, -27.8865263389999 ], [ -52.451902832, -27.8913848 ], [ -52.452403825, -27.896895716999897 ], [ -52.454541780999897, -27.899843416 ], [ -52.458813323999898, -27.901409018 ], [ -52.460563056999902, -27.907476389999903 ], [ -52.463179531, -27.909574903 ], [ -52.466801530999902, -27.907984542999898 ], [ -52.474709639, -27.911552657999902 ], [ -52.478752530999898, -27.909816661 ], [ -52.48618586, -27.911354591 ], [ -52.489238418999904, -27.912985729 ], [ -52.495276542999903, -27.920573433999891 ], [ -52.504721124, -27.919146188 ], [ -52.506038412999899, -27.920892379999898 ], [ -52.508964267, -27.921311815 ], [ -52.512099839, -27.926318826999907 ], [ -52.513795058, -27.925479955999897 ], [ -52.511840605, -27.92378765 ], [ -52.513151341, -27.920729266 ], [ -52.5172554009999, -27.921935142999892 ], [ -52.517532111, -27.923490549999908 ], [ -52.519903086999896, -27.924512923999902 ], [ -52.518912752999896, -27.928873306 ], [ -52.521908513, -27.932055481 ], [ -52.522237654, -27.935288629999899 ], [ -52.524661059, -27.935416791 ], [ -52.527133981, -27.937554747 ], [ -52.525263997, -27.940018930999898 ], [ -52.523568779, -27.939512113 ], [ -52.521100225999902, -27.941520452 ], [ -52.523115847, -27.940616044 ], [ -52.524117831999895, -27.942059309999902 ], [ -52.528166548999891, -27.941334035999891 ], [ -52.528288884999895, -27.942352040999904 ], [ -52.529806425999901, -27.93837687 ], [ -52.534781397, -27.937596254 ], [ -52.535626094, -27.936142792999892 ], [ -52.537865995999901, -27.936614657999904 ], [ -52.537759681, -27.937948696 ], [ -52.539306349, -27.936744275 ], [ -52.540411736, -27.939217196999898 ], [ -52.54195257899989, -27.939528860999896 ], [ -52.542299195999895, -27.941425059 ], [ -52.537967942, -27.946752472999901 ], [ -52.538643699, -27.948345745 ], [ -52.536657206, -27.949184616 ], [ -52.539543738, -27.955700431 ], [ -52.540073858, -27.953690634999901 ], [ -52.541629263999901, -27.955741208999907 ], [ -52.554270585, -27.946082541 ], [ -52.5545968119999, -27.944486355999988 ], [ -52.552563715, -27.942858131 ], [ -52.558427074, -27.941171649999902 ], [ -52.559472749999891, -27.942036736 ], [ -52.561482546, -27.940271611999897 ], [ -52.562574825999896, -27.941972656 ], [ -52.555124019999894, -27.955717907 ], [ -52.557142552999892, -27.959023874 ], [ -52.560294144999901, -27.960387039999905 ], [ -52.562647644, -27.959926826 ], [ -52.565723504999902, -27.9568218379999 ], [ -52.567680869999897, -27.952292516999893 ], [ -52.575463729, -27.948884602999989 ], [ -52.576184634, -27.946418962999896 ], [ -52.586524738, -27.945641395999907 ], [ -52.590292679999898, -27.947864957 ], [ -52.596089513, -27.948306209 ], [ -52.597469506, -27.941315400999894 ], [ -52.5992474889999, -27.941916713999891 ], [ -52.599680088999897, -27.947237688 ], [ -52.603616744, -27.9515809869999 ], [ -52.605217363, -27.951338731 ], [ -52.608024933, -27.947557811 ], [ -52.610784918, -27.947393424 ], [ -52.611252126, -27.942392572999889 ], [ -52.607601131, -27.934529547 ], [ -52.604027948, -27.933180245 ], [ -52.597077191, -27.934832296 ], [ -52.591921576999894, -27.929377492 ], [ -52.597241962999895, -27.924200196999902 ], [ -52.596149266999902, -27.922292316 ], [ -52.5894890289999, -27.924156836 ], [ -52.583271071999903, -27.929108653999897 ], [ -52.581233107999893, -27.928232763 ], [ -52.579845559, -27.925318908999891 ], [ -52.582143688, -27.920202318999895 ], [ -52.574820026999902, -27.917457573 ], [ -52.577122492999898, -27.915838042 ], [ -52.584662958, -27.914368107 ], [ -52.588331292, -27.910682428 ], [ -52.583448851999897, -27.906589156999896 ], [ -52.575574506999899, -27.909511682999891 ], [ -52.57296418, -27.905947415 ], [ -52.587229925, -27.897413984 ], [ -52.59173946100001, -27.900258461 ], [ -52.595659289, -27.899096388 ], [ -52.595945470999894, -27.897734855 ], [ -52.591357885, -27.895679546999904 ], [ -52.587802289, -27.891525570999903 ], [ -52.593699375, -27.890580301999893 ], [ -52.598434388, -27.891664326 ], [ -52.602232805, -27.890198725999905 ], [ -52.601669113, -27.888074041 ], [ -52.595941135, -27.8829661239999 ], [ -52.594087997, -27.885850166999894 ], [ -52.59290587, -27.885090809 ], [ -52.590498254, -27.886253966 ], [ -52.58890636599989, -27.881105939999905 ], [ -52.58533993, -27.881201334 ], [ -52.583807120999893, -27.877789370999903 ], [ -52.580629848999891, -27.8763985689999 ], [ -52.578795682, -27.878245745 ], [ -52.577650954, -27.875813197 ], [ -52.574795637, -27.877805630999905 ], [ -52.575151196, -27.880927617999905 ], [ -52.572965806, -27.882605686 ], [ -52.570728382, -27.881664753999907 ], [ -52.569340832, -27.878122166 ], [ -52.566667631, -27.878286938 ], [ -52.564224243, -27.876016993 ], [ -52.561236675, -27.875592056 ], [ -52.560000889, -27.872842972999901 ], [ -52.561687628999898, -27.869783859999899 ], [ -52.560964936999895, -27.864456103 ], [ -52.55905562, -27.864042873 ], [ -52.556748818999893, -27.860394051 ], [ -52.552321667999905, -27.860992431999893 ], [ -52.552237115, -27.858657445999896 ], [ -52.550229504, -27.85817614 ], [ -52.5470489799999, -27.853211314 ], [ -52.541559486, -27.850752749 ], [ -52.536464577999894, -27.844686555999896 ], [ -52.525979906000011, -27.839639344 ], [ -52.526361482, -27.832658234999894 ], [ -52.521251396, -27.831728143 ], [ -52.512154274, -27.824981181999885 ], [ -52.505490509, -27.815314864 ], [ -52.494695168, -27.806563149999899 ], [ -52.496202148, -27.798915931 ], [ -52.493016586, -27.793995627 ], [ -52.493272428999902, -27.7880800299999 ], [ -52.491653127999903, -27.78225179399989 ], [ -52.489100935, -27.779587278999902 ], [ -52.486661063, -27.779094312 ], [ -52.48718991, -27.774961818999898 ], [ -52.491377004999897, -27.769146062999901 ], [ -52.495407922, -27.767638909 ], [ -52.492238136, -27.767227238 ], [ -52.4904877929999, -27.769155423 ], [ -52.487720317, -27.768980701 ], [ -52.482525449, -27.765533056 ], [ -52.477695626, -27.756132373 ], [ -52.473979658, -27.758862409 ], [ -52.467855018, -27.754417911 ], [ -52.462270144999891, -27.753625421 ], [ -52.463061076, -27.75281265 ], [ -52.461537106, -27.750311559999904 ], [ -52.460402590999898, -27.750717887999901 ], [ -52.46085698, -27.747997383 ], [ -52.457301972, -27.744547233999985 ], [ -52.457778205999894, -27.742152957 ], [ -52.465667380999896, -27.737604702999896 ], [ -52.461092912, -27.733188979 ], [ -52.457505194, -27.733284754999904 ], [ -52.454344078, -27.736259014 ], [ -52.450607024, -27.735781323 ], [ -52.449214731, -27.737846460999897 ], [ -52.445751475999892, -27.736200758999896 ], [ -52.436423938, -27.739820551 ], [ -52.433097048, -27.738375124 ], [ -52.430395475, -27.743602048 ], [ -52.426844775999903, -27.746268230999902 ], [ -52.427004187, -27.748768133999896 ], [ -52.430923143, -27.749281735 ], [ -52.43167206, -27.751650378 ], [ -52.428302667, -27.754685048999896 ], [ -52.42892453799989, -27.755914227999895 ], [ -52.427289031, -27.756965729999909 ], [ -52.424948639, -27.755264686 ], [ -52.419776328999895, -27.7551459909999 ], [ -52.418945935, -27.756788737 ], [ -52.418343927, -27.760942413 ], [ -52.4235996909999, -27.761138193 ], [ -52.42480871, -27.762626444 ], [ -52.421988671999898, -27.766585231 ], [ -52.414104067, -27.769061897 ], [ -52.412028423, -27.773168611 ], [ -52.40937782399989, -27.771667818 ], [ -52.404874709, -27.772482714 ], [ -52.399480310999891, -27.770769236 ], [ -52.400528898999902, -27.772968359999901 ], [ -52.398422984, -27.777806432 ], [ -52.391675606, -27.776347146 ], [ -52.386880496999893, -27.772986564 ], [ -52.381011704999892, -27.767526142 ], [ -52.380424393999903, -27.764264345 ], [ -52.376445582, -27.761881718 ], [ -52.376310138999898, -27.759828231 ], [ -52.368958366999891, -27.751853131 ], [ -52.366054358, -27.756044573999894 ], [ -52.364536817, -27.755897479999902 ], [ -52.365486373, -27.754132355 ], [ -52.362453925999894, -27.755100614 ], [ -52.3593846159999, -27.751497422999893 ], [ -52.355861201, -27.752860942 ], [ -52.356881047999899, -27.754014245 ], [ -52.356033054, -27.754767334 ], [ -52.353073703, -27.754400328 ], [ -52.351859088, -27.755530474 ], [ -52.349744433999895, -27.754301294999895 ], [ -52.349070766999894, -27.755788364 ], [ -52.341751857, -27.752740063 ], [ -52.33984692, -27.747951507 ], [ -52.328826544, -27.751716232 ], [ -52.32819739, -27.748988445 ], [ -52.323598163, -27.759952023 ], [ -52.324180713, -27.766843582 ], [ -52.325873018, -27.769814583 ], [ -52.343291243, -27.780472323 ], [ -52.347913772, -27.789332898999891 ], [ -52.349209945, -27.798746896 ], [ -52.350089593999897, -27.796527383 ], [ -52.354898539, -27.797465287 ], [ -52.356063637, -27.798968263999903 ], [ -52.363989220999898, -27.790483434 ], [ -52.366919444, -27.791561149999893 ], [ -52.368008811, -27.795161305 ] ] ] } }
]
}
