{
"type": "FeatureCollection",
"name": "bairros_guapore",
"crs": { "type": "name", "properties": { "name": "urn:ogc:def:crs:OGC:1.3:CRS84" } },
"features": [
{ "type": "Feature", "properties": { "code_muni": 4309407.0, "name_muni": "Guaporé", "code_state": 43.0, "abbrev_state": "RS", "name_state": "Rio Grande do Sul", "code_region": 4.0, "name_region": "Sul", "year": 2022.0 }, "geometry": { "type": "Polygon", "coordinates": [ [ [ -51.80119551, -28.876798614999892 ], [ -51.793479567, -28.879171730999907 ], [ -51.791082908, -28.881525210999897 ], [ -51.791067692, -28.883939324 ], [ -51.799374125, -28.885868112 ], [ -51.801005394999898, -28.887183533 ], [ -51.801177606, -28.890007464999897 ], [ -51.799503532999893, -28.891885849999905 ], [ -51.799656685999892, -28.8941530019999 ], [ -51.808228416, -28.895116072 ], [ -51.810014531, -28.901228384 ], [ -51.816459280999894, -28.900514023999989 ], [ -51.817563086, -28.901034258 ], [ -51.816948184999895, -28.904444293 ], [ -51.813224503999898, -28.907819244999907 ], [ -51.798343464, -28.91026098 ], [ -51.791166324, -28.916897763999891 ], [ -51.786685265, -28.916560877999899 ], [ -51.781799392, -28.913994037 ], [ -51.779356588, -28.914561670999898 ], [ -51.779018468999894, -28.919454225 ], [ -51.78248337, -28.923589616 ], [ -51.789822914999895, -28.927960814 ], [ -51.790894587, -28.93014833 ], [ -51.790436166999903, -28.9323675649999 ], [ -51.7826949029999, -28.933696891999904 ], [ -51.781304134, -28.936285838999897 ], [ -51.842429680999892, -28.936662050999903 ], [ -51.842780568, -28.919424202 ], [ -51.856091869999894, -28.91925968399989 ], [ -51.856009786, -28.933065668 ], [ -51.859314684, -28.929083103 ], [ -51.870076333, -28.928808159 ], [ -51.869988847999892, -28.932634483999905 ], [ -51.889620371, -28.932479031 ], [ -51.889708018, -28.946374416 ], [ -51.913683636, -28.946120315 ], [ -51.913631832, -28.9478920409999 ], [ -51.920855811, -28.945837798 ], [ -51.92343425, -28.9418074549999 ], [ -51.919587027, -28.934362606 ], [ -51.913250762, -28.932168482 ], [ -51.913860434999897, -28.927517274 ], [ -51.916310661, -28.924157013999899 ], [ -51.91956981, -28.920939037 ], [ -51.923685635, -28.922071931999902 ], [ -51.930525475, -28.927977596999895 ], [ -51.932953225999903, -28.928165959000012 ], [ -51.942956109, -28.924703830999892 ], [ -51.945169209, -28.922772743999893 ], [ -51.943994577, -28.908132243 ], [ -51.945912145, -28.907088778999896 ], [ -51.952684738999899, -28.907917594 ], [ -51.95115380499989, -28.926210959999899 ], [ -51.953939776, -28.929215527999894 ], [ -51.959274841, -28.9292745569999 ], [ -51.965253581, -28.925383445 ], [ -51.95721637, -28.917315583999901 ], [ -51.956716963, -28.915451456 ], [ -51.960044583999895, -28.909163170999904 ], [ -51.967049468, -28.9057187609999 ], [ -51.968555131, -28.907028523999902 ], [ -51.967520334, -28.916415187999984 ], [ -51.968659781, -28.922334134 ], [ -51.97025484999989, -28.922920688 ], [ -51.976989145999895, -28.913920565999902 ], [ -51.980478693999899, -28.911238656 ], [ -51.981391022, -28.904175860999903 ], [ -51.980213562, -28.900764828 ], [ -51.99282603599989, -28.902929521 ], [ -52.000347888, -28.902537765 ], [ -52.002783899999898, -28.903693625 ], [ -52.004457327, -28.900819762 ], [ -52.003555075999891, -28.898770038 ], [ -51.989453726, -28.891284121999885 ], [ -51.988762638, -28.889641087000012 ], [ -51.993893826, -28.887472382999896 ], [ -52.001942089999893, -28.8869100269999 ], [ -52.008862271999895, -28.883507403 ], [ -52.010205055, -28.88105135 ], [ -52.009847045999891, -28.877028740000011 ], [ -52.006696865, -28.865628349 ], [ -52.015020663, -28.865631145 ], [ -52.023423265, -28.863202886 ], [ -52.032746425, -28.854925625 ], [ -52.026309501, -28.850961266999896 ], [ -52.010319211, -28.836256207 ], [ -52.015753371999892, -28.835847343999898 ], [ -52.018391057, -28.83412636 ], [ -52.015776316, -28.830587414 ], [ -52.015180312, -28.825489755 ], [ -52.010042133999903, -28.827820555999899 ], [ -52.009694162, -28.825050903 ], [ -51.956141891999891, -28.821948989 ], [ -51.958921963, -28.761325609 ], [ -51.856084656, -28.755032205 ], [ -51.854722595999903, -28.757990564999901 ], [ -51.849782816999891, -28.760321136 ], [ -51.845093257, -28.758387609999893 ], [ -51.835043670999895, -28.756813759 ], [ -51.832216082999899, -28.757563946999895 ], [ -51.835278989, -28.767045288 ], [ -51.837777, -28.769475353 ], [ -51.846328345, -28.773195203999904 ], [ -51.845163247, -28.775364694 ], [ -51.840235268, -28.7748837789999 ], [ -51.833321929, -28.769368841999899 ], [ -51.828856988, -28.770085475 ], [ -51.829181095, -28.772734195999902 ], [ -51.833588928, -28.778205596 ], [ -51.835242702999899, -28.784077418 ], [ -51.836574697999893, -28.785746552 ], [ -51.839558938, -28.785631953999893 ], [ -51.847684429, -28.780526876999897 ], [ -51.84970737, -28.782176225999898 ], [ -51.851717010999899, -28.791071370999898 ], [ -51.857561986999897, -28.7920345379999 ], [ -51.861700543, -28.796402278999896 ], [ -51.866432371, -28.795250476 ], [ -51.870259087, -28.802834722999894 ], [ -51.861240106, -28.808963282 ], [ -51.8481970939999, -28.808275377 ], [ -51.836527616999902, -28.816040219999902 ], [ -51.834980175999902, -28.818576849999893 ], [ -51.840745473, -28.828233060999906 ], [ -51.849892396, -28.830082773999901 ], [ -51.863720147, -28.830414149 ], [ -51.86390405, -28.83219745 ], [ -51.858126994, -28.842115388 ], [ -51.85485205, -28.839987161 ], [ -51.843801523, -28.83677162 ], [ -51.83869515899989, -28.835857485 ], [ -51.834706782, -28.837327710999912 ], [ -51.831992047, -28.854764017 ], [ -51.826491938999901, -28.857465117999901 ], [ -51.826096697, -28.858872936999898 ], [ -51.829367133999902, -28.868763581999897 ], [ -51.826197998999902, -28.871390295 ], [ -51.812510569, -28.872325227 ], [ -51.812578774, -28.865986882 ], [ -51.804347611, -28.865075713999893 ], [ -51.801995702999903, -28.868643192 ], [ -51.80119551, -28.876798614999892 ] ] ] } }
]
}
