{
"type": "FeatureCollection",
"name": "bairros_pinhal",
"crs": { "type": "name", "properties": { "name": "urn:ogc:def:crs:OGC:1.3:CRS84" } },
"features": [
{ "type": "Feature", "properties": { "code_muni": 4314456.0, "name_muni": "Pinhal", "code_state": 43.0, "abbrev_state": "RS", "name_state": "Rio Grande do Sul", "code_region": 4.0, "name_region": "Sul", "year": 2022.0 }, "geometry": { "type": "Polygon", "coordinates": [ [ [ -53.197220840999897, -27.523432918 ], [ -53.191499826, -27.5264416979999 ], [ -53.187834116, -27.523166364 ], [ -53.18460035, -27.523937024 ], [ -53.185944971, -27.526365077 ], [ -53.169856446, -27.535430885 ], [ -53.168814969, -27.537819564 ], [ -53.17080369699989, -27.539924947 ], [ -53.173483005, -27.538373475999897 ], [ -53.175977066, -27.54128761 ], [ -53.182410615, -27.535184928 ], [ -53.185631435999895, -27.538964031 ], [ -53.189339091, -27.536171185999901 ], [ -53.191659727999898, -27.539592071999891 ], [ -53.196087411, -27.536611023 ], [ -53.198545521, -27.539812411999893 ], [ -53.203418225, -27.542480774 ], [ -53.204850478, -27.54702703 ], [ -53.202412535999891, -27.549397143 ], [ -53.227777061, -27.561043001999987 ], [ -53.224832896, -27.562705031999901 ], [ -53.220135146, -27.572478556 ], [ -53.231081977, -27.576473942999897 ], [ -53.229851950999901, -27.579019049 ], [ -53.232304526999897, -27.578591717999902 ], [ -53.236142689, -27.582234209 ], [ -53.241835170999899, -27.584735663999901 ], [ -53.242638244, -27.586812806 ], [ -53.256200819999897, -27.584756496999901 ], [ -53.255307275, -27.580593545999907 ], [ -53.26174666, -27.57149493 ], [ -53.263278565, -27.565171049999901 ], [ -53.2664613809999, -27.559976628999895 ], [ -53.265476498999902, -27.555965747 ], [ -53.266629732, -27.554146315 ], [ -53.265447724, -27.55268182 ], [ -53.267618477, -27.548727295999988 ], [ -53.270226858999898, -27.524633757999897 ], [ -53.274857684, -27.5205106 ], [ -53.279804198, -27.510445771 ], [ -53.280943121, -27.51196046 ], [ -53.283011547999891, -27.510773662 ], [ -53.281850988, -27.509003500999903 ], [ -53.282636058, -27.5035932 ], [ -53.280891552, -27.503234969999898 ], [ -53.281291675, -27.500531665 ], [ -53.278914061, -27.500892053 ], [ -53.279416563, -27.495372013 ], [ -53.282550299, -27.493406546999893 ], [ -53.278564234, -27.489662667999902 ], [ -53.280125155, -27.484294286 ], [ -53.274992257999891, -27.482818686 ], [ -53.273504997, -27.481132342 ], [ -53.262501266999898, -27.486226104 ], [ -53.250632621, -27.496975157999898 ], [ -53.246761718999892, -27.495779351 ], [ -53.243973755, -27.50272616 ], [ -53.226398914, -27.49466691 ], [ -53.226243059, -27.492062657 ], [ -53.212303275, -27.492335496 ], [ -53.213870427, -27.4852660409999 ], [ -53.188351024, -27.494251706999901 ], [ -53.192950842999899, -27.5080812859999 ], [ -53.192627703, -27.510753165 ], [ -53.19554196, -27.514468001 ], [ -53.1950148, -27.520142726 ], [ -53.197220840999897, -27.523432918 ] ] ] } }
]
}
