{
"type": "FeatureCollection",
"name": "bairros_sao_vendelino",
"crs": { "type": "name", "properties": { "name": "urn:ogc:def:crs:OGC:1.3:CRS84" } },
"features": [
{ "type": "Feature", "properties": { "code_muni": 4319752.0, "name_muni": "São Vendelino", "code_state": 43.0, "abbrev_state": "RS", "name_state": "Rio Grande do Sul", "code_region": 4.0, "name_region": "Sul", "year": 2022.0 }, "geometry": { "type": "Polygon", "coordinates": [ [ [ -51.398059931087303, -29.351648849313097 ], [ -51.350500604366999, -29.351857060318508 ], [ -51.350948930999898, -29.357391542 ], [ -51.355430145, -29.367561726 ], [ -51.35495351, -29.3704557 ], [ -51.351937321, -29.375891636999899 ], [ -51.344639867999895, -29.381319898 ], [ -51.332134534, -29.409621463999894 ], [ -51.344637567999897, -29.413758394 ], [ -51.348044078, -29.413423307999896 ], [ -51.347922691999891, -29.411968988999902 ], [ -51.346000386999897, -29.412068111999901 ], [ -51.345217890999891, -29.408584044 ], [ -51.348802669, -29.409097969 ], [ -51.351347307, -29.407657997999898 ], [ -51.350546778, -29.403331366 ], [ -51.3554838969999, -29.401010973 ], [ -51.355925288, -29.396414008 ], [ -51.356883067999895, -29.394346798999894 ], [ -51.358387337999901, -29.394359144 ], [ -51.3584451, -29.397877421 ], [ -51.365117284, -29.398911418 ], [ -51.370400523999891, -29.397545181999899 ], [ -51.366128325, -29.402758746000011 ], [ -51.361051346, -29.404889786 ], [ -51.372708224, -29.406533362999895 ], [ -51.377427879, -29.408767710999896 ], [ -51.384622791, -29.408663020999899 ], [ -51.388461257, -29.410815871 ], [ -51.391391691, -29.410222753 ], [ -51.392096498999891, -29.41377047 ], [ -51.390491088, -29.41405413 ], [ -51.397474788999901, -29.417439989999892 ], [ -51.399944209700898, -29.417040918118495 ], [ -51.398059931087303, -29.351648849313097 ] ] ] } }
]
}
