{
"type": "FeatureCollection",
"name": "bairros_passa_sete",
"crs": { "type": "name", "properties": { "name": "urn:ogc:def:crs:OGC:1.3:CRS84" } },
"features": [
{ "type": "Feature", "properties": { "code_muni": 4314068.0, "name_muni": "Passa Sete", "code_state": 43.0, "abbrev_state": "RS", "name_state": "Rio Grande do Sul", "code_region": 4.0, "name_region": "Sul", "year": 2022.0 }, "geometry": { "type": "Polygon", "coordinates": [ [ [ -52.789417345192192, -29.477689489322696 ], [ -52.793427683016091, -29.485949191728196 ], [ -52.79748582619149, -29.490797008488393 ], [ -52.801238857674896, -29.502712578748998 ], [ -52.843990400021298, -29.508253044076099 ], [ -52.849033809043092, -29.511551191421205 ], [ -52.85620425722319, -29.510016692819299 ], [ -52.857842284843393, -29.511779522543986 ], [ -52.863532126239498, -29.509765670404803 ], [ -52.865577178904793, -29.511748322017905 ], [ -52.86918793069799, -29.509672068826493 ], [ -52.871186891676999, -29.512484370792695 ], [ -52.874857208110996, -29.512542517227704 ], [ -52.8769533161826, -29.512016362901196 ], [ -52.876973171062907, -29.510260624205205 ], [ -52.885683790667692, -29.510154258775401 ], [ -52.886814100636002, -29.508927510817308 ], [ -52.889491673057691, -29.511843341801903 ], [ -52.892001897202995, -29.511849014624897 ], [ -52.893828546185603, -29.514464185994399 ], [ -52.896503282195802, -29.514915175417098 ], [ -52.896996627999989, -29.516946275 ], [ -52.900626006258193, -29.515027213669892 ], [ -52.908004930680903, -29.517048156837696 ], [ -52.908406282902995, -29.5156937703639 ], [ -52.910459135699796, -29.517032556574705 ], [ -52.912206365161403, -29.515494867009998 ], [ -52.9168867986279, -29.518043382710093 ], [ -52.9190141072256, -29.515595559617001 ], [ -52.923240360306401, -29.514843910579096 ], [ -52.932389840768593, -29.523444540834788 ], [ -52.9336121649864, -29.516878254082695 ], [ -52.942632404430306, -29.520402894888996 ], [ -52.950823657999891, -29.519911936 ], [ -52.953570332574891, -29.516213499724092 ], [ -52.956388047627499, -29.5150071758713 ], [ -52.9612610633014, -29.514099935991197 ], [ -52.962466277380699, -29.515535982969499 ], [ -52.964033027559495, -29.514653370234999 ], [ -52.963262407999892, -29.510637088 ], [ -52.967260781561599, -29.510067029266391 ], [ -52.969245384091103, -29.511878478554998 ], [ -52.9729615190289, -29.509869456978688 ], [ -52.968830260295803, -29.507403133253607 ], [ -52.971548544185602, -29.508420963521797 ], [ -52.972628532027393, -29.505000077058799 ], [ -52.9756320747817, -29.505843644129499 ], [ -52.976177805, -29.502724573 ], [ -52.972778387999895, -29.501258928 ], [ -52.974380043655792, -29.498526809747801 ], [ -52.973477648881492, -29.493381050616495 ], [ -52.976798107, -29.493477853999902 ], [ -52.978186085083998, -29.491642858468186 ], [ -52.979560886999899, -29.491839848 ], [ -52.980201766400398, -29.489178754656404 ], [ -52.982728027785797, -29.488934564188597 ], [ -52.98387794289799, -29.485717909753198 ], [ -52.986873122, -29.484067801 ], [ -52.9877439219865, -29.481068301254197 ], [ -52.991762544, -29.480921959999893 ], [ -52.992087182443797, -29.478621956749102 ], [ -52.99976808261389, -29.475461910104002 ], [ -52.99924418306469, -29.474576164679696 ], [ -53.00345313876479, -29.470089719811597 ], [ -53.009278191379394, -29.468908725912595 ], [ -53.009466329035199, -29.465318016078694 ], [ -53.01219959734, -29.465891863678102 ], [ -53.014438934925593, -29.463983848158904 ], [ -53.012456552309295, -29.463457728696405 ], [ -53.009259322115589, -29.4582692362332 ], [ -53.009425815616403, -29.455891709041786 ], [ -53.012527034557891, -29.453629617344301 ], [ -52.990477745268997, -29.435021193738496 ], [ -52.982458863292202, -29.437949259439101 ], [ -52.981034788881999, -29.436294314041199 ], [ -52.977537870387003, -29.435676068174892 ], [ -52.975279663537798, -29.4293570848413 ], [ -52.976793644438402, -29.428178310855706 ], [ -52.971781080107696, -29.428606754131 ], [ -52.966073682900301, -29.426231446852999 ], [ -52.96376719293589, -29.422743962989596 ], [ -52.963637328005191, -29.412230453392603 ], [ -52.9625850890802, -29.410831907985894 ], [ -52.959139783570294, -29.412278181529494 ], [ -52.954835371596396, -29.407882753108396 ], [ -52.950098076520391, -29.407789516748007 ], [ -52.94229730102969, -29.410999511443393 ], [ -52.9371537618117, -29.410053828358809 ], [ -52.938593375615191, -29.394932888616395 ], [ -52.850755844421293, -29.386335164235298 ], [ -52.85147096299989, -29.378084371999901 ], [ -52.843250594, -29.371720719999892 ], [ -52.841132520075107, -29.368542558783304 ], [ -52.837131126272595, -29.367682342362603 ], [ -52.83482574626499, -29.361134707954594 ], [ -52.826881786363494, -29.358554058692199 ], [ -52.824830586433599, -29.359954824012199 ], [ -52.822655071356401, -29.365466868845196 ], [ -52.819462835967798, -29.367802217683099 ], [ -52.815231681134193, -29.366137282675101 ], [ -52.815282739141097, -29.360634117495401 ], [ -52.813173821464297, -29.356003378259899 ], [ -52.813886413647793, -29.348262540429495 ], [ -52.819043272345695, -29.344874952666604 ], [ -52.819818022102702, -29.339416185753795 ], [ -52.825128054821398, -29.330330080436994 ], [ -52.822672990999898, -29.319503658 ], [ -52.820474150546602, -29.316264340358192 ], [ -52.816213473647892, -29.3158462884982 ], [ -52.810612924447902, -29.318313057765593 ], [ -52.808051369454397, -29.323915947353903 ], [ -52.8042306855559, -29.323838714539985 ], [ -52.802516351126798, -29.325326031304201 ], [ -52.803287509071296, -29.329604846212202 ], [ -52.799824904582593, -29.330991526279501 ], [ -52.796082774999903, -29.327296385 ], [ -52.796053227, -29.330312762999899 ], [ -52.794759134109, -29.330041328630003 ], [ -52.792249067658091, -29.332256506155204 ], [ -52.792774484831192, -29.333072716574584 ], [ -52.789245179276001, -29.334160412036699 ], [ -52.787781339827994, -29.336286571163193 ], [ -52.785711545163096, -29.335672183867501 ], [ -52.781315223389697, -29.340456260159002 ], [ -52.781455098307191, -29.343014731750792 ], [ -52.779319792604902, -29.342510119706798 ], [ -52.776601969841295, -29.345743177925904 ], [ -52.779658557999902, -29.348623385999904 ], [ -52.778084821023391, -29.349846470600106 ], [ -52.781049638103404, -29.351777275631797 ], [ -52.77812642938499, -29.352894504403093 ], [ -52.775959253448399, -29.351694058908809 ], [ -52.771203506254096, -29.355291854254595 ], [ -52.764739262, -29.357504710999905 ], [ -52.763535173752793, -29.359946679039997 ], [ -52.760395955668194, -29.360617724530194 ], [ -52.75904501184489, -29.364603274394092 ], [ -52.757115092097493, -29.362935398795798 ], [ -52.754675248600194, -29.36323285431649 ], [ -52.755692456131491, -29.367663388245202 ], [ -52.749587824607694, -29.372974462003793 ], [ -52.757184144272003, -29.379663730698905 ], [ -52.760077253324702, -29.389472680608101 ], [ -52.759418601814495, -29.395308474633602 ], [ -52.76497110486779, -29.397794352913795 ], [ -52.764213301517394, -29.4002448198226 ], [ -52.7566317268764, -29.406622407832099 ], [ -52.768544112253501, -29.412288227274299 ], [ -52.75983114429259, -29.417812401230396 ], [ -52.761849592468899, -29.420075187870097 ], [ -52.770079195208695, -29.423687147764493 ], [ -52.775375268999902, -29.439258831999989 ], [ -52.770659941701496, -29.447295909152604 ], [ -52.772727965797799, -29.448715905150305 ], [ -52.779201164510496, -29.449498496460706 ], [ -52.780553878902303, -29.463677209614804 ], [ -52.786244486304589, -29.474304162206 ], [ -52.789417345192192, -29.477689489322696 ] ] ] } }
]
}
