{
"type": "FeatureCollection",
"name": "bairros_marcelino_ramos",
"crs": { "type": "name", "properties": { "name": "urn:ogc:def:crs:OGC:1.3:CRS84" } },
"features": [
{ "type": "Feature", "properties": { "code_muni": 4311908.0, "name_muni": "Marcelino Ramos", "code_state": 43.0, "abbrev_state": "RS", "name_state": "Rio Grande do Sul", "code_region": 4.0, "name_region": "Sul", "year": 2022.0 }, "geometry": { "type": "Polygon", "coordinates": [ [ [ -51.937069239, -27.578891346 ], [ -51.944106346, -27.580542729999905 ], [ -51.94866066, -27.588361704 ], [ -51.964237038, -27.580742621 ], [ -51.968884096999894, -27.580474151 ], [ -51.975037835, -27.577199145 ], [ -51.971205095999899, -27.567184067 ], [ -51.969013392, -27.569112317 ], [ -51.967117827, -27.563597140999896 ], [ -51.970877277999897, -27.552851228999895 ], [ -51.97516861, -27.548890415999892 ], [ -51.975844359999897, -27.546663039999903 ], [ -51.972538076, -27.542704258999898 ], [ -51.970049574, -27.543071196 ], [ -51.970610754999896, -27.539533224 ], [ -51.966921365, -27.538035979 ], [ -51.965587607, -27.534369281999901 ], [ -51.962580585, -27.532831390999899 ], [ -51.963610054999897, -27.530371101 ], [ -51.961176705999897, -27.524746044 ], [ -51.958069285, -27.52520655 ], [ -51.955629358999893, -27.523131072999902 ], [ -51.956369026999901, -27.512366353999901 ], [ -51.970831227, -27.503933995 ], [ -51.970643987, -27.505477475 ], [ -51.979088788999903, -27.4995526 ], [ -51.988582107, -27.499700011999892 ], [ -51.988506931, -27.486800511999895 ], [ -51.998053216999899, -27.48714827 ], [ -51.99711468, -27.464961619999897 ], [ -51.994431431999899, -27.4646190089999 ], [ -51.992048794, -27.462541395 ], [ -51.995298321999897, -27.459880024 ], [ -51.99445471300001, -27.456793462 ], [ -51.997863426, -27.453427952 ], [ -52.001191035, -27.454772064999894 ], [ -52.004528218, -27.453734634999901 ], [ -52.006022344, -27.450484017999901 ], [ -52.010030814999894, -27.448166914 ], [ -52.011506462999897, -27.43888164 ], [ -52.014336854, -27.434477197 ], [ -52.020079022999894, -27.432289996999899 ], [ -52.029751216, -27.435938101 ], [ -52.029997761999894, -27.431112465999902 ], [ -52.034159997, -27.427753919999898 ], [ -52.032181362, -27.423314574999896 ], [ -52.032658996, -27.419535953 ], [ -52.041881663, -27.417093733999899 ], [ -52.041152048999891, -27.415970251 ], [ -52.051309913, -27.409080326 ], [ -52.055219414, -27.41319362 ], [ -52.065686335, -27.4169991529999 ], [ -52.073845384, -27.415180556999896 ], [ -52.07415466, -27.401139258999898 ], [ -52.068854926, -27.405491055 ], [ -52.065315031999894, -27.404759993 ], [ -52.062049185, -27.387858047999899 ], [ -52.047895519, -27.372425410999899 ], [ -52.047160673999898, -27.358769272 ], [ -52.0497831059999, -27.348774019 ], [ -52.049033430999891, -27.346312145 ], [ -52.044751550999891, -27.346553447 ], [ -52.038369653, -27.344203386999897 ], [ -52.017289077, -27.331059351 ], [ -52.009288131999895, -27.332575198 ], [ -52.007199825, -27.339326097 ], [ -52.01083203000001, -27.346605353 ], [ -52.020689951999891, -27.352499780999899 ], [ -52.023216863999892, -27.355880234 ], [ -52.022889631999902, -27.362154319 ], [ -52.017134236999901, -27.367838908 ], [ -52.006447435, -27.37462568 ], [ -51.99670825, -27.378228868999908 ], [ -51.990435229999896, -27.377924398999898 ], [ -51.975169195, -27.372432477 ], [ -51.965081477999895, -27.373595714 ], [ -51.9520866679999, -27.380247126 ], [ -51.949408640999891, -27.384434439 ], [ -51.949095684, -27.392470665 ], [ -51.952099043, -27.395173633 ], [ -51.963658586, -27.39363178 ], [ -51.978697485999902, -27.388904226 ], [ -51.990942671, -27.389092467999898 ], [ -52.004790095, -27.393509853999895 ], [ -52.008608059, -27.398783565 ], [ -52.006378729999902, -27.405682826 ], [ -51.999582277999899, -27.409739031999901 ], [ -51.968778735999898, -27.410651505 ], [ -51.957904985, -27.413737784 ], [ -51.937269788, -27.427306471999898 ], [ -51.933978203, -27.431506892999895 ], [ -51.933548386, -27.438132493 ], [ -51.941673428999891, -27.448878453 ], [ -51.951713661, -27.456389849999898 ], [ -51.963794231, -27.463136022 ], [ -51.964202056, -27.466746252999897 ], [ -51.962315772, -27.471097947 ], [ -51.956478905, -27.475124005999898 ], [ -51.950822152999898, -27.475325010999896 ], [ -51.937803890999895, -27.469596275 ], [ -51.928737988, -27.463214292 ], [ -51.918384505999896, -27.458434430999905 ], [ -51.911960173999894, -27.457739757999896 ], [ -51.903925087999895, -27.459836806999899 ], [ -51.900486719999897, -27.464060402 ], [ -51.899953754, -27.468120945 ], [ -51.902545838, -27.491377841 ], [ -51.902044841, -27.497181817 ], [ -51.894138169, -27.518107776 ], [ -51.887686948, -27.520751340999894 ], [ -51.879173138999903, -27.520628837999904 ], [ -51.875354328, -27.517952513999898 ], [ -51.87426156, -27.515126191 ], [ -51.874421501, -27.509556013999894 ], [ -51.880448043999891, -27.492379265 ], [ -51.877310276999893, -27.482996256 ], [ -51.872572218999899, -27.478827356999901 ], [ -51.863069302, -27.475240433 ], [ -51.857660715999891, -27.475154039999904 ], [ -51.850532841, -27.477002517 ], [ -51.845144075, -27.480494807999893 ], [ -51.84321183, -27.487412051 ], [ -51.845884011999892, -27.497824307 ], [ -51.855129205, -27.515450289999894 ], [ -51.854999577999898, -27.519560619999893 ], [ -51.851488327, -27.524612996 ], [ -51.848638951999895, -27.5258691 ], [ -51.84349559, -27.525431462 ], [ -51.837070836999899, -27.522232975 ], [ -51.832659924, -27.526011183 ], [ -51.827993305999897, -27.533857558 ], [ -51.828149399, -27.538482124999987 ], [ -51.831373292, -27.538430495999904 ], [ -51.852414387, -27.530840461 ], [ -51.855563323999903, -27.530465067 ], [ -51.862298263, -27.533179305 ], [ -51.861495056, -27.53685551 ], [ -51.855813892, -27.538522563999898 ], [ -51.844185099, -27.539244869 ], [ -51.840270276, -27.541282323 ], [ -51.840385365, -27.54450897 ], [ -51.841773198999903, -27.545566078 ], [ -51.852191665, -27.547756116999899 ], [ -51.856698573, -27.551104655999897 ], [ -51.856040703, -27.555673383999896 ], [ -51.849746156, -27.559711218 ], [ -51.847774165, -27.5635117469999 ], [ -51.878859849, -27.561867916 ], [ -51.882117262, -27.568067898 ], [ -51.891665105, -27.578965764999989 ], [ -51.896811482, -27.578547618 ], [ -51.898204485999898, -27.579542032999903 ], [ -51.900159366, -27.585868971 ], [ -51.895922672, -27.590298993 ], [ -51.898569635999891, -27.594494008 ], [ -51.911135121, -27.595197733 ], [ -51.937069239, -27.578891346 ] ] ] } }
]
}
