{
"type": "FeatureCollection",
"name": "bairros_chuvisca",
"crs": { "type": "name", "properties": { "name": "urn:ogc:def:crs:OGC:1.3:CRS84" } },
"features": [
{ "type": "Feature", "properties": { "code_muni": 4305447.0, "name_muni": "Chuvisca", "code_state": 43.0, "abbrev_state": "RS", "name_state": "Rio Grande do Sul", "code_region": 4.0, "name_region": "Sul", "year": 2022.0 }, "geometry": { "type": "Polygon", "coordinates": [ [ [ -51.955250569, -30.684293076 ], [ -51.949284394, -30.694595058999901 ], [ -51.949435986, -30.697003251999909 ], [ -51.950610508999901, -30.696555592 ], [ -51.951093435, -30.697909484 ], [ -51.950595587999892, -30.700224474 ], [ -51.94832596, -30.700174225 ], [ -51.948306596, -30.702716779 ], [ -51.945198896, -30.7024043599999 ], [ -51.944164316999895, -30.704518762 ], [ -51.941566166, -30.704791418 ], [ -51.942484174, -30.707826727999898 ], [ -51.937348194, -30.710776858 ], [ -51.937021953999903, -30.712123354 ], [ -51.940484833, -30.722509309 ], [ -51.93840741199989, -30.729053477 ], [ -51.941202446, -30.730652386 ], [ -51.941063186, -30.739164194999894 ], [ -51.934627596, -30.7403333889999 ], [ -51.93536936, -30.74526765 ], [ -51.933506872, -30.747183010999898 ], [ -51.92780272999989, -30.746212004 ], [ -51.927605319999898, -30.748308940999909 ], [ -51.924259231, -30.752031841 ], [ -51.92081709699989, -30.75345555 ], [ -51.918337503, -30.752668286999896 ], [ -51.921226105999899, -30.761496333 ], [ -51.918296843999897, -30.763729795 ], [ -51.920794268, -30.765838355 ], [ -51.920544279999902, -30.770175170999902 ], [ -51.925538891, -30.771458003 ], [ -51.926146812, -30.778475801 ], [ -51.927970807, -30.781803397 ], [ -51.937486196, -30.782308509 ], [ -51.940011854, -30.786318878 ], [ -51.941847013, -30.786453510999888 ], [ -51.948307919999891, -30.793286254 ], [ -51.950903191, -30.800648291 ], [ -51.949914014999891, -30.804315247 ], [ -51.946405808999891, -30.807594256999895 ], [ -51.941490950999906, -30.80791307 ], [ -51.936723738, -30.815110463999901 ], [ -51.937686567, -30.8162276699999 ], [ -51.934482428, -30.821765429 ], [ -51.940498523, -30.824051401 ], [ -51.941315906999897, -30.825572942 ], [ -51.937822979, -30.825689640999894 ], [ -51.936296483, -30.828292012 ], [ -51.9343990099999, -30.828736080999896 ], [ -51.935935094999898, -30.830279925999896 ], [ -51.932447931999903, -30.835190021999892 ], [ -51.932794918999903, -30.843288339 ], [ -51.935945452999903, -30.84786331 ], [ -51.942489445, -30.846999872 ], [ -51.945482232, -30.848308851 ], [ -51.948469942, -30.84539048399991 ], [ -51.957138615, -30.841153265999903 ], [ -51.961359305, -30.842244084 ], [ -51.966131157999897, -30.846898865999904 ], [ -51.969012802, -30.843920631999897 ], [ -51.974531533999901, -30.842411891 ], [ -51.989235159, -30.843697721 ], [ -51.990579849, -30.846600470999903 ], [ -51.989654319999907, -30.8524238269999 ], [ -51.992152674, -30.851755626999903 ], [ -52.00098781, -30.853489207999893 ], [ -52.004544148, -30.857371838999892 ], [ -52.007208772, -30.858220801 ], [ -52.013583206, -30.85756758 ], [ -52.016011030999898, -30.854838303 ], [ -52.018377006, -30.854245116 ], [ -52.024044618999902, -30.855102667 ], [ -52.032690153, -30.858787963999905 ], [ -52.037886997, -30.8627541399999 ], [ -52.041351921999897, -30.867979799 ], [ -52.045498205999898, -30.867376064 ], [ -52.047575971, -30.871770872 ], [ -52.055142041, -30.873920833999907 ], [ -52.059419396999893, -30.870869523 ], [ -52.062847029, -30.865387806999898 ], [ -52.068804085999894, -30.862813047 ], [ -52.066916506, -30.859114825999896 ], [ -52.061601224, -30.855945146 ], [ -52.062033799999895, -30.852374437 ], [ -52.07044761, -30.851920219 ], [ -52.069939749, -30.848615901999896 ], [ -52.073358374999899, -30.848741631999896 ], [ -52.076828827, -30.844541496 ], [ -52.082654233, -30.840772892 ], [ -52.086434481, -30.840733192 ], [ -52.092678211, -30.838352669999892 ], [ -52.098048287, -30.840549806 ], [ -52.100148245, -30.837388432999894 ], [ -52.099101983, -30.835361292 ], [ -52.101966906, -30.832577211999901 ], [ -52.095644647, -30.825412962 ], [ -52.097603826999901, -30.823121538 ], [ -52.094231513, -30.820114267 ], [ -52.097054064, -30.811405169 ], [ -52.09392675, -30.809296027 ], [ -52.092974657999903, -30.8063315049999 ], [ -52.090167574, -30.803896044999892 ], [ -52.092317310999903, -30.797867036 ], [ -52.08836267, -30.793234226 ], [ -52.088138990999902, -30.789013447999896 ], [ -52.079713678, -30.783862633 ], [ -52.080311771, -30.781790252 ], [ -52.0757384999999, -30.782154426 ], [ -52.077218711999897, -30.779809288 ], [ -52.074777114, -30.778121975 ], [ -52.076764576999899, -30.776483222 ], [ -52.076846531999898, -30.773046972 ], [ -52.073965511, -30.769354857999893 ], [ -52.073937125, -30.763857377 ], [ -52.070882178, -30.760261811 ], [ -52.071376973, -30.757031885999908 ], [ -52.067586294, -30.753626402999899 ], [ -52.065780772, -30.743360149 ], [ -52.063451245999893, -30.741916392999897 ], [ -52.062288963, -30.738468385 ], [ -52.05934941399989, -30.737562404 ], [ -52.052433419, -30.741045082 ], [ -52.049142735, -30.739994732999904 ], [ -52.047882511, -30.741166994 ], [ -52.037247997999891, -30.737571901 ], [ -52.035909822999891, -30.735116957999892 ], [ -52.018222774, -30.729646950999896 ], [ -52.015378281, -30.7223003249999 ], [ -52.010872029, -30.7221177599999 ], [ -52.008460066999909, -30.7240889619999 ], [ -52.000501744, -30.715293775 ], [ -51.9948792019999, -30.71709983499991 ], [ -51.988712689, -30.716076600999898 ], [ -51.986443062, -30.717063096999901 ], [ -51.984621747999896, -30.709597362 ], [ -51.985210203999898, -30.704193388 ], [ -51.982822343999892, -30.698882997999899 ], [ -51.990310916999903, -30.680187929999903 ], [ -51.994421460999895, -30.677453331 ], [ -51.998042627, -30.677180022999902 ], [ -51.999496028999893, -30.669054272 ], [ -51.995739224, -30.666308315 ], [ -51.987919822, -30.666486902 ], [ -51.98674226, -30.663685906 ], [ -51.979170028999903, -30.66047186 ], [ -51.977125261, -30.661043323999895 ], [ -51.968729021999899, -30.670802629 ], [ -51.964956419, -30.670987991999901 ], [ -51.960502012999903, -30.675406993999985 ], [ -51.956234087, -30.676354401 ], [ -51.955250569, -30.684293076 ] ] ] } }
]
}
