{
"type": "FeatureCollection",
"name": "bairros_montauri",
"crs": { "type": "name", "properties": { "name": "urn:ogc:def:crs:OGC:1.3:CRS84" } },
"features": [
{ "type": "Feature", "properties": { "code_muni": 4312351.0, "name_muni": "Montauri", "code_state": 43.0, "abbrev_state": "RS", "name_state": "Rio Grande do Sul", "code_region": 4.0, "name_region": "Sul", "year": 2022.0 }, "geometry": { "type": "Polygon", "coordinates": [ [ [ -52.081252059, -28.709904541999904 ], [ -52.084619608, -28.709495713 ], [ -52.091200360999892, -28.711244205 ], [ -52.095261902999901, -28.708728672999889 ], [ -52.098012707, -28.702542042999898 ], [ -52.087358193999904, -28.699186158 ], [ -52.08205077, -28.700482313 ], [ -52.078876486, -28.699724406 ], [ -52.077167787, -28.687154376 ], [ -52.079145659999902, -28.686048479999986 ], [ -52.084686731, -28.690721308 ], [ -52.089810837, -28.69164518 ], [ -52.090560921, -28.685771143999897 ], [ -52.086969805, -28.684866343999911 ], [ -52.084450940999893, -28.676838793999899 ], [ -52.084913993, -28.674112178 ], [ -52.088676821999989, -28.672456143 ], [ -52.092936143, -28.676425369999901 ], [ -52.097160015999989, -28.674690188999893 ], [ -52.100595684, -28.667632633 ], [ -52.101533046, -28.656649830999989 ], [ -52.103838107999906, -28.655492862999886 ], [ -52.110345150999891, -28.655810737 ], [ -52.111097132999902, -28.654179483 ], [ -52.110594423999892, -28.652108214 ], [ -52.106911499, -28.650784549 ], [ -52.104942079, -28.647609974 ], [ -52.101695086999889, -28.6396414499999 ], [ -52.102466998999901, -28.637222446999896 ], [ -52.099629746999909, -28.635207196 ], [ -52.100162945, -28.629935525999894 ], [ -52.092565061999892, -28.633290585999902 ], [ -52.088246603999892, -28.630263609999904 ], [ -52.091649023999892, -28.62882321 ], [ -52.092983876999895, -28.615920808999906 ], [ -52.066505710999891, -28.614439746 ], [ -52.066862424, -28.615832623 ], [ -52.0557744709999, -28.618457455999902 ], [ -52.05305751, -28.624529064999905 ], [ -52.054228908, -28.627313068 ], [ -52.062050873, -28.632188189 ], [ -52.067225800999893, -28.630073142999901 ], [ -52.065563916, -28.6345952889999 ], [ -52.065972885, -28.640635678 ], [ -52.05955736499989, -28.641597555 ], [ -52.044275824, -28.636318624 ], [ -52.038563171, -28.644553711999897 ], [ -52.040216789999896, -28.648103971999895 ], [ -52.037481139, -28.648140724 ], [ -52.033674305, -28.644027047 ], [ -52.03254952799989, -28.646030288 ], [ -52.029819086, -28.646203495 ], [ -52.029721814, -28.6491083 ], [ -52.023463940999903, -28.648521984999896 ], [ -52.021990084, -28.645510386 ], [ -52.018851749, -28.644090818999896 ], [ -52.015067801, -28.63980423 ], [ -52.006596917, -28.638735546 ], [ -52.004848195, -28.643931683999899 ], [ -52.001302424, -28.645195701 ], [ -51.999264231, -28.647928774 ], [ -51.998982232999893, -28.651735489 ], [ -52.003460098999909, -28.660474103999903 ], [ -51.998811261, -28.670050403999905 ], [ -51.998405966, -28.6761372899999 ], [ -52.003401423, -28.674361383 ], [ -52.009182331, -28.675468518999899 ], [ -52.008780924, -28.679443196 ], [ -52.001823331, -28.678745173 ], [ -51.995382868, -28.681692063000011 ], [ -51.992198532, -28.681357426 ], [ -51.992047630999892, -28.689380879999892 ], [ -51.986969996, -28.689086137999901 ], [ -51.986063451999904, -28.706886488 ], [ -52.081630254999901, -28.711988855999902 ], [ -52.081252059, -28.709904541999904 ] ] ] } }
]
}
