{
"type": "FeatureCollection",
"name": "bairros_irai",
"crs": { "type": "name", "properties": { "name": "urn:ogc:def:crs:OGC:1.3:CRS84" } },
"features": [
{ "type": "Feature", "properties": { "code_muni": 4310504.0, "name_muni": "Iraí", "code_state": 43.0, "abbrev_state": "RS", "name_state": "Rio Grande do Sul", "code_region": 4.0, "name_region": "Sul", "year": 2022.0 }, "geometry": { "type": "Polygon", "coordinates": [ [ [ -53.272955077999903, -27.312568996 ], [ -53.291799916999892, -27.305292384 ], [ -53.291200477, -27.302612113999899 ], [ -53.282036887999901, -27.295867098 ], [ -53.283346305999899, -27.292820402 ], [ -53.293838615, -27.290076797 ], [ -53.293199269, -27.286968632 ], [ -53.289654160999902, -27.283844868 ], [ -53.290095702, -27.281694288 ], [ -53.310220291, -27.271862801999902 ], [ -53.316967577, -27.277054598999896 ], [ -53.319812972, -27.277992801 ], [ -53.321607163, -27.277102904999904 ], [ -53.318793496, -27.264418656 ], [ -53.31584099, -27.262548953 ], [ -53.308178835, -27.261006843 ], [ -53.302853835, -27.2553172789999 ], [ -53.30615327, -27.249101584999899 ], [ -53.319611144, -27.244673508999899 ], [ -53.320762561, -27.241224444999894 ], [ -53.317180833, -27.238380440999901 ], [ -53.302751821, -27.233992755 ], [ -53.301284793, -27.230032618999896 ], [ -53.302962690999891, -27.227443784999902 ], [ -53.309637322, -27.225574512 ], [ -53.314640175, -27.228615901 ], [ -53.319299273999903, -27.2292919769999 ], [ -53.326870213999904, -27.220540669999895 ], [ -53.327213125, -27.217233092999901 ], [ -53.322460903, -27.209894371 ], [ -53.321446414, -27.214897893999897 ], [ -53.319363215, -27.217321948999892 ], [ -53.315841658, -27.218845103 ], [ -53.310991599, -27.218728548999895 ], [ -53.307849242, -27.216541714999895 ], [ -53.301179292, -27.205264045 ], [ -53.293066983, -27.196919344 ], [ -53.262472894, -27.184741931 ], [ -53.24316983499989, -27.172067211 ], [ -53.233913221, -27.170585843 ], [ -53.224744887, -27.175110887999903 ], [ -53.198723287, -27.191960348999892 ], [ -53.193322889999905, -27.19310058 ], [ -53.187688471999891, -27.192263128 ], [ -53.186550098999895, -27.194028564999893 ], [ -53.182509341, -27.194275043999902 ], [ -53.179631942, -27.199381565999893 ], [ -53.184112204, -27.201232332 ], [ -53.186802717, -27.198881954999898 ], [ -53.19030283, -27.202512492 ], [ -53.188586218999895, -27.205752436 ], [ -53.180581618, -27.207858998999892 ], [ -53.178681401999903, -27.211076428999895 ], [ -53.184773473, -27.21245156 ], [ -53.179370395, -27.2141810429999 ], [ -53.17726848, -27.217074840999892 ], [ -53.177430592999904, -27.218064813999902 ], [ -53.181364506, -27.219035803999901 ], [ -53.178339442, -27.222989165999902 ], [ -53.181203683, -27.227575287 ], [ -53.176500666, -27.228236240999905 ], [ -53.174752197, -27.235295258999898 ], [ -53.169079611, -27.237250649 ], [ -53.169792275, -27.240004075999895 ], [ -53.172745547, -27.239398376999901 ], [ -53.173084108999909, -27.241679253 ], [ -53.176044443, -27.243198887999899 ], [ -53.17233345599989, -27.244016335 ], [ -53.169215747, -27.248297419 ], [ -53.168509929, -27.252195908 ], [ -53.172215626, -27.252830332 ], [ -53.172489507, -27.254443297 ], [ -53.166278188, -27.259677141999894 ], [ -53.16973539899989, -27.264950198999898 ], [ -53.164884050999895, -27.266209538999902 ], [ -53.163150179999903, -27.270640403999892 ], [ -53.160190287, -27.268932108999891 ], [ -53.158559126999904, -27.269863782999899 ], [ -53.159572231, -27.273077397 ], [ -53.157865469999891, -27.277183148999899 ], [ -53.16233203, -27.279175435 ], [ -53.159316950999902, -27.282390732999904 ], [ -53.170832758, -27.284600288 ], [ -53.173417695, -27.2889235439999 ], [ -53.184592648, -27.288027075999896 ], [ -53.190841190999905, -27.286022642 ], [ -53.19347264999989, -27.291513431999899 ], [ -53.205646408, -27.294164174999903 ], [ -53.205122748, -27.296555278 ], [ -53.195308417, -27.3021214679999 ], [ -53.195406276, -27.303241157999899 ], [ -53.200786669, -27.304718336999898 ], [ -53.2029419039999, -27.3067233209999 ], [ -53.202305305, -27.311856419 ], [ -53.203647062999899, -27.312913088 ], [ -53.211412541, -27.310128081 ], [ -53.224061219, -27.308999116999896 ], [ -53.222766615999902, -27.305922838 ], [ -53.227956949, -27.306014229 ], [ -53.228397519999895, -27.3217406529999 ], [ -53.24601545, -27.321248429 ], [ -53.245934416, -27.32839452 ], [ -53.249926828999897, -27.326713165999905 ], [ -53.25213608, -27.337578852 ], [ -53.257624601, -27.339676446999896 ], [ -53.263874958, -27.330509434 ], [ -53.269372704, -27.328560196999899 ], [ -53.277244289999906, -27.330417487 ], [ -53.27953767, -27.329531115 ], [ -53.2795922829999, -27.327028523 ], [ -53.270925039, -27.316333329 ], [ -53.270794876, -27.314415842999896 ], [ -53.272955077999903, -27.312568996 ] ] ] } }
]
}
