{
"type": "FeatureCollection",
"name": "bairros_santana_do_livramento",
"crs": { "type": "name", "properties": { "name": "urn:ogc:def:crs:OGC:1.3:CRS84" } },
"features": [
{ "type": "Feature", "properties": { "name": "Prado", "code_muni": 4317103.0, "name_muni": "Sant'ana do Livramento" }, "geometry": { "type": "Polygon", "coordinates": [ [ [ -55.5406228, -30.878132 ], [ -55.5408172, -30.8782561 ], [ -55.5411196, -30.8784178 ], [ -55.5412962, -30.8784906 ], [ -55.5424258, -30.8789409 ], [ -55.542771, -30.8790803 ], [ -55.5434222, -30.8793338 ], [ -55.5434459, -30.879343 ], [ -55.5440869, -30.8795811 ], [ -55.5441995, -30.879067 ], [ -55.5443938, -30.8781616 ], [ -55.5445105, -30.8778039 ], [ -55.5445674, -30.8777221 ], [ -55.5452677, -30.8770338 ], [ -55.5448524, -30.8766039 ], [ -55.5447726, -30.876545 ], [ -55.5454229, -30.8760985 ], [ -55.5454236, -30.8761822 ], [ -55.546441, -30.8770901 ], [ -55.5476052, -30.8781646 ], [ -55.5477142, -30.878248 ], [ -55.5479694, -30.8780195 ], [ -55.5477923, -30.8777663 ], [ -55.5479184, -30.8776489 ], [ -55.5481759, -30.8773888 ], [ -55.5482093, -30.877349 ], [ -55.5482178, -30.877321 ], [ -55.5482371, -30.8772927 ], [ -55.5486948, -30.8768703 ], [ -55.5491752, -30.8763734 ], [ -55.5496455, -30.875904 ], [ -55.549348, -30.8758095 ], [ -55.5489251, -30.875629499999988 ], [ -55.5481361, -30.875111500000017 ], [ -55.5476958, -30.8747506 ], [ -55.5472719, -30.874328 ], [ -55.5469287, -30.873954 ], [ -55.5466611, -30.8735287 ], [ -55.5460256, -30.8722403 ], [ -55.5454992, -30.870937 ], [ -55.5451228, -30.8702631 ], [ -55.5444243, -30.8691499 ], [ -55.5440667, -30.8685255 ], [ -55.5439085, -30.8682193 ], [ -55.5437632, -30.8678923 ], [ -55.5432091, -30.8664949 ], [ -55.5431541, -30.8663869 ], [ -55.5432245, -30.8659147 ], [ -55.5432806, -30.865622 ], [ -55.5433976, -30.8648272 ], [ -55.5434957, -30.8641281 ], [ -55.5435724, -30.8635594 ], [ -55.5436319, -30.8631535 ], [ -55.5436632, -30.862805099999989 ], [ -55.5438229, -30.8613606 ], [ -55.5436928, -30.8613794 ], [ -55.5434688, -30.8613054 ], [ -55.5434903, -30.8613099 ], [ -55.5433616, -30.8612363 ], [ -55.5432167, -30.861204 ], [ -55.5430236, -30.8610475 ], [ -55.5429163, -30.860969199999985 ], [ -55.5427894, -30.8608391 ], [ -55.5425944, -30.8606929 ], [ -55.5424335, -30.8606054 ], [ -55.5422619, -30.8605824 ], [ -55.5420312, -30.8605317 ], [ -55.5418112, -30.860458 ], [ -55.5415269, -30.8603936 ], [ -55.5413606, -30.8603752 ], [ -55.5411372, -30.8603878 ], [ -55.5409119, -30.8603602 ], [ -55.5406418, -30.860412 ], [ -55.5404237, -30.8607378 ], [ -55.5402824, -30.8609185 ], [ -55.5400482, -30.8612167 ], [ -55.5397961, -30.8616127 ], [ -55.539662, -30.862041 ], [ -55.5393973, -30.8624796 ], [ -55.53895390000001, -30.8627179 ], [ -55.5385282, -30.8630782 ], [ -55.5383994, -30.8634074 ], [ -55.5384317, -30.8636492 ], [ -55.5382117, -30.8639393 ], [ -55.5376645, -30.8640268 ], [ -55.537086, -30.8640809 ], [ -55.5368593, -30.8637353 ], [ -55.5366631, -30.8636172 ], [ -55.5364669, -30.8636805 ], [ -55.536243, -30.8641972 ], [ -55.5359176, -30.8648407 ], [ -55.5356065, -30.8652873 ], [ -55.5351237, -30.8658537 ], [ -55.5349252, -30.8660701 ], [ -55.534657, -30.8661668 ], [ -55.5344692, -30.8662313 ], [ -55.53438340000001, -30.8663878 ], [ -55.5344907, -30.8666917 ], [ -55.5345497, -30.8669312 ], [ -55.53448, -30.8671706 ], [ -55.5341956, -30.8673778 ], [ -55.5338899, -30.8676725 ], [ -55.5335036, -30.867912 ], [ -55.5334339, -30.86811 ], [ -55.5334696, -30.8683045 ], [ -55.5333623, -30.8685624 ], [ -55.5331745, -30.8688939 ], [ -55.5331496, -30.869044700000011 ], [ -55.533196, -30.869294499999985 ], [ -55.5330726, -30.8695293 ], [ -55.5328044, -30.8697733 ], [ -55.5325898, -30.8699483 ], [ -55.5324254, -30.8701313 ], [ -55.5322036, -30.8704226 ], [ -55.532284, -30.8706712 ], [ -55.532184, -30.8708542 ], [ -55.5318675, -30.8709739 ], [ -55.5314222, -30.8708911 ], [ -55.5312058, -30.870639 ], [ -55.5312506, -30.8703017 ], [ -55.5309322, -30.8701555 ], [ -55.5307141, -30.8701451 ], [ -55.5303689, -30.8703305 ], [ -55.5302295, -30.870537699999989 ], [ -55.5302241, -30.8708093 ], [ -55.5301168, -30.871062599999988 ], [ -55.529854, -30.8712744 ], [ -55.5295447, -30.871264 ], [ -55.5294728, -30.8713664 ], [ -55.5295748, -30.8715368 ], [ -55.5298483, -30.8718729 ], [ -55.5300093, -30.872024799999984 ], [ -55.5304974, -30.8723702 ], [ -55.5306852, -30.8725221 ], [ -55.5307603, -30.8726004 ], [ -55.5308032, -30.8726833 ], [ -55.5307925, -30.8727984 ], [ -55.5306959, -30.873001 ], [ -55.5304813, -30.8732634 ], [ -55.5304384, -30.8736732 ], [ -55.530358, -30.8741566 ], [ -55.5304116, -30.8747137 ], [ -55.5303901, -30.8751465 ], [ -55.5302689, -30.8753053 ], [ -55.5301728, -30.8752636 ], [ -55.5299701, -30.875241400000011 ], [ -55.5298527, -30.8752857 ], [ -55.5297388, -30.8754453 ], [ -55.5296035, -30.8759118 ], [ -55.5295862, -30.8759917 ], [ -55.5296471, -30.8760812 ], [ -55.5299503, -30.8759684 ], [ -55.5300307, -30.876055900000011 ], [ -55.5301139, -30.8763091 ], [ -55.530138, -30.8766406 ], [ -55.5302024, -30.8768317 ], [ -55.5303419, -30.877002 ], [ -55.5305725, -30.8772023 ], [ -55.5309749, -30.8774739 ], [ -55.5312136, -30.8775315 ], [ -55.5313718, -30.8775453 ], [ -55.5315006, -30.8775476 ], [ -55.5317473, -30.8775039 ], [ -55.5319458, -30.8778612 ], [ -55.5320209, -30.8779965 ], [ -55.5320987, -30.8788414 ], [ -55.5321792, -30.8790278 ], [ -55.5322436, -30.87906 ], [ -55.5323991, -30.8791245 ], [ -55.5326593, -30.8791337 ], [ -55.5328524, -30.8791176 ], [ -55.5329973, -30.8790393 ], [ -55.533067, -30.8792097 ], [ -55.5329248, -30.879281 ], [ -55.5335498, -30.8802387 ], [ -55.5336383, -30.8803768 ], [ -55.5338219, -30.8806336 ], [ -55.5341318, -30.8810674 ], [ -55.5341869, -30.8811286 ], [ -55.5347226, -30.8807427 ], [ -55.534911, -30.8806369 ], [ -55.5351755, -30.880444199999989 ], [ -55.5353558, -30.880323 ], [ -55.5361784, -30.87974980000001 ], [ -55.5362082, -30.8797354 ], [ -55.5366209, -30.8796655 ], [ -55.5365129, -30.8795556 ], [ -55.5377342, -30.878717 ], [ -55.5384555, -30.87816 ], [ -55.5391992, -30.877256800000012 ], [ -55.5406228, -30.878132 ] ] ] } },
{ "type": "Feature", "properties": { "name": "Cerro do Depósito", "code_muni": 4317103.0, "name_muni": "Sant'ana do Livramento" }, "geometry": { "type": "Polygon", "coordinates": [ [ [ -55.5315006, -30.8775476 ], [ -55.5313718, -30.8775453 ], [ -55.5312136, -30.8775315 ], [ -55.5309749, -30.8774739 ], [ -55.5305725, -30.8772023 ], [ -55.5303419, -30.877002 ], [ -55.5302024, -30.8768317 ], [ -55.530138, -30.8766406 ], [ -55.5301139, -30.8763091 ], [ -55.5300307, -30.876055900000011 ], [ -55.5299503, -30.8759684 ], [ -55.5296471, -30.8760812 ], [ -55.5295862, -30.8759917 ], [ -55.5296035, -30.8759118 ], [ -55.5297388, -30.8754453 ], [ -55.5298527, -30.8752857 ], [ -55.5299701, -30.875241400000011 ], [ -55.5301728, -30.8752636 ], [ -55.5302689, -30.8753053 ], [ -55.5303901, -30.8751465 ], [ -55.5304116, -30.8747137 ], [ -55.530358, -30.8741566 ], [ -55.5304384, -30.8736732 ], [ -55.5304813, -30.8732634 ], [ -55.5306959, -30.873001 ], [ -55.5307925, -30.8727984 ], [ -55.5308032, -30.8726833 ], [ -55.5307603, -30.8726004 ], [ -55.5306852, -30.8725221 ], [ -55.5304974, -30.8723702 ], [ -55.5300093, -30.872024799999984 ], [ -55.5298483, -30.8718729 ], [ -55.5295748, -30.8715368 ], [ -55.5294728, -30.8713664 ], [ -55.5295447, -30.871264 ], [ -55.5293551, -30.871127 ], [ -55.5290565, -30.8712456 ], [ -55.5286791, -30.8712007 ], [ -55.5280588, -30.8711213 ], [ -55.5276492, -30.8710119 ], [ -55.5268552, -30.8709705 ], [ -55.5264368, -30.8710257 ], [ -55.5260238, -30.871191499999984 ], [ -55.5256877, -30.8714022 ], [ -55.5252781, -30.8717394 ], [ -55.525162, -30.871881 ], [ -55.5252566, -30.8721492 ], [ -55.5254498, -30.8724715 ], [ -55.525693, -30.8723783 ], [ -55.525777, -30.8722091 ], [ -55.5259433, -30.8722597 ], [ -55.526013, -30.8724117 ], [ -55.526031, -30.8727144 ], [ -55.5261758, -30.8731242 ], [ -55.5263027, -30.8734522 ], [ -55.5262402, -30.8736122 ], [ -55.5260793, -30.8739576 ], [ -55.526072, -30.8741705 ], [ -55.526115, -30.874479 ], [ -55.5261471, -30.8746217 ], [ -55.526083, -30.8747048 ], [ -55.5257504, -30.8747509 ], [ -55.52552510000001, -30.8748982 ], [ -55.5252639, -30.8750672 ], [ -55.5251282, -30.8751837 ], [ -55.5252532, -30.8753526 ], [ -55.5254822, -30.875561199999989 ], [ -55.5255321, -30.875794599999985 ], [ -55.5253497, -30.876070899999988 ], [ -55.5251244, -30.876218200000011 ], [ -55.52486, -30.876242599999987 ], [ -55.5245488, -30.8763255 ], [ -55.5242806, -30.8765557 ], [ -55.5239373, -30.8768135 ], [ -55.5236154, -30.8769885 ], [ -55.5232614, -30.8771727 ], [ -55.5228858, -30.8773384 ], [ -55.5223709, -30.877430499999985 ], [ -55.5218666, -30.8774213 ], [ -55.5215984, -30.8773568 ], [ -55.5211907, -30.8771819 ], [ -55.5209868, -30.877154299999987 ], [ -55.5205791, -30.8772371 ], [ -55.5200748, -30.8773989 ], [ -55.5199258, -30.877433 ], [ -55.519851, -30.8774894 ], [ -55.5197794, -30.8775897 ], [ -55.5197693, -30.8776062 ], [ -55.5198565, -30.8776374 ], [ -55.5210283, -30.8778259 ], [ -55.5214251, -30.8778998 ], [ -55.5217918, -30.8780278 ], [ -55.522056, -30.878185799999986 ], [ -55.5222945, -30.8783838 ], [ -55.5225734, -30.8786133 ], [ -55.5227455, -30.8789457 ], [ -55.5229849, -30.8793409 ], [ -55.5231063, -30.8795414 ], [ -55.5232487, -30.8798099 ], [ -55.5233167, -30.8802612 ], [ -55.5232695, -30.8805399 ], [ -55.5232477, -30.8807248 ], [ -55.5232004, -30.8809943 ], [ -55.5232411, -30.8812547 ], [ -55.5234002, -30.8815846 ], [ -55.5235676, -30.8817724 ], [ -55.5237337, -30.8819572 ], [ -55.5240901, -30.8822003 ], [ -55.5260935, -30.883247199999985 ], [ -55.5267003, -30.8834658 ], [ -55.5279692, -30.8838378 ], [ -55.5284557, -30.8839023 ], [ -55.5287186, -30.8839069 ], [ -55.5296305, -30.8838839 ], [ -55.5298584, -30.8838338 ], [ -55.5305812, -30.8834573 ], [ -55.5308997, -30.8833268 ], [ -55.5310592, -30.8832856 ], [ -55.5312091, -30.8831812 ], [ -55.5319956, -30.8826527 ], [ -55.5322333, -30.8824907 ], [ -55.5325754, -30.8822943 ], [ -55.5326663, -30.8822332 ], [ -55.533032, -30.8819182 ], [ -55.533053, -30.8819001 ], [ -55.5331198, -30.8818554 ], [ -55.533841, -30.8813727 ], [ -55.5341869, -30.8811286 ], [ -55.5341318, -30.8810674 ], [ -55.5338219, -30.8806336 ], [ -55.5336383, -30.8803768 ], [ -55.5335498, -30.8802387 ], [ -55.5329248, -30.879281 ], [ -55.533067, -30.8792097 ], [ -55.5329973, -30.8790393 ], [ -55.5328524, -30.8791176 ], [ -55.5326593, -30.8791337 ], [ -55.5323991, -30.8791245 ], [ -55.5322436, -30.87906 ], [ -55.5321792, -30.8790278 ], [ -55.5320987, -30.8788414 ], [ -55.5320209, -30.8779965 ], [ -55.5319458, -30.8778612 ], [ -55.5317473, -30.8775039 ], [ -55.5315006, -30.8775476 ] ] ] } },
{ "type": "Feature", "properties": { "name": "Kennedy", "code_muni": 4317103.0, "name_muni": "Sant'ana do Livramento" }, "geometry": { "type": "Polygon", "coordinates": [ [ [ -55.5223027, -30.879829899999987 ], [ -55.5223598, -30.8797778 ], [ -55.5224057, -30.8796709 ], [ -55.5225201, -30.8790633 ], [ -55.5225404, -30.8789337 ], [ -55.5225607, -30.8787367 ], [ -55.5225734, -30.8786133 ], [ -55.5222945, -30.8783838 ], [ -55.522056, -30.878185799999986 ], [ -55.5217918, -30.8780278 ], [ -55.5214251, -30.8778998 ], [ -55.5210283, -30.8778259 ], [ -55.5198565, -30.8776374 ], [ -55.5197693, -30.8776062 ], [ -55.5196835, -30.877606700000012 ], [ -55.5194949, -30.8775756 ], [ -55.5192204, -30.8775185 ], [ -55.5190553, -30.8774547 ], [ -55.5188829, -30.877361 ], [ -55.5187782, -30.8772899 ], [ -55.5186353, -30.877172800000015 ], [ -55.5185059, -30.8770391 ], [ -55.5183451, -30.876856 ], [ -55.518203, -30.8766896 ], [ -55.5181143, -30.8765581 ], [ -55.5180265, -30.8764108 ], [ -55.5179273, -30.8762466 ], [ -55.5178629, -30.8761085 ], [ -55.5177984, -30.875934699999988 ], [ -55.5177253, -30.8757631 ], [ -55.5176488, -30.8755817 ], [ -55.5175836, -30.8754629 ], [ -55.5174899, -30.8753183 ], [ -55.5173645, -30.8751815 ], [ -55.5171602, -30.8749886 ], [ -55.5169893, -30.8748517 ], [ -55.516865, -30.874752199999989 ], [ -55.5166893, -30.8746032 ], [ -55.5165922, -30.8744884 ], [ -55.5165326, -30.8744057 ], [ -55.516382, -30.8741999 ], [ -55.516088, -30.873668 ], [ -55.5160008, -30.8735216 ], [ -55.5159172, -30.8734117 ], [ -55.5158124, -30.8733248 ], [ -55.5157065, -30.8732594 ], [ -55.5155403, -30.8731716 ], [ -55.5153238, -30.8730873 ], [ -55.515096, -30.8729812 ], [ -55.5149118, -30.8728673 ], [ -55.5147292, -30.8727387 ], [ -55.5145776, -30.8726066 ], [ -55.5144709, -30.8724887 ], [ -55.5143462, -30.8723211 ], [ -55.514279, -30.8721968 ], [ -55.5142234, -30.8720764 ], [ -55.5141237, -30.8719063 ], [ -55.5140455, -30.8717872 ], [ -55.5139498, -30.871685899999985 ], [ -55.5138183, -30.8715587 ], [ -55.513652, -30.8714569 ], [ -55.5135036, -30.8713774 ], [ -55.5133602, -30.8713119 ], [ -55.5131754, -30.8712435 ], [ -55.51285140000001, -30.8711305 ], [ -55.5125453, -30.8710049 ], [ -55.5123805, -30.8709249 ], [ -55.5122135, -30.8708075 ], [ -55.5120416, -30.8706549 ], [ -55.5119291, -30.8705261 ], [ -55.5118537, -30.8703787 ], [ -55.5118069, -30.8702556 ], [ -55.5117691, -30.8701413 ], [ -55.5117073, -30.8698703 ], [ -55.5114332, -30.8700732 ], [ -55.5113281, -30.8701514 ], [ -55.5112537, -30.8702348 ], [ -55.5111983, -30.8702942 ], [ -55.5111468, -30.87035680000001 ], [ -55.511122, -30.8703974 ], [ -55.5111054, -30.8704277 ], [ -55.5110987, -30.8704551 ], [ -55.5111302, -30.8705204 ], [ -55.5111404, -30.8705574 ], [ -55.51114230000001, -30.8705901 ], [ -55.5111404, -30.8706457 ], [ -55.5111351, -30.8706927 ], [ -55.5111086, -30.8708086 ], [ -55.5110651, -30.8709921 ], [ -55.5109396, -30.8714898 ], [ -55.5109005, -30.8716657 ], [ -55.510805, -30.8720067 ], [ -55.5106772, -30.8724718 ], [ -55.510563, -30.8728887 ], [ -55.5105462, -30.8729528 ], [ -55.5104263, -30.8730053 ], [ -55.5111533, -30.873811299999986 ], [ -55.5115932, -30.8744421 ], [ -55.511284, -30.874869 ], [ -55.5111175, -30.8753492 ], [ -55.510782, -30.87639290000001 ], [ -55.5107243, -30.8765671 ], [ -55.5110929, -30.8766829 ], [ -55.511738, -30.8768987 ], [ -55.5132051, -30.8773662 ], [ -55.5136522, -30.8775506 ], [ -55.5146341, -30.8780239 ], [ -55.5151518, -30.8782997 ], [ -55.5159862, -30.8788468 ], [ -55.516401, -30.8791325 ], [ -55.516615, -30.8792799 ], [ -55.5168081, -30.879409299999985 ], [ -55.5169168, -30.8794822 ], [ -55.5174486, -30.8798387 ], [ -55.5175992, -30.8799431 ], [ -55.5178918, -30.880093100000011 ], [ -55.5181472, -30.880184 ], [ -55.5183262, -30.8802305 ], [ -55.5184268, -30.8802492 ], [ -55.5185041, -30.8802623 ], [ -55.5185672, -30.8802879 ], [ -55.5186045, -30.8802961 ], [ -55.5186328, -30.8803015 ], [ -55.5186528, -30.8803008 ], [ -55.5188566, -30.8802939 ], [ -55.519141, -30.880303100000013 ], [ -55.5199537, -30.8808993 ], [ -55.5202407, -30.8811088 ], [ -55.5203399, -30.8809845 ], [ -55.520635, -30.8807962 ], [ -55.5206829, -30.8807655 ], [ -55.521593, -30.8802441 ], [ -55.5223027, -30.879829899999987 ] ] ] } },
{ "type": "Feature", "properties": { "name": "Argiles", "code_muni": 4317103.0, "name_muni": "Sant'ana do Livramento" }, "geometry": { "type": "Polygon", "coordinates": [ [ [ -55.5163357, -30.8844779 ], [ -55.5167019, -30.8840871 ], [ -55.5170517, -30.8837263 ], [ -55.5172464, -30.8835252 ], [ -55.5176397, -30.8829267 ], [ -55.5181638, -30.8820867 ], [ -55.5187166, -30.8812875 ], [ -55.5188943, -30.8811338 ], [ -55.5190107, -30.8810634 ], [ -55.5191244, -30.8810172 ], [ -55.5192503, -30.8809938 ], [ -55.5193762, -30.8809843 ], [ -55.5194855, -30.8810019 ], [ -55.5195949, -30.881028700000012 ], [ -55.519874, -30.881174 ], [ -55.5202407, -30.8811088 ], [ -55.5199537, -30.8808993 ], [ -55.519141, -30.880303100000013 ], [ -55.5188566, -30.8802939 ], [ -55.5186528, -30.8803008 ], [ -55.5186328, -30.8803015 ], [ -55.5186045, -30.8802961 ], [ -55.5185672, -30.8802879 ], [ -55.5185041, -30.8802623 ], [ -55.5184268, -30.8802492 ], [ -55.5183262, -30.8802305 ], [ -55.5181472, -30.880184 ], [ -55.5178918, -30.880093100000011 ], [ -55.5175992, -30.8799431 ], [ -55.5174486, -30.8798387 ], [ -55.5169168, -30.8794822 ], [ -55.5168081, -30.879409299999985 ], [ -55.516615, -30.8792799 ], [ -55.516401, -30.8791325 ], [ -55.5159862, -30.8788468 ], [ -55.5151518, -30.8782997 ], [ -55.5146341, -30.8780239 ], [ -55.5136522, -30.8775506 ], [ -55.5132051, -30.8773662 ], [ -55.511738, -30.8768987 ], [ -55.5110929, -30.8766829 ], [ -55.5107243, -30.8765671 ], [ -55.5106734, -30.8767275 ], [ -55.5103679, -30.8776474 ], [ -55.5101511, -30.878316 ], [ -55.5100164, -30.8787251 ], [ -55.5098164, -30.8793297 ], [ -55.5098034, -30.879377300000012 ], [ -55.5096995, -30.8797031 ], [ -55.5096631, -30.8798109 ], [ -55.5096168, -30.879948 ], [ -55.5095346, -30.8802062 ], [ -55.5094692, -30.880412399999987 ], [ -55.5097001, -30.8807268 ], [ -55.5101186, -30.8813597 ], [ -55.5103177, -30.881646099999987 ], [ -55.5104414, -30.8817904 ], [ -55.5107591, -30.8820575 ], [ -55.5114221, -30.8825352 ], [ -55.5116041, -30.8826699 ], [ -55.5117076, -30.882744899999985 ], [ -55.5122248, -30.8831194 ], [ -55.5135353, -30.8839305 ], [ -55.5141223, -30.8842955 ], [ -55.5144271, -30.8844525 ], [ -55.5144775, -30.88448 ], [ -55.515089, -30.8848144 ], [ -55.5152689, -30.8849059 ], [ -55.5157352, -30.8851431 ], [ -55.5163357, -30.8844779 ] ] ] } },
{ "type": "Feature", "properties": { "name": "Brasília", "code_muni": 4317103.0, "name_muni": "Sant'ana do Livramento" }, "geometry": { "type": "Polygon", "coordinates": [ [ [ -55.5073682, -30.8869421 ], [ -55.507759, -30.8856628 ], [ -55.5078883, -30.8851933 ], [ -55.5081599, -30.884368699999985 ], [ -55.508444, -30.883508 ], [ -55.5088101, -30.8824441 ], [ -55.5090885, -30.881586 ], [ -55.5091546, -30.8813821 ], [ -55.5093112, -30.8808995 ], [ -55.5093244, -30.8808588 ], [ -55.5094043, -30.8806087 ], [ -55.5094692, -30.880412399999987 ], [ -55.5095346, -30.8802062 ], [ -55.5096168, -30.879948 ], [ -55.5096631, -30.8798109 ], [ -55.5096995, -30.8797031 ], [ -55.5098034, -30.879377300000012 ], [ -55.5098164, -30.8793297 ], [ -55.5100164, -30.8787251 ], [ -55.5101511, -30.878316 ], [ -55.5103679, -30.8776474 ], [ -55.5106734, -30.8767275 ], [ -55.5107243, -30.8765671 ], [ -55.5105396, -30.8764679 ], [ -55.510230300000011, -30.8763572 ], [ -55.5101031, -30.8763053 ], [ -55.5094783, -30.8760503 ], [ -55.5087484, -30.8757688 ], [ -55.50836, -30.8756157 ], [ -55.5080945, -30.8754758 ], [ -55.5074896, -30.8749561 ], [ -55.5070678, -30.8746196 ], [ -55.5065681, -30.8743205 ], [ -55.5064138, -30.8743596 ], [ -55.5061254, -30.8744327 ], [ -55.5054265, -30.8744984 ], [ -55.5050987, -30.8745421 ], [ -55.5033681, -30.8750093 ], [ -55.502868, -30.875154 ], [ -55.5025595, -30.8753135 ], [ -55.502471, -30.8753652 ], [ -55.5023857, -30.8754349 ], [ -55.5015792, -30.8761399 ], [ -55.5011688, -30.876493299999989 ], [ -55.500906, -30.8767407 ], [ -55.5007571, -30.8768443 ], [ -55.5004969, -30.876971 ], [ -55.5002663, -30.8770607 ], [ -55.4999337, -30.8771756 ], [ -55.499329, -30.8772576 ], [ -55.4989856, -30.8772849 ], [ -55.4981417, -30.8772767 ], [ -55.4979558, -30.8772837 ], [ -55.4972333, -30.877223 ], [ -55.4966949, -30.8772121 ], [ -55.4965802, -30.8772173 ], [ -55.4964675, -30.877233 ], [ -55.4961685, -30.8773341 ], [ -55.4958614, -30.877482 ], [ -55.495563, -30.8776834 ], [ -55.495282, -30.8779487 ], [ -55.4948883, -30.8782997 ], [ -55.4941133, -30.8791527 ], [ -55.4938504, -30.8794969 ], [ -55.4937076, -30.8796027 ], [ -55.4935044, -30.8796862 ], [ -55.4931516, -30.8797826 ], [ -55.4928392, -30.8798681 ], [ -55.4926924, -30.8799388 ], [ -55.4926119, -30.8800165 ], [ -55.4925388, -30.880188 ], [ -55.4918025, -30.8823858 ], [ -55.4914746, -30.8834746 ], [ -55.4910958, -30.8845637 ], [ -55.4910021, -30.8847165 ], [ -55.4905915, -30.8849588 ], [ -55.4895263, -30.8853671 ], [ -55.4894074, -30.88549 ], [ -55.4893034, -30.8856551 ], [ -55.489119, -30.886032 ], [ -55.4886986, -30.8867197 ], [ -55.4886469, -30.8867651 ], [ -55.4887112, -30.886921599999987 ], [ -55.4897037, -30.8881899 ], [ -55.4901044, -30.8887165 ], [ -55.4912473, -30.8902224 ], [ -55.491325, -30.8904479 ], [ -55.4915316, -30.8903409 ], [ -55.4926568, -30.8897191 ], [ -55.494529, -30.8886325 ], [ -55.4964133, -30.8875518 ], [ -55.4975304, -30.8869188 ], [ -55.4982881, -30.8866013 ], [ -55.4990679, -30.8862989 ], [ -55.4998371, -30.886004 ], [ -55.500394300000011, -30.8857837 ], [ -55.5037022, -30.8841289 ], [ -55.5037934, -30.8843131 ], [ -55.5038148, -30.8844052 ], [ -55.50377730000001, -30.8846169 ], [ -55.5035734, -30.8847412 ], [ -55.5035949, -30.8848333 ], [ -55.5036593, -30.8849116 ], [ -55.5039167, -30.8851326 ], [ -55.5039704, -30.8852154 ], [ -55.5040739, -30.8853085 ], [ -55.5044156, -30.885616 ], [ -55.5046946, -30.8857955 ], [ -55.5049092, -30.885906 ], [ -55.5053061, -30.8862513 ], [ -55.5059284, -30.8865597 ], [ -55.5066955, -30.8868313 ], [ -55.5069047, -30.8869326 ], [ -55.5070013, -30.88700170000001 ], [ -55.5070764, -30.8872364 ], [ -55.5072987, -30.887323 ], [ -55.5073682, -30.8869421 ] ] ] } },
{ "type": "Feature", "properties": { "name": "Morada da Colina", "code_muni": 4317103.0, "name_muni": "Sant'ana do Livramento" }, "geometry": { "type": "Polygon", "coordinates": [ [ [ -55.5009008, -30.8871581 ], [ -55.5003509, -30.8865973 ], [ -55.4998371, -30.886004 ], [ -55.4990679, -30.8862989 ], [ -55.4982881, -30.8866013 ], [ -55.4975304, -30.8869188 ], [ -55.4964133, -30.8875518 ], [ -55.494529, -30.8886325 ], [ -55.4926568, -30.8897191 ], [ -55.4915316, -30.8903409 ], [ -55.491325, -30.8904479 ], [ -55.4913881, -30.89077480000001 ], [ -55.4914789, -30.8913627 ], [ -55.4919914, -30.8914745 ], [ -55.4934504, -30.8917536 ], [ -55.4949626, -30.8920513 ], [ -55.4957336, -30.8922045 ], [ -55.4964976, -30.8923552 ], [ -55.497261, -30.8925004 ], [ -55.4980495, -30.892658 ], [ -55.49885, -30.8928348 ], [ -55.4992725, -30.892994 ], [ -55.4992779, -30.8928441 ], [ -55.4990994, -30.8921058 ], [ -55.4991011, -30.8919947 ], [ -55.4993377, -30.8915241 ], [ -55.4997715, -30.890745899999988 ], [ -55.4999234, -30.8904615 ], [ -55.5004956, -30.8894032 ], [ -55.5006477, -30.8891086 ], [ -55.5007712, -30.888886500000012 ], [ -55.5009071, -30.8886986 ], [ -55.5011539, -30.888473699999984 ], [ -55.5017071, -30.8880277 ], [ -55.5009008, -30.8871581 ] ] ] } },
{ "type": "Feature", "properties": { "name": "Parque do Sol", "code_muni": 4317103.0, "name_muni": "Sant'ana do Livramento" }, "geometry": { "type": "Polygon", "coordinates": [ [ [ -55.5073131, -30.8968355 ], [ -55.5075271, -30.8959725 ], [ -55.5076691, -30.8952532 ], [ -55.5077309, -30.8947196 ], [ -55.5077326, -30.8941501 ], [ -55.5077034, -30.893689 ], [ -55.507692, -30.8932661 ], [ -55.5076718, -30.8930935 ], [ -55.5073767, -30.890577399999987 ], [ -55.5073251, -30.890082100000011 ], [ -55.5072167, -30.8893059 ], [ -55.5071778, -30.8886698 ], [ -55.5072382, -30.887814399999986 ], [ -55.5072987, -30.887323 ], [ -55.5070764, -30.8872364 ], [ -55.5070013, -30.88700170000001 ], [ -55.5069047, -30.8869326 ], [ -55.5066955, -30.8868313 ], [ -55.5059284, -30.8865597 ], [ -55.5053061, -30.8862513 ], [ -55.5049092, -30.885906 ], [ -55.5046946, -30.8857955 ], [ -55.5044156, -30.885616 ], [ -55.5040739, -30.8853085 ], [ -55.5039704, -30.8852154 ], [ -55.5039167, -30.8851326 ], [ -55.5036593, -30.8849116 ], [ -55.5035949, -30.8848333 ], [ -55.5035734, -30.8847412 ], [ -55.50377730000001, -30.8846169 ], [ -55.5038148, -30.8844052 ], [ -55.5037934, -30.8843131 ], [ -55.5037022, -30.8841289 ], [ -55.500394300000011, -30.8857837 ], [ -55.4998371, -30.886004 ], [ -55.5003509, -30.8865973 ], [ -55.5009008, -30.8871581 ], [ -55.5017071, -30.8880277 ], [ -55.5011539, -30.888473699999984 ], [ -55.5009071, -30.8886986 ], [ -55.5007712, -30.888886500000012 ], [ -55.5006477, -30.8891086 ], [ -55.5004956, -30.8894032 ], [ -55.4999234, -30.8904615 ], [ -55.4997715, -30.890745899999988 ], [ -55.4993377, -30.8915241 ], [ -55.4991011, -30.8919947 ], [ -55.4990994, -30.8921058 ], [ -55.4992779, -30.8928441 ], [ -55.4992725, -30.892994 ], [ -55.4993575, -30.8930387 ], [ -55.5007262, -30.8937578 ], [ -55.5016102, -30.8942095 ], [ -55.501774, -30.8942967 ], [ -55.5026762, -30.8947688 ], [ -55.5027933, -30.8948348 ], [ -55.5051128, -30.8960578 ], [ -55.5053895, -30.8962161 ], [ -55.5060735, -30.8965851 ], [ -55.5067398, -30.8969467 ], [ -55.5071813, -30.8971691 ], [ -55.5072682, -30.8970005 ], [ -55.5073131, -30.8968355 ] ] ] } },
{ "type": "Feature", "properties": { "name": "Jardins", "code_muni": 4317103.0, "name_muni": "Sant'ana do Livramento" }, "geometry": { "type": "Polygon", "coordinates": [ [ [ -55.5152689, -30.8849059 ], [ -55.515089, -30.8848144 ], [ -55.5144775, -30.88448 ], [ -55.5144271, -30.8844525 ], [ -55.5141223, -30.8842955 ], [ -55.5135353, -30.8839305 ], [ -55.5122248, -30.8831194 ], [ -55.5117076, -30.882744899999985 ], [ -55.5116041, -30.8826699 ], [ -55.5114221, -30.8825352 ], [ -55.5107591, -30.8820575 ], [ -55.5104414, -30.8817904 ], [ -55.5103177, -30.881646099999987 ], [ -55.5101186, -30.8813597 ], [ -55.5097001, -30.8807268 ], [ -55.5094692, -30.880412399999987 ], [ -55.5094043, -30.8806087 ], [ -55.5093244, -30.8808588 ], [ -55.5093112, -30.8808995 ], [ -55.5091546, -30.8813821 ], [ -55.5090885, -30.881586 ], [ -55.5088101, -30.8824441 ], [ -55.508444, -30.883508 ], [ -55.5081599, -30.884368699999985 ], [ -55.5078883, -30.8851933 ], [ -55.507759, -30.8856628 ], [ -55.5073682, -30.8869421 ], [ -55.5072987, -30.887323 ], [ -55.5072382, -30.887814399999986 ], [ -55.5071778, -30.8886698 ], [ -55.5072167, -30.8893059 ], [ -55.5073251, -30.890082100000011 ], [ -55.5073767, -30.890577399999987 ], [ -55.5076718, -30.8930935 ], [ -55.507692, -30.8932661 ], [ -55.5077034, -30.893689 ], [ -55.5077326, -30.8941501 ], [ -55.5077309, -30.8947196 ], [ -55.5076691, -30.8952532 ], [ -55.5075271, -30.8959725 ], [ -55.5073131, -30.8968355 ], [ -55.5072682, -30.8970005 ], [ -55.5071813, -30.8971691 ], [ -55.5087071, -30.8979779 ], [ -55.5107966, -30.8990834 ], [ -55.5110869, -30.8990266 ], [ -55.512064, -30.8986591 ], [ -55.5134728, -30.8980895 ], [ -55.5138947, -30.8979163 ], [ -55.5141561, -30.897786499999988 ], [ -55.5142112, -30.8976769 ], [ -55.5142635, -30.8975563 ], [ -55.5143064, -30.8974044 ], [ -55.5144739, -30.8965319 ], [ -55.5146483, -30.8957908 ], [ -55.5146804, -30.895655 ], [ -55.5147824, -30.895505400000015 ], [ -55.5149098, -30.8953903 ], [ -55.5150282, -30.8953132 ], [ -55.51506, -30.8952982 ], [ -55.5156299, -30.8950002 ], [ -55.5163698, -30.8946088 ], [ -55.5177722, -30.893934 ], [ -55.5184648, -30.893604 ], [ -55.5191275, -30.893268 ], [ -55.5194347, -30.8931221 ], [ -55.5195731, -30.8930836 ], [ -55.5197241, -30.8930256 ], [ -55.5199237, -30.8929285 ], [ -55.5201209, -30.8928326 ], [ -55.5201679, -30.8928098 ], [ -55.5204462, -30.8926753 ], [ -55.5199409, -30.892357 ], [ -55.5193341, -30.8919528 ], [ -55.5187386, -30.8915154 ], [ -55.518166, -30.891123 ], [ -55.5175464, -30.8906718 ], [ -55.5174163, -30.8905499 ], [ -55.5173828, -30.8904244 ], [ -55.51739, -30.8903207 ], [ -55.5174149, -30.8902064 ], [ -55.5176483, -30.8892712 ], [ -55.518167, -30.8870596 ], [ -55.5181715, -30.8869957 ], [ -55.518168, -30.8869341 ], [ -55.5181408, -30.8868677 ], [ -55.5181028, -30.8867944 ], [ -55.5177339, -30.8861808 ], [ -55.5176345, -30.8860447 ], [ -55.51750830000001, -30.885939900000011 ], [ -55.5173168, -30.8858413 ], [ -55.5166916, -30.8855791 ], [ -55.5158806, -30.8852097 ], [ -55.5157352, -30.8851431 ], [ -55.5152689, -30.8849059 ] ] ] } },
{ "type": "Feature", "properties": { "name": "Fluminense", "code_muni": 4317103.0, "name_muni": "Sant'ana do Livramento" }, "geometry": { "type": "Polygon", "coordinates": [ [ [ -55.5192503, -30.8809938 ], [ -55.5191244, -30.8810172 ], [ -55.5190107, -30.8810634 ], [ -55.5188943, -30.8811338 ], [ -55.5187166, -30.8812875 ], [ -55.5181638, -30.8820867 ], [ -55.5176397, -30.8829267 ], [ -55.5172464, -30.8835252 ], [ -55.5170517, -30.8837263 ], [ -55.5167019, -30.8840871 ], [ -55.5163357, -30.8844779 ], [ -55.5157352, -30.8851431 ], [ -55.5158806, -30.8852097 ], [ -55.5166916, -30.8855791 ], [ -55.5173168, -30.8858413 ], [ -55.51750830000001, -30.885939900000011 ], [ -55.5176345, -30.8860447 ], [ -55.5177339, -30.8861808 ], [ -55.5181028, -30.8867944 ], [ -55.5181408, -30.8868677 ], [ -55.518168, -30.8869341 ], [ -55.5181715, -30.8869957 ], [ -55.518167, -30.8870596 ], [ -55.5176483, -30.8892712 ], [ -55.5174149, -30.8902064 ], [ -55.51739, -30.8903207 ], [ -55.5173828, -30.8904244 ], [ -55.5174163, -30.8905499 ], [ -55.5175464, -30.8906718 ], [ -55.518166, -30.891123 ], [ -55.5187386, -30.8915154 ], [ -55.5193341, -30.8919528 ], [ -55.5196545, -30.892153099999987 ], [ -55.5197581, -30.8922235 ], [ -55.5198128, -30.892261 ], [ -55.5198489, -30.8922833 ], [ -55.5198881, -30.8923012 ], [ -55.5199233, -30.8923166 ], [ -55.5199558, -30.8923343 ], [ -55.5201844, -30.8921109 ], [ -55.5208509, -30.891488400000011 ], [ -55.5212706, -30.8911246 ], [ -55.5214651, -30.8909667 ], [ -55.5216064, -30.8908635 ], [ -55.5217633, -30.8907844 ], [ -55.5218989, -30.8907371 ], [ -55.5220791, -30.8907182 ], [ -55.5225144, -30.890717599999984 ], [ -55.5238892, -30.8907012 ], [ -55.523992, -30.8906691 ], [ -55.5240864, -30.890606399999989 ], [ -55.524533, -30.8900809 ], [ -55.5246061, -30.8899844 ], [ -55.5249023, -30.8895728 ], [ -55.5260824, -30.888394 ], [ -55.5262034, -30.8882741 ], [ -55.5263853, -30.8880939 ], [ -55.5264125, -30.8880735 ], [ -55.5263722, -30.8880283 ], [ -55.5252752, -30.8868866 ], [ -55.523226, -30.884762 ], [ -55.5214235, -30.8828836 ], [ -55.521107, -30.8824416 ], [ -55.5203989, -30.8812216 ], [ -55.5202407, -30.8811088 ], [ -55.519874, -30.881174 ], [ -55.5195949, -30.881028700000012 ], [ -55.5194855, -30.8810019 ], [ -55.5193762, -30.8809843 ], [ -55.5192503, -30.8809938 ] ] ] } },
{ "type": "Feature", "properties": { "name": "Internacional", "code_muni": 4317103.0, "name_muni": "Sant'ana do Livramento" }, "geometry": { "type": "Polygon", "coordinates": [ [ [ -55.5100007, -30.9113454 ], [ -55.510181, -30.9077301 ], [ -55.5102562, -30.9061669 ], [ -55.5079869, -30.9050313 ], [ -55.508011, -30.9043271 ], [ -55.5088789, -30.9032052 ], [ -55.50942, -30.9025057 ], [ -55.5100265, -30.9017736 ], [ -55.510524071802266, -30.901598979563484 ], [ -55.510973920616593, -30.901397235365355 ], [ -55.5125005, -30.9006043 ], [ -55.5129273, -30.9004483 ], [ -55.5129228, -30.9003785 ], [ -55.5129099, -30.9003172 ], [ -55.512889, -30.9002558 ], [ -55.5128649, -30.9002115 ], [ -55.5128354, -30.9001671 ], [ -55.5128126, -30.9001359 ], [ -55.5127738, -30.9000979 ], [ -55.5126564, -30.9000244 ], [ -55.5122425, -30.8998079 ], [ -55.5116104, -30.899483300000011 ], [ -55.5107966, -30.8990834 ], [ -55.5087071, -30.8979779 ], [ -55.5071813, -30.8971691 ], [ -55.5071863, -30.8973299 ], [ -55.50706610000001, -30.8978494 ], [ -55.5069833, -30.898307699999989 ], [ -55.5069556, -30.898788 ], [ -55.5069317, -30.9013482 ], [ -55.506909, -30.9015162 ], [ -55.5068893, -30.9016615 ], [ -55.5068483, -30.9022482 ], [ -55.5063307, -30.9052308 ], [ -55.5063039, -30.9057487 ], [ -55.5063227, -30.906259599999984 ], [ -55.506379, -30.906683 ], [ -55.5065935, -30.9075161 ], [ -55.5070844, -30.9087013 ], [ -55.5081415, -30.9112188 ], [ -55.5082082, -30.91137770000001 ], [ -55.5082735, -30.9115249 ], [ -55.5087366, -30.9125697 ], [ -55.5088341, -30.912796 ], [ -55.509029, -30.9132485 ], [ -55.5090761, -30.9133259 ], [ -55.5091249, -30.913425 ], [ -55.5091737211987, -30.913525496864757 ], [ -55.509598356688215, -30.912574438938222 ], [ -55.5100007, -30.9113454 ] ] ] } },
{ "type": "Feature", "properties": { "name": "Umbu", "code_muni": 4317103.0, "name_muni": "Sant'ana do Livramento" }, "geometry": { "type": "Polygon", "coordinates": [ [ [ -55.5191275, -30.893268 ], [ -55.5184648, -30.893604 ], [ -55.5177722, -30.893934 ], [ -55.5163698, -30.8946088 ], [ -55.5156299, -30.8950002 ], [ -55.51506, -30.8952982 ], [ -55.5150282, -30.8953132 ], [ -55.5149098, -30.8953903 ], [ -55.5147824, -30.895505400000015 ], [ -55.5146804, -30.895655 ], [ -55.5146483, -30.8957908 ], [ -55.5144739, -30.8965319 ], [ -55.5143064, -30.8974044 ], [ -55.5142635, -30.8975563 ], [ -55.5142112, -30.8976769 ], [ -55.5141561, -30.897786499999988 ], [ -55.5138947, -30.8979163 ], [ -55.5134728, -30.8980895 ], [ -55.512064, -30.8986591 ], [ -55.5110869, -30.8990266 ], [ -55.5107966, -30.8990834 ], [ -55.5116104, -30.899483300000011 ], [ -55.5122425, -30.8998079 ], [ -55.5126564, -30.9000244 ], [ -55.5127738, -30.9000979 ], [ -55.5128126, -30.9001359 ], [ -55.5128354, -30.9001671 ], [ -55.5128649, -30.9002115 ], [ -55.512889, -30.9002558 ], [ -55.5129099, -30.9003172 ], [ -55.5129228, -30.9003785 ], [ -55.5129273, -30.9004483 ], [ -55.513482164184182, -30.900272318262584 ], [ -55.516256017702048, -30.899028194718497 ], [ -55.5168351, -30.8987172 ], [ -55.5187668, -30.8983774 ], [ -55.51934053669099, -30.898492293144024 ], [ -55.524783061582632, -30.89799606567507 ], [ -55.5248178, -30.8979873 ], [ -55.524866, -30.8978859 ], [ -55.5252867, -30.8971504 ], [ -55.5254843, -30.896805 ], [ -55.5255796, -30.8964548 ], [ -55.5256348, -30.896054599999989 ], [ -55.5256831, -30.8955872 ], [ -55.525731, -30.8953369 ], [ -55.5258123, -30.8949118 ], [ -55.5244364, -30.8947957 ], [ -55.5241455, -30.8947605 ], [ -55.523676, -30.8946963 ], [ -55.5233723, -30.894559300000012 ], [ -55.5219165, -30.8936145 ], [ -55.5213609, -30.8932401 ], [ -55.5208811, -30.8929339 ], [ -55.5204462, -30.8926753 ], [ -55.5201679, -30.8928098 ], [ -55.5201209, -30.8928326 ], [ -55.5199237, -30.8929285 ], [ -55.5197241, -30.8930256 ], [ -55.5195731, -30.8930836 ], [ -55.5194347, -30.8931221 ], [ -55.5191275, -30.893268 ] ] ] } },
{ "type": "Feature", "properties": { "name": "Hidráulica", "code_muni": 4317103.0, "name_muni": "Sant'ana do Livramento" }, "geometry": { "type": "Polygon", "coordinates": [ [ [ -55.5201271, -30.8924277 ], [ -55.5201524, -30.8924441 ], [ -55.5202399, -30.8925008 ], [ -55.5203547, -30.892573 ], [ -55.5204131, -30.8926097 ], [ -55.5205746, -30.8927077 ], [ -55.5206199, -30.8927351 ], [ -55.5207424, -30.892817 ], [ -55.5208811, -30.8929339 ], [ -55.5213609, -30.8932401 ], [ -55.5219165, -30.8936145 ], [ -55.5233723, -30.894559300000012 ], [ -55.523676, -30.8946963 ], [ -55.5241455, -30.8947605 ], [ -55.5244364, -30.8947957 ], [ -55.5258123, -30.8949118 ], [ -55.525731, -30.8953369 ], [ -55.5256831, -30.8955872 ], [ -55.5256348, -30.896054599999989 ], [ -55.5255796, -30.8964548 ], [ -55.5254843, -30.896805 ], [ -55.5252867, -30.8971504 ], [ -55.524866, -30.8978859 ], [ -55.5248178, -30.8979873 ], [ -55.524824475675146, -30.897992288814265 ], [ -55.524986570999893, -30.897977506 ], [ -55.525761706345406, -30.89869268362704 ], [ -55.5259108, -30.898804100000014 ], [ -55.52606145514553, -30.898969242016229 ], [ -55.527163079348256, -30.899985616449577 ], [ -55.5276704, -30.8998243 ], [ -55.5290859, -30.899333 ], [ -55.5304465, -30.8988369 ], [ -55.5311224, -30.8984779 ], [ -55.5320678, -30.8977569 ], [ -55.5332119, -30.8969437 ], [ -55.5325332, -30.896321299999986 ], [ -55.5307952, -30.8946687 ], [ -55.5299825, -30.8938954 ], [ -55.5294809, -30.8932992 ], [ -55.5290544, -30.8925558 ], [ -55.5287862, -30.8920632 ], [ -55.5277535, -30.8901114 ], [ -55.5272064, -30.8890825 ], [ -55.5269837, -30.8887142 ], [ -55.5264125, -30.8880735 ], [ -55.5263853, -30.8880939 ], [ -55.5262034, -30.8882741 ], [ -55.5260824, -30.888394 ], [ -55.5249023, -30.8895728 ], [ -55.5246061, -30.8899844 ], [ -55.524533, -30.8900809 ], [ -55.5240864, -30.890606399999989 ], [ -55.523992, -30.8906691 ], [ -55.5238892, -30.8907012 ], [ -55.5225144, -30.890717599999984 ], [ -55.5220791, -30.8907182 ], [ -55.5218989, -30.8907371 ], [ -55.5217633, -30.8907844 ], [ -55.5216064, -30.8908635 ], [ -55.5214651, -30.8909667 ], [ -55.5212706, -30.8911246 ], [ -55.5208509, -30.891488400000011 ], [ -55.5201844, -30.8921109 ], [ -55.5199558, -30.8923343 ], [ -55.5201271, -30.8924277 ] ] ] } },
{ "type": "Feature", "properties": { "name": "Fortim", "code_muni": 4317103.0, "name_muni": "Sant'ana do Livramento" }, "geometry": { "type": "Polygon", "coordinates": [ [ [ -55.529110889694152, -30.899378821996599 ], [ -55.529260867999902, -30.899327915 ], [ -55.532462195366321, -30.902312113627048 ], [ -55.532557725842366, -30.902241690947029 ], [ -55.533708624774214, -30.89740355985386 ], [ -55.5335643, -30.8972652 ], [ -55.5332119, -30.8969437 ], [ -55.5320678, -30.8977569 ], [ -55.5311224, -30.8984779 ], [ -55.5304465, -30.8988369 ], [ -55.5290859, -30.899333 ], [ -55.529110889694152, -30.899378821996599 ] ] ] } },
{ "type": "Feature", "properties": { "name": "Centro", "code_muni": 4317103.0, "name_muni": "Sant'ana do Livramento" }, "geometry": { "type": "Polygon", "coordinates": [ [ [ -55.5224057, -30.8796709 ], [ -55.5223598, -30.8797778 ], [ -55.5223027, -30.879829899999987 ], [ -55.521593, -30.8802441 ], [ -55.5206829, -30.8807655 ], [ -55.520635, -30.8807962 ], [ -55.5203399, -30.8809845 ], [ -55.5202407, -30.8811088 ], [ -55.5203989, -30.8812216 ], [ -55.521107, -30.8824416 ], [ -55.5214235, -30.8828836 ], [ -55.523226, -30.884762 ], [ -55.5252752, -30.8868866 ], [ -55.5263722, -30.8880283 ], [ -55.5264125, -30.8880735 ], [ -55.5269837, -30.8887142 ], [ -55.5272064, -30.8890825 ], [ -55.5277535, -30.8901114 ], [ -55.5287862, -30.8920632 ], [ -55.5290544, -30.8925558 ], [ -55.5294809, -30.8932992 ], [ -55.5299825, -30.8938954 ], [ -55.5307952, -30.8946687 ], [ -55.5325332, -30.896321299999986 ], [ -55.5332119, -30.8969437 ], [ -55.5335643, -30.8972652 ], [ -55.5365006, -30.8954924 ], [ -55.536653519703655, -30.895650562357176 ], [ -55.544691571607736, -30.891215607826297 ], [ -55.5457467, -30.890555100000011 ], [ -55.5461459, -30.889985499999987 ], [ -55.5457307, -30.8895569 ], [ -55.5456764, -30.8894951 ], [ -55.5444337, -30.8881487 ], [ -55.5433811, -30.8870638 ], [ -55.5424443, -30.885965 ], [ -55.5412184, -30.8868567 ], [ -55.5399377, -30.8876899 ], [ -55.5396186, -30.8873318 ], [ -55.5390917, -30.8867779 ], [ -55.5386169, -30.8862284 ], [ -55.53804550000001, -30.8856421 ], [ -55.5371995, -30.8847137 ], [ -55.5363002, -30.8853517 ], [ -55.5362262, -30.885404200000011 ], [ -55.5355077, -30.8845419 ], [ -55.5347468, -30.8837341 ], [ -55.5346021, -30.8835836 ], [ -55.5336386, -30.8825464 ], [ -55.533053, -30.8819001 ], [ -55.533032, -30.8819182 ], [ -55.5326663, -30.8822332 ], [ -55.5325754, -30.8822943 ], [ -55.5322333, -30.8824907 ], [ -55.5319956, -30.8826527 ], [ -55.5312091, -30.8831812 ], [ -55.5310592, -30.8832856 ], [ -55.5308997, -30.8833268 ], [ -55.5305812, -30.8834573 ], [ -55.5298584, -30.8838338 ], [ -55.5296305, -30.8838839 ], [ -55.5287186, -30.8839069 ], [ -55.5284557, -30.8839023 ], [ -55.5279692, -30.8838378 ], [ -55.5267003, -30.8834658 ], [ -55.5260935, -30.883247199999985 ], [ -55.5240901, -30.8822003 ], [ -55.5237337, -30.8819572 ], [ -55.5235676, -30.8817724 ], [ -55.5234002, -30.8815846 ], [ -55.5232411, -30.8812547 ], [ -55.5232004, -30.8809943 ], [ -55.5232477, -30.8807248 ], [ -55.5232695, -30.8805399 ], [ -55.5233167, -30.8802612 ], [ -55.5232487, -30.8798099 ], [ -55.5231063, -30.8795414 ], [ -55.5229849, -30.8793409 ], [ -55.5227455, -30.8789457 ], [ -55.5225734, -30.8786133 ], [ -55.5225607, -30.8787367 ], [ -55.5225404, -30.8789337 ], [ -55.5225201, -30.8790633 ], [ -55.5224057, -30.8796709 ] ] ] } },
{ "type": "Feature", "properties": { "name": "Divisa", "code_muni": 4317103.0, "name_muni": "Sant'ana do Livramento" }, "geometry": { "type": "Polygon", "coordinates": [ [ [ -55.5384555, -30.87816 ], [ -55.5377342, -30.878717 ], [ -55.5365129, -30.8795556 ], [ -55.5366209, -30.8796655 ], [ -55.5362082, -30.8797354 ], [ -55.5361784, -30.87974980000001 ], [ -55.5353558, -30.880323 ], [ -55.5351755, -30.880444199999989 ], [ -55.534911, -30.8806369 ], [ -55.5347226, -30.8807427 ], [ -55.5341869, -30.8811286 ], [ -55.533841, -30.8813727 ], [ -55.5331198, -30.8818554 ], [ -55.533053, -30.8819001 ], [ -55.5336386, -30.8825464 ], [ -55.5346021, -30.8835836 ], [ -55.5347468, -30.8837341 ], [ -55.5355077, -30.8845419 ], [ -55.5362262, -30.885404200000011 ], [ -55.5363002, -30.8853517 ], [ -55.5371995, -30.8847137 ], [ -55.53804550000001, -30.8856421 ], [ -55.5386169, -30.8862284 ], [ -55.5390917, -30.8867779 ], [ -55.5396186, -30.8873318 ], [ -55.5399377, -30.8876899 ], [ -55.5412184, -30.8868567 ], [ -55.5424443, -30.885965 ], [ -55.5433811, -30.8870638 ], [ -55.5444337, -30.8881487 ], [ -55.5456764, -30.8894951 ], [ -55.5457307, -30.8895569 ], [ -55.5461459, -30.889985499999987 ], [ -55.5475801, -30.8879203 ], [ -55.5482365, -30.8869751 ], [ -55.549253910653164, -30.886098473264518 ], [ -55.550934791217458, -30.883864622999269 ], [ -55.5516725, -30.8826755 ], [ -55.551838841934838, -30.882029682522948 ], [ -55.551836041220518, -30.881639219920469 ], [ -55.551242, -30.8806416 ], [ -55.55182237991567, -30.879734157501066 ], [ -55.551804970247289, -30.877305264062542 ], [ -55.5516648, -30.8769163 ], [ -55.5515295, -30.8768393 ], [ -55.5505442, -30.8762931 ], [ -55.5503315, -30.8761743 ], [ -55.5502144, -30.876117 ], [ -55.5496455, -30.875904 ], [ -55.5491752, -30.8763734 ], [ -55.5486948, -30.8768703 ], [ -55.5482371, -30.8772927 ], [ -55.5482178, -30.877321 ], [ -55.5482093, -30.877349 ], [ -55.5481759, -30.8773888 ], [ -55.5479184, -30.8776489 ], [ -55.5477923, -30.8777663 ], [ -55.5479694, -30.8780195 ], [ -55.5477142, -30.878248 ], [ -55.5476052, -30.8781646 ], [ -55.546441, -30.8770901 ], [ -55.5454236, -30.8761822 ], [ -55.5454229, -30.8760985 ], [ -55.5447726, -30.876545 ], [ -55.5448524, -30.8766039 ], [ -55.5452677, -30.8770338 ], [ -55.5445674, -30.8777221 ], [ -55.5445105, -30.8778039 ], [ -55.5443938, -30.8781616 ], [ -55.5441995, -30.879067 ], [ -55.5440869, -30.8795811 ], [ -55.5434459, -30.879343 ], [ -55.5434222, -30.8793338 ], [ -55.542771, -30.8790803 ], [ -55.5424258, -30.8789409 ], [ -55.5412962, -30.8784906 ], [ -55.5411196, -30.8784178 ], [ -55.5408172, -30.8782561 ], [ -55.5406228, -30.878132 ], [ -55.5391992, -30.877256800000012 ], [ -55.5384555, -30.87816 ] ] ] } },
{ "type": "Feature", "properties": { "name": "Parque das Águas", "code_muni": 4317103.0, "name_muni": "Sant'ana do Livramento" }, "geometry": { "type": "Polygon", "coordinates": [ [ [ -55.5448373, -30.8619742 ], [ -55.5447945, -30.8619785 ], [ -55.5448046, -30.8619684 ], [ -55.5446992, -30.8618476 ], [ -55.5445812, -30.861787700000011 ], [ -55.5444988, -30.8616829 ], [ -55.5443701, -30.861558599999984 ], [ -55.5441823, -30.8614619 ], [ -55.5439409, -30.8614021 ], [ -55.5438229, -30.8613606 ], [ -55.5436632, -30.862805099999989 ], [ -55.5436319, -30.8631535 ], [ -55.5435724, -30.8635594 ], [ -55.5434957, -30.8641281 ], [ -55.5433976, -30.8648272 ], [ -55.5432806, -30.865622 ], [ -55.5432245, -30.8659147 ], [ -55.5431541, -30.8663869 ], [ -55.5432091, -30.8664949 ], [ -55.5437632, -30.8678923 ], [ -55.5439085, -30.8682193 ], [ -55.5440667, -30.8685255 ], [ -55.5444243, -30.8691499 ], [ -55.5451228, -30.8702631 ], [ -55.5454992, -30.870937 ], [ -55.5460256, -30.8722403 ], [ -55.5466611, -30.8735287 ], [ -55.5469287, -30.873954 ], [ -55.5472719, -30.874328 ], [ -55.5476958, -30.8747506 ], [ -55.5481361, -30.875111500000017 ], [ -55.5489251, -30.875629499999988 ], [ -55.549348, -30.8758095 ], [ -55.5496455, -30.875904 ], [ -55.5502144, -30.876117 ], [ -55.5503315, -30.8761743 ], [ -55.5505442, -30.8762931 ], [ -55.5515295, -30.8768393 ], [ -55.5516648, -30.8769163 ], [ -55.5516269, -30.8767745 ], [ -55.5528086, -30.8750857 ], [ -55.5544811, -30.872663399999986 ], [ -55.5564389, -30.8717967 ], [ -55.55663552273225, -30.871763627216914 ], [ -55.558260652081195, -30.871035570413426 ], [ -55.5588189, -30.870282099999987 ], [ -55.5581086, -30.8688004 ], [ -55.5576429, -30.8678445 ], [ -55.5574402, -30.8674282 ], [ -55.5571405, -30.8669047 ], [ -55.5566905, -30.8659515 ], [ -55.5562536, -30.864968499999986 ], [ -55.5558684, -30.864132600000012 ], [ -55.5557913, -30.8639974 ], [ -55.555727, -30.8639191 ], [ -55.555619, -30.8638471 ], [ -55.5534518, -30.863454 ], [ -55.551993, -30.8632361 ], [ -55.5505043, -30.8629713 ], [ -55.5500481, -30.8628744 ], [ -55.5497637, -30.862841 ], [ -55.5485755, -30.8628433 ], [ -55.5475992, -30.8628617 ], [ -55.5469099, -30.8627996 ], [ -55.5462474, -30.8625946 ], [ -55.545603, -30.8622545 ], [ -55.5449666, -30.8618418 ], [ -55.5448373, -30.8619742 ] ] ] } },
{ "type": "Feature", "properties": { "name": "Industrial", "code_muni": 4317103.0, "name_muni": "Sant'ana do Livramento" }, "geometry": { "type": "Polygon", "coordinates": [ [ [ -55.5647158, -30.8528883 ], [ -55.5648834, -30.8525809 ], [ -55.5648373, -30.8519429 ], [ -55.5654051, -30.8509842 ], [ -55.566223144776416, -30.849206095146204 ], [ -55.566653710303633, -30.847670427139835 ], [ -55.5601216, -30.844673499999988 ], [ -55.5574349, -30.847888 ], [ -55.5567561, -30.8487329 ], [ -55.556343, -30.8491797 ], [ -55.5559728, -30.8495342 ], [ -55.5554794, -30.8499948 ], [ -55.555026, -30.8503954 ], [ -55.5545861, -30.850731599999985 ], [ -55.5540926, -30.8510678 ], [ -55.5536688, -30.8513395 ], [ -55.5532718, -30.8515606 ], [ -55.5538823, -30.8521468 ], [ -55.5539306, -30.8521406 ], [ -55.5539808, -30.8521544 ], [ -55.5540318, -30.852182 ], [ -55.5551349, -30.8535665 ], [ -55.5560254, -30.854636 ], [ -55.556306, -30.8545021 ], [ -55.5584447, -30.8534813 ], [ -55.5597839, -30.8530331 ], [ -55.5611792, -30.8525188 ], [ -55.5613589, -30.8525004 ], [ -55.5615373, -30.8525395 ], [ -55.5618498, -30.8526316 ], [ -55.5624439, -30.852819300000011 ], [ -55.5631536, -30.8531295 ], [ -55.5636141, -30.8533536 ], [ -55.5638167, -30.8533945 ], [ -55.564045, -30.8534368 ], [ -55.5647158, -30.8528883 ] ] ] } },
{ "type": "Feature", "properties": { "name": "Registro", "code_muni": 4317103.0, "name_muni": "Sant'ana do Livramento" }, "geometry": { "type": "Polygon", "coordinates": [ [ [ -55.5527837, -30.8518231 ], [ -55.5521858, -30.8521141 ], [ -55.5518503, -30.8522785 ], [ -55.5514052, -30.8524633 ], [ -55.5508442, -30.852688 ], [ -55.5503989, -30.85284 ], [ -55.5469354, -30.8537276 ], [ -55.5464966, -30.8538518 ], [ -55.54606170000001, -30.8539629 ], [ -55.5433506, -30.8546717 ], [ -55.5401936, -30.8554961 ], [ -55.5394372, -30.855681399999987 ], [ -55.5388657, -30.8558101 ], [ -55.5387264, -30.8559951 ], [ -55.5386708, -30.8563904 ], [ -55.5380278, -30.8566041 ], [ -55.5375746, -30.8569383 ], [ -55.537447, -30.85765060000001 ], [ -55.5375236, -30.8580944 ], [ -55.5378172, -30.8588724 ], [ -55.5371917, -30.8597053 ], [ -55.5368343, -30.8607134 ], [ -55.5371151, -30.8614585 ], [ -55.5376576, -30.8618859 ], [ -55.5380469, -30.862368 ], [ -55.5383377, -30.8633199 ], [ -55.5383994, -30.8634074 ], [ -55.5385282, -30.8630782 ], [ -55.53895390000001, -30.8627179 ], [ -55.5393973, -30.8624796 ], [ -55.539662, -30.862041 ], [ -55.5397961, -30.8616127 ], [ -55.5400482, -30.8612167 ], [ -55.5402824, -30.8609185 ], [ -55.5404237, -30.8607378 ], [ -55.5406418, -30.860412 ], [ -55.5409119, -30.8603602 ], [ -55.5411372, -30.8603878 ], [ -55.5413606, -30.8603752 ], [ -55.5415269, -30.8603936 ], [ -55.5418112, -30.860458 ], [ -55.5420312, -30.8605317 ], [ -55.5422619, -30.8605824 ], [ -55.5424335, -30.8606054 ], [ -55.5425944, -30.8606929 ], [ -55.5427894, -30.8608391 ], [ -55.5429163, -30.860969199999985 ], [ -55.5430236, -30.8610475 ], [ -55.5432167, -30.861204 ], [ -55.5433616, -30.8612363 ], [ -55.5434903, -30.8613099 ], [ -55.5434688, -30.8613054 ], [ -55.5436928, -30.8613794 ], [ -55.5438229, -30.8613606 ], [ -55.5439409, -30.8614021 ], [ -55.5441823, -30.8614619 ], [ -55.5443701, -30.861558599999984 ], [ -55.5444988, -30.8616829 ], [ -55.5445812, -30.861787700000011 ], [ -55.5446992, -30.8618476 ], [ -55.5448046, -30.8619684 ], [ -55.5447945, -30.8619785 ], [ -55.5448373, -30.8619742 ], [ -55.5449666, -30.8618418 ], [ -55.545603, -30.8622545 ], [ -55.5462474, -30.8625946 ], [ -55.5469099, -30.8627996 ], [ -55.5475992, -30.8628617 ], [ -55.5485755, -30.8628433 ], [ -55.5497637, -30.862841 ], [ -55.5500481, -30.8628744 ], [ -55.5505043, -30.8629713 ], [ -55.551993, -30.8632361 ], [ -55.5534518, -30.863454 ], [ -55.555619, -30.8638471 ], [ -55.555727, -30.8639191 ], [ -55.5557913, -30.8639974 ], [ -55.5558684, -30.864132600000012 ], [ -55.5562536, -30.864968499999986 ], [ -55.5566905, -30.8659515 ], [ -55.5571405, -30.8669047 ], [ -55.5574402, -30.8674282 ], [ -55.5576429, -30.8678445 ], [ -55.5581086, -30.8688004 ], [ -55.5588189, -30.870282099999987 ], [ -55.5608069, -30.8692159 ], [ -55.5613442, -30.8690676 ], [ -55.562981196117171, -30.868920599493656 ], [ -55.563501853000894, -30.868687311235476 ], [ -55.5634028, -30.8664557 ], [ -55.5634993, -30.8648003 ], [ -55.56412, -30.8645317 ], [ -55.5642229, -30.8642428 ], [ -55.5642799, -30.861764 ], [ -55.564306448562462, -30.861678660275938 ], [ -55.563937925854113, -30.860161976077674 ], [ -55.5638403, -30.8599778 ], [ -55.563829325390103, -30.859715010316009 ], [ -55.563537252999893, -30.858512904 ], [ -55.564486036438865, -30.857119707408039 ], [ -55.564509183818807, -30.856575237137815 ], [ -55.562605531, -30.855022018999897 ], [ -55.564112319151619, -30.853680252658968 ], [ -55.564045, -30.8534368 ], [ -55.5638167, -30.8533945 ], [ -55.5636141, -30.8533536 ], [ -55.5631536, -30.8531295 ], [ -55.5624439, -30.852819300000011 ], [ -55.5618498, -30.8526316 ], [ -55.5615373, -30.8525395 ], [ -55.5613589, -30.8525004 ], [ -55.5611792, -30.8525188 ], [ -55.5597839, -30.8530331 ], [ -55.5584447, -30.8534813 ], [ -55.556306, -30.8545021 ], [ -55.5560254, -30.854636 ], [ -55.5551349, -30.8535665 ], [ -55.5540318, -30.852182 ], [ -55.5539808, -30.8521544 ], [ -55.5539306, -30.8521406 ], [ -55.5538823, -30.8521468 ], [ -55.5532718, -30.8515606 ], [ -55.5527837, -30.8518231 ] ] ] } },
{ "type": "Feature", "properties": { "name": "Real", "code_muni": 4317103.0, "name_muni": "Sant'ana do Livramento" }, "geometry": { "type": "Polygon", "coordinates": [ [ [ -55.5216354, -30.8718499 ], [ -55.5223918, -30.8721998 ], [ -55.5231664, -30.8725579 ], [ -55.5236205, -30.8725774 ], [ -55.5242071, -30.872659099999986 ], [ -55.5243949, -30.8727282 ], [ -55.5245646, -30.87296880000001 ], [ -55.5248026, -30.8730874 ], [ -55.5250815, -30.8730413 ], [ -55.5253551, -30.8727927 ], [ -55.5254498, -30.8724715 ], [ -55.5252566, -30.8721492 ], [ -55.525162, -30.871881 ], [ -55.5252781, -30.8717394 ], [ -55.5256877, -30.8714022 ], [ -55.5260238, -30.871191499999984 ], [ -55.5264368, -30.8710257 ], [ -55.5268552, -30.8709705 ], [ -55.5276492, -30.8710119 ], [ -55.5280588, -30.8711213 ], [ -55.5286791, -30.8712007 ], [ -55.5290565, -30.8712456 ], [ -55.5293551, -30.871127 ], [ -55.5295447, -30.871264 ], [ -55.529854, -30.8712744 ], [ -55.5301168, -30.871062599999988 ], [ -55.5302241, -30.8708093 ], [ -55.5302295, -30.870537699999989 ], [ -55.5303689, -30.8703305 ], [ -55.5307141, -30.8701451 ], [ -55.5309322, -30.8701555 ], [ -55.5312506, -30.8703017 ], [ -55.5312058, -30.870639 ], [ -55.5314222, -30.8708911 ], [ -55.5318675, -30.8709739 ], [ -55.532184, -30.8708542 ], [ -55.532284, -30.8706712 ], [ -55.5322036, -30.8704226 ], [ -55.5324254, -30.8701313 ], [ -55.5325898, -30.8699483 ], [ -55.5328044, -30.8697733 ], [ -55.5330726, -30.8695293 ], [ -55.533196, -30.869294499999985 ], [ -55.5331496, -30.869044700000011 ], [ -55.5331745, -30.8688939 ], [ -55.5333623, -30.8685624 ], [ -55.5334696, -30.8683045 ], [ -55.5334339, -30.86811 ], [ -55.5335036, -30.867912 ], [ -55.5338899, -30.8676725 ], [ -55.5341956, -30.8673778 ], [ -55.53448, -30.8671706 ], [ -55.5345497, -30.8669312 ], [ -55.5344907, -30.8666917 ], [ -55.53438340000001, -30.8663878 ], [ -55.5344692, -30.8662313 ], [ -55.534657, -30.8661668 ], [ -55.5349252, -30.8660701 ], [ -55.5351237, -30.8658537 ], [ -55.5356065, -30.8652873 ], [ -55.5359176, -30.8648407 ], [ -55.536243, -30.8641972 ], [ -55.5364669, -30.8636805 ], [ -55.5366631, -30.8636172 ], [ -55.5368593, -30.8637353 ], [ -55.537086, -30.8640809 ], [ -55.5376645, -30.8640268 ], [ -55.5382117, -30.8639393 ], [ -55.5384317, -30.8636492 ], [ -55.5383994, -30.8634074 ], [ -55.5383377, -30.8633199 ], [ -55.5380469, -30.862368 ], [ -55.5376576, -30.8618859 ], [ -55.5371151, -30.8614585 ], [ -55.5368343, -30.8607134 ], [ -55.5371917, -30.8597053 ], [ -55.5378172, -30.8588724 ], [ -55.5375236, -30.8580944 ], [ -55.537447, -30.85765060000001 ], [ -55.5375746, -30.8569383 ], [ -55.5380278, -30.8566041 ], [ -55.5386708, -30.8563904 ], [ -55.5387264, -30.8559951 ], [ -55.5385492, -30.8558666 ], [ -55.5382906, -30.8559105 ], [ -55.5377314, -30.8559865 ], [ -55.5370219, -30.8560544 ], [ -55.5364372, -30.8560913 ], [ -55.5358927, -30.8561108 ], [ -55.5352785, -30.8561189 ], [ -55.5346911, -30.8561085 ], [ -55.534105, -30.8560579 ], [ -55.5335458, -30.8559854 ], [ -55.5330656, -30.8559117 ], [ -55.5325507, -30.8558173 ], [ -55.5318385, -30.855648 ], [ -55.5312136, -30.8554834 ], [ -55.5303048, -30.8551837 ], [ -55.5301762, -30.8551386 ], [ -55.5301597, -30.8552658 ], [ -55.5301227, -30.8553929 ], [ -55.5299798, -30.8558011 ], [ -55.5297605, -30.8563947 ], [ -55.5296749, -30.856703 ], [ -55.5296303, -30.857036799999989 ], [ -55.5296539, -30.8573027 ], [ -55.5298423, -30.8598244 ], [ -55.5298423, -30.8599113 ], [ -55.5296251, -30.8627821 ], [ -55.5295791, -30.8635508 ], [ -55.5295036, -30.8645048 ], [ -55.529473, -30.8646759 ], [ -55.529378, -30.8648768 ], [ -55.5290864, -30.8652627 ], [ -55.5286865, -30.8657751 ], [ -55.5281716, -30.8663323 ], [ -55.5278501, -30.8666092 ], [ -55.5274207, -30.8668039 ], [ -55.5272876, -30.8668531 ], [ -55.5249823, -30.8677067 ], [ -55.5236537, -30.8681126 ], [ -55.5223921, -30.8683032 ], [ -55.5213487, -30.8691664 ], [ -55.5206212, -30.8695984 ], [ -55.5203782, -30.869751300000015 ], [ -55.5202485, -30.8699182 ], [ -55.5201138, -30.8702147 ], [ -55.5198617, -30.8709952 ], [ -55.5209541, -30.871592 ], [ -55.5216354, -30.8718499 ] ] ] } },
{ "type": "Feature", "properties": { "name": "Batuva", "code_muni": 4317103.0, "name_muni": "Sant'ana do Livramento" }, "geometry": { "type": "Polygon", "coordinates": [ [ [ -55.5094565, -30.8718843 ], [ -55.509669, -30.872178 ], [ -55.5098353, -30.8723841 ], [ -55.5100177, -30.872588 ], [ -55.5101657, -30.8727605 ], [ -55.5104263, -30.8730053 ], [ -55.5105462, -30.8729528 ], [ -55.510563, -30.8728887 ], [ -55.5106772, -30.8724718 ], [ -55.510805, -30.8720067 ], [ -55.5109005, -30.8716657 ], [ -55.5109396, -30.8714898 ], [ -55.5110651, -30.8709921 ], [ -55.5111086, -30.8708086 ], [ -55.5111351, -30.8706927 ], [ -55.5111404, -30.8706457 ], [ -55.51114230000001, -30.8705901 ], [ -55.5111404, -30.8705574 ], [ -55.5111302, -30.8705204 ], [ -55.5110987, -30.8704551 ], [ -55.5111054, -30.8704277 ], [ -55.511122, -30.8703974 ], [ -55.5111468, -30.87035680000001 ], [ -55.5111983, -30.8702942 ], [ -55.5112537, -30.8702348 ], [ -55.5113281, -30.8701514 ], [ -55.5114332, -30.8700732 ], [ -55.5117073, -30.8698703 ], [ -55.5118028, -30.8697894 ], [ -55.5119377, -30.8697477 ], [ -55.5122357, -30.8697018 ], [ -55.51230850000001, -30.8696916 ], [ -55.5129015, -30.8696118 ], [ -55.5146038, -30.8693936 ], [ -55.5149279, -30.869354699999988 ], [ -55.5162847, -30.8692031 ], [ -55.5163769, -30.8691929 ], [ -55.5172106, -30.8690891 ], [ -55.5173955, -30.8690647 ], [ -55.5175017, -30.869050300000012 ], [ -55.5184663, -30.8689191 ], [ -55.518607, -30.8689 ], [ -55.519416, -30.8687732 ], [ -55.5195635, -30.8687501 ], [ -55.5206581, -30.8685915 ], [ -55.5211734, -30.8684978 ], [ -55.5212243, -30.868492299999986 ], [ -55.5221081, -30.868343 ], [ -55.5223921, -30.8683032 ], [ -55.5236537, -30.8681126 ], [ -55.5249823, -30.8677067 ], [ -55.5272876, -30.8668531 ], [ -55.5274207, -30.8668039 ], [ -55.5278501, -30.8666092 ], [ -55.5281716, -30.8663323 ], [ -55.5286865, -30.8657751 ], [ -55.5290864, -30.8652627 ], [ -55.529378, -30.8648768 ], [ -55.529473, -30.8646759 ], [ -55.5295036, -30.8645048 ], [ -55.5295791, -30.8635508 ], [ -55.5296251, -30.8627821 ], [ -55.5298423, -30.8599113 ], [ -55.5298423, -30.8598244 ], [ -55.5296539, -30.8573027 ], [ -55.5296303, -30.857036799999989 ], [ -55.5296749, -30.856703 ], [ -55.5297605, -30.8563947 ], [ -55.5299798, -30.8558011 ], [ -55.5301227, -30.8553929 ], [ -55.5301597, -30.8552658 ], [ -55.5301762, -30.8551386 ], [ -55.5300296, -30.8550815 ], [ -55.5291776, -30.854759 ], [ -55.5256513, -30.8534395 ], [ -55.5251169, -30.8532245 ], [ -55.5233839, -30.8526175 ], [ -55.5223111, -30.852332 ], [ -55.5215118, -30.8521708 ], [ -55.5206642, -30.8520649 ], [ -55.5197791, -30.8519751 ], [ -55.518902, -30.8519475 ], [ -55.5180571, -30.8519659 ], [ -55.5171331, -30.8520212 ], [ -55.5165176, -30.8521018 ], [ -55.5156485, -30.8522376 ], [ -55.5148624, -30.8524278 ], [ -55.510802, -30.853520399999987 ], [ -55.5110272, -30.8537063 ], [ -55.5112338, -30.853821799999984 ], [ -55.5114461, -30.853913 ], [ -55.5120348, -30.854167500000013 ], [ -55.5120798, -30.8542133 ], [ -55.512096, -30.8542679 ], [ -55.5127788, -30.8557056 ], [ -55.5107618, -30.8606606 ], [ -55.505141, -30.861965 ], [ -55.5052154, -30.862151100000013 ], [ -55.5054648, -30.8627416 ], [ -55.5055552, -30.8629624 ], [ -55.5055973, -30.8630652 ], [ -55.5056367, -30.8631615 ], [ -55.505709, -30.863337699999988 ], [ -55.5058746, -30.8637402 ], [ -55.5059934, -30.8640365 ], [ -55.5061342, -30.8643503 ], [ -55.5062919, -30.8647191 ], [ -55.5064285, -30.8650301 ], [ -55.5064886, -30.8652067 ], [ -55.506516, -30.8652759 ], [ -55.5065326, -30.8653149 ], [ -55.5065574, -30.865375 ], [ -55.5066043, -30.8654801 ], [ -55.5066836, -30.8656509 ], [ -55.5067515, -30.865818 ], [ -55.5067713, -30.865885299999988 ], [ -55.5068062, -30.8659636 ], [ -55.5068484, -30.8660683 ], [ -55.5069483, -30.8662963 ], [ -55.5070395, -30.8665161 ], [ -55.5071716, -30.8668218 ], [ -55.5072688, -30.8670618 ], [ -55.5073594, -30.8672863 ], [ -55.5074412, -30.8674733 ], [ -55.5074908, -30.867585 ], [ -55.5075511, -30.867722 ], [ -55.5076574, -30.8680213 ], [ -55.5078033, -30.8683223 ], [ -55.5079173, -30.8685853 ], [ -55.5080205, -30.8688541 ], [ -55.5081399, -30.8691356 ], [ -55.5082981, -30.8695131 ], [ -55.508432, -30.8698143 ], [ -55.5085528, -30.87011 ], [ -55.5086844, -30.8704337 ], [ -55.5087624, -30.8706172 ], [ -55.5087766, -30.8706499 ], [ -55.5088302, -30.870755 ], [ -55.5088974, -30.8709008 ], [ -55.5089514, -30.8710239 ], [ -55.5090166, -30.8711497 ], [ -55.509088, -30.8712753 ], [ -55.5091722, -30.8714351 ], [ -55.5092318, -30.8715414 ], [ -55.5092691, -30.8716077 ], [ -55.5093039, -30.8716588 ], [ -55.5093185, -30.871679 ], [ -55.5094565, -30.8718843 ] ] ] } },
{ "type": "Feature", "properties": { "name": "Planalto", "code_muni": 4317103.0, "name_muni": "Sant'ana do Livramento" }, "geometry": { "type": "Polygon", "coordinates": [ [ [ -55.5253551, -30.8727927 ], [ -55.5250815, -30.8730413 ], [ -55.5248026, -30.8730874 ], [ -55.5245646, -30.87296880000001 ], [ -55.5243949, -30.8727282 ], [ -55.5242071, -30.872659099999986 ], [ -55.5236205, -30.8725774 ], [ -55.5231664, -30.8725579 ], [ -55.5223918, -30.8721998 ], [ -55.5216354, -30.8718499 ], [ -55.5209541, -30.871592 ], [ -55.5198617, -30.8709952 ], [ -55.5201138, -30.8702147 ], [ -55.5202485, -30.8699182 ], [ -55.5203782, -30.869751300000015 ], [ -55.5206212, -30.8695984 ], [ -55.5213487, -30.8691664 ], [ -55.5223921, -30.8683032 ], [ -55.5221081, -30.868343 ], [ -55.5212243, -30.868492299999986 ], [ -55.5211734, -30.8684978 ], [ -55.5206581, -30.8685915 ], [ -55.5195635, -30.8687501 ], [ -55.519416, -30.8687732 ], [ -55.518607, -30.8689 ], [ -55.5184663, -30.8689191 ], [ -55.5175017, -30.869050300000012 ], [ -55.5173955, -30.8690647 ], [ -55.5172106, -30.8690891 ], [ -55.5163769, -30.8691929 ], [ -55.5162847, -30.8692031 ], [ -55.5149279, -30.869354699999988 ], [ -55.5146038, -30.8693936 ], [ -55.5129015, -30.8696118 ], [ -55.51230850000001, -30.8696916 ], [ -55.5122357, -30.8697018 ], [ -55.5119377, -30.8697477 ], [ -55.5118028, -30.8697894 ], [ -55.5117073, -30.8698703 ], [ -55.5117691, -30.8701413 ], [ -55.5118069, -30.8702556 ], [ -55.5118537, -30.8703787 ], [ -55.5119291, -30.8705261 ], [ -55.5120416, -30.8706549 ], [ -55.5122135, -30.8708075 ], [ -55.5123805, -30.8709249 ], [ -55.5125453, -30.8710049 ], [ -55.51285140000001, -30.8711305 ], [ -55.5131754, -30.8712435 ], [ -55.5133602, -30.8713119 ], [ -55.5135036, -30.8713774 ], [ -55.513652, -30.8714569 ], [ -55.5138183, -30.8715587 ], [ -55.5139498, -30.871685899999985 ], [ -55.5140455, -30.8717872 ], [ -55.5141237, -30.8719063 ], [ -55.5142234, -30.8720764 ], [ -55.514279, -30.8721968 ], [ -55.5143462, -30.8723211 ], [ -55.5144709, -30.8724887 ], [ -55.5145776, -30.8726066 ], [ -55.5147292, -30.8727387 ], [ -55.5149118, -30.8728673 ], [ -55.515096, -30.8729812 ], [ -55.5153238, -30.8730873 ], [ -55.5155403, -30.8731716 ], [ -55.5157065, -30.8732594 ], [ -55.5158124, -30.8733248 ], [ -55.5159172, -30.8734117 ], [ -55.5160008, -30.8735216 ], [ -55.516088, -30.873668 ], [ -55.516382, -30.8741999 ], [ -55.5165326, -30.8744057 ], [ -55.5165922, -30.8744884 ], [ -55.5166893, -30.8746032 ], [ -55.516865, -30.874752199999989 ], [ -55.5169893, -30.8748517 ], [ -55.5171602, -30.8749886 ], [ -55.5173645, -30.8751815 ], [ -55.5174899, -30.8753183 ], [ -55.5175836, -30.8754629 ], [ -55.5176488, -30.8755817 ], [ -55.5177253, -30.8757631 ], [ -55.5177984, -30.875934699999988 ], [ -55.5178629, -30.8761085 ], [ -55.5179273, -30.8762466 ], [ -55.5180265, -30.8764108 ], [ -55.5181143, -30.8765581 ], [ -55.518203, -30.8766896 ], [ -55.5183451, -30.876856 ], [ -55.5185059, -30.8770391 ], [ -55.5186353, -30.877172800000015 ], [ -55.5187782, -30.8772899 ], [ -55.5188829, -30.877361 ], [ -55.5190553, -30.8774547 ], [ -55.5192204, -30.8775185 ], [ -55.5194949, -30.8775756 ], [ -55.5196835, -30.877606700000012 ], [ -55.5197693, -30.8776062 ], [ -55.5197794, -30.8775897 ], [ -55.519851, -30.8774894 ], [ -55.5199258, -30.877433 ], [ -55.5200748, -30.8773989 ], [ -55.5205791, -30.8772371 ], [ -55.5209868, -30.877154299999987 ], [ -55.5211907, -30.8771819 ], [ -55.5215984, -30.8773568 ], [ -55.5218666, -30.8774213 ], [ -55.5223709, -30.877430499999985 ], [ -55.5228858, -30.8773384 ], [ -55.5232614, -30.8771727 ], [ -55.5236154, -30.8769885 ], [ -55.5239373, -30.8768135 ], [ -55.5242806, -30.8765557 ], [ -55.5245488, -30.8763255 ], [ -55.52486, -30.876242599999987 ], [ -55.5251244, -30.876218200000011 ], [ -55.5253497, -30.876070899999988 ], [ -55.5255321, -30.875794599999985 ], [ -55.5254822, -30.875561199999989 ], [ -55.5252532, -30.8753526 ], [ -55.5251282, -30.8751837 ], [ -55.5252639, -30.8750672 ], [ -55.52552510000001, -30.8748982 ], [ -55.5257504, -30.8747509 ], [ -55.526083, -30.8747048 ], [ -55.5261471, -30.8746217 ], [ -55.526115, -30.874479 ], [ -55.526072, -30.8741705 ], [ -55.5260793, -30.8739576 ], [ -55.5262402, -30.8736122 ], [ -55.5263027, -30.8734522 ], [ -55.5261758, -30.8731242 ], [ -55.526031, -30.8727144 ], [ -55.526013, -30.8724117 ], [ -55.5259433, -30.8722597 ], [ -55.525777, -30.8722091 ], [ -55.525693, -30.8723783 ], [ -55.5254498, -30.8724715 ], [ -55.5253551, -30.8727927 ] ] ] } },
{ "type": "Feature", "properties": { "name": "Simon Bolivar", "code_muni": 4317103.0, "name_muni": "Sant'ana do Livramento" }, "geometry": { "type": "Polygon", "coordinates": [ [ [ -55.5016235, -30.8581969 ], [ -55.5015387, -30.8582499 ], [ -55.5017872, -30.8583965 ], [ -55.5021358, -30.8586136 ], [ -55.5025247, -30.8588515 ], [ -55.5028089, -30.859039400000011 ], [ -55.5030125, -30.859185 ], [ -55.5032294, -30.8593655 ], [ -55.5035419, -30.8596527 ], [ -55.5037853, -30.8598922 ], [ -55.5042104, -30.8603647 ], [ -55.504427, -30.8606479 ], [ -55.5046077, -30.8609183 ], [ -55.50464, -30.860967800000012 ], [ -55.5047679, -30.8611739 ], [ -55.5050438, -30.8617218 ], [ -55.505141, -30.861965 ], [ -55.5107618, -30.8606606 ], [ -55.5127788, -30.8557056 ], [ -55.512096, -30.8542679 ], [ -55.5120798, -30.8542133 ], [ -55.5120348, -30.854167500000013 ], [ -55.5114461, -30.853913 ], [ -55.5112338, -30.853821799999984 ], [ -55.5110272, -30.8537063 ], [ -55.510802, -30.853520399999987 ], [ -55.5100617, -30.8537207 ], [ -55.5070007, -30.8545044 ], [ -55.5065301, -30.8546309 ], [ -55.505796, -30.8548347 ], [ -55.5056395, -30.854879400000012 ], [ -55.5053775, -30.8549669 ], [ -55.505204, -30.8550286 ], [ -55.5050779, -30.855086 ], [ -55.5048657, -30.8551844 ], [ -55.5044486, -30.8554097 ], [ -55.5042826, -30.855519 ], [ -55.5040811, -30.8556531 ], [ -55.5038462, -30.8558199 ], [ -55.5037318, -30.8558993 ], [ -55.5036271, -30.8559786 ], [ -55.5034337, -30.8561297 ], [ -55.5032664, -30.8562759 ], [ -55.5031217, -30.8564124 ], [ -55.5029583, -30.8565747 ], [ -55.5027852, -30.8567561 ], [ -55.5026558, -30.856895 ], [ -55.5024884, -30.8570983 ], [ -55.5023193, -30.8573059 ], [ -55.5019029, -30.85784 ], [ -55.5016235, -30.8581969 ] ] ] } },
{ "type": "Feature", "properties": { "name": "Km 5", "code_muni": 4317103.0, "name_muni": "Sant'ana do Livramento" }, "geometry": { "type": "Polygon", "coordinates": [ [ [ -55.5033159, -30.8525878 ], [ -55.5025756, -30.853449 ], [ -55.5006284, -30.8526247 ], [ -55.5002582, -30.852353 ], [ -55.4950333, -30.8490002 ], [ -55.4909724, -30.8475772 ], [ -55.4896174, -30.848108 ], [ -55.4877786, -30.8490095 ], [ -55.4870923, -30.8493871 ], [ -55.4875593, -30.8499248 ], [ -55.4877441, -30.8501429 ], [ -55.487906, -30.8503767 ], [ -55.488036, -30.8505807 ], [ -55.4881526, -30.8507808 ], [ -55.4882268, -30.850919 ], [ -55.4882634, -30.8509956 ], [ -55.4883398, -30.8512247 ], [ -55.4883827, -30.851396200000011 ], [ -55.488777, -30.8515747 ], [ -55.4887661, -30.8515984 ], [ -55.4891824, -30.851771699999986 ], [ -55.489347, -30.8518383 ], [ -55.4898625, -30.8520369 ], [ -55.491324, -30.8526345 ], [ -55.493206, -30.853401099999989 ], [ -55.4935795, -30.8535491 ], [ -55.4937596, -30.8536204 ], [ -55.4943463, -30.8538551 ], [ -55.4947898, -30.8540428 ], [ -55.4957714, -30.8544407 ], [ -55.4957928, -30.8544493 ], [ -55.4958643, -30.8544812 ], [ -55.4962463, -30.8546562 ], [ -55.4966225, -30.8548612 ], [ -55.4970027, -30.8550718 ], [ -55.4974177, -30.8553142 ], [ -55.4976062, -30.855443699999988 ], [ -55.4980608, -30.855781 ], [ -55.4984994, -30.8561139 ], [ -55.4985435, -30.8561499 ], [ -55.4985904, -30.856188599999985 ], [ -55.4989945, -30.8565223 ], [ -55.4994032, -30.8568599 ], [ -55.4995463, -30.8569703 ], [ -55.4996848, -30.8570779 ], [ -55.4999699, -30.8572811 ], [ -55.5001929, -30.8574255 ], [ -55.5002076, -30.857435 ], [ -55.5002702, -30.8574764 ], [ -55.5003187, -30.8575086 ], [ -55.5015387, -30.8582499 ], [ -55.5016235, -30.8581969 ], [ -55.5019029, -30.85784 ], [ -55.5023193, -30.8573059 ], [ -55.5024884, -30.8570983 ], [ -55.5026558, -30.856895 ], [ -55.5027852, -30.8567561 ], [ -55.5029583, -30.8565747 ], [ -55.5031217, -30.8564124 ], [ -55.5032664, -30.8562759 ], [ -55.5034337, -30.8561297 ], [ -55.5036271, -30.8559786 ], [ -55.5037318, -30.8558993 ], [ -55.5038462, -30.8558199 ], [ -55.5040811, -30.8556531 ], [ -55.5042826, -30.855519 ], [ -55.5044486, -30.8554097 ], [ -55.5048657, -30.8551844 ], [ -55.5050779, -30.855086 ], [ -55.505204, -30.8550286 ], [ -55.5053775, -30.8549669 ], [ -55.5050864, -30.854373 ], [ -55.5050593, -30.854321 ], [ -55.5052293, -30.8542394 ], [ -55.505337, -30.8541882 ], [ -55.5056636, -30.8540309 ], [ -55.5055422, -30.8539234 ], [ -55.5033159, -30.8525878 ] ] ] } },
{ "type": "Feature", "properties": { "name": "Parque São José", "code_muni": 4317103.0, "name_muni": "Sant'ana do Livramento" }, "geometry": { "type": "Polygon", "coordinates": [ [ [ -55.4930471, -30.8665167 ], [ -55.4928915, -30.865866300000011 ], [ -55.4927266, -30.8651169 ], [ -55.49268630000001, -30.8650075 ], [ -55.4926273, -30.8648987 ], [ -55.4925435, -30.8647727 ], [ -55.492343, -30.8649281 ], [ -55.4921955, -30.8650559 ], [ -55.4920384, -30.8652398 ], [ -55.4918347, -30.865535900000012 ], [ -55.4916175, -30.865879 ], [ -55.4912835, -30.8664499 ], [ -55.4909509, -30.866895399999986 ], [ -55.4905419, -30.8674641 ], [ -55.4901148, -30.8680371 ], [ -55.4898392, -30.8684092 ], [ -55.4896816, -30.8686095 ], [ -55.4892357, -30.8691943 ], [ -55.4890667, -30.8694245 ], [ -55.488836, -30.8697088 ], [ -55.488596, -30.8699569 ], [ -55.488317, -30.8701819 ], [ -55.487904, -30.8705019 ], [ -55.48835290000001, -30.871373 ], [ -55.4886844, -30.8719666 ], [ -55.48900230000001, -30.87248 ], [ -55.4905828, -30.875288099999985 ], [ -55.4909965, -30.8751327 ], [ -55.4916986, -30.8749975 ], [ -55.4917878, -30.8749526 ], [ -55.4918548, -30.8748669 ], [ -55.491884400000011, -30.8748611 ], [ -55.4932898, -30.8745066 ], [ -55.4946899, -30.8739402 ], [ -55.4952103, -30.873539699999984 ], [ -55.4956985, -30.8731069 ], [ -55.4958164, -30.8728757 ], [ -55.4959759, -30.8727334 ], [ -55.4966192, -30.8718248 ], [ -55.4968309, -30.8715594 ], [ -55.4970933, -30.871366 ], [ -55.4974377, -30.8712428 ], [ -55.4990611, -30.8707636 ], [ -55.4997788, -30.8705351 ], [ -55.5001202, -30.8703742 ], [ -55.5004013, -30.8702099 ], [ -55.5019682, -30.8692411 ], [ -55.5020765, -30.869178 ], [ -55.5021956, -30.869119499999986 ], [ -55.5023578, -30.869044 ], [ -55.502647, -30.8689372 ], [ -55.5028854, -30.8688528 ], [ -55.5028264, -30.8685761 ], [ -55.5027473, -30.8683286 ], [ -55.5025528, -30.8677093 ], [ -55.502445, -30.8674236 ], [ -55.5022752, -30.8669737 ], [ -55.5020727, -30.866603 ], [ -55.5019306, -30.8664004 ], [ -55.5018742, -30.8663124 ], [ -55.5017425, -30.8662114 ], [ -55.5015711, -30.8660965 ], [ -55.5010723, -30.8657121 ], [ -55.4998371, -30.8659987 ], [ -55.4991826, -30.866128799999984 ], [ -55.4976182, -30.8664166 ], [ -55.49541450000001, -30.8668264 ], [ -55.4948066, -30.8669173 ], [ -55.4932241, -30.8672097 ], [ -55.4930471, -30.8665167 ] ] ] } },
{ "type": "Feature", "properties": { "name": "Wilson", "code_muni": 4317103.0, "name_muni": "Sant'ana do Livramento" }, "geometry": { "type": "Polygon", "coordinates": [ [ [ -55.4948066, -30.8669173 ], [ -55.49541450000001, -30.8668264 ], [ -55.4976182, -30.8664166 ], [ -55.4991826, -30.866128799999984 ], [ -55.4998371, -30.8659987 ], [ -55.5010723, -30.8657121 ], [ -55.5015711, -30.8660965 ], [ -55.5017425, -30.8662114 ], [ -55.5018742, -30.8663124 ], [ -55.5019306, -30.8664004 ], [ -55.5020727, -30.866603 ], [ -55.5022752, -30.8669737 ], [ -55.502445, -30.8674236 ], [ -55.5025528, -30.8677093 ], [ -55.5027473, -30.8683286 ], [ -55.5028264, -30.8685761 ], [ -55.5028854, -30.8688528 ], [ -55.5033065, -30.8686736 ], [ -55.5035482, -30.868537 ], [ -55.5036694, -30.8684127 ], [ -55.50377, -30.8682849 ], [ -55.5038826, -30.8681076 ], [ -55.503935, -30.8679753 ], [ -55.5039722, -30.8678573 ], [ -55.5040014, -30.8676852 ], [ -55.5040141, -30.8674975 ], [ -55.5040319, -30.8673715 ], [ -55.5040565, -30.8671718 ], [ -55.5040861, -30.8670434 ], [ -55.5041479, -30.866901199999987 ], [ -55.5042233, -30.8667735 ], [ -55.5043045, -30.8666596 ], [ -55.5044061, -30.8665588 ], [ -55.5045653, -30.8664385 ], [ -55.5046866, -30.8663729 ], [ -55.5048375, -30.8662866 ], [ -55.5049673, -30.8662462 ], [ -55.5051066, -30.8662105 ], [ -55.5053067, -30.86618690000001 ], [ -55.5055269, -30.8661806 ], [ -55.5056832, -30.866196799999987 ], [ -55.5058844, -30.8662462 ], [ -55.506048, -30.8663257 ], [ -55.5061835, -30.8663901 ], [ -55.5062988, -30.8664765 ], [ -55.5063937, -30.8665562 ], [ -55.5065074, -30.8666774 ], [ -55.5065899, -30.8667746 ], [ -55.5068325, -30.8672038 ], [ -55.5069451, -30.8674107 ], [ -55.5070713, -30.867592 ], [ -55.5071732, -30.8677077 ], [ -55.5072805, -30.8678107 ], [ -55.5073853, -30.8678861 ], [ -55.5075224, -30.867958 ], [ -55.5076574, -30.8680213 ], [ -55.5075511, -30.867722 ], [ -55.5074908, -30.867585 ], [ -55.5074412, -30.8674733 ], [ -55.5073594, -30.8672863 ], [ -55.5072688, -30.8670618 ], [ -55.5071716, -30.8668218 ], [ -55.5070395, -30.8665161 ], [ -55.5069483, -30.8662963 ], [ -55.5068484, -30.8660683 ], [ -55.5068062, -30.8659636 ], [ -55.5067713, -30.865885299999988 ], [ -55.5067515, -30.865818 ], [ -55.5066836, -30.8656509 ], [ -55.5066043, -30.8654801 ], [ -55.5065574, -30.865375 ], [ -55.5065326, -30.8653149 ], [ -55.506516, -30.8652759 ], [ -55.5064886, -30.8652067 ], [ -55.5064285, -30.8650301 ], [ -55.5062919, -30.8647191 ], [ -55.5061342, -30.8643503 ], [ -55.5059934, -30.8640365 ], [ -55.5058746, -30.8637402 ], [ -55.505709, -30.863337699999988 ], [ -55.5056367, -30.8631615 ], [ -55.5055973, -30.8630652 ], [ -55.5055552, -30.8629624 ], [ -55.5054648, -30.8627416 ], [ -55.5052154, -30.862151100000013 ], [ -55.505141, -30.861965 ], [ -55.5050438, -30.8617218 ], [ -55.5047679, -30.8611739 ], [ -55.50464, -30.860967800000012 ], [ -55.5046077, -30.8609183 ], [ -55.504427, -30.8606479 ], [ -55.5042104, -30.8603647 ], [ -55.5037853, -30.8598922 ], [ -55.5035419, -30.8596527 ], [ -55.5032294, -30.8593655 ], [ -55.5030125, -30.859185 ], [ -55.5028089, -30.859039400000011 ], [ -55.5025247, -30.8588515 ], [ -55.5021358, -30.8586136 ], [ -55.5017872, -30.8583965 ], [ -55.5015387, -30.8582499 ], [ -55.5003187, -30.8575086 ], [ -55.5002702, -30.8574764 ], [ -55.5002076, -30.857435 ], [ -55.5001929, -30.8574255 ], [ -55.4999699, -30.8572811 ], [ -55.4996848, -30.8570779 ], [ -55.4995463, -30.8569703 ], [ -55.499326, -30.8571426 ], [ -55.4987267, -30.8575879 ], [ -55.4977503, -30.8582741 ], [ -55.4974969, -30.8584479 ], [ -55.4973147, -30.8586183 ], [ -55.4970597, -30.858871 ], [ -55.4965983, -30.859377 ], [ -55.496141, -30.859854700000014 ], [ -55.4957964, -30.860268 ], [ -55.4956911, -30.8604321 ], [ -55.4956394, -30.8605869 ], [ -55.4955603, -30.8611073 ], [ -55.4955134, -30.8613249 ], [ -55.4954343, -30.8615332 ], [ -55.4951347, -30.8621193 ], [ -55.4950397, -30.862253 ], [ -55.4949043, -30.8621259 ], [ -55.4944217, -30.861662200000012 ], [ -55.4942527, -30.861480300000014 ], [ -55.4940797, -30.861306399999986 ], [ -55.4938611, -30.861118799999989 ], [ -55.4932483, -30.8606802 ], [ -55.4926689, -30.8602911 ], [ -55.4924644, -30.860142 ], [ -55.4924168, -30.8601063 ], [ -55.4923645, -30.8600597 ], [ -55.4922927, -30.8599877 ], [ -55.4922304, -30.8599158 ], [ -55.4921291, -30.8597834 ], [ -55.4920048, -30.8595487 ], [ -55.4919318, -30.8594135 ], [ -55.49137, -30.8583978 ], [ -55.4911964, -30.858134199999984 ], [ -55.490731, -30.8572874 ], [ -55.4905553, -30.8569526 ], [ -55.4905328, -30.8569109 ], [ -55.4904786, -30.8568165 ], [ -55.490208, -30.8569041 ], [ -55.4899156, -30.8570503 ], [ -55.4895079, -30.8574279 ], [ -55.4893792, -30.8577502 ], [ -55.4889715, -30.8584134 ], [ -55.4885101, -30.8590489 ], [ -55.4882419, -30.860283 ], [ -55.488081, -30.8609277 ], [ -55.4877913, -30.8611855 ], [ -55.4876196, -30.8613421 ], [ -55.4870081, -30.8613974 ], [ -55.4865897, -30.8616921 ], [ -55.4862571, -30.8621341 ], [ -55.4858601, -30.862594600000012 ], [ -55.4855812, -30.8630275 ], [ -55.4855275, -30.8634419 ], [ -55.4853559, -30.8640313 ], [ -55.484519, -30.8649891 ], [ -55.4842293, -30.8656338 ], [ -55.4848341, -30.866563299999985 ], [ -55.4853384, -30.8673138 ], [ -55.4863898, -30.8687781 ], [ -55.4857353, -30.8691556 ], [ -55.4869625, -30.8708024 ], [ -55.487338, -30.8706539 ], [ -55.4877745, -30.870537 ], [ -55.487904, -30.8705019 ], [ -55.488317, -30.8701819 ], [ -55.488596, -30.8699569 ], [ -55.488836, -30.8697088 ], [ -55.4890667, -30.8694245 ], [ -55.4892357, -30.8691943 ], [ -55.4896816, -30.8686095 ], [ -55.4898392, -30.8684092 ], [ -55.4901148, -30.8680371 ], [ -55.4905419, -30.8674641 ], [ -55.4909509, -30.866895399999986 ], [ -55.4912835, -30.8664499 ], [ -55.4916175, -30.865879 ], [ -55.4918347, -30.865535900000012 ], [ -55.4920384, -30.8652398 ], [ -55.4921955, -30.8650559 ], [ -55.492343, -30.8649281 ], [ -55.4925435, -30.8647727 ], [ -55.4926273, -30.8648987 ], [ -55.49268630000001, -30.8650075 ], [ -55.4927266, -30.8651169 ], [ -55.4928915, -30.865866300000011 ], [ -55.4930471, -30.8665167 ], [ -55.4932241, -30.8672097 ], [ -55.4948066, -30.8669173 ] ] ] } },
{ "type": "Feature", "properties": { "name": "Carajá", "code_muni": 4317103.0, "name_muni": "Sant'ana do Livramento" }, "geometry": { "type": "Polygon", "coordinates": [ [ [ -55.4937596, -30.8536204 ], [ -55.4935795, -30.8535491 ], [ -55.493206, -30.853401099999989 ], [ -55.491324, -30.8526345 ], [ -55.4898625, -30.8520369 ], [ -55.489347, -30.8518383 ], [ -55.4891824, -30.851771699999986 ], [ -55.4887661, -30.8515984 ], [ -55.4887743, -30.8517401 ], [ -55.4887919, -30.851796499999988 ], [ -55.4888277, -30.8518819 ], [ -55.4890026, -30.8521447 ], [ -55.4893663, -30.8526699 ], [ -55.4894637, -30.8528212 ], [ -55.4895343, -30.8529284 ], [ -55.4895844, -30.853042 ], [ -55.4896058, -30.8530933 ], [ -55.4896226, -30.8531457 ], [ -55.4896447, -30.8532153 ], [ -55.4896702, -30.8533017 ], [ -55.4897037, -30.8534387 ], [ -55.4898258, -30.8541318 ], [ -55.4899827, -30.8549181 ], [ -55.4900819, -30.8554373 ], [ -55.4901423, -30.8557286 ], [ -55.4902403, -30.8561295 ], [ -55.4903125, -30.8564203 ], [ -55.4903713, -30.8565822 ], [ -55.4904528, -30.8567702 ], [ -55.4904786, -30.8568165 ], [ -55.4905328, -30.8569109 ], [ -55.4905553, -30.8569526 ], [ -55.490731, -30.8572874 ], [ -55.4911964, -30.858134199999984 ], [ -55.49137, -30.8583978 ], [ -55.4919318, -30.8594135 ], [ -55.4920048, -30.8595487 ], [ -55.4921291, -30.8597834 ], [ -55.4922304, -30.8599158 ], [ -55.4922927, -30.8599877 ], [ -55.4923645, -30.8600597 ], [ -55.4924168, -30.8601063 ], [ -55.4924644, -30.860142 ], [ -55.4926689, -30.8602911 ], [ -55.4932483, -30.8606802 ], [ -55.4938611, -30.861118799999989 ], [ -55.4940797, -30.861306399999986 ], [ -55.4942527, -30.861480300000014 ], [ -55.4944217, -30.861662200000012 ], [ -55.4949043, -30.8621259 ], [ -55.4950397, -30.862253 ], [ -55.4951347, -30.8621193 ], [ -55.4954343, -30.8615332 ], [ -55.4955134, -30.8613249 ], [ -55.4955603, -30.8611073 ], [ -55.4956394, -30.8605869 ], [ -55.4956911, -30.8604321 ], [ -55.4957964, -30.860268 ], [ -55.496141, -30.859854700000014 ], [ -55.4965983, -30.859377 ], [ -55.4970597, -30.858871 ], [ -55.4973147, -30.8586183 ], [ -55.4974969, -30.8584479 ], [ -55.4977503, -30.8582741 ], [ -55.4987267, -30.8575879 ], [ -55.499326, -30.8571426 ], [ -55.4995463, -30.8569703 ], [ -55.4994032, -30.8568599 ], [ -55.4989945, -30.8565223 ], [ -55.4985904, -30.856188599999985 ], [ -55.4985435, -30.8561499 ], [ -55.4984994, -30.8561139 ], [ -55.4980608, -30.855781 ], [ -55.4976062, -30.855443699999988 ], [ -55.4974177, -30.8553142 ], [ -55.4970027, -30.8550718 ], [ -55.4966225, -30.8548612 ], [ -55.4962463, -30.8546562 ], [ -55.4958643, -30.8544812 ], [ -55.4957928, -30.8544493 ], [ -55.4957714, -30.8544407 ], [ -55.4947898, -30.8540428 ], [ -55.4943463, -30.8538551 ], [ -55.4937596, -30.8536204 ] ] ] } },
{ "type": "Feature", "properties": { "name": "Tabatinga", "code_muni": 4317103.0, "name_muni": "Sant'ana do Livramento" }, "geometry": { "type": "Polygon", "coordinates": [ [ [ -55.4895243, -30.875884 ], [ -55.4900535, -30.8755357 ], [ -55.4905828, -30.875288099999985 ], [ -55.48900230000001, -30.87248 ], [ -55.4886844, -30.8719666 ], [ -55.48835290000001, -30.871373 ], [ -55.487904, -30.8705019 ], [ -55.4877745, -30.870537 ], [ -55.487338, -30.8706539 ], [ -55.4869625, -30.8708024 ], [ -55.4857353, -30.8691556 ], [ -55.4863898, -30.8687781 ], [ -55.4853384, -30.8673138 ], [ -55.4848341, -30.866563299999985 ], [ -55.4842293, -30.8656338 ], [ -55.4839075, -30.8659377 ], [ -55.4831672, -30.8660574 ], [ -55.4825556, -30.8662876 ], [ -55.4819119, -30.866388899999986 ], [ -55.4807961, -30.866186299999988 ], [ -55.4799485, -30.8655785 ], [ -55.4793906, -30.8649891 ], [ -55.4776535, -30.8692186 ], [ -55.4769927, -30.8713089 ], [ -55.4768707, -30.871676099999984 ], [ -55.4763356, -30.8736525 ], [ -55.4780522, -30.8739218 ], [ -55.4788676, -30.8739784 ], [ -55.4790551, -30.8739915 ], [ -55.4847671, -30.8825619 ], [ -55.4852651, -30.8823878 ], [ -55.4874218, -30.8816338 ], [ -55.4878339, -30.881478799999989 ], [ -55.48779050000001, -30.88096070000001 ], [ -55.4874556, -30.8793175 ], [ -55.4873848, -30.8789702 ], [ -55.4872019, -30.878346299999986 ], [ -55.4871977, -30.8783334 ], [ -55.4869106, -30.8773976 ], [ -55.4866739, -30.8766028 ], [ -55.4868143, -30.8765577 ], [ -55.4879469, -30.876072 ], [ -55.488838, -30.8756064 ], [ -55.4888994, -30.8755951 ], [ -55.4889735, -30.8756064 ], [ -55.4894657, -30.875942 ], [ -55.4895243, -30.875884 ] ] ] } },
{ "type": "Feature", "properties": { "name": "Carolina", "code_muni": 4317103.0, "name_muni": "Sant'ana do Livramento" }, "geometry": { "type": "Polygon", "coordinates": [ [ [ -55.5076574, -30.8680213 ], [ -55.5075224, -30.867958 ], [ -55.5073853, -30.8678861 ], [ -55.5072805, -30.8678107 ], [ -55.5071732, -30.8677077 ], [ -55.5070713, -30.867592 ], [ -55.5069451, -30.8674107 ], [ -55.5068325, -30.8672038 ], [ -55.5065899, -30.8667746 ], [ -55.5065074, -30.8666774 ], [ -55.5063937, -30.8665562 ], [ -55.5062988, -30.8664765 ], [ -55.5061835, -30.8663901 ], [ -55.506048, -30.8663257 ], [ -55.5058844, -30.8662462 ], [ -55.5056832, -30.866196799999987 ], [ -55.5055269, -30.8661806 ], [ -55.5053067, -30.86618690000001 ], [ -55.5051066, -30.8662105 ], [ -55.5049673, -30.8662462 ], [ -55.5048375, -30.8662866 ], [ -55.5046866, -30.8663729 ], [ -55.5045653, -30.8664385 ], [ -55.5044061, -30.8665588 ], [ -55.5043045, -30.8666596 ], [ -55.5042233, -30.8667735 ], [ -55.5041479, -30.866901199999987 ], [ -55.5040861, -30.8670434 ], [ -55.5040565, -30.8671718 ], [ -55.5040319, -30.8673715 ], [ -55.5040141, -30.8674975 ], [ -55.5040014, -30.8676852 ], [ -55.5039722, -30.8678573 ], [ -55.503935, -30.8679753 ], [ -55.5038826, -30.8681076 ], [ -55.50377, -30.8682849 ], [ -55.5036694, -30.8684127 ], [ -55.5035482, -30.868537 ], [ -55.5033065, -30.8686736 ], [ -55.5028854, -30.8688528 ], [ -55.502647, -30.8689372 ], [ -55.5023578, -30.869044 ], [ -55.5021956, -30.869119499999986 ], [ -55.5020765, -30.869178 ], [ -55.5019682, -30.8692411 ], [ -55.5004013, -30.8702099 ], [ -55.5001202, -30.8703742 ], [ -55.4997788, -30.8705351 ], [ -55.4990611, -30.8707636 ], [ -55.4974377, -30.8712428 ], [ -55.4970933, -30.871366 ], [ -55.4968309, -30.8715594 ], [ -55.4966192, -30.8718248 ], [ -55.4959759, -30.8727334 ], [ -55.4958164, -30.8728757 ], [ -55.4956985, -30.8731069 ], [ -55.4952103, -30.873539699999984 ], [ -55.4946899, -30.8739402 ], [ -55.4932898, -30.8745066 ], [ -55.491884400000011, -30.8748611 ], [ -55.4918548, -30.8748669 ], [ -55.4917878, -30.8749526 ], [ -55.4916986, -30.8749975 ], [ -55.4909965, -30.8751327 ], [ -55.4905828, -30.875288099999985 ], [ -55.4900535, -30.8755357 ], [ -55.4895243, -30.875884 ], [ -55.4894657, -30.875942 ], [ -55.4889735, -30.8756064 ], [ -55.4888994, -30.8755951 ], [ -55.488838, -30.8756064 ], [ -55.4879469, -30.876072 ], [ -55.4868143, -30.8765577 ], [ -55.4866739, -30.8766028 ], [ -55.4869106, -30.8773976 ], [ -55.4871977, -30.8783334 ], [ -55.4872019, -30.878346299999986 ], [ -55.4873848, -30.8789702 ], [ -55.4874556, -30.8793175 ], [ -55.48779050000001, -30.88096070000001 ], [ -55.4878339, -30.881478799999989 ], [ -55.4874218, -30.8816338 ], [ -55.4852651, -30.8823878 ], [ -55.4847671, -30.8825619 ], [ -55.4834166, -30.8830217 ], [ -55.4829177, -30.8832381 ], [ -55.4826281, -30.8834038 ], [ -55.4819682, -30.883924100000012 ], [ -55.4815861, -30.8845023 ], [ -55.4814325, -30.8848282 ], [ -55.4813198, -30.885154 ], [ -55.480434, -30.8898375 ], [ -55.4803459, -30.8901118 ], [ -55.4802536, -30.8903916 ], [ -55.4801738, -30.890567699999988 ], [ -55.47986130000001, -30.89100980000001 ], [ -55.4798145, -30.8913019 ], [ -55.4794544, -30.8918852 ], [ -55.4791033, -30.8931406 ], [ -55.4790913, -30.8931934 ], [ -55.4789908, -30.893635 ], [ -55.4788739, -30.8939098 ], [ -55.4787162, -30.89417580000001 ], [ -55.4784925, -30.8944241 ], [ -55.4782075, -30.8946548 ], [ -55.4779399, -30.89478 ], [ -55.4776314, -30.8948788 ], [ -55.4770057, -30.894921299999986 ], [ -55.4764475, -30.8948402 ], [ -55.4759006, -30.8947649 ], [ -55.4769659, -30.8968299 ], [ -55.4791546, -30.897805799999986 ], [ -55.4809356, -30.9000521 ], [ -55.4825516, -30.8958071 ], [ -55.4828823, -30.8949383 ], [ -55.4829673, -30.8947856 ], [ -55.4840519, -30.8924879 ], [ -55.4843373, -30.8919214 ], [ -55.4848262, -30.890872099999985 ], [ -55.4846869, -30.8908749 ], [ -55.48464580000001, -30.8901737 ], [ -55.4845916, -30.8887906 ], [ -55.4886469, -30.8867651 ], [ -55.4886986, -30.8867197 ], [ -55.489119, -30.886032 ], [ -55.4893034, -30.8856551 ], [ -55.4894074, -30.88549 ], [ -55.4895263, -30.8853671 ], [ -55.4905915, -30.8849588 ], [ -55.4910021, -30.8847165 ], [ -55.4910958, -30.8845637 ], [ -55.4914746, -30.8834746 ], [ -55.4918025, -30.8823858 ], [ -55.4925388, -30.880188 ], [ -55.4926119, -30.8800165 ], [ -55.4926924, -30.8799388 ], [ -55.4928392, -30.8798681 ], [ -55.4931516, -30.8797826 ], [ -55.4935044, -30.8796862 ], [ -55.4937076, -30.8796027 ], [ -55.4938504, -30.8794969 ], [ -55.4941133, -30.8791527 ], [ -55.4948883, -30.8782997 ], [ -55.495282, -30.8779487 ], [ -55.495563, -30.8776834 ], [ -55.4958614, -30.877482 ], [ -55.4961685, -30.8773341 ], [ -55.4964675, -30.877233 ], [ -55.4965802, -30.8772173 ], [ -55.4966949, -30.8772121 ], [ -55.4972333, -30.877223 ], [ -55.4979558, -30.8772837 ], [ -55.4981417, -30.8772767 ], [ -55.4989856, -30.8772849 ], [ -55.499329, -30.8772576 ], [ -55.4999337, -30.8771756 ], [ -55.5002663, -30.8770607 ], [ -55.5004969, -30.876971 ], [ -55.5007571, -30.8768443 ], [ -55.500906, -30.8767407 ], [ -55.5011688, -30.876493299999989 ], [ -55.5015792, -30.8761399 ], [ -55.5023857, -30.8754349 ], [ -55.502471, -30.8753652 ], [ -55.5025595, -30.8753135 ], [ -55.502868, -30.875154 ], [ -55.5033681, -30.8750093 ], [ -55.5050987, -30.8745421 ], [ -55.5054265, -30.8744984 ], [ -55.5061254, -30.8744327 ], [ -55.5064138, -30.8743596 ], [ -55.5065681, -30.8743205 ], [ -55.5070678, -30.8746196 ], [ -55.5074896, -30.8749561 ], [ -55.5080945, -30.8754758 ], [ -55.50836, -30.8756157 ], [ -55.5087484, -30.8757688 ], [ -55.5094783, -30.8760503 ], [ -55.5101031, -30.8763053 ], [ -55.510230300000011, -30.8763572 ], [ -55.5105396, -30.8764679 ], [ -55.5107243, -30.8765671 ], [ -55.510782, -30.87639290000001 ], [ -55.5111175, -30.8753492 ], [ -55.511284, -30.874869 ], [ -55.5115932, -30.8744421 ], [ -55.5111533, -30.873811299999986 ], [ -55.5104263, -30.8730053 ], [ -55.5101657, -30.8727605 ], [ -55.5100177, -30.872588 ], [ -55.5098353, -30.8723841 ], [ -55.509669, -30.872178 ], [ -55.5094565, -30.8718843 ], [ -55.5093185, -30.871679 ], [ -55.5093039, -30.8716588 ], [ -55.5092691, -30.8716077 ], [ -55.5092318, -30.8715414 ], [ -55.5091722, -30.8714351 ], [ -55.509088, -30.8712753 ], [ -55.5090166, -30.8711497 ], [ -55.5089514, -30.8710239 ], [ -55.5088974, -30.8709008 ], [ -55.5088302, -30.870755 ], [ -55.5087766, -30.8706499 ], [ -55.5087624, -30.8706172 ], [ -55.5086844, -30.8704337 ], [ -55.5085528, -30.87011 ], [ -55.508432, -30.8698143 ], [ -55.5082981, -30.8695131 ], [ -55.5081399, -30.8691356 ], [ -55.5080205, -30.8688541 ], [ -55.5079173, -30.8685853 ], [ -55.5078033, -30.8683223 ], [ -55.5076574, -30.8680213 ] ] ] } },
{ "type": "Feature", "properties": { "name": "Armour", "code_muni": 4317103.0, "name_muni": "Sant'ana do Livramento" }, "geometry": { "type": "Polygon", "coordinates": [ [ [ -55.4848262, -30.890872099999985 ], [ -55.4843373, -30.8919214 ], [ -55.4840519, -30.8924879 ], [ -55.4829673, -30.8947856 ], [ -55.4828823, -30.8949383 ], [ -55.4825516, -30.8958071 ], [ -55.4809356, -30.9000521 ], [ -55.4850716, -30.903555300000011 ], [ -55.4852638, -30.9034343 ], [ -55.4853622, -30.9033335 ], [ -55.485466, -30.9032281 ], [ -55.4863207, -30.9019721 ], [ -55.4868183, -30.9013557 ], [ -55.4873304, -30.9007214 ], [ -55.4874542, -30.9005948 ], [ -55.4873434, -30.9005125 ], [ -55.4867902, -30.90025 ], [ -55.4866107, -30.9001635 ], [ -55.4864864, -30.9000849 ], [ -55.4866642, -30.8993607 ], [ -55.4868594, -30.898645 ], [ -55.4871652, -30.8976614 ], [ -55.4874497, -30.8966847 ], [ -55.4888719, -30.896976 ], [ -55.4903768, -30.8972905 ], [ -55.4918372, -30.8976046 ], [ -55.4932983, -30.8979125 ], [ -55.4936478, -30.8966175 ], [ -55.4939979, -30.8953813 ], [ -55.4943578, -30.8941303 ], [ -55.4947164, -30.8928563 ], [ -55.4949626, -30.8920513 ], [ -55.4934504, -30.8917536 ], [ -55.4919914, -30.8914745 ], [ -55.4914789, -30.8913627 ], [ -55.4913881, -30.89077480000001 ], [ -55.491325, -30.8904479 ], [ -55.4912473, -30.8902224 ], [ -55.4901044, -30.8887165 ], [ -55.4897037, -30.8881899 ], [ -55.4887112, -30.886921599999987 ], [ -55.4886469, -30.8867651 ], [ -55.4845916, -30.8887906 ], [ -55.48464580000001, -30.8901737 ], [ -55.4846869, -30.8908749 ], [ -55.4848262, -30.890872099999985 ] ] ] } },
{ "type": "Feature", "properties": { "name": "Bela Vista", "code_muni": 4317103.0, "name_muni": "Sant'ana do Livramento" }, "geometry": { "type": "Polygon", "coordinates": [ [ [ -55.49885, -30.8928348 ], [ -55.4980495, -30.892658 ], [ -55.497261, -30.8925004 ], [ -55.4964976, -30.8923552 ], [ -55.4957336, -30.8922045 ], [ -55.4949626, -30.8920513 ], [ -55.4947164, -30.8928563 ], [ -55.4943578, -30.8941303 ], [ -55.4939979, -30.8953813 ], [ -55.4936478, -30.8966175 ], [ -55.4932983, -30.8979125 ], [ -55.4930235, -30.89888 ], [ -55.4927407, -30.8998661 ], [ -55.4922748, -30.9014886 ], [ -55.4924306, -30.9014923 ], [ -55.49307550000001, -30.901411499999988 ], [ -55.4939063, -30.901302 ], [ -55.4965739, -30.9009366 ], [ -55.4974271, -30.9008137 ], [ -55.498753, -30.9006066 ], [ -55.498861, -30.9001206 ], [ -55.4991188, -30.8991068 ], [ -55.4992845, -30.898460300000011 ], [ -55.499479, -30.8978016 ], [ -55.4996659, -30.8972066 ], [ -55.4998564, -30.8967142 ], [ -55.4998666, -30.8966815 ], [ -55.4998746, -30.8965928 ], [ -55.5000956, -30.8959689 ], [ -55.4999, -30.8952454 ], [ -55.49974610000001, -30.8946868 ], [ -55.4995541, -30.8939787 ], [ -55.4995088, -30.8938261 ], [ -55.4992725, -30.892994 ], [ -55.49885, -30.8928348 ] ] ] } },
{ "type": "Feature", "properties": { "name": "Cohab do Armour", "code_muni": 4317103.0, "name_muni": "Sant'ana do Livramento" }, "geometry": { "type": "Polygon", "coordinates": [ [ [ -55.5069317, -30.9013482 ], [ -55.5069556, -30.898788 ], [ -55.5069833, -30.898307699999989 ], [ -55.50706610000001, -30.8978494 ], [ -55.5071863, -30.8973299 ], [ -55.5071813, -30.8971691 ], [ -55.5067398, -30.8969467 ], [ -55.5060735, -30.8965851 ], [ -55.5053895, -30.8962161 ], [ -55.5051128, -30.8960578 ], [ -55.5027933, -30.8948348 ], [ -55.5026762, -30.8947688 ], [ -55.501774, -30.8942967 ], [ -55.5016102, -30.8942095 ], [ -55.5007262, -30.8937578 ], [ -55.4993575, -30.8930387 ], [ -55.4992725, -30.892994 ], [ -55.4995088, -30.8938261 ], [ -55.4995541, -30.8939787 ], [ -55.49974610000001, -30.8946868 ], [ -55.4999, -30.8952454 ], [ -55.5000956, -30.8959689 ], [ -55.4998746, -30.8965928 ], [ -55.4998666, -30.8966815 ], [ -55.4998564, -30.8967142 ], [ -55.4996659, -30.8972066 ], [ -55.499479, -30.8978016 ], [ -55.4992845, -30.898460300000011 ], [ -55.4991188, -30.8991068 ], [ -55.5001923, -30.8993593 ], [ -55.5010646, -30.8993179 ], [ -55.501245, -30.8993419 ], [ -55.5014659, -30.8994085 ], [ -55.5015356, -30.9000316 ], [ -55.5016516, -30.9008587 ], [ -55.5017253, -30.9013881 ], [ -55.5017981, -30.9015989 ], [ -55.5019097, -30.9017413 ], [ -55.5021372, -30.9019007 ], [ -55.5032361, -30.902521499999988 ], [ -55.5033995, -30.9025763 ], [ -55.5038481, -30.9025727 ], [ -55.5040746, -30.9025005 ], [ -55.5047458, -30.902226 ], [ -55.5065982, -30.9016093 ], [ -55.506741, -30.9015472 ], [ -55.506909, -30.9015162 ], [ -55.5069317, -30.9013482 ] ] ] } },
{ "type": "Feature", "properties": { "name": "São Paulo", "code_muni": 4317103.0, "name_muni": "Sant'ana do Livramento" }, "geometry": { "type": "Polygon", "coordinates": [ [ [ -55.5081415, -30.9112188 ], [ -55.5070844, -30.9087013 ], [ -55.5065935, -30.9075161 ], [ -55.506379, -30.906683 ], [ -55.5063227, -30.906259599999984 ], [ -55.5063039, -30.9057487 ], [ -55.5063307, -30.9052308 ], [ -55.5068483, -30.9022482 ], [ -55.5068893, -30.9016615 ], [ -55.506909, -30.9015162 ], [ -55.506741, -30.9015472 ], [ -55.5065982, -30.9016093 ], [ -55.5047458, -30.902226 ], [ -55.5040746, -30.9025005 ], [ -55.5038481, -30.9025727 ], [ -55.5033995, -30.9025763 ], [ -55.5032361, -30.902521499999988 ], [ -55.5021372, -30.9019007 ], [ -55.5019097, -30.9017413 ], [ -55.5017981, -30.9015989 ], [ -55.5017253, -30.9013881 ], [ -55.5016516, -30.9008587 ], [ -55.5015356, -30.9000316 ], [ -55.5014659, -30.8994085 ], [ -55.501245, -30.8993419 ], [ -55.5010646, -30.8993179 ], [ -55.5001923, -30.8993593 ], [ -55.4991188, -30.8991068 ], [ -55.498861, -30.9001206 ], [ -55.498753, -30.9006066 ], [ -55.4974271, -30.9008137 ], [ -55.4965739, -30.9009366 ], [ -55.4939063, -30.901302 ], [ -55.49307550000001, -30.901411499999988 ], [ -55.4924306, -30.9014923 ], [ -55.4922748, -30.9014886 ], [ -55.4927407, -30.8998661 ], [ -55.4930235, -30.89888 ], [ -55.4932983, -30.8979125 ], [ -55.4918372, -30.8976046 ], [ -55.4903768, -30.8972905 ], [ -55.4888719, -30.896976 ], [ -55.4874497, -30.8966847 ], [ -55.4871652, -30.8976614 ], [ -55.4868594, -30.898645 ], [ -55.4866642, -30.8993607 ], [ -55.4864864, -30.9000849 ], [ -55.4866107, -30.9001635 ], [ -55.4867902, -30.90025 ], [ -55.4873434, -30.9005125 ], [ -55.4874542, -30.9005948 ], [ -55.4873304, -30.9007214 ], [ -55.4868183, -30.9013557 ], [ -55.4863207, -30.9019721 ], [ -55.485466, -30.9032281 ], [ -55.4853622, -30.9033335 ], [ -55.4852638, -30.9034343 ], [ -55.4850716, -30.903555300000011 ], [ -55.489347, -30.9071405 ], [ -55.4968347, -30.90818 ], [ -55.5022518, -30.9084391 ], [ -55.5025522, -30.908477699999985 ], [ -55.5027726, -30.9085852 ], [ -55.5060269, -30.9112386 ], [ -55.5064226, -30.9114706 ], [ -55.5067261, -30.9115964 ], [ -55.5070385, -30.9116382 ], [ -55.507339, -30.9116382 ], [ -55.5076345, -30.9115522 ], [ -55.5082082, -30.91137770000001 ], [ -55.5081415, -30.9112188 ] ] ] } }
]
}
