{
"type": "FeatureCollection",
"name": "bairros_capao_bonito_do_sul",
"crs": { "type": "name", "properties": { "name": "urn:ogc:def:crs:OGC:1.3:CRS84" } },
"features": [
{ "type": "Feature", "properties": { "code_muni": 4304622.0, "name_muni": "Capão Bonito do Sul", "code_state": 43.0, "abbrev_state": "RS", "name_state": "Rio Grande do Sul", "code_region": 4.0, "name_region": "Sul", "year": 2022.0 }, "geometry": { "type": "Polygon", "coordinates": [ [ [ -51.487014761999895, -28.19097004 ], [ -51.491903277999896, -28.189038809999897 ], [ -51.492887459, -28.1869686819999 ], [ -51.496615032, -28.186226549 ], [ -51.496690034, -28.185053100999898 ], [ -51.4928953249999, -28.184079701 ], [ -51.4921816, -28.181832304 ], [ -51.499852537, -28.178892441 ], [ -51.501308766, -28.175658132 ], [ -51.506365982, -28.173373727999898 ], [ -51.506821336, -28.171070757999892 ], [ -51.510367825999893, -28.170249154 ], [ -51.510180826, -28.160511911 ], [ -51.513261064999895, -28.153684069999905 ], [ -51.511476471, -28.152538434999904 ], [ -51.511477742999901, -28.148088459999901 ], [ -51.507870978, -28.146515995999899 ], [ -51.500613987, -28.155098471 ], [ -51.495459169, -28.157570892 ], [ -51.494492975, -28.155687677999904 ], [ -51.497610004, -28.142756437999893 ], [ -51.493768808, -28.137763999 ], [ -51.501312572, -28.130443458999903 ], [ -51.501643413999894, -28.123090272 ], [ -51.499885515, -28.115330746 ], [ -51.504839440999902, -28.110102781 ], [ -51.504565363, -28.102815638 ], [ -51.50995901399989, -28.091044779999901 ], [ -51.514077597, -28.077078496999899 ], [ -51.512268896, -28.069316494 ], [ -51.514161473999891, -28.061354431 ], [ -51.510599483, -28.059019373999899 ], [ -51.510940543999894, -28.05716224 ], [ -51.508465450999893, -28.057447721 ], [ -51.505695827, -28.059701641999904 ], [ -51.500066765, -28.05682489 ], [ -51.495922484999902, -28.057350080999989 ], [ -51.495525603, -28.055996661999899 ], [ -51.493585988999889, -28.057713505 ], [ -51.492051509, -28.055923462 ], [ -51.487683357, -28.056589787 ], [ -51.486717755, -28.055140383 ], [ -51.485371464, -28.055649891 ], [ -51.484778694999896, -28.053077512 ], [ -51.481896205999895, -28.052717603 ], [ -51.480244900999892, -28.055095675 ], [ -51.478174386, -28.054856748 ], [ -51.476960033999902, -28.056600131 ], [ -51.468209718, -28.054635125999901 ], [ -51.459581246, -28.055986706999903 ], [ -51.454503635, -28.058971729999904 ], [ -51.443969208999903, -28.059877566 ], [ -51.43788767, -28.061913279 ], [ -51.436408582, -28.063675119 ], [ -51.433279625999901, -28.063685773 ], [ -51.431360514999902, -28.068924701 ], [ -51.430173017, -28.066789456 ], [ -51.425479224, -28.068241026 ], [ -51.422609295, -28.067665942 ], [ -51.420754929999895, -28.063212990999908 ], [ -51.415904402, -28.058144258 ], [ -51.41378745, -28.056309169 ], [ -51.41043017, -28.056392834999901 ], [ -51.407632557999897, -28.046472439999899 ], [ -51.40233599, -28.041562933 ], [ -51.4010376479999, -28.036883616 ], [ -51.397508296, -28.036028137 ], [ -51.396831107, -28.0330305059999 ], [ -51.393687387999897, -28.032552982 ], [ -51.391687949999891, -28.030086557999905 ], [ -51.388173837, -28.029198173999891 ], [ -51.3862542379999, -28.026206194999901 ], [ -51.382158466999989, -28.026328135 ], [ -51.377394681999903, -28.019613337999896 ], [ -51.377419882, -28.01575915 ], [ -51.374647361, -28.015925170999896 ], [ -51.374727037999897, -28.013474254 ], [ -51.367480864999891, -28.0103451529999 ], [ -51.366039115, -28.008138142 ], [ -51.3579867669999, -28.006830442 ], [ -51.35940291, -28.005097240999902 ], [ -51.357119961, -28.0018014629999 ], [ -51.356450591999895, -28.003110787 ], [ -51.352904549999892, -28.003781241999896 ], [ -51.351489666, -28.002081604 ], [ -51.352943771, -27.998997996999901 ], [ -51.351243161999903, -27.998595909 ], [ -51.349629447, -28.000215784 ], [ -51.34422189299989, -27.99962962 ], [ -51.342856426, -28.001274071 ], [ -51.343159172, -28.010507436 ], [ -51.340710858, -28.013902421 ], [ -51.338383904999901, -28.013788646 ], [ -51.336160186, -28.016021565999896 ], [ -51.336948123999896, -28.018748629999909 ], [ -51.34336158, -28.019913634 ], [ -51.344392733999896, -28.030116323 ], [ -51.34196886, -28.031993795999899 ], [ -51.344082565999891, -28.035187203 ], [ -51.343210331, -28.038482099 ], [ -51.337381815, -28.040455306 ], [ -51.333382062999895, -28.038834272 ], [ -51.330741659, -28.044216932 ], [ -51.326395080999895, -28.045422173 ], [ -51.324947886, -28.047988491 ], [ -51.319245483, -28.049821504 ], [ -51.319815773, -28.052809961 ], [ -51.314309083999902, -28.056413550999896 ], [ -51.313406448, -28.0586194599999 ], [ -51.309460204999894, -28.058121389 ], [ -51.308474928, -28.064109909 ], [ -51.3043029, -28.066914526999906 ], [ -51.302153851, -28.066186623 ], [ -51.301553428, -28.060460952 ], [ -51.295644196, -28.058765373999989 ], [ -51.291681366, -28.059880996999897 ], [ -51.29141866, -28.062273284 ], [ -51.289071089999894, -28.063952433999905 ], [ -51.287594094, -28.064101251999897 ], [ -51.285682818999902, -28.061010527 ], [ -51.281925163, -28.062977229999895 ], [ -51.27748608400001, -28.063242770999988 ], [ -51.276225048999891, -28.065200524 ], [ -51.276969560999902, -28.069558136999905 ], [ -51.272150137, -28.071644175 ], [ -51.271423308, -28.077198852 ], [ -51.269001078, -28.078469094 ], [ -51.267612202, -28.075511003 ], [ -51.265916499999904, -28.074955679 ], [ -51.261168329, -28.079984462 ], [ -51.258171765, -28.080126671999892 ], [ -51.258701636, -28.083554862 ], [ -51.255341847, -28.084398899999901 ], [ -51.257426156, -28.089808086999899 ], [ -51.254156965999989, -28.092225846 ], [ -51.2548496369999, -28.09584688 ], [ -51.256718199, -28.096155515 ], [ -51.260004138999896, -28.100186299 ], [ -51.257400145, -28.100268667 ], [ -51.256307832999902, -28.102866236999908 ], [ -51.259727548999898, -28.104921912 ], [ -51.25845914699989, -28.1108394459999 ], [ -51.263041549, -28.112036020999906 ], [ -51.2635320649999, -28.113222272 ], [ -51.261615484999894, -28.114275026 ], [ -51.261532652, -28.116112452 ], [ -51.257654992, -28.116003604999904 ], [ -51.256196452, -28.119497544999906 ], [ -51.259457104, -28.122610806999901 ], [ -51.262432755, -28.122400919 ], [ -51.259655802999895, -28.12731903 ], [ -51.259397877, -28.130189528 ], [ -51.261334585, -28.133210698 ], [ -51.255965918, -28.138501385 ], [ -51.25416655, -28.137579463999902 ], [ -51.251864551, -28.138412977 ], [ -51.251564275, -28.141326474 ], [ -51.249005607, -28.142576001 ], [ -51.248328834999903, -28.145336717 ], [ -51.246208792999902, -28.145422160999907 ], [ -51.247382383999891, -28.148204947 ], [ -51.244345939, -28.151612077 ], [ -51.244585012999892, -28.154211733 ], [ -51.247867864999897, -28.154198699999899 ], [ -51.25042062499989, -28.157871386 ], [ -51.254459562, -28.168484572 ], [ -51.25551079199991, -28.176538653 ], [ -51.263286096999899, -28.180942393 ], [ -51.273302067, -28.179152969 ], [ -51.282740496, -28.187496705999898 ], [ -51.295416116, -28.190584105 ], [ -51.296290008, -28.195286149 ], [ -51.300825308, -28.201689326999908 ], [ -51.318347304, -28.215873842 ], [ -51.324517159, -28.217577425999892 ], [ -51.327344889, -28.220092334999908 ], [ -51.326041227, -28.224351828 ], [ -51.327909250999909, -28.228135124999898 ], [ -51.327412132999903, -28.231511127 ], [ -51.33212457, -28.234542282999904 ], [ -51.34138033499989, -28.236177136 ], [ -51.348474616, -28.232409592999897 ], [ -51.354630931, -28.232145069 ], [ -51.374442737, -28.239595812999898 ], [ -51.387715882, -28.241994217 ], [ -51.386943969999898, -28.251406755999895 ], [ -51.389623916999895, -28.258864871 ], [ -51.389495117, -28.263919277999896 ], [ -51.397591006, -28.272978916999904 ], [ -51.391730431, -28.280447352999904 ], [ -51.387661593, -28.289017951999899 ], [ -51.387496950999896, -28.293963942999895 ], [ -51.388741935, -28.295944994 ], [ -51.392392945, -28.295639534 ], [ -51.3964002499999, -28.297406033 ], [ -51.397465584, -28.300003858 ], [ -51.402125223, -28.300297746 ], [ -51.404410169999892, -28.298013341999901 ], [ -51.412953253, -28.294842081999896 ], [ -51.4170565269999, -28.298092046 ], [ -51.416761814, -28.300237588 ], [ -51.418747251999896, -28.301603644999904 ], [ -51.4190215039999, -28.304580852999905 ], [ -51.422679509, -28.306135565 ], [ -51.422169488, -28.308886571 ], [ -51.423898284, -28.310337575999903 ], [ -51.42161462, -28.314416797 ], [ -51.425745359, -28.316213467 ], [ -51.422676356, -28.32449014 ], [ -51.41746039, -28.326120094 ], [ -51.415157399, -28.330921149999895 ], [ -51.412457784, -28.331353351 ], [ -51.413329032, -28.336473607 ], [ -51.417715180999899, -28.337934921999906 ], [ -51.422280063999899, -28.336671488 ], [ -51.42668315, -28.338468581 ], [ -51.430002591999894, -28.337163222999898 ], [ -51.431498543, -28.340611481999908 ], [ -51.430951455, -28.34831293 ], [ -51.433944487, -28.347518177 ], [ -51.438873647, -28.35177061 ], [ -51.441611027, -28.344458772999893 ], [ -51.445459601, -28.339954766999892 ], [ -51.452779850999896, -28.344739382999904 ], [ -51.458314658999903, -28.345921702999895 ], [ -51.46109239, -28.341302578999901 ], [ -51.458837937999895, -28.339024441999985 ], [ -51.458956494999896, -28.335926738999891 ], [ -51.463823987999902, -28.333225338 ], [ -51.467368735, -28.32933659 ], [ -51.469409179, -28.323511010999901 ], [ -51.468760793999898, -28.320341621999905 ], [ -51.470768709, -28.319429586 ], [ -51.469719342, -28.313099861 ], [ -51.466281899, -28.3066473119999 ], [ -51.469611683, -28.306683963999898 ], [ -51.47335843, -28.30013078 ], [ -51.469684631, -28.299337310999885 ], [ -51.470033169, -28.297327691 ], [ -51.466032508, -28.287315696 ], [ -51.464526502, -28.286827812 ], [ -51.466296870999898, -28.283686643 ], [ -51.456571360999902, -28.281685401999894 ], [ -51.449967089, -28.272490637 ], [ -51.450860346, -28.271098962999897 ], [ -51.448893784999903, -28.262420899999892 ], [ -51.449633793, -28.259597055 ], [ -51.446616763999891, -28.257862175 ], [ -51.448263336, -28.254495001 ], [ -51.446951237, -28.253501587999892 ], [ -51.449934665999891, -28.2485629 ], [ -51.448754784, -28.243052582 ], [ -51.449974152, -28.240362290999897 ], [ -51.449555075, -28.236180786 ], [ -51.456686733, -28.233509271999893 ], [ -51.456355403, -28.227952659 ], [ -51.458940437, -28.220431178 ], [ -51.473600916, -28.214630369 ], [ -51.477312775, -28.211008364 ], [ -51.477060939, -28.208309914 ], [ -51.481903162, -28.207261140999893 ], [ -51.483954776, -28.19768061 ], [ -51.48335473, -28.19458793 ], [ -51.487014761999895, -28.19097004 ] ] ] } }
]
}
