{
"type": "FeatureCollection",
"name": "bairros_coronel_bicaco",
"crs": { "type": "name", "properties": { "name": "urn:ogc:def:crs:OGC:1.3:CRS84" } },
"features": [
{ "type": "Feature", "properties": { "code_muni": 4305900.0, "name_muni": "Coronel Bicaco", "code_state": 43.0, "abbrev_state": "RS", "name_state": "Rio Grande do Sul", "code_region": 4.0, "name_region": "Sul", "year": 2022.0 }, "geometry": { "type": "Polygon", "coordinates": [ [ [ -53.715432980999893, -27.839348503999897 ], [ -53.721606317, -27.838341881 ], [ -53.72686447, -27.840007962 ], [ -53.729509672999896, -27.835817509 ], [ -53.725115734, -27.835151584999906 ], [ -53.721694834999902, -27.830171831 ], [ -53.726080222, -27.829293800999899 ], [ -53.729943956999897, -27.826763222999897 ], [ -53.730709014999896, -27.824838956999894 ], [ -53.728944103999893, -27.825094255 ], [ -53.7242754339999, -27.819452617 ], [ -53.723637875, -27.817550163 ], [ -53.725656686, -27.816349348 ], [ -53.724023051999893, -27.813550607 ], [ -53.725825056, -27.8129397239999 ], [ -53.72672249, -27.813958738999908 ], [ -53.731968503, -27.810929475 ], [ -53.732437774999894, -27.808503427999895 ], [ -53.727330928999891, -27.80472034 ], [ -53.721484712999903, -27.807168974 ], [ -53.719681651, -27.804519162 ], [ -53.730029268, -27.799587491999898 ], [ -53.733776817, -27.8046434419999 ], [ -53.7371298159999, -27.804644031999903 ], [ -53.743115745999894, -27.802144048999903 ], [ -53.742808753, -27.798263398999893 ], [ -53.733862821999892, -27.796417699 ], [ -53.731582225999901, -27.793665443999888 ], [ -53.727818796, -27.791975565 ], [ -53.727702934, -27.790244685999895 ], [ -53.73368198, -27.787509317999902 ], [ -53.736262931999896, -27.792190166999902 ], [ -53.740504707, -27.788515279 ], [ -53.748576737999898, -27.790214381999906 ], [ -53.752018807, -27.786948836 ], [ -53.749503736999898, -27.785863456 ], [ -53.744501737, -27.786254893 ], [ -53.745528215, -27.78156168 ], [ -53.740920693, -27.775006799 ], [ -53.746260816, -27.774511866 ], [ -53.747502558999891, -27.769066764999902 ], [ -53.756859302, -27.771550944 ], [ -53.762284671, -27.768837065999904 ], [ -53.766010621, -27.77361803 ], [ -53.7707882939999, -27.773018313 ], [ -53.773503808, -27.769576594999901 ], [ -53.769839275, -27.76317324 ], [ -53.766959874999891, -27.761573241 ], [ -53.767393819999903, -27.760023701 ], [ -53.769300530999892, -27.758337904 ], [ -53.772735817, -27.759451925 ], [ -53.780205945, -27.754785957 ], [ -53.779448361999989, -27.752617194 ], [ -53.772151995999891, -27.754394652 ], [ -53.766829306, -27.754259009999892 ], [ -53.764457625, -27.750186493999902 ], [ -53.762093359999902, -27.754864889 ], [ -53.758832798, -27.754586792999895 ], [ -53.757477401, -27.752502099 ], [ -53.759904852, -27.746351881999903 ], [ -53.762958254999901, -27.746576024 ], [ -53.766651456, -27.743284405999894 ], [ -53.762650892999893, -27.742681863 ], [ -53.760975887, -27.740426770999903 ], [ -53.763007778, -27.736891591 ], [ -53.767064085999898, -27.735267751 ], [ -53.763900565, -27.730941859 ], [ -53.767563657, -27.728785202 ], [ -53.76816547100001, -27.730417845 ], [ -53.770577761, -27.729364518 ], [ -53.7710302569999, -27.724903543 ], [ -53.767461217999895, -27.723614241999901 ], [ -53.760187225, -27.7236021639999 ], [ -53.75564251, -27.721859966 ], [ -53.754179826, -27.718187672999903 ], [ -53.758072028, -27.714805111 ], [ -53.758524451, -27.716959938999899 ], [ -53.761408455, -27.719014216999899 ], [ -53.762743199999896, -27.712248153 ], [ -53.7661344529999, -27.710734605 ], [ -53.771685261999892, -27.712645091 ], [ -53.774669681, -27.7083739609999 ], [ -53.772159442, -27.704415294999894 ], [ -53.773542378999899, -27.700081253 ], [ -53.772034004, -27.695821948999896 ], [ -53.772959493, -27.693396043999904 ], [ -53.770068729999899, -27.691498506999899 ], [ -53.769947869, -27.683691183999905 ], [ -53.762350378999891, -27.671918052 ], [ -53.744727871999899, -27.655956385 ], [ -53.745266489, -27.658282810999903 ], [ -53.742837521999896, -27.658470534999896 ], [ -53.74016262, -27.660665763999901 ], [ -53.73738422799989, -27.658973524 ], [ -53.733440883999897, -27.662041796 ], [ -53.727160829, -27.664420078 ], [ -53.721558198, -27.664451481 ], [ -53.715653019999891, -27.666944136 ], [ -53.706805373, -27.667716519 ], [ -53.689642847, -27.673046656999897 ], [ -53.685001241999899, -27.678825016 ], [ -53.676534697, -27.683780290999888 ], [ -53.675384088, -27.688127757 ], [ -53.63227331, -27.70901779 ], [ -53.624334335999905, -27.704773589999895 ], [ -53.617550794999893, -27.697532672 ], [ -53.60685783, -27.695381763999894 ], [ -53.60462662, -27.689285460999898 ], [ -53.598746217, -27.688463456 ], [ -53.596551446, -27.689372281 ], [ -53.593809518999898, -27.687504106999903 ], [ -53.590049801, -27.688433335999907 ], [ -53.586829812, -27.682916819 ], [ -53.580932945, -27.6806048 ], [ -53.57710758, -27.683907126999909 ], [ -53.571079977, -27.681854873 ], [ -53.570344559, -27.687431144 ], [ -53.575274569, -27.685990616 ], [ -53.576048441, -27.688683050999899 ], [ -53.581013802, -27.686325082999897 ], [ -53.583171791, -27.689122398999899 ], [ -53.581393284999898, -27.694321363 ], [ -53.58212062, -27.700364588999896 ], [ -53.5767072639999, -27.703563184 ], [ -53.576999063, -27.70772927 ], [ -53.57916822, -27.708456645 ], [ -53.584312227999902, -27.706379164999898 ], [ -53.591878897, -27.711295591 ], [ -53.590188218, -27.715420494999904 ], [ -53.581983057999892, -27.711939018 ], [ -53.580076317, -27.712469215999899 ], [ -53.578692234999892, -27.716426557 ], [ -53.577150209, -27.717268399 ], [ -53.574399515, -27.717664247 ], [ -53.570681943, -27.716229304 ], [ -53.571086411, -27.718467238 ], [ -53.573752294, -27.71987424 ], [ -53.575403643999891, -27.724935128 ], [ -53.577508767, -27.725260259 ], [ -53.579195988, -27.728799726 ], [ -53.581268969, -27.729382815999902 ], [ -53.579982813, -27.735751315999906 ], [ -53.574561919, -27.735409443 ], [ -53.574941961, -27.730566355999901 ], [ -53.569158844, -27.735660532999894 ], [ -53.568327348, -27.732767082999899 ], [ -53.570005226, -27.729352698999893 ], [ -53.564177489, -27.731701283999893 ], [ -53.564551391999892, -27.734010710999893 ], [ -53.566565349, -27.735179764999895 ], [ -53.566332742, -27.739615424 ], [ -53.560514207, -27.743807079 ], [ -53.565803426999892, -27.743294536 ], [ -53.569874376, -27.748811235999899 ], [ -53.574182221999898, -27.745696000999896 ], [ -53.575798434, -27.746312366 ], [ -53.575417387, -27.754779229 ], [ -53.572923295, -27.753508177999901 ], [ -53.56959908399989, -27.756319151 ], [ -53.564651763, -27.7564294169999 ], [ -53.562690647999901, -27.753635368999902 ], [ -53.560847372999902, -27.753503587 ], [ -53.560709168999892, -27.760421557 ], [ -53.563060219, -27.761764152999895 ], [ -53.562660730999895, -27.763225806 ], [ -53.561775031, -27.7641043859999 ], [ -53.557700219, -27.762688857999908 ], [ -53.556823373, -27.766718553 ], [ -53.5525412389999, -27.769829939 ], [ -53.548057324, -27.771054197999891 ], [ -53.548173990999892, -27.775516754 ], [ -53.543316191, -27.781312826 ], [ -53.539934772, -27.783797025999892 ], [ -53.53806129, -27.78367824 ], [ -53.532960500999899, -27.780035493999897 ], [ -53.53179405, -27.780547517999903 ], [ -53.530734246, -27.786010071 ], [ -53.535840092999898, -27.791006079999903 ], [ -53.536314666, -27.793295007 ], [ -53.529519031999889, -27.793067850999908 ], [ -53.525095199, -27.795124777999899 ], [ -53.526005439, -27.797101255 ], [ -53.525085514999901, -27.799007957999901 ], [ -53.5287148049999, -27.798395164999892 ], [ -53.525842489, -27.801300824999899 ], [ -53.527938471, -27.806359809 ], [ -53.526682034, -27.80751142 ], [ -53.524610466, -27.806345013999891 ], [ -53.52298085199989, -27.80693946 ], [ -53.520096472, -27.812140725999903 ], [ -53.518072233999895, -27.813511972 ], [ -53.515365247, -27.812821447 ], [ -53.5128756619999, -27.815404183999892 ], [ -53.513853751999896, -27.81690502 ], [ -53.511895427999903, -27.816647781 ], [ -53.514818739, -27.822592791 ], [ -53.517473369, -27.821749451 ], [ -53.52392115299989, -27.823546909999905 ], [ -53.522630723, -27.827907395 ], [ -53.515966632999891, -27.833129791 ], [ -53.516583306, -27.838109132999904 ], [ -53.518826851999989, -27.839501594 ], [ -53.518630623, -27.843629181 ], [ -53.522869877999909, -27.846447293 ], [ -53.524578315, -27.856456857999898 ], [ -53.526459033, -27.858797297 ], [ -53.526084454999911, -27.8651532129999 ], [ -53.529929877, -27.867049605 ], [ -53.541368436, -27.882093598 ], [ -53.545795599, -27.894029449 ], [ -53.549836945, -27.899920672999908 ], [ -53.554025169999896, -27.894909728999888 ], [ -53.5558378489999, -27.885322044999985 ], [ -53.562630331, -27.888297274 ], [ -53.568044681999893, -27.901449058 ], [ -53.572505641, -27.903960856 ], [ -53.573300168999893, -27.907243036999905 ], [ -53.578910108999899, -27.909524691999902 ], [ -53.581066319999898, -27.9117976429999 ], [ -53.586119675, -27.913121325 ], [ -53.589779973, -27.917408993 ], [ -53.5936958, -27.914178149999906 ], [ -53.597282008, -27.918331883999905 ], [ -53.599693885, -27.918963565 ], [ -53.606986115, -27.926121241 ], [ -53.608230337999899, -27.930654913999899 ], [ -53.611550975999897, -27.932120853999894 ], [ -53.611375573, -27.9352481 ], [ -53.613460984, -27.936397579999902 ], [ -53.614573909999898, -27.939979885999904 ], [ -53.619093326, -27.938772394999905 ], [ -53.621399917, -27.940801588999893 ], [ -53.622797906999892, -27.945299422999906 ], [ -53.625431702999897, -27.945300324 ], [ -53.630257656, -27.950070444999895 ], [ -53.628794727, -27.953660064 ], [ -53.631762478, -27.952462512999901 ], [ -53.632613686, -27.953296418 ], [ -53.630974254, -27.956615843999899 ], [ -53.632841417999899, -27.956393572 ], [ -53.634670415, -27.952768854999906 ], [ -53.63621177999989, -27.95285517 ], [ -53.636083991, -27.950557468999897 ], [ -53.639713221, -27.95354672 ], [ -53.642795389999897, -27.953527117 ], [ -53.643227001, -27.950881505 ], [ -53.640918281, -27.949782496 ], [ -53.642103012, -27.945997059 ], [ -53.63812833, -27.945914878999893 ], [ -53.639547864999891, -27.942787456 ], [ -53.63746824, -27.9416234679999 ], [ -53.640242362, -27.939263966999903 ], [ -53.638657260999906, -27.933886610999899 ], [ -53.642594559, -27.933848028999897 ], [ -53.642883622999896, -27.931428538 ], [ -53.643993848, -27.931653600999891 ], [ -53.642621593999891, -27.938358594 ], [ -53.645204139, -27.939277444 ], [ -53.647617452, -27.937993256 ], [ -53.649878207, -27.933315127999901 ], [ -53.65245934, -27.932821702999899 ], [ -53.651442594999892, -27.931443943 ], [ -53.654941471, -27.932875921999909 ], [ -53.656900951, -27.930816738 ], [ -53.659914347, -27.930097775 ], [ -53.658779088, -27.924702542 ], [ -53.663463647999897, -27.925219023999901 ], [ -53.664591499, -27.929387367999897 ], [ -53.666693562, -27.930384346 ], [ -53.674547017999892, -27.928006863 ], [ -53.675763098999902, -27.931526034999894 ], [ -53.677459577, -27.9309536069999 ], [ -53.677270199, -27.932638042 ], [ -53.678539000999898, -27.93322232 ], [ -53.684139882, -27.932916072 ], [ -53.687654282, -27.929953178999884 ], [ -53.688149130999903, -27.924634641 ], [ -53.689849856, -27.923495084 ], [ -53.69040111399989, -27.920616282 ], [ -53.688784881999894, -27.917458165 ], [ -53.692140026999894, -27.914383352999899 ], [ -53.68812750099989, -27.911908508 ], [ -53.687223409999902, -27.913789902 ], [ -53.68523178200001, -27.909564105 ], [ -53.682288523999901, -27.9110593629999 ], [ -53.688219495999903, -27.9033995939999 ], [ -53.684471614, -27.89611998 ], [ -53.682331599999891, -27.895606416 ], [ -53.686486886999901, -27.893584819999898 ], [ -53.692360978, -27.887878161999897 ], [ -53.694849873, -27.887255594 ], [ -53.697685223, -27.888459881 ], [ -53.701079676999896, -27.884103516 ], [ -53.695580192, -27.8812424 ], [ -53.692936978, -27.884246867999902 ], [ -53.691702602, -27.883605032999988 ], [ -53.690700981, -27.877612005999886 ], [ -53.693496708999902, -27.874307745 ], [ -53.689585566999895, -27.871397682999898 ], [ -53.6948644, -27.870839021999899 ], [ -53.696150272, -27.868069128999903 ], [ -53.700338627999898, -27.870462479 ], [ -53.704536375000011, -27.867401008999899 ], [ -53.707454374, -27.862035144999894 ], [ -53.713568876999894, -27.861355156999899 ], [ -53.714023631, -27.857806289999903 ], [ -53.715952132, -27.856383964 ], [ -53.723371841999892, -27.858202447999901 ], [ -53.723453043999903, -27.854815297 ], [ -53.717945792, -27.851744255 ], [ -53.722997719, -27.848135742999894 ], [ -53.723490792999897, -27.845959899 ], [ -53.720165661999893, -27.841958498999887 ], [ -53.716125174, -27.841082065999988 ], [ -53.715432980999893, -27.839348503999897 ] ] ] } }
]
}
