{
"type": "FeatureCollection",
"name": "bairros_ararica",
"crs": { "type": "name", "properties": { "name": "urn:ogc:def:crs:OGC:1.3:CRS84" } },
"features": [
{ "type": "Feature", "properties": { "code_muni": 4300877.0, "name_muni": "Araricá", "code_state": 43.0, "abbrev_state": "RS", "name_state": "Rio Grande do Sul", "code_region": 4.0, "name_region": "Sul", "year": 2022.0 }, "geometry": { "type": "Polygon", "coordinates": [ [ [ -50.911696463999903, -29.599489009 ], [ -50.91257475, -29.627441535999896 ], [ -50.910876894, -29.632220624999899 ], [ -50.905993838, -29.631378798 ], [ -50.904415784, -29.63717415 ], [ -50.906237601, -29.640723756999893 ], [ -50.907562754, -29.650056042 ], [ -50.908986458, -29.652461589 ], [ -50.912825321, -29.652826119999897 ], [ -50.915179037, -29.657054795 ], [ -50.919221498, -29.657656448999898 ], [ -50.922108055, -29.659536065999905 ], [ -50.923549006, -29.664716553999895 ], [ -50.927740045999897, -29.667416397999904 ], [ -50.926317831999903, -29.670368644 ], [ -50.929083639999895, -29.671480297 ], [ -50.926557986, -29.675574812 ], [ -50.934195546999895, -29.672521846999896 ], [ -50.939266245999896, -29.675234897999896 ], [ -50.940953567, -29.673500411 ], [ -50.943910936999892, -29.674751579 ], [ -50.942557514, -29.678512761 ], [ -50.946867574, -29.679747167 ], [ -50.9415650669999, -29.691183101 ], [ -50.94459576, -29.690085337 ], [ -50.952450531, -29.682171757999988 ], [ -50.96368546, -29.678460319 ], [ -50.958631271999906, -29.677026326 ], [ -50.955746517, -29.666240801 ], [ -50.954103349, -29.666417639 ], [ -50.951262090999897, -29.637061966 ], [ -50.953770774, -29.637098403 ], [ -50.951972363, -29.624931631 ], [ -50.946837477, -29.621312261 ], [ -50.950967192, -29.620446159 ], [ -50.952310226999892, -29.616251685999895 ], [ -50.9559182039999, -29.612154199 ], [ -50.961913717, -29.608877505 ], [ -50.960218552, -29.595990549 ], [ -50.949888567999892, -29.595939434999899 ], [ -50.911696463999903, -29.599489009 ] ] ] } }
]
}
