{
"type": "FeatureCollection",
"name": "bairros_cachoeira_do_sul",
"crs": { "type": "name", "properties": { "name": "urn:ogc:def:crs:OGC:1.3:CRS84" } },
"features": [
{ "type": "Feature", "properties": { "name": "Universitário", "code_muni": 4303004.0, "name_muni": "Cachoeira do Sul" }, "geometry": { "type": "Polygon", "coordinates": [ [ [ -52.9270589, -30.0415469 ], [ -52.9270414, -30.0414795 ], [ -52.9270387, -30.0414041 ], [ -52.9271453, -30.0411295 ], [ -52.9275209, -30.0407081 ], [ -52.9276195, -30.0405084 ], [ -52.9274954, -30.0401612 ], [ -52.927415, -30.0400486 ], [ -52.9274753, -30.0396702 ], [ -52.9275624, -30.0392232 ], [ -52.9275933, -30.0389724 ], [ -52.9276489, -30.038228199999988 ], [ -52.9276619, -30.0380159 ], [ -52.9277417, -30.036766 ], [ -52.9272687, -30.036683499999985 ], [ -52.927081, -30.0366394 ], [ -52.9268946, -30.0365756 ], [ -52.9263662, -30.0363556 ], [ -52.9258854, -30.0361292 ], [ -52.9257493, -30.0360711 ], [ -52.9256567, -30.036038 ], [ -52.9255582, -30.0360189 ], [ -52.9254697, -30.036014799999986 ], [ -52.9250271, -30.036027 ], [ -52.9244418, -30.0360571 ], [ -52.9242083, -30.0360665 ], [ -52.9238952, -30.0360827 ], [ -52.9236913, -30.036090300000012 ], [ -52.9235955, -30.0346245 ], [ -52.9235888, -30.0344898 ], [ -52.922778, -30.0345208 ], [ -52.9222517, -30.0345479 ], [ -52.9217192, -30.0345671 ], [ -52.9214283, -30.0345776 ], [ -52.9207645, -30.0346015 ], [ -52.9206315, -30.034593399999988 ], [ -52.9202499, -30.0345673 ], [ -52.9199475, -30.0345231 ], [ -52.9190725, -30.0343962 ], [ -52.918071, -30.0342391 ], [ -52.9171251, -30.0340595 ], [ -52.9161359, -30.0339118 ], [ -52.9153326, -30.033769 ], [ -52.9152755, -30.0337747 ], [ -52.9152278, -30.0337995 ], [ -52.9151599, -30.0339659 ], [ -52.915117, -30.0340922 ], [ -52.9150634, -30.034145 ], [ -52.9149812, -30.034197399999986 ], [ -52.9149106, -30.0345175 ], [ -52.9147471, -30.0352494 ], [ -52.9147148, -30.0354305 ], [ -52.9146812, -30.0355898 ], [ -52.9145658, -30.0360512 ], [ -52.9144884, -30.036400300000015 ], [ -52.9143691, -30.0369267 ], [ -52.9143257, -30.0371201 ], [ -52.9142137, -30.0376132 ], [ -52.9141823, -30.037747 ], [ -52.9139875, -30.0385791 ], [ -52.9138846, -30.0390365 ], [ -52.9137734, -30.0394003 ], [ -52.9136338, -30.0397762 ], [ -52.9135186, -30.0400517 ], [ -52.9132552, -30.040503799999989 ], [ -52.9129171, -30.0410164 ], [ -52.9126835, -30.0413613 ], [ -52.9123664, -30.0418254 ], [ -52.9121461, -30.0421582 ], [ -52.9118282, -30.0426177 ], [ -52.9115248, -30.0430616 ], [ -52.9112496, -30.0434684 ], [ -52.9109194, -30.0439594 ], [ -52.9107494, -30.044222499999986 ], [ -52.9106942, -30.0443194 ], [ -52.9106552, -30.0443942 ], [ -52.910622, -30.0444546 ], [ -52.9105869, -30.0445271 ], [ -52.9104461, -30.0447938 ], [ -52.9123852, -30.0455352 ], [ -52.924211, -30.0500115 ], [ -52.9243538, -30.0497006 ], [ -52.9248977, -30.0485163 ], [ -52.9263783, -30.0440214 ], [ -52.9270817, -30.0415875 ], [ -52.9270589, -30.0415469 ] ] ] } }
]
}
