{
"type": "FeatureCollection",
"name": "bairros_gaurama",
"crs": { "type": "name", "properties": { "name": "urn:ogc:def:crs:OGC:1.3:CRS84" } },
"features": [
{ "type": "Feature", "properties": { "code_muni": 4308706.0, "name_muni": "Gaurama", "code_state": 43.0, "abbrev_state": "RS", "name_state": "Rio Grande do Sul", "code_region": 4.0, "name_region": "Sul", "year": 2022.0 }, "geometry": { "type": "Polygon", "coordinates": [ [ [ -52.13036615, -27.66887056 ], [ -52.135287505, -27.664710202 ], [ -52.138119623, -27.6639609919999 ], [ -52.141928134999901, -27.659467407 ], [ -52.143178969, -27.660787333 ], [ -52.142016032999891, -27.670225183999904 ], [ -52.145205312, -27.667772109999895 ], [ -52.148711659999897, -27.661577211 ], [ -52.150781396, -27.661023593 ], [ -52.153356456, -27.661828140999898 ], [ -52.151667295, -27.66754452 ], [ -52.155974697, -27.669969086 ], [ -52.161406643, -27.669979236999904 ], [ -52.164203893, -27.668799312 ], [ -52.166702813, -27.663808322 ], [ -52.162946685999891, -27.660328643999897 ], [ -52.163827867, -27.657517496 ], [ -52.169899774, -27.655414560999898 ], [ -52.17051191, -27.660226583999901 ], [ -52.176868623, -27.659835777 ], [ -52.177564264, -27.664277189 ], [ -52.181673324, -27.66435279 ], [ -52.187103507, -27.543606568 ], [ -52.183533105, -27.541158405 ], [ -52.178228954, -27.533831998 ], [ -52.161027668, -27.530725028999893 ], [ -52.153612054, -27.52585978 ], [ -52.154099313, -27.529416246 ], [ -52.151965517, -27.532179192999902 ], [ -52.161354264, -27.533243671 ], [ -52.152016201, -27.544155111999899 ], [ -52.149368853999903, -27.544008037 ], [ -52.146530872, -27.545747483999897 ], [ -52.138934573, -27.545514306 ], [ -52.135596235, -27.546890473999987 ], [ -52.132882544, -27.550363429 ], [ -52.134047924999898, -27.539647074999902 ], [ -52.130114099, -27.538586533999904 ], [ -52.132376855, -27.517515570999894 ], [ -52.128414752, -27.516318403 ], [ -52.124746914999896, -27.517232519999901 ], [ -52.107251288, -27.516411944 ], [ -52.106952075, -27.5075199149999 ], [ -52.088796296999902, -27.507683162 ], [ -52.0881673969999, -27.510277206 ], [ -52.082971761, -27.511143058999892 ], [ -52.079456491, -27.513459098999892 ], [ -52.074861993, -27.512228247999897 ], [ -52.07416548, -27.513104509999895 ], [ -52.077207089, -27.514980616999896 ], [ -52.085392705999901, -27.515254062999897 ], [ -52.088763977, -27.518803423999895 ], [ -52.08791846, -27.520045782999894 ], [ -52.083891299999891, -27.520403562 ], [ -52.079238693, -27.517779141999895 ], [ -52.076169503999893, -27.518993419 ], [ -52.075115347999898, -27.526567615 ], [ -52.078757117, -27.528592736 ], [ -52.076706809, -27.529367684 ], [ -52.076828679999892, -27.53442896 ], [ -52.065684779, -27.534672381999901 ], [ -52.065955942999899, -27.542602286 ], [ -52.054217902999895, -27.5425287539999 ], [ -52.069215954, -27.585321055 ], [ -52.066337932, -27.586319373 ], [ -52.065653363, -27.590290926 ], [ -52.061278955, -27.589104087 ], [ -52.056067409, -27.591277537999897 ], [ -52.048700676, -27.589693863 ], [ -52.042886321, -27.595105965999906 ], [ -52.041122373, -27.595102772 ], [ -52.041202783, -27.645516362 ], [ -52.046543701, -27.646685546999901 ], [ -52.048209196, -27.650192347 ], [ -52.037974871999893, -27.6548733 ], [ -52.041763693, -27.660769688 ], [ -52.047118637, -27.659322045 ], [ -52.053319638999895, -27.654166777999908 ], [ -52.056526167, -27.65453199 ], [ -52.056307177999891, -27.656940834999894 ], [ -52.047324481, -27.665487606999886 ], [ -52.051376338, -27.668041923 ], [ -52.054908724, -27.668273545 ], [ -52.05308998, -27.662814307 ], [ -52.058192887, -27.660127067 ], [ -52.067517187, -27.662293738999896 ], [ -52.066956373, -27.669551605 ], [ -52.061515183, -27.671006806 ], [ -52.06089324, -27.672506131 ], [ -52.062143515999907, -27.677406383999902 ], [ -52.065781994, -27.6791186519999 ], [ -52.069759389, -27.675652312999897 ], [ -52.070510576999901, -27.670323256 ], [ -52.072985262, -27.673626734 ], [ -52.078004694, -27.671406771 ], [ -52.0790541269999, -27.675932196 ], [ -52.082038269999892, -27.676818481999895 ], [ -52.084336704, -27.675914184 ], [ -52.08510847, -27.670386967 ], [ -52.094681954, -27.6759342 ], [ -52.096745364999897, -27.674378056999988 ], [ -52.0940758529999, -27.671270977999907 ], [ -52.094598575, -27.668644716999907 ], [ -52.10437124, -27.666694353 ], [ -52.110247194, -27.672184894999905 ], [ -52.119674465999893, -27.667572317 ], [ -52.119288168, -27.671426059999899 ], [ -52.123936328999903, -27.670914234 ], [ -52.130113593, -27.6722759479999 ], [ -52.13036615, -27.66887056 ] ] ] } }
]
}
