{
"type": "FeatureCollection",
"name": "bairros_muliterno",
"crs": { "type": "name", "properties": { "name": "urn:ogc:def:crs:OGC:1.3:CRS84" } },
"features": [
{ "type": "Feature", "properties": { "code_muni": 4312625.0, "name_muni": "Muliterno", "code_state": 43.0, "abbrev_state": "RS", "name_state": "Rio Grande do Sul", "code_region": 4.0, "name_region": "Sul", "year": 2022.0 }, "geometry": { "type": "Polygon", "coordinates": [ [ [ -51.739955908, -28.310382725999901 ], [ -51.705334256, -28.311399166999909 ], [ -51.705934516, -28.314267454999897 ], [ -51.703603950999899, -28.318693719 ], [ -51.705129203999903, -28.322559757 ], [ -51.70452053, -28.331992672999892 ], [ -51.702429469, -28.334224930999898 ], [ -51.704687522, -28.337746145 ], [ -51.703977804, -28.339584955 ], [ -51.705788326999901, -28.341059378 ], [ -51.703036154, -28.344094055 ], [ -51.7041714, -28.349362342999903 ], [ -51.699314229, -28.35216488 ], [ -51.696374517, -28.357199398 ], [ -51.702095411, -28.356039494 ], [ -51.708049423, -28.360831436999895 ], [ -51.714142186999901, -28.361078867999893 ], [ -51.716606299, -28.369692922 ], [ -51.719616846, -28.368379576999899 ], [ -51.722109067, -28.369641524 ], [ -51.723102297, -28.367757749 ], [ -51.733843481, -28.371776134999902 ], [ -51.740689151, -28.369219986 ], [ -51.785676200999895, -28.381901317 ], [ -51.794189984999903, -28.378588450999906 ], [ -51.795871933999898, -28.376156029999901 ], [ -51.808502816, -28.372706674 ], [ -51.816969404, -28.366941848999897 ], [ -51.821173816999902, -28.366104408 ], [ -51.823008683999909, -28.362937157 ], [ -51.826921776999896, -28.360664368999895 ], [ -51.826597482999908, -28.359556102999896 ], [ -51.833443468, -28.356880632 ], [ -51.832184390999899, -28.3547798 ], [ -51.827655181999901, -28.354961214 ], [ -51.829483706, -28.350180141999896 ], [ -51.825759534, -28.347760416 ], [ -51.822345694, -28.347687038999908 ], [ -51.823585555, -28.344015086 ], [ -51.8175545, -28.33849528 ], [ -51.820862237, -28.336306751999903 ], [ -51.819858462999903, -28.332914677 ], [ -51.82440782, -28.328895947 ], [ -51.826327342999896, -28.32283194 ], [ -51.82997528, -28.320630536999897 ], [ -51.830338347, -28.318270443999896 ], [ -51.833837339999896, -28.314097562 ], [ -51.833389118, -28.308138352999904 ], [ -51.838057923999898, -28.296921443 ], [ -51.832091649999903, -28.289499283999898 ], [ -51.834479073999901, -28.281811741 ], [ -51.836943871, -28.277489726999896 ], [ -51.845402206, -28.269688623 ], [ -51.845397288999898, -28.261068333 ], [ -51.848349965, -28.259301848 ], [ -51.850739721, -28.255360789999898 ], [ -51.857546912, -28.252314270999896 ], [ -51.855451359, -28.250383652 ], [ -51.84437601, -28.249518619999908 ], [ -51.841006923, -28.249807329 ], [ -51.835832442, -28.252638934999894 ], [ -51.8280958409999, -28.251172344999908 ], [ -51.824380032, -28.248002377 ], [ -51.819448168, -28.247258182999897 ], [ -51.810410686, -28.242401014999899 ], [ -51.80834358899989, -28.249892136 ], [ -51.812304833, -28.257643039999902 ], [ -51.812460944, -28.261277766 ], [ -51.81615572, -28.26328418 ], [ -51.815690582999899, -28.267297728 ], [ -51.819014677, -28.272300807 ], [ -51.818196965, -28.274208952 ], [ -51.820080146, -28.277896483999903 ], [ -51.818101382999899, -28.281147173 ], [ -51.821422464, -28.292029188 ], [ -51.821549484999899, -28.297956239 ], [ -51.774614637, -28.291182864999893 ], [ -51.769428305, -28.294053991999892 ], [ -51.765221665, -28.29194324 ], [ -51.764294132, -28.288075842999902 ], [ -51.758298705, -28.288243696999896 ], [ -51.754290298999891, -28.289871736999899 ], [ -51.751613974, -28.28948138 ], [ -51.74690572, -28.2958644469999 ], [ -51.748828557, -28.308027267999904 ], [ -51.742487116999897, -28.308251814999895 ], [ -51.739955908, -28.310382725999901 ] ] ] } }
]
}
