{
"type": "FeatureCollection",
"name": "bairros_ibarama",
"crs": { "type": "name", "properties": { "name": "urn:ogc:def:crs:OGC:1.3:CRS84" } },
"features": [
{ "type": "Feature", "properties": { "code_muni": 4309753.0, "name_muni": "Ibarama", "code_state": 43.0, "abbrev_state": "RS", "name_state": "Rio Grande do Sul", "code_region": 4.0, "name_region": "Sul", "year": 2022.0 }, "geometry": { "type": "Polygon", "coordinates": [ [ [ -53.083175147, -29.370985216999902 ], [ -53.086310367999907, -29.413510007 ], [ -53.09483054, -29.466868727 ], [ -53.097069255, -29.465134301 ], [ -53.100335458, -29.465939450999905 ], [ -53.104841829, -29.473569245 ], [ -53.112942559, -29.477383496999899 ], [ -53.119399357, -29.485835892999894 ], [ -53.123311917, -29.488197304 ], [ -53.125985133, -29.485392174 ], [ -53.129668638999895, -29.484888581 ], [ -53.130661258, -29.493147619999899 ], [ -53.136956171, -29.494827749 ], [ -53.180116085, -29.470922072999894 ], [ -53.184327493999895, -29.467352080999898 ], [ -53.192299125, -29.467860775 ], [ -53.197409544, -29.465657120999897 ], [ -53.202312465, -29.465963546 ], [ -53.204387144, -29.468688658 ], [ -53.211642867, -29.470606451 ], [ -53.220119640999897, -29.46712997 ], [ -53.225074929, -29.468430912999988 ], [ -53.225899817, -29.466789327 ], [ -53.224494997, -29.464975989 ], [ -53.226895606, -29.465039569999909 ], [ -53.227383635, -29.466212465 ], [ -53.230153717999897, -29.464727371 ], [ -53.235307119, -29.465320004 ], [ -53.242274956, -29.458022812 ], [ -53.245614160999899, -29.457859544 ], [ -53.246519728999893, -29.455984627 ], [ -53.248955319999901, -29.455890133 ], [ -53.249090044, -29.451873690999896 ], [ -53.2506309, -29.450360471999897 ], [ -53.253707835999897, -29.450221683999896 ], [ -53.256131061, -29.447845486999903 ], [ -53.261626255999893, -29.447544987 ], [ -53.263186116999989, -29.449358801999903 ], [ -53.265350977, -29.4493319709999 ], [ -53.263785911, -29.446091876 ], [ -53.266545146999903, -29.444673607 ], [ -53.278233927, -29.447570184 ], [ -53.281673779999892, -29.447254993999902 ], [ -53.285285584, -29.4441683649999 ], [ -53.287405801, -29.439153007 ], [ -53.286229063, -29.435572427999894 ], [ -53.279411594, -29.430128295 ], [ -53.276022075999897, -29.429094107 ], [ -53.272810847999899, -29.429082029 ], [ -53.265054889999902, -29.434199696 ], [ -53.261115026, -29.434873447 ], [ -53.257702078, -29.432812934 ], [ -53.250818266, -29.424281676 ], [ -53.244397867, -29.422614428 ], [ -53.238241516, -29.411908116999893 ], [ -53.228603075, -29.405280557 ], [ -53.227073681, -29.40097951 ], [ -53.227728989, -29.39165852 ], [ -53.225818384, -29.387558261 ], [ -53.226380159, -29.380378865999901 ], [ -53.225600448, -29.377841556 ], [ -53.221170270999892, -29.374356400999904 ], [ -53.219918659, -29.369881516 ], [ -53.222500317, -29.364886285 ], [ -53.230581223999891, -29.358713243999908 ], [ -53.232018197999906, -29.355440792 ], [ -53.23104324, -29.350119024 ], [ -53.219911403, -29.351556430999892 ], [ -53.204411981, -29.358079046999901 ], [ -53.197224922, -29.364324813999897 ], [ -53.195102349, -29.364045893 ], [ -53.192095259, -29.352650826999902 ], [ -53.188692647, -29.348501083 ], [ -53.171180394, -29.345167037 ], [ -53.168047699999903, -29.341671339999902 ], [ -53.163251615, -29.344954865 ], [ -53.159101984, -29.3451911 ], [ -53.160922712999891, -29.350282734 ], [ -53.160331965, -29.353073895 ], [ -53.157493423999902, -29.350077488000011 ], [ -53.154570282999892, -29.349100128 ], [ -53.153037876, -29.351612718999899 ], [ -53.154801071999898, -29.354046941 ], [ -53.153956329, -29.355596912999903 ], [ -53.146012234, -29.357356185999901 ], [ -53.140794830999901, -29.356182459 ], [ -53.14238492, -29.362539888 ], [ -53.135748646, -29.36316064399989 ], [ -53.133649562, -29.361648552 ], [ -53.133637579, -29.359079801999901 ], [ -53.127097670999895, -29.359332677999909 ], [ -53.126646337, -29.360231378 ], [ -53.129459225999902, -29.362906848 ], [ -53.125610767999902, -29.36366377 ], [ -53.129986223999893, -29.366428073 ], [ -53.128955489, -29.367720041 ], [ -53.126196062, -29.366978273 ], [ -53.126778159, -29.370337387999907 ], [ -53.124488794999898, -29.373396006999904 ], [ -53.121831965999895, -29.368808948 ], [ -53.11626991899989, -29.370030362 ], [ -53.117428764999893, -29.36570205399989 ], [ -53.105337149, -29.363869327 ], [ -53.10262411, -29.360185789999893 ], [ -53.096056023999893, -29.366517304999899 ], [ -53.09489747899989, -29.370160907999892 ], [ -53.090104286, -29.36918815400001 ], [ -53.091094865999899, -29.371543572999901 ], [ -53.090029261, -29.372485172000012 ], [ -53.080740203999902, -29.368233505 ], [ -53.083175147, -29.370985216999902 ] ] ] } }
]
}
