{
"type": "FeatureCollection",
"name": "bairros_porto_alegre",
"crs": { "type": "name", "properties": { "name": "urn:ogc:def:crs:OGC:1.3:CRS84" } },
"features": [
{ "type": "Feature", "properties": { "code_muni": 4314902.0, "name_muni": "Porto Alegre", "code_state": 43.0, "abbrev_state": "RS", "name_state": "Rio Grande do Sul", "code_region": 4.0, "name_region": "Sul", "year": 2022.0 }, "geometry": { "type": "MultiPolygon", "coordinates": [ [ [ [ -51.164048793999896, -30.261699454999892 ], [ -51.162827359999895, -30.265094207999908 ], [ -51.165291977, -30.266181393 ], [ -51.170195453, -30.2636622969999 ], [ -51.164048793999896, -30.261699454999892 ] ] ], [ [ [ -51.191964019999894, -30.241115009999902 ], [ -51.193292168, -30.242171598 ], [ -51.19349973899989, -30.241424035 ], [ -51.191964019999894, -30.241115009999902 ] ] ], [ [ [ -51.286280169, -30.121535862 ], [ -51.288450843, -30.121266676999902 ], [ -51.287319666, -30.120063419 ], [ -51.286280169, -30.121535862 ] ] ], [ [ [ -51.182595576, -30.212946288999891 ], [ -51.187961447, -30.211139999 ], [ -51.194301829, -30.213625972999989 ], [ -51.199539321, -30.210742821999904 ], [ -51.19964798, -30.209237229999893 ], [ -51.195724022, -30.207668278 ], [ -51.194329028, -30.199762042 ], [ -51.197960426, -30.194680718 ], [ -51.201777971999903, -30.192054801 ], [ -51.222962729, -30.187867938 ], [ -51.23953426, -30.1903707499999 ], [ -51.248743885, -30.1862390269999 ], [ -51.241902492999898, -30.18163641 ], [ -51.237539464, -30.183316466 ], [ -51.232737378, -30.182721408 ], [ -51.226664475, -30.176924035 ], [ -51.226633574999894, -30.16821335 ], [ -51.232124638999899, -30.165635451999904 ], [ -51.233418942999897, -30.163597670999899 ], [ -51.232474184, -30.162206120999905 ], [ -51.230202864, -30.162746317 ], [ -51.228006708, -30.160567707 ], [ -51.225129244, -30.152502562999896 ], [ -51.225710877, -30.1451903449999 ], [ -51.228225354, -30.140512306999902 ], [ -51.23287149, -30.135954019999904 ], [ -51.244904348, -30.131339832 ], [ -51.245822978, -30.129554551999892 ], [ -51.244836041, -30.127694898 ], [ -51.246277769999892, -30.125529083999893 ], [ -51.261149227, -30.122704070999898 ], [ -51.262232090999902, -30.120036404 ], [ -51.258673277999897, -30.110712051999901 ], [ -51.260240255, -30.110689941 ], [ -51.260875349999893, -30.112426544 ], [ -51.263481074, -30.111636915 ], [ -51.265118743, -30.1094888649999 ], [ -51.262382391, -30.108754971999897 ], [ -51.258671283999902, -30.110522887999903 ], [ -51.258738712, -30.108961221999898 ], [ -51.260811076, -30.106299729999893 ], [ -51.267706898, -30.103674488 ], [ -51.266741759999903, -30.103817723 ], [ -51.26647722, -30.099843225 ], [ -51.26509658, -30.098496360999903 ], [ -51.257465875, -30.096090584 ], [ -51.256765779, -30.097129012 ], [ -51.256357464, -30.095757321 ], [ -51.252907493, -30.096567023 ], [ -51.251400996, -30.094885728 ], [ -51.252333931, -30.094073896999905 ], [ -51.250371141999892, -30.092295040999904 ], [ -51.248260963, -30.082927989 ], [ -51.248462601, -30.081461738 ], [ -51.250597716999891, -30.0811831789999 ], [ -51.248266174, -30.078366096 ], [ -51.244745013999903, -30.076777769999989 ], [ -51.240895212999895, -30.070067665 ], [ -51.239926157999896, -30.063336982 ], [ -51.234792848, -30.0590199499999 ], [ -51.234037196, -30.0478013379999 ], [ -51.232858689999901, -30.047208264999902 ], [ -51.23556344, -30.046262245 ], [ -51.23781337, -30.047101563 ], [ -51.235389306999892, -30.044271024 ], [ -51.24163874, -30.041786787999989 ], [ -51.242395775, -30.035258548999884 ], [ -51.250240571999903, -30.035299553999899 ], [ -51.257229848, -30.048355711999893 ], [ -51.262489047, -30.053567353999885 ], [ -51.266939298999894, -30.055753685999896 ], [ -51.266536164999899, -30.057113622 ], [ -51.27042384, -30.058554643 ], [ -51.270431339, -30.060056872 ], [ -51.271993417, -30.059222518999899 ], [ -51.271401451, -30.054939894 ], [ -51.265857787, -30.053404556 ], [ -51.261549846, -30.047513754 ], [ -51.262995439, -30.042276833999889 ], [ -51.259548789, -30.033683718 ], [ -51.264279818, -30.035746778 ], [ -51.269441682999989, -30.035154317 ], [ -51.271899645, -30.03897208 ], [ -51.273814191, -30.036237749 ], [ -51.267778631999903, -30.030427603 ], [ -51.261811425, -30.009642551999896 ], [ -51.265117888, -30.000763048999904 ], [ -51.271963048, -29.988648769 ], [ -51.278541451, -29.981296635999989 ], [ -51.285182924, -29.970588462 ], [ -51.289631411, -29.966982632999901 ], [ -51.297530939999895, -29.963331460999896 ], [ -51.303245191, -29.950072716 ], [ -51.288566454, -29.947099282 ], [ -51.267316153, -29.935152574 ], [ -51.263554313, -29.934198802 ], [ -51.251027888999893, -29.932302176 ], [ -51.245656252999908, -29.932624765999886 ], [ -51.237095468999904, -29.936479441 ], [ -51.231185653, -29.941115297999904 ], [ -51.227575864999892, -29.956476741999886 ], [ -51.221136622, -29.966121599 ], [ -51.218634493, -29.966748238 ], [ -51.208230089, -29.964377707 ], [ -51.200901701, -29.97149286 ], [ -51.195120935, -29.969119433999907 ], [ -51.166398644, -29.967256812999892 ], [ -51.164575127, -29.96559881 ], [ -51.160763422999892, -29.967206383 ], [ -51.156254488999906, -29.964449624999894 ], [ -51.153916957, -29.9670062349999 ], [ -51.150590715, -29.965439011999901 ], [ -51.150171099, -29.962340820999898 ], [ -51.147732085, -29.959817202999904 ], [ -51.143148806999903, -29.960639308999895 ], [ -51.1406773739999, -29.957397181 ], [ -51.134049409999896, -29.960885631999897 ], [ -51.126274957, -29.954229165999902 ], [ -51.12004601, -29.958045581 ], [ -51.112784564, -29.958051406 ], [ -51.105430047, -29.965011337 ], [ -51.101713294, -29.964061021 ], [ -51.096074629, -29.96586024199998 ], [ -51.091560485999892, -29.963002295 ], [ -51.088590961, -29.963841138 ], [ -51.090090973, -29.966829262 ], [ -51.086475632, -29.970939619 ], [ -51.089017428, -29.986485698 ], [ -51.087495906, -30.003898133999904 ], [ -51.092842241, -30.010277671 ], [ -51.094395372999898, -30.015496583 ], [ -51.092491002, -30.017673497 ], [ -51.089025991, -30.01791868 ], [ -51.086264078999896, -30.02295214 ], [ -51.086141487, -30.025295798999895 ], [ -51.087852278, -30.026292812 ], [ -51.087367400999902, -30.029045654 ], [ -51.090273539, -30.034302662999902 ], [ -51.086732809999901, -30.037987616999892 ], [ -51.08782171099989, -30.041016347 ], [ -51.084250090999895, -30.047503027999891 ], [ -51.090868654, -30.047410574 ], [ -51.09570079, -30.050573045 ], [ -51.097683769, -30.0485900649999 ], [ -51.101041501999902, -30.048480624 ], [ -51.110558641, -30.050544053999896 ], [ -51.122430083, -30.055938903 ], [ -51.118426999, -30.057166571 ], [ -51.117425442999902, -30.063048314999907 ], [ -51.120423386, -30.063104363 ], [ -51.120363687999898, -30.06683025 ], [ -51.118300812, -30.06779764 ], [ -51.117252774, -30.072935094999895 ], [ -51.114753628, -30.072617745999906 ], [ -51.109238311999903, -30.078326427 ], [ -51.1121771809999, -30.080263654 ], [ -51.117772606, -30.078768496 ], [ -51.114284598, -30.081465170999898 ], [ -51.1104369399999, -30.087687587999902 ], [ -51.11196947, -30.104205201 ], [ -51.1018248889999, -30.109751081 ], [ -51.100893401, -30.1142056959999 ], [ -51.096339375999889, -30.114864350999902 ], [ -51.094690903, -30.119389326 ], [ -51.098663799, -30.128710422 ], [ -51.093626997999898, -30.138084777 ], [ -51.08769345799989, -30.140571445 ], [ -51.085589372, -30.143139216999899 ], [ -51.088994022, -30.151270630999903 ], [ -51.078638872999896, -30.160220771999892 ], [ -51.0793853609999, -30.163764952999902 ], [ -51.076785017, -30.167851744 ], [ -51.07652711, -30.174217782 ], [ -51.079461962, -30.179108395999901 ], [ -51.074312146, -30.177495124 ], [ -51.066963389, -30.178454788 ], [ -51.057827058, -30.1874027819999 ], [ -51.053698759, -30.189003634 ], [ -51.046444918, -30.187055324 ], [ -51.042653389999892, -30.184727423 ], [ -51.011942199, -30.198930769 ], [ -51.031546915, -30.216884507 ], [ -51.04073760099989, -30.218456653 ], [ -51.047220991, -30.222998004 ], [ -51.048982138, -30.22675986 ], [ -51.053043611, -30.230716769 ], [ -51.055575727, -30.238774583 ], [ -51.058646833, -30.239742351 ], [ -51.058903243, -30.243521681999908 ], [ -51.056963751999902, -30.244760019999902 ], [ -51.057311023, -30.247464025999896 ], [ -51.054167956, -30.252144610999895 ], [ -51.0555046859999, -30.255734678 ], [ -51.053583429, -30.257729202 ], [ -51.055202963999903, -30.258671596999903 ], [ -51.053630444, -30.259824648999892 ], [ -51.062896609999903, -30.259611558 ], [ -51.063379131, -30.255811492 ], [ -51.069698144, -30.247195295 ], [ -51.076499176, -30.243384424999896 ], [ -51.089401446999894, -30.240983308999905 ], [ -51.09520851, -30.241118953 ], [ -51.100404112, -30.243256550999899 ], [ -51.102838799, -30.246149073 ], [ -51.105006703999898, -30.245253245999905 ], [ -51.105192529, -30.243167865 ], [ -51.106593426, -30.243192168999894 ], [ -51.106155037999898, -30.248201220999899 ], [ -51.101388774, -30.249960911 ], [ -51.102514473, -30.25229626 ], [ -51.10085411099989, -30.256083379 ], [ -51.099031802, -30.257107951 ], [ -51.103747073, -30.259930466999894 ], [ -51.106601349, -30.258983537999903 ], [ -51.10468514, -30.256371204999905 ], [ -51.104933913, -30.251845181 ], [ -51.11371879, -30.246370860999896 ], [ -51.118641609, -30.245859934 ], [ -51.12308651, -30.246693165 ], [ -51.123735155, -30.248179647 ], [ -51.128205512, -30.247770492 ], [ -51.132624104999891, -30.251646195 ], [ -51.136937932, -30.259729563999905 ], [ -51.137310527, -30.265829998 ], [ -51.133686473999902, -30.269413694 ], [ -51.140486166999899, -30.268062948 ], [ -51.142686313999903, -30.265662333 ], [ -51.14997816399989, -30.263404814 ], [ -51.159686119999897, -30.261918465 ], [ -51.157333748, -30.260976840999909 ], [ -51.155502209, -30.25684646 ], [ -51.155067416999891, -30.248576121999989 ], [ -51.152704469999897, -30.248520928999898 ], [ -51.151870588999891, -30.246483536 ], [ -51.152751146999897, -30.242931215999899 ], [ -51.156216152999903, -30.239881921999899 ], [ -51.167069531, -30.237423955999901 ], [ -51.17082821799989, -30.239077111 ], [ -51.181194559999895, -30.235245662999908 ], [ -51.188439531, -30.235831049999895 ], [ -51.191211150999891, -30.239420438 ], [ -51.192864514, -30.238351022 ], [ -51.192827611, -30.23481113 ], [ -51.190577751, -30.233244290999888 ], [ -51.183875623999903, -30.233129339 ], [ -51.179107178, -30.225371593 ], [ -51.178493043999893, -30.216982634 ], [ -51.182595576, -30.212946288999891 ] ] ], [ [ [ -51.288682291, -30.060172216 ], [ -51.28611690799989, -30.058964085 ], [ -51.28687725799989, -30.0632780299999 ], [ -51.291996586, -30.064812129 ], [ -51.291010301, -30.060323238 ], [ -51.294645704999901, -30.054053044999897 ], [ -51.288682291, -30.060172216 ] ] ] ] } }
]
}
