{
"type": "FeatureCollection",
"name": "bairros_ijui",
"crs": { "type": "name", "properties": { "name": "urn:ogc:def:crs:OGC:1.3:CRS84" } },
"features": [
{ "type": "Feature", "properties": { "name": "Glória", "code_muni": 4310207.0, "name_muni": "Ijuí" }, "geometry": { "type": "Polygon", "coordinates": [ [ [ -53.9099979, -28.3709195 ], [ -53.9086903, -28.3708849 ], [ -53.9061533, -28.370853 ], [ -53.9056813, -28.3708567 ], [ -53.9048079, -28.3708534 ], [ -53.903546, -28.3708284 ], [ -53.9033366, -28.3708242 ], [ -53.9022758, -28.370813 ], [ -53.9020197, -28.3707528 ], [ -53.9020172, -28.3707958 ], [ -53.9019728, -28.3717195 ], [ -53.9017689, -28.3729987 ], [ -53.901946, -28.3733007 ], [ -53.9020127, -28.3740356 ], [ -53.9019915, -28.3748395 ], [ -53.9019793, -28.3752997 ], [ -53.9019691, -28.376437099999986 ], [ -53.9019611, -28.376753 ], [ -53.9019414, -28.3775252 ], [ -53.9019345, -28.377878 ], [ -53.9019242, -28.3783353 ], [ -53.9019223, -28.378384 ], [ -53.9019199, -28.378625 ], [ -53.9019042, -28.3790621 ], [ -53.9018972, -28.3797715 ], [ -53.9019486, -28.3798124 ], [ -53.9031297, -28.3798531 ], [ -53.9037753, -28.3798521 ], [ -53.9044104, -28.3798626 ], [ -53.9057344, -28.3798895 ], [ -53.9065273, -28.3799086 ], [ -53.9071353, -28.3798922 ], [ -53.9074191, -28.3798922 ], [ -53.9085973, -28.379916 ], [ -53.9098232, -28.3799524 ], [ -53.9110562, -28.3799624 ], [ -53.9122495, -28.379972 ], [ -53.9122527, -28.3787875 ], [ -53.9122952, -28.3777134 ], [ -53.9123426, -28.3766142 ], [ -53.9123489, -28.3755498 ], [ -53.9123529, -28.3754471 ], [ -53.9123811, -28.3746754 ], [ -53.9123851, -28.3744595 ], [ -53.9123704, -28.3739486 ], [ -53.9123945, -28.3732825 ], [ -53.9123965, -28.3732176 ], [ -53.9124468, -28.3727922 ], [ -53.9124656, -28.3723178 ], [ -53.9124428, -28.3720016 ], [ -53.9124629, -28.3709514 ], [ -53.9111942, -28.3709254 ], [ -53.9104103, -28.3709171 ], [ -53.9099979, -28.3709195 ] ] ] } },
{ "type": "Feature", "properties": { "name": "Quinze de Novembro", "code_muni": 4310207.0, "name_muni": "Ijuí" }, "geometry": { "type": "Polygon", "coordinates": [ [ [ -53.8998914, -28.3663102 ], [ -53.8998522, -28.3707131 ], [ -53.9018326, -28.370757 ], [ -53.9020197, -28.3707528 ], [ -53.9022758, -28.370813 ], [ -53.9033366, -28.3708242 ], [ -53.903546, -28.3708284 ], [ -53.9048079, -28.3708534 ], [ -53.9056813, -28.3708567 ], [ -53.9061533, -28.370853 ], [ -53.9086903, -28.3708849 ], [ -53.9099979, -28.3709195 ], [ -53.9104103, -28.3709171 ], [ -53.9103553, -28.3702876 ], [ -53.9103211, -28.3701265 ], [ -53.9102983, -28.3699755 ], [ -53.910293, -28.369832699999989 ], [ -53.9102849, -28.3696993 ], [ -53.9098869, -28.3694371 ], [ -53.9098959, -28.3691587 ], [ -53.9099037, -28.368621699999988 ], [ -53.9087386, -28.368606 ], [ -53.908738, -28.3685228 ], [ -53.9087382, -28.3680234 ], [ -53.9087339, -28.3674593 ], [ -53.9092808, -28.3674709 ], [ -53.9092882, -28.3664609 ], [ -53.8998914, -28.3663102 ] ] ] } },
{ "type": "Feature", "properties": { "name": "Colonial", "code_muni": 4310207.0, "name_muni": "Ijuí" }, "geometry": { "type": "Polygon", "coordinates": [ [ [ -53.9179802, -28.3638934 ], [ -53.9125435, -28.36393 ], [ -53.9124807, -28.3655341 ], [ -53.9124944, -28.3664111 ], [ -53.913745, -28.3664211 ], [ -53.9142412, -28.3664329 ], [ -53.9147206, -28.36644 ], [ -53.9149292, -28.3664471 ], [ -53.9152544, -28.3664512 ], [ -53.9174384, -28.3664872 ], [ -53.9175329, -28.3665344 ], [ -53.9179588, -28.365687099999988 ], [ -53.9179802, -28.3638934 ] ] ] } },
{ "type": "Feature", "properties": { "name": "Tancredo Neves", "code_muni": 4310207.0, "name_muni": "Ijuí" }, "geometry": { "type": "Polygon", "coordinates": [ [ [ -53.9179588, -28.365687099999988 ], [ -53.9175329, -28.3665344 ], [ -53.9174384, -28.3664872 ], [ -53.9152544, -28.3664512 ], [ -53.9149292, -28.3664471 ], [ -53.9147206, -28.36644 ], [ -53.9142412, -28.3664329 ], [ -53.913745, -28.3664211 ], [ -53.9124944, -28.3664111 ], [ -53.9124877, -28.3667291 ], [ -53.9124857, -28.3670513 ], [ -53.912475, -28.3675334 ], [ -53.9124656, -28.369717 ], [ -53.9124629, -28.3709514 ], [ -53.9124428, -28.3720016 ], [ -53.9124656, -28.3723178 ], [ -53.9124468, -28.3727922 ], [ -53.9123965, -28.3732176 ], [ -53.9123945, -28.3732825 ], [ -53.9130038, -28.3732954 ], [ -53.9136397, -28.3733002 ], [ -53.9136752, -28.3722895 ], [ -53.913691300000011, -28.3719968 ], [ -53.9136866, -28.3709573 ], [ -53.9142211, -28.3709691 ], [ -53.9146395, -28.3709726 ], [ -53.9153476, -28.3709938 ], [ -53.9164017, -28.3710056 ], [ -53.916918, -28.3710145 ], [ -53.9174203, -28.3710227 ], [ -53.9178019, -28.3710266 ], [ -53.9179299, -28.3710292 ], [ -53.9180788, -28.3710298 ], [ -53.9180861, -28.3717219 ], [ -53.9180888, -28.3722447 ], [ -53.9180727, -28.3733326 ], [ -53.9186219, -28.3733249 ], [ -53.9187611, -28.373360499999986 ], [ -53.9187795, -28.3732866 ], [ -53.9188975, -28.3730931 ], [ -53.9190906, -28.3729751 ], [ -53.9191818, -28.3728901 ], [ -53.919214, -28.372791 ], [ -53.9191657, -28.3726919 ], [ -53.9192194, -28.3722576 ], [ -53.9192462, -28.3721443 ], [ -53.9193106, -28.372035799999985 ], [ -53.9193749, -28.3718281 ], [ -53.9193642, -28.3712334 ], [ -53.9192194, -28.3707472 ], [ -53.9190102, -28.3705962 ], [ -53.9186561, -28.3700533 ], [ -53.9186347, -28.3697513 ], [ -53.9186722, -28.3694444 ], [ -53.9187205, -28.3693359 ], [ -53.9188922, -28.369166 ], [ -53.9192838, -28.3686939 ], [ -53.91934280000001, -28.3685712 ], [ -53.9198041, -28.3680945 ], [ -53.919906, -28.3679481 ], [ -53.9200991, -28.3677405 ], [ -53.9201903, -28.3673298 ], [ -53.9203727, -28.366971099999986 ], [ -53.9205122, -28.3667728 ], [ -53.9207161, -28.3661497 ], [ -53.9207107, -28.3660364 ], [ -53.920657, -28.3659373 ], [ -53.9204341, -28.3657243 ], [ -53.9179588, -28.365687099999988 ] ] ] } },
{ "type": "Feature", "properties": { "name": "Storch", "code_muni": 4310207.0, "name_muni": "Ijuí" }, "geometry": { "type": "Polygon", "coordinates": [ [ [ -53.9186219, -28.3733249 ], [ -53.9180727, -28.3733326 ], [ -53.9180888, -28.3722447 ], [ -53.9180861, -28.3717219 ], [ -53.9180788, -28.3710298 ], [ -53.9179299, -28.3710292 ], [ -53.9178019, -28.3710266 ], [ -53.9174203, -28.3710227 ], [ -53.916918, -28.3710145 ], [ -53.9164017, -28.3710056 ], [ -53.9153476, -28.3709938 ], [ -53.9146395, -28.3709726 ], [ -53.9142211, -28.3709691 ], [ -53.9136866, -28.3709573 ], [ -53.913691300000011, -28.3719968 ], [ -53.9136752, -28.3722895 ], [ -53.9136397, -28.3733002 ], [ -53.9130038, -28.3732954 ], [ -53.9123945, -28.3732825 ], [ -53.9123704, -28.3739486 ], [ -53.9123851, -28.3744595 ], [ -53.9123811, -28.3746754 ], [ -53.9123529, -28.3754471 ], [ -53.9123489, -28.3755498 ], [ -53.9123426, -28.3766142 ], [ -53.9122952, -28.3777134 ], [ -53.9122527, -28.3787875 ], [ -53.9122495, -28.379972 ], [ -53.9134969, -28.3799723 ], [ -53.9147143, -28.3800146 ], [ -53.915951, -28.3800147 ], [ -53.9172466, -28.3800194 ], [ -53.9172346, -28.379871 ], [ -53.9171796, -28.3794082 ], [ -53.9171541, -28.3792018 ], [ -53.9171293, -28.3788649 ], [ -53.9171112, -28.3785115 ], [ -53.917079, -28.3778885 ], [ -53.9170629, -28.3776301 ], [ -53.9176511, -28.3777265 ], [ -53.9179051, -28.3772419 ], [ -53.9179105, -28.3768454 ], [ -53.917965, -28.3766571 ], [ -53.9179959, -28.3765504 ], [ -53.9180499, -28.376364 ], [ -53.9181733, -28.3761846 ], [ -53.9183879, -28.3757976 ], [ -53.9184094, -28.3753114 ], [ -53.9184469, -28.3749999 ], [ -53.9185059, -28.3749055 ], [ -53.9185864, -28.37483 ], [ -53.9186668, -28.3744005 ], [ -53.9187419, -28.3742117 ], [ -53.918758, -28.3738105 ], [ -53.9187312, -28.3734801 ], [ -53.9187611, -28.373360499999986 ], [ -53.9186219, -28.3733249 ] ] ] } },
{ "type": "Feature", "properties": { "name": "Boa Vista", "code_muni": 4310207.0, "name_muni": "Ijuí" }, "geometry": { "type": "Polygon", "coordinates": [ [ [ -53.92645060000001, -28.3743627 ], [ -53.9272687, -28.3735155 ], [ -53.9274994, -28.3733456 ], [ -53.9307287, -28.3717408 ], [ -53.9316539, -28.3712666 ], [ -53.931459, -28.3712577 ], [ -53.9306508, -28.3712208 ], [ -53.9301722, -28.3712198 ], [ -53.9297933, -28.3712169 ], [ -53.9294627, -28.3712092 ], [ -53.9291033, -28.3712068 ], [ -53.9288941, -28.3712045 ], [ -53.9284596, -28.3711944 ], [ -53.9281692, -28.3711862 ], [ -53.9277307, -28.3711756 ], [ -53.9275892, -28.3711691 ], [ -53.9271909, -28.3711614 ], [ -53.9263836, -28.3711437 ], [ -53.9257197, -28.3711354 ], [ -53.9257666, -28.3700781 ], [ -53.9258297, -28.3687931 ], [ -53.9258973, -28.3658063 ], [ -53.9204341, -28.3657243 ], [ -53.920657, -28.3659373 ], [ -53.9207107, -28.3660364 ], [ -53.9207161, -28.3661497 ], [ -53.9205122, -28.3667728 ], [ -53.9203727, -28.366971099999986 ], [ -53.9201903, -28.3673298 ], [ -53.9200991, -28.3677405 ], [ -53.919906, -28.3679481 ], [ -53.9198041, -28.3680945 ], [ -53.91934280000001, -28.3685712 ], [ -53.9192838, -28.3686939 ], [ -53.9188922, -28.369166 ], [ -53.9187205, -28.3693359 ], [ -53.9186722, -28.3694444 ], [ -53.9186347, -28.3697513 ], [ -53.9186561, -28.3700533 ], [ -53.9190102, -28.3705962 ], [ -53.9192194, -28.3707472 ], [ -53.9193642, -28.3712334 ], [ -53.9193749, -28.3718281 ], [ -53.9193106, -28.372035799999985 ], [ -53.9192462, -28.3721443 ], [ -53.9192194, -28.3722576 ], [ -53.9191657, -28.3726919 ], [ -53.9193749, -28.3727627 ], [ -53.9204371, -28.3728099 ], [ -53.9205337, -28.3728618 ], [ -53.9206946, -28.3730128 ], [ -53.9214885, -28.3736359 ], [ -53.921687, -28.3737633 ], [ -53.9217675, -28.3738435 ], [ -53.9221108, -28.3740559 ], [ -53.9221537, -28.3741551 ], [ -53.9224991, -28.3743957 ], [ -53.9227974, -28.374603499999989 ], [ -53.9231086, -28.3747592 ], [ -53.9232373, -28.3748819 ], [ -53.9234948, -28.3750707 ], [ -53.9239132, -28.3752784 ], [ -53.92399910000001, -28.3753445 ], [ -53.9241171, -28.3753775 ], [ -53.9242244, -28.3753728 ], [ -53.9244014, -28.3752359 ], [ -53.9245248, -28.3752265 ], [ -53.9246213, -28.3752784 ], [ -53.9247769, -28.3754342 ], [ -53.9253053, -28.3756796 ], [ -53.92645060000001, -28.3743627 ] ] ] } },
{ "type": "Feature", "properties": { "name": "São José", "code_muni": 4310207.0, "name_muni": "Ijuí" }, "geometry": { "type": "Polygon", "coordinates": [ [ [ -53.9273039, -28.3758023 ], [ -53.9272841, -28.3756755 ], [ -53.9271949, -28.3756762 ], [ -53.9265816, -28.375681 ], [ -53.9256909, -28.3756715 ], [ -53.9255255, -28.3756697 ], [ -53.925386, -28.375716 ], [ -53.9253053, -28.3756796 ], [ -53.9247769, -28.3754342 ], [ -53.9246213, -28.3752784 ], [ -53.9245248, -28.3752265 ], [ -53.9244014, -28.3752359 ], [ -53.9242244, -28.3753728 ], [ -53.9241171, -28.3753775 ], [ -53.92399910000001, -28.3753445 ], [ -53.9239132, -28.3752784 ], [ -53.9234948, -28.3750707 ], [ -53.9232373, -28.3748819 ], [ -53.9231086, -28.3747592 ], [ -53.9227974, -28.374603499999989 ], [ -53.9224991, -28.3743957 ], [ -53.9221537, -28.3741551 ], [ -53.9221108, -28.3740559 ], [ -53.9217675, -28.3738435 ], [ -53.921687, -28.3737633 ], [ -53.9214885, -28.3736359 ], [ -53.9206946, -28.3730128 ], [ -53.9205337, -28.3728618 ], [ -53.9204371, -28.3728099 ], [ -53.9193749, -28.3727627 ], [ -53.9191657, -28.3726919 ], [ -53.919214, -28.372791 ], [ -53.9191818, -28.3728901 ], [ -53.9190906, -28.3729751 ], [ -53.9188975, -28.3730931 ], [ -53.9187795, -28.3732866 ], [ -53.9187611, -28.373360499999986 ], [ -53.9187312, -28.3734801 ], [ -53.918758, -28.3738105 ], [ -53.9187419, -28.3742117 ], [ -53.9186668, -28.3744005 ], [ -53.9185864, -28.37483 ], [ -53.9185059, -28.3749055 ], [ -53.9184469, -28.3749999 ], [ -53.9184094, -28.3753114 ], [ -53.9183879, -28.3757976 ], [ -53.9181733, -28.3761846 ], [ -53.9180499, -28.376364 ], [ -53.9179959, -28.3765504 ], [ -53.917965, -28.3766571 ], [ -53.9179105, -28.3768454 ], [ -53.9179051, -28.3772419 ], [ -53.9176511, -28.3777265 ], [ -53.917492, -28.3780301 ], [ -53.917492, -28.3781764 ], [ -53.9175028, -28.378436 ], [ -53.917535, -28.3786814 ], [ -53.9176379, -28.37885 ], [ -53.917714, -28.3789746 ], [ -53.9177656, -28.379059 ], [ -53.9178354, -28.3791392 ], [ -53.9181197, -28.3797622 ], [ -53.9183611, -28.380102 ], [ -53.9185113, -28.3803947 ], [ -53.9187044, -28.3805504 ], [ -53.9189404, -28.380805299999988 ], [ -53.9191067, -28.3810224 ], [ -53.9192516, -28.3812631 ], [ -53.9194018, -28.3814235 ], [ -53.9195517, -28.3815701 ], [ -53.9196257, -28.3816914 ], [ -53.9196204, -28.3818672 ], [ -53.919615, -28.3819993 ], [ -53.9196114, -28.3825047 ], [ -53.9195815, -28.3836347 ], [ -53.9195738, -28.3846993 ], [ -53.9208342, -28.3847125 ], [ -53.9220974, -28.3847485 ], [ -53.9233225, -28.3847638 ], [ -53.9237684, -28.384778 ], [ -53.9240742, -28.3847709 ], [ -53.9244953, -28.3847284 ], [ -53.9244324, -28.3846584 ], [ -53.9238969, -28.3839392 ], [ -53.9236163, -28.3835832 ], [ -53.9235184, -28.3832271 ], [ -53.9235706, -28.3828539 ], [ -53.9237338, -28.3825094 ], [ -53.9248694, -28.3811887 ], [ -53.9252871, -28.380901599999987 ], [ -53.9267165, -28.3802469 ], [ -53.9270809, -28.3800855 ], [ -53.9274344, -28.3799196 ], [ -53.9277412, -28.3796038 ], [ -53.9279239, -28.3792765 ], [ -53.9279957, -28.3789434 ], [ -53.9279696, -28.3786448 ], [ -53.927727, -28.3779441 ], [ -53.9273039, -28.3758023 ] ] ] } },
{ "type": "Feature", "properties": { "name": "Ferroviário", "code_muni": 4310207.0, "name_muni": "Ijuí" }, "geometry": { "type": "Polygon", "coordinates": [ [ [ -53.9307287, -28.3717408 ], [ -53.9274994, -28.3733456 ], [ -53.9272687, -28.3735155 ], [ -53.92645060000001, -28.3743627 ], [ -53.9253053, -28.3756796 ], [ -53.925386, -28.375716 ], [ -53.9255255, -28.3756697 ], [ -53.9256909, -28.3756715 ], [ -53.9265816, -28.375681 ], [ -53.9271949, -28.3756762 ], [ -53.9272841, -28.3756755 ], [ -53.927206, -28.3751764 ], [ -53.9272517, -28.3748261 ], [ -53.927454, -28.3744873 ], [ -53.9277869, -28.3741944 ], [ -53.930887, -28.3732813 ], [ -53.93138960000001, -28.373155 ], [ -53.931742, -28.3731148 ], [ -53.9328501, -28.3731519 ], [ -53.9328882, -28.3722095 ], [ -53.9329097, -28.3716768 ], [ -53.93294860000001, -28.3712522 ], [ -53.9329952, -28.3708393 ], [ -53.9330167, -28.3707222 ], [ -53.9330059, -28.3705018 ], [ -53.9330314, -28.3702671 ], [ -53.9329359, -28.3703701 ], [ -53.9328462, -28.3704668 ], [ -53.9316539, -28.3712666 ], [ -53.9307287, -28.3717408 ] ] ] } },
{ "type": "Feature", "properties": { "name": "Luís Fogliatto", "code_muni": 4310207.0, "name_muni": "Ijuí" }, "geometry": { "type": "Polygon", "coordinates": [ [ [ -53.9258973, -28.3658063 ], [ -53.9258297, -28.3687931 ], [ -53.9257666, -28.3700781 ], [ -53.9257197, -28.3711354 ], [ -53.9263836, -28.3711437 ], [ -53.9271909, -28.3711614 ], [ -53.9275892, -28.3711691 ], [ -53.9277307, -28.3711756 ], [ -53.9281692, -28.3711862 ], [ -53.9284596, -28.3711944 ], [ -53.9288941, -28.3712045 ], [ -53.9291033, -28.3712068 ], [ -53.9294627, -28.3712092 ], [ -53.9297933, -28.3712169 ], [ -53.9301722, -28.3712198 ], [ -53.9306508, -28.3712208 ], [ -53.931459, -28.3712577 ], [ -53.9316539, -28.3712666 ], [ -53.9328462, -28.3704668 ], [ -53.9329359, -28.3703701 ], [ -53.9330314, -28.3702671 ], [ -53.9331043, -28.3701884 ], [ -53.9334001, -28.3698445 ], [ -53.933419, -28.3698256 ], [ -53.9336896, -28.3695572 ], [ -53.9342754, -28.3689254 ], [ -53.9345307, -28.3686551 ], [ -53.9353496, -28.3677669 ], [ -53.9356068, -28.3674895 ], [ -53.9360757, -28.3669838 ], [ -53.936205, -28.3668444 ], [ -53.9370128, -28.3659731 ], [ -53.9258973, -28.3658063 ] ] ] } },
{ "type": "Feature", "properties": { "name": "Alvorada", "code_muni": 4310207.0, "name_muni": "Ijuí" }, "geometry": { "type": "Polygon", "coordinates": [ [ [ -53.9430599, -28.3706257 ], [ -53.9430346, -28.3703627 ], [ -53.9430253, -28.3700841 ], [ -53.9430328, -28.3699014 ], [ -53.9431736, -28.369345 ], [ -53.9431729, -28.3686408 ], [ -53.9432081, -28.3673494 ], [ -53.9432091, -28.3663808 ], [ -53.9425179, -28.3663881 ], [ -53.9370128, -28.3659731 ], [ -53.936205, -28.3668444 ], [ -53.9360757, -28.3669838 ], [ -53.9356068, -28.3674895 ], [ -53.9353496, -28.3677669 ], [ -53.9345307, -28.3686551 ], [ -53.9342754, -28.3689254 ], [ -53.9336896, -28.3695572 ], [ -53.933419, -28.3698256 ], [ -53.9334001, -28.3698445 ], [ -53.9331043, -28.3701884 ], [ -53.9330314, -28.3702671 ], [ -53.9330059, -28.3705018 ], [ -53.9330167, -28.3707222 ], [ -53.9329952, -28.3708393 ], [ -53.93294860000001, -28.3712522 ], [ -53.9329097, -28.3716768 ], [ -53.9328882, -28.3722095 ], [ -53.9328501, -28.3731519 ], [ -53.9343984, -28.373229599999988 ], [ -53.9348944, -28.373155 ], [ -53.9353056, -28.3729884 ], [ -53.9375508, -28.3712139 ], [ -53.9385429, -28.3707143 ], [ -53.9385955, -28.3708236 ], [ -53.9424124, -28.37091 ], [ -53.9430701, -28.3709104 ], [ -53.9430599, -28.3706257 ] ] ] } },
{ "type": "Feature", "properties": { "name": "Getúlio Vargas", "code_muni": 4310207.0, "name_muni": "Ijuí" }, "geometry": { "type": "Polygon", "coordinates": [ [ [ -53.9430917, -28.3715802 ], [ -53.9430844, -28.371447 ], [ -53.9430701, -28.3709104 ], [ -53.9424124, -28.37091 ], [ -53.9385955, -28.3708236 ], [ -53.9385429, -28.3707143 ], [ -53.9375508, -28.3712139 ], [ -53.9353056, -28.3729884 ], [ -53.9348944, -28.373155 ], [ -53.9343984, -28.373229599999988 ], [ -53.9328501, -28.3731519 ], [ -53.9328477, -28.373237 ], [ -53.9328319, -28.3735253 ], [ -53.932829, -28.3735839 ], [ -53.9328343, -28.3747061 ], [ -53.9327967, -28.3758 ], [ -53.9327699, -28.3763711 ], [ -53.9327538, -28.3769327 ], [ -53.9327283, -28.3774967 ], [ -53.9327109, -28.3780112 ], [ -53.9326827, -28.3786071 ], [ -53.932655, -28.3792368 ], [ -53.9326412, -28.3799639 ], [ -53.9326376, -28.3801528 ], [ -53.9326356, -28.380258 ], [ -53.9326741, -28.3802655 ], [ -53.9328128, -28.3802885 ], [ -53.9334244, -28.3802954 ], [ -53.9340553, -28.3803026 ], [ -53.9341968, -28.3803014 ], [ -53.9347697, -28.3803107 ], [ -53.9349233, -28.3803125 ], [ -53.9353952, -28.3803179 ], [ -53.9356286, -28.3803205 ], [ -53.9362782, -28.3803382 ], [ -53.9363246, -28.3803395 ], [ -53.9370832, -28.3803487 ], [ -53.9378125, -28.3803576 ], [ -53.9385638, -28.3803667 ], [ -53.9392233, -28.3803747 ], [ -53.9399073, -28.3803876 ], [ -53.9428839, -28.3804805 ], [ -53.9428848, -28.3804625 ], [ -53.9428891, -28.380373 ], [ -53.9429035, -28.3800749 ], [ -53.9429465, -28.3797351 ], [ -53.9429626, -28.3789847 ], [ -53.9429679, -28.3783381 ], [ -53.9429626, -28.3780832 ], [ -53.9429556, -28.37799 ], [ -53.9429469, -28.3778985 ], [ -53.942957, -28.3777126 ], [ -53.9429797, -28.3771298 ], [ -53.9430025, -28.3762696 ], [ -53.9430133, -28.3759699 ], [ -53.9430269, -28.3758413 ], [ -53.9430537, -28.3753882 ], [ -53.9430484, -28.3748596 ], [ -53.9430377, -28.374633 ], [ -53.9431074, -28.3730565 ], [ -53.9431187, -28.3722874 ], [ -53.9430108, -28.3720132 ], [ -53.9430155, -28.3718981 ], [ -53.9430773, -28.3717157 ], [ -53.9430917, -28.3715802 ] ] ] } },
{ "type": "Feature", "properties": { "name": "Herval", "code_muni": 4310207.0, "name_muni": "Ijuí" }, "geometry": { "type": "Polygon", "coordinates": [ [ [ -53.9273039, -28.3758023 ], [ -53.927727, -28.3779441 ], [ -53.9278635, -28.377954 ], [ -53.927962, -28.3779687 ], [ -53.9280137, -28.377973399999988 ], [ -53.928988, -28.3779841 ], [ -53.9302072, -28.3780058 ], [ -53.931324, -28.378021499999988 ], [ -53.9327109, -28.3780112 ], [ -53.9327283, -28.3774967 ], [ -53.9327538, -28.3769327 ], [ -53.9327699, -28.3763711 ], [ -53.9327967, -28.3758 ], [ -53.9328343, -28.3747061 ], [ -53.932829, -28.3735839 ], [ -53.9328319, -28.3735253 ], [ -53.9328477, -28.373237 ], [ -53.9328501, -28.3731519 ], [ -53.931742, -28.3731148 ], [ -53.93138960000001, -28.373155 ], [ -53.930887, -28.3732813 ], [ -53.9277869, -28.3741944 ], [ -53.927454, -28.3744873 ], [ -53.9272517, -28.3748261 ], [ -53.927206, -28.3751764 ], [ -53.9272841, -28.3756755 ], [ -53.9273039, -28.3758023 ] ] ] } },
{ "type": "Feature", "properties": { "name": "Elizabeth", "code_muni": 4310207.0, "name_muni": "Ijuí" }, "geometry": { "type": "Polygon", "coordinates": [ [ [ -53.9244953, -28.3847284 ], [ -53.9245464, -28.3848116 ], [ -53.9246279, -28.3849211 ], [ -53.9246932, -28.3852311 ], [ -53.9246483, -28.3862855 ], [ -53.925941, -28.3862563 ], [ -53.9273036, -28.3862811 ], [ -53.9275959, -28.3862729 ], [ -53.92774880000001, -28.3862528 ], [ -53.9283523, -28.3860947 ], [ -53.9280358, -28.3853785 ], [ -53.9277609, -28.3847658 ], [ -53.9277381, -28.3846966 ], [ -53.9275779, -28.3843152 ], [ -53.9274792, -28.384063 ], [ -53.9282531, -28.3837904 ], [ -53.9289951, -28.3835703 ], [ -53.9297739, -28.3832937 ], [ -53.9304584, -28.3830913 ], [ -53.9311897, -28.3828615 ], [ -53.9321274, -28.3825893 ], [ -53.9325161, -28.382471 ], [ -53.9325399, -28.382466 ], [ -53.9325875, -28.3811168 ], [ -53.9326356, -28.380258 ], [ -53.9326376, -28.3801528 ], [ -53.9326412, -28.3799639 ], [ -53.932655, -28.3792368 ], [ -53.9326827, -28.3786071 ], [ -53.9327109, -28.3780112 ], [ -53.931324, -28.378021499999988 ], [ -53.9302072, -28.3780058 ], [ -53.928988, -28.3779841 ], [ -53.9280137, -28.377973399999988 ], [ -53.927962, -28.3779687 ], [ -53.9278635, -28.377954 ], [ -53.927727, -28.3779441 ], [ -53.9279696, -28.3786448 ], [ -53.9279957, -28.3789434 ], [ -53.9279239, -28.3792765 ], [ -53.9277412, -28.3796038 ], [ -53.9274344, -28.3799196 ], [ -53.9270809, -28.3800855 ], [ -53.9267165, -28.3802469 ], [ -53.9252871, -28.380901599999987 ], [ -53.9248694, -28.3811887 ], [ -53.9237338, -28.3825094 ], [ -53.9235706, -28.3828539 ], [ -53.9235184, -28.3832271 ], [ -53.9236163, -28.3835832 ], [ -53.9238969, -28.3839392 ], [ -53.9244324, -28.3846584 ], [ -53.9244953, -28.3847284 ] ] ] } },
{ "type": "Feature", "properties": { "name": "São Geraldo", "code_muni": 4310207.0, "name_muni": "Ijuí" }, "geometry": { "type": "Polygon", "coordinates": [ [ [ -53.9259423, -28.3866421 ], [ -53.9259423, -28.3870445 ], [ -53.9259222, -28.3878326 ], [ -53.9259236, -28.3881323 ], [ -53.9258927, -28.3889039 ], [ -53.9258994, -28.3892024 ], [ -53.9258515, -28.3901001 ], [ -53.9258495, -28.3902339 ], [ -53.925849, -28.390271 ], [ -53.9258325, -28.3914079 ], [ -53.9271666, -28.391435 ], [ -53.9284406, -28.391457 ], [ -53.9297806, -28.391444 ], [ -53.9310127, -28.3914834 ], [ -53.9322909, -28.3914982 ], [ -53.9322991, -28.3904092 ], [ -53.9322991, -28.3903653 ], [ -53.93231, -28.3894106 ], [ -53.9323032, -28.3893392 ], [ -53.9323756, -28.3870445 ], [ -53.9324775, -28.384038199999988 ], [ -53.9325399, -28.382466 ], [ -53.9325161, -28.382471 ], [ -53.9321274, -28.3825893 ], [ -53.9311897, -28.3828615 ], [ -53.9304584, -28.3830913 ], [ -53.9297739, -28.3832937 ], [ -53.9289951, -28.3835703 ], [ -53.9282531, -28.3837904 ], [ -53.9274792, -28.384063 ], [ -53.9275779, -28.3843152 ], [ -53.9277381, -28.3846966 ], [ -53.9277609, -28.3847658 ], [ -53.9280358, -28.3853785 ], [ -53.9283523, -28.3860947 ], [ -53.92774880000001, -28.3862528 ], [ -53.9275959, -28.3862729 ], [ -53.9273036, -28.3862811 ], [ -53.925941, -28.3862563 ], [ -53.9259423, -28.3866421 ] ] ] } },
{ "type": "Feature", "properties": { "name": "Industrial", "code_muni": 4310207.0, "name_muni": "Ijuí" }, "geometry": { "type": "Polygon", "coordinates": [ [ [ -53.9392233, -28.3803747 ], [ -53.9385638, -28.3803667 ], [ -53.9378125, -28.3803576 ], [ -53.9370832, -28.3803487 ], [ -53.9363246, -28.3803395 ], [ -53.9362782, -28.3803382 ], [ -53.9356286, -28.3803205 ], [ -53.9353952, -28.3803179 ], [ -53.9349233, -28.3803125 ], [ -53.9347697, -28.3803107 ], [ -53.9341968, -28.3803014 ], [ -53.9340553, -28.3803026 ], [ -53.9334244, -28.3802954 ], [ -53.9328128, -28.3802885 ], [ -53.9326741, -28.3802655 ], [ -53.9326356, -28.380258 ], [ -53.9325875, -28.3811168 ], [ -53.9325399, -28.382466 ], [ -53.9324775, -28.384038199999988 ], [ -53.9323756, -28.3870445 ], [ -53.9323032, -28.3893392 ], [ -53.9323592, -28.3893398 ], [ -53.933014, -28.3893451 ], [ -53.9336698, -28.3893605 ], [ -53.9343359, -28.3893784 ], [ -53.9349426, -28.3893947 ], [ -53.9349985, -28.3893961 ], [ -53.9351992, -28.3894012 ], [ -53.9352038, -28.3886165 ], [ -53.9351952, -28.388103 ], [ -53.9351964, -28.3875894 ], [ -53.9351971, -28.3872214 ], [ -53.9352399, -28.3856721 ], [ -53.9352402, -28.3856169 ], [ -53.9352976, -28.385581 ], [ -53.9353421, -28.3855531 ], [ -53.9354628, -28.3851614 ], [ -53.9358062, -28.3849821 ], [ -53.9359671, -28.3848641 ], [ -53.9361169, -28.3847916 ], [ -53.9362261, -28.3847387 ], [ -53.9363962, -28.3846564 ], [ -53.9368254, -28.3844016 ], [ -53.9370561, -28.3843119 ], [ -53.937335, -28.3840854 ], [ -53.9379841, -28.3836889 ], [ -53.9381719, -28.3835474 ], [ -53.9382523, -28.383453 ], [ -53.9382953, -28.3833586 ], [ -53.9383113, -28.3832547 ], [ -53.9387137, -28.3826931 ], [ -53.938821, -28.3826459 ], [ -53.9389122, -28.3825751 ], [ -53.9390785, -28.3823816 ], [ -53.9392716, -28.3822495 ], [ -53.9396364, -28.3821079 ], [ -53.9400601, -28.3817822 ], [ -53.9401674, -28.3817209 ], [ -53.9409721, -28.3815368 ], [ -53.9410687, -28.3814896 ], [ -53.9413691, -28.3812536 ], [ -53.9416963, -28.3809469 ], [ -53.941868, -28.3808147 ], [ -53.9420347, -28.3807143 ], [ -53.9420718, -28.380692 ], [ -53.9422435, -28.3807628 ], [ -53.942517, -28.3806637 ], [ -53.942619, -28.380607 ], [ -53.9426833, -28.3805221 ], [ -53.9428839, -28.3804805 ], [ -53.9399073, -28.3803876 ], [ -53.9392233, -28.3803747 ] ] ] } },
{ "type": "Feature", "properties": { "name": "Morada do Sol", "code_muni": 4310207.0, "name_muni": "Ijuí" }, "geometry": { "type": "Polygon", "coordinates": [ [ [ -53.9351971, -28.3872214 ], [ -53.9351964, -28.3875894 ], [ -53.9351952, -28.388103 ], [ -53.9352038, -28.3886165 ], [ -53.9351992, -28.3894012 ], [ -53.9360489, -28.3894229 ], [ -53.937475, -28.3894594 ], [ -53.9375899, -28.3894623 ], [ -53.9387338, -28.3894914 ], [ -53.9387896, -28.3894929 ], [ -53.9400172, -28.3895268 ], [ -53.9404894, -28.3895363 ], [ -53.9413691, -28.3895434 ], [ -53.9425693, -28.3895661 ], [ -53.942604, -28.3895667 ], [ -53.9425931, -28.3885833 ], [ -53.9426023, -28.3881958 ], [ -53.9426195, -28.3873903 ], [ -53.9426423, -28.3863192 ], [ -53.9426449, -28.3861955 ], [ -53.9426596, -28.3855969 ], [ -53.9426705, -28.3851542 ], [ -53.9426744, -28.3850161 ], [ -53.9427042, -28.3839515 ], [ -53.942748, -28.3823876 ], [ -53.9427587, -28.3821705 ], [ -53.9428016, -28.3813681 ], [ -53.9428714, -28.3807404 ], [ -53.9428805, -28.3805505 ], [ -53.9428839, -28.3804805 ], [ -53.9426833, -28.3805221 ], [ -53.942619, -28.380607 ], [ -53.942517, -28.3806637 ], [ -53.9422435, -28.3807628 ], [ -53.9420718, -28.380692 ], [ -53.9420347, -28.3807143 ], [ -53.941868, -28.3808147 ], [ -53.9416963, -28.3809469 ], [ -53.9413691, -28.3812536 ], [ -53.9410687, -28.3814896 ], [ -53.9409721, -28.3815368 ], [ -53.9401674, -28.3817209 ], [ -53.9400601, -28.3817822 ], [ -53.9396364, -28.3821079 ], [ -53.9392716, -28.3822495 ], [ -53.9390785, -28.3823816 ], [ -53.9389122, -28.3825751 ], [ -53.938821, -28.3826459 ], [ -53.9387137, -28.3826931 ], [ -53.9383113, -28.3832547 ], [ -53.9382953, -28.3833586 ], [ -53.9382523, -28.383453 ], [ -53.9381719, -28.3835474 ], [ -53.9379841, -28.3836889 ], [ -53.937335, -28.3840854 ], [ -53.9370561, -28.3843119 ], [ -53.9368254, -28.3844016 ], [ -53.9363962, -28.3846564 ], [ -53.9362261, -28.3847387 ], [ -53.9361169, -28.3847916 ], [ -53.9359671, -28.3848641 ], [ -53.9358062, -28.3849821 ], [ -53.9354628, -28.3851614 ], [ -53.9353421, -28.3855531 ], [ -53.9352976, -28.385581 ], [ -53.9352402, -28.3856169 ], [ -53.9352399, -28.3856721 ], [ -53.9351971, -28.3872214 ] ] ] } },
{ "type": "Feature", "properties": { "name": "Universitário", "code_muni": 4310207.0, "name_muni": "Ijuí" }, "geometry": { "type": "Polygon", "coordinates": [ [ [ -53.9491046, -28.3859354 ], [ -53.9489876, -28.3806253 ], [ -53.943056, -28.3804846 ], [ -53.9428839, -28.3804805 ], [ -53.9428805, -28.3805505 ], [ -53.9428714, -28.3807404 ], [ -53.9428016, -28.3813681 ], [ -53.9427587, -28.3821705 ], [ -53.942748, -28.3823876 ], [ -53.9427042, -28.3839515 ], [ -53.9426744, -28.3850161 ], [ -53.9426705, -28.3851542 ], [ -53.9426596, -28.3855969 ], [ -53.9426449, -28.3861955 ], [ -53.9426423, -28.3863192 ], [ -53.9426195, -28.3873903 ], [ -53.9426023, -28.3881958 ], [ -53.9425931, -28.3885833 ], [ -53.942604, -28.3895667 ], [ -53.9425765, -28.3906057 ], [ -53.9425746, -28.3906547 ], [ -53.9425512, -28.3916679 ], [ -53.9425351, -28.3921926 ], [ -53.9425318, -28.3922675 ], [ -53.9424898, -28.3940797 ], [ -53.9425921, -28.3940832 ], [ -53.9460326, -28.3941333 ], [ -53.9475518, -28.3941554 ], [ -53.9525164, -28.3942277 ], [ -53.9528496, -28.3942383 ], [ -53.9529375, -28.3899657 ], [ -53.9529228, -28.3897534 ], [ -53.9529235, -28.3894127 ], [ -53.952923, -28.3891861 ], [ -53.952892, -28.3878319 ], [ -53.9529347, -28.3858977 ], [ -53.9491046, -28.3859354 ] ] ] } },
{ "type": "Feature", "properties": { "name": "Pindorama", "code_muni": 4310207.0, "name_muni": "Ijuí" }, "geometry": { "type": "Polygon", "coordinates": [ [ [ -53.9349985, -28.3893961 ], [ -53.9349426, -28.3893947 ], [ -53.9343359, -28.3893784 ], [ -53.9336698, -28.3893605 ], [ -53.933014, -28.3893451 ], [ -53.9323592, -28.3893398 ], [ -53.9323032, -28.3893392 ], [ -53.93231, -28.3894106 ], [ -53.9322991, -28.3903653 ], [ -53.9322991, -28.3904092 ], [ -53.9322909, -28.3914982 ], [ -53.9322727, -28.3925678 ], [ -53.9322462, -28.3938145 ], [ -53.9329248, -28.3938317 ], [ -53.933541, -28.3938472 ], [ -53.9342237, -28.3938626 ], [ -53.9348848, -28.3938756 ], [ -53.9355353, -28.3938874 ], [ -53.9357043, -28.3938909 ], [ -53.9362112, -28.3938992 ], [ -53.9363761, -28.3939039 ], [ -53.9368536, -28.3939121 ], [ -53.9373028, -28.3939192 ], [ -53.9375, -28.3939216 ], [ -53.9381437, -28.3939416 ], [ -53.938542, -28.3939499 ], [ -53.9388987, -28.393957 ], [ -53.9391576, -28.3939629 ], [ -53.9394633, -28.3939735 ], [ -53.9397597, -28.3939806 ], [ -53.9406744, -28.3940145 ], [ -53.94091980000001, -28.3940242 ], [ -53.9424898, -28.3940797 ], [ -53.9425318, -28.3922675 ], [ -53.9425351, -28.3921926 ], [ -53.9425512, -28.3916679 ], [ -53.9425746, -28.3906547 ], [ -53.9425765, -28.3906057 ], [ -53.942604, -28.3895667 ], [ -53.9425693, -28.3895661 ], [ -53.9413691, -28.3895434 ], [ -53.9404894, -28.3895363 ], [ -53.9400172, -28.3895268 ], [ -53.9387896, -28.3894929 ], [ -53.9387338, -28.3894914 ], [ -53.9375899, -28.3894623 ], [ -53.937475, -28.3894594 ], [ -53.9360489, -28.3894229 ], [ -53.9351992, -28.3894012 ], [ -53.9349985, -28.3893961 ] ] ] } },
{ "type": "Feature", "properties": { "name": "Thomé de Souza", "code_muni": 4310207.0, "name_muni": "Ijuí" }, "geometry": { "type": "Polygon", "coordinates": [ [ [ -53.9321464, -28.3995234 ], [ -53.9321401, -28.3998732 ], [ -53.932137, -28.4000988 ], [ -53.9321338, -28.4003371 ], [ -53.9321288, -28.4007069 ], [ -53.9321144, -28.4017707 ], [ -53.9321147, -28.4018253 ], [ -53.9320991, -28.4028018 ], [ -53.9320936, -28.4031716 ], [ -53.9320868, -28.4034509 ], [ -53.9422925, -28.4030271 ], [ -53.9423027, -28.4024628 ], [ -53.9423082, -28.4023541 ], [ -53.9423296, -28.4018989 ], [ -53.942361, -28.4005001 ], [ -53.942366, -28.4002756 ], [ -53.9423849, -28.3994355 ], [ -53.9424154, -28.3980743 ], [ -53.9424606, -28.395884 ], [ -53.942469, -28.3954742 ], [ -53.9424898, -28.3940797 ], [ -53.94091980000001, -28.3940242 ], [ -53.9406744, -28.3940145 ], [ -53.9397597, -28.3939806 ], [ -53.9394633, -28.3939735 ], [ -53.9391576, -28.3939629 ], [ -53.9388987, -28.393957 ], [ -53.938542, -28.3939499 ], [ -53.9381437, -28.3939416 ], [ -53.9375, -28.3939216 ], [ -53.9373028, -28.3939192 ], [ -53.9368536, -28.3939121 ], [ -53.9363761, -28.3939039 ], [ -53.9362112, -28.3938992 ], [ -53.9357043, -28.3938909 ], [ -53.9355353, -28.3938874 ], [ -53.9348848, -28.3938756 ], [ -53.9342237, -28.3938626 ], [ -53.933541, -28.3938472 ], [ -53.9329248, -28.3938317 ], [ -53.9322462, -28.3938145 ], [ -53.9322021, -28.394851 ], [ -53.9321984, -28.3949962 ], [ -53.9321974, -28.395034 ], [ -53.9321857, -28.3957199 ], [ -53.9321784, -28.3961358 ], [ -53.9321778, -28.3961676 ], [ -53.9321769, -28.396294699999984 ], [ -53.9321735, -28.3967836 ], [ -53.9321703, -28.3972634 ], [ -53.93217, -28.3973012 ], [ -53.9321696, -28.3973539 ], [ -53.9321623, -28.3983611 ], [ -53.9321589, -28.3988356 ], [ -53.9321579, -28.3988923 ], [ -53.9321494, -28.3993596 ], [ -53.9321464, -28.3995234 ] ] ] } },
{ "type": "Feature", "properties": { "name": "Lulu Ilgenfritz", "code_muni": 4310207.0, "name_muni": "Ijuí" }, "geometry": { "type": "Polygon", "coordinates": [ [ [ -53.9321494, -28.3993596 ], [ -53.9321579, -28.3988923 ], [ -53.9321589, -28.3988356 ], [ -53.9321623, -28.3983611 ], [ -53.9321696, -28.3973539 ], [ -53.93217, -28.3973012 ], [ -53.9321703, -28.3972634 ], [ -53.9321735, -28.3967836 ], [ -53.9321769, -28.396294699999984 ], [ -53.9321778, -28.3961676 ], [ -53.9321784, -28.3961358 ], [ -53.9321857, -28.3957199 ], [ -53.9321974, -28.395034 ], [ -53.9321984, -28.3949962 ], [ -53.9322021, -28.394851 ], [ -53.9322462, -28.3938145 ], [ -53.9322727, -28.3925678 ], [ -53.9322909, -28.3914982 ], [ -53.9310127, -28.3914834 ], [ -53.9297806, -28.391444 ], [ -53.9284406, -28.391457 ], [ -53.9271666, -28.391435 ], [ -53.9258325, -28.3914079 ], [ -53.9248464, -28.3913885 ], [ -53.9247968, -28.3915227 ], [ -53.9247968, -28.3921715 ], [ -53.9248204, -28.3924568 ], [ -53.9249444, -28.3927324 ], [ -53.9251598, -28.3929563 ], [ -53.9254959, -28.3931716 ], [ -53.9264162, -28.39343 ], [ -53.9267491, -28.3935563 ], [ -53.9269481, -28.3936625 ], [ -53.9270198, -28.393739 ], [ -53.9272059, -28.3939812 ], [ -53.9273071, -28.3942051 ], [ -53.9273528, -28.3945553 ], [ -53.9273528, -28.3952988 ], [ -53.9274017, -28.3956117 ], [ -53.9275225, -28.3958644 ], [ -53.9277346, -28.3961457 ], [ -53.9283677, -28.3967457 ], [ -53.9286059, -28.3969868 ], [ -53.928756, -28.3972394 ], [ -53.9287849, -28.3975179 ], [ -53.9287691, -28.3977389 ], [ -53.928694, -28.3979054 ], [ -53.928587, -28.3981368 ], [ -53.9291029, -28.3982816 ], [ -53.928995, -28.3984939 ], [ -53.9287882, -28.3988657 ], [ -53.9285652, -28.3993554 ], [ -53.9321494, -28.3993596 ] ] ] } },
{ "type": "Feature", "properties": { "name": "Osvaldo Aranha", "code_muni": 4310207.0, "name_muni": "Ijuí" }, "geometry": { "type": "Polygon", "coordinates": [ [ [ -53.9248172, -28.3982384 ], [ -53.9251435, -28.3981179 ], [ -53.9254633, -28.3980664 ], [ -53.92593, -28.3981466 ], [ -53.9270003, -28.3985341 ], [ -53.9275845, -28.3986432 ], [ -53.927901, -28.3985915 ], [ -53.9281621, -28.3984738 ], [ -53.9283742, -28.398359 ], [ -53.928587, -28.3981368 ], [ -53.928694, -28.3979054 ], [ -53.9287691, -28.3977389 ], [ -53.9287849, -28.3975179 ], [ -53.928756, -28.3972394 ], [ -53.9286059, -28.3969868 ], [ -53.9283677, -28.3967457 ], [ -53.9277346, -28.3961457 ], [ -53.9275225, -28.3958644 ], [ -53.9274017, -28.3956117 ], [ -53.9273528, -28.3952988 ], [ -53.9273528, -28.3945553 ], [ -53.9273071, -28.3942051 ], [ -53.9272059, -28.3939812 ], [ -53.9270198, -28.393739 ], [ -53.9269481, -28.3936625 ], [ -53.9267491, -28.3935563 ], [ -53.9264162, -28.39343 ], [ -53.9254959, -28.3931716 ], [ -53.9251598, -28.3929563 ], [ -53.9249444, -28.3927324 ], [ -53.9248204, -28.3924568 ], [ -53.9246129, -28.3924565 ], [ -53.9241, -28.3924504 ], [ -53.9230612, -28.392438 ], [ -53.9219424, -28.3924221 ], [ -53.921948, -28.3931287 ], [ -53.9219519, -28.3936173 ], [ -53.9219521, -28.3936397 ], [ -53.9219513, -28.3936823 ], [ -53.9219506, -28.3936963 ], [ -53.921949, -28.3937291 ], [ -53.9218974, -28.3947712 ], [ -53.9218823, -28.3958352 ], [ -53.9218817, -28.3958752 ], [ -53.9218791, -28.3961788 ], [ -53.9218332, -28.3969228 ], [ -53.9218301, -28.3969724 ], [ -53.9218061, -28.3982477 ], [ -53.9218052, -28.3982972 ], [ -53.9218347, -28.3982977 ], [ -53.9226448, -28.3983111 ], [ -53.9230461, -28.3983177 ], [ -53.9239602, -28.3983227 ], [ -53.9242832, -28.3983245 ], [ -53.9246644, -28.398337 ], [ -53.9248172, -28.3982384 ] ] ] } },
{ "type": "Feature", "properties": { "name": "Tiarajú", "code_muni": 4310207.0, "name_muni": "Ijuí" }, "geometry": { "type": "Polygon", "coordinates": [ [ [ -53.9217669, -28.3982966 ], [ -53.920609, -28.3982774 ], [ -53.9192721, -28.3982754 ], [ -53.9180651, -28.3982488 ], [ -53.9168518, -28.3982221 ], [ -53.9168286, -28.3993584 ], [ -53.9168062, -28.4004737 ], [ -53.9167832, -28.4016171 ], [ -53.9167693, -28.4027214 ], [ -53.9167552, -28.4038404 ], [ -53.9167412, -28.4049497 ], [ -53.9167271, -28.4060725 ], [ -53.9167115, -28.4073089 ], [ -53.917945, -28.4073222 ], [ -53.9191071, -28.4073315 ], [ -53.9194958, -28.4073348 ], [ -53.9201447, -28.4073403 ], [ -53.9216897, -28.4073535 ], [ -53.9217218, -28.4073497 ], [ -53.9217394, -28.4073476 ], [ -53.9218171, -28.3997533 ], [ -53.9218052, -28.3982972 ], [ -53.9217669, -28.3982966 ] ] ] } },
{ "type": "Feature", "properties": { "name": "Independência", "code_muni": 4310207.0, "name_muni": "Ijuí" }, "geometry": { "type": "Polygon", "coordinates": [ [ [ -53.9134989, -28.4169558 ], [ -53.9135727, -28.4170219 ], [ -53.9141187, -28.4175072 ], [ -53.9145829, -28.4178262 ], [ -53.9148419, -28.4179735 ], [ -53.9152885, -28.4182072 ], [ -53.9155996, -28.4183461 ], [ -53.9157141, -28.4183913 ], [ -53.9159964, -28.4185006 ], [ -53.9160692, -28.41853 ], [ -53.9161963, -28.418573 ], [ -53.9164503, -28.4186424 ], [ -53.9168669, -28.4187441 ], [ -53.9169228, -28.418753 ], [ -53.9170309, -28.4187738 ], [ -53.9174051, -28.4188318 ], [ -53.9177966, -28.4188612 ], [ -53.9184572, -28.4188597 ], [ -53.9190482, -28.4188206 ], [ -53.9192918, -28.418782 ], [ -53.9200187, -28.4185936 ], [ -53.9208555, -28.4182444 ], [ -53.9216065, -28.4177349 ], [ -53.9217219, -28.4125544 ], [ -53.9217394, -28.4073476 ], [ -53.9217218, -28.4073497 ], [ -53.9216897, -28.4073535 ], [ -53.9201447, -28.4073403 ], [ -53.9194958, -28.4073348 ], [ -53.9191071, -28.4073315 ], [ -53.917945, -28.4073222 ], [ -53.9167115, -28.4073089 ], [ -53.9167027, -28.4080073 ], [ -53.9167092, -28.4087565 ], [ -53.9166985, -28.4095115 ], [ -53.9166934, -28.4102146 ], [ -53.916674, -28.4109832 ], [ -53.9166741, -28.4118018 ], [ -53.9166691, -28.4122837 ], [ -53.9157189, -28.4122243 ], [ -53.9150488, -28.4123372 ], [ -53.9146028, -28.4128041 ], [ -53.9144788, -28.413338 ], [ -53.9148052, -28.4141703 ], [ -53.9152947, -28.4150888 ], [ -53.9154121, -28.415473399999982 ], [ -53.9153338, -28.4159211 ], [ -53.9149944, -28.4163689 ], [ -53.9144266, -28.4165985 ], [ -53.9137846, -28.4167148 ], [ -53.9134647, -28.416813 ], [ -53.9134989, -28.4169558 ] ] ] } },
{ "type": "Feature", "properties": { "name": "Nossa Senhora da Penha", "code_muni": 4310207.0, "name_muni": "Ijuí" }, "geometry": { "type": "Polygon", "coordinates": [ [ [ -53.9164879, -28.3968688 ], [ -53.9156538, -28.3968551 ], [ -53.914435, -28.3968428 ], [ -53.9131895, -28.3968519 ], [ -53.9131708, -28.3981452 ], [ -53.91315, -28.399295 ], [ -53.9131368, -28.4003858 ], [ -53.9131571, -28.400717 ], [ -53.913212, -28.4008325 ], [ -53.913383, -28.4011922 ], [ -53.913506, -28.4014732 ], [ -53.9135166, -28.4014956 ], [ -53.9135224, -28.4015248 ], [ -53.9135407, -28.4016867 ], [ -53.9135326, -28.402666299999989 ], [ -53.9131333, -28.4026706 ], [ -53.9131153, -28.403822 ], [ -53.9130873, -28.4048859 ], [ -53.9116937, -28.404869 ], [ -53.9116919, -28.406101100000011 ], [ -53.9116755, -28.4069187 ], [ -53.9116778, -28.4079648 ], [ -53.9116662, -28.409985 ], [ -53.9116584, -28.4102283 ], [ -53.9116358, -28.4106546 ], [ -53.911613, -28.4117394 ], [ -53.9157597, -28.4118376 ], [ -53.9165103, -28.4118566 ], [ -53.9166042, -28.4118337 ], [ -53.9166741, -28.4118018 ], [ -53.916674, -28.4109832 ], [ -53.9166934, -28.4102146 ], [ -53.9166985, -28.4095115 ], [ -53.9167092, -28.4087565 ], [ -53.9167027, -28.4080073 ], [ -53.9167115, -28.4073089 ], [ -53.9167271, -28.4060725 ], [ -53.9167412, -28.4049497 ], [ -53.9167552, -28.4038404 ], [ -53.9167693, -28.4027214 ], [ -53.9167832, -28.4016171 ], [ -53.9168062, -28.4004737 ], [ -53.9168286, -28.3993584 ], [ -53.9168518, -28.3982221 ], [ -53.9168506, -28.397155 ], [ -53.9168503, -28.3968747 ], [ -53.9164879, -28.3968688 ] ] ] } },
{ "type": "Feature", "properties": { "name": "Progresso", "code_muni": 4310207.0, "name_muni": "Ijuí" }, "geometry": { "type": "Polygon", "coordinates": [ [ [ -53.91087430000001, -28.4037852 ], [ -53.9117203, -28.4038021 ], [ -53.9131153, -28.403822 ], [ -53.9131333, -28.4026706 ], [ -53.9135326, -28.402666299999989 ], [ -53.9135407, -28.4016867 ], [ -53.9135224, -28.4015248 ], [ -53.9135166, -28.4014956 ], [ -53.913506, -28.4014732 ], [ -53.913383, -28.4011922 ], [ -53.913212, -28.4008325 ], [ -53.9131571, -28.400717 ], [ -53.9131368, -28.4003858 ], [ -53.91315, -28.399295 ], [ -53.9131708, -28.3981452 ], [ -53.9131895, -28.3968519 ], [ -53.9125179, -28.3968533 ], [ -53.9116504, -28.397521 ], [ -53.9113995, -28.3975858 ], [ -53.9110545, -28.3975209 ], [ -53.9110345, -28.3975866 ], [ -53.9108596, -28.3981325 ], [ -53.910425, -28.3991641 ], [ -53.9102123, -28.3997478 ], [ -53.9101431, -28.3998834 ], [ -53.9098982, -28.4003565 ], [ -53.9097409, -28.4006428 ], [ -53.909382, -28.4012357 ], [ -53.9091718, -28.4015655 ], [ -53.9089037, -28.4019708 ], [ -53.9083193, -28.4025811 ], [ -53.9092615, -28.4026073 ], [ -53.9098171, -28.4026236 ], [ -53.9100646, -28.4026251 ], [ -53.9100435, -28.4037821 ], [ -53.91087430000001, -28.4037852 ] ] ] } },
{ "type": "Feature", "properties": { "name": "Mundstock", "code_muni": 4310207.0, "name_muni": "Ijuí" }, "geometry": { "type": "Polygon", "coordinates": [ [ [ -53.9132705, -28.416739 ], [ -53.9134647, -28.416813 ], [ -53.9137846, -28.4167148 ], [ -53.9144266, -28.4165985 ], [ -53.9149944, -28.4163689 ], [ -53.9153338, -28.4159211 ], [ -53.9154121, -28.415473399999982 ], [ -53.9152947, -28.4150888 ], [ -53.9148052, -28.4141703 ], [ -53.9144788, -28.413338 ], [ -53.9146028, -28.4128041 ], [ -53.9150488, -28.4123372 ], [ -53.9157189, -28.4122243 ], [ -53.9166691, -28.4122837 ], [ -53.9166741, -28.4118018 ], [ -53.9166042, -28.4118337 ], [ -53.9165103, -28.4118566 ], [ -53.9157597, -28.4118376 ], [ -53.911613, -28.4117394 ], [ -53.9116358, -28.4106546 ], [ -53.9116584, -28.4102283 ], [ -53.9116662, -28.409985 ], [ -53.9116778, -28.4079648 ], [ -53.9116755, -28.4069187 ], [ -53.9116919, -28.406101100000011 ], [ -53.9116937, -28.404869 ], [ -53.9130873, -28.4048859 ], [ -53.9131153, -28.403822 ], [ -53.9117203, -28.4038021 ], [ -53.91087430000001, -28.4037852 ], [ -53.9100435, -28.4037821 ], [ -53.9100646, -28.4026251 ], [ -53.9098171, -28.4026236 ], [ -53.9092615, -28.4026073 ], [ -53.9083193, -28.4025811 ], [ -53.9073999, -28.4031916 ], [ -53.9066576, -28.4036712 ], [ -53.9065416, -28.4037461 ], [ -53.9062904, -28.4038877 ], [ -53.9053546, -28.4044708 ], [ -53.9047557, -28.4047894 ], [ -53.903764, -28.4053295 ], [ -53.9032303, -28.4056292 ], [ -53.9028655, -28.405943 ], [ -53.9026181, -28.4061646 ], [ -53.9021232, -28.4066455 ], [ -53.9019832, -28.4067632 ], [ -53.901851, -28.4068437 ], [ -53.9014012, -28.4070137 ], [ -53.9012428, -28.4070529 ], [ -53.900459, -28.4072092 ], [ -53.9003072, -28.4072375 ], [ -53.900397, -28.4073772 ], [ -53.9007113, -28.4077651 ], [ -53.9010607, -28.4081424 ], [ -53.90132220000001, -28.408367 ], [ -53.9016821, -28.4086524 ], [ -53.9032521, -28.4096582 ], [ -53.9034629, -28.4097938 ], [ -53.9038069, -28.4100136 ], [ -53.9041377, -28.4102255 ], [ -53.9067368, -28.4118905 ], [ -53.9076781, -28.4124875 ], [ -53.9082939, -28.4129177 ], [ -53.908869, -28.4133177 ], [ -53.9102568, -28.4142318 ], [ -53.9109139, -28.4147052 ], [ -53.9117588, -28.4153369 ], [ -53.9126634, -28.4161582 ], [ -53.9132705, -28.416739 ] ] ] } },
{ "type": "Feature", "properties": { "name": "Burtet", "code_muni": 4310207.0, "name_muni": "Ijuí" }, "geometry": { "type": "Polygon", "coordinates": [ [ [ -53.8977647, -28.3980746 ], [ -53.8978359, -28.3983169 ], [ -53.8978764, -28.398459 ], [ -53.898069, -28.3991253 ], [ -53.8981259, -28.3993329 ], [ -53.898265, -28.3999359 ], [ -53.8984041, -28.4005956 ], [ -53.8989898, -28.4031675 ], [ -53.8990224, -28.4033138 ], [ -53.8993497, -28.4047011 ], [ -53.899512, -28.405434 ], [ -53.8995367, -28.4055454 ], [ -53.8997119, -28.4060645 ], [ -53.8999081, -28.4065082 ], [ -53.9003072, -28.4072375 ], [ -53.900459, -28.4072092 ], [ -53.9012428, -28.4070529 ], [ -53.9014012, -28.4070137 ], [ -53.901851, -28.4068437 ], [ -53.9019832, -28.4067632 ], [ -53.9021232, -28.4066455 ], [ -53.9026181, -28.4061646 ], [ -53.9028655, -28.405943 ], [ -53.9032303, -28.4056292 ], [ -53.903764, -28.4053295 ], [ -53.9047557, -28.4047894 ], [ -53.9053546, -28.4044708 ], [ -53.9062904, -28.4038877 ], [ -53.9065416, -28.4037461 ], [ -53.9066576, -28.4036712 ], [ -53.9073999, -28.4031916 ], [ -53.9083193, -28.4025811 ], [ -53.9089037, -28.4019708 ], [ -53.9091718, -28.4015655 ], [ -53.909382, -28.4012357 ], [ -53.9097409, -28.4006428 ], [ -53.9098982, -28.4003565 ], [ -53.9101431, -28.3998834 ], [ -53.9102123, -28.3997478 ], [ -53.910425, -28.3991641 ], [ -53.9108596, -28.3981325 ], [ -53.9097069, -28.3981079 ], [ -53.9089648, -28.398092 ], [ -53.9089053, -28.3980912 ], [ -53.908321, -28.3980839 ], [ -53.9081871, -28.398081 ], [ -53.9076864, -28.3980672 ], [ -53.9075022, -28.3980683 ], [ -53.906723, -28.3980589 ], [ -53.9059184, -28.3980436 ], [ -53.9054187, -28.3980353 ], [ -53.9051701, -28.3980306 ], [ -53.9042002, -28.3980121 ], [ -53.9033582, -28.3980034 ], [ -53.9029076, -28.397994 ], [ -53.9027393, -28.3979922 ], [ -53.9022265, -28.3979794 ], [ -53.9020441, -28.3979772 ], [ -53.901431, -28.3979787 ], [ -53.9006174, -28.3979512 ], [ -53.9004017, -28.3979462 ], [ -53.899636, -28.3979336 ], [ -53.8992759, -28.3979202 ], [ -53.8980587, -28.3979302 ], [ -53.8979833, -28.39793 ], [ -53.8978298, -28.3979248 ], [ -53.897716, -28.3979237 ], [ -53.8977647, -28.3980746 ] ] ] } },
{ "type": "Feature", "properties": { "name": "São Paulo", "code_muni": 4310207.0, "name_muni": "Ijuí" }, "geometry": { "type": "Polygon", "coordinates": [ [ [ -53.9110345, -28.3975866 ], [ -53.9110545, -28.3975209 ], [ -53.9110723, -28.3974623 ], [ -53.9113043, -28.3967457 ], [ -53.9106793, -28.3967282 ], [ -53.910715, -28.3956332 ], [ -53.9095406, -28.3956293 ], [ -53.9088857, -28.3956402 ], [ -53.9083592, -28.3956475 ], [ -53.9074719, -28.3956356 ], [ -53.9067714, -28.3956319 ], [ -53.9054973, -28.3956122 ], [ -53.9042098, -28.3955861 ], [ -53.904212, -28.39668 ], [ -53.9042002, -28.3980121 ], [ -53.9051701, -28.3980306 ], [ -53.9054187, -28.3980353 ], [ -53.9059184, -28.3980436 ], [ -53.906723, -28.3980589 ], [ -53.9075022, -28.3980683 ], [ -53.9076864, -28.3980672 ], [ -53.9081871, -28.398081 ], [ -53.908321, -28.3980839 ], [ -53.9089053, -28.3980912 ], [ -53.9089648, -28.398092 ], [ -53.9097069, -28.3981079 ], [ -53.9108596, -28.3981325 ], [ -53.9110345, -28.3975866 ] ] ] } },
{ "type": "Feature", "properties": { "name": "Hammarstron", "code_muni": 4310207.0, "name_muni": "Ijuí" }, "geometry": { "type": "Polygon", "coordinates": [ [ [ -53.9020441, -28.3979772 ], [ -53.9022265, -28.3979794 ], [ -53.9027393, -28.3979922 ], [ -53.9029076, -28.397994 ], [ -53.9033582, -28.3980034 ], [ -53.9042002, -28.3980121 ], [ -53.904212, -28.39668 ], [ -53.9042098, -28.3955861 ], [ -53.9042378, -28.3945019 ], [ -53.9042868, -28.3934068 ], [ -53.9038591, -28.393403 ], [ -53.9029863, -28.3933951 ], [ -53.9017777, -28.3933694 ], [ -53.9015977, -28.393372 ], [ -53.9005588, -28.393345 ], [ -53.8997388, -28.3933309 ], [ -53.8994029, -28.3933252 ], [ -53.8992835, -28.3933256 ], [ -53.8990306, -28.3933265 ], [ -53.8975447, -28.3933137 ], [ -53.8966386, -28.3932951 ], [ -53.8965189, -28.3932927 ], [ -53.8963997, -28.3932912 ], [ -53.8962061, -28.3932951 ], [ -53.8954389, -28.3933494 ], [ -53.8961315, -28.3943201 ], [ -53.8967391, -28.3954429 ], [ -53.8969259, -28.3958587 ], [ -53.8973249, -28.3968182 ], [ -53.8976356, -28.3976693 ], [ -53.897716, -28.3979237 ], [ -53.8978298, -28.3979248 ], [ -53.8979833, -28.39793 ], [ -53.8980587, -28.3979302 ], [ -53.8992759, -28.3979202 ], [ -53.899636, -28.3979336 ], [ -53.9004017, -28.3979462 ], [ -53.9006174, -28.3979512 ], [ -53.901431, -28.3979787 ], [ -53.9020441, -28.3979772 ] ] ] } },
{ "type": "Feature", "properties": { "name": "Sol Nascente", "code_muni": 4310207.0, "name_muni": "Ijuí" }, "geometry": { "type": "Polygon", "coordinates": [ [ [ -53.8962061, -28.3932951 ], [ -53.8963997, -28.3932912 ], [ -53.8965189, -28.3932927 ], [ -53.8966386, -28.3932951 ], [ -53.8975447, -28.3933137 ], [ -53.8990306, -28.3933265 ], [ -53.8992835, -28.3933256 ], [ -53.8994029, -28.3933252 ], [ -53.8997388, -28.3933309 ], [ -53.9005588, -28.393345 ], [ -53.9015977, -28.393372 ], [ -53.9017777, -28.3933694 ], [ -53.9029863, -28.3933951 ], [ -53.9038591, -28.393403 ], [ -53.9042868, -28.3934068 ], [ -53.9042988, -28.3921577 ], [ -53.9042897, -28.3910798 ], [ -53.9042908, -28.3899589 ], [ -53.9042716, -28.3889025 ], [ -53.9035036, -28.3888796 ], [ -53.9032303, -28.388876 ], [ -53.9028817, -28.3888713 ], [ -53.902103, -28.3888592 ], [ -53.9017583, -28.3888567 ], [ -53.9014068, -28.3888559 ], [ -53.9005942, -28.3888578 ], [ -53.8995074, -28.3888621 ], [ -53.8991849, -28.3888635 ], [ -53.8986808, -28.3888581 ], [ -53.8978652, -28.3888588 ], [ -53.8970264, -28.38887 ], [ -53.8962598, -28.3888532 ], [ -53.8956388, -28.3888485 ], [ -53.8948444, -28.388845 ], [ -53.8940503, -28.3888368 ], [ -53.8935172, -28.3888355 ], [ -53.8932628, -28.3888283 ], [ -53.892738, -28.3888145 ], [ -53.8924585, -28.3888175 ], [ -53.8922742, -28.3888195 ], [ -53.892481600000011, -28.389079699999989 ], [ -53.8926574, -28.3893005 ], [ -53.8930817, -28.3898331 ], [ -53.8939914, -28.3910977 ], [ -53.8940092, -28.3911224 ], [ -53.8949582, -28.3924505 ], [ -53.8950013, -28.3925125 ], [ -53.8954389, -28.3933494 ], [ -53.8962061, -28.3932951 ] ] ] } },
{ "type": "Feature", "properties": { "name": "Assis Brasil", "code_muni": 4310207.0, "name_muni": "Ijuí" }, "geometry": { "type": "Polygon", "coordinates": [ [ [ -53.9017636, -28.3741079 ], [ -53.9017421, -28.374207 ], [ -53.9014632, -28.3746743 ], [ -53.9011842, -28.3749527 ], [ -53.9011735, -28.3751557 ], [ -53.901211, -28.3754908 ], [ -53.9014256, -28.3758448 ], [ -53.9014256, -28.3762932 ], [ -53.9013881, -28.3764112 ], [ -53.9013651, -28.3765616 ], [ -53.90135, -28.3766605 ], [ -53.9013022, -28.3769728 ], [ -53.9012539, -28.3770956 ], [ -53.9010823, -28.3773221 ], [ -53.9009053, -28.3774779 ], [ -53.9006853, -28.3775628 ], [ -53.9003044, -28.377577 ], [ -53.9000255, -28.3778696 ], [ -53.8999987, -28.3780395 ], [ -53.9000416, -28.3783793 ], [ -53.9000362, -28.3786106 ], [ -53.8998807, -28.3789032 ], [ -53.8998056, -28.378974 ], [ -53.8997332, -28.3791369 ], [ -53.8996607, -28.3792997 ], [ -53.8994783, -28.3794507 ], [ -53.899371, -28.3795026 ], [ -53.8992691, -28.3796206 ], [ -53.8990921, -28.3799227 ], [ -53.898899, -28.380102 ], [ -53.8988721, -28.3801492 ], [ -53.89884, -28.3803026 ], [ -53.8985395, -28.3804466 ], [ -53.898392, -28.3805811 ], [ -53.8980889, -28.3807911 ], [ -53.8980051, -28.3808833 ], [ -53.8979213, -28.3809755 ], [ -53.8978851, -28.3810153 ], [ -53.8976008, -28.3812041 ], [ -53.8974935, -28.3813362 ], [ -53.8974077, -28.3815345 ], [ -53.8973674, -28.3819049 ], [ -53.8973996, -28.3822778 ], [ -53.8973916, -28.3826955 ], [ -53.8974089, -28.3830752 ], [ -53.8974137, -28.3831791 ], [ -53.8974184, -28.3832831 ], [ -53.8973346, -28.3834398 ], [ -53.897204, -28.3836654 ], [ -53.897162, -28.3839138 ], [ -53.897162, -28.3841623 ], [ -53.8971528, -28.3842718 ], [ -53.8970026, -28.3845432 ], [ -53.8968768, -28.3854267 ], [ -53.8968606, -28.3855595 ], [ -53.8968444, -28.3856546 ], [ -53.8967317, -28.3861077 ], [ -53.8967317, -28.3862752 ], [ -53.8966942, -28.3864475 ], [ -53.89670790000001, -28.3865653 ], [ -53.8967146, -28.3866223 ], [ -53.8967264, -28.3867236 ], [ -53.8967907, -28.3868699 ], [ -53.8968176, -28.3872285 ], [ -53.8968095, -28.3874267 ], [ -53.8967451, -28.3876462 ], [ -53.8967503, -28.3876708 ], [ -53.8967536, -28.3877782 ], [ -53.8967554, -28.3878397 ], [ -53.8969007, -28.3879883 ], [ -53.8969973, -28.3881582 ], [ -53.8970026, -28.3883281 ], [ -53.8970264, -28.38887 ], [ -53.8978652, -28.3888588 ], [ -53.8986808, -28.3888581 ], [ -53.8991849, -28.3888635 ], [ -53.8995074, -28.3888621 ], [ -53.9005942, -28.3888578 ], [ -53.9014068, -28.3888559 ], [ -53.9017583, -28.3888567 ], [ -53.902103, -28.3888592 ], [ -53.9028817, -28.3888713 ], [ -53.9032303, -28.388876 ], [ -53.9035036, -28.3888796 ], [ -53.9042716, -28.3889025 ], [ -53.9042679, -28.3877865 ], [ -53.904293, -28.3867095 ], [ -53.9056545, -28.3867589 ], [ -53.9072523, -28.3867636 ], [ -53.9079073, -28.3867659 ], [ -53.9084932, -28.386768 ], [ -53.9084922, -28.3856968 ], [ -53.9084877, -28.3851233 ], [ -53.9084846, -28.3847376 ], [ -53.9084745, -28.384529 ], [ -53.9084906, -28.3834544 ], [ -53.9085065, -28.3823926 ], [ -53.9085458, -28.3814728 ], [ -53.9085777, -28.380509 ], [ -53.9085973, -28.379916 ], [ -53.9074191, -28.3798922 ], [ -53.9071353, -28.3798922 ], [ -53.9065273, -28.3799086 ], [ -53.9057344, -28.3798895 ], [ -53.9044104, -28.3798626 ], [ -53.9037753, -28.3798521 ], [ -53.9031297, -28.3798531 ], [ -53.9019486, -28.3798124 ], [ -53.9018972, -28.3797715 ], [ -53.9019042, -28.3790621 ], [ -53.9019199, -28.378625 ], [ -53.9019223, -28.378384 ], [ -53.9019242, -28.3783353 ], [ -53.9019345, -28.377878 ], [ -53.9019414, -28.3775252 ], [ -53.9019611, -28.376753 ], [ -53.9019691, -28.376437099999986 ], [ -53.9019793, -28.3752997 ], [ -53.9019915, -28.3748395 ], [ -53.9020127, -28.3740356 ], [ -53.9017636, -28.3741079 ] ] ] } },
{ "type": "Feature", "properties": { "name": "Jardim", "code_muni": 4310207.0, "name_muni": "Ijuí" }, "geometry": { "type": "Polygon", "coordinates": [ [ [ -53.8922742, -28.3888195 ], [ -53.8924585, -28.3888175 ], [ -53.892738, -28.3888145 ], [ -53.8932628, -28.3888283 ], [ -53.8935172, -28.3888355 ], [ -53.8940503, -28.3888368 ], [ -53.8948444, -28.388845 ], [ -53.8956388, -28.3888485 ], [ -53.8962598, -28.3888532 ], [ -53.8970264, -28.38887 ], [ -53.8970026, -28.3883281 ], [ -53.8969973, -28.3881582 ], [ -53.8969007, -28.3879883 ], [ -53.8967554, -28.3878397 ], [ -53.8967536, -28.3877782 ], [ -53.8967503, -28.3876708 ], [ -53.8967451, -28.3876462 ], [ -53.8968095, -28.3874267 ], [ -53.8968176, -28.3872285 ], [ -53.8967907, -28.3868699 ], [ -53.8967264, -28.3867236 ], [ -53.8967146, -28.3866223 ], [ -53.89670790000001, -28.3865653 ], [ -53.8966942, -28.3864475 ], [ -53.8967317, -28.3862752 ], [ -53.8967317, -28.3861077 ], [ -53.8968444, -28.3856546 ], [ -53.8968606, -28.3855595 ], [ -53.8968768, -28.3854267 ], [ -53.8970026, -28.3845432 ], [ -53.8971528, -28.3842718 ], [ -53.897162, -28.3841623 ], [ -53.897162, -28.3839138 ], [ -53.897204, -28.3836654 ], [ -53.8973346, -28.3834398 ], [ -53.8974184, -28.3832831 ], [ -53.8974137, -28.3831791 ], [ -53.8974089, -28.3830752 ], [ -53.8973916, -28.3826955 ], [ -53.8973996, -28.3822778 ], [ -53.8973674, -28.3819049 ], [ -53.8974077, -28.3815345 ], [ -53.8974935, -28.3813362 ], [ -53.8976008, -28.3812041 ], [ -53.8978851, -28.3810153 ], [ -53.8979213, -28.3809755 ], [ -53.8980051, -28.3808833 ], [ -53.8980889, -28.3807911 ], [ -53.898392, -28.3805811 ], [ -53.8985395, -28.3804466 ], [ -53.89884, -28.3803026 ], [ -53.8988721, -28.3801492 ], [ -53.898899, -28.380102 ], [ -53.8990921, -28.3799227 ], [ -53.8992691, -28.3796206 ], [ -53.899371, -28.3795026 ], [ -53.8994783, -28.3794507 ], [ -53.8996607, -28.3792997 ], [ -53.8997332, -28.3791369 ], [ -53.8998056, -28.378974 ], [ -53.8998807, -28.3789032 ], [ -53.9000362, -28.3786106 ], [ -53.9000416, -28.3783793 ], [ -53.8999987, -28.3780395 ], [ -53.9000255, -28.3778696 ], [ -53.9003044, -28.377577 ], [ -53.9006853, -28.3775628 ], [ -53.9009053, -28.3774779 ], [ -53.9010823, -28.3773221 ], [ -53.9012539, -28.3770956 ], [ -53.9013022, -28.3769728 ], [ -53.90135, -28.3766605 ], [ -53.9013651, -28.3765616 ], [ -53.9013881, -28.3764112 ], [ -53.9014256, -28.3762932 ], [ -53.9014256, -28.3758448 ], [ -53.901211, -28.3754908 ], [ -53.9011735, -28.3751557 ], [ -53.9011842, -28.3749527 ], [ -53.9014632, -28.3746743 ], [ -53.9017421, -28.374207 ], [ -53.9017636, -28.3741079 ], [ -53.9020127, -28.3740356 ], [ -53.901946, -28.3733007 ], [ -53.9017689, -28.3729987 ], [ -53.9011212, -28.3736005 ], [ -53.9005633, -28.374555 ], [ -53.9001316, -28.3751606 ], [ -53.8996034, -28.375785 ], [ -53.8991123, -28.3762269 ], [ -53.8988621, -28.3764091 ], [ -53.8985071, -28.3766621 ], [ -53.898105, -28.3769485 ], [ -53.8978626, -28.377106 ], [ -53.8956486, -28.3783953 ], [ -53.8955025, -28.3784815 ], [ -53.8932529, -28.3797816 ], [ -53.8924868, -28.3802421 ], [ -53.891653, -28.3807968 ], [ -53.8914518, -28.380934 ], [ -53.8912604, -28.3810866 ], [ -53.8902264, -28.3819821 ], [ -53.890034900000011, -28.3821746 ], [ -53.8889441, -28.3832651 ], [ -53.8887382, -28.3834835 ], [ -53.8879851, -28.384303 ], [ -53.887571, -28.384676 ], [ -53.8877982, -28.3848459 ], [ -53.8881468, -28.3850858 ], [ -53.8883702, -28.3852397 ], [ -53.8887249, -28.385484 ], [ -53.889702, -28.3862643 ], [ -53.8898371, -28.3863743 ], [ -53.8907064, -28.38716 ], [ -53.8913854, -28.3878367 ], [ -53.891681, -28.388151 ], [ -53.8918918, -28.3883736 ], [ -53.8920632, -28.3885547 ], [ -53.8922742, -28.3888195 ] ] ] } },
{ "type": "Feature", "properties": { "name": "Modelo", "code_muni": 4310207.0, "name_muni": "Ijuí" }, "geometry": { "type": "Polygon", "coordinates": [ [ [ -53.9019728, -28.3717195 ], [ -53.9020172, -28.3707958 ], [ -53.9020197, -28.3707528 ], [ -53.9018326, -28.370757 ], [ -53.8998522, -28.3707131 ], [ -53.8992126, -28.3707021 ], [ -53.898486, -28.3706972 ], [ -53.8978638, -28.3706841 ], [ -53.8973323, -28.3706781 ], [ -53.8961811, -28.3706577 ], [ -53.8954526, -28.3706557 ], [ -53.8949441, -28.3706546 ], [ -53.8939915, -28.3706529 ], [ -53.8929613, -28.3706617 ], [ -53.8917995, -28.3706677 ], [ -53.8917636, -28.371714 ], [ -53.8917374, -28.3726751 ], [ -53.8917366, -28.3729809 ], [ -53.8917329, -28.3732826 ], [ -53.8917318, -28.3738288 ], [ -53.8917298, -28.3743699 ], [ -53.8917294, -28.3748798 ], [ -53.8917241, -28.3749615 ], [ -53.8917208, -28.3754991 ], [ -53.8917209, -28.3760728 ], [ -53.8917127, -28.3766721 ], [ -53.8917154, -28.3772244 ], [ -53.8917021, -28.3777865 ], [ -53.8916847, -28.3784282 ], [ -53.8916744, -28.3789705 ], [ -53.891656, -28.3797588 ], [ -53.8930141, -28.3797778 ], [ -53.8932529, -28.3797816 ], [ -53.8955025, -28.3784815 ], [ -53.8956486, -28.3783953 ], [ -53.8978626, -28.377106 ], [ -53.898105, -28.3769485 ], [ -53.8985071, -28.3766621 ], [ -53.8988621, -28.3764091 ], [ -53.8991123, -28.3762269 ], [ -53.8996034, -28.375785 ], [ -53.9001316, -28.3751606 ], [ -53.9005633, -28.374555 ], [ -53.9011212, -28.3736005 ], [ -53.9017689, -28.3729987 ], [ -53.9019728, -28.3717195 ] ] ] } },
{ "type": "Feature", "properties": { "name": "Chácaras", "code_muni": 4310207.0, "name_muni": "Ijuí" }, "geometry": { "type": "Polygon", "coordinates": [ [ [ -53.8870061, -28.3871153 ], [ -53.886947, -28.3887765 ], [ -53.8896243, -28.3888274 ], [ -53.8896327, -28.389193 ], [ -53.8896514, -28.3897009 ], [ -53.8896534, -28.3932951 ], [ -53.890237, -28.3933124 ], [ -53.8914064, -28.393319 ], [ -53.8923818, -28.3933227 ], [ -53.8923812, -28.3978938 ], [ -53.8945103, -28.3979279 ], [ -53.8951171, -28.3979305 ], [ -53.8974179, -28.3979497 ], [ -53.8975633, -28.3979372 ], [ -53.897716, -28.3979237 ], [ -53.8976356, -28.3976693 ], [ -53.8973249, -28.3968182 ], [ -53.8969259, -28.3958587 ], [ -53.8967391, -28.3954429 ], [ -53.8961315, -28.3943201 ], [ -53.8954389, -28.3933494 ], [ -53.8950013, -28.3925125 ], [ -53.8949582, -28.3924505 ], [ -53.8940092, -28.3911224 ], [ -53.8939914, -28.3910977 ], [ -53.8930817, -28.3898331 ], [ -53.8926574, -28.3893005 ], [ -53.892481600000011, -28.389079699999989 ], [ -53.8922742, -28.3888195 ], [ -53.8920632, -28.3885547 ], [ -53.8918918, -28.3883736 ], [ -53.891681, -28.388151 ], [ -53.8913854, -28.3878367 ], [ -53.8907064, -28.38716 ], [ -53.8870061, -28.3871153 ] ] ] } },
{ "type": "Feature", "properties": { "name": "Lambari", "code_muni": 4310207.0, "name_muni": "Ijuí" }, "geometry": { "type": "Polygon", "coordinates": [ [ [ -53.8930141, -28.3797778 ], [ -53.891656, -28.3797588 ], [ -53.8911406, -28.3797515 ], [ -53.8882801, -28.3797056 ], [ -53.8862116, -28.3796724 ], [ -53.8854714, -28.3796606 ], [ -53.8847235, -28.3796484 ], [ -53.8839672, -28.3796482 ], [ -53.8833846, -28.3796448 ], [ -53.8824341, -28.3796323 ], [ -53.88145810000001, -28.3796123 ], [ -53.8814448, -28.3801634 ], [ -53.8814331, -28.3806513 ], [ -53.8814129, -28.3812441 ], [ -53.8814039, -28.3815073 ], [ -53.8813983, -28.3816696 ], [ -53.8843171, -28.3828748 ], [ -53.8847584, -28.3830966 ], [ -53.8863811, -28.3839532 ], [ -53.886656, -28.3841273 ], [ -53.886944, -28.3843097 ], [ -53.8873569, -28.3845501 ], [ -53.887571, -28.384676 ], [ -53.8879851, -28.384303 ], [ -53.8887382, -28.3834835 ], [ -53.8889441, -28.3832651 ], [ -53.890034900000011, -28.3821746 ], [ -53.8902264, -28.3819821 ], [ -53.8912604, -28.3810866 ], [ -53.8914518, -28.380934 ], [ -53.891653, -28.3807968 ], [ -53.8924868, -28.3802421 ], [ -53.8932529, -28.3797816 ], [ -53.8930141, -28.3797778 ] ] ] } },
{ "type": "Feature", "properties": { "name": "Novo Leste", "code_muni": 4310207.0, "name_muni": "Ijuí" }, "geometry": { "type": "Polygon", "coordinates": [ [ [ -53.8895682, -28.3706569 ], [ -53.8869014, -28.3706569 ], [ -53.884698, -28.3706499 ], [ -53.8832067, -28.3706351 ], [ -53.8818347, -28.3706204 ], [ -53.8817228, -28.3706587 ], [ -53.8816738, -28.3707354 ], [ -53.8816631, -28.3716039 ], [ -53.8816161, -28.3726653 ], [ -53.8816081, -28.373001 ], [ -53.8815786, -28.3742955 ], [ -53.8815766, -28.3750108 ], [ -53.8815737, -28.3751333 ], [ -53.8815665, -28.3754425 ], [ -53.881531, -28.3769569 ], [ -53.8814945, -28.3783639 ], [ -53.88145810000001, -28.3796123 ], [ -53.8824341, -28.3796323 ], [ -53.8833846, -28.3796448 ], [ -53.8839672, -28.3796482 ], [ -53.8847235, -28.3796484 ], [ -53.8854714, -28.3796606 ], [ -53.8862116, -28.3796724 ], [ -53.8882801, -28.3797056 ], [ -53.8911406, -28.3797515 ], [ -53.891656, -28.3797588 ], [ -53.8916744, -28.3789705 ], [ -53.8916847, -28.3784282 ], [ -53.8917021, -28.3777865 ], [ -53.8917154, -28.3772244 ], [ -53.8917127, -28.3766721 ], [ -53.8917209, -28.3760728 ], [ -53.8917208, -28.3754991 ], [ -53.8917241, -28.3749615 ], [ -53.8917294, -28.3748798 ], [ -53.8917298, -28.3743699 ], [ -53.8917318, -28.3738288 ], [ -53.8917329, -28.3732826 ], [ -53.8917366, -28.3729809 ], [ -53.8917374, -28.3726751 ], [ -53.8917636, -28.371714 ], [ -53.8917995, -28.3706677 ], [ -53.8895682, -28.3706569 ] ] ] } },
{ "type": "Feature", "properties": { "name": "Centro", "code_muni": 4310207.0, "name_muni": "Ijuí" }, "geometry": { "type": "Polygon", "coordinates": [ [ [ -53.9246932, -28.3852311 ], [ -53.9246279, -28.3849211 ], [ -53.9245464, -28.3848116 ], [ -53.9244953, -28.3847284 ], [ -53.9240742, -28.3847709 ], [ -53.9237684, -28.384778 ], [ -53.9233225, -28.3847638 ], [ -53.9220974, -28.3847485 ], [ -53.9208342, -28.3847125 ], [ -53.9195738, -28.3846993 ], [ -53.9195815, -28.3836347 ], [ -53.9196114, -28.3825047 ], [ -53.919615, -28.3819993 ], [ -53.9196204, -28.3818672 ], [ -53.9196257, -28.3816914 ], [ -53.9195517, -28.3815701 ], [ -53.9194018, -28.3814235 ], [ -53.9192516, -28.3812631 ], [ -53.9191067, -28.3810224 ], [ -53.9189404, -28.380805299999988 ], [ -53.9187044, -28.3805504 ], [ -53.9185113, -28.3803947 ], [ -53.9183611, -28.380102 ], [ -53.9181197, -28.3797622 ], [ -53.9178354, -28.3791392 ], [ -53.9177656, -28.379059 ], [ -53.917714, -28.3789746 ], [ -53.9176379, -28.37885 ], [ -53.917535, -28.3786814 ], [ -53.9175028, -28.378436 ], [ -53.917492, -28.3781764 ], [ -53.917492, -28.3780301 ], [ -53.9176511, -28.3777265 ], [ -53.9170629, -28.3776301 ], [ -53.917079, -28.3778885 ], [ -53.9171112, -28.3785115 ], [ -53.9171293, -28.3788649 ], [ -53.9171541, -28.3792018 ], [ -53.9171796, -28.3794082 ], [ -53.9172346, -28.379871 ], [ -53.9172466, -28.3800194 ], [ -53.915951, -28.3800147 ], [ -53.9147143, -28.3800146 ], [ -53.9134969, -28.3799723 ], [ -53.9122495, -28.379972 ], [ -53.9110562, -28.3799624 ], [ -53.9098232, -28.3799524 ], [ -53.9085973, -28.379916 ], [ -53.9085777, -28.380509 ], [ -53.9085458, -28.3814728 ], [ -53.9085065, -28.3823926 ], [ -53.9084906, -28.3834544 ], [ -53.9084745, -28.384529 ], [ -53.9084846, -28.3847376 ], [ -53.9084877, -28.3851233 ], [ -53.9084922, -28.3856968 ], [ -53.9084932, -28.386768 ], [ -53.9079073, -28.3867659 ], [ -53.9072523, -28.3867636 ], [ -53.9056545, -28.3867589 ], [ -53.904293, -28.3867095 ], [ -53.9042679, -28.3877865 ], [ -53.9042716, -28.3889025 ], [ -53.9042908, -28.3899589 ], [ -53.9042897, -28.3910798 ], [ -53.9042988, -28.3921577 ], [ -53.9042868, -28.3934068 ], [ -53.9042378, -28.3945019 ], [ -53.9042098, -28.3955861 ], [ -53.9054973, -28.3956122 ], [ -53.9067714, -28.3956319 ], [ -53.9074719, -28.3956356 ], [ -53.9083592, -28.3956475 ], [ -53.9088857, -28.3956402 ], [ -53.9095406, -28.3956293 ], [ -53.910715, -28.3956332 ], [ -53.9106793, -28.3967282 ], [ -53.9113043, -28.3967457 ], [ -53.9110723, -28.3974623 ], [ -53.9110545, -28.3975209 ], [ -53.9113995, -28.3975858 ], [ -53.9116504, -28.397521 ], [ -53.9125179, -28.3968533 ], [ -53.9131895, -28.3968519 ], [ -53.914435, -28.3968428 ], [ -53.9156538, -28.3968551 ], [ -53.9164879, -28.3968688 ], [ -53.9168503, -28.3968747 ], [ -53.9168506, -28.397155 ], [ -53.9168518, -28.3982221 ], [ -53.9180651, -28.3982488 ], [ -53.9192721, -28.3982754 ], [ -53.920609, -28.3982774 ], [ -53.9217669, -28.3982966 ], [ -53.9218052, -28.3982972 ], [ -53.9218061, -28.3982477 ], [ -53.9218301, -28.3969724 ], [ -53.9218332, -28.3969228 ], [ -53.9218791, -28.3961788 ], [ -53.9218817, -28.3958752 ], [ -53.9218823, -28.3958352 ], [ -53.9218974, -28.3947712 ], [ -53.921949, -28.3937291 ], [ -53.9219506, -28.3936963 ], [ -53.9219513, -28.3936823 ], [ -53.9219521, -28.3936397 ], [ -53.9219519, -28.3936173 ], [ -53.921948, -28.3931287 ], [ -53.9219424, -28.3924221 ], [ -53.9230612, -28.392438 ], [ -53.9241, -28.3924504 ], [ -53.9246129, -28.3924565 ], [ -53.9248204, -28.3924568 ], [ -53.9247968, -28.3921715 ], [ -53.9247968, -28.3915227 ], [ -53.9248464, -28.3913885 ], [ -53.9258325, -28.3914079 ], [ -53.925849, -28.390271 ], [ -53.9258495, -28.3902339 ], [ -53.9258515, -28.3901001 ], [ -53.9258994, -28.3892024 ], [ -53.9258927, -28.3889039 ], [ -53.9259236, -28.3881323 ], [ -53.9259222, -28.3878326 ], [ -53.9259423, -28.3870445 ], [ -53.9259423, -28.3866421 ], [ -53.925941, -28.3862563 ], [ -53.9246483, -28.3862855 ], [ -53.9246932, -28.3852311 ] ] ] } }
]
}
