{
"type": "FeatureCollection",
"name": "bairros_sao_joao_do_polesine",
"crs": { "type": "name", "properties": { "name": "urn:ogc:def:crs:OGC:1.3:CRS84" } },
"features": [
{ "type": "Feature", "properties": { "code_muni": 4318432.0, "name_muni": "São João do Polêsine", "code_state": 43.0, "abbrev_state": "RS", "name_state": "Rio Grande do Sul", "code_region": 4.0, "name_region": "Sul", "year": 2022.0 }, "geometry": { "type": "Polygon", "coordinates": [ [ [ -53.4693482919999, -29.589461583999892 ], [ -53.463724587999899, -29.585604912 ], [ -53.45980349, -29.589461883 ], [ -53.454694878999902, -29.5895041479999 ], [ -53.453522135, -29.5931728159999 ], [ -53.451472897, -29.593407038999899 ], [ -53.449628877, -29.600521747 ], [ -53.441872445999898, -29.596134767 ], [ -53.435357769999897, -29.599284525 ], [ -53.431697551, -29.596093402 ], [ -53.426166301, -29.603263198 ], [ -53.424443154, -29.603836708999893 ], [ -53.422291500999989, -29.602971238999903 ], [ -53.422459803, -29.601154178999892 ], [ -53.420267693, -29.59907243 ], [ -53.416611631, -29.600085742 ], [ -53.413477955, -29.599475625 ], [ -53.410463749, -29.601404557 ], [ -53.402823903, -29.612020023999907 ], [ -53.402733041, -29.614823425999909 ], [ -53.400491191999897, -29.617676665999987 ], [ -53.401796927, -29.622110194 ], [ -53.396586468, -29.624753281 ], [ -53.390251743, -29.625254766999898 ], [ -53.388538452, -29.626493616999902 ], [ -53.385081074, -29.6251794799999 ], [ -53.383634657, -29.628489065999901 ], [ -53.384349156, -29.631799247999901 ], [ -53.387739984999897, -29.632978895999894 ], [ -53.389463051999897, -29.63218189 ], [ -53.389971319, -29.627700635999894 ], [ -53.397691138, -29.629452441 ], [ -53.401228677999896, -29.6277936 ], [ -53.406614249, -29.632279309999884 ], [ -53.407488444, -29.635766529 ], [ -53.41225251, -29.642234279 ], [ -53.419965961999893, -29.6472010099999 ], [ -53.421722972999902, -29.651141143 ], [ -53.5297654949999, -29.695761343999887 ], [ -53.53665233999989, -29.681003189 ], [ -53.547161214, -29.674128306999897 ], [ -53.547174009999893, -29.660894097 ], [ -53.526331779, -29.63922424 ], [ -53.467575312999891, -29.639688806 ], [ -53.477834263, -29.613667925999895 ], [ -53.4693482919999, -29.589461583999892 ] ] ] } }
]
}
