{
"type": "FeatureCollection",
"name": "bairros_boa_vista_das_missoes",
"crs": { "type": "name", "properties": { "name": "urn:ogc:def:crs:OGC:1.3:CRS84" } },
"features": [
{ "type": "Feature", "properties": { "code_muni": 4302154.0, "name_muni": "Boa Vista das Missões", "code_state": 43.0, "abbrev_state": "RS", "name_state": "Rio Grande do Sul", "code_region": 4.0, "name_region": "Sul", "year": 2022.0 }, "geometry": { "type": "Polygon", "coordinates": [ [ [ -53.307783888, -27.686352176 ], [ -53.299585002999891, -27.694764081 ], [ -53.299471521, -27.698428288999899 ], [ -53.296317147, -27.705607616 ], [ -53.277761321, -27.707866840999895 ], [ -53.268165226999891, -27.714199349999895 ], [ -53.259529937, -27.712013171 ], [ -53.261194816999897, -27.720351673 ], [ -53.2638804589999, -27.722359758 ], [ -53.257041509, -27.726813305999901 ], [ -53.260925597, -27.728096459 ], [ -53.265171256, -27.731933252 ], [ -53.270501757, -27.752095865999895 ], [ -53.264130275, -27.752178681 ], [ -53.263875895, -27.754142198 ], [ -53.266100157, -27.755225274999898 ], [ -53.269360881999901, -27.762633002 ], [ -53.274113723, -27.764317565999903 ], [ -53.274543530999892, -27.757808753999896 ], [ -53.273335092, -27.753720648 ], [ -53.274309039999899, -27.751670707 ], [ -53.279639715, -27.748750956 ], [ -53.283062597, -27.745133417 ], [ -53.287513651, -27.7457021459999 ], [ -53.290190842, -27.748877326999899 ], [ -53.295414182999892, -27.749372751 ], [ -53.292205651, -27.754575184 ], [ -53.296905885999891, -27.756933987 ], [ -53.298924235999898, -27.762664304999888 ], [ -53.300456648, -27.761709127 ], [ -53.308693174, -27.7671474119999 ], [ -53.307926075, -27.771154721 ], [ -53.314113330999895, -27.777576677999892 ], [ -53.323790363999898, -27.798753204 ], [ -53.326340990999896, -27.800341632 ], [ -53.338467062999889, -27.795346722 ], [ -53.342389238, -27.797268158 ], [ -53.346367963, -27.803625612 ], [ -53.353241279, -27.804584616999897 ], [ -53.35540372, -27.806900738 ], [ -53.358628327, -27.806170759999908 ], [ -53.36055701, -27.807102868 ], [ -53.363595244, -27.803823855 ], [ -53.366371224, -27.803124768 ], [ -53.367739167, -27.805983692 ], [ -53.372178957, -27.806795837 ], [ -53.37542748899989, -27.805018162 ], [ -53.375532763, -27.802853309999907 ], [ -53.373380519, -27.8029278079999 ], [ -53.372810311, -27.800036986 ], [ -53.367740141, -27.800015798999901 ], [ -53.365353408, -27.791681679 ], [ -53.362123107999892, -27.791001391 ], [ -53.363310189999901, -27.786451374 ], [ -53.3577201579999, -27.783658548999899 ], [ -53.361744425, -27.773839580999898 ], [ -53.366429099, -27.773438126 ], [ -53.37029662, -27.770902266 ], [ -53.376637181, -27.770755963999896 ], [ -53.38361603, -27.768763395999901 ], [ -53.389460952, -27.771083667 ], [ -53.39034197, -27.769654276 ], [ -53.390465429999892, -27.763927923 ], [ -53.392534747, -27.758538707 ], [ -53.391151432999898, -27.743487264999899 ], [ -53.387767486, -27.743994890999897 ], [ -53.387720214999895, -27.745701434999901 ], [ -53.383812755999891, -27.741602685 ], [ -53.386778606, -27.738325021 ], [ -53.385246512, -27.736025109 ], [ -53.38828024299989, -27.732231888999902 ], [ -53.387799284, -27.727777988999893 ], [ -53.390109762999899, -27.726419941 ], [ -53.390157219999899, -27.727884977 ], [ -53.391214488999893, -27.727649974 ], [ -53.393647429999902, -27.724110867 ], [ -53.398509593999989, -27.721988285 ], [ -53.397359708999893, -27.717693744 ], [ -53.398231934, -27.71608943 ], [ -53.394851378999896, -27.714229437 ], [ -53.396963177, -27.710228322 ], [ -53.394019796, -27.708014854999895 ], [ -53.397477175999903, -27.70672889 ], [ -53.396089952, -27.704353391 ], [ -53.39991034900001, -27.700829203 ], [ -53.397871843, -27.698576207999988 ], [ -53.39777086, -27.696000556999898 ], [ -53.393152341, -27.693291868999903 ], [ -53.390668661999889, -27.689068391 ], [ -53.392776211, -27.687749955 ], [ -53.39660245999989, -27.688683629 ], [ -53.399704132, -27.686920206 ], [ -53.400882661, -27.6879509669999 ], [ -53.401549988999911, -27.687222424 ], [ -53.40072657799989, -27.68448703 ], [ -53.402745416999899, -27.679248813 ], [ -53.398439732, -27.675376623 ], [ -53.3972472, -27.66847136 ], [ -53.394557722999899, -27.666648689999896 ], [ -53.397813114, -27.657765719999897 ], [ -53.396789079, -27.655397163 ], [ -53.394970186, -27.655655438999908 ], [ -53.395445263999896, -27.654448430999889 ], [ -53.393773015, -27.654337746 ], [ -53.399946403999898, -27.648294872 ], [ -53.400566407, -27.646430677 ], [ -53.397485704, -27.642169243999898 ], [ -53.401135752, -27.639983129 ], [ -53.403686772999897, -27.634519849999901 ], [ -53.402988869, -27.632403247999893 ], [ -53.401064963, -27.63228988 ], [ -53.399122851, -27.634174618 ], [ -53.397588332999909, -27.633301332 ], [ -53.397725776999899, -27.629377635 ], [ -53.391730450999894, -27.629829598 ], [ -53.391127416, -27.62822376 ], [ -53.404065069, -27.617911202 ], [ -53.405995834, -27.614732108999895 ], [ -53.402960733, -27.614887155 ], [ -53.398882836, -27.612422566 ], [ -53.39549710099989, -27.612344411 ], [ -53.395072093, -27.615347304999904 ], [ -53.390971033, -27.615055248 ], [ -53.388769951, -27.617090322 ], [ -53.38605896, -27.616955498 ], [ -53.383706022, -27.621864425999892 ], [ -53.384454948, -27.61860969 ], [ -53.382952220999989, -27.615725894 ], [ -53.384118792, -27.612689477999901 ], [ -53.381077843, -27.61046756299989 ], [ -53.365823884, -27.617385279 ], [ -53.346191287999893, -27.619078839999897 ], [ -53.3407150479999, -27.616755629999901 ], [ -53.329994262, -27.608355679999896 ], [ -53.324953733, -27.607826207 ], [ -53.321236290999899, -27.602316641999902 ], [ -53.317840447, -27.60078709 ], [ -53.315223808, -27.602832796 ], [ -53.315655125, -27.606956893999907 ], [ -53.312631772, -27.609545649 ], [ -53.31362296399989, -27.618562793 ], [ -53.30735937, -27.619286721 ], [ -53.302595713, -27.616458206999891 ], [ -53.299668864, -27.6175422919999 ], [ -53.298831509, -27.620203067999988 ], [ -53.299936289999899, -27.622563866999901 ], [ -53.29833588799989, -27.630512188999901 ], [ -53.30018553, -27.631982080999904 ], [ -53.298726599, -27.63411905 ], [ -53.301316633999903, -27.641313864 ], [ -53.296224534, -27.648760661 ], [ -53.2988606, -27.661119234 ], [ -53.294369845999896, -27.674049153999889 ], [ -53.300163026999897, -27.672918939999896 ], [ -53.302099488, -27.674423428999905 ], [ -53.308070364999892, -27.682663912999907 ], [ -53.307783888, -27.686352176 ] ] ] } }
]
}
