{
"type": "FeatureCollection",
"name": "bairros_bom_progresso",
"crs": { "type": "name", "properties": { "name": "urn:ogc:def:crs:OGC:1.3:CRS84" } },
"features": [
{ "type": "Feature", "properties": { "code_muni": 4302378.0, "name_muni": "Bom Progresso", "code_state": 43.0, "abbrev_state": "RS", "name_state": "Rio Grande do Sul", "code_region": 4.0, "name_region": "Sul", "year": 2022.0 }, "geometry": { "type": "Polygon", "coordinates": [ [ [ -53.817666585, -27.513838525 ], [ -53.80614959199989, -27.518002993 ], [ -53.81317691, -27.521846812 ], [ -53.817844623, -27.526588194999892 ], [ -53.818252243, -27.530981 ], [ -53.815767782, -27.535061934999902 ], [ -53.814223592, -27.534955877 ], [ -53.810544227, -27.527825548 ], [ -53.799847397, -27.533103728 ], [ -53.789889799, -27.530366188 ], [ -53.784707968, -27.531660046 ], [ -53.78483276, -27.5364472649999 ], [ -53.79082324, -27.538428333 ], [ -53.799289529, -27.544817974999894 ], [ -53.807709912, -27.544655610999897 ], [ -53.809755217, -27.5476398 ], [ -53.807748809, -27.552128404 ], [ -53.802561958, -27.553157115 ], [ -53.791427675, -27.54818474 ], [ -53.787115284, -27.548344248 ], [ -53.782421417, -27.551980063 ], [ -53.790721190999903, -27.553412319999893 ], [ -53.793819933999892, -27.55587786 ], [ -53.7871467699999, -27.564045548 ], [ -53.788577926999899, -27.564924887 ], [ -53.796252098, -27.564074541 ], [ -53.803638233999898, -27.569103544 ], [ -53.808088411, -27.565865555999899 ], [ -53.811929396, -27.569374009999894 ], [ -53.815119853999896, -27.5702328859999 ], [ -53.821053182999904, -27.568909584 ], [ -53.822925537999893, -27.570197032 ], [ -53.82294649499989, -27.573544141 ], [ -53.816500042, -27.576365767 ], [ -53.810911013, -27.576258101999898 ], [ -53.811218121, -27.579068658 ], [ -53.814162683999896, -27.58237278 ], [ -53.820137097, -27.585451582 ], [ -53.824988601, -27.585984794 ], [ -53.829408766, -27.589088301999904 ], [ -53.832118174999898, -27.587715413999884 ], [ -53.835721732, -27.592525109 ], [ -53.838143897999899, -27.5936361249999 ], [ -53.854830733, -27.592377650999904 ], [ -53.862161409, -27.5951808189999 ], [ -53.871433738, -27.593191756999893 ], [ -53.874115899999893, -27.591359594 ], [ -53.878938916, -27.593403354 ], [ -53.894472401, -27.5934133219999 ], [ -53.897712872999897, -27.595298195999899 ], [ -53.892937797999899, -27.569517815 ], [ -53.890051419, -27.560675413999896 ], [ -53.892759116, -27.556439742 ], [ -53.896620798999905, -27.556587056999902 ], [ -53.892845128, -27.550236534 ], [ -53.896150674999895, -27.537533773999897 ], [ -53.898526327999896, -27.533525137 ], [ -53.902869907, -27.532739517 ], [ -53.906328489, -27.529768386999905 ], [ -53.892748012, -27.5209526699999 ], [ -53.889866625, -27.514470065999902 ], [ -53.882375523, -27.510806381999899 ], [ -53.884666291, -27.510879535999898 ], [ -53.885258237999899, -27.5097796649999 ], [ -53.884877258999893, -27.504370572 ], [ -53.874349509999895, -27.503982994 ], [ -53.869288683, -27.500474378 ], [ -53.857468672, -27.4988708559999 ], [ -53.845096118999898, -27.499267017 ], [ -53.839807929999893, -27.502141751999901 ], [ -53.840059071, -27.5010003259999 ], [ -53.8362648089999, -27.497903255 ], [ -53.83075178099989, -27.495175656999901 ], [ -53.827063210999903, -27.490748111999899 ], [ -53.827342363, -27.489156417999897 ], [ -53.809576553999896, -27.485528836999901 ], [ -53.807837009, -27.48720867 ], [ -53.81271254699989, -27.501950896 ], [ -53.817370775, -27.506715019999891 ], [ -53.826683993999893, -27.508651248 ], [ -53.817666585, -27.513838525 ] ] ] } }
]
}
