{
"type": "FeatureCollection",
"name": "bairros_nova_esperanca_do_sul",
"crs": { "type": "name", "properties": { "name": "urn:ogc:def:crs:OGC:1.3:CRS84" } },
"features": [
{ "type": "Feature", "properties": { "code_muni": 4313037.0, "name_muni": "Nova Esperança do Sul", "code_state": 43.0, "abbrev_state": "RS", "name_state": "Rio Grande do Sul", "code_region": 4.0, "name_region": "Sul", "year": 2022.0 }, "geometry": { "type": "Polygon", "coordinates": [ [ [ -54.752367675, -29.430359461 ], [ -54.75390207, -29.436754148 ], [ -54.750755767, -29.438759325 ], [ -54.748877725999897, -29.443656765999897 ], [ -54.75138544, -29.448125348 ], [ -54.749611536, -29.454025379 ], [ -54.750558517999906, -29.460978198 ], [ -54.75992425, -29.465112759 ], [ -54.769804001, -29.471679426 ], [ -54.777837142, -29.474845199 ], [ -54.783141370999893, -29.481480809999898 ], [ -54.782884429, -29.484407014999896 ], [ -54.785753089000011, -29.484807789999898 ], [ -54.787576491, -29.487382501 ], [ -54.793903405, -29.491297105999902 ], [ -54.809092721999896, -29.492651700999904 ], [ -54.8211953489999, -29.501093559 ], [ -54.834503866, -29.505535752 ], [ -54.837189248999891, -29.502615863 ], [ -54.833955633999899, -29.501186473 ], [ -54.836122339, -29.4999180249999 ], [ -54.838080254, -29.495968860999898 ], [ -54.836963409, -29.49534441 ], [ -54.835493656, -29.497204795999906 ], [ -54.831998724999899, -29.493934867999897 ], [ -54.831897830999893, -29.488907084999898 ], [ -54.83325397, -29.487912582 ], [ -54.838950752, -29.489223647 ], [ -54.841804635, -29.488416266999902 ], [ -54.840562699, -29.4866216849999 ], [ -54.842602406, -29.486252447 ], [ -54.843491314999895, -29.483144427999903 ], [ -54.850000883, -29.477085872 ], [ -54.850985933999894, -29.471574844 ], [ -54.848060523, -29.467067577 ], [ -54.845439053999897, -29.466607933 ], [ -54.849383415, -29.462878713999896 ], [ -54.853597034, -29.464377247999906 ], [ -54.853969917, -29.465815543 ], [ -54.855098005999899, -29.465349122 ], [ -54.853541686, -29.46072221 ], [ -54.851638568999896, -29.459112384 ], [ -54.848982424, -29.459541617999896 ], [ -54.852565918, -29.454865574999907 ], [ -54.851812212, -29.451638998 ], [ -54.853445899, -29.450879775 ], [ -54.851164444999903, -29.443190247 ], [ -54.859486105, -29.437377647999899 ], [ -54.859529766, -29.433383665000012 ], [ -54.864684345999891, -29.422231627 ], [ -54.867706219999903, -29.42033466 ], [ -54.867651044999903, -29.415174863999901 ], [ -54.869929879, -29.412208253 ], [ -54.865372051999891, -29.40390679 ], [ -54.869873018, -29.402262685 ], [ -54.866982876, -29.4006748259999 ], [ -54.865680809, -29.397662965999903 ], [ -54.867589124999895, -29.395748873999892 ], [ -54.872317545, -29.394606596 ], [ -54.870973925, -29.389991074 ], [ -54.8760302109999, -29.388193385 ], [ -54.873446766, -29.387379473999893 ], [ -54.873202638, -29.385814076 ], [ -54.884052459, -29.378206207999902 ], [ -54.884865839, -29.371849828999899 ], [ -54.894155567, -29.364302015 ], [ -54.893676651, -29.359702561999899 ], [ -54.895912881999891, -29.359150797 ], [ -54.896668178, -29.356372576999899 ], [ -54.894829661999893, -29.353638837999899 ], [ -54.895673388, -29.349315582 ], [ -54.898608682, -29.347246207 ], [ -54.901069602, -29.348155199 ], [ -54.900977865, -29.342409248 ], [ -54.907330343999902, -29.339746426 ], [ -54.913209158, -29.340584104 ], [ -54.927725144, -29.326956579 ], [ -54.921652402999889, -29.319591246999899 ], [ -54.917300724, -29.318211181 ], [ -54.908795198, -29.312061761999896 ], [ -54.903569923, -29.314289404 ], [ -54.897956689999909, -29.314443642999898 ], [ -54.893495587, -29.317337844999901 ], [ -54.89036349, -29.322503642 ], [ -54.876040309, -29.322814 ], [ -54.873024106999907, -29.324785077999902 ], [ -54.869609867999891, -29.321598458 ], [ -54.865788186, -29.323290444999895 ], [ -54.862976521, -29.320597721999896 ], [ -54.861021638, -29.321963551 ], [ -54.863453826999894, -29.324219426999903 ], [ -54.862435471, -29.325304064 ], [ -54.859682944, -29.324626268 ], [ -54.856625266, -29.321800575999898 ], [ -54.855932612999901, -29.323428868 ], [ -54.852846616, -29.320771067 ], [ -54.846663108, -29.322105893999893 ], [ -54.841800028, -29.321523187 ], [ -54.843780994, -29.319544015999984 ], [ -54.835913995999903, -29.318075194 ], [ -54.833719162, -29.31870959 ], [ -54.82755466, -29.324964602 ], [ -54.827546460999891, -29.3328755329999 ], [ -54.845317005, -29.33752206 ], [ -54.848193695, -29.336749622999903 ], [ -54.853241006, -29.338714786 ], [ -54.845773677, -29.346066922 ], [ -54.840931274999896, -29.347263085999895 ], [ -54.834980755999901, -29.351369093999892 ], [ -54.829279308, -29.351572448 ], [ -54.826883323999894, -29.349835363999901 ], [ -54.819177657999901, -29.34806959 ], [ -54.810521174, -29.349478368 ], [ -54.806217946999901, -29.348596883 ], [ -54.799634083999898, -29.344975604 ], [ -54.797106878, -29.345742207999901 ], [ -54.794228416999893, -29.349952530999911 ], [ -54.791741456999901, -29.351017404999901 ], [ -54.790318382, -29.346495277999985 ], [ -54.785361017999897, -29.348362213 ], [ -54.783333937999892, -29.3462802509999 ], [ -54.779911682, -29.345419802 ], [ -54.774833003, -29.347739030999897 ], [ -54.767806419999893, -29.36099968 ], [ -54.766208509, -29.361616911999885 ], [ -54.765281144, -29.359766524 ], [ -54.7617993389999, -29.361738692999904 ], [ -54.758926642999903, -29.365868846999906 ], [ -54.758753347, -29.368750379999899 ], [ -54.755113875999903, -29.370770185 ], [ -54.754761636, -29.374403308999891 ], [ -54.751148061, -29.378864964999885 ], [ -54.754148743, -29.383900932 ], [ -54.750059995, -29.385847363 ], [ -54.749798080999902, -29.38876275699991 ], [ -54.752623174999897, -29.394965301999893 ], [ -54.756235038999897, -29.398422614 ], [ -54.759679515, -29.409681575 ], [ -54.754073822, -29.417729815 ], [ -54.742779593, -29.416565442 ], [ -54.739690997, -29.418515909 ], [ -54.752367675, -29.430359461 ] ] ] } }
]
}
