{
"type": "FeatureCollection",
"name": "bairros_balneario_pinhal",
"crs": { "type": "name", "properties": { "name": "urn:ogc:def:crs:OGC:1.3:CRS84" } },
"features": [
{ "type": "Feature", "properties": { "code_muni": 4301636.0, "name_muni": "Balneário Pinhal", "code_state": 43.0, "abbrev_state": "RS", "name_state": "Rio Grande do Sul", "code_region": 4.0, "name_region": "Sul", "year": 2022.0 }, "geometry": { "type": "Polygon", "coordinates": [ [ [ -50.250538682, -30.228295718 ], [ -50.224098468570993, -30.2362627258332 ], [ -50.251901245999903, -30.304877615999903 ], [ -50.289378734, -30.291432137 ], [ -50.288020178999901, -30.288885149 ], [ -50.290539926, -30.286755209 ], [ -50.289527886, -30.284887242 ], [ -50.290744921999902, -30.283099477999897 ], [ -50.280950141999902, -30.271718608999908 ], [ -50.284340108, -30.268729216999908 ], [ -50.289487126, -30.259928901 ], [ -50.288938653999899, -30.257639722 ], [ -50.285109172, -30.256508519 ], [ -50.283983362, -30.253338520999908 ], [ -50.286906433999903, -30.248205013 ], [ -50.28617095, -30.244998914 ], [ -50.2804030839999, -30.241428643999889 ], [ -50.274618054, -30.2422039849999 ], [ -50.268234858, -30.253793926999901 ], [ -50.266503508, -30.254276789999899 ], [ -50.266080498, -30.251555324 ], [ -50.26926137, -30.246511691999988 ], [ -50.268894788, -30.24003017 ], [ -50.267556438, -30.238325542 ], [ -50.265482678, -30.239081467999902 ], [ -50.261892162, -30.237482561 ], [ -50.268639627, -30.231159005999899 ], [ -50.271382955, -30.226107343 ], [ -50.270716632999893, -30.224190077999896 ], [ -50.270488254, -30.225525869 ], [ -50.265841498, -30.228100183 ], [ -50.264821414, -30.227236737999892 ], [ -50.267904283999897, -30.22323369 ], [ -50.2919123349999, -30.213952779999893 ], [ -50.341478886999909, -30.203046319 ], [ -50.363310438, -30.194445863999892 ], [ -50.376400895, -30.183195923 ], [ -50.380465902, -30.172991533999905 ], [ -50.398908365999894, -30.15750043 ], [ -50.374870508999891, -30.16005569 ], [ -50.347870901, -30.159846297999891 ], [ -50.312715795, -30.147505606 ], [ -50.307229572, -30.1466298839999 ], [ -50.306322187, -30.14925649 ], [ -50.29590558599989, -30.157943383 ], [ -50.296068756, -30.159801579 ], [ -50.280344967, -30.159219514 ], [ -50.275919758, -30.164640904 ], [ -50.273010835, -30.163096063 ], [ -50.263820630999909, -30.170525817999902 ], [ -50.256936396999905, -30.172755332999891 ], [ -50.250538682, -30.228295718 ] ] ] } }
]
}
