{
"type": "FeatureCollection",
"name": "bairros_santa_clara_do_sul",
"crs": { "type": "name", "properties": { "name": "urn:ogc:def:crs:OGC:1.3:CRS84" } },
"features": [
{ "type": "Feature", "properties": { "name": "São Bento", "code_muni": 4316758.0, "name_muni": "Santa Clara do Sul" }, "geometry": { "type": "MultiPolygon", "coordinates": [ [ [ [ -52.0487529, -29.472643 ], [ -52.0487501, -29.4724801 ], [ -52.0484468, -29.4718987 ], [ -52.048243955175444, -29.471715058408716 ], [ -52.048578111880552, -29.472786841760581 ], [ -52.0487529, -29.472643 ] ] ], [ [ [ -52.0481144, -29.4712648 ], [ -52.0482272, -29.47095620000001 ], [ -52.0481856, -29.4707708 ], [ -52.0479962, -29.470295 ], [ -52.0479244, -29.4697992 ], [ -52.0479191, -29.4694041 ], [ -52.0477306, -29.4691213 ], [ -52.0472331, -29.4683751 ], [ -52.0470337, -29.467597 ], [ -52.046711462732418, -29.46679938234605 ], [ -52.048110387229009, -29.471286641982807 ], [ -52.0481144, -29.4712648 ] ] ], [ [ [ -52.0443836, -29.4582306 ], [ -52.0442887, -29.4574262 ], [ -52.0442317, -29.457127 ], [ -52.0441145, -29.4565122 ], [ -52.0438603, -29.4557535 ], [ -52.0435868, -29.4552256 ], [ -52.043228, -29.4547202 ], [ -52.0431805, -29.4541918 ], [ -52.0432268, -29.4536574 ], [ -52.0431959, -29.4531421 ], [ -52.0431013, -29.4529007 ], [ -52.0430022, -29.452583900000011 ], [ -52.0427263, -29.4521347 ], [ -52.0423596, -29.4516972 ], [ -52.0418709645962, -29.45126486102339 ], [ -52.041871086999905, -29.451269797 ], [ -52.044285116395983, -29.459015482032111 ], [ -52.0443836, -29.4582306 ] ] ], [ [ [ -52.042123320118947, -29.44515558121644 ], [ -52.04172063, -29.445201962999899 ], [ -52.041792119353602, -29.448085231861231 ], [ -52.042123320118947, -29.44515558121644 ] ] ] ] } },
{ "type": "Feature", "properties": { "name": "Parque das Flores", "code_muni": 4316758.0, "name_muni": "Santa Clara do Sul" }, "geometry": { "type": "Polygon", "coordinates": [ [ [ -52.0660436, -29.4607817 ], [ -52.0659846, -29.461575700000012 ], [ -52.0658988, -29.4626967 ], [ -52.0658505, -29.463563099999988 ], [ -52.0658129, -29.4636915 ], [ -52.0657739, -29.4638121 ], [ -52.0658156, -29.4638552 ], [ -52.0663339, -29.4644728 ], [ -52.0664149, -29.4645693 ], [ -52.0665709, -29.4647492 ], [ -52.0668042, -29.4649485 ], [ -52.0670964, -29.4651116 ], [ -52.0675069, -29.4652727 ], [ -52.0689603, -29.465757600000011 ], [ -52.0693951, -29.4659342 ], [ -52.0697414, -29.466087200000011 ], [ -52.0700431, -29.4662661 ], [ -52.0708805, -29.4669056 ], [ -52.0712603, -29.467195700000012 ], [ -52.0713999, -29.4672696 ], [ -52.0715565, -29.4673265 ], [ -52.0717131, -29.4673493 ], [ -52.0719238, -29.4673436 ], [ -52.0722485, -29.4672781 ], [ -52.0731312, -29.4670845 ], [ -52.0747655, -29.4666684 ], [ -52.0754635, -29.4664259 ], [ -52.0769546, -29.4652957 ], [ -52.0775682, -29.4652807 ], [ -52.0775471, -29.465039 ], [ -52.0774121, -29.4647006 ], [ -52.077164, -29.4644607 ], [ -52.077153, -29.4636016 ], [ -52.0771888, -29.4634025 ], [ -52.0771447, -29.4631337 ], [ -52.0769546, -29.4627714 ], [ -52.0767313, -29.4624786 ], [ -52.0765838, -29.4623987 ], [ -52.0765252, -29.462367 ], [ -52.076405, -29.462302 ], [ -52.0762682, -29.4623534 ], [ -52.0761153, -29.4623767 ], [ -52.07574790000001, -29.4623791 ], [ -52.0755789, -29.4623977 ], [ -52.0753697, -29.4623277 ], [ -52.0752248, -29.4621362 ], [ -52.0751685, -29.4620941 ], [ -52.07486, -29.4620521 ], [ -52.0746964, -29.4619727 ], [ -52.0743424, -29.4617345 ], [ -52.0740473, -29.461118 ], [ -52.0738971, -29.4608751 ], [ -52.0737523, -29.4607303 ], [ -52.07323190000001, -29.4603753 ], [ -52.0730281, -29.4601838 ], [ -52.0723844, -29.4598522 ], [ -52.072143, -29.4596093 ], [ -52.0718908, -29.4595065 ], [ -52.0717675, -29.4593944 ], [ -52.0715582, -29.4588153 ], [ -52.0715314, -29.458413600000011 ], [ -52.0714831, -29.458324799999989 ], [ -52.0713061, -29.4582034 ], [ -52.0711613, -29.458166 ], [ -52.0704317, -29.4581333 ], [ -52.0701474, -29.4580773 ], [ -52.0677656, -29.4572645 ], [ -52.066859, -29.4567974 ], [ -52.0666927, -29.4566666 ], [ -52.0663333, -29.4564611 ], [ -52.0660915, -29.4600677 ], [ -52.0660436, -29.4607817 ] ] ] } },
{ "type": "Feature", "properties": { "name": "São Francisco", "code_muni": 4316758.0, "name_muni": "Santa Clara do Sul" }, "geometry": { "type": "Polygon", "coordinates": [ [ [ -52.07532247502435, -29.481011896526066 ], [ -52.075323142999899, -29.481011784 ], [ -52.075323143107404, -29.48103525413504 ], [ -52.0753296, -29.481261 ], [ -52.0753349, -29.4816901 ], [ -52.0753547, -29.4820201 ], [ -52.0753522, -29.4822427 ], [ -52.0753589, -29.4824272 ], [ -52.0753476, -29.4825343 ], [ -52.0772164, -29.4825304 ], [ -52.0866972, -29.4765707 ], [ -52.0867073, -29.4750951 ], [ -52.0866559, -29.4750687 ], [ -52.0864437, -29.4747784 ], [ -52.0863996, -29.4746512 ], [ -52.0862121, -29.474555299999988 ], [ -52.0857436, -29.4744449 ], [ -52.0851566, -29.4746032 ], [ -52.084914, -29.4746272 ], [ -52.0847046, -29.4745649 ], [ -52.0839935, -29.474181 ], [ -52.0838089, -29.474085 ], [ -52.0835195, -29.474049 ], [ -52.0830758, -29.474145 ], [ -52.0828856, -29.4740946 ], [ -52.0824033, -29.4739074 ], [ -52.0818144, -29.4738965 ], [ -52.0817769, -29.4738958 ], [ -52.081232, -29.4738858 ], [ -52.0808213, -29.4736939 ], [ -52.0807607, -29.4736771 ], [ -52.0806504, -29.4737923 ], [ -52.0805953, -29.4737875 ], [ -52.0804603, -29.4736387 ], [ -52.0803558, -29.4736371 ], [ -52.0803004, -29.4736363 ], [ -52.0801433, -29.4735427 ], [ -52.0800744, -29.4733916 ], [ -52.0799008, -29.4732788 ], [ -52.0795783, -29.4724798 ], [ -52.0794984, -29.4720047 ], [ -52.0794791, -29.4719279 ], [ -52.0793909, -29.471832 ], [ -52.079074, -29.4713401 ], [ -52.0781369, -29.4707978 ], [ -52.0780212, -29.4706922 ], [ -52.0777952, -29.4702987 ], [ -52.077707, -29.4699724 ], [ -52.0777028, -29.4699309 ], [ -52.077702, -29.4699227 ], [ -52.0776215, -29.4691158 ], [ -52.0775058, -29.4684607 ], [ -52.0775085, -29.4674577 ], [ -52.0774644, -29.4671098 ], [ -52.0775581, -29.4666851 ], [ -52.0775223, -29.4658308 ], [ -52.0775857, -29.4654805 ], [ -52.0775682, -29.4652807 ], [ -52.0769546, -29.4652957 ], [ -52.0754635, -29.4664259 ], [ -52.0747655, -29.4666684 ], [ -52.0731312, -29.4670845 ], [ -52.0722485, -29.4672781 ], [ -52.0719238, -29.4673436 ], [ -52.0717131, -29.4673493 ], [ -52.0715565, -29.4673265 ], [ -52.0713999, -29.4672696 ], [ -52.0712603, -29.467195700000012 ], [ -52.0708805, -29.4669056 ], [ -52.0700431, -29.4662661 ], [ -52.0697414, -29.466087200000011 ], [ -52.0693951, -29.4659342 ], [ -52.0689603, -29.465757600000011 ], [ -52.0675069, -29.4652727 ], [ -52.0670964, -29.4651116 ], [ -52.0668042, -29.4649485 ], [ -52.0665709, -29.4647492 ], [ -52.0664149, -29.4645693 ], [ -52.0663339, -29.4644728 ], [ -52.0626975, -29.4653893 ], [ -52.0650567, -29.4719543 ], [ -52.0656299, -29.4726645 ], [ -52.0664016, -29.4731252 ], [ -52.0678568, -29.4734323 ], [ -52.0742509, -29.4738162 ], [ -52.07415, -29.4811431 ], [ -52.0753217, -29.4809848 ], [ -52.07532247502435, -29.481011896526066 ] ] ] } },
{ "type": "Feature", "properties": { "name": "Centro", "code_muni": 4316758.0, "name_muni": "Santa Clara do Sul" }, "geometry": { "type": "Polygon", "coordinates": [ [ [ -52.0990401, -29.4690696 ], [ -52.0990408, -29.4664849 ], [ -52.0989492, -29.4665044 ], [ -52.0989121, -29.4665123 ], [ -52.098755, -29.4666155 ], [ -52.0985014, -29.466704299999989 ], [ -52.0975699, -29.4667907 ], [ -52.0973288, -29.4667898 ], [ -52.0972775, -29.4667896 ], [ -52.0970698, -29.4667887 ], [ -52.096958, -29.4667883 ], [ -52.0968257, -29.4667523 ], [ -52.096517, -29.4667787 ], [ -52.0961753, -29.4665891 ], [ -52.0957371, -29.466272399999987 ], [ -52.0955965, -29.466114 ], [ -52.09515, -29.4658068 ], [ -52.0944087, -29.4655309 ], [ -52.0940393, -29.4654661 ], [ -52.0936122, -29.4654181 ], [ -52.0932925, -29.4654373 ], [ -52.0930196, -29.4655213 ], [ -52.09281570000001, -29.4657253 ], [ -52.0925125, -29.4658236 ], [ -52.09219, -29.4657589 ], [ -52.0916388, -29.4658572 ], [ -52.0909636, -29.4658716 ], [ -52.090705, -29.4658193 ], [ -52.0905547, -29.4657888 ], [ -52.0904069, -29.4657589 ], [ -52.0897371, -29.4655429 ], [ -52.0892741, -29.465178199999986 ], [ -52.0889847, -29.4650822 ], [ -52.0887395, -29.4651062 ], [ -52.0884611, -29.4653341 ], [ -52.0882255, -29.4654106 ], [ -52.088161, -29.4654316 ], [ -52.0879292, -29.4655069 ], [ -52.0877528, -29.4655285 ], [ -52.0875406, -29.4655069 ], [ -52.0869863, -29.4652959 ], [ -52.086529, -29.4651149 ], [ -52.0863318, -29.4650921 ], [ -52.0856881, -29.465095 ], [ -52.0854843, -29.4650133 ], [ -52.0851946, -29.4649642 ], [ -52.0850551, -29.4649199 ], [ -52.0847037, -29.464719 ], [ -52.0843658, -29.4645976 ], [ -52.0841888, -29.4644808 ], [ -52.0840573, -29.4643664 ], [ -52.0836121, -29.4641212 ], [ -52.0834739, -29.4640617 ], [ -52.083301, -29.4638398 ], [ -52.0830917, -29.4634813 ], [ -52.0829791, -29.4632992 ], [ -52.0828691, -29.4632338 ], [ -52.0827538, -29.4631707 ], [ -52.0826063, -29.4631474 ], [ -52.0823863, -29.4631661 ], [ -52.0822227, -29.463215099999989 ], [ -52.0821181, -29.4632595 ], [ -52.0819679, -29.4632922 ], [ -52.0812142, -29.4632992 ], [ -52.08086010000001, -29.4632408 ], [ -52.0804578, -29.4630867 ], [ -52.0802754, -29.463054 ], [ -52.0799375, -29.4630586 ], [ -52.0796344, -29.4632034 ], [ -52.0794225, -29.4632618 ], [ -52.0792374, -29.4632385 ], [ -52.0790926, -29.4631824 ], [ -52.0788324, -29.4629909 ], [ -52.0787224, -29.4629699 ], [ -52.0786259, -29.4629792 ], [ -52.0783362, -29.4629138 ], [ -52.0782316, -29.4628765 ], [ -52.0781109, -29.4628017 ], [ -52.0780358, -29.4626897 ], [ -52.0780197, -29.462554199999985 ], [ -52.0779848, -29.4624608 ], [ -52.0779419, -29.4624071 ], [ -52.0778105, -29.462348699999989 ], [ -52.0777032, -29.46233 ], [ -52.077376, -29.46233 ], [ -52.0770165, -29.4621549 ], [ -52.0767671, -29.462145499999984 ], [ -52.0766249, -29.4621712 ], [ -52.076405, -29.462302 ], [ -52.0765252, -29.462367 ], [ -52.0765838, -29.4623987 ], [ -52.0767313, -29.4624786 ], [ -52.0769546, -29.4627714 ], [ -52.0771447, -29.4631337 ], [ -52.0771888, -29.4634025 ], [ -52.077153, -29.4636016 ], [ -52.077164, -29.4644607 ], [ -52.0774121, -29.4647006 ], [ -52.0775471, -29.465039 ], [ -52.0775682, -29.4652807 ], [ -52.0775857, -29.4654805 ], [ -52.0775223, -29.4658308 ], [ -52.0775581, -29.4666851 ], [ -52.0774644, -29.4671098 ], [ -52.0775085, -29.4674577 ], [ -52.0775058, -29.4684607 ], [ -52.0776215, -29.4691158 ], [ -52.077702, -29.4699227 ], [ -52.0777028, -29.4699309 ], [ -52.077707, -29.4699724 ], [ -52.0777952, -29.4702987 ], [ -52.0780212, -29.4706922 ], [ -52.0781369, -29.4707978 ], [ -52.079074, -29.4713401 ], [ -52.0793909, -29.471832 ], [ -52.0794791, -29.4719279 ], [ -52.0794984, -29.4720047 ], [ -52.0795783, -29.4724798 ], [ -52.0799008, -29.4732788 ], [ -52.0800744, -29.4733916 ], [ -52.0801433, -29.4735427 ], [ -52.0803004, -29.4736363 ], [ -52.0803558, -29.4736371 ], [ -52.0804603, -29.4736387 ], [ -52.0805953, -29.4737875 ], [ -52.0806504, -29.4737923 ], [ -52.0807607, -29.4736771 ], [ -52.0808213, -29.4736939 ], [ -52.081232, -29.4738858 ], [ -52.0817769, -29.4738958 ], [ -52.0818144, -29.4738965 ], [ -52.0824033, -29.4739074 ], [ -52.0828856, -29.4740946 ], [ -52.0830758, -29.474145 ], [ -52.0835195, -29.474049 ], [ -52.0838089, -29.474085 ], [ -52.0839935, -29.474181 ], [ -52.0847046, -29.4745649 ], [ -52.084914, -29.4746272 ], [ -52.0851566, -29.4746032 ], [ -52.0857436, -29.4744449 ], [ -52.0862121, -29.474555299999988 ], [ -52.0863996, -29.4746512 ], [ -52.0864437, -29.4747784 ], [ -52.0866559, -29.4750687 ], [ -52.0867073, -29.4750951 ], [ -52.0867193, -29.473346 ], [ -52.0989892, -29.4734659 ], [ -52.0990401, -29.4690696 ] ] ] } },
{ "type": "Feature", "properties": { "name": "Alto da Colina", "code_muni": 4316758.0, "name_muni": "Santa Clara do Sul" }, "geometry": { "type": "Polygon", "coordinates": [ [ [ -52.0990402, -29.4623084 ], [ -52.0990499, -29.4607916 ], [ -52.097964, -29.460801199999988 ], [ -52.097953, -29.456126600000012 ], [ -52.0944142, -29.456165 ], [ -52.0933448, -29.4559154 ], [ -52.0929149, -29.4555122 ], [ -52.0928708, -29.4550323 ], [ -52.0947339, -29.4520276 ], [ -52.0945134, -29.4516917 ], [ -52.09281570000001, -29.4508757 ], [ -52.0921542, -29.4510869 ], [ -52.0917022, -29.4517013 ], [ -52.0898501, -29.452738 ], [ -52.0891391, -29.4527476 ], [ -52.0887253, -29.45262 ], [ -52.0886922, -29.4526098 ], [ -52.0886537, -29.4526005 ], [ -52.0883068, -29.4525172 ], [ -52.0878327, -29.452642 ], [ -52.0876122, -29.4527092 ], [ -52.0868019, -29.4526948 ], [ -52.0862562, -29.4528292 ], [ -52.0851097, -29.4528724 ], [ -52.0844758, -29.4527812 ], [ -52.0836952, -29.4527812 ], [ -52.0835046, -29.4527803 ], [ -52.0832632, -29.452781199999986 ], [ -52.0827561, -29.452834 ], [ -52.0826899, -29.4528436 ], [ -52.0826293, -29.4528532 ], [ -52.0817143, -29.4532036 ], [ -52.0807276, -29.4533524 ], [ -52.0802646, -29.4533188 ], [ -52.0793771, -29.4534388 ], [ -52.0791622, -29.4536068 ], [ -52.0791015, -29.4538083 ], [ -52.0789196, -29.4538275 ], [ -52.0787598, -29.4539811 ], [ -52.0787102, -29.4540099 ], [ -52.0784621, -29.4540291 ], [ -52.0781755, -29.4539523 ], [ -52.0780708, -29.4540819 ], [ -52.0779109, -29.4541491 ], [ -52.077718, -29.4542691 ], [ -52.077481, -29.4542835 ], [ -52.0759817, -29.454921899999984 ], [ -52.0742564, -29.4553346 ], [ -52.0737052, -29.4556658 ], [ -52.0734737, -29.4557186 ], [ -52.0733303, -29.455901 ], [ -52.0729776, -29.4559538 ], [ -52.072261, -29.4562418 ], [ -52.0720718, -29.4563804 ], [ -52.072017, -29.4564206 ], [ -52.071809, -29.4565729 ], [ -52.0719248, -29.4568849 ], [ -52.0718421, -29.4573025 ], [ -52.0711613, -29.458166 ], [ -52.0713061, -29.4582034 ], [ -52.0714831, -29.458324799999989 ], [ -52.0715314, -29.458413600000011 ], [ -52.0715582, -29.4588153 ], [ -52.0717675, -29.4593944 ], [ -52.0718908, -29.4595065 ], [ -52.072143, -29.4596093 ], [ -52.0723844, -29.4598522 ], [ -52.0730281, -29.4601838 ], [ -52.07323190000001, -29.4603753 ], [ -52.0737523, -29.4607303 ], [ -52.0738971, -29.4608751 ], [ -52.0740473, -29.461118 ], [ -52.0743424, -29.4617345 ], [ -52.0746964, -29.4619727 ], [ -52.07486, -29.4620521 ], [ -52.0751685, -29.4620941 ], [ -52.0752248, -29.4621362 ], [ -52.0753697, -29.4623277 ], [ -52.0755789, -29.4623977 ], [ -52.07574790000001, -29.4623791 ], [ -52.0761153, -29.4623767 ], [ -52.0762682, -29.4623534 ], [ -52.076405, -29.462302 ], [ -52.0766249, -29.4621712 ], [ -52.0767671, -29.462145499999984 ], [ -52.0770165, -29.4621549 ], [ -52.077376, -29.46233 ], [ -52.0777032, -29.46233 ], [ -52.0778105, -29.462348699999989 ], [ -52.0779419, -29.4624071 ], [ -52.0779848, -29.4624608 ], [ -52.0780197, -29.462554199999985 ], [ -52.0780358, -29.4626897 ], [ -52.0781109, -29.4628017 ], [ -52.0782316, -29.4628765 ], [ -52.0783362, -29.4629138 ], [ -52.0786259, -29.4629792 ], [ -52.0787224, -29.4629699 ], [ -52.0788324, -29.4629909 ], [ -52.0790926, -29.4631824 ], [ -52.0792374, -29.4632385 ], [ -52.0794225, -29.4632618 ], [ -52.0796344, -29.4632034 ], [ -52.0799375, -29.4630586 ], [ -52.0802754, -29.463054 ], [ -52.0804578, -29.4630867 ], [ -52.08086010000001, -29.4632408 ], [ -52.0812142, -29.4632992 ], [ -52.0819679, -29.4632922 ], [ -52.0821181, -29.4632595 ], [ -52.0822227, -29.463215099999989 ], [ -52.0823863, -29.4631661 ], [ -52.0826063, -29.4631474 ], [ -52.0827538, -29.4631707 ], [ -52.0828691, -29.4632338 ], [ -52.0829791, -29.4632992 ], [ -52.0830917, -29.4634813 ], [ -52.083301, -29.4638398 ], [ -52.0834739, -29.4640617 ], [ -52.0836121, -29.4641212 ], [ -52.0840573, -29.4643664 ], [ -52.0841888, -29.4644808 ], [ -52.0843658, -29.4645976 ], [ -52.0847037, -29.464719 ], [ -52.0850551, -29.4649199 ], [ -52.0851946, -29.4649642 ], [ -52.0854843, -29.4650133 ], [ -52.0856881, -29.465095 ], [ -52.0863318, -29.4650921 ], [ -52.086529, -29.4651149 ], [ -52.0869863, -29.4652959 ], [ -52.0875406, -29.4655069 ], [ -52.0877528, -29.4655285 ], [ -52.0879292, -29.4655069 ], [ -52.088161, -29.4654316 ], [ -52.0882255, -29.4654106 ], [ -52.0884611, -29.4653341 ], [ -52.0887395, -29.4651062 ], [ -52.0889847, -29.4650822 ], [ -52.0892741, -29.465178199999986 ], [ -52.0897371, -29.4655429 ], [ -52.0904069, -29.4657589 ], [ -52.0905547, -29.4657888 ], [ -52.090705, -29.4658193 ], [ -52.0909636, -29.4658716 ], [ -52.0916388, -29.4658572 ], [ -52.09219, -29.4657589 ], [ -52.0925125, -29.4658236 ], [ -52.09281570000001, -29.4657253 ], [ -52.0930196, -29.4655213 ], [ -52.0932925, -29.4654373 ], [ -52.0936122, -29.4654181 ], [ -52.0940393, -29.4654661 ], [ -52.0944087, -29.4655309 ], [ -52.09515, -29.4658068 ], [ -52.0955965, -29.466114 ], [ -52.0957371, -29.466272399999987 ], [ -52.0961753, -29.4665891 ], [ -52.096517, -29.4667787 ], [ -52.0968257, -29.4667523 ], [ -52.096958, -29.4667883 ], [ -52.0970698, -29.4667887 ], [ -52.0972775, -29.4667896 ], [ -52.0973288, -29.4667898 ], [ -52.0975699, -29.4667907 ], [ -52.0985014, -29.466704299999989 ], [ -52.098755, -29.4666155 ], [ -52.0989121, -29.4665123 ], [ -52.0989492, -29.4665044 ], [ -52.0990408, -29.4664849 ], [ -52.0990402, -29.4623084 ] ] ] } },
{ "type": "Feature", "properties": { "name": "Picada Passo Fundo", "code_muni": 4316758.0, "name_muni": "Santa Clara do Sul" }, "geometry": { "type": "Polygon", "coordinates": [ [ [ -52.1060668, -29.4734803 ], [ -52.0989892, -29.4734659 ], [ -52.0867193, -29.473346 ], [ -52.0867073, -29.4750951 ], [ -52.0866972, -29.4765707 ], [ -52.0772164, -29.4825304 ], [ -52.0753476, -29.4825343 ], [ -52.0753334, -29.4826688 ], [ -52.075323151438162, -29.482748157892861 ], [ -52.075323152634823, -29.482979155064932 ], [ -52.0753234, -29.482984 ], [ -52.075334, -29.4831611 ], [ -52.0753516, -29.4834779 ], [ -52.0753646, -29.4838322 ], [ -52.0753295, -29.4840407 ], [ -52.075323158488729, -29.484064231758662 ], [ -52.075323162582727, -29.484783852808221 ], [ -52.075366401066994, -29.485363152281963 ], [ -52.108817359706229, -29.485499971290899 ], [ -52.1090764, -29.4787686 ], [ -52.1091646, -29.4739842 ], [ -52.1060668, -29.4734803 ] ] ] } },
{ "type": "Feature", "properties": { "name": "São Pedro", "code_muni": 4316758.0, "name_muni": "Santa Clara do Sul" }, "geometry": { "type": "Polygon", "coordinates": [ [ [ -52.1123506, -29.4748432 ], [ -52.1119923, -29.4745265 ], [ -52.1118931, -29.4742385 ], [ -52.111849, -29.4740226 ], [ -52.1117222, -29.4739458 ], [ -52.1116175, -29.4737875 ], [ -52.111634, -29.473629099999989 ], [ -52.1116836, -29.4735811 ], [ -52.1117277, -29.473394 ], [ -52.1116285, -29.4730629 ], [ -52.1117001, -29.4729621 ], [ -52.1117663, -29.4729669 ], [ -52.1118104, -29.4728757 ], [ -52.1117828, -29.4727221 ], [ -52.11186, -29.472583 ], [ -52.1121742, -29.4723142 ], [ -52.1122899, -29.4721175 ], [ -52.1122955, -29.471604 ], [ -52.1124884, -29.4706538 ], [ -52.1106639, -29.47003 ], [ -52.1086464, -29.4696653 ], [ -52.1087457, -29.4687919 ], [ -52.1093299, -29.467237 ], [ -52.1094402, -29.4661572 ], [ -52.1096386, -29.4641607 ], [ -52.1089276, -29.4617179 ], [ -52.1056148, -29.458651099999987 ], [ -52.1046061, -29.4596158 ], [ -52.1040218, -29.4597358 ], [ -52.1034099, -29.4596494 ], [ -52.1024233, -29.4604653 ], [ -52.102412200000011, -29.4607772 ], [ -52.0990499, -29.4607916 ], [ -52.0990402, -29.4623084 ], [ -52.0990408, -29.4664849 ], [ -52.0990401, -29.4690696 ], [ -52.0989892, -29.4734659 ], [ -52.1060668, -29.4734803 ], [ -52.1091646, -29.4739842 ], [ -52.1123506, -29.4748432 ] ] ] } },
{ "type": "Feature", "properties": { "name": "Sampaio", "code_muni": 4316758.0, "name_muni": "Santa Clara do Sul" }, "geometry": { "type": "Polygon", "coordinates": [ [ [ -52.1411337, -29.4790643 ], [ -52.1415248, -29.479310399999989 ], [ -52.1420121, -29.4795252 ], [ -52.1422648, -29.4798761 ], [ -52.1430469, -29.4799651 ], [ -52.143811, -29.4805727 ], [ -52.1436365, -29.480934 ], [ -52.1432515, -29.481044 ], [ -52.1426799, -29.4809655 ], [ -52.1421745, -29.4807926 ], [ -52.1415428, -29.4805727 ], [ -52.140822312660525, -29.480411134442704 ], [ -52.140305727121934, -29.480736977469846 ], [ -52.1402132, -29.4808921 ], [ -52.140005357419142, -29.481362524518733 ], [ -52.139525802268395, -29.483412281045705 ], [ -52.139549823257461, -29.483637421759408 ], [ -52.140146347523377, -29.483730708451546 ], [ -52.1405501, -29.4836889 ], [ -52.1410615, -29.4834846 ], [ -52.1413984, -29.4833485 ], [ -52.1417113, -29.4832385 ], [ -52.1419279, -29.4833851 ], [ -52.142159182968776, -29.484045462048083 ], [ -52.142205468046754, -29.484052699412253 ], [ -52.1431208, -29.4822967 ], [ -52.1435591, -29.4819029 ], [ -52.14436, -29.4814934 ], [ -52.144977, -29.4813878 ], [ -52.145367270549258, -29.481389562323212 ], [ -52.145434601, -29.481332181000017 ], [ -52.145903069381021, -29.481358999673336 ], [ -52.1461826, -29.481313 ], [ -52.1465649, -29.4813773 ], [ -52.1467784, -29.4813658 ], [ -52.14685407184912, -29.481413437119087 ], [ -52.146881725999897, -29.481415019999897 ], [ -52.146891635225643, -29.481437084070354 ], [ -52.1469498, -29.4814737 ], [ -52.147023, -29.481638 ], [ -52.147039910004018, -29.481767234220527 ], [ -52.147791129, -29.483439868999891 ], [ -52.148287537393593, -29.482604183982453 ], [ -52.1484132, -29.482104899999989 ], [ -52.1486251, -29.4817493 ], [ -52.1493953, -29.4805429 ], [ -52.1495548, -29.4804638 ], [ -52.149562479137167, -29.480457797670901 ], [ -52.149592923999897, -29.480406542 ], [ -52.149642089396146, -29.480395570954819 ], [ -52.1500288, -29.4800933 ], [ -52.1502087, -29.4800897 ], [ -52.1504381, -29.4801608 ], [ -52.150840047306275, -29.480128245532864 ], [ -52.151616672655067, -29.479954934392879 ], [ -52.1521854, -29.4797083 ], [ -52.1531406, -29.479486 ], [ -52.153590268156151, -29.479514485372704 ], [ -52.153735518066213, -29.479482068525595 ], [ -52.1539712, -29.4794172 ], [ -52.154006247935349, -29.479389981970538 ], [ -52.154381904373601, -29.478824888156261 ], [ -52.1546778, -29.4782466 ], [ -52.1552946, -29.4772089 ], [ -52.155561504428199, -29.477050388653012 ], [ -52.155563524999891, -29.477047349 ], [ -52.155587203086725, -29.477034577223915 ], [ -52.1558007, -29.4769022 ], [ -52.1564448, -29.4765302 ], [ -52.1566689, -29.4763552 ], [ -52.1573151, -29.4758504 ], [ -52.157773, -29.4757723 ], [ -52.159708285202321, -29.474811585894521 ], [ -52.159940795, -29.474686158999894 ], [ -52.159957392891776, -29.474687920554299 ], [ -52.1599947, -29.474669399999986 ], [ -52.160382955111686, -29.474733085258176 ], [ -52.161083264781524, -29.474807405707814 ], [ -52.1622021, -29.474228 ], [ -52.1629926, -29.4742929 ], [ -52.1642007, -29.4748902 ], [ -52.16561665783621, -29.475264805001245 ], [ -52.166966348999892, -29.473425251 ], [ -52.166993239356138, -29.473423141131132 ], [ -52.1670149, -29.4733767 ], [ -52.167204847724577, -29.473406537740921 ], [ -52.171041117999899, -29.473105474000011 ], [ -52.172011810424507, -29.473286971703548 ], [ -52.173105, -29.4734359 ], [ -52.1737463, -29.4735657 ], [ -52.173850435626214, -29.473750707303765 ], [ -52.175622866110722, -29.475510678911963 ], [ -52.1760298, -29.4757403 ], [ -52.17619711064917, -29.475789659486495 ], [ -52.178402047, -29.475661086999899 ], [ -52.179896071, -29.474543169 ], [ -52.17972817131259, -29.473707452589071 ], [ -52.1793343, -29.4723586 ], [ -52.179357134848281, -29.471860573755578 ], [ -52.179277317, -29.471463260999908 ], [ -52.179558669900267, -29.471322732813874 ], [ -52.1806043, -29.4706477 ], [ -52.181414651029677, -29.470395695956999 ], [ -52.181808664999899, -29.470198885999896 ], [ -52.181891073355821, -29.46992363528501 ], [ -52.1820746, -29.4681168 ], [ -52.1827371, -29.4669598 ], [ -52.185537308877933, -29.465828556463762 ], [ -52.187083837251862, -29.465195808568982 ], [ -52.187623276017973, -29.464687326356621 ], [ -52.189394911, -29.462798959999894 ], [ -52.189572330850233, -29.462850061670945 ], [ -52.1896213, -29.4628039 ], [ -52.192776217585724, -29.46366847011824 ], [ -52.193234449193262, -29.462645939350075 ], [ -52.1932388, -29.4620693 ], [ -52.1950633, -29.4621886 ], [ -52.195510849890745, -29.462461969874266 ], [ -52.197187409, -29.462769495 ], [ -52.197298931816469, -29.461718078846403 ], [ -52.1971726, -29.4614448 ], [ -52.1973039, -29.4598898 ], [ -52.1976523, -29.4596226 ], [ -52.1981067, -29.459581 ], [ -52.198216883067488, -29.459570860469309 ], [ -52.201958928, -29.45798454399991 ], [ -52.202084360601383, -29.457978019613762 ], [ -52.2026504, -29.4576208 ], [ -52.203572593861196, -29.457900599979777 ], [ -52.205693891789316, -29.457790218664485 ], [ -52.2063206, -29.457694199999988 ], [ -52.206433673355491, -29.457751716284502 ], [ -52.206522461, -29.457747094999895 ], [ -52.210790473337596, -29.45986195592813 ], [ -52.211181052636775, -29.459862993602325 ], [ -52.211472867472921, -29.459747991297018 ], [ -52.211962, -29.458855600000014 ], [ -52.214397037324552, -29.45859554606945 ], [ -52.215183023497133, -29.458285765645616 ], [ -52.215458930985584, -29.457200631756372 ], [ -52.215446743, -29.456906489999884 ], [ -52.218318477620002, -29.455347278378625 ], [ -52.218435544783262, -29.455261417701141 ], [ -52.218423917117981, -29.455144930842177 ], [ -52.2179877, -29.454391 ], [ -52.2176035, -29.4542138 ], [ -52.2174661, -29.4541074 ], [ -52.2173368, -29.4539974 ], [ -52.217264, -29.4539179 ], [ -52.2172283, -29.4538224 ], [ -52.2172365, -29.453742699999985 ], [ -52.2173023, -29.453659099999989 ], [ -52.2174152, -29.453619299999989 ], [ -52.2178451, -29.453278699999988 ], [ -52.2180642, -29.4530109 ], [ -52.218192903075703, -29.452830547827162 ], [ -52.218033880780162, -29.451237331055189 ], [ -52.2180185, -29.4512237 ], [ -52.2177856, -29.4509957 ], [ -52.2176746, -29.450824499999989 ], [ -52.2176706, -29.4506605 ], [ -52.2177926, -29.4505143 ], [ -52.217953529754148, -29.450432285326087 ], [ -52.217808231910773, -29.448976491543284 ], [ -52.217749, -29.4489025 ], [ -52.2176875, -29.4487193 ], [ -52.2177235, -29.4485219 ], [ -52.2178574, -29.448296 ], [ -52.218097, -29.4481339 ], [ -52.2183558, -29.4480962 ], [ -52.218492819341641, -29.448102445054413 ], [ -52.219442731380298, -29.447313595470469 ], [ -52.2194385, -29.4472999 ], [ -52.2195334, -29.4471287 ], [ -52.2195877, -29.4470134 ], [ -52.2196581, -29.446923699999989 ], [ -52.2197641, -29.4468812 ], [ -52.2199363, -29.4468751 ], [ -52.219998945126115, -29.446851681948107 ], [ -52.220128966999901, -29.446743702999989 ], [ -52.22029284477123, -29.445787400257288 ], [ -52.2202875, -29.4457799 ], [ -52.2202419, -29.4456481 ], [ -52.2201971, -29.4453987 ], [ -52.2201764, -29.4452465 ], [ -52.2201834, -29.4451291 ], [ -52.2202306, -29.4450127 ], [ -52.2202902, -29.4449176 ], [ -52.2204425, -29.4447664 ], [ -52.220469878693294, -29.444754307014506 ], [ -52.220715749, -29.443319483 ], [ -52.22230521568941, -29.441946130785858 ], [ -52.2147613, -29.4423444 ], [ -52.2150404, -29.4494943 ], [ -52.2128308, -29.4495753 ], [ -52.209714, -29.4514387 ], [ -52.2035968, -29.4509931 ], [ -52.200922, -29.4402176 ], [ -52.1965027, -29.4420001 ], [ -52.1944203, -29.4373674 ], [ -52.1866007, -29.4401793 ], [ -52.1896761, -29.445605499999989 ], [ -52.1837333, -29.4484209 ], [ -52.1854313, -29.450486800000014 ], [ -52.1832565, -29.4527653 ], [ -52.1816516, -29.453464 ], [ -52.1783372, -29.455985500000011 ], [ -52.1748948, -29.4557121 ], [ -52.1720267, -29.4543201 ], [ -52.1719721, -29.4543615 ], [ -52.1712506, -29.4547842 ], [ -52.1711406, -29.4548636 ], [ -52.1710601, -29.4549664 ], [ -52.1709904, -29.4550762 ], [ -52.1709368, -29.4551906 ], [ -52.1708536, -29.4554055 ], [ -52.1708241, -29.455529299999984 ], [ -52.1707463, -29.4556344 ], [ -52.1706551, -29.4557301 ], [ -52.1703762, -29.4559076 ], [ -52.169829, -29.4562066 ], [ -52.1694428, -29.4564214 ], [ -52.1688688, -29.4568301 ], [ -52.1685496, -29.4571384 ], [ -52.1680051, -29.4576872 ], [ -52.1676618, -29.458103 ], [ -52.1673292, -29.4586751 ], [ -52.1672568, -29.4587802 ], [ -52.167179, -29.4588853 ], [ -52.166892, -29.45919360000001 ], [ -52.1667606, -29.4592613 ], [ -52.1663046, -29.4595042 ], [ -52.16528, -29.4599596 ], [ -52.1651486, -29.4600063 ], [ -52.1646363, -29.4602796 ], [ -52.1645156, -29.4603473 ], [ -52.1643922, -29.4604103 ], [ -52.1642768, -29.4604827 ], [ -52.1641454, -29.4605598 ], [ -52.1632683, -29.4613375 ], [ -52.1625173, -29.461961 ], [ -52.1624154, -29.4620498 ], [ -52.162343, -29.4621549 ], [ -52.1622759, -29.462267 ], [ -52.1620023, -29.4628835 ], [ -52.161938, -29.463000300000012 ], [ -52.1618092, -29.463054 ], [ -52.1616671, -29.4630703 ], [ -52.1615115, -29.4630703 ], [ -52.161364, -29.4630563 ], [ -52.1612164, -29.46304 ], [ -52.1610743, -29.46304 ], [ -52.1609321, -29.4630446 ], [ -52.1607068, -29.463086700000012 ], [ -52.160562, -29.463124 ], [ -52.1601194, -29.4632618 ], [ -52.1596339, -29.4634066 ], [ -52.1595052, -29.463467300000012 ], [ -52.1594033, -29.4635701 ], [ -52.1593255, -29.4636728 ], [ -52.1592155, -29.463756899999986 ], [ -52.1590948, -29.463834 ], [ -52.1589983, -29.4639227 ], [ -52.1589285, -29.4640325 ], [ -52.1588776, -29.4641492 ], [ -52.1631837, -29.4682579 ], [ -52.158904, -29.4700298 ], [ -52.1562408, -29.4714371 ], [ -52.1513099, -29.4735127 ], [ -52.1453206, -29.476793 ], [ -52.140768, -29.4786982 ], [ -52.1411337, -29.4790643 ] ] ] } },
{ "type": "Feature", "properties": { "name": "Linha Serrana", "code_muni": 4316758.0, "name_muni": "Santa Clara do Sul" }, "geometry": { "type": "Polygon", "coordinates": [ [ [ -52.223757045923456, -29.420935108177762 ], [ -52.223747108999895, -29.420915385999901 ], [ -52.212940803799825, -29.422596477633856 ], [ -52.2114826, -29.4228261 ], [ -52.2113189, -29.4326011 ], [ -52.2080626, -29.4335329 ], [ -52.205946, -29.4333709 ], [ -52.2032247, -29.4324391 ], [ -52.2032584, -29.4337823 ], [ -52.2025827, -29.4334004 ], [ -52.2015043, -29.4329951 ], [ -52.2010926, -29.4327456 ], [ -52.2003677, -29.4323169 ], [ -52.1999963, -29.4321844 ], [ -52.1995041, -29.4321338 ], [ -52.1992087, -29.432087 ], [ -52.1990253, -29.4321338 ], [ -52.1987523, -29.4321494 ], [ -52.19859120000001, -29.4320909 ], [ -52.1982153, -29.4316193 ], [ -52.1979426, -29.4314905 ], [ -52.1976192, -29.436217 ], [ -52.1944203, -29.4373674 ], [ -52.1965027, -29.4420001 ], [ -52.200922, -29.4402176 ], [ -52.2035968, -29.4509931 ], [ -52.209714, -29.4514387 ], [ -52.2128308, -29.4495753 ], [ -52.2150404, -29.4494943 ], [ -52.2147613, -29.4423444 ], [ -52.22230521568941, -29.441946130785858 ], [ -52.22479886740674, -29.439791421695141 ], [ -52.2253102, -29.4391461 ], [ -52.2258251763689, -29.438904571569999 ], [ -52.226230922592187, -29.438553953388602 ], [ -52.2264972, -29.4381688 ], [ -52.227177, -29.4376187 ], [ -52.227366464188286, -29.43727395045866 ], [ -52.227296462034509, -29.436576740358976 ], [ -52.227141, -29.4364759 ], [ -52.2267908, -29.4363448 ], [ -52.2265701, -29.4359309 ], [ -52.2265727, -29.435475 ], [ -52.2266603, -29.435172 ], [ -52.2266493, -29.4348152 ], [ -52.226590745174143, -29.434469620558907 ], [ -52.226447368589305, -29.434353728782963 ], [ -52.2263869, -29.4343222 ], [ -52.2260733, -29.4342699 ], [ -52.225674, -29.4341168 ], [ -52.2254842, -29.4338885 ], [ -52.225551453044531, -29.433629547530916 ], [ -52.225183234, -29.433331906 ], [ -52.225160217479669, -29.432952124564657 ], [ -52.2250881, -29.4328044 ], [ -52.2250156, -29.4325785 ], [ -52.225109206444301, -29.432110409542144 ], [ -52.225036201886034, -29.430905755242339 ], [ -52.2250278, -29.4308631 ], [ -52.225031619068126, -29.430830132527365 ], [ -52.224847853080199, -29.427797622194184 ], [ -52.2246529, -29.4276351 ], [ -52.2245568, -29.427298 ], [ -52.2245731, -29.4268538 ], [ -52.2246803, -29.426577399999989 ], [ -52.2246617, -29.4259851 ], [ -52.224730506756273, -29.42586104591042 ], [ -52.224524308, -29.422457895 ], [ -52.224160063194809, -29.421734984003248 ], [ -52.22415560000001, -29.4217336 ], [ -52.2238905, -29.4216935 ], [ -52.2234217, -29.421754 ], [ -52.223757045923456, -29.420935108177762 ] ] ] } },
{ "type": "Feature", "properties": { "name": "Alto Arroio Alegre", "code_muni": 4316758.0, "name_muni": "Santa Clara do Sul" }, "geometry": { "type": "Polygon", "coordinates": [ [ [ -52.2083012, -29.4235266 ], [ -52.2078047, -29.4236399 ], [ -52.2071381, -29.423543 ], [ -52.206694112122157, -29.42356782633248 ], [ -52.206213878, -29.423642489 ], [ -52.205394838592163, -29.423973642672383 ], [ -52.2053772, -29.4239843 ], [ -52.2049838, -29.424150599999987 ], [ -52.204941864761714, -29.424156785809476 ], [ -52.204011533042703, -29.424532924051523 ], [ -52.2036427, -29.4247989 ], [ -52.2032387, -29.4252036 ], [ -52.20290150000001, -29.4254067 ], [ -52.2026383, -29.425438 ], [ -52.201857685764672, -29.425403701174709 ], [ -52.201807534999894, -29.425423975999902 ], [ -52.200479287843848, -29.425343125530357 ], [ -52.17, -29.424 ], [ -52.1656244, -29.4251694 ], [ -52.1728945, -29.4354776 ], [ -52.1791164, -29.4433724 ], [ -52.1851231, -29.4399847 ], [ -52.1861, -29.4398378 ], [ -52.1865477, -29.4400859 ], [ -52.1866007, -29.4401793 ], [ -52.1944203, -29.4373674 ], [ -52.1976192, -29.436217 ], [ -52.1979426, -29.4314905 ], [ -52.1982153, -29.4316193 ], [ -52.19859120000001, -29.4320909 ], [ -52.1987523, -29.4321494 ], [ -52.1990253, -29.4321338 ], [ -52.1992087, -29.432087 ], [ -52.1995041, -29.4321338 ], [ -52.1999963, -29.4321844 ], [ -52.2003677, -29.4323169 ], [ -52.2010926, -29.4327456 ], [ -52.2015043, -29.4329951 ], [ -52.2025827, -29.4334004 ], [ -52.2032584, -29.4337823 ], [ -52.2032247, -29.4324391 ], [ -52.205946, -29.4333709 ], [ -52.2080626, -29.4335329 ], [ -52.2113189, -29.4326011 ], [ -52.2114826, -29.4228261 ], [ -52.2089373, -29.4232478 ], [ -52.2083012, -29.4235266 ] ] ] } },
{ "type": "Feature", "properties": { "name": "Picada Stump", "code_muni": 4316758.0, "name_muni": "Santa Clara do Sul" }, "geometry": { "type": "Polygon", "coordinates": [ [ [ -52.1242886, -29.431623 ], [ -52.118, -29.429 ], [ -52.1134973946996, -29.43031019977083 ], [ -52.111750297999897, -29.432118418 ], [ -52.110805514393988, -29.432327262748469 ], [ -52.11, -29.433 ], [ -52.109036380543444, -29.432718310209125 ], [ -52.102620226999896, -29.4341363089999 ], [ -52.100751100999084, -29.43329233494882 ], [ -52.09996490000001, -29.4335222 ], [ -52.093821742437981, -29.43041559319348 ], [ -52.09181907359369, -29.43039087101117 ], [ -52.089412414741126, -29.43118740189632 ], [ -52.08605582, -29.432943275 ], [ -52.07749812415058, -29.431755289945141 ], [ -52.077287704469285, -29.431756725986666 ], [ -52.077500829968322, -29.433270939753104 ], [ -52.09446410000001, -29.4372501 ], [ -52.1053029, -29.4372703 ], [ -52.1105304, -29.4375489 ], [ -52.110449, -29.4385566 ], [ -52.1110015, -29.4399745 ], [ -52.1246779, -29.4396099 ], [ -52.1242886, -29.431623 ] ] ] } },
{ "type": "Feature", "properties": { "name": "Nova Santa Cruz", "code_muni": 4316758.0, "name_muni": "Santa Clara do Sul" }, "geometry": { "type": "Polygon", "coordinates": [ [ [ -52.070507, -29.4493931 ], [ -52.0771126, -29.4495551 ], [ -52.077481, -29.4542835 ], [ -52.077718, -29.4542691 ], [ -52.0779109, -29.4541491 ], [ -52.0780708, -29.4540819 ], [ -52.0781755, -29.4539523 ], [ -52.0784621, -29.4540291 ], [ -52.0787102, -29.4540099 ], [ -52.0787598, -29.4539811 ], [ -52.0789196, -29.4538275 ], [ -52.0791015, -29.4538083 ], [ -52.0791622, -29.4536068 ], [ -52.0793771, -29.4534388 ], [ -52.0802646, -29.4533188 ], [ -52.0807276, -29.4533524 ], [ -52.0817143, -29.4532036 ], [ -52.0826293, -29.4528532 ], [ -52.0826899, -29.4528436 ], [ -52.0827561, -29.452834 ], [ -52.0832632, -29.452781199999986 ], [ -52.0835046, -29.4527803 ], [ -52.0836952, -29.4527812 ], [ -52.0844758, -29.4527812 ], [ -52.0851097, -29.4528724 ], [ -52.0862562, -29.4528292 ], [ -52.0868019, -29.4526948 ], [ -52.0876122, -29.4527092 ], [ -52.0878327, -29.452642 ], [ -52.0883068, -29.4525172 ], [ -52.0886537, -29.4526005 ], [ -52.0886922, -29.4526098 ], [ -52.0887253, -29.45262 ], [ -52.0891391, -29.4527476 ], [ -52.0898501, -29.452738 ], [ -52.0917022, -29.4517013 ], [ -52.0921542, -29.4510869 ], [ -52.09281570000001, -29.4508757 ], [ -52.0945134, -29.4516917 ], [ -52.0947339, -29.4520276 ], [ -52.0928708, -29.4550323 ], [ -52.0929149, -29.4555122 ], [ -52.0933448, -29.4559154 ], [ -52.0944142, -29.456165 ], [ -52.097953, -29.456126600000012 ], [ -52.097964, -29.460801199999988 ], [ -52.0990499, -29.4607916 ], [ -52.102412200000011, -29.4607772 ], [ -52.1024233, -29.4604653 ], [ -52.1034099, -29.4596494 ], [ -52.1040218, -29.4597358 ], [ -52.1046061, -29.4596158 ], [ -52.1056148, -29.458651099999987 ], [ -52.1195376, -29.459074 ], [ -52.1352493, -29.4585981 ], [ -52.1353888, -29.4508817 ], [ -52.1351679, -29.4394276 ], [ -52.1246779, -29.4396099 ], [ -52.1110015, -29.4399745 ], [ -52.110449, -29.4385566 ], [ -52.1105304, -29.4375489 ], [ -52.1053029, -29.4372703 ], [ -52.09446410000001, -29.4372501 ], [ -52.077500829968322, -29.433270939753104 ], [ -52.07858192, -29.440951081 ], [ -52.070061681622654, -29.441934578812862 ], [ -52.070507, -29.4493931 ] ] ] } },
{ "type": "Feature", "properties": { "name": "Rua das Flores", "code_muni": 4316758.0, "name_muni": "Santa Clara do Sul" }, "geometry": { "type": "Polygon", "coordinates": [ [ [ -52.041792119353602, -29.448085231861231 ], [ -52.04186293267913, -29.450940969161493 ], [ -52.0456079, -29.4512159 ], [ -52.0542487, -29.4546185 ], [ -52.054272, -29.4549121 ], [ -52.0574003, -29.4567248 ], [ -52.0621685, -29.458112 ], [ -52.0632268, -29.4585171 ], [ -52.0643432, -29.4591145 ], [ -52.0651689, -29.4597525 ], [ -52.0660915, -29.4600677 ], [ -52.0663333, -29.4564611 ], [ -52.0666927, -29.4566666 ], [ -52.066859, -29.4567974 ], [ -52.0677656, -29.4572645 ], [ -52.0701474, -29.4580773 ], [ -52.0704317, -29.4581333 ], [ -52.0711613, -29.458166 ], [ -52.0718421, -29.4573025 ], [ -52.0719248, -29.4568849 ], [ -52.071809, -29.4565729 ], [ -52.072017, -29.4564206 ], [ -52.0720718, -29.4563804 ], [ -52.072261, -29.4562418 ], [ -52.0729776, -29.4559538 ], [ -52.0733303, -29.455901 ], [ -52.0734737, -29.4557186 ], [ -52.0737052, -29.4556658 ], [ -52.0742564, -29.4553346 ], [ -52.0759817, -29.454921899999984 ], [ -52.077481, -29.4542835 ], [ -52.0771126, -29.4495551 ], [ -52.070507, -29.4493931 ], [ -52.070061681622654, -29.441934578812862 ], [ -52.042123320118947, -29.44515558121644 ], [ -52.041792119353602, -29.448085231861231 ] ] ] } },
{ "type": "Feature", "properties": { "name": "São Bento", "code_muni": 4316758.0, "name_muni": "Santa Clara do Sul" }, "geometry": { "type": "Polygon", "coordinates": [ [ [ -52.0612963, -29.4649267 ], [ -52.0446542, -29.4583854 ], [ -52.0446891, -29.4577475 ], [ -52.0444565, -29.457069 ], [ -52.0442317, -29.457127 ], [ -52.0442887, -29.4574262 ], [ -52.0443836, -29.4582306 ], [ -52.044285116395983, -29.459015482032111 ], [ -52.046711462732418, -29.46679938234605 ], [ -52.0470337, -29.467597 ], [ -52.0472331, -29.4683751 ], [ -52.0477306, -29.4691213 ], [ -52.0612614, -29.465757 ], [ -52.0612963, -29.4649267 ] ] ] } },
{ "type": "Feature", "properties": { "name": "Chapadão", "code_muni": 4316758.0, "name_muni": "Santa Clara do Sul" }, "geometry": { "type": "Polygon", "coordinates": [ [ [ -52.1619277, -29.4405923 ], [ -52.1666843, -29.4376653 ], [ -52.1677658, -29.4382325 ], [ -52.1686148, -29.4392048 ], [ -52.1695452, -29.439518800000013 ], [ -52.169708, -29.4399543 ], [ -52.1704058, -29.439772 ], [ -52.1705802, -29.4392757 ], [ -52.1713129, -29.4382831 ], [ -52.1718944, -29.436136 ], [ -52.1728945, -29.4354776 ], [ -52.1656244, -29.4251694 ], [ -52.1625441, -29.4259926 ], [ -52.156, -29.43 ], [ -52.153629020715144, -29.429901736083554 ], [ -52.138988286999989, -29.429645616999888 ], [ -52.139014838, -29.432334367999911 ], [ -52.132083463241877, -29.427363874968442 ], [ -52.1315539, -29.4273008 ], [ -52.1304596, -29.4262075 ], [ -52.1286142, -29.4249273 ], [ -52.128059770079631, -29.424478085907417 ], [ -52.127675707, -29.424202620999893 ], [ -52.128292931544244, -29.431625034479662 ], [ -52.1284129, -29.4317655 ], [ -52.1284256, -29.4325846 ], [ -52.128372195229353, -29.43257812180315 ], [ -52.12837488799989, -29.4326105 ], [ -52.128275907834926, -29.43256442635024 ], [ -52.1274019, -29.4323594 ], [ -52.1268954, -29.4322193 ], [ -52.12627, -29.4320515 ], [ -52.1261276, -29.4320308 ], [ -52.1259561, -29.4320308 ], [ -52.1258004, -29.4320837 ], [ -52.1256105, -29.4321744 ], [ -52.1242886, -29.431623 ], [ -52.1246779, -29.4396099 ], [ -52.1351679, -29.4394276 ], [ -52.1353888, -29.4508817 ], [ -52.141727, -29.4513273 ], [ -52.1453206, -29.4424255 ], [ -52.1515541, -29.4479955 ], [ -52.1596367, -29.4384452 ], [ -52.1619277, -29.4405923 ] ] ] } },
{ "type": "Feature", "properties": { "name": "Sampainho", "code_muni": 4316758.0, "name_muni": "Santa Clara do Sul" }, "geometry": { "type": "Polygon", "coordinates": [ [ [ -52.140768, -29.4786982 ], [ -52.1453206, -29.476793 ], [ -52.1513099, -29.4735127 ], [ -52.1562408, -29.4714371 ], [ -52.158904, -29.4700298 ], [ -52.1631837, -29.4682579 ], [ -52.1588776, -29.4641492 ], [ -52.1589285, -29.4640325 ], [ -52.1589983, -29.4639227 ], [ -52.1590948, -29.463834 ], [ -52.1592155, -29.463756899999986 ], [ -52.1593255, -29.4636728 ], [ -52.1594033, -29.4635701 ], [ -52.1595052, -29.463467300000012 ], [ -52.1596339, -29.4634066 ], [ -52.1601194, -29.4632618 ], [ -52.160562, -29.463124 ], [ -52.1607068, -29.463086700000012 ], [ -52.1609321, -29.4630446 ], [ -52.1610743, -29.46304 ], [ -52.1612164, -29.46304 ], [ -52.161364, -29.4630563 ], [ -52.1615115, -29.4630703 ], [ -52.1616671, -29.4630703 ], [ -52.1618092, -29.463054 ], [ -52.161938, -29.463000300000012 ], [ -52.1620023, -29.4628835 ], [ -52.1622759, -29.462267 ], [ -52.162343, -29.4621549 ], [ -52.1624154, -29.4620498 ], [ -52.1625173, -29.461961 ], [ -52.1632683, -29.4613375 ], [ -52.1641454, -29.4605598 ], [ -52.1642768, -29.4604827 ], [ -52.1643922, -29.4604103 ], [ -52.1645156, -29.4603473 ], [ -52.1646363, -29.4602796 ], [ -52.1651486, -29.4600063 ], [ -52.16528, -29.4599596 ], [ -52.1663046, -29.4595042 ], [ -52.1667606, -29.4592613 ], [ -52.166892, -29.45919360000001 ], [ -52.167179, -29.4588853 ], [ -52.1672568, -29.4587802 ], [ -52.1673292, -29.4586751 ], [ -52.1676618, -29.458103 ], [ -52.1680051, -29.4576872 ], [ -52.1685496, -29.4571384 ], [ -52.1688688, -29.4568301 ], [ -52.1694428, -29.4564214 ], [ -52.169829, -29.4562066 ], [ -52.1703762, -29.4559076 ], [ -52.1706551, -29.4557301 ], [ -52.1707463, -29.4556344 ], [ -52.1708241, -29.455529299999984 ], [ -52.1708536, -29.4554055 ], [ -52.1709368, -29.4551906 ], [ -52.1709904, -29.4550762 ], [ -52.1710601, -29.4549664 ], [ -52.1711406, -29.4548636 ], [ -52.1712506, -29.4547842 ], [ -52.1719721, -29.4543615 ], [ -52.1720267, -29.4543201 ], [ -52.1748948, -29.4557121 ], [ -52.1783372, -29.455985500000011 ], [ -52.1816516, -29.453464 ], [ -52.1832565, -29.4527653 ], [ -52.1854313, -29.450486800000014 ], [ -52.1837333, -29.4484209 ], [ -52.1896761, -29.445605499999989 ], [ -52.1866007, -29.4401793 ], [ -52.1865477, -29.4400859 ], [ -52.1861, -29.4398378 ], [ -52.1851231, -29.4399847 ], [ -52.1791164, -29.4433724 ], [ -52.1728945, -29.4354776 ], [ -52.1718944, -29.436136 ], [ -52.1713129, -29.4382831 ], [ -52.1705802, -29.4392757 ], [ -52.1704058, -29.439772 ], [ -52.169708, -29.4399543 ], [ -52.1695452, -29.439518800000013 ], [ -52.1686148, -29.4392048 ], [ -52.1677658, -29.4382325 ], [ -52.1666843, -29.4376653 ], [ -52.1619277, -29.4405923 ], [ -52.1596367, -29.4384452 ], [ -52.1515541, -29.4479955 ], [ -52.1453206, -29.4424255 ], [ -52.141727, -29.4513273 ], [ -52.1353888, -29.4508817 ], [ -52.1352493, -29.4585981 ], [ -52.1349944, -29.469329 ], [ -52.1351447, -29.4693511 ], [ -52.13551180000001, -29.4694626 ], [ -52.1356811, -29.4695536 ], [ -52.1359706, -29.4697657 ], [ -52.1360212, -29.4698042 ], [ -52.1361304, -29.4698387 ], [ -52.1360866, -29.4707689 ], [ -52.1367379, -29.4708195 ], [ -52.1370868, -29.4749403 ], [ -52.1348771, -29.4747884 ], [ -52.1349004, -29.4787113 ], [ -52.140768, -29.4786982 ] ] ] } },
{ "type": "Feature", "properties": { "name": "Picada Santa Clara", "code_muni": 4316758.0, "name_muni": "Santa Clara do Sul" }, "geometry": { "type": "Polygon", "coordinates": [ [ [ -52.1348771, -29.4747884 ], [ -52.1370868, -29.4749403 ], [ -52.1367379, -29.4708195 ], [ -52.1360866, -29.4707689 ], [ -52.1361304, -29.4698387 ], [ -52.1360212, -29.4698042 ], [ -52.1359706, -29.4697657 ], [ -52.1356811, -29.4695536 ], [ -52.13551180000001, -29.4694626 ], [ -52.1351447, -29.4693511 ], [ -52.1349944, -29.469329 ], [ -52.1352493, -29.4585981 ], [ -52.1195376, -29.459074 ], [ -52.1056148, -29.458651099999987 ], [ -52.1089276, -29.4617179 ], [ -52.1096386, -29.4641607 ], [ -52.1094402, -29.4661572 ], [ -52.1093299, -29.467237 ], [ -52.1087457, -29.4687919 ], [ -52.1086464, -29.4696653 ], [ -52.1106639, -29.47003 ], [ -52.1124884, -29.4706538 ], [ -52.1122955, -29.471604 ], [ -52.1122899, -29.4721175 ], [ -52.1121742, -29.4723142 ], [ -52.11186, -29.472583 ], [ -52.1117828, -29.4727221 ], [ -52.1118104, -29.4728757 ], [ -52.1117663, -29.4729669 ], [ -52.1117001, -29.4729621 ], [ -52.1116285, -29.4730629 ], [ -52.1117277, -29.473394 ], [ -52.1116836, -29.4735811 ], [ -52.111634, -29.473629099999989 ], [ -52.1116175, -29.4737875 ], [ -52.1117222, -29.4739458 ], [ -52.111849, -29.4740226 ], [ -52.1118931, -29.4742385 ], [ -52.1119923, -29.4745265 ], [ -52.1123506, -29.4748432 ], [ -52.1091646, -29.4739842 ], [ -52.1090764, -29.4787686 ], [ -52.109111434464218, -29.478768523903256 ], [ -52.109111508999902, -29.478759908999987 ], [ -52.118031740900712, -29.478748848279221 ], [ -52.1210303, -29.4787421 ], [ -52.1349004, -29.4787113 ], [ -52.1348771, -29.4747884 ] ] ] } },
{ "type": "Feature", "properties": { "name": "São Bento", "code_muni": 4316758.0, "name_muni": "Santa Clara do Sul" }, "geometry": { "type": "Polygon", "coordinates": [ [ [ -52.0663339, -29.4644728 ], [ -52.0658156, -29.4638552 ], [ -52.0657739, -29.4638121 ], [ -52.0658129, -29.4636915 ], [ -52.0658505, -29.463563099999988 ], [ -52.0658988, -29.4626967 ], [ -52.0659846, -29.461575700000012 ], [ -52.0660436, -29.4607817 ], [ -52.0660915, -29.4600677 ], [ -52.0651689, -29.4597525 ], [ -52.0643432, -29.4591145 ], [ -52.0632268, -29.4585171 ], [ -52.0621685, -29.458112 ], [ -52.0574003, -29.4567248 ], [ -52.054272, -29.4549121 ], [ -52.0542487, -29.4546185 ], [ -52.0456079, -29.4512159 ], [ -52.04186293267913, -29.450940969161493 ], [ -52.0418709645962, -29.45126486102339 ], [ -52.0423596, -29.4516972 ], [ -52.0427263, -29.4521347 ], [ -52.0430022, -29.452583900000011 ], [ -52.0431013, -29.4529007 ], [ -52.0431959, -29.4531421 ], [ -52.0432268, -29.4536574 ], [ -52.0431805, -29.4541918 ], [ -52.043228, -29.4547202 ], [ -52.0435868, -29.4552256 ], [ -52.0438603, -29.4557535 ], [ -52.0441145, -29.4565122 ], [ -52.0442317, -29.457127 ], [ -52.0444565, -29.457069 ], [ -52.0446891, -29.4577475 ], [ -52.0446542, -29.4583854 ], [ -52.0612963, -29.4649267 ], [ -52.0612614, -29.465757 ], [ -52.0626975, -29.4653893 ], [ -52.0663339, -29.4644728 ] ] ] } },
{ "type": "Feature", "properties": { "name": "Linha Alto Arroio Alegre", "code_muni": 4316758.0, "name_muni": "Santa Clara do Sul" }, "geometry": { "type": "MultiPolygon", "coordinates": [ [ [ [ -52.2023852, -29.4253486 ], [ -52.2026383, -29.425438 ], [ -52.20290150000001, -29.4254067 ], [ -52.2032387, -29.4252036 ], [ -52.2036427, -29.4247989 ], [ -52.204011533042703, -29.424532924051523 ], [ -52.202270415227964, -29.425236842931817 ], [ -52.2023852, -29.4253486 ] ] ], [ [ [ -52.2049838, -29.424150599999987 ], [ -52.2053772, -29.4239843 ], [ -52.205394838592163, -29.423973642672383 ], [ -52.204941864761714, -29.424156785809476 ], [ -52.2049838, -29.424150599999987 ] ] ], [ [ [ -52.2071381, -29.423543 ], [ -52.2078047, -29.4236399 ], [ -52.2083012, -29.4235266 ], [ -52.2089373, -29.4232478 ], [ -52.2114826, -29.4228261 ], [ -52.212940803799825, -29.422596477633856 ], [ -52.206694112122157, -29.42356782633248 ], [ -52.2071381, -29.423543 ] ] ] ] } },
{ "type": "Feature", "properties": { "name": "Linha Lavador", "code_muni": 4316758.0, "name_muni": "Santa Clara do Sul" }, "geometry": { "type": "MultiPolygon", "coordinates": [ [ [ [ -52.2234217, -29.421754 ], [ -52.2238905, -29.4216935 ], [ -52.22415560000001, -29.4217336 ], [ -52.224160063194809, -29.421734984003248 ], [ -52.223757045923456, -29.420935108177762 ], [ -52.2234217, -29.421754 ] ] ], [ [ [ -52.2246617, -29.4259851 ], [ -52.2246803, -29.426577399999989 ], [ -52.2245731, -29.4268538 ], [ -52.2245568, -29.427298 ], [ -52.2246529, -29.4276351 ], [ -52.224847853080199, -29.427797622194184 ], [ -52.224730506756273, -29.42586104591042 ], [ -52.2246617, -29.4259851 ] ] ], [ [ [ -52.2250278, -29.4308631 ], [ -52.225036201886034, -29.430905755242339 ], [ -52.225031619068126, -29.430830132527365 ], [ -52.2250278, -29.4308631 ] ] ], [ [ [ -52.2250156, -29.4325785 ], [ -52.2250881, -29.4328044 ], [ -52.225160217479669, -29.432952124564657 ], [ -52.225109206444301, -29.432110409542144 ], [ -52.2250156, -29.4325785 ] ] ], [ [ [ -52.2254842, -29.4338885 ], [ -52.225674, -29.4341168 ], [ -52.2260733, -29.4342699 ], [ -52.2263869, -29.4343222 ], [ -52.226447368589305, -29.434353728782963 ], [ -52.225551453044531, -29.433629547530916 ], [ -52.2254842, -29.4338885 ] ] ], [ [ [ -52.2266493, -29.4348152 ], [ -52.2266603, -29.435172 ], [ -52.2265727, -29.435475 ], [ -52.2265701, -29.4359309 ], [ -52.2267908, -29.4363448 ], [ -52.227141, -29.4364759 ], [ -52.227296462034509, -29.436576740358976 ], [ -52.227128551, -29.434904327 ], [ -52.226590745174143, -29.434469620558907 ], [ -52.2266493, -29.4348152 ] ] ], [ [ [ -52.227177, -29.4376187 ], [ -52.2264972, -29.4381688 ], [ -52.226230922592187, -29.438553953388602 ], [ -52.227394063, -29.437548826999897 ], [ -52.227366464188286, -29.43727395045866 ], [ -52.227177, -29.4376187 ] ] ], [ [ [ -52.2253102, -29.4391461 ], [ -52.22479886740674, -29.439791421695141 ], [ -52.2258251763689, -29.438904571569999 ], [ -52.2253102, -29.4391461 ] ] ], [ [ [ -52.2204425, -29.4447664 ], [ -52.2202902, -29.4449176 ], [ -52.2202306, -29.4450127 ], [ -52.2201834, -29.4451291 ], [ -52.2201764, -29.4452465 ], [ -52.2201971, -29.4453987 ], [ -52.2202419, -29.4456481 ], [ -52.2202875, -29.4457799 ], [ -52.22029284477123, -29.445787400257288 ], [ -52.220469878693294, -29.444754307014506 ], [ -52.2204425, -29.4447664 ] ] ], [ [ [ -52.2199363, -29.4468751 ], [ -52.2197641, -29.4468812 ], [ -52.2196581, -29.446923699999989 ], [ -52.2195877, -29.4470134 ], [ -52.2195334, -29.4471287 ], [ -52.2194385, -29.4472999 ], [ -52.219442731380298, -29.447313595470469 ], [ -52.219998945126115, -29.446851681948107 ], [ -52.2199363, -29.4468751 ] ] ] ] } },
{ "type": "Feature", "properties": { "name": "Linha Sampaio", "code_muni": 4316758.0, "name_muni": "Santa Clara do Sul" }, "geometry": { "type": "MultiPolygon", "coordinates": [ [ [ [ -52.2183558, -29.4480962 ], [ -52.218097, -29.4481339 ], [ -52.2178574, -29.448296 ], [ -52.2177235, -29.4485219 ], [ -52.2176875, -29.4487193 ], [ -52.217749, -29.4489025 ], [ -52.217808231910773, -29.448976491543284 ], [ -52.217780070999893, -29.448694330999984 ], [ -52.218492819341641, -29.448102445054413 ], [ -52.2183558, -29.4480962 ] ] ], [ [ [ -52.2177926, -29.4505143 ], [ -52.2176706, -29.4506605 ], [ -52.2176746, -29.450824499999989 ], [ -52.2177856, -29.4509957 ], [ -52.2180185, -29.4512237 ], [ -52.218033880780162, -29.451237331055189 ], [ -52.217953529754148, -29.450432285326087 ], [ -52.2177926, -29.4505143 ] ] ], [ [ [ -52.2180642, -29.4530109 ], [ -52.2178451, -29.453278699999988 ], [ -52.2174152, -29.453619299999989 ], [ -52.2173023, -29.453659099999989 ], [ -52.2172365, -29.453742699999985 ], [ -52.2172283, -29.4538224 ], [ -52.217264, -29.4539179 ], [ -52.2173368, -29.4539974 ], [ -52.2174661, -29.4541074 ], [ -52.2176035, -29.4542138 ], [ -52.2179877, -29.454391 ], [ -52.218423917117981, -29.455144930842177 ], [ -52.218192903075703, -29.452830547827162 ], [ -52.2180642, -29.4530109 ] ] ] ] } }
]
}
