{
"type": "FeatureCollection",
"name": "bairros_mato_castelhano",
"crs": { "type": "name", "properties": { "name": "urn:ogc:def:crs:OGC:1.3:CRS84" } },
"features": [
{ "type": "Feature", "properties": { "code_muni": 4312138.0, "name_muni": "Mato Castelhano", "code_state": 43.0, "abbrev_state": "RS", "name_state": "Rio Grande do Sul", "code_region": 4.0, "name_region": "Sul", "year": 2022.0 }, "geometry": { "type": "Polygon", "coordinates": [ [ [ -52.153959947, -28.23988279 ], [ -52.14475573, -28.241439621 ], [ -52.13711992399989, -28.248930718999905 ], [ -52.130139215, -28.242091388999896 ], [ -52.129887013, -28.238341185 ], [ -52.128294276, -28.236309621 ], [ -52.1281365, -28.238436511 ], [ -52.125339322999892, -28.239807835 ], [ -52.124780116, -28.242062398 ], [ -52.128220675, -28.245515461 ], [ -52.127080276999891, -28.246997107 ], [ -52.129038396999896, -28.247673536 ], [ -52.128539959, -28.253438043 ], [ -52.129732362, -28.254517625999895 ], [ -52.12583296, -28.263222900999907 ], [ -52.115058008999895, -28.273318334 ], [ -52.114685503, -28.276276505999896 ], [ -52.1161577, -28.279185852 ], [ -52.110518047, -28.281741321 ], [ -52.102956779, -28.277508468 ], [ -52.100691686999895, -28.277692070999901 ], [ -52.096478808, -28.2838478799999 ], [ -52.097431151, -28.287158287 ], [ -52.092231732, -28.307089211999902 ], [ -52.073562985, -28.305198130999898 ], [ -52.0719231859999, -28.310316079 ], [ -52.068779263, -28.311006695999897 ], [ -52.069286593, -28.313337475 ], [ -52.064638379, -28.314690065 ], [ -52.062216976999892, -28.321681043 ], [ -52.064350079, -28.325256344 ], [ -52.062540780999903, -28.326660666 ], [ -52.067090107999903, -28.32664213499989 ], [ -52.066592495999899, -28.327758516 ], [ -52.068663356999899, -28.329293456 ], [ -52.06635059, -28.3309444779999 ], [ -52.071254175, -28.333890464 ], [ -52.071959675999892, -28.336900621 ], [ -52.070645911, -28.336507707999903 ], [ -52.068473008, -28.339064927 ], [ -52.073547764999901, -28.340688165999904 ], [ -52.077065553999894, -28.339624659 ], [ -52.07753371, -28.34257101 ], [ -52.07925864, -28.343984444999897 ], [ -52.082086104, -28.341718591 ], [ -52.083007836, -28.344805707 ], [ -52.08610881300001, -28.342525598999899 ], [ -52.0867079719999, -28.339568411999903 ], [ -52.089909714, -28.339862443999898 ], [ -52.0900664, -28.331176680999896 ], [ -52.095660348, -28.330809726 ], [ -52.094047599, -28.320874765999985 ], [ -52.095939057, -28.319236084999901 ], [ -52.094264305, -28.317378163999901 ], [ -52.098817556, -28.316643971 ], [ -52.099729669999903, -28.318498879999904 ], [ -52.10584147, -28.31900516 ], [ -52.109499005, -28.317503096999907 ], [ -52.111346317, -28.319118642 ], [ -52.115428051, -28.318747743 ], [ -52.11798278, -28.321649631999897 ], [ -52.119604380999903, -28.321097688999895 ], [ -52.122871345, -28.323176112999906 ], [ -52.123848032999902, -28.322647982 ], [ -52.127586537, -28.329179413 ], [ -52.127153812, -28.331133319999889 ], [ -52.129209398999905, -28.33282625 ], [ -52.13307299, -28.332195086 ], [ -52.133463079, -28.334080754999896 ], [ -52.136042077, -28.334003466999906 ], [ -52.136229828999895, -28.3368667989999 ], [ -52.13860578, -28.336178646999894 ], [ -52.139960806, -28.337780935 ], [ -52.142799023999892, -28.336235112999898 ], [ -52.143735159999892, -28.33776549 ], [ -52.147504249, -28.337775159999989 ], [ -52.147899482999897, -28.339432243 ], [ -52.151515299, -28.336780768 ], [ -52.15346344999989, -28.340046055999892 ], [ -52.158040445, -28.336989270999908 ], [ -52.161541134999894, -28.337330129 ], [ -52.162402680999897, -28.338562936999896 ], [ -52.161011293999898, -28.343798392999901 ], [ -52.163300492, -28.345189601 ], [ -52.165431719, -28.343191696 ], [ -52.167313379999896, -28.343805412999902 ], [ -52.166984528999897, -28.3409936259999 ], [ -52.168316144999899, -28.340312066 ], [ -52.170055733, -28.341962236 ], [ -52.171847410999902, -28.341299177999904 ], [ -52.17229939, -28.342822707 ], [ -52.176080247999899, -28.344998459999893 ], [ -52.179388144, -28.344959043 ], [ -52.182364637, -28.341651063 ], [ -52.188884161, -28.341756092 ], [ -52.193526799, -28.338893831 ], [ -52.19994836, -28.338226959999904 ], [ -52.214304108, -28.346748005999896 ], [ -52.213606501999898, -28.352360775 ], [ -52.215763431, -28.352628715 ], [ -52.236969056, -28.341421829999899 ], [ -52.243863761999904, -28.33098418 ], [ -52.246501726, -28.329078137 ], [ -52.258006011, -28.329216689 ], [ -52.279158863, -28.323922658999901 ], [ -52.305087484999902, -28.301670008999988 ], [ -52.301658274, -28.29786396 ], [ -52.301127570999903, -28.293546568999894 ], [ -52.29713708100001, -28.291138584 ], [ -52.294975641999898, -28.280985336 ], [ -52.292038811999895, -28.278073848 ], [ -52.289246654, -28.278633418 ], [ -52.287338953, -28.276271957999896 ], [ -52.286599373999898, -28.27330129699989 ], [ -52.288503638, -28.270837970999896 ], [ -52.287173944, -28.268077586999901 ], [ -52.280720958, -28.266265503999907 ], [ -52.279318449, -28.263754474999907 ], [ -52.272341250999901, -28.263209117 ], [ -52.268237375999902, -28.254199352999905 ], [ -52.267794881, -28.2485711909999 ], [ -52.264312570999898, -28.249648453 ], [ -52.26761879, -28.245118579999897 ], [ -52.267025105999899, -28.24169798 ], [ -52.26841074, -28.238695112999885 ], [ -52.275470348999903, -28.228936378999901 ], [ -52.277155434, -28.228314353 ], [ -52.276562454, -28.226733024999902 ], [ -52.271049505999898, -28.223823258 ], [ -52.269024066, -28.217735413999904 ], [ -52.268606898, -28.210082744 ], [ -52.258526912, -28.197924085999908 ], [ -52.249242159999895, -28.193573673999907 ], [ -52.248770051, -28.190615995 ], [ -52.251088253, -28.189337377 ], [ -52.2494793279999, -28.187655392 ], [ -52.246724931, -28.187794274999895 ], [ -52.244737175, -28.185226852 ], [ -52.240363158, -28.1848463339999 ], [ -52.240242534999908, -28.181829241999893 ], [ -52.234907236, -28.179278908 ], [ -52.231546884999901, -28.172663639999897 ], [ -52.226846248999891, -28.173590426 ], [ -52.224924276, -28.171024947 ], [ -52.222482708, -28.172585284 ], [ -52.217058326, -28.170420239 ], [ -52.215129297, -28.172392636 ], [ -52.213109452, -28.172242437 ], [ -52.210752768, -28.175436246999901 ], [ -52.208504398999892, -28.17370203 ], [ -52.205805295999902, -28.174421294999899 ], [ -52.204036169999902, -28.176625293 ], [ -52.204895838, -28.180173302999897 ], [ -52.201519848, -28.182220974 ], [ -52.20213919, -28.184284979 ], [ -52.204539204, -28.187239715 ], [ -52.204969349999892, -28.184463966 ], [ -52.207337123999892, -28.184424899 ], [ -52.206858956, -28.187993714 ], [ -52.20862844, -28.185980895999901 ], [ -52.208913429999903, -28.187641201 ], [ -52.21537129, -28.187394727 ], [ -52.215360607, -28.189529589999893 ], [ -52.217298597, -28.189906916 ], [ -52.2159523179999, -28.190896440999893 ], [ -52.21672821, -28.192377974 ], [ -52.212673961, -28.192855387999895 ], [ -52.209817839, -28.196244991 ], [ -52.209824356, -28.198402649999899 ], [ -52.206951698999902, -28.198971904 ], [ -52.206196019999901, -28.201948052 ], [ -52.203684725, -28.202200863 ], [ -52.203856893, -28.203946040999902 ], [ -52.199444306, -28.203464719999896 ], [ -52.19720403, -28.208848458 ], [ -52.197967038999899, -28.211147460999896 ], [ -52.199543112999898, -28.211453837 ], [ -52.198979677999894, -28.213496592999899 ], [ -52.193525681, -28.216188504999899 ], [ -52.194316871, -28.222493506 ], [ -52.19127947, -28.225112241 ], [ -52.188749633, -28.224792754 ], [ -52.184314157, -28.227783363 ], [ -52.181057828, -28.228005413999902 ], [ -52.179523651, -28.229456222 ], [ -52.180957753, -28.233308241 ], [ -52.174650974, -28.239562471999896 ], [ -52.172849326999902, -28.238610418 ], [ -52.17390975699989, -28.2385361 ], [ -52.173297034, -28.236313895 ], [ -52.169431281999898, -28.233950970999988 ], [ -52.162673606999903, -28.236252654999902 ], [ -52.159387007, -28.239485822999907 ], [ -52.157914014, -28.239120754999899 ], [ -52.157929899, -28.237782191999905 ], [ -52.153870121, -28.237901646999902 ], [ -52.153959947, -28.23988279 ] ] ] } }
]
}
