{
"type": "FeatureCollection",
"name": "bairros_faxinalzinho",
"crs": { "type": "name", "properties": { "name": "urn:ogc:def:crs:OGC:1.3:CRS84" } },
"features": [
{ "type": "Feature", "properties": { "code_muni": 4308052.0, "name_muni": "Faxinalzinho", "code_state": 43.0, "abbrev_state": "RS", "name_state": "Rio Grande do Sul", "code_region": 4.0, "name_region": "Sul", "year": 2022.0 }, "geometry": { "type": "Polygon", "coordinates": [ [ [ -52.61344897299989, -27.394409102999898 ], [ -52.610597661, -27.397235597 ], [ -52.604095949999895, -27.39603111 ], [ -52.603554709, -27.397984569 ], [ -52.607523773, -27.398365301999895 ], [ -52.608314248999896, -27.400403346 ], [ -52.601334712, -27.40292493 ], [ -52.601293066, -27.404305016 ], [ -52.604022378, -27.403335323 ], [ -52.601594947, -27.408920548 ], [ -52.605545099, -27.408905052 ], [ -52.607298425999893, -27.410210137 ], [ -52.60412135, -27.413644073999901 ], [ -52.610428239, -27.417567952999903 ], [ -52.609116330999903, -27.420006397 ], [ -52.61092851, -27.422605910999895 ], [ -52.611011085, -27.428695381999894 ], [ -52.613386292, -27.428018848 ], [ -52.614082727, -27.430726326 ], [ -52.615879262999989, -27.430467169999897 ], [ -52.619647937, -27.432697839 ], [ -52.640110867, -27.427187869 ], [ -52.668585403, -27.429315727999899 ], [ -52.67230454, -27.426591507999891 ], [ -52.676413174999894, -27.430716342 ], [ -52.676465221999898, -27.436855486999896 ], [ -52.678329335999898, -27.436768511 ], [ -52.680516729, -27.440742116 ], [ -52.685003536999893, -27.442529663 ], [ -52.686911188, -27.44127601 ], [ -52.694856492, -27.443182191999895 ], [ -52.696242355, -27.444680605 ], [ -52.696985691, -27.442557387 ], [ -52.703557459, -27.441048153999898 ], [ -52.704625971, -27.438622374 ], [ -52.706507115, -27.438667205999895 ], [ -52.707765477, -27.436616307999891 ], [ -52.709500404, -27.437356377999905 ], [ -52.711603275999892, -27.435714504 ], [ -52.713958603, -27.436603345 ], [ -52.715447097, -27.434934869 ], [ -52.716063812, -27.436444959 ], [ -52.718604485, -27.436472208999895 ], [ -52.717610126, -27.435086425999899 ], [ -52.718584436, -27.433348076 ], [ -52.723813325, -27.433350294 ], [ -52.72601057899989, -27.432174914 ], [ -52.732078666999897, -27.424918721 ], [ -52.730581635, -27.421573753 ], [ -52.724466274999898, -27.418376991999903 ], [ -52.722563097, -27.415288093999902 ], [ -52.726007986, -27.407143722999905 ], [ -52.732677226, -27.400921633999896 ], [ -52.73275353, -27.393433081999898 ], [ -52.728970218, -27.392882546 ], [ -52.724803536, -27.396314844 ], [ -52.719384654999892, -27.398090599999897 ], [ -52.713890565, -27.396913976 ], [ -52.713212499999898, -27.393822708999892 ], [ -52.71603823200001, -27.38877321099989 ], [ -52.730909362, -27.383861661 ], [ -52.734226259, -27.379886379 ], [ -52.734583216, -27.375792173 ], [ -52.731452888, -27.374059277999894 ], [ -52.715537218, -27.375429647 ], [ -52.713516145, -27.374311111999905 ], [ -52.713179509, -27.371601957999896 ], [ -52.71406029, -27.369216223 ], [ -52.725416895, -27.363802662999895 ], [ -52.73410912299989, -27.355886241999901 ], [ -52.728520739, -27.336225268 ], [ -52.739681586, -27.328185571999896 ], [ -52.742804335, -27.322695951 ], [ -52.741631592, -27.320243693999899 ], [ -52.737955751999891, -27.318179413999896 ], [ -52.729016080999891, -27.317957661 ], [ -52.720466593, -27.320541534 ], [ -52.716212664, -27.31957404 ], [ -52.7134866009999, -27.313174053999902 ], [ -52.708909552, -27.308290892999896 ], [ -52.706600255, -27.299461958999899 ], [ -52.704923683999901, -27.298378995 ], [ -52.697193524999904, -27.299918755 ], [ -52.684901913, -27.295960736 ], [ -52.682749827, -27.297185688 ], [ -52.679472916999892, -27.295539636999894 ], [ -52.676178809, -27.300546148 ], [ -52.673171865, -27.301769169999897 ], [ -52.671590263, -27.301134264 ], [ -52.671111556, -27.305955309999899 ], [ -52.662153863, -27.309851817 ], [ -52.665027618, -27.31455147 ], [ -52.663655067, -27.315515564 ], [ -52.660931225999903, -27.314910217 ], [ -52.660812017999895, -27.319030843999901 ], [ -52.663389504999898, -27.32258085 ], [ -52.659385404, -27.326666976 ], [ -52.661712625, -27.327000575999893 ], [ -52.662948123, -27.328714162 ], [ -52.658443073999891, -27.329062595 ], [ -52.646524531999894, -27.340993501 ], [ -52.642973202, -27.337174779 ], [ -52.637802756, -27.337441181 ], [ -52.638633043, -27.340453049 ], [ -52.637003111999903, -27.342252598 ], [ -52.638555437, -27.344817647999893 ], [ -52.634201279, -27.347058881999896 ], [ -52.633562075, -27.349319218999891 ], [ -52.630706859, -27.348740855999893 ], [ -52.625984511999896, -27.35007862 ], [ -52.625771262999891, -27.346392422 ], [ -52.624397554, -27.345671497999895 ], [ -52.619820021, -27.349681292 ], [ -52.622814161, -27.351282651 ], [ -52.622774439999901, -27.356617564 ], [ -52.618338929999901, -27.361928 ], [ -52.619186153, -27.362730402999901 ], [ -52.622465695, -27.360901347 ], [ -52.62210042999989, -27.363461177 ], [ -52.620721790999902, -27.364917412 ], [ -52.617688787, -27.364872083 ], [ -52.612729747999907, -27.370044498 ], [ -52.614967019999895, -27.373604615 ], [ -52.620671934, -27.377906405 ], [ -52.61575640599991, -27.378571466 ], [ -52.612975386, -27.382690811 ], [ -52.610289598, -27.3827335729999 ], [ -52.609833335, -27.385506291 ], [ -52.606365595999897, -27.38678635 ], [ -52.608408182999902, -27.389753621 ], [ -52.610393153, -27.3882801039999 ], [ -52.612638881, -27.38923993 ], [ -52.611781325, -27.392167467 ], [ -52.61344897299989, -27.394409102999898 ] ] ] } }
]
}
