{
"type": "FeatureCollection",
"name": "bairros_sao_jose_do_ouro",
"crs": { "type": "name", "properties": { "name": "urn:ogc:def:crs:OGC:1.3:CRS84" } },
"features": [
{ "type": "Feature", "properties": { "name": "Altos da Esperança", "code_muni": 4318606.0, "name_muni": "São José do Ouro" }, "geometry": { "type": "Polygon", "coordinates": [ [ [ -51.5951732, -27.7700345 ], [ -51.5960991, -27.7705527 ], [ -51.5973664, -27.771063399999989 ], [ -51.5989125, -27.7716017 ], [ -51.5992632, -27.7716745 ], [ -51.60015460000001, -27.7718486 ], [ -51.6007984, -27.771298 ], [ -51.6015387, -27.7711366 ], [ -51.6023648, -27.7712126 ], [ -51.6031695, -27.7714594 ], [ -51.6036748, -27.7717382 ], [ -51.6048432, -27.7719245 ], [ -51.6047627, -27.7718676 ], [ -51.6046554, -27.7718249 ], [ -51.6043925, -27.771663499999988 ], [ -51.6042692, -27.7713929 ], [ -51.6042423, -27.7712838 ], [ -51.6042316, -27.7711841 ], [ -51.6042423, -27.7708803 ], [ -51.6042584, -27.7707711 ], [ -51.6043872, -27.7704769 ], [ -51.6043925, -27.7701541 ], [ -51.6042638, -27.7698408 ], [ -51.6041458, -27.769651 ], [ -51.6039258, -27.7694279 ], [ -51.6037703, -27.7691431 ], [ -51.6036898, -27.7690671 ], [ -51.6036469, -27.7689769 ], [ -51.603545, -27.7685023 ], [ -51.6033813, -27.7681463 ], [ -51.6032499, -27.7678259 ], [ -51.6031802, -27.7675316 ], [ -51.6031466, -27.7673797 ], [ -51.6031614, -27.7672943 ], [ -51.6031212, -27.7671661 ], [ -51.6030702, -27.7670593 ], [ -51.602625, -27.7665538 ], [ -51.6025713, -27.7665277 ], [ -51.6024774, -27.7664375 ], [ -51.6024345, -27.7662426 ], [ -51.6024126, -27.7661815 ], [ -51.6023965, -27.7661027 ], [ -51.6023471, -27.765865 ], [ -51.6022808, -27.7655718 ], [ -51.602273, -27.7655409 ], [ -51.6022378, -27.765477 ], [ -51.6022188, -27.7654565 ], [ -51.6022006, -27.7654453 ], [ -51.6020592, -27.7654216 ], [ -51.6020399, -27.7654057 ], [ -51.6017506, -27.7649494 ], [ -51.6016771, -27.764877 ], [ -51.6010452, -27.7646906 ], [ -51.6006375, -27.7660387 ], [ -51.5994358, -27.76564 ], [ -51.5957451, -27.7669501 ], [ -51.5941787, -27.7664185 ], [ -51.5930603, -27.7680627 ], [ -51.5943519, -27.7695101 ], [ -51.5951732, -27.7700345 ] ] ] } },
{ "type": "Feature", "properties": { "name": "Braço", "code_muni": 4318606.0, "name_muni": "São José do Ouro" }, "geometry": { "type": "Polygon", "coordinates": [ [ [ -51.5830425, -27.7683615 ], [ -51.5832581, -27.7684488 ], [ -51.583578, -27.768571 ], [ -51.5838941, -27.7686794 ], [ -51.5843267, -27.7688031 ], [ -51.5846233, -27.7688879 ], [ -51.5861409, -27.7693232 ], [ -51.5876388, -27.7697377 ], [ -51.5877326, -27.7697579 ], [ -51.5881042, -27.7698161 ], [ -51.5884012, -27.7698456 ], [ -51.5885773, -27.7698236 ], [ -51.5889491, -27.7701179 ], [ -51.5901155, -27.7706005 ], [ -51.590961, -27.7689882 ], [ -51.5910304, -27.7690416 ], [ -51.5911102, -27.7690766 ], [ -51.5911753, -27.7690808 ], [ -51.591239, -27.769076 ], [ -51.5914399, -27.7689762 ], [ -51.5921014, -27.7685858 ], [ -51.5921538, -27.7685631 ], [ -51.5930603, -27.7680627 ], [ -51.5941787, -27.7664185 ], [ -51.5923977, -27.765678 ], [ -51.5892434, -27.7621273 ], [ -51.58756970000001, -27.7630008 ], [ -51.5889645, -27.7655641 ], [ -51.5863037, -27.7683931 ], [ -51.5804458, -27.7655641 ], [ -51.5802916, -27.7670743 ], [ -51.5830425, -27.7683615 ] ] ] } },
{ "type": "Feature", "properties": { "name": "São Francisco", "code_muni": 4318606.0, "name_muni": "São José do Ouro" }, "geometry": { "type": "Polygon", "coordinates": [ [ [ -51.5798021, -27.7702158 ], [ -51.5830422, -27.7695892 ], [ -51.5848661, -27.7704246 ], [ -51.584158, -27.7779619 ], [ -51.5853381, -27.7784365 ], [ -51.5844584, -27.7799933 ], [ -51.5856456, -27.7807175 ], [ -51.5867771, -27.7782728 ], [ -51.5871027, -27.7775465 ], [ -51.5872639, -27.777263 ], [ -51.5884858, -27.7755742 ], [ -51.5887891, -27.7751397 ], [ -51.5893842, -27.7742871 ], [ -51.5894942, -27.7741174 ], [ -51.5899065, -27.7735711 ], [ -51.5903124, -27.7729913 ], [ -51.5907528, -27.7723911 ], [ -51.5907912, -27.772342 ], [ -51.5915424, -27.771252 ], [ -51.5908795, -27.7709493 ], [ -51.5901155, -27.7706005 ], [ -51.5889491, -27.7701179 ], [ -51.5885773, -27.7698236 ], [ -51.5884012, -27.7698456 ], [ -51.5881042, -27.7698161 ], [ -51.5877326, -27.7697579 ], [ -51.5876388, -27.7697377 ], [ -51.5861409, -27.7693232 ], [ -51.5846233, -27.7688879 ], [ -51.5843267, -27.7688031 ], [ -51.5838941, -27.7686794 ], [ -51.583578, -27.768571 ], [ -51.5832581, -27.7684488 ], [ -51.5830425, -27.7683615 ], [ -51.5802916, -27.7670743 ], [ -51.5798021, -27.7702158 ] ] ] } },
{ "type": "Feature", "properties": { "name": "Planalto", "code_muni": 4318606.0, "name_muni": "São José do Ouro" }, "geometry": { "type": "Polygon", "coordinates": [ [ [ -51.5894942, -27.7741174 ], [ -51.5893842, -27.7742871 ], [ -51.5887891, -27.7751397 ], [ -51.5884858, -27.7755742 ], [ -51.5872639, -27.777263 ], [ -51.5871027, -27.7775465 ], [ -51.5867771, -27.7782728 ], [ -51.587335, -27.7778682 ], [ -51.5879948, -27.7774078 ], [ -51.5885916, -27.777114699999988 ], [ -51.5891925, -27.7769379 ], [ -51.589686, -27.7768133 ], [ -51.5902087, -27.7766404 ], [ -51.5909616, -27.7762602 ], [ -51.5916887, -27.7758871 ], [ -51.5921315, -27.7756613 ], [ -51.592458, -27.7751213 ], [ -51.59185870000001, -27.7747776 ], [ -51.5899065, -27.7735711 ], [ -51.5894942, -27.7741174 ] ] ] } },
{ "type": "Feature", "properties": { "name": "Operário", "code_muni": 4318606.0, "name_muni": "São José do Ouro" }, "geometry": { "type": "Polygon", "coordinates": [ [ [ -51.5856456, -27.7807175 ], [ -51.5866846, -27.7810564 ], [ -51.5870333, -27.7804869 ], [ -51.5943601, -27.7805708 ], [ -51.5945053, -27.7802175 ], [ -51.5945391, -27.7801507 ], [ -51.5945752, -27.7800881 ], [ -51.5946083, -27.7800338 ], [ -51.5946487, -27.7799835 ], [ -51.5946964, -27.7799305 ], [ -51.5948058, -27.7798319 ], [ -51.5951179, -27.7795687 ], [ -51.5952041, -27.7794853 ], [ -51.5952984, -27.7793863 ], [ -51.5953465, -27.7793296 ], [ -51.5955902, -27.7789752 ], [ -51.5956215, -27.7789198 ], [ -51.5958429, -27.7784653 ], [ -51.5955227, -27.7783212 ], [ -51.5953369, -27.7774408 ], [ -51.5951233, -27.776496 ], [ -51.5948754, -27.7754706 ], [ -51.5948714, -27.775371 ], [ -51.5949056, -27.7752435 ], [ -51.5951027, -27.7746941 ], [ -51.5938683, -27.7747051 ], [ -51.5933097, -27.7747059 ], [ -51.5929619, -27.775216 ], [ -51.5921315, -27.7756613 ], [ -51.5916887, -27.7758871 ], [ -51.5909616, -27.7762602 ], [ -51.5902087, -27.7766404 ], [ -51.589686, -27.7768133 ], [ -51.5891925, -27.7769379 ], [ -51.5885916, -27.777114699999988 ], [ -51.5879948, -27.7774078 ], [ -51.587335, -27.7778682 ], [ -51.5867771, -27.7782728 ], [ -51.5856456, -27.7807175 ] ] ] } },
{ "type": "Feature", "properties": { "name": "Canções", "code_muni": 4318606.0, "name_muni": "São José do Ouro" }, "geometry": { "type": "Polygon", "coordinates": [ [ [ -51.6033558, -27.7750441 ], [ -51.603156, -27.7749658 ], [ -51.6019571, -27.7744959 ], [ -51.6008346, -27.7740248 ], [ -51.6006388, -27.774503 ], [ -51.6005208, -27.774668 ], [ -51.6003626, -27.7747991 ], [ -51.6003265, -27.7748205 ], [ -51.600273, -27.77484 ], [ -51.5998076, -27.7749533 ], [ -51.5996497, -27.7750462 ], [ -51.5996363, -27.7750577 ], [ -51.5996182, -27.7750734 ], [ -51.5995251, -27.7751685 ], [ -51.5995105, -27.7751883 ], [ -51.5994996, -27.7752103 ], [ -51.599265, -27.7757283 ], [ -51.5990403, -27.7759145 ], [ -51.5983958, -27.7764248 ], [ -51.5973501, -27.777286 ], [ -51.5973061, -27.7773154 ], [ -51.5969967, -27.7775128 ], [ -51.5963224, -27.7779165 ], [ -51.5962896, -27.7779426 ], [ -51.5962542, -27.7779742 ], [ -51.5961877, -27.7780363 ], [ -51.5958429, -27.7784653 ], [ -51.5956215, -27.7789198 ], [ -51.5955902, -27.7789752 ], [ -51.5953465, -27.7793296 ], [ -51.5952984, -27.7793863 ], [ -51.5952041, -27.7794853 ], [ -51.5951179, -27.7795687 ], [ -51.5948058, -27.7798319 ], [ -51.5946964, -27.7799305 ], [ -51.5946487, -27.7799835 ], [ -51.5946083, -27.7800338 ], [ -51.5945752, -27.7800881 ], [ -51.5945391, -27.7801507 ], [ -51.5945053, -27.7802175 ], [ -51.5943601, -27.7805708 ], [ -51.6028369, -27.7794902 ], [ -51.6047359, -27.7797085 ], [ -51.6049504, -27.7761393 ], [ -51.6053796, -27.7762153 ], [ -51.605444, -27.7756125 ], [ -51.6033558, -27.7750441 ] ] ] } },
{ "type": "Feature", "properties": { "name": "Nossa Senhora da Saúde", "code_muni": 4318606.0, "name_muni": "São José do Ouro" }, "geometry": { "type": "Polygon", "coordinates": [ [ [ -51.6150355, -27.7772832 ], [ -51.6149122, -27.7772785 ], [ -51.6148049, -27.77725 ], [ -51.6146922, -27.7772405 ], [ -51.6139634, -27.7772858 ], [ -51.6138657, -27.7772835 ], [ -51.6135523, -27.777229500000011 ], [ -51.6135187, -27.7772267 ], [ -51.6133018, -27.7772589 ], [ -51.6132706, -27.7772603 ], [ -51.6132434, -27.7772568 ], [ -51.6132229, -27.7772513 ], [ -51.6131568, -27.7772178 ], [ -51.6131354, -27.7772092 ], [ -51.6131077, -27.7772035 ], [ -51.6130346, -27.7772025 ], [ -51.6128789, -27.7772087 ], [ -51.6128036, -27.777219699999989 ], [ -51.6127868, -27.7772277 ], [ -51.6127611, -27.7772468 ], [ -51.6127307, -27.7772544 ], [ -51.6126939, -27.7772579 ], [ -51.6125965, -27.777246 ], [ -51.6125524, -27.7772286 ], [ -51.6125026, -27.7771867 ], [ -51.6124669, -27.777146 ], [ -51.6123686, -27.77699 ], [ -51.612066, -27.7765972 ], [ -51.6120476, -27.776557 ], [ -51.6120325, -27.7764731 ], [ -51.61198120000001, -27.7762894 ], [ -51.6119804, -27.7762126 ], [ -51.6119613, -27.7759649 ], [ -51.6119403, -27.7756837 ], [ -51.6119349, -27.775180599999988 ], [ -51.6119027, -27.7749765 ], [ -51.611892, -27.7747534 ], [ -51.611774, -27.7745351 ], [ -51.6116452, -27.7743452 ], [ -51.6115701, -27.774269299999986 ], [ -51.6114628, -27.7742456 ], [ -51.6113448, -27.7742598 ], [ -51.6113126, -27.7742818 ], [ -51.6112944, -27.774313 ], [ -51.6112697, -27.7744591 ], [ -51.6112644, -27.7744859 ], [ -51.6112403, -27.7745169 ], [ -51.6112091, -27.7745448 ], [ -51.6107279, -27.774649 ], [ -51.6106957, -27.7746568 ], [ -51.6103202, -27.7747961 ], [ -51.6102792, -27.7747993 ], [ -51.6102461, -27.7747905 ], [ -51.6102218, -27.7747798 ], [ -51.61020520000001, -27.7747639 ], [ -51.6101575, -27.7745145 ], [ -51.6101481, -27.7744936 ], [ -51.6101289, -27.7744702 ], [ -51.6097623, -27.7742218 ], [ -51.609655, -27.7741459 ], [ -51.6096176, -27.774128 ], [ -51.6095876, -27.7741174 ], [ -51.6095531, -27.7741032 ], [ -51.6095276, -27.7740957 ], [ -51.6094842, -27.7740881 ], [ -51.6094297, -27.7740889 ], [ -51.6093529, -27.7741253 ], [ -51.6092823, -27.7741604 ], [ -51.6092187, -27.7742076 ], [ -51.6092045, -27.7742345 ], [ -51.6092058, -27.774263 ], [ -51.6092772, -27.7744283 ], [ -51.6092795, -27.7744544 ], [ -51.6092831, -27.7745185 ], [ -51.6092688, -27.7745446 ], [ -51.6092574, -27.774563 ], [ -51.6092235, -27.7745769 ], [ -51.6091866, -27.7745826 ], [ -51.6090488, -27.7745493 ], [ -51.6089523, -27.774506599999988 ], [ -51.6088665, -27.7744307 ], [ -51.6087538, -27.7742598 ], [ -51.6086841, -27.7741744 ], [ -51.608609, -27.7741079 ], [ -51.6083998, -27.7738469 ], [ -51.6082281, -27.7736855 ], [ -51.6082133, -27.7736768 ], [ -51.6081637, -27.7736428 ], [ -51.6081546, -27.7736283 ], [ -51.6081475, -27.773609 ], [ -51.6081515, -27.7735103 ], [ -51.6081592, -27.7734818 ], [ -51.6082239, -27.7733507 ], [ -51.608225, -27.7733317 ], [ -51.6082227, -27.7733153 ], [ -51.6082118, -27.7733031 ], [ -51.608037, -27.7732689 ], [ -51.6080135, -27.7732678 ], [ -51.6079878, -27.7732719 ], [ -51.6079062, -27.7732868 ], [ -51.6078043, -27.77332 ], [ -51.6077077, -27.7733675 ], [ -51.6073966, -27.7734766 ], [ -51.6070801, -27.7734719 ], [ -51.6068441, -27.7734529 ], [ -51.606372, -27.7731681 ], [ -51.6062915, -27.7730969 ], [ -51.6058946, -27.7728738 ], [ -51.6057926, -27.772665 ], [ -51.6057336, -27.7725843 ], [ -51.6055352, -27.7723944 ], [ -51.6053367, -27.7722521 ], [ -51.6050631, -27.7720242 ], [ -51.6048432, -27.7719245 ], [ -51.6036748, -27.7717382 ], [ -51.6037368, -27.7720194 ], [ -51.6037533, -27.7721151 ], [ -51.6037602, -27.7721874 ], [ -51.6037697, -27.7722756 ], [ -51.6037802, -27.772391 ], [ -51.6037886, -27.7724758 ], [ -51.6037933, -27.772554 ], [ -51.6038044, -27.772614099999988 ], [ -51.6038159, -27.7726505 ], [ -51.6038357, -27.772727799999988 ], [ -51.6038586, -27.77279 ], [ -51.6038873, -27.7728503 ], [ -51.6039398, -27.7729278 ], [ -51.6039976, -27.7729927 ], [ -51.604056, -27.7730564 ], [ -51.6041273, -27.7731197 ], [ -51.6041983, -27.7731715 ], [ -51.6042711, -27.773222 ], [ -51.604364, -27.7732736 ], [ -51.6044375, -27.7733069 ], [ -51.6046266, -27.7733779 ], [ -51.6061552, -27.7739467 ], [ -51.6059442, -27.7746324 ], [ -51.6056947, -27.7753064 ], [ -51.605444, -27.7756125 ], [ -51.6086626, -27.7764241 ], [ -51.6093922, -27.7770506 ], [ -51.6126645, -27.7792339 ], [ -51.6171169, -27.7785314 ], [ -51.6153608, -27.7773481 ], [ -51.6150355, -27.7772832 ] ] ] } }
]
}
