{
"type": "FeatureCollection",
"name": "bairros_marata",
"crs": { "type": "name", "properties": { "name": "urn:ogc:def:crs:OGC:1.3:CRS84" } },
"features": [
{ "type": "Feature", "properties": { "code_muni": 4311791.0, "name_muni": "Maratá", "code_state": 43.0, "abbrev_state": "RS", "name_state": "Rio Grande do Sul", "code_region": 4.0, "name_region": "Sul", "year": 2022.0 }, "geometry": { "type": "Polygon", "coordinates": [ [ [ -51.523159785, -29.512353252 ], [ -51.519937873999901, -29.512453547999904 ], [ -51.51440909, -29.515691102999895 ], [ -51.509587688, -29.52341283 ], [ -51.512327421, -29.522402202 ], [ -51.513972641999892, -29.525710516999904 ], [ -51.517171570999892, -29.541879432 ], [ -51.5028545, -29.566033659 ], [ -51.504622593, -29.571729085 ], [ -51.504551901999896, -29.575880527 ], [ -51.50323829, -29.576992198 ], [ -51.50643808, -29.578388719 ], [ -51.507989904999903, -29.576921328 ], [ -51.512132887, -29.577197966 ], [ -51.514384895, -29.579722737999905 ], [ -51.514102231, -29.584187137000011 ], [ -51.524991311, -29.58646557 ], [ -51.527025895, -29.594661749999901 ], [ -51.531683507, -29.596891646999904 ], [ -51.535542763, -29.594750329 ], [ -51.535884922, -29.59877656 ], [ -51.53264647399989, -29.605290479 ], [ -51.533803277999894, -29.611115169 ], [ -51.539759595, -29.613109501999904 ], [ -51.550429683999894, -29.612100642 ], [ -51.555607406, -29.614477538 ], [ -51.56632676200001, -29.613470946999897 ], [ -51.569057904, -29.614545087 ], [ -51.575714674, -29.612957668 ], [ -51.577140110999892, -29.602829319 ], [ -51.584028749, -29.594803675 ], [ -51.57969482, -29.589676577999985 ], [ -51.579877785, -29.587169264 ], [ -51.576730727, -29.581687551 ], [ -51.569798366, -29.56234768 ], [ -51.570969437, -29.559955585999898 ], [ -51.570076558, -29.55695364 ], [ -51.571790026, -29.555308909 ], [ -51.570790799, -29.55065873 ], [ -51.576970495999895, -29.549205494 ], [ -51.579296075999892, -29.546911496000011 ], [ -51.578262598, -29.545714297999989 ], [ -51.579443452, -29.543522573 ], [ -51.584403477, -29.541366618 ], [ -51.588659456999892, -29.537654545 ], [ -51.589924083, -29.523026549999901 ], [ -51.587993016, -29.522273905 ], [ -51.586165650999909, -29.518562437999893 ], [ -51.582880652999989, -29.516732501 ], [ -51.579730186999903, -29.511234515 ], [ -51.577976029, -29.510562749 ], [ -51.583569931999897, -29.506932201 ], [ -51.582581467999894, -29.502604506 ], [ -51.587411867, -29.49641367 ], [ -51.589519665999902, -29.488205670999896 ], [ -51.588202107, -29.476811825 ], [ -51.573675021, -29.478048268999899 ], [ -51.558271561, -29.491054765999902 ], [ -51.547549508, -29.494957015999894 ], [ -51.541364678, -29.504052971 ], [ -51.537370844, -29.504192851 ], [ -51.537184295, -29.5016328029999 ], [ -51.533990736, -29.500020569999901 ], [ -51.53421932899991, -29.497449459999903 ], [ -51.53171972, -29.495439272999899 ], [ -51.526039339, -29.500058071999899 ], [ -51.526637646, -29.502908778999895 ], [ -51.525080256, -29.504205005 ], [ -51.523700776999895, -29.510508602999899 ], [ -51.521400694, -29.511143945999905 ], [ -51.523159785, -29.512353252 ] ] ] } }
]
}
