{
"type": "FeatureCollection",
"name": "bairros_ajuricaba",
"crs": { "type": "name", "properties": { "name": "urn:ogc:def:crs:OGC:1.3:CRS84" } },
"features": [
{ "type": "Feature", "properties": { "code_muni": 4300208.0, "name_muni": "Ajuricaba", "code_state": 43.0, "abbrev_state": "RS", "name_state": "Rio Grande do Sul", "code_region": 4.0, "name_region": "Sul", "year": 2022.0 }, "geometry": { "type": "Polygon", "coordinates": [ [ [ -53.754361092999901, -28.275023544999989 ], [ -53.763442024, -28.280686305 ], [ -53.763756169, -28.282573759999906 ], [ -53.761067738, -28.287027291999902 ], [ -53.762941148, -28.289339079999902 ], [ -53.766967942, -28.290492082 ], [ -53.768381255999898, -28.289437924 ], [ -53.768354809, -28.286863174 ], [ -53.765404261, -28.282940577 ], [ -53.766781164999905, -28.281293784 ], [ -53.77586530299989, -28.287852515999898 ], [ -53.786876333999892, -28.2846018659999 ], [ -53.789680834, -28.286750052999892 ], [ -53.788770364, -28.292879932999895 ], [ -53.790032217, -28.296253801 ], [ -53.79595234899989, -28.295350699 ], [ -53.800426468, -28.289873766 ], [ -53.804758614, -28.288829613 ], [ -53.806789989, -28.291585089 ], [ -53.80837859, -28.298171221 ], [ -53.812173727, -28.300911578999905 ], [ -53.815279926999892, -28.296896855999893 ], [ -53.813023617999896, -28.293597173 ], [ -53.810765079, -28.283169072 ], [ -53.798593685, -28.282049215 ], [ -53.795782463, -28.278744791 ], [ -53.795931520999893, -28.276554276 ], [ -53.798827936, -28.274950098 ], [ -53.805944982, -28.276512211 ], [ -53.80749244, -28.275670822999892 ], [ -53.807969920999902, -28.273497685999907 ], [ -53.804290011, -28.262045396 ], [ -53.80774532, -28.260120745999906 ], [ -53.81158550299989, -28.26796746 ], [ -53.818673888, -28.271104439999895 ], [ -53.818348184999891, -28.273676044 ], [ -53.812726692999902, -28.279683374999902 ], [ -53.813134225999896, -28.282079241 ], [ -53.821912435999906, -28.282912326 ], [ -53.829869997999893, -28.27910546 ], [ -53.832363858999898, -28.276067609999902 ], [ -53.830493654999898, -28.267981447 ], [ -53.825676481999892, -28.264897145999988 ], [ -53.825382020999896, -28.263294743999893 ], [ -53.829489477, -28.261607119 ], [ -53.835439755, -28.264281949 ], [ -53.834985581999895, -28.258749205999894 ], [ -53.842866021, -28.258227921999897 ], [ -53.846402802999897, -28.261416272 ], [ -53.848455446999893, -28.259164537999908 ], [ -53.846168205, -28.255166453999895 ], [ -53.846839476999889, -28.251805115 ], [ -53.843241702999897, -28.249419778999901 ], [ -53.841571240999897, -28.254451068 ], [ -53.835601046, -28.254146248 ], [ -53.842048512, -28.244530464 ], [ -53.84159871, -28.242758662 ], [ -53.835107141, -28.242002952 ], [ -53.832152384, -28.236686410999894 ], [ -53.832447083, -28.234576210999894 ], [ -53.83589480099991, -28.234665210999903 ], [ -53.83759327699989, -28.231287992 ], [ -53.843515517, -28.225882683999899 ], [ -53.843113657999893, -28.224801224 ], [ -53.8385949729999, -28.224397134 ], [ -53.839263602, -28.220106406999896 ], [ -53.841440485, -28.219517014 ], [ -53.840578788999892, -28.217360327999987 ], [ -53.843404721999903, -28.218029516999895 ], [ -53.846345662, -28.215240116 ], [ -53.847245551, -28.2121027909999 ], [ -53.8471067, -28.2108926 ], [ -53.844781675, -28.210519120999901 ], [ -53.841974531999902, -28.211745795 ], [ -53.837364983, -28.2078071 ], [ -53.840166676, -28.206101370999903 ], [ -53.838845176999897, -28.204315897 ], [ -53.840908269999893, -28.201939744 ], [ -53.837171628, -28.196265045 ], [ -53.843199382, -28.1905196599999 ], [ -53.842025682, -28.188743405 ], [ -53.838151105999891, -28.187690357999905 ], [ -53.838222518, -28.184902206999897 ], [ -53.834881582, -28.184623906 ], [ -53.836259348999903, -28.17935498 ], [ -53.834575963, -28.177177449999895 ], [ -53.836744751, -28.174024358999905 ], [ -53.835832019, -28.171960059 ], [ -53.837327838, -28.170802147 ], [ -53.837402596999894, -28.16760627 ], [ -53.831126328, -28.164949011 ], [ -53.83413118, -28.160987242 ], [ -53.830319965999898, -28.158330556 ], [ -53.829109683, -28.155264105 ], [ -53.831683041, -28.153488158 ], [ -53.831215121999897, -28.151872438999899 ], [ -53.82870023800001, -28.15102165 ], [ -53.827802114, -28.152545374999892 ], [ -53.8217626799999, -28.153233464 ], [ -53.823048722, -28.151069506999907 ], [ -53.818820175, -28.14656537 ], [ -53.816421821999896, -28.146159001999909 ], [ -53.818952683, -28.143862188999901 ], [ -53.81640135299989, -28.142938704999899 ], [ -53.815731338, -28.141005433 ], [ -53.818223124, -28.137449874 ], [ -53.811886462, -28.138180338 ], [ -53.816585902, -28.126069008999899 ], [ -53.812627979, -28.123156080999902 ], [ -53.809106133999897, -28.11525554299989 ], [ -53.808194979999897, -28.111562444999905 ], [ -53.809313517, -28.110143741999899 ], [ -53.806989501, -28.106459227 ], [ -53.801719625, -28.102337534999894 ], [ -53.789826424999902, -28.1023829929999 ], [ -53.781621652, -28.106543415 ], [ -53.786264493, -28.113412052999895 ], [ -53.784428778999896, -28.1201047989999 ], [ -53.786877723, -28.129443287 ], [ -53.773040032, -28.127269790999897 ], [ -53.770496775, -28.138327015 ], [ -53.764731673, -28.143495545999901 ], [ -53.766225665, -28.144486646 ], [ -53.762502797, -28.143812007999891 ], [ -53.762093899, -28.141794115 ], [ -53.755818856, -28.143802375999901 ], [ -53.755483335999891, -28.14275621 ], [ -53.759613362, -28.140028125 ], [ -53.757909529999893, -28.137349113 ], [ -53.75778058, -28.133626029 ], [ -53.754008051, -28.133076662 ], [ -53.745633112999897, -28.141438229999892 ], [ -53.73683288, -28.143056664 ], [ -53.736173137, -28.151093542 ], [ -53.737201172, -28.15218537 ], [ -53.72189573299989, -28.150580466 ], [ -53.71841927, -28.14881586 ], [ -53.71688485, -28.151234968 ], [ -53.716377466, -28.16243335 ], [ -53.709542109, -28.163014973 ], [ -53.708882922, -28.167729533999896 ], [ -53.701015335, -28.167023716999896 ], [ -53.699780022, -28.162799037999889 ], [ -53.700771919, -28.161475225999904 ], [ -53.698446611, -28.157357848999904 ], [ -53.696431538, -28.156617283999903 ], [ -53.696462997, -28.152978346999902 ], [ -53.693866131999989, -28.147789547999896 ], [ -53.692000156999896, -28.150080957999897 ], [ -53.69013724, -28.148501017999902 ], [ -53.687960088, -28.14910291599989 ], [ -53.683423051, -28.146887305 ], [ -53.678936178999891, -28.149251837999902 ], [ -53.679605277999897, -28.146149742 ], [ -53.677326509, -28.144971193999901 ], [ -53.676298277999898, -28.141088098 ], [ -53.673197648, -28.139521976 ], [ -53.66592425999989, -28.142066218 ], [ -53.668384827999908, -28.143764229999899 ], [ -53.668449541, -28.146279563999897 ], [ -53.6637252579999, -28.151687573999904 ], [ -53.661843362999903, -28.151223821 ], [ -53.655399003999896, -28.155540682 ], [ -53.654735108999894, -28.152711123 ], [ -53.647610824, -28.146205503 ], [ -53.638716761, -28.132658127 ], [ -53.626097433, -28.138418267 ], [ -53.620372231, -28.143473758 ], [ -53.621182714, -28.153515511 ], [ -53.623564255, -28.155206738999894 ], [ -53.624473785, -28.158899791999897 ], [ -53.621705007999893, -28.162781241999898 ], [ -53.623249149999893, -28.169307579 ], [ -53.618822823, -28.174184179999898 ], [ -53.619722609, -28.177462154 ], [ -53.61814299, -28.178948412999894 ], [ -53.620478182999904, -28.182662593 ], [ -53.618320841999896, -28.187366773 ], [ -53.622560614999891, -28.189087544999897 ], [ -53.623751375, -28.191066028 ], [ -53.620997583, -28.192762936999898 ], [ -53.622167432, -28.197215567999898 ], [ -53.620453337, -28.198636509 ], [ -53.616655974, -28.198998587999906 ], [ -53.614121752, -28.203280242999892 ], [ -53.615017501999908, -28.204015458 ], [ -53.61778034, -28.20160225 ], [ -53.621005764, -28.201992002999901 ], [ -53.620819728999898, -28.206217100999897 ], [ -53.625025246999897, -28.209511366 ], [ -53.621546071999902, -28.211975073 ], [ -53.621762288, -28.213057562999897 ], [ -53.627958322, -28.214312087999907 ], [ -53.629662799, -28.211972837 ], [ -53.631450507, -28.211751256 ], [ -53.629479272, -28.2177616459999 ], [ -53.637718929999899, -28.2200877769999 ], [ -53.635172149, -28.222448001 ], [ -53.637014117, -28.224106408999905 ], [ -53.63767237, -28.2279936209999 ], [ -53.644241296, -28.225088554 ], [ -53.64560276799989, -28.225845444 ], [ -53.638526801999902, -28.232633318 ], [ -53.636623045, -28.232846730999899 ], [ -53.634312711, -28.238777051999893 ], [ -53.63615497, -28.240018774 ], [ -53.642013076, -28.237880055999899 ], [ -53.643992778, -28.239878223999899 ], [ -53.639177785999891, -28.24139815 ], [ -53.638577922, -28.242609221 ], [ -53.640123068, -28.244545312 ], [ -53.635452629, -28.247876676 ], [ -53.639314672999895, -28.247426339 ], [ -53.64441618, -28.250880686999899 ], [ -53.640046555, -28.256669454 ], [ -53.642323264, -28.26060397 ], [ -53.644582318999909, -28.2610222 ], [ -53.645475559, -28.262836444999902 ], [ -53.642963159, -28.268093012 ], [ -53.644112262, -28.273095302999902 ], [ -53.648456183999897, -28.273487039 ], [ -53.652491524, -28.27122158 ], [ -53.651894352999904, -28.264605791999902 ], [ -53.652721756999902, -28.263658808999899 ], [ -53.657013061, -28.263760743 ], [ -53.656177742999894, -28.27233577 ], [ -53.659555381, -28.281556808999902 ], [ -53.67295711700001, -28.271140973999891 ], [ -53.667895013, -28.26623774 ], [ -53.667703496999899, -28.2639830799999 ], [ -53.66974505, -28.260752905999897 ], [ -53.67234831, -28.26395440499989 ], [ -53.676440286999892, -28.265948447 ], [ -53.674101858, -28.270897227 ], [ -53.67802575, -28.274320567 ], [ -53.676506683999897, -28.28271896 ], [ -53.680421912, -28.286692242999909 ], [ -53.688733576999901, -28.27918577 ], [ -53.688253415, -28.27406403 ], [ -53.689713221, -28.269069736999889 ], [ -53.692682749, -28.26898354 ], [ -53.692017445, -28.272949114 ], [ -53.694080857, -28.27759659 ], [ -53.6939099209999, -28.286750447 ], [ -53.701930823999902, -28.282141442999901 ], [ -53.703106423999891, -28.278041218999896 ], [ -53.705424406, -28.279679175 ], [ -53.710279199999903, -28.288679800999901 ], [ -53.718423992999895, -28.284038865 ], [ -53.721755808999902, -28.285326297 ], [ -53.718335947999897, -28.292690402999902 ], [ -53.708225809999902, -28.304227258 ], [ -53.715344558, -28.307004999 ], [ -53.725619595, -28.314495159999986 ], [ -53.730566224, -28.312860677999907 ], [ -53.732165629, -28.307883147 ], [ -53.727874915, -28.3045867549999 ], [ -53.720516410999892, -28.303942510999899 ], [ -53.718951683999897, -28.300273918 ], [ -53.719691296, -28.297257584 ], [ -53.726134052, -28.291162216 ], [ -53.7372175369999, -28.296678901 ], [ -53.75106543, -28.294450272999899 ], [ -53.750374773, -28.284922681999895 ], [ -53.751654715, -28.2817894299999 ], [ -53.754865684, -28.280988223999906 ], [ -53.75243105, -28.277053368999901 ], [ -53.754361092999901, -28.275023544999989 ] ] ] } }
]
}
