{
"type": "FeatureCollection",
"name": "bairros_estancia_velha",
"crs": { "type": "name", "properties": { "name": "urn:ogc:def:crs:OGC:1.3:CRS84" } },
"features": [
{ "type": "Feature", "properties": { "code_muni": 4307609.0, "name_muni": "Estância Velha", "code_state": 43.0, "abbrev_state": "RS", "name_state": "Rio Grande do Sul", "code_region": 4.0, "name_region": "Sul", "year": 2022.0 }, "geometry": { "type": "Polygon", "coordinates": [ [ [ -51.142173848, -29.637005753 ], [ -51.145132369, -29.653189079 ], [ -51.143309439999896, -29.669911612 ], [ -51.155178212, -29.668963818 ], [ -51.162880105999896, -29.6716278879999 ], [ -51.170671164999895, -29.669681805 ], [ -51.175733861, -29.671190603 ], [ -51.184086621999896, -29.677032846 ], [ -51.193539723, -29.680394561999901 ], [ -51.202805359, -29.679560943999896 ], [ -51.208073283, -29.685289672 ], [ -51.209982486999891, -29.694102735999898 ], [ -51.211848168, -29.695937794 ], [ -51.214001208, -29.694233709999896 ], [ -51.214133155999896, -29.689980951999896 ], [ -51.219760734, -29.682170266 ], [ -51.219207051999895, -29.673291350999893 ], [ -51.222131343999891, -29.672051553999914 ], [ -51.225859270999891, -29.665024154 ], [ -51.227315013, -29.657186845 ], [ -51.226609369, -29.653020263 ], [ -51.230527418999891, -29.650119993000011 ], [ -51.227276058, -29.645840615999909 ], [ -51.227151905, -29.640992901999894 ], [ -51.229558368, -29.632909513 ], [ -51.22837713699991, -29.628508688999897 ], [ -51.2309374129999, -29.616750082 ], [ -51.214380069999891, -29.621430534999895 ], [ -51.211011925, -29.615761504 ], [ -51.214611991, -29.611449869999902 ], [ -51.208836753, -29.608875351999984 ], [ -51.205902018, -29.611937683999901 ], [ -51.207004309999895, -29.614581824 ], [ -51.165915958, -29.621870196999986 ], [ -51.166403091999904, -29.624180462000012 ], [ -51.133051432999899, -29.628005206999902 ], [ -51.134601691999897, -29.638074043 ], [ -51.142173848, -29.637005753 ] ] ] } }
]
}
