{
"type": "FeatureCollection",
"name": "bairros_lagoa_bonita_do_sul",
"crs": { "type": "name", "properties": { "name": "urn:ogc:def:crs:OGC:1.3:CRS84" } },
"features": [
{ "type": "Feature", "properties": { "code_muni": 4311239.0, "name_muni": "Lagoa Bonita do Sul", "code_state": 43.0, "abbrev_state": "RS", "name_state": "Rio Grande do Sul", "code_region": 4.0, "name_region": "Sul", "year": 2022.0 }, "geometry": { "type": "Polygon", "coordinates": [ [ [ -53.025606626999902, -29.533257767999899 ], [ -53.030760653, -29.534762031999893 ], [ -53.034594771999892, -29.534594578999897 ], [ -53.038200538999902, -29.539202001 ], [ -53.028220551999894, -29.550938618 ], [ -53.029189691999903, -29.553200325 ], [ -53.032357942, -29.5533809729999 ], [ -53.034074705, -29.550251799 ], [ -53.037992349, -29.547442227 ], [ -53.051703749, -29.540611766 ], [ -53.06948163, -29.537669378 ], [ -53.070392763, -29.534834133999897 ], [ -53.076879686, -29.528497867999892 ], [ -53.082799345999902, -29.526978202 ], [ -53.08659097, -29.529790004999899 ], [ -53.093840322999903, -29.528730028 ], [ -53.095875634, -29.52479176 ], [ -53.094817491, -29.523373665999898 ], [ -53.096563062, -29.520218242999892 ], [ -53.096590615, -29.516419657 ], [ -53.115613778999901, -29.505795283999895 ], [ -53.125941145, -29.502527540999893 ], [ -53.126241149999892, -29.499778067 ], [ -53.129180796, -29.498766227999987 ], [ -53.128396717, -29.49639124 ], [ -53.136956171, -29.494827749 ], [ -53.130661258, -29.493147619999899 ], [ -53.129668638999895, -29.484888581 ], [ -53.125985133, -29.485392174 ], [ -53.123311917, -29.488197304 ], [ -53.119399357, -29.485835892999894 ], [ -53.112942559, -29.477383496999899 ], [ -53.104841829, -29.473569245 ], [ -53.100335458, -29.465939450999905 ], [ -53.097069255, -29.465134301 ], [ -53.092591824999893, -29.468603152999894 ], [ -53.092966797, -29.465857872 ], [ -53.091188929999902, -29.465101502 ], [ -53.0912622929999, -29.462654567999902 ], [ -53.089477022, -29.461580582 ], [ -53.09084932, -29.459831740999988 ], [ -53.084863799999908, -29.459148426 ], [ -53.084878611, -29.456464739999902 ], [ -53.07975076, -29.460834412999901 ], [ -53.072369255999895, -29.46016614 ], [ -53.070744502, -29.461866114 ], [ -53.065962161999899, -29.461061340999905 ], [ -53.055632269999897, -29.462733144 ], [ -53.051050554, -29.459322165999893 ], [ -53.048879821, -29.4591731639999 ], [ -53.050375684999892, -29.457732349 ], [ -53.047444229, -29.454047944 ], [ -53.048482986, -29.451985932 ], [ -53.0468158160689, -29.451889760261 ], [ -53.045131456819192, -29.456334026775604 ], [ -53.040386947024793, -29.459080059582096 ], [ -53.032310902279491, -29.457142075232792 ], [ -53.0239451588428, -29.462967127847396 ], [ -53.019805020456303, -29.461693452566305 ], [ -53.012457107287894, -29.465811946797707 ], [ -53.009466329035199, -29.465318016078694 ], [ -53.009278191379394, -29.468908725912595 ], [ -53.00345313876479, -29.470089719811597 ], [ -52.99924418306469, -29.474576164679696 ], [ -52.99976808261389, -29.475461910104002 ], [ -52.992087182443797, -29.478621956749102 ], [ -52.991762544, -29.480921959999893 ], [ -52.9877439219865, -29.481068301254197 ], [ -52.986873122, -29.484067801 ], [ -52.98387794289799, -29.485717909753198 ], [ -52.982728027785797, -29.488934564188597 ], [ -52.980201766400398, -29.489178754656404 ], [ -52.979560886999899, -29.491839848 ], [ -52.978186085083998, -29.491642858468186 ], [ -52.976798107, -29.493477853999902 ], [ -52.973477648881492, -29.493381050616495 ], [ -52.974380043655792, -29.498526809747801 ], [ -52.972778387999895, -29.501258928 ], [ -52.976177805, -29.502724573 ], [ -52.9756320747817, -29.505843644129499 ], [ -52.972628532027393, -29.505000077058799 ], [ -52.971548544185602, -29.508420963521797 ], [ -52.968830260295803, -29.507403133253607 ], [ -52.970319822149591, -29.5091768440154 ], [ -52.973083614262897, -29.509762901138203 ], [ -52.969245384091103, -29.511878478554998 ], [ -52.967260781561599, -29.510067029266391 ], [ -52.962683320246398, -29.511403417099402 ], [ -52.964352695081097, -29.513965197098393 ], [ -52.962768201, -29.516599582 ], [ -52.966445805, -29.516106869999895 ], [ -52.970970681, -29.519599672 ], [ -52.966910917, -29.520076068 ], [ -52.9715612319999, -29.524342014999899 ], [ -52.971151987, -29.526861991 ], [ -52.968973703, -29.526919087 ], [ -52.971077530999899, -29.530243343999892 ], [ -52.969676397999898, -29.533822802 ], [ -52.973675268, -29.535241148 ], [ -52.9729091889999, -29.537747544999899 ], [ -52.974793002999895, -29.539085450999902 ], [ -52.974381004, -29.542390226999888 ], [ -52.976437365, -29.544226492 ], [ -52.975485186, -29.546462645 ], [ -52.973448242, -29.547194756 ], [ -52.976190484999989, -29.551523373999895 ], [ -52.973157855999901, -29.554791683 ], [ -52.974263619999903, -29.557386503 ], [ -52.976693514, -29.555875302999898 ], [ -52.979734607999895, -29.556846951999901 ], [ -52.982707854, -29.554168128 ], [ -52.986027846, -29.553308261 ], [ -52.986019875, -29.551132897999899 ], [ -52.990003375, -29.550179578 ], [ -52.999061196999897, -29.549218901 ], [ -53.001682774, -29.547712931 ], [ -53.004627067999898, -29.55019543 ], [ -53.006668057, -29.545519451 ], [ -53.01254067, -29.54109244599989 ], [ -53.014990827, -29.536751712 ], [ -53.017632433, -29.536383362 ], [ -53.017446677999899, -29.534467745 ], [ -53.021551221, -29.53096965000001 ], [ -53.025606626999902, -29.533257767999899 ] ] ] } }
]
}
