{
"type": "FeatureCollection",
"name": "bairros_paverama",
"crs": { "type": "name", "properties": { "name": "urn:ogc:def:crs:OGC:1.3:CRS84" } },
"features": [
{ "type": "Feature", "properties": { "name": "Canabarro", "code_muni": 4314159.0, "name_muni": "Paverama" }, "geometry": { "type": "MultiPolygon", "coordinates": [ [ [ [ -51.7885611, -29.5169918 ], [ -51.7890722, -29.5170722 ], [ -51.789733406031687, -29.516923936954715 ], [ -51.788677581999899, -29.516340404999895 ], [ -51.783352590506553, -29.516498432424783 ], [ -51.7833525, -29.5165989 ], [ -51.7870681, -29.5163962 ], [ -51.7881346, -29.5167639 ], [ -51.7885611, -29.5169918 ] ] ], [ [ [ -51.7937081, -29.5191971 ], [ -51.7949795, -29.5192073 ], [ -51.7954514, -29.519213900000015 ], [ -51.7958416, -29.5192193 ], [ -51.7964702, -29.519239 ], [ -51.797083, -29.5192726 ], [ -51.7977678, -29.5192464 ], [ -51.7984089, -29.5192554 ], [ -51.8006816, -29.5192873 ], [ -51.8010636, -29.5192923 ], [ -51.8019288, -29.5193047 ], [ -51.8034646, -29.5193268 ], [ -51.8045644, -29.5193559 ], [ -51.8049118, -29.5193501 ], [ -51.8055448, -29.5193477 ], [ -51.8074089, -29.5193267 ], [ -51.8083423, -29.519394399999989 ], [ -51.809316, -29.5193407 ], [ -51.8094528, -29.5193804 ], [ -51.8098074, -29.5193905 ], [ -51.8098181, -29.5193264 ], [ -51.809848285843749, -29.519338213196008 ], [ -51.809502242999891, -29.519072415 ], [ -51.793688512272652, -29.519107747322284 ], [ -51.7937081, -29.5191971 ] ] ], [ [ [ -51.8138609, -29.5224207 ], [ -51.814143, -29.5227927 ], [ -51.8143937, -29.5231188 ], [ -51.814423, -29.523157 ], [ -51.814912, -29.523689 ], [ -51.815008, -29.524011 ], [ -51.8150117, -29.5241277 ], [ -51.814992, -29.524245 ], [ -51.8149433, -29.5243821 ], [ -51.8148762, -29.5245315 ], [ -51.81471650000001, -29.524837 ], [ -51.8145895, -29.5252327 ], [ -51.814594578392025, -29.525462973552173 ], [ -51.81536768, -29.524403656999912 ], [ -51.814674499, -29.523045021999987 ], [ -51.813859867505599, -29.522419370053321 ], [ -51.8138609, -29.5224207 ] ] ] ] } }
]
}
