{
"type": "FeatureCollection",
"name": "bairros_osorio",
"crs": { "type": "name", "properties": { "name": "urn:ogc:def:crs:OGC:1.3:CRS84" } },
"features": [
{ "type": "Feature", "properties": { "code_muni": 4313508.0, "name_muni": "Osório", "code_state": 43.0, "abbrev_state": "RS", "name_state": "Rio Grande do Sul", "code_region": 4.0, "name_region": "Sul", "year": 2022.0 }, "geometry": { "type": "Polygon", "coordinates": [ [ [ -50.177377399, -29.989148707 ], [ -50.184736406, -29.995044144 ], [ -50.202189607, -29.981183576 ], [ -50.220835333, -29.977460569 ], [ -50.229651857, -29.966903993999907 ], [ -50.230437803, -29.971972725999898 ], [ -50.234027055999903, -29.973228692 ], [ -50.244290419, -29.984398837999898 ], [ -50.250327076, -29.987861558 ], [ -50.254415585999901, -29.992241013 ], [ -50.287399821999905, -30.011994425 ], [ -50.306858556999892, -30.02135988 ], [ -50.309668466999895, -30.025465876999899 ], [ -50.317606622, -30.032379100999901 ], [ -50.326070204, -30.03624531 ], [ -50.339610842999903, -30.034429749 ], [ -50.344951955999903, -30.036489452 ], [ -50.346513441, -30.039050652 ], [ -50.348693505999989, -30.053243317999904 ], [ -50.363788933, -30.063511863 ], [ -50.363702628999903, -30.069724917 ], [ -50.366982041999989, -30.075898444 ], [ -50.378934906, -30.080813090999989 ], [ -50.383990901999894, -30.087738067 ], [ -50.385760567, -30.095087218999904 ], [ -50.394914137999891, -30.094112751 ], [ -50.415190455, -30.102825406 ], [ -50.418806479999894, -30.096537971 ], [ -50.45641118, -30.052313924 ], [ -50.456130652, -30.048309432999893 ], [ -50.458559308, -30.045598991 ], [ -50.456484309, -30.041849939 ], [ -50.459308037, -30.038613870999907 ], [ -50.458101448, -30.036900634999899 ], [ -50.465084463, -30.028553567999893 ], [ -50.459616227, -30.023249871999987 ], [ -50.459533871, -30.016759696 ], [ -50.439789639, -30.002580468 ], [ -50.417945916999891, -29.982836029999898 ], [ -50.408303230999898, -29.979409569 ], [ -50.403590325, -29.973316924 ], [ -50.399150822, -29.971725014 ], [ -50.386096892999895, -29.884895773 ], [ -50.384365648, -29.884136453999893 ], [ -50.376307507999989, -29.885800096 ], [ -50.372637000999902, -29.884051977 ], [ -50.372476440999897, -29.858268732999903 ], [ -50.355719840999896, -29.840008364 ], [ -50.351779647999891, -29.843562167 ], [ -50.351343383, -29.848635553999902 ], [ -50.348547321999909, -29.849730812 ], [ -50.345936881999897, -29.848601598 ], [ -50.33931029, -29.849429423999897 ], [ -50.3349746439999, -29.851113478999899 ], [ -50.333792216999903, -29.853971688999899 ], [ -50.326973044999896, -29.85283707100001 ], [ -50.323205046999895, -29.854081396 ], [ -50.322673387999892, -29.855392239 ], [ -50.314636854, -29.851518701 ], [ -50.311582137999892, -29.851497499999898 ], [ -50.308921589, -29.848196162 ], [ -50.305647618, -29.84943485 ], [ -50.3029879219999, -29.848306142 ], [ -50.287232748999898, -29.855257784999907 ], [ -50.281386058, -29.859176593 ], [ -50.278161778, -29.857552993999903 ], [ -50.279680679, -29.85370907 ], [ -50.278311507999895, -29.846775806 ], [ -50.275150617999898, -29.840699544 ], [ -50.276167659, -29.834780571 ], [ -50.264526378, -29.825912114999895 ], [ -50.263332729, -29.820023643999892 ], [ -50.259478631, -29.816425495 ], [ -50.258119945, -29.809337409 ], [ -50.253716832, -29.804685481 ], [ -50.256651759, -29.785310964 ], [ -50.251982417, -29.776699080999904 ], [ -50.255913924, -29.757117498 ], [ -50.253608463, -29.753747807000011 ], [ -50.247132833, -29.7503970019999 ], [ -50.232269049, -29.748343189 ], [ -50.229900105999896, -29.744236009 ], [ -50.231761332, -29.734222335999984 ], [ -50.2286497247607, -29.729548565704501 ], [ -50.223343297197992, -29.725936627615496 ], [ -50.2179922778069, -29.729140550475993 ], [ -50.211681482448597, -29.729589610806105 ], [ -50.205934647445801, -29.733662161861396 ], [ -50.198987240603103, -29.734794794299095 ], [ -50.186541661336101, -29.742353109189001 ], [ -50.185239579950903, -29.751128780990285 ], [ -50.186363294022996, -29.757603514453404 ], [ -50.182309896834397, -29.766977831549092 ], [ -50.183041202817797, -29.777165949510501 ], [ -50.173488518408398, -29.793628137708392 ], [ -50.17059450875449, -29.795242361891304 ], [ -50.167704958283402, -29.795237902708504 ], [ -50.166307004467505, -29.793525576503395 ], [ -50.155703067707897, -29.794622535478503 ], [ -50.152732181, -29.797221808999893 ], [ -50.1413355806433, -29.814278613374505 ], [ -50.137320086508694, -29.813273067647192 ], [ -50.144928567205191, -29.800225498698694 ], [ -50.146598531173503, -29.785171297478595 ], [ -50.145470357918597, -29.783343032520001 ], [ -50.140306624206197, -29.781693134874509 ], [ -50.13422429883169, -29.783878134459101 ], [ -50.123459831490102, -29.784341889472994 ], [ -50.115981781891094, -29.785800042257097 ], [ -50.115327605013803, -29.788817549205699 ], [ -50.1104732636854, -29.786168743803792 ], [ -50.110309754999896, -29.7888510249999 ], [ -50.113255822, -29.793158159 ], [ -50.107604027, -29.796585566 ], [ -50.106655095, -29.801547766999892 ], [ -50.114004383999891, -29.810741994999898 ], [ -50.108268635999899, -29.81555995 ], [ -50.108235389999898, -29.819619175999907 ], [ -50.110870089999892, -29.819638975 ], [ -50.106040999999898, -29.823722939999985 ], [ -50.112123106, -29.826943811 ], [ -50.112387899999895, -29.828765442 ], [ -50.109735206, -29.830137276999892 ], [ -50.1129787, -29.832459158999903 ], [ -50.102525608, -29.8360793169999 ], [ -50.099825559999893, -29.83498694 ], [ -50.09876865, -29.836766000999901 ], [ -50.100874919, -29.842291237 ], [ -50.103773404, -29.844383321999899 ], [ -50.103536334, -29.8465127539999 ], [ -50.099898251, -29.850519748 ], [ -50.099782715999893, -29.855881245 ], [ -50.098740231, -29.855554943 ], [ -50.098225639, -29.850820917 ], [ -50.0994348629999, -29.847847054999892 ], [ -50.096463789, -29.845837431999893 ], [ -50.09602869, -29.852487004999897 ], [ -50.063659635, -29.860048102999901 ], [ -50.075267037999893, -29.884470586 ], [ -50.1090613699999, -29.884516471 ], [ -50.107852803, -29.886880404 ], [ -50.109166484999896, -29.887912964 ], [ -50.112447634, -29.886430878999896 ], [ -50.114240531, -29.887634273999893 ], [ -50.113911879999897, -29.89345449099989 ], [ -50.115865178, -29.892531572999903 ], [ -50.116258490999897, -29.895287778 ], [ -50.121107744, -29.896994497 ], [ -50.119882914, -29.902182911 ], [ -50.125366969, -29.902703413 ], [ -50.127833403, -29.907177466 ], [ -50.13216443999989, -29.904623677999989 ], [ -50.1347985479999, -29.905466698999899 ], [ -50.137480471999901, -29.908746673999886 ], [ -50.137807182, -29.911418904999902 ], [ -50.141676301, -29.914200087 ], [ -50.1514110909999, -29.913836269999901 ], [ -50.151256348999894, -29.915621309 ], [ -50.146784911999909, -29.918914114 ], [ -50.142733045999897, -29.928346328 ], [ -50.140932313999897, -29.927909846 ], [ -50.132193184, -29.934502247 ], [ -50.128795101, -29.940355096 ], [ -50.129670384999898, -29.943628214999894 ], [ -50.127908088, -29.946710435999901 ], [ -50.1319287379999, -29.947532977 ], [ -50.136358475999891, -29.950373161 ], [ -50.136684455, -29.952903002 ], [ -50.133726341999903, -29.956832431 ], [ -50.134688276, -29.9585978769999 ], [ -50.137809564, -29.959611077 ], [ -50.14102991, -29.957020106999895 ], [ -50.141834132, -29.960802905 ], [ -50.147315056, -29.962455253 ], [ -50.149377425, -29.964884395 ], [ -50.153757126999899, -29.965450985000011 ], [ -50.155053298, -29.986649718 ], [ -50.177377399, -29.989148707 ] ] ] } }
]
}
