{
"type": "FeatureCollection",
"name": "bairros_espumoso",
"crs": { "type": "name", "properties": { "name": "urn:ogc:def:crs:OGC:1.3:CRS84" } },
"features": [
{ "type": "Feature", "properties": { "name": "Cooperativa Velha", "code_muni": 4307500.0, "name_muni": "Espumoso" }, "geometry": { "type": "Polygon", "coordinates": [ [ [ -52.8479076, -28.7429971 ], [ -52.8559971, -28.7457251 ], [ -52.8577781, -28.7431853 ], [ -52.8604281, -28.7431312 ], [ -52.8609028, -28.7433546 ], [ -52.8611978, -28.7432547 ], [ -52.8608063, -28.7430583 ], [ -52.8585559, -28.741873 ], [ -52.8585425, -28.7417743 ], [ -52.8585666, -28.7416708 ], [ -52.858631, -28.7415344 ], [ -52.8589475, -28.7410734 ], [ -52.8589851, -28.740937 ], [ -52.858969, -28.7408759 ], [ -52.8588215, -28.7407653 ], [ -52.8489913, -28.736031 ], [ -52.8474212, -28.7352253 ], [ -52.8473394, -28.7356594 ], [ -52.8446723, -28.7351545 ], [ -52.8445923, -28.735302 ], [ -52.8444743, -28.7356972 ], [ -52.8445065, -28.7358053 ], [ -52.8446894, -28.7361431 ], [ -52.8447586, -28.736271 ], [ -52.844764, -28.7364874 ], [ -52.8449178, -28.736892 ], [ -52.8449464, -28.7369672 ], [ -52.8448498, -28.7370706 ], [ -52.8448069, -28.7371647 ], [ -52.8447425, -28.7373576 ], [ -52.8446889, -28.7374469 ], [ -52.8444636, -28.738002 ], [ -52.8444153, -28.7382089 ], [ -52.8444636, -28.7384959 ], [ -52.8445172, -28.7390885 ], [ -52.8445011, -28.7403162 ], [ -52.8446084, -28.7405937 ], [ -52.8446728, -28.7406877 ], [ -52.8447104, -28.7407912 ], [ -52.8449839, -28.7412333 ], [ -52.84522, -28.74137450000001 ], [ -52.8452843, -28.7414544 ], [ -52.8452897, -28.7415485 ], [ -52.844941, -28.7420894 ], [ -52.8447855, -28.7422399 ], [ -52.8446889, -28.7423057 ], [ -52.8445655, -28.7423481 ], [ -52.8442115, -28.742381 ], [ -52.8439325, -28.7425785 ], [ -52.843852, -28.7426585 ], [ -52.843498, -28.7428466 ], [ -52.8433049, -28.7429877 ], [ -52.843262, -28.7430771 ], [ -52.8432083, -28.7434016 ], [ -52.843203, -28.7435992 ], [ -52.843262, -28.743730899999989 ], [ -52.8432727, -28.7439378 ], [ -52.8479076, -28.7429971 ] ] ] } },
{ "type": "Feature", "properties": { "name": "Santa Júlia", "code_muni": 4307500.0, "name_muni": "Espumoso" }, "geometry": { "type": "Polygon", "coordinates": [ [ [ -52.8590378, -28.736781 ], [ -52.8593988, -28.7370217 ], [ -52.8601207, -28.7375463 ], [ -52.8613813, -28.7385409 ], [ -52.8616727, -28.738714 ], [ -52.8620503, -28.7388871 ], [ -52.8623687, -28.7389832 ], [ -52.8629274, -28.7390847 ], [ -52.8633557, -28.7391384 ], [ -52.8638203, -28.7392644 ], [ -52.8651431, -28.7397124 ], [ -52.8644246, -28.7376304 ], [ -52.8592933, -28.71884 ], [ -52.8582283, -28.719618 ], [ -52.8567697, -28.7209446 ], [ -52.8554608, -28.722563 ], [ -52.8547419, -28.7232122 ], [ -52.8540446, -28.7234545 ], [ -52.8541546, -28.7237385 ], [ -52.8542292, -28.7238959 ], [ -52.8542496, -28.7240516 ], [ -52.8542054, -28.724224 ], [ -52.8540444, -28.7243699 ], [ -52.8539264, -28.7244028 ], [ -52.8535187, -28.724591 ], [ -52.85317, -28.7250332 ], [ -52.8531164, -28.7251319 ], [ -52.8531271, -28.725230700000012 ], [ -52.8533685, -28.7254659 ], [ -52.8533417, -28.72556 ], [ -52.8528911, -28.7256965 ], [ -52.8522098, -28.7256776 ], [ -52.8517968, -28.7255741 ], [ -52.8515607, -28.725804599999986 ], [ -52.8512871, -28.7259881 ], [ -52.8514643, -28.7260956 ], [ -52.8531887, -28.7271722 ], [ -52.8522242, -28.7284356 ], [ -52.8520585, -28.7283579 ], [ -52.8515341, -28.7293539 ], [ -52.8529834, -28.7300369 ], [ -52.8530726, -28.7300789 ], [ -52.8527388, -28.7306332 ], [ -52.8525022, -28.7310262 ], [ -52.8525116, -28.7311397 ], [ -52.8525027, -28.7312453 ], [ -52.8524837, -28.7316654 ], [ -52.8525996, -28.7323637 ], [ -52.8527871, -28.733331 ], [ -52.8528592, -28.7334934 ], [ -52.8535799, -28.7339568 ], [ -52.8538618, -28.7341416 ], [ -52.8539417, -28.7342081 ], [ -52.8548107, -28.7349313 ], [ -52.8551436, -28.7351599 ], [ -52.8555628, -28.7353994 ], [ -52.8585967, -28.7365673 ], [ -52.8590378, -28.736781 ] ] ] } },
{ "type": "Feature", "properties": { "name": "Tarumã", "code_muni": 4307500.0, "name_muni": "Espumoso" }, "geometry": { "type": "Polygon", "coordinates": [ [ [ -52.8645842, -28.742107 ], [ -52.8657979, -28.7416096 ], [ -52.8651431, -28.7397124 ], [ -52.8638203, -28.7392644 ], [ -52.8633557, -28.7391384 ], [ -52.8629274, -28.7390847 ], [ -52.8623687, -28.7389832 ], [ -52.8620503, -28.7388871 ], [ -52.8616727, -28.738714 ], [ -52.8613813, -28.7385409 ], [ -52.8601207, -28.7375463 ], [ -52.8593988, -28.7370217 ], [ -52.8590378, -28.736781 ], [ -52.8585967, -28.7365673 ], [ -52.8555628, -28.7353994 ], [ -52.8551436, -28.7351599 ], [ -52.8548107, -28.7349313 ], [ -52.8539417, -28.7342081 ], [ -52.8538618, -28.7341416 ], [ -52.8535799, -28.7339568 ], [ -52.8528592, -28.7334934 ], [ -52.8522792, -28.7331879 ], [ -52.8514864, -28.7327922 ], [ -52.8514083, -28.7327458 ], [ -52.8511211, -28.7325502 ], [ -52.8509494, -28.7324091 ], [ -52.8507939, -28.7322585 ], [ -52.8506383, -28.7320563 ], [ -52.8505125, -28.7319448 ], [ -52.8502881, -28.7318561 ], [ -52.8490671, -28.7314932 ], [ -52.8486456, -28.731863 ], [ -52.8483452, -28.7323428 ], [ -52.8481891, -28.7327684 ], [ -52.8480022, -28.7332617 ], [ -52.84774, -28.7339074 ], [ -52.8476398, -28.7341542 ], [ -52.8476042, -28.7343064 ], [ -52.8475539, -28.7345211 ], [ -52.8475033, -28.7347897 ], [ -52.8474212, -28.7352253 ], [ -52.8489913, -28.736031 ], [ -52.8588215, -28.7407653 ], [ -52.858969, -28.7408759 ], [ -52.8589851, -28.740937 ], [ -52.8589475, -28.7410734 ], [ -52.858631, -28.7415344 ], [ -52.8585666, -28.7416708 ], [ -52.8585425, -28.7417743 ], [ -52.8585559, -28.741873 ], [ -52.8608063, -28.7430583 ], [ -52.8611978, -28.7432547 ], [ -52.8645842, -28.742107 ] ] ] } },
{ "type": "Feature", "properties": { "name": "Maravalha", "code_muni": 4307500.0, "name_muni": "Espumoso" }, "geometry": { "type": "Polygon", "coordinates": [ [ [ -52.8481891, -28.7327684 ], [ -52.8483452, -28.7323428 ], [ -52.8486456, -28.731863 ], [ -52.8490671, -28.7314932 ], [ -52.8502881, -28.7318561 ], [ -52.8505125, -28.7319448 ], [ -52.8506383, -28.7320563 ], [ -52.8507939, -28.7322585 ], [ -52.8509494, -28.7324091 ], [ -52.8511211, -28.7325502 ], [ -52.8514083, -28.7327458 ], [ -52.8514864, -28.7327922 ], [ -52.8522792, -28.7331879 ], [ -52.8528592, -28.7334934 ], [ -52.8527871, -28.733331 ], [ -52.8525996, -28.7323637 ], [ -52.8524837, -28.7316654 ], [ -52.8525027, -28.7312453 ], [ -52.8525116, -28.7311397 ], [ -52.8525022, -28.7310262 ], [ -52.8527388, -28.7306332 ], [ -52.8530726, -28.7300789 ], [ -52.8529834, -28.7300369 ], [ -52.8515341, -28.7293539 ], [ -52.8520585, -28.7283579 ], [ -52.8522242, -28.7284356 ], [ -52.8531887, -28.7271722 ], [ -52.8514643, -28.7260956 ], [ -52.8512871, -28.7259881 ], [ -52.8510404, -28.7261998 ], [ -52.8504878, -28.7264491 ], [ -52.8502786, -28.7267408 ], [ -52.8501396, -28.7270612 ], [ -52.8500909, -28.7271736 ], [ -52.8499943, -28.7272347 ], [ -52.8496563, -28.7273147 ], [ -52.8494471, -28.7273947 ], [ -52.8492755, -28.7275405 ], [ -52.8488678, -28.7281614 ], [ -52.8488302, -28.728363699999989 ], [ -52.8487873, -28.7284531 ], [ -52.8487283, -28.7285425 ], [ -52.8486425, -28.728613 ], [ -52.848433300000011, -28.7289329 ], [ -52.8482401, -28.7293045 ], [ -52.8481972, -28.7294974 ], [ -52.8481168, -28.7296809 ], [ -52.8480899, -28.7298831 ], [ -52.8480685, -28.7299772 ], [ -52.8480202, -28.7300666 ], [ -52.8480095, -28.7301748 ], [ -52.8477466, -28.7304476 ], [ -52.8472692, -28.7311438 ], [ -52.8470224, -28.731379 ], [ -52.8468454, -28.7314213 ], [ -52.8466415, -28.7315766 ], [ -52.846569700000011, -28.7316663 ], [ -52.84622310000001, -28.7320987 ], [ -52.8460762, -28.7323667 ], [ -52.8461102, -28.7323863 ], [ -52.8465171, -28.7325745 ], [ -52.8471385, -28.7328621 ], [ -52.8480022, -28.7332617 ], [ -52.8481891, -28.7327684 ] ] ] } },
{ "type": "Feature", "properties": { "name": "União", "code_muni": 4307500.0, "name_muni": "Espumoso" }, "geometry": { "type": "Polygon", "coordinates": [ [ [ -52.8474212, -28.7352253 ], [ -52.8475033, -28.7347897 ], [ -52.8475539, -28.7345211 ], [ -52.8476042, -28.7343064 ], [ -52.8476398, -28.7341542 ], [ -52.84774, -28.7339074 ], [ -52.8480022, -28.7332617 ], [ -52.8471385, -28.7328621 ], [ -52.8465171, -28.7325745 ], [ -52.8461102, -28.7323863 ], [ -52.8460762, -28.7323667 ], [ -52.84622310000001, -28.7320987 ], [ -52.846569700000011, -28.7316663 ], [ -52.8461188, -28.7314971 ], [ -52.8457567, -28.7313846 ], [ -52.84526, -28.7312304 ], [ -52.8448133, -28.7310916 ], [ -52.844531, -28.7310039 ], [ -52.8441414, -28.7308829 ], [ -52.8433578, -28.7306396 ], [ -52.8429801, -28.731425399999985 ], [ -52.8423245, -28.7327653 ], [ -52.8419956, -28.7334445 ], [ -52.8417282, -28.7346335 ], [ -52.8428391, -28.7348259 ], [ -52.8439858, -28.7350245 ], [ -52.8446723, -28.7351545 ], [ -52.8473394, -28.7356594 ], [ -52.8474212, -28.7352253 ] ] ] } },
{ "type": "Feature", "properties": { "name": "Norte América", "code_muni": 4307500.0, "name_muni": "Espumoso" }, "geometry": { "type": "Polygon", "coordinates": [ [ [ -52.8374417, -28.7366614 ], [ -52.8394533, -28.7366896 ], [ -52.8415137, -28.7367493 ], [ -52.8428486, -28.7367879 ], [ -52.8441633, -28.736826 ], [ -52.8446219, -28.7368813 ], [ -52.8448655, -28.736896 ], [ -52.8449178, -28.736892 ], [ -52.844764, -28.7364874 ], [ -52.8447586, -28.736271 ], [ -52.8446894, -28.7361431 ], [ -52.843777, -28.7359558 ], [ -52.842609, -28.7357539 ], [ -52.8415187, -28.7355654 ], [ -52.8405813, -28.735361 ], [ -52.8393515, -28.7353169 ], [ -52.8391724, -28.7352536 ], [ -52.8389501, -28.7350766 ], [ -52.8389184, -28.7350459 ], [ -52.8383951, -28.7354479 ], [ -52.8372236, -28.7363475 ], [ -52.8369306, -28.736458 ], [ -52.8368948, -28.7366679 ], [ -52.8374417, -28.7366614 ] ] ] } },
{ "type": "Feature", "properties": { "name": "Jardim", "code_muni": 4307500.0, "name_muni": "Espumoso" }, "geometry": { "type": "Polygon", "coordinates": [ [ [ -52.8388828, -28.7350115 ], [ -52.8389184, -28.7350459 ], [ -52.8389501, -28.7350766 ], [ -52.8391724, -28.7352536 ], [ -52.8393515, -28.7353169 ], [ -52.8405813, -28.735361 ], [ -52.8415187, -28.7355654 ], [ -52.842609, -28.7357539 ], [ -52.843777, -28.7359558 ], [ -52.8446894, -28.7361431 ], [ -52.8445065, -28.7358053 ], [ -52.8444743, -28.7356972 ], [ -52.8445923, -28.735302 ], [ -52.8446723, -28.7351545 ], [ -52.8439858, -28.7350245 ], [ -52.8428391, -28.7348259 ], [ -52.8417282, -28.7346335 ], [ -52.8419956, -28.7334445 ], [ -52.8423245, -28.7327653 ], [ -52.8414342, -28.7324368 ], [ -52.8407118, -28.7321703 ], [ -52.840627, -28.732139 ], [ -52.8398933, -28.7318683 ], [ -52.8392707, -28.731638599999989 ], [ -52.83918580000001, -28.7316073 ], [ -52.8391287, -28.7317294 ], [ -52.8380652, -28.7341614 ], [ -52.8381151, -28.734213 ], [ -52.8385589, -28.734665199999988 ], [ -52.8388828, -28.7350115 ] ] ] } },
{ "type": "Feature", "properties": { "name": "Brasil", "code_muni": 4307500.0, "name_muni": "Espumoso" }, "geometry": { "type": "Polygon", "coordinates": [ [ [ -52.8429801, -28.731425399999985 ], [ -52.8433578, -28.7306396 ], [ -52.8426502, -28.7304198 ], [ -52.8420327, -28.730228 ], [ -52.8418518, -28.7301266 ], [ -52.8418065, -28.7300958 ], [ -52.8416165, -28.730331 ], [ -52.8415792, -28.7303011 ], [ -52.8409974, -28.7298256 ], [ -52.8403567, -28.7293191 ], [ -52.8402955, -28.7292699 ], [ -52.8400652, -28.729728099999985 ], [ -52.83918580000001, -28.7316073 ], [ -52.8392707, -28.731638599999989 ], [ -52.8398933, -28.7318683 ], [ -52.840627, -28.732139 ], [ -52.8407118, -28.7321703 ], [ -52.8414342, -28.7324368 ], [ -52.8423245, -28.7327653 ], [ -52.8429801, -28.731425399999985 ] ] ] } },
{ "type": "Feature", "properties": { "name": "Centro", "code_muni": 4307500.0, "name_muni": "Espumoso" }, "geometry": { "type": "Polygon", "coordinates": [ [ [ -52.8496623, -28.7208547 ], [ -52.849028, -28.7210892 ], [ -52.8489327, -28.7211339 ], [ -52.8480202, -28.7214955 ], [ -52.8466308, -28.7222482 ], [ -52.8457886, -28.7230668 ], [ -52.844426, -28.7245063 ], [ -52.8434765, -28.7254895 ], [ -52.8423768, -28.7266232 ], [ -52.8411001, -28.7279897 ], [ -52.8403679, -28.7291258 ], [ -52.8402955, -28.7292699 ], [ -52.8403567, -28.7293191 ], [ -52.8409974, -28.7298256 ], [ -52.8415792, -28.7303011 ], [ -52.8416165, -28.730331 ], [ -52.8418065, -28.7300958 ], [ -52.8418518, -28.7301266 ], [ -52.8420327, -28.730228 ], [ -52.8426502, -28.7304198 ], [ -52.8433578, -28.7306396 ], [ -52.8441414, -28.7308829 ], [ -52.844531, -28.7310039 ], [ -52.8448133, -28.7310916 ], [ -52.84526, -28.7312304 ], [ -52.8457567, -28.7313846 ], [ -52.8461188, -28.7314971 ], [ -52.846569700000011, -28.7316663 ], [ -52.8466415, -28.7315766 ], [ -52.8468454, -28.7314213 ], [ -52.8470224, -28.731379 ], [ -52.8472692, -28.7311438 ], [ -52.8477466, -28.7304476 ], [ -52.8480095, -28.7301748 ], [ -52.8480202, -28.7300666 ], [ -52.8480685, -28.7299772 ], [ -52.8480899, -28.7298831 ], [ -52.8481168, -28.7296809 ], [ -52.8481972, -28.7294974 ], [ -52.8482401, -28.7293045 ], [ -52.848433300000011, -28.7289329 ], [ -52.8486425, -28.728613 ], [ -52.8487283, -28.7285425 ], [ -52.8487873, -28.7284531 ], [ -52.8488302, -28.728363699999989 ], [ -52.8488678, -28.7281614 ], [ -52.8492755, -28.7275405 ], [ -52.8494471, -28.7273947 ], [ -52.8496563, -28.7273147 ], [ -52.8499943, -28.7272347 ], [ -52.8500909, -28.7271736 ], [ -52.8501396, -28.7270612 ], [ -52.8502786, -28.7267408 ], [ -52.8504878, -28.7264491 ], [ -52.8510404, -28.7261998 ], [ -52.8512871, -28.7259881 ], [ -52.8515607, -28.725804599999986 ], [ -52.8517968, -28.7255741 ], [ -52.8522098, -28.7256776 ], [ -52.8528911, -28.7256965 ], [ -52.8533417, -28.72556 ], [ -52.8533685, -28.7254659 ], [ -52.8531271, -28.725230700000012 ], [ -52.8531164, -28.7251319 ], [ -52.85317, -28.7250332 ], [ -52.8535187, -28.724591 ], [ -52.8539264, -28.7244028 ], [ -52.8540444, -28.7243699 ], [ -52.8542054, -28.724224 ], [ -52.8542496, -28.7240516 ], [ -52.8542292, -28.7238959 ], [ -52.8541546, -28.7237385 ], [ -52.8540446, -28.7234545 ], [ -52.853843466693235, -28.723495588420814 ], [ -52.853637510999903, -28.7236998 ], [ -52.852971764055852, -28.723619742453639 ], [ -52.8525173, -28.7236247 ], [ -52.85232458107712, -28.723541913980849 ], [ -52.851861814999893, -28.723486260999884 ], [ -52.851167545821667, -28.722488759000811 ], [ -52.8510904, -28.7224016 ], [ -52.851034571240774, -28.722297703 ], [ -52.849925475596756, -28.720704136080169 ], [ -52.8496623, -28.7208547 ] ] ] } },
{ "type": "Feature", "properties": { "name": "São Jorge", "code_muni": 4307500.0, "name_muni": "Espumoso" }, "geometry": { "type": "Polygon", "coordinates": [ [ [ -52.849925475596756, -28.720704136080169 ], [ -52.848558398, -28.718739813 ], [ -52.845670738, -28.71735653 ], [ -52.839470114332762, -28.720121627509435 ], [ -52.8394216, -28.720305 ], [ -52.8391963, -28.7221868 ], [ -52.8390031, -28.72309 ], [ -52.8388207, -28.7236639 ], [ -52.8387196, -28.7237546 ], [ -52.8393543, -28.7241943 ], [ -52.8399714, -28.7246907 ], [ -52.8405291, -28.7251392 ], [ -52.8410957, -28.725595 ], [ -52.8423071, -28.7265693 ], [ -52.8423768, -28.7266232 ], [ -52.8434765, -28.7254895 ], [ -52.844426, -28.7245063 ], [ -52.8457886, -28.7230668 ], [ -52.8466308, -28.7222482 ], [ -52.8480202, -28.7214955 ], [ -52.8489327, -28.7211339 ], [ -52.849028, -28.7210892 ], [ -52.8496623, -28.7208547 ], [ -52.849925475596756, -28.720704136080169 ] ] ] } },
{ "type": "Feature", "properties": { "name": "Franciosi", "code_muni": 4307500.0, "name_muni": "Espumoso" }, "geometry": { "type": "Polygon", "coordinates": [ [ [ -52.8402955, -28.7292699 ], [ -52.8403679, -28.7291258 ], [ -52.8411001, -28.7279897 ], [ -52.8423768, -28.7266232 ], [ -52.8423071, -28.7265693 ], [ -52.8410957, -28.725595 ], [ -52.8405291, -28.7251392 ], [ -52.8399714, -28.7246907 ], [ -52.8393543, -28.7241943 ], [ -52.8387196, -28.7237546 ], [ -52.8383487, -28.7240873 ], [ -52.8376191, -28.7247271 ], [ -52.8368896, -28.7249529 ], [ -52.8358859, -28.7251679 ], [ -52.8346413, -28.7252808 ], [ -52.8354836, -28.7260846 ], [ -52.8363955, -28.7268114 ], [ -52.8375328, -28.7277357 ], [ -52.8386687, -28.728646 ], [ -52.8398556, -28.7296244 ], [ -52.8399816, -28.7296846 ], [ -52.8400652, -28.729728099999985 ], [ -52.8402955, -28.7292699 ] ] ] } },
{ "type": "Feature", "properties": { "name": "Martini", "code_muni": 4307500.0, "name_muni": "Espumoso" }, "geometry": { "type": "Polygon", "coordinates": [ [ [ -52.825098, -28.7400151 ], [ -52.825208, -28.7400622 ], [ -52.8257847, -28.7404925 ], [ -52.826364, -28.7408994 ], [ -52.8275147, -28.7418142 ], [ -52.8283221, -28.7424492 ], [ -52.8290918, -28.7430959 ], [ -52.8296497, -28.7434981 ], [ -52.8302103, -28.7439425 ], [ -52.8307307, -28.74438 ], [ -52.8319511, -28.7453583 ], [ -52.8320771, -28.7454218 ], [ -52.8325586, -28.7443352 ], [ -52.8330937, -28.7431124 ], [ -52.8332332, -28.7427502 ], [ -52.834526, -28.7398293 ], [ -52.8350517, -28.738684 ], [ -52.8353387, -28.7381948 ], [ -52.8360468, -28.7373388 ], [ -52.8363767, -28.7369425 ], [ -52.8369306, -28.736458 ], [ -52.8371707, -28.7360452 ], [ -52.8377876, -28.7347776 ], [ -52.8380652, -28.7341614 ], [ -52.8391287, -28.7317294 ], [ -52.83918580000001, -28.7316073 ], [ -52.8400652, -28.729728099999985 ], [ -52.8399816, -28.7296846 ], [ -52.8398556, -28.7296244 ], [ -52.8386687, -28.728646 ], [ -52.8375328, -28.7277357 ], [ -52.8363955, -28.7268114 ], [ -52.8354836, -28.7260846 ], [ -52.8346413, -28.7252808 ], [ -52.8336865, -28.725233700000011 ], [ -52.8332552, -28.7251136 ], [ -52.8333593, -28.7263833 ], [ -52.8270722, -28.7310873 ], [ -52.8255701, -28.7335334 ], [ -52.8249157, -28.7400433 ], [ -52.825098, -28.7400151 ] ] ] } }
]
}
