{
"type": "FeatureCollection",
"name": "bairros_julio_de_castilhos",
"crs": { "type": "name", "properties": { "name": "urn:ogc:def:crs:OGC:1.3:CRS84" } },
"features": [
{ "type": "Feature", "properties": { "code_muni": 4311205.0, "name_muni": "Júlio de Castilhos", "code_state": 43.0, "abbrev_state": "RS", "name_state": "Rio Grande do Sul", "code_region": 4.0, "name_region": "Sul", "year": 2022.0 }, "geometry": { "type": "Polygon", "coordinates": [ [ [ -53.613319698999895, -29.595728182999892 ], [ -53.6242558759999, -29.604538352 ], [ -53.627227319, -29.6047289639999 ], [ -53.630394571999901, -29.601334934999986 ], [ -53.655521817, -29.594176338 ], [ -53.672313586, -29.580691137 ], [ -53.687154608, -29.575897722 ], [ -53.695368948, -29.556237273 ], [ -53.701443726, -29.549493025999901 ], [ -53.707729023, -29.547317689 ], [ -53.708563956, -29.5457671 ], [ -53.706609962999892, -29.543756001 ], [ -53.706505518, -29.539195371999899 ], [ -53.7108115509999, -29.533836076999904 ], [ -53.711290543, -29.5297295949999 ], [ -53.716575975, -29.521744237 ], [ -53.721617861, -29.518023558 ], [ -53.716909679, -29.513401776 ], [ -53.708606964999895, -29.509712049 ], [ -53.69906965, -29.499274462 ], [ -53.695672236999897, -29.49318887 ], [ -53.688452786, -29.488767803 ], [ -53.68728526, -29.486157815 ], [ -53.688916934, -29.473534958999892 ], [ -53.687191255, -29.467071415 ], [ -53.689861058, -29.460416973 ], [ -53.689639058, -29.4568095939999 ], [ -53.687105711999898, -29.452955019999898 ], [ -53.693994030999903, -29.452813150999901 ], [ -53.692473855999893, -29.452039197 ], [ -53.690332473, -29.443683768 ], [ -53.692080550999897, -29.438568013 ], [ -53.691915246, -29.429822897999905 ], [ -53.694769999, -29.424981203999895 ], [ -53.692971203, -29.415557495 ], [ -53.696703906, -29.41088918 ], [ -53.700659704, -29.409083854 ], [ -53.709285328, -29.407133503 ], [ -53.714324362, -29.407647814 ], [ -53.719897596999893, -29.405000935 ], [ -53.720018975, -29.402065512 ], [ -53.718412816, -29.399794058999898 ], [ -53.721079768, -29.3988199039999 ], [ -53.719055617, -29.397203465 ], [ -53.720363344, -29.395196165999902 ], [ -53.718329776, -29.395532005 ], [ -53.718093229, -29.394637448 ], [ -53.719747841, -29.391980417999896 ], [ -53.723028341, -29.391850142999893 ], [ -53.725099392999894, -29.393632620999892 ], [ -53.728413444, -29.38786999 ], [ -53.730710234999897, -29.386087435 ], [ -53.73558474, -29.387323250999902 ], [ -53.737306175999898, -29.38329121 ], [ -53.739644762, -29.383602537999899 ], [ -53.741735878, -29.38768625599991 ], [ -53.743480513999891, -29.383345634 ], [ -53.7424359729999, -29.38048642 ], [ -53.743297412999894, -29.377085963 ], [ -53.745908965, -29.376931278 ], [ -53.748238157999893, -29.373476738 ], [ -53.754344353, -29.371637752 ], [ -53.756146788, -29.367768898999895 ], [ -53.762422463, -29.363256685 ], [ -53.7621336939999, -29.359881105999893 ], [ -53.759465887, -29.359628222 ], [ -53.758972707999902, -29.356511193 ], [ -53.761962189, -29.35524358 ], [ -53.762030646, -29.353260702999894 ], [ -53.76501985999991, -29.350256315 ], [ -53.763981294, -29.348708138999896 ], [ -53.765552485999891, -29.344756634 ], [ -53.771819111, -29.344409329 ], [ -53.77312637099989, -29.346951208999901 ], [ -53.776708068999895, -29.346835455 ], [ -53.783871298, -29.342766664999893 ], [ -53.78415001, -29.346835972 ], [ -53.79212803, -29.345011789999912 ], [ -53.793831304, -29.353652854 ], [ -53.792864092999892, -29.354779086 ], [ -53.785628931, -29.355097857 ], [ -53.78535299, -29.356055532 ], [ -53.787548850999897, -29.358414648999904 ], [ -53.79274273, -29.359280796 ], [ -53.800848156, -29.355381271999903 ], [ -53.802010944999893, -29.356387133999906 ], [ -53.800937662, -29.359134492 ], [ -53.791297058999902, -29.366729672999988 ], [ -53.790767027999898, -29.371072851 ], [ -53.793445538, -29.374372696 ], [ -53.79961205, -29.370271762999892 ], [ -53.80417979, -29.370380494 ], [ -53.80718381, -29.368966639999904 ], [ -53.809525957999902, -29.36508700900001 ], [ -53.812372602, -29.370180257999895 ], [ -53.817850743, -29.368613543 ], [ -53.817810756, -29.364461639999902 ], [ -53.820380418999903, -29.359169305 ], [ -53.826285922999901, -29.354768147999899 ], [ -53.829595573999903, -29.357977879 ], [ -53.825516158, -29.364119188 ], [ -53.824937153999898, -29.36724179 ], [ -53.836455889, -29.368000712 ], [ -53.837884812, -29.3580080579999 ], [ -53.840314818, -29.355653579 ], [ -53.842171079, -29.362004463999899 ], [ -53.852234363, -29.370427956999904 ], [ -53.856837221, -29.370508760999904 ], [ -53.866963687999899, -29.365972236999905 ], [ -53.867833643, -29.367829797999892 ], [ -53.863975672, -29.369983041 ], [ -53.861783192, -29.374311269 ], [ -53.864221944999898, -29.376110020999889 ], [ -53.868740486, -29.383507933 ], [ -53.874440983999897, -29.38445079 ], [ -53.876864994, -29.382622523 ], [ -53.881215485, -29.384959513 ], [ -53.879827293999909, -29.389864334999988 ], [ -53.885185866, -29.394798576 ], [ -53.890252577, -29.394728864999902 ], [ -53.89146937399989, -29.3858966 ], [ -53.89655964, -29.383485504 ], [ -53.901930524, -29.385743213999891 ], [ -53.905642676, -29.389571146 ], [ -53.901627313999903, -29.395744578999903 ], [ -53.902065708, -29.397326424999989 ], [ -53.911273665, -29.4013502829999 ], [ -53.913823615999895, -29.395256822 ], [ -53.932303949999891, -29.395082541 ], [ -53.946913904, -29.404374407 ], [ -53.950981898999892, -29.401611683999899 ], [ -53.958223194, -29.405654114999908 ], [ -53.961187665, -29.405111899 ], [ -53.965360569, -29.401831817999899 ], [ -53.972934231999893, -29.405815795999985 ], [ -53.983362278999898, -29.405563994 ], [ -53.996426764, -29.408798397999902 ], [ -54.002261852999894, -29.415102858000012 ], [ -53.99649343, -29.417761552999899 ], [ -53.995251644999897, -29.419639850999904 ], [ -53.996552045, -29.42133508400001 ], [ -54.002922488, -29.419715686 ], [ -54.01269279, -29.422767183 ], [ -54.013984708, -29.420326660999898 ], [ -54.009091333999891, -29.412961696 ], [ -54.012240999, -29.410580592 ], [ -54.016372906, -29.411059205000011 ], [ -54.021762926, -29.416217998 ], [ -54.020450836, -29.409362544 ], [ -54.024020080999897, -29.405173126 ], [ -54.027064584, -29.404745810999898 ], [ -54.025391989, -29.394916875 ], [ -54.021699231, -29.38800681 ], [ -54.016034982, -29.3916325819999 ], [ -54.014773772, -29.396986276 ], [ -54.013065695, -29.397520545 ], [ -54.000554333, -29.39635737 ], [ -53.999687907, -29.394837195 ], [ -54.000018607999898, -29.392462651999892 ], [ -54.002342697999907, -29.390755702 ], [ -54.002010941, -29.388779025 ], [ -54.014365751999897, -29.382016403 ], [ -54.016926723, -29.376741935 ], [ -54.012403424999896, -29.3735333609999 ], [ -54.003112813, -29.375602611 ], [ -54.000741677, -29.374359435 ], [ -53.999926939, -29.366797319999893 ], [ -54.004696652999897, -29.368094581 ], [ -54.008678421, -29.3677136589999 ], [ -54.016000079, -29.359494966999893 ], [ -54.015251209, -29.358442203 ], [ -54.005270819, -29.357442444999904 ], [ -54.001083426, -29.353910481999897 ], [ -54.000772361, -29.345643735 ], [ -54.000062876999898, -29.343737411999907 ], [ -53.996952176, -29.342097198 ], [ -53.997665893, -29.335937062 ], [ -53.989066909, -29.331369747999901 ], [ -53.993179978999891, -29.317683776 ], [ -53.989756160999903, -29.316461086999912 ], [ -53.987825224999902, -29.314070113999893 ], [ -53.984340854, -29.306125936999898 ], [ -53.987240109, -29.300818637 ], [ -53.987232193, -29.298263619999897 ], [ -53.981302381, -29.294212065 ], [ -53.974509629999901, -29.298175187 ], [ -53.969020724, -29.29787630300001 ], [ -53.963733743, -29.294206646 ], [ -53.961262666, -29.291322534999896 ], [ -53.958931119999896, -29.284723175 ], [ -53.952387159999894, -29.279870791999901 ], [ -53.947652599, -29.273459808 ], [ -53.948712652, -29.264854145 ], [ -53.945551552, -29.263413886 ], [ -53.943357815999903, -29.2580214279999 ], [ -53.942287122, -29.253753561999901 ], [ -53.943414139, -29.249152818 ], [ -53.942010329, -29.246534928999907 ], [ -53.935332845999902, -29.24812244799989 ], [ -53.933310793, -29.250570932 ], [ -53.931393998, -29.250854155 ], [ -53.929649041999902, -29.242048661999895 ], [ -53.923685126999899, -29.240088515 ], [ -53.917863385, -29.242003148 ], [ -53.913583976, -29.24085285 ], [ -53.913405269999899, -29.239293728999897 ], [ -53.917277363, -29.237753413999894 ], [ -53.917162560999891, -29.235971492 ], [ -53.92688080499989, -29.233411292 ], [ -53.927039196, -29.231980483 ], [ -53.919651261999896, -29.230127633999896 ], [ -53.917652656, -29.226387685 ], [ -53.919914734, -29.220669982999894 ], [ -53.91493639, -29.220056117999896 ], [ -53.915461764, -29.217763045 ], [ -53.909593674, -29.217504786999903 ], [ -53.910387132, -29.214534358 ], [ -53.915727982999989, -29.212917466 ], [ -53.913767235, -29.211202025 ], [ -53.904011377, -29.210779466 ], [ -53.90185266399989, -29.206619631 ], [ -53.909840836999891, -29.204196508999889 ], [ -53.910632289, -29.199855618 ], [ -53.913772407, -29.197651779 ], [ -53.915018258, -29.194374852999903 ], [ -53.913942568, -29.193357375999902 ], [ -53.906832427, -29.194624731 ], [ -53.902410781, -29.192788292999989 ], [ -53.901381700999899, -29.189411473 ], [ -53.89458473, -29.189196079999899 ], [ -53.893530767999899, -29.1833155469999 ], [ -53.891740566, -29.182597756999908 ], [ -53.890814443999901, -29.179503327 ], [ -53.886214244, -29.177284571 ], [ -53.886300795, -29.174310056 ], [ -53.891507007, -29.17201915 ], [ -53.894322966999894, -29.172735952 ], [ -53.895921289999897, -29.169890726999906 ], [ -53.894960962, -29.168072020999901 ], [ -53.88552197699989, -29.166523308 ], [ -53.876943604, -29.163283076999985 ], [ -53.877532247, -29.158377384999898 ], [ -53.87978161, -29.157137075 ], [ -53.879571863, -29.155431703 ], [ -53.877650117, -29.15258799 ], [ -53.873075664999902, -29.152365399 ], [ -53.873934038999899, -29.149704679 ], [ -53.86863232, -29.145241746 ], [ -53.865230593, -29.144423668999895 ], [ -53.8632459, -29.146883800999909 ], [ -53.856089459, -29.148562544 ], [ -53.84856082999989, -29.141762379999903 ], [ -53.842149534, -29.143479113999895 ], [ -53.838419162, -29.14597650699989 ], [ -53.835026585, -29.144711078999904 ], [ -53.82779394100001, -29.146910599 ], [ -53.826470168, -29.150605257999899 ], [ -53.821989216, -29.15110913 ], [ -53.819965081, -29.153123772999898 ], [ -53.813202818, -29.1504746429999 ], [ -53.8103234129999, -29.147445478999892 ], [ -53.803171746, -29.149380336 ], [ -53.798894246, -29.148820929 ], [ -53.789413499, -29.152683168999904 ], [ -53.782976283, -29.154100118 ], [ -53.779112412, -29.153659572 ], [ -53.757633843, -29.163891181999904 ], [ -53.739357532, -29.150769727999897 ], [ -53.726695058, -29.145712223 ], [ -53.720409269999898, -29.140465533999897 ], [ -53.71787675, -29.139453359999898 ], [ -53.709346583999903, -29.139636326 ], [ -53.703683485999896, -29.134840406 ], [ -53.7026210719999, -29.132289307999901 ], [ -53.699075453, -29.131017396999905 ], [ -53.699281571, -29.129398390999899 ], [ -53.697017877, -29.127982236 ], [ -53.692504771999893, -29.119374783999891 ], [ -53.69262929, -29.115161736999895 ], [ -53.686936025, -29.111862706999901 ], [ -53.683836861, -29.112039487999901 ], [ -53.68204016899989, -29.1099610529999 ], [ -53.678139635, -29.108507306 ], [ -53.675381682, -29.109325280999901 ], [ -53.67691451, -29.107025633 ], [ -53.676256919, -29.105412693999892 ], [ -53.671430772, -29.102420946999892 ], [ -53.672412462, -29.098981403 ], [ -53.668177261, -29.093785968 ], [ -53.66806539, -29.091193627999907 ], [ -53.664291001, -29.088178056999897 ], [ -53.66408272199989, -29.058336701999984 ], [ -53.645398155, -29.029731582999904 ], [ -53.642094101999909, -29.027498844 ], [ -53.635133740999898, -29.029039161 ], [ -53.630072992999899, -29.030979532999908 ], [ -53.628534029, -29.034447934999893 ], [ -53.626582038, -29.028560043 ], [ -53.623981017999903, -29.0296074849999 ], [ -53.62277198, -29.028684731999903 ], [ -53.624531090999895, -29.024548464 ], [ -53.621132062, -29.023754891999904 ], [ -53.612616389, -29.007975105 ], [ -53.608246887, -29.006953756 ], [ -53.606332216999903, -29.000589291 ], [ -53.602213623, -28.995514789 ], [ -53.598133308999891, -28.995505362 ], [ -53.59825739, -28.992609592999894 ], [ -53.595848551999893, -28.987674422999902 ], [ -53.591682023, -28.986702771 ], [ -53.590516908, -28.988373757 ], [ -53.587898883, -28.987143245 ], [ -53.587303410999901, -28.988769031999901 ], [ -53.585119303999896, -28.989125907 ], [ -53.584028244, -28.985849266999903 ], [ -53.586408984999899, -28.981961704999911 ], [ -53.583469426, -28.980874474 ], [ -53.578469087, -28.9750891639999 ], [ -53.576343773, -28.971403210999899 ], [ -53.576599090999899, -28.967660678 ], [ -53.574760753, -28.966858214 ], [ -53.571818083, -28.971894128 ], [ -53.564871878, -28.967747765999892 ], [ -53.567575851, -28.962527120999901 ], [ -53.565584722, -28.963648727 ], [ -53.558581408, -28.963173415 ], [ -53.552594018, -28.959168308999899 ], [ -53.552040443, -28.962443003 ], [ -53.549188926999896, -28.962654759 ], [ -53.546741476, -28.968288791 ], [ -53.549987183, -28.971394926999888 ], [ -53.556364437999903, -28.967656854 ], [ -53.557251998, -28.969627148 ], [ -53.545752092, -28.975031080999905 ], [ -53.537195347, -28.97401760299989 ], [ -53.528908235, -28.967040702 ], [ -53.526271397, -28.967704480999899 ], [ -53.52415439899989, -28.973274994 ], [ -53.525532136, -28.98438006 ], [ -53.520258720999891, -28.984376489999896 ], [ -53.521681244, -28.989525018999892 ], [ -53.525213354, -28.992023791999902 ], [ -53.533615959, -28.993899020999898 ], [ -53.5313505129999, -28.999820434 ], [ -53.533350302, -29.00225051199989 ], [ -53.543336473999901, -28.998995298 ], [ -53.543923266, -29.000565278 ], [ -53.541074479, -29.00368035 ], [ -53.539869729, -29.0081682369999 ], [ -53.544659442999901, -29.007581527 ], [ -53.545672753, -29.008713374 ], [ -53.54391585, -29.010724715 ], [ -53.538860803, -29.010509398 ], [ -53.535431633, -29.00641044 ], [ -53.529567875999902, -29.006796578 ], [ -53.525928216, -29.01641303 ], [ -53.522210263, -29.021304071 ], [ -53.523274479999891, -29.024208383 ], [ -53.521234565, -29.028248673999904 ], [ -53.519986148, -29.028594085999892 ], [ -53.517303044, -29.026352367 ], [ -53.50713411, -29.033725493 ], [ -53.50692584, -29.034813448 ], [ -53.509403179999893, -29.035323662999893 ], [ -53.511460422, -29.037671176999893 ], [ -53.504972962999894, -29.046036224999987 ], [ -53.505705527, -29.047871314 ], [ -53.509562965, -29.050067904999892 ], [ -53.509324874999891, -29.051994157 ], [ -53.506817449, -29.053929234999909 ], [ -53.503348243999902, -29.052979955 ], [ -53.503116958, -29.054746528 ], [ -53.5051922, -29.056250055999989 ], [ -53.504111400999903, -29.058297692999904 ], [ -53.50481188, -29.061059234 ], [ -53.507457503999902, -29.064445033 ], [ -53.504376279, -29.065823995999899 ], [ -53.502128768, -29.064016675999895 ], [ -53.496474486, -29.062754148999893 ], [ -53.494101472999901, -29.066081593 ], [ -53.494380545, -29.073078359 ], [ -53.486380331, -29.075100502999895 ], [ -53.482771125999896, -29.0728780429999 ], [ -53.480745479999889, -29.075820434 ], [ -53.477901184, -29.073253452 ], [ -53.476603814, -29.0767570749999 ], [ -53.471615943, -29.077861677999987 ], [ -53.472668685, -29.079273257 ], [ -53.468278233, -29.082413647 ], [ -53.466863168, -29.081957834 ], [ -53.466414933999893, -29.077055280999989 ], [ -53.462416349, -29.075916983 ], [ -53.463561738, -29.081027135999889 ], [ -53.461552251999898, -29.084675718 ], [ -53.464376225, -29.085196763999896 ], [ -53.463553519999898, -29.087767461999903 ], [ -53.461216589999907, -29.089174555999907 ], [ -53.457180305, -29.08750816 ], [ -53.455272835999892, -29.088490146 ], [ -53.455475244, -29.092384868999901 ], [ -53.45394178, -29.092744028 ], [ -53.448804803, -29.0902149039999 ], [ -53.44584284, -29.086485635 ], [ -53.444727156999896, -29.088820429999899 ], [ -53.43848302899989, -29.09108062 ], [ -53.440892897, -29.095632357999889 ], [ -53.439230381999899, -29.097040068 ], [ -53.433682906999898, -29.097844080999895 ], [ -53.429083503999898, -29.094926723999901 ], [ -53.428299346, -29.097970109 ], [ -53.42522730199989, -29.098618293 ], [ -53.418423964999903, -29.1047807489999 ], [ -53.4139652819999, -29.105878262 ], [ -53.408606157999898, -29.112253107999898 ], [ -53.407610427999892, -29.118918634 ], [ -53.405444089999897, -29.120242488 ], [ -53.400541463, -29.117667454 ], [ -53.393696107, -29.118961999 ], [ -53.389875843, -29.122810563 ], [ -53.385779763999899, -29.123743673 ], [ -53.37276403, -29.121387341999903 ], [ -53.366746647999896, -29.122113289 ], [ -53.361339051, -29.128735869 ], [ -53.356361576, -29.12921548600001 ], [ -53.354684617, -29.128055330999899 ], [ -53.359019753, -29.117975222 ], [ -53.349719439, -29.111551967 ], [ -53.348690078999894, -29.1133306 ], [ -53.349947717, -29.116097400999902 ], [ -53.348454163, -29.118486365 ], [ -53.337455339, -29.123573134 ], [ -53.33211607, -29.128223574999897 ], [ -53.324687079999897, -29.12958564900001 ], [ -53.317602903, -29.128964258999897 ], [ -53.311873088, -29.132055622999893 ], [ -53.309532961999899, -29.128710926999897 ], [ -53.30370310699989, -29.128771895999886 ], [ -53.30153459, -29.13018877 ], [ -53.299056650999894, -29.126310888 ], [ -53.294853646, -29.126205848 ], [ -53.290207316, -29.127813376999896 ], [ -53.293295435999902, -29.131529536999906 ], [ -53.292787019999899, -29.132694278 ], [ -53.286811751999892, -29.135475619 ], [ -53.2811517929999, -29.12878369 ], [ -53.278748568, -29.131393419999892 ], [ -53.277637559, -29.145085217 ], [ -53.275874933999894, -29.145678358999902 ], [ -53.2685309089999, -29.139546977 ], [ -53.260993165999892, -29.144814035 ], [ -53.2580609, -29.152841628 ], [ -53.258675917999895, -29.162377402999898 ], [ -53.255148054999893, -29.169648292 ], [ -53.25166575, -29.170144023 ], [ -53.247281185, -29.166927573 ], [ -53.243766289, -29.16724879700001 ], [ -53.243113659999892, -29.168632649999907 ], [ -53.244417609, -29.175866398 ], [ -53.250783011, -29.178310952999887 ], [ -53.257566077, -29.177762317 ], [ -53.257911147, -29.184812891 ], [ -53.259673334999903, -29.187968512999905 ], [ -53.275050557, -29.192753516 ], [ -53.279376135999897, -29.201942347999893 ], [ -53.2827249589999, -29.204025955 ], [ -53.284442425, -29.201107132999898 ], [ -53.282068684, -29.196150718999895 ], [ -53.292789567999897, -29.193126376 ], [ -53.291405265, -29.1885044389999 ], [ -53.29316842, -29.187929654 ], [ -53.306648316, -29.191063288 ], [ -53.298696241, -29.182539176 ], [ -53.299151313, -29.181441999999898 ], [ -53.302051436999896, -29.180581741 ], [ -53.306186055, -29.1837184839999 ], [ -53.308762048999903, -29.181328715999907 ], [ -53.308341938999895, -29.178830827999889 ], [ -53.31197451299991, -29.175722737999894 ], [ -53.318106214, -29.177795632 ], [ -53.319970107, -29.173994057999892 ], [ -53.322814544, -29.1737101649999 ], [ -53.329192218999893, -29.169104085999901 ], [ -53.331057275, -29.171615709 ], [ -53.333868826, -29.171070254 ], [ -53.334906221, -29.178669855 ], [ -53.336402317, -29.178000235999903 ], [ -53.335973375, -29.175680434 ], [ -53.337780149, -29.1732779 ], [ -53.342281141999891, -29.175370277999896 ], [ -53.344069764, -29.174916586999892 ], [ -53.344243038999892, -29.177026627 ], [ -53.338161984, -29.179978327 ], [ -53.345259294, -29.183148100999986 ], [ -53.347121944, -29.182799342 ], [ -53.34484762599989, -29.186375063999893 ], [ -53.347456991999898, -29.186842484 ], [ -53.347360756999898, -29.191498477 ], [ -53.351882339, -29.189524891 ], [ -53.3595146, -29.191081842999903 ], [ -53.357337856, -29.187501407 ], [ -53.358713925, -29.184009418 ], [ -53.357738997, -29.178956838 ], [ -53.361766676999892, -29.181158463 ], [ -53.366781531, -29.179801381999901 ], [ -53.368498624, -29.180744686 ], [ -53.374437962999892, -29.178526679999898 ], [ -53.378899162, -29.183905285 ], [ -53.380389953, -29.181596425 ], [ -53.385066061, -29.182501687 ], [ -53.387036975999891, -29.187563682 ], [ -53.3914149249999, -29.184187707 ], [ -53.392042002, -29.181872504 ], [ -53.390094006, -29.180373652 ], [ -53.391517813, -29.179257843 ], [ -53.393737257999895, -29.180593800999894 ], [ -53.394164227, -29.18355772 ], [ -53.40455658, -29.18540689799989 ], [ -53.409447268999891, -29.193911854 ], [ -53.414556283, -29.192054203999902 ], [ -53.413821390999892, -29.190479787 ], [ -53.415261926, -29.189676572999904 ], [ -53.421023311999896, -29.189941603 ], [ -53.422670831999895, -29.187511184999892 ], [ -53.422914063, -29.18335115 ], [ -53.427703637, -29.186064893 ], [ -53.429569827, -29.183145291999896 ], [ -53.433986843, -29.181927673 ], [ -53.436836719, -29.182377960999904 ], [ -53.437192922999891, -29.185425081999902 ], [ -53.441940554, -29.183206993999896 ], [ -53.447213438999896, -29.190764612 ], [ -53.447502970999892, -29.192163243 ], [ -53.442579464999895, -29.19658535 ], [ -53.448321130999901, -29.198007726999908 ], [ -53.446879112, -29.203114663999898 ], [ -53.453539707999894, -29.199324922999896 ], [ -53.456818375999902, -29.200289018 ], [ -53.455779924, -29.204692414 ], [ -53.46123756, -29.206498252999889 ], [ -53.463199908, -29.211813745999986 ], [ -53.460678676, -29.214291316999905 ], [ -53.46039056, -29.216561473999889 ], [ -53.462198859, -29.218290689 ], [ -53.461376846, -29.219997661 ], [ -53.463850498999903, -29.221021048 ], [ -53.460003704, -29.224830325 ], [ -53.461861141, -29.2263335 ], [ -53.463541189, -29.225438568999898 ], [ -53.465569715999891, -29.226611454 ], [ -53.464021155999895, -29.227984751999898 ], [ -53.466408219, -29.231358067 ], [ -53.465070184999909, -29.23738889 ], [ -53.463818468999889, -29.238160031999893 ], [ -53.465388913, -29.240679773999897 ], [ -53.464102642999897, -29.2442188489999 ], [ -53.466498110000011, -29.244505154 ], [ -53.466824583999902, -29.247795079 ], [ -53.463017022, -29.249865165 ], [ -53.465172832, -29.253443516999894 ], [ -53.460738976, -29.255260341999897 ], [ -53.459360185, -29.257411126 ], [ -53.454011890999901, -29.257741449 ], [ -53.450255872999897, -29.261545463999902 ], [ -53.445888968, -29.26370419700001 ], [ -53.444881606, -29.266620644999897 ], [ -53.447719635999903, -29.267848705999899 ], [ -53.448372058, -29.269792869 ], [ -53.445470261, -29.27392386 ], [ -53.442403059, -29.275783755 ], [ -53.441778521999893, -29.280286068 ], [ -53.442462636, -29.282470757999899 ], [ -53.444677796, -29.282431819 ], [ -53.446643977999905, -29.287193584 ], [ -53.450691241999891, -29.289710965 ], [ -53.451343745, -29.29197153 ], [ -53.453835630999897, -29.292507808 ], [ -53.458631257, -29.297825781 ], [ -53.461280567999893, -29.298428578 ], [ -53.467678557999903, -29.303971668 ], [ -53.467609592, -29.307215148999898 ], [ -53.457574259999902, -29.315531141 ], [ -53.454691845999896, -29.319636111 ], [ -53.453644550999989, -29.324648139 ], [ -53.439586632, -29.338140419999903 ], [ -53.440380465, -29.3420155119999 ], [ -53.438866478, -29.349366326999892 ], [ -53.448646364, -29.348200898999895 ], [ -53.454747682999894, -29.352076417 ], [ -53.4619118419999, -29.349955636999901 ], [ -53.465238395, -29.352056626 ], [ -53.468633973999893, -29.350804450999906 ], [ -53.470410145999899, -29.351244553 ], [ -53.473026226999892, -29.355968736 ], [ -53.475503596, -29.355449829 ], [ -53.478004193999894, -29.356833637 ], [ -53.478160946999893, -29.358811800999892 ], [ -53.479593434, -29.359026699999987 ], [ -53.480719055, -29.357002110999904 ], [ -53.486210152, -29.358863793999898 ], [ -53.486348103, -29.360516194 ], [ -53.490123659999902, -29.358243682 ], [ -53.494812620999902, -29.358454584 ], [ -53.494749509, -29.361017406 ], [ -53.496555693999895, -29.359810818 ], [ -53.50233165, -29.362907983 ], [ -53.500185157, -29.364838716999898 ], [ -53.505298744999898, -29.367825011 ], [ -53.507254347, -29.367457849999898 ], [ -53.507566695, -29.371468238 ], [ -53.511074074, -29.371202372 ], [ -53.514914802, -29.375138121 ], [ -53.514299558999895, -29.377156737 ], [ -53.511441491, -29.378165746 ], [ -53.512867946, -29.382313715 ], [ -53.518138265999895, -29.381375665 ], [ -53.518298172, -29.383074120999893 ], [ -53.521187112999897, -29.3816464719999 ], [ -53.523117715999909, -29.383813179 ], [ -53.523862873, -29.385059027999901 ], [ -53.51765300599989, -29.385980373999885 ], [ -53.512980447, -29.388324356999902 ], [ -53.524139888, -29.395481843 ], [ -53.526109326, -29.399563037999901 ], [ -53.529279427999896, -29.396893034999895 ], [ -53.532678475999894, -29.399768469 ], [ -53.529438365, -29.399741732999896 ], [ -53.52572276, -29.405602558999892 ], [ -53.520605632999903, -29.404382568 ], [ -53.515997764, -29.405956429 ], [ -53.51653183299991, -29.407842085 ], [ -53.522934317, -29.409206675 ], [ -53.519936464, -29.416107381 ], [ -53.513770111, -29.415275782 ], [ -53.513168682999904, -29.418445587999898 ], [ -53.51021883899989, -29.419223266 ], [ -53.508948191999892, -29.423737514 ], [ -53.500922930999891, -29.42153529 ], [ -53.500648175, -29.425038250999908 ], [ -53.505807037, -29.425252354999895 ], [ -53.508592803999896, -29.433127691 ], [ -53.499112403, -29.441893832999902 ], [ -53.499251435, -29.444017131999903 ], [ -53.501917343999899, -29.444981613 ], [ -53.50584593, -29.442336688 ], [ -53.50831227, -29.442795992999891 ], [ -53.505475105999899, -29.446754079999891 ], [ -53.501119753999902, -29.449155614999903 ], [ -53.499087094999894, -29.455023727 ], [ -53.508351966, -29.460648021999901 ], [ -53.515719600999901, -29.461337210999893 ], [ -53.516456746, -29.468498496999899 ], [ -53.518403680999896, -29.471020763999896 ], [ -53.545341763, -29.447881326 ], [ -53.549742250999891, -29.441542361 ], [ -53.552242447, -29.440903039 ], [ -53.554978144, -29.450537363 ], [ -53.559942404, -29.451979275999985 ], [ -53.561501869, -29.451054293 ], [ -53.564320848, -29.451595821999895 ], [ -53.563788217, -29.453936988999899 ], [ -53.565372161, -29.45452316 ], [ -53.565308418, -29.45666017 ], [ -53.563911553, -29.458360684 ], [ -53.568362732, -29.459363958 ], [ -53.56260981, -29.466232262999906 ], [ -53.567792474, -29.469861436 ], [ -53.566757707, -29.472448167 ], [ -53.5681872, -29.473058161 ], [ -53.567750452, -29.475393332 ], [ -53.57017733299989, -29.476661507 ], [ -53.570780118999892, -29.480912614000012 ], [ -53.577287516999903, -29.480384032 ], [ -53.579637568999892, -29.475340292999899 ], [ -53.5834251059999, -29.47218743 ], [ -53.588908101999898, -29.475233929999892 ], [ -53.587243589, -29.476353769 ], [ -53.590444923999897, -29.478169782 ], [ -53.593063418, -29.474146065999893 ], [ -53.589557623, -29.472682823999893 ], [ -53.590187989, -29.465656940999988 ], [ -53.592321104999897, -29.463056246999908 ], [ -53.595449722999902, -29.464410012 ], [ -53.598910384, -29.462096517 ], [ -53.598692626999892, -29.463989496999901 ], [ -53.601185735999891, -29.463642440999891 ], [ -53.604422886999899, -29.465488901 ], [ -53.61157841499989, -29.462576144 ], [ -53.61655565, -29.468607993 ], [ -53.622733603, -29.46767477 ], [ -53.622618135, -29.477975318999903 ], [ -53.624256068, -29.478931733 ], [ -53.623980688999893, -29.480629722999904 ], [ -53.621683134, -29.481537099 ], [ -53.61717014300001, -29.478478499999898 ], [ -53.616214172999904, -29.479616978 ], [ -53.616631642999891, -29.482388714 ], [ -53.619488370999903, -29.485830533999899 ], [ -53.632502090999893, -29.490225449 ], [ -53.630337829, -29.493008026 ], [ -53.639554320999899, -29.4917071429999 ], [ -53.647597198, -29.496926033 ], [ -53.6520488419999, -29.502444531 ], [ -53.654658581, -29.508068172 ], [ -53.654962629, -29.519685138999904 ], [ -53.649803831, -29.535650624 ], [ -53.645924314, -29.539053193 ], [ -53.644016743999892, -29.5452323559999 ], [ -53.633751498, -29.559070522 ], [ -53.62912212, -29.55604991 ], [ -53.627018768, -29.556164909999897 ], [ -53.623537869, -29.558786663 ], [ -53.628738577, -29.563867770999899 ], [ -53.629855214, -29.568374414999901 ], [ -53.626050902, -29.572128423 ], [ -53.620165982999893, -29.571663354999899 ], [ -53.617627838, -29.572594304999903 ], [ -53.617671462, -29.570602489 ], [ -53.602310587, -29.564400226999986 ], [ -53.594910087999899, -29.566832607 ], [ -53.582850848, -29.577038242 ], [ -53.613319698999895, -29.595728182999892 ] ] ] } }
]
}
