{
"type": "FeatureCollection",
"name": "bairros_igrejinha",
"crs": { "type": "name", "properties": { "name": "urn:ogc:def:crs:OGC:1.3:CRS84" } },
"features": [
{ "type": "Feature", "properties": { "name": "Garibaldi", "code_muni": 4310108.0, "name_muni": "Igrejinha" }, "geometry": { "type": "Polygon", "coordinates": [ [ [ -50.7851936, -29.5495479 ], [ -50.7983351, -29.5487079 ], [ -50.7968469085598, -29.532322873098497 ], [ -50.788692190999896, -29.535355202999895 ], [ -50.7803670549999, -29.535534147 ], [ -50.777053061410648, -29.534484133806014 ], [ -50.776835, -29.5345932 ], [ -50.776564069751714, -29.534714834598919 ], [ -50.77133649384853, -29.537848475785204 ], [ -50.771335226262373, -29.537856052669454 ], [ -50.773383523075566, -29.539892039688137 ], [ -50.773505900000011, -29.5399505 ], [ -50.7735991, -29.5399977 ], [ -50.7738331, -29.5401441 ], [ -50.7740369, -29.5403262 ], [ -50.7741469, -29.5404592 ], [ -50.7742623, -29.5406085 ], [ -50.7743803, -29.5408045 ], [ -50.7744703, -29.5409668 ], [ -50.7745224, -29.5412106 ], [ -50.774539, -29.5414704 ], [ -50.7745305, -29.5418079 ], [ -50.7744661, -29.542074 ], [ -50.7744285, -29.5421673 ], [ -50.7743642, -29.5422466 ], [ -50.7742252, -29.5423945 ], [ -50.7739833, -29.542557 ], [ -50.773707, -29.542711 ], [ -50.7731953, -29.5430082 ], [ -50.7728621, -29.5432197 ], [ -50.7725912, -29.5434251 ], [ -50.7723289, -29.5437059 ], [ -50.7722452, -29.5438474 ], [ -50.7722104, -29.5439968 ], [ -50.772235, -29.5441842 ], [ -50.772293500000011, -29.5442768 ], [ -50.7723659, -29.5443491 ], [ -50.7724732, -29.5444191 ], [ -50.7726502, -29.5444891 ], [ -50.7728085, -29.544517100000011 ], [ -50.7729779, -29.5445319 ], [ -50.7732806, -29.5445218 ], [ -50.7735863, -29.5445288 ], [ -50.7738438, -29.5445474 ], [ -50.7740589, -29.5445156 ], [ -50.7742059, -29.5445171 ], [ -50.7743146, -29.544490299999989 ], [ -50.7744272, -29.5444611 ], [ -50.7745063, -29.5444098 ], [ -50.7746083, -29.5443608 ], [ -50.7746699, -29.5443491 ], [ -50.7747155, -29.5443538 ], [ -50.7748041, -29.5443573 ], [ -50.7748711, -29.5443818 ], [ -50.7749932, -29.5444553 ], [ -50.7750964, -29.5445078 ], [ -50.7754349, -29.5445716 ], [ -50.7757777, -29.5446245 ], [ -50.7760245, -29.5446805 ], [ -50.7764273, -29.5448049 ], [ -50.7770385, -29.5449804 ], [ -50.7779132, -29.5450803 ], [ -50.7781863, -29.5451098 ], [ -50.7783419, -29.5451098 ], [ -50.7785618, -29.5451051 ], [ -50.7787818, -29.5450585 ], [ -50.7790178, -29.5450258 ], [ -50.7792056, -29.5449558 ], [ -50.7793558, -29.5448531 ], [ -50.7796031, -29.5446463 ], [ -50.7806061, -29.5437969 ], [ -50.7808632, -29.5436071 ], [ -50.781174300000011, -29.5434111 ], [ -50.7813513, -29.5433224 ], [ -50.7815203, -29.543285 ], [ -50.7816678, -29.543292 ], [ -50.781832, -29.5433115 ], [ -50.782038, -29.5433877 ], [ -50.7822096, -29.5434997 ], [ -50.782473, -29.5437455 ], [ -50.7827085, -29.5439898 ], [ -50.7828802, -29.5442231 ], [ -50.7830411, -29.5445078 ], [ -50.7831811, -29.544903 ], [ -50.7832503, -29.545137799999985 ], [ -50.7833093, -29.5453198 ], [ -50.7833844, -29.5457165 ], [ -50.7834488, -29.5462578 ], [ -50.7835025, -29.5467945 ], [ -50.7835454, -29.5471072 ], [ -50.7835405, -29.547353 ], [ -50.7835561, -29.5475786 ], [ -50.7835937, -29.5477559 ], [ -50.7836258, -29.5478959 ], [ -50.7836956, -29.5480592 ], [ -50.7840448, -29.5487064 ], [ -50.7842749, -29.5491279 ], [ -50.7844552, -29.5496062 ], [ -50.7851936, -29.5495479 ] ] ] } },
{ "type": "Feature", "properties": { "name": "Rothmann", "code_muni": 4310108.0, "name_muni": "Igrejinha" }, "geometry": { "type": "Polygon", "coordinates": [ [ [ -50.773467237790449, -29.539975248887487 ], [ -50.774222806, -29.540726246 ], [ -50.770346739092311, -29.539443905744392 ], [ -50.76523737331577, -29.538573738018442 ], [ -50.752639180663664, -29.537598329489811 ], [ -50.7538415, -29.5451877 ], [ -50.7559776, -29.5449891 ], [ -50.7577479, -29.5448216 ], [ -50.7589643, -29.544691 ], [ -50.7591507, -29.5445953 ], [ -50.7593009, -29.5443211 ], [ -50.759486, -29.5434367 ], [ -50.7595383, -29.5432804 ], [ -50.7596925, -29.5431567 ], [ -50.7599741, -29.5431054 ], [ -50.760414, -29.543075 ], [ -50.7614748, -29.5430091 ], [ -50.7627515, -29.5429132 ], [ -50.7638446, -29.5428195 ], [ -50.7646666, -29.5427437 ], [ -50.7666327, -29.5426282 ], [ -50.7668285, -29.5426264 ], [ -50.7672188, -29.5427798 ], [ -50.7673737, -29.5428539 ], [ -50.7674414, -29.5428697 ], [ -50.7682831, -29.5428004 ], [ -50.768745, -29.5446384 ], [ -50.7710195, -29.5467665 ], [ -50.7723284, -29.5469905 ], [ -50.7724357, -29.5494172 ], [ -50.7805963, -29.5487546 ], [ -50.780497, -29.5484781 ], [ -50.7803911, -29.5482342 ], [ -50.7802033, -29.5479111 ], [ -50.7800035, -29.5476357 ], [ -50.7797179, -29.5473335 ], [ -50.7794201, -29.5470815 ], [ -50.7790527, -29.5468494 ], [ -50.7786839, -29.5466697 ], [ -50.7784733, -29.546584 ], [ -50.7781707, -29.5464718 ], [ -50.7777116, -29.546343 ], [ -50.7766171, -29.5460671 ], [ -50.7765056, -29.54603680000001 ], [ -50.7770385, -29.5449804 ], [ -50.7764273, -29.5448049 ], [ -50.7760245, -29.5446805 ], [ -50.7757777, -29.5446245 ], [ -50.7754349, -29.5445716 ], [ -50.7750964, -29.5445078 ], [ -50.7749932, -29.5444553 ], [ -50.7748711, -29.5443818 ], [ -50.7748041, -29.5443573 ], [ -50.7747155, -29.5443538 ], [ -50.7746699, -29.5443491 ], [ -50.7746083, -29.5443608 ], [ -50.7745063, -29.5444098 ], [ -50.7744272, -29.5444611 ], [ -50.7743146, -29.544490299999989 ], [ -50.7742059, -29.5445171 ], [ -50.7740589, -29.5445156 ], [ -50.7738438, -29.5445474 ], [ -50.7735863, -29.5445288 ], [ -50.7732806, -29.5445218 ], [ -50.7729779, -29.5445319 ], [ -50.7728085, -29.544517100000011 ], [ -50.7726502, -29.5444891 ], [ -50.7724732, -29.5444191 ], [ -50.7723659, -29.5443491 ], [ -50.772293500000011, -29.5442768 ], [ -50.772235, -29.5441842 ], [ -50.7722104, -29.5439968 ], [ -50.7722452, -29.5438474 ], [ -50.7723289, -29.5437059 ], [ -50.7725912, -29.5434251 ], [ -50.7728621, -29.5432197 ], [ -50.7731953, -29.5430082 ], [ -50.773707, -29.542711 ], [ -50.7739833, -29.542557 ], [ -50.7742252, -29.5423945 ], [ -50.7743642, -29.5422466 ], [ -50.7744285, -29.5421673 ], [ -50.7744661, -29.542074 ], [ -50.7745305, -29.5418079 ], [ -50.774539, -29.5414704 ], [ -50.7745224, -29.5412106 ], [ -50.7744703, -29.5409668 ], [ -50.7743803, -29.5408045 ], [ -50.7742623, -29.5406085 ], [ -50.7741469, -29.5404592 ], [ -50.7740369, -29.5403262 ], [ -50.7738331, -29.5401441 ], [ -50.7735991, -29.5399977 ], [ -50.773467237790449, -29.539975248887487 ] ] ] } },
{ "type": "Feature", "properties": { "name": "Moinho", "code_muni": 4310108.0, "name_muni": "Igrejinha" }, "geometry": { "type": "Polygon", "coordinates": [ [ [ -50.7765056, -29.54603680000001 ], [ -50.7766171, -29.5460671 ], [ -50.7777116, -29.546343 ], [ -50.7781707, -29.5464718 ], [ -50.7784733, -29.546584 ], [ -50.7786839, -29.5466697 ], [ -50.7790527, -29.5468494 ], [ -50.7794201, -29.5470815 ], [ -50.7797179, -29.5473335 ], [ -50.7800035, -29.5476357 ], [ -50.7802033, -29.5479111 ], [ -50.7803911, -29.5482342 ], [ -50.780497, -29.5484781 ], [ -50.7805963, -29.5487546 ], [ -50.7724357, -29.5494172 ], [ -50.7741845, -29.5685488 ], [ -50.7881749, -29.5677276 ], [ -50.7886684, -29.5682035 ], [ -50.7892585, -29.5682945 ], [ -50.7893282, -29.5680565 ], [ -50.7894221, -29.5677906 ], [ -50.7895669, -29.5674441 ], [ -50.7900068, -29.5666171 ], [ -50.7901262, -29.5663512 ], [ -50.790212, -29.5661167 ], [ -50.7902884, -29.5658146 ], [ -50.79033, -29.565544 ], [ -50.7903381, -29.5652104 ], [ -50.7908191, -29.5651179 ], [ -50.7914559, -29.565061 ], [ -50.7921922, -29.5650046 ], [ -50.7931021, -29.564949099999986 ], [ -50.7935639, -29.5652158 ], [ -50.7936895, -29.5651007 ], [ -50.7937726, -29.5649981 ], [ -50.7938504, -29.5648744 ], [ -50.7938987, -29.5647531 ], [ -50.7939175, -29.5646154 ], [ -50.7939094, -29.5644568 ], [ -50.7938933, -29.5643705 ], [ -50.7938477, -29.564300499999987 ], [ -50.7938209, -29.5642585 ], [ -50.7937431, -29.564204799999985 ], [ -50.7934861, -29.5640166 ], [ -50.7933864, -29.5639482 ], [ -50.7932416, -29.5638199 ], [ -50.7931075, -29.5636403 ], [ -50.7930163, -29.5635119 ], [ -50.7929653, -29.5634629 ], [ -50.7928703, -29.5634106 ], [ -50.7927454, -29.563323 ], [ -50.7925254, -29.5632623 ], [ -50.7918833, -29.5631003 ], [ -50.7915759, -29.5630617 ], [ -50.7911322, -29.562979 ], [ -50.7909, -29.5629403 ], [ -50.7908008, -29.5629124 ], [ -50.7907149, -29.562861 ], [ -50.790672, -29.562791 ], [ -50.7906484, -29.5627055 ], [ -50.7906666, -29.5625811 ], [ -50.7907181, -29.5624698 ], [ -50.7907471, -29.5623781 ], [ -50.7908168, -29.5622684 ], [ -50.790951, -29.5621588 ], [ -50.7911548, -29.5621075 ], [ -50.7913591, -29.562105899999988 ], [ -50.7916027, -29.5620935 ], [ -50.7918146, -29.5620585 ], [ -50.7919702, -29.5620211 ], [ -50.7920936, -29.5619535 ], [ -50.7922331, -29.561869499999986 ], [ -50.7923403, -29.5617808 ], [ -50.7924664, -29.5616805 ], [ -50.7925313, -29.561574 ], [ -50.7925469, -29.5614565 ], [ -50.7925388, -29.5613935 ], [ -50.7924584, -29.5612536 ], [ -50.7924047, -29.5611789 ], [ -50.7922631, -29.5610654 ], [ -50.7920775, -29.5609339 ], [ -50.7918388, -29.5608173 ], [ -50.7914407, -29.5606809 ], [ -50.7905089, -29.5605311 ], [ -50.7903233, -29.560493 ], [ -50.7901061, -29.56043 ], [ -50.7898942, -29.56036 ], [ -50.7897037, -29.5602737 ], [ -50.7893953, -29.560101 ], [ -50.7891351, -29.559919 ], [ -50.7885665, -29.5594851 ], [ -50.7884109, -29.5593288 ], [ -50.7882983, -29.5591934 ], [ -50.7880477, -29.5588424 ], [ -50.7872871, -29.5578986 ], [ -50.786764, -29.5573176 ], [ -50.7863782, -29.5567981 ], [ -50.7857341, -29.5559504 ], [ -50.7849792, -29.555037 ], [ -50.7845432, -29.5544711 ], [ -50.7842749, -29.5541631 ], [ -50.7841033, -29.5539251 ], [ -50.7840298, -29.5536931 ], [ -50.7839826, -29.5535168 ], [ -50.7839316, -29.5532392 ], [ -50.7839316, -29.5531248 ], [ -50.7839343, -29.5530222 ], [ -50.7839692, -29.5529148 ], [ -50.7840018, -29.552806 ], [ -50.7845904, -29.5517028 ], [ -50.7846531, -29.5515242 ], [ -50.7846934, -29.5513656 ], [ -50.7847336, -29.5510576 ], [ -50.7847421, -29.5508156 ], [ -50.7847363, -29.5505162 ], [ -50.784696, -29.5503412 ], [ -50.7846478, -29.550194200000014 ], [ -50.7844552, -29.5496062 ], [ -50.7842749, -29.5491279 ], [ -50.7840448, -29.5487064 ], [ -50.7836956, -29.5480592 ], [ -50.7836258, -29.5478959 ], [ -50.7835937, -29.5477559 ], [ -50.7835561, -29.5475786 ], [ -50.7835405, -29.547353 ], [ -50.7835454, -29.5471072 ], [ -50.7835025, -29.5467945 ], [ -50.7834488, -29.5462578 ], [ -50.7833844, -29.5457165 ], [ -50.7833093, -29.5453198 ], [ -50.7832503, -29.545137799999985 ], [ -50.7831811, -29.544903 ], [ -50.7830411, -29.5445078 ], [ -50.7828802, -29.5442231 ], [ -50.7827085, -29.5439898 ], [ -50.782473, -29.5437455 ], [ -50.7822096, -29.5434997 ], [ -50.782038, -29.5433877 ], [ -50.781832, -29.5433115 ], [ -50.7816678, -29.543292 ], [ -50.7815203, -29.543285 ], [ -50.7813513, -29.5433224 ], [ -50.781174300000011, -29.5434111 ], [ -50.7808632, -29.5436071 ], [ -50.7806061, -29.5437969 ], [ -50.7796031, -29.5446463 ], [ -50.7793558, -29.5448531 ], [ -50.7792056, -29.5449558 ], [ -50.7790178, -29.5450258 ], [ -50.7787818, -29.5450585 ], [ -50.7785618, -29.5451051 ], [ -50.7783419, -29.5451098 ], [ -50.7781863, -29.5451098 ], [ -50.7779132, -29.5450803 ], [ -50.7770385, -29.5449804 ], [ -50.7765056, -29.54603680000001 ] ] ] } },
{ "type": "Feature", "properties": { "name": "Figueira", "code_muni": 4310108.0, "name_muni": "Igrejinha" }, "geometry": { "type": "Polygon", "coordinates": [ [ [ -50.7846478, -29.550194200000014 ], [ -50.784696, -29.5503412 ], [ -50.7847363, -29.5505162 ], [ -50.7847421, -29.5508156 ], [ -50.7847336, -29.5510576 ], [ -50.7846934, -29.5513656 ], [ -50.7846531, -29.5515242 ], [ -50.7845904, -29.5517028 ], [ -50.7840018, -29.552806 ], [ -50.7839692, -29.5529148 ], [ -50.7839343, -29.5530222 ], [ -50.7839316, -29.5531248 ], [ -50.7839316, -29.5532392 ], [ -50.7839826, -29.5535168 ], [ -50.7840298, -29.5536931 ], [ -50.7841033, -29.5539251 ], [ -50.7842749, -29.5541631 ], [ -50.7845432, -29.5544711 ], [ -50.7849792, -29.555037 ], [ -50.7857341, -29.5559504 ], [ -50.7863782, -29.5567981 ], [ -50.786764, -29.5573176 ], [ -50.7872871, -29.5578986 ], [ -50.7880477, -29.5588424 ], [ -50.7882983, -29.5591934 ], [ -50.7884109, -29.5593288 ], [ -50.7885665, -29.5594851 ], [ -50.7891351, -29.559919 ], [ -50.7893953, -29.560101 ], [ -50.7897037, -29.5602737 ], [ -50.7898942, -29.56036 ], [ -50.7901061, -29.56043 ], [ -50.7903233, -29.560493 ], [ -50.7905089, -29.5605311 ], [ -50.7914407, -29.5606809 ], [ -50.7918388, -29.5608173 ], [ -50.7920775, -29.5609339 ], [ -50.7922631, -29.5610654 ], [ -50.7924047, -29.5611789 ], [ -50.7924584, -29.5612536 ], [ -50.7925388, -29.5613935 ], [ -50.7925469, -29.5614565 ], [ -50.7925313, -29.561574 ], [ -50.7924664, -29.5616805 ], [ -50.7923403, -29.5617808 ], [ -50.7922331, -29.561869499999986 ], [ -50.7920936, -29.5619535 ], [ -50.7919702, -29.5620211 ], [ -50.7918146, -29.5620585 ], [ -50.7916027, -29.5620935 ], [ -50.7913591, -29.562105899999988 ], [ -50.7911548, -29.5621075 ], [ -50.790951, -29.5621588 ], [ -50.7908168, -29.5622684 ], [ -50.7907471, -29.5623781 ], [ -50.7907181, -29.5624698 ], [ -50.7906666, -29.5625811 ], [ -50.7906484, -29.5627055 ], [ -50.790672, -29.562791 ], [ -50.7907149, -29.562861 ], [ -50.7908008, -29.5629124 ], [ -50.7909, -29.5629403 ], [ -50.7911322, -29.562979 ], [ -50.7915759, -29.5630617 ], [ -50.7918833, -29.5631003 ], [ -50.7925254, -29.5632623 ], [ -50.7927454, -29.563323 ], [ -50.7928703, -29.5634106 ], [ -50.7929653, -29.5634629 ], [ -50.7930163, -29.5635119 ], [ -50.7931075, -29.5636403 ], [ -50.7932416, -29.5638199 ], [ -50.7933864, -29.5639482 ], [ -50.7934861, -29.5640166 ], [ -50.7937431, -29.564204799999985 ], [ -50.7938209, -29.5642585 ], [ -50.7938477, -29.564300499999987 ], [ -50.7938933, -29.5643705 ], [ -50.7939094, -29.5644568 ], [ -50.7939175, -29.5646154 ], [ -50.7938987, -29.5647531 ], [ -50.7938504, -29.5648744 ], [ -50.7937726, -29.5649981 ], [ -50.7936895, -29.5651007 ], [ -50.7935639, -29.5652158 ], [ -50.7939953, -29.565166 ], [ -50.7942259, -29.5651194 ], [ -50.7947409, -29.5650634 ], [ -50.7953256, -29.5649234 ], [ -50.7954973, -29.5647881 ], [ -50.7956582, -29.5646248 ], [ -50.796023, -29.5645968 ], [ -50.7966614, -29.5646528 ], [ -50.7969018, -29.5648415 ], [ -50.7971691, -29.5650514 ], [ -50.7972676, -29.5651287 ], [ -50.7977182, -29.5657306 ], [ -50.7979274, -29.5659686 ], [ -50.7979757, -29.5660619 ], [ -50.7980508, -29.5661319 ], [ -50.7981366, -29.5661925 ], [ -50.7984477, -29.5662065 ], [ -50.7987964, -29.5661879 ], [ -50.7989734, -29.5661319 ], [ -50.7992363, -29.5661319 ], [ -50.7995342, -29.5659588 ], [ -50.7997734, -29.5658358 ], [ -50.8002609, -29.5652547 ], [ -50.8004916, -29.565152 ], [ -50.8006311, -29.5651147 ], [ -50.8010012, -29.5650494 ], [ -50.8016342, -29.5650914 ], [ -50.8023638, -29.5650914 ], [ -50.8031309, -29.5650167 ], [ -50.8032489, -29.5649654 ], [ -50.8035171, -29.5648954 ], [ -50.8038497, -29.5646481 ], [ -50.8044666, -29.5641115 ], [ -50.8050299, -29.5636869 ], [ -50.8051472, -29.5635627 ], [ -50.8054322, -29.5631783 ], [ -50.8057004, -29.5627724 ], [ -50.8057916, -29.5625671 ], [ -50.8058184, -29.5621145 ], [ -50.8058077, -29.5617878 ], [ -50.8056998, -29.5612156 ], [ -50.8056401, -29.5610004 ], [ -50.8055341, -29.5605746 ], [ -50.8055019, -29.560355300000012 ], [ -50.8054751, -29.5600334 ], [ -50.8055073, -29.5597534 ], [ -50.8056682, -29.5595994 ], [ -50.8058131, -29.5594081 ], [ -50.8062315, -29.5591048 ], [ -50.8068001, -29.5589835 ], [ -50.8078086, -29.5589088 ], [ -50.8080661, -29.55886210000001 ], [ -50.8085489, -29.5587128 ], [ -50.8087206, -29.5585822 ], [ -50.8091283, -29.5584608 ], [ -50.8093214, -29.5583488 ], [ -50.8094823, -29.5582089 ], [ -50.8095253, -29.5580129 ], [ -50.809536, -29.5578169 ], [ -50.8096111, -29.5576302 ], [ -50.80989, -29.5572849 ], [ -50.810051, -29.5571543 ], [ -50.8105981, -29.556613 ], [ -50.8107376, -29.5564357 ], [ -50.8112097, -29.5561463 ], [ -50.8113997, -29.5559759 ], [ -50.8037425, -29.555241 ], [ -50.7988072, -29.555465 ], [ -50.7983351, -29.5487079 ], [ -50.7851936, -29.5495479 ], [ -50.7844552, -29.5496062 ], [ -50.7846478, -29.550194200000014 ] ] ] } },
{ "type": "Feature", "properties": { "name": "Bom Pastor", "code_muni": 4310108.0, "name_muni": "Igrejinha" }, "geometry": { "type": "Polygon", "coordinates": [ [ [ -50.8255864, -29.566911 ], [ -50.8248997, -29.5556144 ], [ -50.8113997, -29.5559759 ], [ -50.8112097, -29.5561463 ], [ -50.8107376, -29.5564357 ], [ -50.8105981, -29.556613 ], [ -50.810051, -29.5571543 ], [ -50.80989, -29.5572849 ], [ -50.8096111, -29.5576302 ], [ -50.809536, -29.5578169 ], [ -50.8095253, -29.5580129 ], [ -50.8094823, -29.5582089 ], [ -50.8093214, -29.5583488 ], [ -50.8091283, -29.5584608 ], [ -50.8087206, -29.5585822 ], [ -50.8085489, -29.5587128 ], [ -50.8080661, -29.55886210000001 ], [ -50.8078086, -29.5589088 ], [ -50.8068001, -29.5589835 ], [ -50.8062315, -29.5591048 ], [ -50.8058131, -29.5594081 ], [ -50.8056682, -29.5595994 ], [ -50.8055073, -29.5597534 ], [ -50.8054751, -29.5600334 ], [ -50.8055019, -29.560355300000012 ], [ -50.8055341, -29.5605746 ], [ -50.8056401, -29.5610004 ], [ -50.8056998, -29.5612156 ], [ -50.8058077, -29.5617878 ], [ -50.8058184, -29.5621145 ], [ -50.8057916, -29.5625671 ], [ -50.8057004, -29.5627724 ], [ -50.8054322, -29.5631783 ], [ -50.8051472, -29.5635627 ], [ -50.8050299, -29.5636869 ], [ -50.8044666, -29.5641115 ], [ -50.8038497, -29.5646481 ], [ -50.8035171, -29.5648954 ], [ -50.8032489, -29.5649654 ], [ -50.8031309, -29.5650167 ], [ -50.8023638, -29.5650914 ], [ -50.8016342, -29.5650914 ], [ -50.8010012, -29.5650494 ], [ -50.8006311, -29.5651147 ], [ -50.8004916, -29.565152 ], [ -50.8002609, -29.5652547 ], [ -50.7997734, -29.5658358 ], [ -50.7995342, -29.5659588 ], [ -50.7992363, -29.5661319 ], [ -50.7989734, -29.5661319 ], [ -50.7987964, -29.5661879 ], [ -50.7984477, -29.5662065 ], [ -50.7981366, -29.5661925 ], [ -50.7980508, -29.5661319 ], [ -50.7979757, -29.5660619 ], [ -50.7979274, -29.5659686 ], [ -50.7977182, -29.5657306 ], [ -50.7972676, -29.5651287 ], [ -50.7971691, -29.5650514 ], [ -50.7969018, -29.5648415 ], [ -50.7966614, -29.5646528 ], [ -50.796023, -29.5645968 ], [ -50.7961565, -29.5647536 ], [ -50.7961679, -29.564886 ], [ -50.7961873, -29.5650424 ], [ -50.7961994, -29.5652185 ], [ -50.7962134, -29.5655189 ], [ -50.7962138, -29.5655337 ], [ -50.7962188, -29.5656391 ], [ -50.796216, -29.5661663 ], [ -50.7962423, -29.5662672 ], [ -50.7966985, -29.5673464 ], [ -50.7968478, -29.5676923 ], [ -50.7969393, -29.5678603 ], [ -50.7969725, -29.5679165 ], [ -50.7972448, -29.568319 ], [ -50.797799, -29.5691024 ], [ -50.7978866, -29.5692215 ], [ -50.7979474, -29.5693166 ], [ -50.7981447, -29.569635 ], [ -50.7983046, -29.5698811 ], [ -50.7984269, -29.570103899999985 ], [ -50.7984743, -29.5702863 ], [ -50.7984722, -29.5705436 ], [ -50.7984575, -29.5706653 ], [ -50.798421, -29.5708251 ], [ -50.7983607, -29.5710461 ], [ -50.798216, -29.5714386 ], [ -50.7979825, -29.5718645 ], [ -50.7978275, -29.5720755 ], [ -50.7976291, -29.5723405 ], [ -50.7975981, -29.572390099999989 ], [ -50.7975787, -29.5724277 ], [ -50.7975619, -29.5725158 ], [ -50.7975572, -29.5726243 ], [ -50.7975623, -29.5728331 ], [ -50.7975751, -29.5729875 ], [ -50.7975772, -29.5730487 ], [ -50.7975678, -29.5731583 ], [ -50.7975296, -29.5733645 ], [ -50.797254, -29.5734646 ], [ -50.7970999, -29.5734493 ], [ -50.7968711, -29.5734372 ], [ -50.7965883, -29.5734957 ], [ -50.7963296, -29.5735681 ], [ -50.7964629, -29.573797699999986 ], [ -50.7964844, -29.573912 ], [ -50.7964876, -29.5740021 ], [ -50.7964334, -29.5741639 ], [ -50.7964093, -29.5743529 ], [ -50.7963771, -29.5746911 ], [ -50.7963507, -29.5752886 ], [ -50.797006, -29.575270800000013 ], [ -50.7979123, -29.575112 ], [ -50.798672, -29.5749652 ], [ -50.7994198, -29.5748048 ], [ -50.8001634, -29.5746392 ], [ -50.8009115, -29.5744965 ], [ -50.8016901, -29.5743435 ], [ -50.8024346, -29.5742027 ], [ -50.8031942, -29.5740529 ], [ -50.8039347, -29.5738991 ], [ -50.8046732, -29.5737469 ], [ -50.8055719, -29.5735668 ], [ -50.8063288, -29.5734123 ], [ -50.8065695, -29.573541 ], [ -50.8067894, -29.5733591 ], [ -50.8071005, -29.5730045 ], [ -50.8072427, -29.5725986 ], [ -50.8073902, -29.5724096 ], [ -50.8077201, -29.5723 ], [ -50.8078945, -29.5722603 ], [ -50.8079562, -29.5721507 ], [ -50.8079588, -29.5719128 ], [ -50.8079776, -29.5715162 ], [ -50.8079857, -29.5713389 ], [ -50.8079905, -29.5710714 ], [ -50.8079861, -29.5709053 ], [ -50.8079749, -29.5707697 ], [ -50.8079588, -29.570597 ], [ -50.8082753, -29.5705457 ], [ -50.8083934, -29.5705084 ], [ -50.8085007, -29.5704384 ], [ -50.8085597, -29.5703451 ], [ -50.8085597, -29.570037200000012 ], [ -50.8085865, -29.5699345 ], [ -50.8086938, -29.5698739 ], [ -50.8094609, -29.569789899999986 ], [ -50.809595, -29.5697899 ], [ -50.8098364, -29.569733899999985 ], [ -50.8104479, -29.5696826 ], [ -50.8109254, -29.5695612 ], [ -50.8116013, -29.5690667 ], [ -50.8119768, -29.5686888 ], [ -50.8120787, -29.5685021 ], [ -50.8120894, -29.5684041 ], [ -50.8120694, -29.5680005 ], [ -50.8121109, -29.5679492 ], [ -50.8124368, -29.5679084 ], [ -50.8127707, -29.5678512 ], [ -50.8128559, -29.5678416 ], [ -50.8130485, -29.5678349 ], [ -50.8134021, -29.5679013 ], [ -50.8136213, -29.5679659 ], [ -50.8136966, -29.5679825 ], [ -50.8137748, -29.5679908 ], [ -50.8143562, -29.5679518 ], [ -50.81495, -29.567844 ], [ -50.8151949, -29.5678009 ], [ -50.8152845, -29.5677943 ], [ -50.8255864, -29.566911 ] ] ] } },
{ "type": "Feature", "properties": { "name": "Centro", "code_muni": 4310108.0, "name_muni": "Igrejinha" }, "geometry": { "type": "Polygon", "coordinates": [ [ [ -50.7903381, -29.5652104 ], [ -50.79033, -29.565544 ], [ -50.7902884, -29.5658146 ], [ -50.790212, -29.5661167 ], [ -50.7901262, -29.5663512 ], [ -50.7900068, -29.5666171 ], [ -50.7895669, -29.5674441 ], [ -50.7894221, -29.5677906 ], [ -50.7893282, -29.5680565 ], [ -50.7892585, -29.5682945 ], [ -50.7891284, -29.568906900000012 ], [ -50.7890579, -29.5692939 ], [ -50.7889768, -29.5697327 ], [ -50.7888812, -29.5701646 ], [ -50.7887918, -29.5704256 ], [ -50.7886617, -29.5707149 ], [ -50.7885436, -29.5709213 ], [ -50.7883076, -29.5712362 ], [ -50.7880461, -29.5714835 ], [ -50.7878523, -29.5716334 ], [ -50.7876527, -29.571768100000011 ], [ -50.7874064, -29.5719011 ], [ -50.7871731, -29.5720166 ], [ -50.786772, -29.5721461 ], [ -50.7864757, -29.572270800000013 ], [ -50.7861029, -29.5724901 ], [ -50.7858655, -29.5726662 ], [ -50.78543, -29.5732492 ], [ -50.7853474, -29.5733627 ], [ -50.7852217, -29.5735922 ], [ -50.7851005, -29.5738746 ], [ -50.7850434, -29.5740764 ], [ -50.7850004, -29.5742563 ], [ -50.7849734, -29.5745311 ], [ -50.7849711, -29.5748165 ], [ -50.7849925, -29.5750078 ], [ -50.7850434, -29.5752335 ], [ -50.785124, -29.5755009 ], [ -50.7852478, -29.5758468 ], [ -50.7854514, -29.5763217 ], [ -50.7854936, -29.576395899999987 ], [ -50.785606, -29.5765649 ], [ -50.7856859, -29.5766649 ], [ -50.7857797, -29.5767575 ], [ -50.7859131, -29.5768594 ], [ -50.7861025, -29.5769692 ], [ -50.7862289, -29.5770215 ], [ -50.7863536, -29.5770635 ], [ -50.7865863, -29.5771131 ], [ -50.7869379, -29.5771524 ], [ -50.7880672, -29.577217 ], [ -50.7891559, -29.5772613 ], [ -50.7892783, -29.577266 ], [ -50.7900538, -29.5772956 ], [ -50.7902589, -29.5773212 ], [ -50.7904999, -29.5773371 ], [ -50.7908532, -29.5773731 ], [ -50.7912013, -29.5774418 ], [ -50.791546, -29.5775387 ], [ -50.79181280000001, -29.577638500000013 ], [ -50.792005, -29.5777266 ], [ -50.7922011, -29.5778486 ], [ -50.7926094, -29.578077399999987 ], [ -50.7929955, -29.5783219 ], [ -50.7931209, -29.578385 ], [ -50.7934738, -29.5785923 ], [ -50.7937673, -29.5787279 ], [ -50.7940569, -29.5788189 ], [ -50.794184, -29.5788537 ], [ -50.7950994, -29.5790571 ], [ -50.7954625, -29.5791594 ], [ -50.7957654, -29.5792661 ], [ -50.7961905, -29.5794597 ], [ -50.7965776, -29.5796772 ], [ -50.7968304, -29.5798534 ], [ -50.7970918, -29.5800633 ], [ -50.7973371, -29.5802915 ], [ -50.7975725, -29.5805524 ], [ -50.7978228, -29.5809077 ], [ -50.7980279, -29.5812716 ], [ -50.7981383, -29.5815283 ], [ -50.7982571, -29.581847 ], [ -50.7986262, -29.5817601 ], [ -50.7995139, -29.5816965 ], [ -50.7998322, -29.5816737 ], [ -50.8005317, -29.5813603 ], [ -50.7993915, -29.5807933 ], [ -50.7985178, -29.5801176 ], [ -50.7981795, -29.579914 ], [ -50.79802930000001, -29.5797694 ], [ -50.79792040000001, -29.5796082 ], [ -50.7978684, -29.5794801 ], [ -50.7978797, -29.5792564 ], [ -50.7980186, -29.5790882 ], [ -50.7980844, -29.5789709 ], [ -50.7981151, -29.5787943 ], [ -50.7981092, -29.5786454 ], [ -50.7980669, -29.5784351 ], [ -50.7978845, -29.5781692 ], [ -50.7976301, -29.5778752 ], [ -50.7974607, -29.5777306 ], [ -50.7972354, -29.5776187 ], [ -50.7966335, -29.5773677 ], [ -50.79642, -29.5772268 ], [ -50.7962713, -29.5770641 ], [ -50.7962161, -29.5769142 ], [ -50.7961943, -29.5767118 ], [ -50.7962029, -29.5762888 ], [ -50.7963507, -29.5752886 ], [ -50.7963771, -29.5746911 ], [ -50.7964093, -29.5743529 ], [ -50.7964334, -29.5741639 ], [ -50.7964876, -29.5740021 ], [ -50.7964844, -29.573912 ], [ -50.7964629, -29.573797699999986 ], [ -50.7963296, -29.5735681 ], [ -50.7965883, -29.5734957 ], [ -50.7968711, -29.5734372 ], [ -50.7970999, -29.5734493 ], [ -50.797254, -29.5734646 ], [ -50.7975296, -29.5733645 ], [ -50.7975678, -29.5731583 ], [ -50.7975772, -29.5730487 ], [ -50.7975751, -29.5729875 ], [ -50.7975623, -29.5728331 ], [ -50.7975572, -29.5726243 ], [ -50.7975619, -29.5725158 ], [ -50.7975787, -29.5724277 ], [ -50.7975981, -29.572390099999989 ], [ -50.7976291, -29.5723405 ], [ -50.7978275, -29.5720755 ], [ -50.7979825, -29.5718645 ], [ -50.798216, -29.5714386 ], [ -50.7983607, -29.5710461 ], [ -50.798421, -29.5708251 ], [ -50.7984575, -29.5706653 ], [ -50.7984722, -29.5705436 ], [ -50.7984743, -29.5702863 ], [ -50.7984269, -29.570103899999985 ], [ -50.7983046, -29.5698811 ], [ -50.7981447, -29.569635 ], [ -50.7979474, -29.5693166 ], [ -50.7978866, -29.5692215 ], [ -50.797799, -29.5691024 ], [ -50.7972448, -29.568319 ], [ -50.7969725, -29.5679165 ], [ -50.7969393, -29.5678603 ], [ -50.7968478, -29.5676923 ], [ -50.7966985, -29.5673464 ], [ -50.7962423, -29.5662672 ], [ -50.796216, -29.5661663 ], [ -50.7962188, -29.5656391 ], [ -50.7962138, -29.5655337 ], [ -50.7962134, -29.5655189 ], [ -50.7961994, -29.5652185 ], [ -50.7961873, -29.5650424 ], [ -50.7961679, -29.564886 ], [ -50.7961565, -29.5647536 ], [ -50.796023, -29.5645968 ], [ -50.7956582, -29.5646248 ], [ -50.7954973, -29.5647881 ], [ -50.7953256, -29.5649234 ], [ -50.7947409, -29.5650634 ], [ -50.7942259, -29.5651194 ], [ -50.7939953, -29.565166 ], [ -50.7935639, -29.5652158 ], [ -50.7931021, -29.564949099999986 ], [ -50.7921922, -29.5650046 ], [ -50.7914559, -29.565061 ], [ -50.7908191, -29.5651179 ], [ -50.7903381, -29.5652104 ] ] ] } },
{ "type": "Feature", "properties": { "name": "Vila Nova", "code_muni": 4310108.0, "name_muni": "Igrejinha" }, "geometry": { "type": "Polygon", "coordinates": [ [ [ -50.7963507, -29.5752886 ], [ -50.7962029, -29.5762888 ], [ -50.7961943, -29.5767118 ], [ -50.7962161, -29.5769142 ], [ -50.7962713, -29.5770641 ], [ -50.79642, -29.5772268 ], [ -50.7966335, -29.5773677 ], [ -50.7972354, -29.5776187 ], [ -50.7974607, -29.5777306 ], [ -50.7976301, -29.5778752 ], [ -50.7978845, -29.5781692 ], [ -50.7980669, -29.5784351 ], [ -50.7981092, -29.5786454 ], [ -50.7981151, -29.5787943 ], [ -50.7980844, -29.5789709 ], [ -50.7980186, -29.5790882 ], [ -50.7978797, -29.5792564 ], [ -50.7978684, -29.5794801 ], [ -50.79792040000001, -29.5796082 ], [ -50.79802930000001, -29.5797694 ], [ -50.7981795, -29.579914 ], [ -50.7985178, -29.5801176 ], [ -50.7993915, -29.5807933 ], [ -50.8005317, -29.5813603 ], [ -50.801168, -29.581368 ], [ -50.8029275, -29.5810426 ], [ -50.8040231, -29.5806426 ], [ -50.8053652, -29.580333 ], [ -50.8055368, -29.5803012 ], [ -50.8056682, -29.5802942 ], [ -50.8059174, -29.5803288 ], [ -50.8061993, -29.580413199999985 ], [ -50.8064074, -29.580548 ], [ -50.806548, -29.5807281 ], [ -50.8066333, -29.5809038 ], [ -50.807299, -29.580581099999986 ], [ -50.8192563, -29.576909499999985 ], [ -50.8259082, -29.572356 ], [ -50.8255864, -29.566911 ], [ -50.8152845, -29.5677943 ], [ -50.8151949, -29.5678009 ], [ -50.81495, -29.567844 ], [ -50.8143562, -29.5679518 ], [ -50.8137748, -29.5679908 ], [ -50.8136966, -29.5679825 ], [ -50.8136213, -29.5679659 ], [ -50.8134021, -29.5679013 ], [ -50.8130485, -29.5678349 ], [ -50.8128559, -29.5678416 ], [ -50.8127707, -29.5678512 ], [ -50.8124368, -29.5679084 ], [ -50.8121109, -29.5679492 ], [ -50.8120694, -29.5680005 ], [ -50.8120894, -29.5684041 ], [ -50.8120787, -29.5685021 ], [ -50.8119768, -29.5686888 ], [ -50.8116013, -29.5690667 ], [ -50.8109254, -29.5695612 ], [ -50.8104479, -29.5696826 ], [ -50.8098364, -29.569733899999985 ], [ -50.809595, -29.5697899 ], [ -50.8094609, -29.569789899999986 ], [ -50.8086938, -29.5698739 ], [ -50.8085865, -29.5699345 ], [ -50.8085597, -29.570037200000012 ], [ -50.8085597, -29.5703451 ], [ -50.8085007, -29.5704384 ], [ -50.8083934, -29.5705084 ], [ -50.8082753, -29.5705457 ], [ -50.8079588, -29.570597 ], [ -50.8079749, -29.5707697 ], [ -50.8079861, -29.5709053 ], [ -50.8079905, -29.5710714 ], [ -50.8079857, -29.5713389 ], [ -50.8079776, -29.5715162 ], [ -50.8079588, -29.5719128 ], [ -50.8079562, -29.5721507 ], [ -50.8078945, -29.5722603 ], [ -50.8077201, -29.5723 ], [ -50.8073902, -29.5724096 ], [ -50.8072427, -29.5725986 ], [ -50.8071005, -29.5730045 ], [ -50.8067894, -29.5733591 ], [ -50.8065695, -29.573541 ], [ -50.8063288, -29.5734123 ], [ -50.8055719, -29.5735668 ], [ -50.8046732, -29.5737469 ], [ -50.8039347, -29.5738991 ], [ -50.8031942, -29.5740529 ], [ -50.8024346, -29.5742027 ], [ -50.8016901, -29.5743435 ], [ -50.8009115, -29.5744965 ], [ -50.8001634, -29.5746392 ], [ -50.7994198, -29.5748048 ], [ -50.798672, -29.5749652 ], [ -50.7979123, -29.575112 ], [ -50.797006, -29.575270800000013 ], [ -50.7963507, -29.5752886 ] ] ] } },
{ "type": "Feature", "properties": { "name": "Saibreira", "code_muni": 4310108.0, "name_muni": "Igrejinha" }, "geometry": { "type": "Polygon", "coordinates": [ [ [ -50.795669, -29.579942 ], [ -50.7959694, -29.5798953 ], [ -50.7960016, -29.579851 ], [ -50.7965776, -29.5796772 ], [ -50.7961905, -29.5794597 ], [ -50.7957654, -29.5792661 ], [ -50.7954625, -29.5791594 ], [ -50.7950994, -29.5790571 ], [ -50.794184, -29.5788537 ], [ -50.7940569, -29.5788189 ], [ -50.7937673, -29.5787279 ], [ -50.7934738, -29.5785923 ], [ -50.7931209, -29.578385 ], [ -50.7929955, -29.5783219 ], [ -50.7926094, -29.578077399999987 ], [ -50.7922011, -29.5778486 ], [ -50.792005, -29.5777266 ], [ -50.79181280000001, -29.577638500000013 ], [ -50.791546, -29.5775387 ], [ -50.7912013, -29.5774418 ], [ -50.7908532, -29.5773731 ], [ -50.7904999, -29.5773371 ], [ -50.7902589, -29.5773212 ], [ -50.7900538, -29.5772956 ], [ -50.7892783, -29.577266 ], [ -50.7891559, -29.5772613 ], [ -50.7880672, -29.577217 ], [ -50.7869379, -29.5771524 ], [ -50.7865863, -29.5771131 ], [ -50.7863536, -29.5770635 ], [ -50.7862289, -29.5770215 ], [ -50.7861025, -29.5769692 ], [ -50.7857823, -29.5770915 ], [ -50.7814103, -29.5774367 ], [ -50.7796119, -29.5776723 ], [ -50.7795831, -29.5776805 ], [ -50.779623, -29.5780288 ], [ -50.7797127, -29.5786593 ], [ -50.7797435, -29.5788961 ], [ -50.7797547, -29.5789999 ], [ -50.7881105, -29.5789716 ], [ -50.7881373, -29.5793962 ], [ -50.7901919, -29.5794941 ], [ -50.7903475, -29.5803059 ], [ -50.7927266, -29.5800516 ], [ -50.795669, -29.579942 ] ] ] } },
{ "type": "Feature", "properties": { "name": "Viaduto", "code_muni": 4310108.0, "name_muni": "Igrejinha" }, "geometry": { "type": "Polygon", "coordinates": [ [ [ -50.7859131, -29.5768594 ], [ -50.7857797, -29.5767575 ], [ -50.7856859, -29.5766649 ], [ -50.785606, -29.5765649 ], [ -50.7854936, -29.576395899999987 ], [ -50.7854514, -29.5763217 ], [ -50.7852478, -29.5758468 ], [ -50.785124, -29.5755009 ], [ -50.7850434, -29.5752335 ], [ -50.7849925, -29.5750078 ], [ -50.7849711, -29.5748165 ], [ -50.7849734, -29.5745311 ], [ -50.7850004, -29.5742563 ], [ -50.7850434, -29.5740764 ], [ -50.7851005, -29.5738746 ], [ -50.7852217, -29.5735922 ], [ -50.7853474, -29.5733627 ], [ -50.78543, -29.5732492 ], [ -50.7858655, -29.5726662 ], [ -50.7861029, -29.5724901 ], [ -50.7864757, -29.572270800000013 ], [ -50.786772, -29.5721461 ], [ -50.7871731, -29.5720166 ], [ -50.7874064, -29.5719011 ], [ -50.7876527, -29.571768100000011 ], [ -50.7878523, -29.5716334 ], [ -50.7880461, -29.5714835 ], [ -50.7883076, -29.5712362 ], [ -50.7885436, -29.5709213 ], [ -50.7886617, -29.5707149 ], [ -50.7887918, -29.5704256 ], [ -50.7888812, -29.5701646 ], [ -50.7889768, -29.5697327 ], [ -50.7890579, -29.5692939 ], [ -50.7891284, -29.568906900000012 ], [ -50.7892585, -29.5682945 ], [ -50.7886684, -29.5682035 ], [ -50.7881749, -29.5677276 ], [ -50.7741845, -29.5685488 ], [ -50.7742703, -29.570779 ], [ -50.7656551, -29.5714975 ], [ -50.7631231, -29.5726172 ], [ -50.7620502, -29.5745395 ], [ -50.762136, -29.5769655 ], [ -50.7632733, -29.5788316 ], [ -50.7609987, -29.581425500000012 ], [ -50.7597736, -29.5861006 ], [ -50.7619429, -29.5911846 ], [ -50.7623291, -29.5939461 ], [ -50.7672, -29.5928639 ], [ -50.769732, -29.5889642 ], [ -50.7734442, -29.5851016 ], [ -50.7791412, -29.5815328 ], [ -50.7790715, -29.5789809 ], [ -50.7797547, -29.5789999 ], [ -50.7797435, -29.5788961 ], [ -50.7797127, -29.5786593 ], [ -50.779623, -29.5780288 ], [ -50.7795831, -29.5776805 ], [ -50.7796119, -29.5776723 ], [ -50.7814103, -29.5774367 ], [ -50.7857823, -29.5770915 ], [ -50.7861025, -29.5769692 ], [ -50.7859131, -29.5768594 ] ] ] } },
{ "type": "Feature", "properties": { "name": "Lajeadinho", "code_muni": 4310108.0, "name_muni": "Igrejinha" }, "geometry": { "type": "Polygon", "coordinates": [ [ [ -50.7619429, -29.5911846 ], [ -50.7597736, -29.5861006 ], [ -50.7578874, -29.5810336 ], [ -50.7537675, -29.5754726 ], [ -50.7527375, -29.5744648 ], [ -50.7474375, -29.574446099999989 ], [ -50.7473302, -29.583 ], [ -50.749226234704302, -29.583000019804636 ], [ -50.751477956, -29.58279923 ], [ -50.751605288267385, -29.583000006354407 ], [ -50.752, -29.583 ], [ -50.7523687, -29.583659 ], [ -50.752584299453183, -29.584543671617048 ], [ -50.756669815999892, -29.590984964 ], [ -50.755570362088235, -29.593754920464313 ], [ -50.7623291, -29.5939461 ], [ -50.7619429, -29.5911846 ] ] ] } },
{ "type": "Feature", "properties": { "name": "Pedreira", "code_muni": 4310108.0, "name_muni": "Igrejinha" }, "geometry": { "type": "Polygon", "coordinates": [ [ [ -50.7981383, -29.5815283 ], [ -50.7980279, -29.5812716 ], [ -50.7978228, -29.5809077 ], [ -50.7975725, -29.5805524 ], [ -50.7973371, -29.5802915 ], [ -50.7970918, -29.5800633 ], [ -50.7968304, -29.5798534 ], [ -50.7965776, -29.5796772 ], [ -50.7960016, -29.579851 ], [ -50.7959694, -29.5798953 ], [ -50.795669, -29.579942 ], [ -50.7927266, -29.5800516 ], [ -50.79561, -29.5876953 ], [ -50.8007383, -29.594942 ], [ -50.79514, -29.5955614 ], [ -50.7950681, -29.5955694 ], [ -50.7948321, -29.5955951 ], [ -50.7950467, -29.5967425 ], [ -50.7950712, -29.5968964 ], [ -50.7953844, -29.5968726 ], [ -50.7969911, -29.5967419 ], [ -50.7986771, -29.5965969 ], [ -50.7997097, -29.596505 ], [ -50.8004324, -29.5964364 ], [ -50.8009554, -29.5963944 ], [ -50.8013922, -29.5963962 ], [ -50.8022613, -29.5964053 ], [ -50.8025525, -29.5963721 ], [ -50.8033347, -29.5962388 ], [ -50.8035818, -29.5961864 ], [ -50.8038239, -29.5961172 ], [ -50.8049083, -29.5956848 ], [ -50.8053764, -29.595499 ], [ -50.8054372, -29.5952573 ], [ -50.8055825, -29.5947041 ], [ -50.8056665, -29.5943806 ], [ -50.8057031, -29.5941398 ], [ -50.8057174, -29.5939125 ], [ -50.8057098, -29.5936919 ], [ -50.8056725, -29.5934725 ], [ -50.8055985, -29.5932417 ], [ -50.8055063, -29.5930251 ], [ -50.8054013, -29.5928488 ], [ -50.8052905, -29.5926891 ], [ -50.8051042, -29.5924794 ], [ -50.8049199, -29.5923076 ], [ -50.804785, -29.5922047 ], [ -50.8047078, -29.5921469 ], [ -50.804641, -29.5920814 ], [ -50.8043928, -29.5919263 ], [ -50.8041348, -29.5917804 ], [ -50.8038455, -29.5916606 ], [ -50.802976, -29.5912231 ], [ -50.8028868, -29.5911605 ], [ -50.8023718, -29.5908625 ], [ -50.8021673, -29.5907047 ], [ -50.8019259, -29.5904919 ], [ -50.8018525, -29.5904381 ], [ -50.8016073, -29.5901596 ], [ -50.8014016, -29.5898703 ], [ -50.8001043, -29.5877564 ], [ -50.7998863, -29.5874028 ], [ -50.7994843, -29.5867205 ], [ -50.7993857, -29.5865211 ], [ -50.7992551, -29.5861932 ], [ -50.7991508, -29.5858591 ], [ -50.7987024, -29.5838213 ], [ -50.7986838, -29.5837397 ], [ -50.7986578, -29.5836047 ], [ -50.7984155, -29.5825253 ], [ -50.7982571, -29.581847 ], [ -50.7981383, -29.5815283 ] ] ] } },
{ "type": "Feature", "properties": { "name": "15 de Novembro", "code_muni": 4310108.0, "name_muni": "Igrejinha" }, "geometry": { "type": "Polygon", "coordinates": [ [ [ -50.7986838, -29.5837397 ], [ -50.7987024, -29.5838213 ], [ -50.7991508, -29.5858591 ], [ -50.7992551, -29.5861932 ], [ -50.7993857, -29.5865211 ], [ -50.7994843, -29.5867205 ], [ -50.7998863, -29.5874028 ], [ -50.8001043, -29.5877564 ], [ -50.8014016, -29.5898703 ], [ -50.8016073, -29.5901596 ], [ -50.8018525, -29.5904381 ], [ -50.8019259, -29.5904919 ], [ -50.8021673, -29.5907047 ], [ -50.8023718, -29.5908625 ], [ -50.8028868, -29.5911605 ], [ -50.802976, -29.5912231 ], [ -50.8038455, -29.5916606 ], [ -50.8041348, -29.5917804 ], [ -50.8043928, -29.5919263 ], [ -50.804641, -29.5920814 ], [ -50.8047078, -29.5921469 ], [ -50.804785, -29.5922047 ], [ -50.8049199, -29.5923076 ], [ -50.8051042, -29.5924794 ], [ -50.8052905, -29.5926891 ], [ -50.8054013, -29.5928488 ], [ -50.8055063, -29.5930251 ], [ -50.8055985, -29.5932417 ], [ -50.8056725, -29.5934725 ], [ -50.8057098, -29.5936919 ], [ -50.8057174, -29.5939125 ], [ -50.8057031, -29.5941398 ], [ -50.8056665, -29.5943806 ], [ -50.8055825, -29.5947041 ], [ -50.8054372, -29.5952573 ], [ -50.8053764, -29.595499 ], [ -50.805717, -29.5954394 ], [ -50.805831, -29.5953985 ], [ -50.8066964, -29.595035399999986 ], [ -50.806882, -29.5949807 ], [ -50.8081704, -29.5948525 ], [ -50.8083257, -29.5948395 ], [ -50.811209, -29.5945339 ], [ -50.8121498, -29.5940303 ], [ -50.8121753, -29.593628899999985 ], [ -50.812245, -29.5931975 ], [ -50.8124064, -29.5923656 ], [ -50.8126849, -29.5912733 ], [ -50.8127868, -29.5909048 ], [ -50.8128195, -29.5905673 ], [ -50.8128297, -29.5900138 ], [ -50.8128727, -29.5896546 ], [ -50.8129183, -29.589447 ], [ -50.8129719, -29.5893421 ], [ -50.8130341, -29.5892565 ], [ -50.8133367, -29.5890668 ], [ -50.8136081, -29.5889464 ], [ -50.8138275, -29.5888732 ], [ -50.8140636, -29.5888056 ], [ -50.8144771, -29.5887108 ], [ -50.8146215, -29.5886703 ], [ -50.8147126, -29.588605 ], [ -50.8148414, -29.5884417 ], [ -50.8149058, -29.588259799999985 ], [ -50.8148688, -29.588109 ], [ -50.8147824, -29.5879379 ], [ -50.8145893, -29.5878073 ], [ -50.814343, -29.5877078 ], [ -50.8140099, -29.5876067 ], [ -50.8129428, -29.5874605 ], [ -50.8126098, -29.5873408 ], [ -50.8124301, -29.5872382 ], [ -50.8122906, -29.5871356 ], [ -50.8116902, -29.5867352 ], [ -50.8115289, -29.5866458 ], [ -50.8114001, -29.5865618 ], [ -50.8112687, -29.5864848 ], [ -50.8111775, -29.5864102 ], [ -50.8111373, -29.5863355 ], [ -50.8110595, -29.586225899999988 ], [ -50.8110197, -29.586077399999986 ], [ -50.8109897, -29.5858201 ], [ -50.810979, -29.5855005 ], [ -50.8109576, -29.5853792 ], [ -50.810912, -29.58522060000001 ], [ -50.8108181, -29.585069 ], [ -50.8106829, -29.5849162 ], [ -50.8105955, -29.5848404 ], [ -50.8104694, -29.5847891 ], [ -50.8103138, -29.5847331 ], [ -50.8099544, -29.5846841 ], [ -50.8095977, -29.5846701 ], [ -50.8092195, -29.5846748 ], [ -50.8088391, -29.584677899999985 ], [ -50.8086348, -29.5846678 ], [ -50.808439, -29.5846561 ], [ -50.8082727, -29.5845978 ], [ -50.8081439, -29.5845302 ], [ -50.8079964, -29.5844065 ], [ -50.8078987, -29.5842375 ], [ -50.8078328, -29.583968 ], [ -50.8076638, -29.5832216 ], [ -50.8075554, -29.582901 ], [ -50.807232, -29.5822793 ], [ -50.8070281, -29.5819364 ], [ -50.8068848, -29.581604 ], [ -50.8067492, -29.5811783 ], [ -50.8066333, -29.5809038 ], [ -50.806548, -29.5807281 ], [ -50.8064074, -29.580548 ], [ -50.8061993, -29.580413199999985 ], [ -50.8059174, -29.5803288 ], [ -50.8056682, -29.5802942 ], [ -50.8055368, -29.5803012 ], [ -50.8053652, -29.580333 ], [ -50.8040231, -29.5806426 ], [ -50.8029275, -29.5810426 ], [ -50.801168, -29.581368 ], [ -50.8005317, -29.5813603 ], [ -50.7998322, -29.5816737 ], [ -50.7995139, -29.5816965 ], [ -50.7986262, -29.5817601 ], [ -50.7982571, -29.581847 ], [ -50.7984155, -29.5825253 ], [ -50.7986578, -29.5836047 ], [ -50.7986838, -29.5837397 ] ] ] } },
{ "type": "Feature", "properties": { "name": "Invernada", "code_muni": 4310108.0, "name_muni": "Igrejinha" }, "geometry": { "type": "MultiPolygon", "coordinates": [ [ [ [ -50.8192914, -29.6023888 ], [ -50.820097793575769, -29.602551217025297 ], [ -50.821332351885239, -29.602434525522863 ], [ -50.82155, -29.602161 ], [ -50.822180600688625, -29.602354341507695 ], [ -50.824020043, -29.602180442 ], [ -50.823996635641969, -29.602969418232249 ], [ -50.8240248, -29.6029766 ], [ -50.823993443092405, -29.603077026328545 ], [ -50.823962017, -29.604136261 ], [ -50.824468202045423, -29.604087363036722 ], [ -50.8267837, -29.603724 ], [ -50.8311671, -29.602715 ], [ -50.831387099203127, -29.60261469056622 ], [ -50.831029437, -29.5981131459999 ], [ -50.836843490072432, -29.597374506573065 ], [ -50.8347488, -29.5909794 ], [ -50.8273888, -29.592789299999989 ], [ -50.8259082, -29.572356 ], [ -50.8192563, -29.576909499999985 ], [ -50.807299, -29.580581099999986 ], [ -50.8066333, -29.5809038 ], [ -50.8067492, -29.5811783 ], [ -50.8068848, -29.581604 ], [ -50.8070281, -29.5819364 ], [ -50.807232, -29.5822793 ], [ -50.8075554, -29.582901 ], [ -50.8076638, -29.5832216 ], [ -50.8078328, -29.583968 ], [ -50.8078987, -29.5842375 ], [ -50.8079964, -29.5844065 ], [ -50.8081439, -29.5845302 ], [ -50.8082727, -29.5845978 ], [ -50.808439, -29.5846561 ], [ -50.8086348, -29.5846678 ], [ -50.8088391, -29.584677899999985 ], [ -50.8092195, -29.5846748 ], [ -50.8095977, -29.5846701 ], [ -50.8099544, -29.5846841 ], [ -50.8103138, -29.5847331 ], [ -50.8104694, -29.5847891 ], [ -50.8105955, -29.5848404 ], [ -50.8106829, -29.5849162 ], [ -50.8108181, -29.585069 ], [ -50.810912, -29.58522060000001 ], [ -50.8109576, -29.5853792 ], [ -50.810979, -29.5855005 ], [ -50.8109897, -29.5858201 ], [ -50.8110197, -29.586077399999986 ], [ -50.8110595, -29.586225899999988 ], [ -50.8111373, -29.5863355 ], [ -50.8111775, -29.5864102 ], [ -50.8112687, -29.5864848 ], [ -50.8114001, -29.5865618 ], [ -50.8115289, -29.5866458 ], [ -50.8116902, -29.5867352 ], [ -50.8122906, -29.5871356 ], [ -50.8124301, -29.5872382 ], [ -50.8126098, -29.5873408 ], [ -50.8129428, -29.5874605 ], [ -50.8140099, -29.5876067 ], [ -50.814343, -29.5877078 ], [ -50.8145893, -29.5878073 ], [ -50.8147824, -29.5879379 ], [ -50.8148688, -29.588109 ], [ -50.8149058, -29.588259799999985 ], [ -50.8148414, -29.5884417 ], [ -50.8147126, -29.588605 ], [ -50.8146215, -29.5886703 ], [ -50.8144771, -29.5887108 ], [ -50.8140636, -29.5888056 ], [ -50.8138275, -29.5888732 ], [ -50.8136081, -29.5889464 ], [ -50.8133367, -29.5890668 ], [ -50.8130341, -29.5892565 ], [ -50.8129719, -29.5893421 ], [ -50.8129183, -29.589447 ], [ -50.8128727, -29.5896546 ], [ -50.8128297, -29.5900138 ], [ -50.8128195, -29.5905673 ], [ -50.8127868, -29.5909048 ], [ -50.8126849, -29.5912733 ], [ -50.8124064, -29.5923656 ], [ -50.812245, -29.5931975 ], [ -50.8121753, -29.593628899999985 ], [ -50.8121498, -29.5940303 ], [ -50.8121404, -29.5941514 ], [ -50.8121538, -29.5942773 ], [ -50.8123094, -29.5945642 ], [ -50.8124988, -29.5948523 ], [ -50.8126366, -29.5950936 ], [ -50.8128458, -29.5953502 ], [ -50.8131167, -29.5956347 ], [ -50.8133721, -29.5958921 ], [ -50.8136559, -29.5960942 ], [ -50.8139402, -29.5962668 ], [ -50.8143912, -29.5964751 ], [ -50.814549, -29.596535 ], [ -50.8147368, -29.5966049 ], [ -50.8151042, -29.5967379 ], [ -50.8155817, -29.5969408 ], [ -50.8160082, -29.5971787 ], [ -50.816386, -29.5974163 ], [ -50.8164829, -29.597481899999984 ], [ -50.8165526, -29.5975588 ], [ -50.8165607, -29.5976218 ], [ -50.816558, -29.5977057 ], [ -50.8165212, -29.59778840000001 ], [ -50.816448, -29.5979133 ], [ -50.8163252, -29.598061 ], [ -50.815830944514424, -29.598449268211116 ], [ -50.819637025112698, -29.600719517335566 ], [ -50.8198242, -29.6007876 ], [ -50.8192914, -29.6023888 ] ] ], [ [ [ -50.8157656, -29.5985006 ], [ -50.815783281112068, -29.59851224926685 ], [ -50.815796461059129, -29.598476356914023 ], [ -50.8157656, -29.5985006 ] ] ] ] } },
{ "type": "Feature", "properties": { "name": "Casa de Pedra", "code_muni": 4310108.0, "name_muni": "Igrejinha" }, "geometry": { "type": "Polygon", "coordinates": [ [ [ -50.8050469, -29.5966927 ], [ -50.8049371, -29.5971633 ], [ -50.8048475, -29.597525 ], [ -50.8047679, -29.5979386 ], [ -50.8047267, -29.5982083 ], [ -50.8046995, -29.5984212 ], [ -50.8046665, -29.5988252 ], [ -50.804657, -29.598903599999986 ], [ -50.8046524, -29.5989808 ], [ -50.8046442, -29.5991185 ], [ -50.8045637, -29.600461 ], [ -50.8045271, -29.6011078 ], [ -50.8043867, -29.6034579 ], [ -50.8043274, -29.6043274 ], [ -50.8042815, -29.6052844 ], [ -50.8042735, -29.6054469 ], [ -50.8041916, -29.6067824 ], [ -50.8039439, -29.6105485 ], [ -50.8039071, -29.6111693 ], [ -50.8038894, -29.611401 ], [ -50.8038788, -29.6115755 ], [ -50.8038191, -29.6125589 ], [ -50.8036846, -29.6147275 ], [ -50.8035821, -29.6163831 ], [ -50.8057242, -29.6170187 ], [ -50.8057224, -29.6169525 ], [ -50.8057648, -29.6166883 ], [ -50.805915, -29.6163105 ], [ -50.8062369, -29.6161193 ], [ -50.8066236, -29.6160384 ], [ -50.806734236459988, -29.616051310454907 ], [ -50.809452051730631, -29.615223118545789 ], [ -50.809680664290674, -29.614951159875805 ], [ -50.810425594964109, -29.611968000998274 ], [ -50.809906, -29.6103192 ], [ -50.811137576836877, -29.609041060683861 ], [ -50.811027588314651, -29.608818168170149 ], [ -50.8105625, -29.6079826 ], [ -50.8099722, -29.6072784 ], [ -50.8098489, -29.6065398 ], [ -50.8100761, -29.606298 ], [ -50.811067, -29.6060175 ], [ -50.8116242, -29.6057895 ], [ -50.811686436748012, -29.605793225578967 ], [ -50.813274117642862, -29.605168799624913 ], [ -50.8138028, -29.6030354 ], [ -50.8144169, -29.600532799999989 ], [ -50.8153385, -29.5988328 ], [ -50.8157656, -29.5985006 ], [ -50.815796461059129, -29.598476356914023 ], [ -50.8158108169999, -29.598437261999898 ], [ -50.815830944514424, -29.598449268211116 ], [ -50.8163252, -29.598061 ], [ -50.816448, -29.5979133 ], [ -50.8165212, -29.59778840000001 ], [ -50.816558, -29.5977057 ], [ -50.8165607, -29.5976218 ], [ -50.8165526, -29.5975588 ], [ -50.8164829, -29.597481899999984 ], [ -50.816386, -29.5974163 ], [ -50.8160082, -29.5971787 ], [ -50.8155817, -29.5969408 ], [ -50.8151042, -29.5967379 ], [ -50.8147368, -29.5966049 ], [ -50.814549, -29.596535 ], [ -50.8143912, -29.5964751 ], [ -50.8139402, -29.5962668 ], [ -50.8136559, -29.5960942 ], [ -50.8133721, -29.5958921 ], [ -50.8131167, -29.5956347 ], [ -50.8128458, -29.5953502 ], [ -50.8126366, -29.5950936 ], [ -50.8124988, -29.5948523 ], [ -50.8123094, -29.5945642 ], [ -50.8121538, -29.5942773 ], [ -50.8121404, -29.5941514 ], [ -50.8121498, -29.5940303 ], [ -50.811209, -29.5945339 ], [ -50.8083257, -29.5948395 ], [ -50.8081704, -29.5948525 ], [ -50.806882, -29.5949807 ], [ -50.8066964, -29.595035399999986 ], [ -50.805831, -29.5953985 ], [ -50.805717, -29.5954394 ], [ -50.8053764, -29.595499 ], [ -50.8053204, -29.5957021 ], [ -50.8050469, -29.5966927 ] ] ] } },
{ "type": "Feature", "properties": { "name": "Industrial", "code_muni": 4310108.0, "name_muni": "Igrejinha" }, "geometry": { "type": "Polygon", "coordinates": [ [ [ -50.8035821, -29.6163831 ], [ -50.8036846, -29.6147275 ], [ -50.8038191, -29.6125589 ], [ -50.8038788, -29.6115755 ], [ -50.8038894, -29.611401 ], [ -50.8039071, -29.6111693 ], [ -50.8039439, -29.6105485 ], [ -50.8041916, -29.6067824 ], [ -50.8042735, -29.6054469 ], [ -50.8042815, -29.6052844 ], [ -50.8043274, -29.6043274 ], [ -50.8043867, -29.6034579 ], [ -50.8045271, -29.6011078 ], [ -50.8045637, -29.600461 ], [ -50.8046442, -29.5991185 ], [ -50.8046524, -29.5989808 ], [ -50.804657, -29.598903599999986 ], [ -50.8046665, -29.5988252 ], [ -50.8046995, -29.5984212 ], [ -50.8047267, -29.5982083 ], [ -50.8047679, -29.5979386 ], [ -50.8048475, -29.597525 ], [ -50.8049371, -29.5971633 ], [ -50.8050469, -29.5966927 ], [ -50.8053204, -29.5957021 ], [ -50.8053764, -29.595499 ], [ -50.8049083, -29.5956848 ], [ -50.8038239, -29.5961172 ], [ -50.8035818, -29.5961864 ], [ -50.8033347, -29.5962388 ], [ -50.8025525, -29.5963721 ], [ -50.8022613, -29.5964053 ], [ -50.8013922, -29.5963962 ], [ -50.8009554, -29.5963944 ], [ -50.8004324, -29.5964364 ], [ -50.7997097, -29.596505 ], [ -50.7986771, -29.5965969 ], [ -50.7969911, -29.5967419 ], [ -50.7953844, -29.5968726 ], [ -50.7950712, -29.5968964 ], [ -50.7945825, -29.5969507 ], [ -50.7943028, -29.5969797 ], [ -50.7937311, -29.5971413 ], [ -50.7935956, -29.5971565 ], [ -50.7923921, -29.5971985 ], [ -50.791252, -29.5973324 ], [ -50.7907182, -29.5973987 ], [ -50.7899827, -29.5973979 ], [ -50.7898174, -29.5973514 ], [ -50.78916980000001, -29.5969586 ], [ -50.7873819, -29.6123113 ], [ -50.8035821, -29.6163831 ] ] ] } },
{ "type": "Feature", "properties": { "name": "Centro", "code_muni": 4310108.0, "name_muni": "Igrejinha" }, "geometry": { "type": "Polygon", "coordinates": [ [ [ -50.776835, -29.5345932 ], [ -50.777034821519536, -29.53447835434924 ], [ -50.776984917999989, -29.534462542 ], [ -50.776564069751714, -29.534714834598919 ], [ -50.776835, -29.5345932 ] ] ] } },
{ "type": "Feature", "properties": { "name": "Santa Maria", "code_muni": 4310108.0, "name_muni": "Igrejinha" }, "geometry": { "type": "Polygon", "coordinates": [ [ [ -50.8035821, -29.6163831 ], [ -50.8035569, -29.6167984 ], [ -50.803558119485835, -29.616916205430542 ], [ -50.805956587180191, -29.617431520067296 ], [ -50.805956659690281, -29.617423353828393 ], [ -50.8059096, -29.6174111 ], [ -50.8057717, -29.6172351 ], [ -50.8057242, -29.6170187 ], [ -50.8035821, -29.6163831 ] ] ] } },
{ "type": "Feature", "properties": { "name": "Picada Francesa", "code_muni": 4310108.0, "name_muni": "Igrejinha" }, "geometry": { "type": "Polygon", "coordinates": [ [ [ -50.8035569, -29.6167984 ], [ -50.8035821, -29.6163831 ], [ -50.7873819, -29.6123113 ], [ -50.782607761683273, -29.61241292198557 ], [ -50.803558119485835, -29.616916205430542 ], [ -50.8035569, -29.6167984 ] ] ] } }
]
}
