{
"type": "FeatureCollection",
"name": "bairros_barra_do_quarai",
"crs": { "type": "name", "properties": { "name": "urn:ogc:def:crs:OGC:1.3:CRS84" } },
"features": [
{ "type": "Feature", "properties": { "code_muni": 4301875.0, "name_muni": "Barra do Quaraí", "code_state": 43.0, "abbrev_state": "RS", "name_state": "Rio Grande do Sul", "code_region": 4.0, "name_region": "Sul", "year": 2022.0 }, "geometry": { "type": "Polygon", "coordinates": [ [ [ -57.143817313999897, -30.165101318 ], [ -57.145573877999894, -30.172775484999899 ], [ -57.159136111999892, -30.185691163999898 ], [ -57.158477661999896, -30.191284819 ], [ -57.159464132, -30.193073725 ], [ -57.168219362999899, -30.197636072 ], [ -57.167125462999891, -30.203641069 ], [ -57.168361158, -30.208396654 ], [ -57.164777742, -30.213448021 ], [ -57.167942468, -30.217732200999905 ], [ -57.163249686, -30.217318693 ], [ -57.162763329, -30.219303656 ], [ -57.165086731, -30.221743207 ], [ -57.16542890599991, -30.2245122809999 ], [ -57.163252096, -30.227624165 ], [ -57.156780887, -30.231405856999988 ], [ -57.155162119, -30.234136228 ], [ -57.1615371359999, -30.24213651 ], [ -57.163411633, -30.24286175 ], [ -57.166336718, -30.240860607999895 ], [ -57.167449214, -30.241382191 ], [ -57.169048991, -30.243505216999896 ], [ -57.167913673, -30.2490263299999 ], [ -57.177334056999896, -30.251288139999893 ], [ -57.185105420999903, -30.256325381999901 ], [ -57.18668307, -30.258825472 ], [ -57.196253076999895, -30.264506477999909 ], [ -57.199256243, -30.274855064999908 ], [ -57.202456867, -30.280274124999895 ], [ -57.202318456999897, -30.283315648 ], [ -57.204209045, -30.285142295999893 ], [ -57.209340876999896, -30.284543029 ], [ -57.215909995999894, -30.288287297 ], [ -57.220261386999901, -30.289285371999899 ], [ -57.250077174999895, -30.289156862 ], [ -57.253626336, -30.2862929899999 ], [ -57.255871275999901, -30.281849217999895 ], [ -57.253183223999891, -30.273292957 ], [ -57.258554772, -30.267169477 ], [ -57.261769094, -30.267223298999987 ], [ -57.268969018, -30.271648478 ], [ -57.270247304, -30.278692045999904 ], [ -57.26881761, -30.28279514 ], [ -57.270060978999901, -30.284984513 ], [ -57.274887221, -30.286955212999896 ], [ -57.27781542199989, -30.292454039999896 ], [ -57.280939077, -30.294272236 ], [ -57.284564520999893, -30.293722064999898 ], [ -57.293176751, -30.286392627999899 ], [ -57.306979409, -30.262332801 ], [ -57.311355846, -30.258103343999903 ], [ -57.314329423999887, -30.257747977999895 ], [ -57.317570055, -30.261443413999896 ], [ -57.319503981999986, -30.269742440999895 ], [ -57.342983739999987, -30.27768115 ], [ -57.35203600900001, -30.284485029999892 ], [ -57.356043309, -30.284233662 ], [ -57.357681581999906, -30.282628020999901 ], [ -57.357459827999882, -30.275440264999894 ], [ -57.358825038, -30.272402933 ], [ -57.361858976999898, -30.270919584 ], [ -57.364919145, -30.271050327999902 ], [ -57.369834507999897, -30.27301152 ], [ -57.378750489, -30.279420746 ], [ -57.389300684, -30.295741429 ], [ -57.389444957, -30.302461628999893 ], [ -57.392352245, -30.304673263 ], [ -57.397627434999897, -30.304535654999885 ], [ -57.403956315, -30.300686144999897 ], [ -57.411311774, -30.300033702999897 ], [ -57.418599253999986, -30.302644101999892 ], [ -57.421380892999885, -30.300875658999896 ], [ -57.42165747, -30.289161341999893 ], [ -57.418098989, -30.283679225 ], [ -57.415334856999884, -30.282038222 ], [ -57.414784778, -30.279708131999897 ], [ -57.416404530999984, -30.277977873999898 ], [ -57.429295975999899, -30.274609267999878 ], [ -57.452295288999899, -30.276037447 ], [ -57.455475734999901, -30.274470221999902 ], [ -57.460593194999902, -30.267419819999894 ], [ -57.463523412, -30.265399860999906 ], [ -57.486759698, -30.2668292389999 ], [ -57.490064887, -30.269016082999897 ], [ -57.495318992, -30.278559975 ], [ -57.497901188, -30.2872876929999 ], [ -57.500273085999908, -30.28885313199989 ], [ -57.512844908, -30.285189720999892 ], [ -57.525408792999883, -30.28547219 ], [ -57.531632858, -30.281376656 ], [ -57.550831710999908, -30.272619384999896 ], [ -57.55512096199989, -30.265001227 ], [ -57.566339844, -30.259111205999893 ], [ -57.567979154999897, -30.252230965 ], [ -57.558591662, -30.235562775999895 ], [ -57.556298865, -30.224972932 ], [ -57.557846388999984, -30.213383447999888 ], [ -57.563072906999899, -30.209109511 ], [ -57.60336743499991, -30.189671132999909 ], [ -57.614676012, -30.189346827 ], [ -57.626373971, -30.186696336 ], [ -57.632054731, -30.187038983 ], [ -57.645141937999902, -30.193690629999899 ], [ -57.649742824, -30.189320897 ], [ -57.646021360999988, -30.180844911999891 ], [ -57.639613701, -30.176744266 ], [ -57.632660271, -30.174776946 ], [ -57.594099526, -30.178991579999899 ], [ -57.588019078999899, -30.178344798 ], [ -57.569608433, -30.171763767 ], [ -57.525614705999892, -30.151385455 ], [ -57.47599394, -30.118362423 ], [ -57.464604258, -30.110343034 ], [ -57.458226693, -30.101236561999897 ], [ -57.453761149999885, -30.081558760999897 ], [ -57.447574936, -30.072283313999893 ], [ -57.417521641, -30.038372563999907 ], [ -57.396332152999904, -30.022794248 ], [ -57.35198067999989, -30.008058557 ], [ -57.33756762, -29.989972475999902 ], [ -57.328126791999985, -29.971944920999896 ], [ -57.320366915999983, -29.96752328 ], [ -57.315619109999908, -29.95897007 ], [ -57.310881049999978, -29.955509041 ], [ -57.311285641, -29.950036313999895 ], [ -57.309189929, -29.949495754999901 ], [ -57.30641299, -29.953031047 ], [ -57.302566175, -29.952690534999896 ], [ -57.299447503, -29.95020347 ], [ -57.29554236900001, -29.951195906999899 ], [ -57.291713864, -29.949373513999898 ], [ -57.284900346, -29.952653143 ], [ -57.280854315999896, -29.952915350999888 ], [ -57.274354441999897, -29.9597262949999 ], [ -57.271200484, -29.966974906 ], [ -57.263637855, -29.970846897999902 ], [ -57.256538312, -29.971845216 ], [ -57.257772969, -29.975321844999897 ], [ -57.256851824, -29.978529387 ], [ -57.251758723, -29.990503319 ], [ -57.245628529, -29.997355609 ], [ -57.243257166, -30.004696246 ], [ -57.227487085, -30.014254983999891 ], [ -57.231198559999903, -30.018819445 ], [ -57.219417086, -30.025739793999911 ], [ -57.215075425, -30.022032435999986 ], [ -57.184775014, -30.042691623999893 ], [ -57.170053117999899, -30.046322726 ], [ -57.167653426, -30.054300137 ], [ -57.162425407999891, -30.059844606 ], [ -57.155326572, -30.059635775999901 ], [ -57.151785768, -30.056766726 ], [ -57.1361697789999, -30.064492566999895 ], [ -57.138410506, -30.073453265999891 ], [ -57.134019984, -30.088298713 ], [ -57.121395772, -30.109243123999896 ], [ -57.115634617999902, -30.112529321 ], [ -57.116728364, -30.120036904999907 ], [ -57.11408320399989, -30.127182902999898 ], [ -57.109894787, -30.128595267 ], [ -57.108330506, -30.125631547 ], [ -57.106134462999897, -30.125241355999901 ], [ -57.104756149, -30.127461278999899 ], [ -57.107257768, -30.1329223779999 ], [ -57.105700232999894, -30.1351288769999 ], [ -57.108950675999893, -30.138130627 ], [ -57.110986762, -30.142678814 ], [ -57.114483284999899, -30.145457403 ], [ -57.119825695, -30.144589430999897 ], [ -57.12291421, -30.141139594 ], [ -57.12916502, -30.140838055 ], [ -57.135839259, -30.157935725 ], [ -57.143817313999897, -30.165101318 ] ] ] } }
]
}
