{
"type": "FeatureCollection",
"name": "bairros_tapejara",
"crs": { "type": "name", "properties": { "name": "urn:ogc:def:crs:OGC:1.3:CRS84" } },
"features": [
{ "type": "Feature", "properties": { "name": "Nazaré", "code_muni": 4320909.0, "name_muni": "Tapejara" }, "geometry": { "type": "Polygon", "coordinates": [ [ [ -52.0188805, -28.0713267 ], [ -52.0227685, -28.067578 ], [ -52.0244185, -28.0663228 ], [ -52.0265333, -28.0655865 ], [ -52.0281549, -28.0652601 ], [ -52.0271212, -28.0641555 ], [ -52.0231573, -28.0629254 ], [ -52.023072, -28.0637037 ], [ -52.0198572, -28.0655028 ], [ -52.0163105, -28.0691428 ], [ -52.0188805, -28.0713267 ] ] ] } },
{ "type": "Feature", "properties": { "name": "São Cristóvão", "code_muni": 4320909.0, "name_muni": "Tapejara" }, "geometry": { "type": "Polygon", "coordinates": [ [ [ -52.0265336, -28.065587 ], [ -52.0244189, -28.0663232 ], [ -52.0227685, -28.0675787 ], [ -52.0188809, -28.0713271 ], [ -52.0175873, -28.0725113 ], [ -52.012747, -28.0783229 ], [ -52.0178585, -28.0781963 ], [ -52.0178271, -28.0826363 ], [ -52.0209185, -28.082653 ], [ -52.0209565, -28.0842259 ], [ -52.0246738, -28.0816323 ], [ -52.0253566, -28.0834897 ], [ -52.0281826, -28.086602 ], [ -52.0311602, -28.0845606 ], [ -52.029312, -28.0756828 ], [ -52.0314041, -28.0716832 ], [ -52.02815540000001, -28.0652607 ], [ -52.0265336, -28.065587 ] ] ] } },
{ "type": "Feature", "properties": { "name": "Saída P/ Passo Fundo", "code_muni": 4320909.0, "name_muni": "Tapejara" }, "geometry": { "type": "Polygon", "coordinates": [ [ [ -52.028183, -28.0866025 ], [ -52.0254743, -28.087722 ], [ -52.0297619, -28.0944506 ], [ -52.0430949, -28.0947882 ], [ -52.0432384, -28.0898357 ], [ -52.033781, -28.0883021 ], [ -52.0311609, -28.0845611 ], [ -52.028183, -28.0866025 ] ] ] } },
{ "type": "Feature", "properties": { "name": "Distrito Industrial Joao Fortunato", "code_muni": 4320909.0, "name_muni": "Tapejara" }, "geometry": { "type": "Polygon", "coordinates": [ [ [ -52.0499429, -28.0949611 ], [ -52.0501515, -28.0898077 ], [ -52.0432391, -28.0898356 ], [ -52.0430957, -28.0947883 ], [ -52.0499429, -28.0949611 ] ] ] } },
{ "type": "Feature", "properties": { "name": "Isisdoro Danieli", "code_muni": 4320909.0, "name_muni": "Tapejara" }, "geometry": { "type": "Polygon", "coordinates": [ [ [ -52.0572173, -28.0915648 ], [ -52.0565632, -28.0941411 ], [ -52.0596532, -28.0948176 ], [ -52.0604652, -28.0922707 ], [ -52.0572173, -28.0915648 ] ] ] } },
{ "type": "Feature", "properties": { "name": "São Domingos", "code_muni": 4320909.0, "name_muni": "Tapejara" }, "geometry": { "type": "Polygon", "coordinates": [ [ [ -52.0502433, -28.1009744 ], [ -52.0695821, -28.1029381 ], [ -52.0678386, -28.0913915 ], [ -52.0632789, -28.090587 ], [ -52.0501522, -28.0898077 ], [ -52.0499437, -28.0949611 ], [ -52.0502433, -28.1009744 ] ] ] } },
{ "type": "Feature", "properties": { "name": "Colina", "code_muni": 4320909.0, "name_muni": "Tapejara" }, "geometry": { "type": "Polygon", "coordinates": [ [ [ -52.0136728, -28.0783006 ], [ -52.013519, -28.0854178 ], [ -52.0163617, -28.0854036 ], [ -52.0200436, -28.0847187 ], [ -52.020956, -28.0842262 ], [ -52.0209179, -28.0826535 ], [ -52.0178267, -28.0826369 ], [ -52.017858, -28.0781968 ], [ -52.013959, -28.0782935 ], [ -52.0136728, -28.0783006 ] ] ] } },
{ "type": "Feature", "properties": { "name": "12 de Maio", "code_muni": 4320909.0, "name_muni": "Tapejara" }, "geometry": { "type": "Polygon", "coordinates": [ [ [ -52.0174509, -28.0608554 ], [ -52.0228824, -28.0555416 ], [ -52.0187786, -28.0490321 ], [ -52.015922, -28.047955 ], [ -52.0133203, -28.0518726 ], [ -52.0136153, -28.0537781 ], [ -52.0142591, -28.0548315 ], [ -52.0136824, -28.058737 ], [ -52.0134142, -28.0598377 ], [ -52.0174509, -28.0608554 ] ] ] } },
{ "type": "Feature", "properties": { "name": "Distrito Industrial Augusto Menegaz", "code_muni": 4320909.0, "name_muni": "Tapejara" }, "geometry": { "type": "Polygon", "coordinates": [ [ [ -52.0100493, -28.0512061 ], [ -52.0092717, -28.0540943 ], [ -52.0115215, -28.0536664 ], [ -52.0136147, -28.0537783 ], [ -52.0133197, -28.0518728 ], [ -52.0134762, -28.0516362 ], [ -52.0100493, -28.0512061 ] ] ] } },
{ "type": "Feature", "properties": { "name": "Bairro Real", "code_muni": 4320909.0, "name_muni": "Tapejara" }, "geometry": { "type": "Polygon", "coordinates": [ [ [ -52.0136817, -28.0587371 ], [ -52.0142585, -28.0548317 ], [ -52.013615, -28.0537788 ], [ -52.0115217, -28.0536669 ], [ -52.0092717, -28.0540949 ], [ -52.0089597, -28.0551799 ], [ -52.0099246, -28.0553347 ], [ -52.011352, -28.0574458 ], [ -52.0134135, -28.0598376 ], [ -52.0136817, -28.0587371 ] ] ] } },
{ "type": "Feature", "properties": { "name": "Sol Poente", "code_muni": 4320909.0, "name_muni": "Tapejara" }, "geometry": { "type": "Polygon", "coordinates": [ [ [ -52.0051219, -28.0532527 ], [ -52.004388, -28.0574155 ], [ -52.0075397, -28.0600953 ], [ -52.0104492, -28.0623742 ], [ -52.0174413, -28.0679813 ], [ -52.0198574, -28.0655018 ], [ -52.0230715, -28.0637033 ], [ -52.0231566, -28.0629253 ], [ -52.0195312, -28.058821 ], [ -52.0174508, -28.0608561 ], [ -52.0134132, -28.0598381 ], [ -52.0113513, -28.0574459 ], [ -52.0099242, -28.0553352 ], [ -52.008959, -28.0551802 ], [ -52.0092712, -28.0540944 ], [ -52.0094246, -28.0535234 ], [ -52.0051219, -28.0532527 ] ] ] } },
{ "type": "Feature", "properties": { "name": "Centro", "code_muni": 4320909.0, "name_muni": "Tapejara" }, "geometry": { "type": "Polygon", "coordinates": [ [ [ -52.006237, -28.0647865 ], [ -52.005887, -28.0656694 ], [ -52.0055937, -28.0658983 ], [ -52.0030902, -28.0666646 ], [ -52.0087739, -28.071242 ], [ -52.0068906, -28.0729933 ], [ -52.0093378, -28.0749037 ], [ -52.0002381, -28.0808255 ], [ -52.0022906, -28.0827159 ], [ -52.0087412, -28.0854222 ], [ -52.0135184, -28.0854178 ], [ -52.0136722, -28.0783006 ], [ -52.0127464, -28.0783232 ], [ -52.0175871, -28.0725106 ], [ -52.0188801, -28.0713271 ], [ -52.0163098, -28.0691429 ], [ -52.017441, -28.0679818 ], [ -52.0075391, -28.060096 ], [ -52.006237, -28.0647865 ] ] ] } },
{ "type": "Feature", "properties": { "name": "Perimetral", "code_muni": 4320909.0, "name_muni": "Tapejara" }, "geometry": { "type": "Polygon", "coordinates": [ [ [ -52.028182, -28.0866023 ], [ -52.0253559, -28.0834897 ], [ -52.0246735, -28.081633199999988 ], [ -52.0209564, -28.0842265 ], [ -52.0200437, -28.0847193 ], [ -52.0163612, -28.0854042 ], [ -52.0135185, -28.0854184 ], [ -52.0087403, -28.0854226 ], [ -52.0022897, -28.0827159 ], [ -52.0002376, -28.0808258 ], [ -51.9977707, -28.0778355 ], [ -51.9974221, -28.0683216 ], [ -51.995959, -28.0685323 ], [ -51.9918947, -28.0685483 ], [ -51.9913554, -28.0782985 ], [ -51.9971222, -28.0853505 ], [ -52.0075828, -28.0906511 ], [ -52.0136446, -28.0911953 ], [ -52.0254741, -28.0877213 ], [ -52.028182, -28.0866023 ] ] ] } },
{ "type": "Feature", "properties": { "name": "Loteamento Colussi", "code_muni": 4320909.0, "name_muni": "Tapejara" }, "geometry": { "type": "Polygon", "coordinates": [ [ [ -52.0059489, -28.0722759 ], [ -51.9977713, -28.0778352 ], [ -52.0002378, -28.0808251 ], [ -52.0093367, -28.0749036 ], [ -52.0068902, -28.0729937 ], [ -52.0059489, -28.0722759 ] ] ] } },
{ "type": "Feature", "properties": { "name": "Sol Nascente (Vila Rica)", "code_muni": 4320909.0, "name_muni": "Tapejara" }, "geometry": { "type": "Polygon", "coordinates": [ [ [ -51.9986088, -28.0681242 ], [ -52.0045137, -28.073251 ], [ -52.0059489, -28.0722753 ], [ -52.0068903, -28.0729928 ], [ -52.008773, -28.0712419 ], [ -52.0030897, -28.066665 ], [ -51.9986088, -28.0681242 ] ] ] } },
{ "type": "Feature", "properties": { "name": "Bairro São Paulo", "code_muni": 4320909.0, "name_muni": "Tapejara" }, "geometry": { "type": "Polygon", "coordinates": [ [ [ -52.0020375, -28.0599479 ], [ -52.0013536, -28.0610603 ], [ -52.0008305, -28.0606816 ], [ -51.9991407, -28.0604094 ], [ -51.998269, -28.0596757 ], [ -51.9947419, -28.0565276 ], [ -51.9927705, -28.0584094 ], [ -51.9966999, -28.0618177 ], [ -51.9958836, -28.0647733 ], [ -51.9883734, -28.064607599999988 ], [ -51.9882525, -28.0671472 ], [ -51.9883488, -28.0685617 ], [ -51.9959591, -28.0685317 ], [ -51.9974222, -28.0683207 ], [ -51.9986083, -28.0681238 ], [ -52.0030893, -28.0666644 ], [ -52.0055934, -28.0658978 ], [ -52.0058865, -28.0656689 ], [ -52.0062362, -28.0647867 ], [ -52.0075386, -28.0600953 ], [ -52.0043876, -28.0574161 ], [ -52.0020375, -28.0599479 ] ] ] } },
{ "type": "Feature", "properties": { "name": "Bairro Coasa", "code_muni": 4320909.0, "name_muni": "Tapejara" }, "geometry": { "type": "Polygon", "coordinates": [ [ [ -51.9924878, -28.0588369 ], [ -51.9886748, -28.0588533 ], [ -51.9883734, -28.064607 ], [ -51.9958832, -28.0647728 ], [ -51.9966991, -28.0618179 ], [ -51.99277, -28.0584098 ], [ -51.9924878, -28.0588369 ] ] ] } },
{ "type": "Feature", "properties": { "name": "Loteamento Madre Paulina (Bianchini)", "code_muni": 4320909.0, "name_muni": "Tapejara" }, "geometry": { "type": "Polygon", "coordinates": [ [ [ -51.9950586, -28.050941399999989 ], [ -51.9919885, -28.0550583 ], [ -51.9947422, -28.0565272 ], [ -51.9991409, -28.0604089 ], [ -52.0008302, -28.0606807 ], [ -52.0013534, -28.0610594 ], [ -52.0020365, -28.0599482 ], [ -52.004387, -28.0574155 ], [ -51.9950586, -28.050941399999989 ] ] ] } },
{ "type": "Feature", "properties": { "name": "Loteamento Tapy", "code_muni": 4320909.0, "name_muni": "Tapejara" }, "geometry": { "type": "Polygon", "coordinates": [ [ [ -51.9896698, -28.0536787 ], [ -51.9891601, -28.0542231 ], [ -51.985861, -28.0521637 ], [ -51.9850564, -28.0555486 ], [ -51.9886751, -28.0588527 ], [ -51.9924875, -28.0588364 ], [ -51.9927692, -28.0584097 ], [ -51.9947412, -28.0565273 ], [ -51.991988, -28.055059 ], [ -51.9896698, -28.0536787 ] ] ] } },
{ "type": "Feature", "properties": { "name": "Loteamento Casa Nova", "code_muni": 4320909.0, "name_muni": "Tapejara" }, "geometry": { "type": "Polygon", "coordinates": [ [ [ -51.9866355, -28.0518526 ], [ -51.9882782, -28.0497766 ], [ -51.9836634, -28.0446093 ], [ -51.9795059, -28.0485626 ], [ -51.977387, -28.051995 ], [ -51.9850558, -28.0555484 ], [ -51.9858606, -28.052163 ], [ -51.9891601, -28.0542223 ], [ -51.9896693, -28.0536783 ], [ -51.9866355, -28.0518526 ] ] ] } },
{ "type": "Feature", "properties": { "name": "Linha Calegari", "code_muni": 4320909.0, "name_muni": "Tapejara" }, "geometry": { "type": "Polygon", "coordinates": [ [ [ -51.9725084, -28.0784926 ], [ -51.9913548, -28.0782985 ], [ -51.9918941, -28.0685483 ], [ -51.9883483, -28.0685623 ], [ -51.9882519, -28.0671481 ], [ -51.9883727, -28.0646074 ], [ -51.9886743, -28.0588529 ], [ -51.985056, -28.055549 ], [ -51.9773866, -28.051995399999988 ], [ -51.9714063, -28.0512277 ], [ -51.9725084, -28.0784926 ] ] ] } },
{ "type": "Feature", "properties": { "name": "Vila Campos", "code_muni": 4320909.0, "name_muni": "Tapejara" }, "geometry": { "type": "Polygon", "coordinates": [ [ [ -51.9295609, -28.0497814 ], [ -51.9268787, -28.0809287 ], [ -51.9725078, -28.0784926 ], [ -51.9714056, -28.0512276 ], [ -51.9295609, -28.0497814 ] ] ] } },
{ "type": "Feature", "properties": { "name": "Linha Girardi", "code_muni": 4320909.0, "name_muni": "Tapejara" }, "geometry": { "type": "Polygon", "coordinates": [ [ [ -51.9920457, -28.0878519 ], [ -52.0050007, -28.094643 ], [ -52.0075824, -28.0906516 ], [ -51.997122, -28.0853512 ], [ -51.991355, -28.078299 ], [ -51.9859302, -28.078355 ], [ -51.9920457, -28.0878519 ] ] ] } },
{ "type": "Feature", "properties": { "name": "Linha Dalzotto", "code_muni": 4320909.0, "name_muni": "Tapejara" }, "geometry": { "type": "Polygon", "coordinates": [ [ [ -51.9882789, -28.0497767 ], [ -51.9866364, -28.0518524 ], [ -51.98967, -28.053678 ], [ -51.991988, -28.0550581 ], [ -51.9950581, -28.0509411 ], [ -51.9924172, -28.0399204 ], [ -51.9842097, -28.0400388 ], [ -51.9836638, -28.0446089 ], [ -51.9882789, -28.0497767 ] ] ] } },
{ "type": "Feature", "properties": { "name": "Linha Marchiori", "code_muni": 4320909.0, "name_muni": "Tapejara" }, "geometry": { "type": "Polygon", "coordinates": [ [ [ -51.9617362, -28.0399685 ], [ -51.961387, -28.0508808 ], [ -51.971406, -28.0512271 ], [ -51.9773864, -28.0519948 ], [ -51.9795057, -28.048562 ], [ -51.9836631, -28.0446086 ], [ -51.9842088, -28.0400387 ], [ -51.9617362, -28.0399685 ] ] ] } },
{ "type": "Feature", "properties": { "name": "Linha Quatro", "code_muni": 4320909.0, "name_muni": "Tapejara" }, "geometry": { "type": "Polygon", "coordinates": [ [ [ -51.9455116, -28.0225242 ], [ -51.9362848, -28.0259337 ], [ -51.9295609, -28.0497809 ], [ -51.9613865, -28.0508807 ], [ -51.9617354, -28.0399685 ], [ -51.9455116, -28.0225242 ] ] ] } },
{ "type": "Feature", "properties": { "name": "Linha Três", "code_muni": 4320909.0, "name_muni": "Tapejara" }, "geometry": { "type": "Polygon", "coordinates": [ [ [ -51.9617359, -28.0399678 ], [ -51.9842093, -28.0400382 ], [ -51.9853602, -28.0289259 ], [ -51.9511168, -28.0139151 ], [ -51.9455121, -28.0225238 ], [ -51.9617359, -28.0399678 ] ] ] } }
]
}
