{
"type": "FeatureCollection",
"name": "bairros_sao_pedro_do_butia",
"crs": { "type": "name", "properties": { "name": "urn:ogc:def:crs:OGC:1.3:CRS84" } },
"features": [
{ "type": "Feature", "properties": { "code_muni": 4319372.0, "name_muni": "São Pedro do Butiá", "code_state": 43.0, "abbrev_state": "RS", "name_state": "Rio Grande do Sul", "code_region": 4.0, "name_region": "Sul", "year": 2022.0 }, "geometry": { "type": "Polygon", "coordinates": [ [ [ -54.896289184999901, -28.165329562 ], [ -54.899344559, -28.163665197999894 ], [ -54.905817955, -28.172741613 ], [ -54.911737573, -28.17606734 ], [ -54.918829635, -28.177446733999901 ], [ -54.920926978, -28.181552454999988 ], [ -54.914193946999902, -28.187824747 ], [ -54.914366753, -28.191832980999891 ], [ -54.92856074, -28.201100939 ], [ -54.932496112, -28.200867792999894 ], [ -54.935262584, -28.1929922529999 ], [ -54.939890272, -28.188848624999896 ], [ -54.943994632999896, -28.182523967 ], [ -54.937651145, -28.180118023 ], [ -54.937076847, -28.177074408 ], [ -54.939514797999905, -28.175118736999885 ], [ -54.943644252999903, -28.174666139999893 ], [ -54.944365615, -28.173359531 ], [ -54.942757801, -28.171049622999892 ], [ -54.942968337000011, -28.166656197999892 ], [ -54.9406223619999, -28.165660648 ], [ -54.940403574, -28.159941826 ], [ -54.937437691, -28.154705724999904 ], [ -54.937533472, -28.150478242 ], [ -54.934965785, -28.148732776 ], [ -54.929193229, -28.148068994 ], [ -54.9278397799999, -28.142275046 ], [ -54.925250909999903, -28.139521160999898 ], [ -54.925294344999891, -28.129219468 ], [ -54.927868867, -28.1290121 ], [ -54.928007833, -28.057554883 ], [ -54.906530685999897, -28.057615326 ], [ -54.906609124999896, -28.045987796 ], [ -54.866378117999894, -28.045716876 ], [ -54.866380788999891, -28.089170795 ], [ -54.856347797999902, -28.088880973 ], [ -54.855776759, -28.161115000999903 ], [ -54.861107155999903, -28.162249748 ], [ -54.856349131999899, -28.181121139 ], [ -54.859519807, -28.187961834 ], [ -54.8675620879999, -28.192306518 ], [ -54.872273306, -28.197103823 ], [ -54.881703854, -28.202147275999891 ], [ -54.884855597999902, -28.202188051999894 ], [ -54.891525469, -28.199023447999892 ], [ -54.895306973999894, -28.195717428 ], [ -54.896368709999891, -28.192331436 ], [ -54.895951034999889, -28.188658506 ], [ -54.891971818999899, -28.183370945 ], [ -54.889486163999898, -28.183890634 ], [ -54.887667199, -28.190423193 ], [ -54.884524612, -28.194063492999895 ], [ -54.881939498999898, -28.19432204 ], [ -54.878837651, -28.190474912 ], [ -54.88100562599989, -28.1851643279999 ], [ -54.896289184999901, -28.165329562 ] ] ] } }
]
}
