{
"type": "FeatureCollection",
"name": "bairros_vanini",
"crs": { "type": "name", "properties": { "name": "urn:ogc:def:crs:OGC:1.3:CRS84" } },
"features": [
{ "type": "Feature", "properties": { "code_muni": 4322558.0, "name_muni": "Vanini", "code_state": 43.0, "abbrev_state": "RS", "name_state": "Rio Grande do Sul", "code_region": 4.0, "name_region": "Sul", "year": 2022.0 }, "geometry": { "type": "Polygon", "coordinates": [ [ [ -51.849231345, -28.509735935 ], [ -51.862998615, -28.509668007999899 ], [ -51.862995344999895, -28.506485852 ], [ -51.876261708, -28.505849476 ], [ -51.876191999, -28.490254358999898 ], [ -51.889030897999902, -28.489996925999904 ], [ -51.888886976, -28.483864637 ], [ -51.912403896999891, -28.484349608999889 ], [ -51.911222169, -28.480819176999901 ], [ -51.915405478, -28.478336159 ], [ -51.913047542999898, -28.473071251 ], [ -51.901501451999891, -28.476597175999899 ], [ -51.898875631, -28.4761309199999 ], [ -51.901505514, -28.474067203999905 ], [ -51.901785824999898, -28.470271512 ], [ -51.905988565, -28.467362438 ], [ -51.906928088, -28.465654118 ], [ -51.905771897, -28.464574706 ], [ -51.904331791999901, -28.465877539 ], [ -51.900089838, -28.464160637 ], [ -51.893471362, -28.466320502 ], [ -51.89470346, -28.461557311 ], [ -51.891341691, -28.460168547 ], [ -51.888085659, -28.463326373 ], [ -51.8879967949999, -28.4608626149999 ], [ -51.884397404, -28.458130572 ], [ -51.878501362, -28.458480768999902 ], [ -51.870668662999897, -28.462776286999897 ], [ -51.8670430129999, -28.463404105999892 ], [ -51.866095997999899, -28.458491599999896 ], [ -51.860293426999895, -28.457289291999896 ], [ -51.859247002, -28.459100212999896 ], [ -51.855914614, -28.457799448999896 ], [ -51.852946125999893, -28.458504892 ], [ -51.85056099, -28.462878728 ], [ -51.845431705999907, -28.462361981 ], [ -51.844298946, -28.460109898999988 ], [ -51.840021174999897, -28.461165015999899 ], [ -51.835731347, -28.4606026 ], [ -51.831679529, -28.463889767 ], [ -51.829548092, -28.468242883 ], [ -51.816796784, -28.471408589 ], [ -51.812845228, -28.467697669 ], [ -51.794012666, -28.465111798 ], [ -51.785387897, -28.467626127999893 ], [ -51.782603162, -28.471690765999902 ], [ -51.784772417999903, -28.474695552 ], [ -51.781195556999897, -28.478507984 ], [ -51.775856462, -28.475434672999903 ], [ -51.776042285, -28.478891141 ], [ -51.780947136, -28.485495226 ], [ -51.775702674999899, -28.484518809999905 ], [ -51.774009131999897, -28.48584075 ], [ -51.773850437, -28.493368603 ], [ -51.777381068, -28.493664749999898 ], [ -51.783225340999905, -28.487371098 ], [ -51.790343027999896, -28.487964400999903 ], [ -51.78816045, -28.500612574999899 ], [ -51.783218643999895, -28.503872252 ], [ -51.778370266, -28.504509841999901 ], [ -51.782351424, -28.513179556999901 ], [ -51.787392532999903, -28.515685158999897 ], [ -51.785989569, -28.522005919 ], [ -51.788532276, -28.522269362 ], [ -51.791683105999894, -28.519660773999906 ], [ -51.794114275, -28.520776784 ], [ -51.7955560199999, -28.523275978 ], [ -51.789227067, -28.526962260999905 ], [ -51.78669522, -28.531424402 ], [ -51.798931787999898, -28.531747847 ], [ -51.802812092999893, -28.537746059999986 ], [ -51.809823741999892, -28.533102902999897 ], [ -51.803117312, -28.52727728299989 ], [ -51.825016972, -28.527744965999904 ], [ -51.824844728999899, -28.521155321 ], [ -51.837000874999895, -28.5212528 ], [ -51.83680296499989, -28.515682830999904 ], [ -51.84906212300001, -28.51560677 ], [ -51.849231345, -28.509735935 ] ] ] } }
]
}
