{
"type": "FeatureCollection",
"name": "bairros_ibirapuita",
"crs": { "type": "name", "properties": { "name": "urn:ogc:def:crs:OGC:1.3:CRS84" } },
"features": [
{ "type": "Feature", "properties": { "name": "Centro", "code_muni": 4309951.0, "name_muni": "Ibirapuitã" }, "geometry": { "type": "Polygon", "coordinates": [ [ [ -52.5100606, -28.6306173 ], [ -52.5101355, -28.630101599999989 ], [ -52.5103301, -28.6296251 ], [ -52.5107857, -28.6287534 ], [ -52.51106990000001, -28.6283406 ], [ -52.5111991, -28.6281678 ], [ -52.5120145, -28.6271578 ], [ -52.5120842, -28.6270401 ], [ -52.5121728, -28.626887 ], [ -52.5122479, -28.6267105 ], [ -52.512323, -28.6262926 ], [ -52.5123739, -28.6260818 ], [ -52.5124356, -28.6257664 ], [ -52.5125489, -28.6255021 ], [ -52.5125862, -28.625402 ], [ -52.5126195, -28.6254166 ], [ -52.5136405, -28.6257789 ], [ -52.5141135, -28.6247776 ], [ -52.5145168, -28.6238004 ], [ -52.515025, -28.6227642 ], [ -52.5154425, -28.6228976 ], [ -52.5155754, -28.6228538 ], [ -52.5163624, -28.6220425 ], [ -52.5171593, -28.6211998 ], [ -52.5169643, -28.6211595 ], [ -52.5158543, -28.6207885 ], [ -52.5147245, -28.6204399 ], [ -52.514666, -28.6204209 ], [ -52.5146221, -28.6204098 ], [ -52.5135338, -28.6200465 ], [ -52.5131887, -28.6210382 ], [ -52.5130075, -28.6214705 ], [ -52.5126944, -28.6220692 ], [ -52.512266, -28.6230396 ], [ -52.5119084, -28.624031099999989 ], [ -52.5114826, -28.6250186 ], [ -52.5110323, -28.6260005 ], [ -52.5102456, -28.6278093 ], [ -52.5101108, -28.6284954 ], [ -52.5097782, -28.6290793 ], [ -52.5090396, -28.631533 ], [ -52.5100606, -28.6306173 ] ] ] } },
{ "type": "Feature", "properties": { "name": "Floresta", "code_muni": 4309951.0, "name_muni": "Ibirapuitã" }, "geometry": { "type": "Polygon", "coordinates": [ [ [ -52.5101108, -28.6284954 ], [ -52.5102456, -28.6278093 ], [ -52.5110323, -28.6260005 ], [ -52.5114826, -28.6250186 ], [ -52.5119084, -28.624031099999989 ], [ -52.512266, -28.6230396 ], [ -52.5126944, -28.6220692 ], [ -52.5130075, -28.6214705 ], [ -52.5120738, -28.6204806 ], [ -52.5109947, -28.6192186 ], [ -52.5106586, -28.6188255 ], [ -52.5102705, -28.6185572 ], [ -52.5101705, -28.6185922 ], [ -52.5101652, -28.6186864 ], [ -52.5100471, -28.6189784 ], [ -52.5099291, -28.6191479 ], [ -52.5098916, -28.6192562 ], [ -52.5100042, -28.6194869 ], [ -52.5101383, -28.6196941 ], [ -52.5102295, -28.6199154 ], [ -52.5102778, -28.6201179 ], [ -52.5102778, -28.6204193 ], [ -52.510251, -28.6206124 ], [ -52.5102027, -28.6207018 ], [ -52.5098755, -28.6211586 ], [ -52.5097521, -28.622251099999989 ], [ -52.5096609, -28.62243 ], [ -52.5096448, -28.6225242 ], [ -52.5096394, -28.6226325 ], [ -52.5097092, -28.622769 ], [ -52.5097145, -28.6228632 ], [ -52.5096394, -28.623061 ], [ -52.5095536, -28.623141 ], [ -52.5094356, -28.6231363 ], [ -52.5093498, -28.6230704 ], [ -52.5092854, -28.6229762 ], [ -52.5091942, -28.6229103 ], [ -52.5089796, -28.6228585 ], [ -52.5085022, -28.6228632 ], [ -52.5082769, -28.6228868 ], [ -52.5079067, -28.6229574 ], [ -52.5076868, -28.623028 ], [ -52.507601, -28.623094 ], [ -52.507542, -28.6231787 ], [ -52.5075098, -28.623287 ], [ -52.5075259, -28.6233906 ], [ -52.507601, -28.623579 ], [ -52.5073971, -28.624177 ], [ -52.5074132, -28.6242759 ], [ -52.5077136, -28.6244124 ], [ -52.5078102, -28.6244783 ], [ -52.5078745, -28.6245584 ], [ -52.5078799, -28.624662 ], [ -52.5078585, -28.6247609 ], [ -52.5076761, -28.6250057 ], [ -52.5076171, -28.6251988 ], [ -52.5076171, -28.6253071 ], [ -52.5077619, -28.6255708 ], [ -52.5078585, -28.625632 ], [ -52.508175, -28.6257732 ], [ -52.5083091, -28.6258062 ], [ -52.5084164, -28.6258062 ], [ -52.5085129, -28.6258533 ], [ -52.5085666, -28.6259333 ], [ -52.5085451, -28.6260275 ], [ -52.50840560000001, -28.626197 ], [ -52.5083037, -28.6262724 ], [ -52.5079818, -28.6264136 ], [ -52.5078155, -28.6265784 ], [ -52.5078048, -28.6266773 ], [ -52.5078263, -28.6268751 ], [ -52.5079121, -28.6271953 ], [ -52.5101108, -28.6284954 ] ] ] } },
{ "type": "Feature", "properties": { "name": "Jardim", "code_muni": 4309951.0, "name_muni": "Ibirapuitã" }, "geometry": { "type": "Polygon", "coordinates": [ [ [ -52.5146221, -28.6204098 ], [ -52.514666, -28.6204209 ], [ -52.5155067, -28.6185594 ], [ -52.5159305, -28.6175211 ], [ -52.5163704, -28.6165086 ], [ -52.5165848, -28.6159389 ], [ -52.5165571, -28.6158951 ], [ -52.5150453, -28.6138912 ], [ -52.5148568, -28.6136203 ], [ -52.5147946, -28.6136523 ], [ -52.5147786, -28.6137842 ], [ -52.5145264, -28.6141374 ], [ -52.5144299, -28.6143116 ], [ -52.5143709, -28.6145047 ], [ -52.5145693, -28.614905 ], [ -52.5146444, -28.6149709 ], [ -52.5149234, -28.6153147 ], [ -52.5150521, -28.615503 ], [ -52.5150951, -28.6155925 ], [ -52.5150521, -28.6156867 ], [ -52.5148751, -28.6158186 ], [ -52.5146552, -28.6159363 ], [ -52.5143333, -28.6160352 ], [ -52.5142475, -28.6161105 ], [ -52.5138773, -28.6165861 ], [ -52.5137915, -28.6166568 ], [ -52.5136735, -28.616713299999986 ], [ -52.513416, -28.6167463 ], [ -52.5129868, -28.6167368 ], [ -52.5127454, -28.6167651 ], [ -52.5121607, -28.617415 ], [ -52.5119408, -28.6175327 ], [ -52.5116296, -28.6176645 ], [ -52.5109698, -28.617641 ], [ -52.5108518, -28.6175892 ], [ -52.5105889, -28.6175609 ], [ -52.5104495, -28.6175939 ], [ -52.5102885, -28.6177446 ], [ -52.5102671, -28.6178388 ], [ -52.5104334, -28.6180931 ], [ -52.5105138, -28.6181731 ], [ -52.5105192, -28.618272 ], [ -52.5104441, -28.6183709 ], [ -52.5103475, -28.6184227 ], [ -52.5102705, -28.6185572 ], [ -52.5106586, -28.6188255 ], [ -52.5109947, -28.6192186 ], [ -52.5120738, -28.6204806 ], [ -52.5130075, -28.6214705 ], [ -52.5131887, -28.6210382 ], [ -52.5135338, -28.6200465 ], [ -52.5146221, -28.6204098 ] ] ] } },
{ "type": "Feature", "properties": { "name": "Gramado", "code_muni": 4309951.0, "name_muni": "Ibirapuitã" }, "geometry": { "type": "Polygon", "coordinates": [ [ [ -52.5218046, -28.6266126 ], [ -52.5218636, -28.6265325 ], [ -52.5220245, -28.6263724 ], [ -52.5221104, -28.6260664 ], [ -52.5220782, -28.6259722 ], [ -52.5220192, -28.6258874 ], [ -52.5218743, -28.6257368 ], [ -52.5218582, -28.6256379 ], [ -52.5218582, -28.6253506 ], [ -52.5218797, -28.6252565 ], [ -52.5219602, -28.6250681 ], [ -52.5221265, -28.624941 ], [ -52.5222338, -28.6248986 ], [ -52.5223518, -28.6248845 ], [ -52.5226039, -28.6248845 ], [ -52.5227219, -28.6248986 ], [ -52.5232154, -28.624908 ], [ -52.5233281, -28.6248892 ], [ -52.5234407, -28.6248421 ], [ -52.5235534, -28.6248138 ], [ -52.5237358, -28.6247055 ], [ -52.5238431, -28.624682 ], [ -52.5239028, -28.6246273 ], [ -52.52398, -28.6245961 ], [ -52.5236476, -28.6241822 ], [ -52.5216356, -28.621856 ], [ -52.5199038, -28.6198265 ], [ -52.5198076, -28.6196966 ], [ -52.5196326, -28.6195821 ], [ -52.5194095, -28.6195939 ], [ -52.5181343, -28.6183783 ], [ -52.5178066, -28.6180496 ], [ -52.517349, -28.6172824 ], [ -52.5169607, -28.6165557 ], [ -52.5165977, -28.615965 ], [ -52.5165848, -28.6159389 ], [ -52.5163704, -28.6165086 ], [ -52.5159305, -28.6175211 ], [ -52.5155067, -28.6185594 ], [ -52.514666, -28.6204209 ], [ -52.5147245, -28.6204399 ], [ -52.5158543, -28.6207885 ], [ -52.5169643, -28.6211595 ], [ -52.5171593, -28.6211998 ], [ -52.5218046, -28.6266126 ] ] ] } },
{ "type": "Feature", "properties": { "name": "Bela Vista", "code_muni": 4309951.0, "name_muni": "Ibirapuitã" }, "geometry": { "type": "Polygon", "coordinates": [ [ [ -52.5180026, -28.6103417 ], [ -52.5178685, -28.6101863 ], [ -52.5177558, -28.6101627 ], [ -52.5176432, -28.6102098 ], [ -52.5172355, -28.6102475 ], [ -52.5171013, -28.6102757 ], [ -52.5170048, -28.6103511 ], [ -52.5169297, -28.610454699999988 ], [ -52.5169029, -28.6105489 ], [ -52.5168063, -28.6106855 ], [ -52.5166776, -28.6109821 ], [ -52.5166132, -28.6110716 ], [ -52.5162484, -28.6113118 ], [ -52.5158944, -28.6114013 ], [ -52.5157763, -28.6114719 ], [ -52.5154598, -28.6119523 ], [ -52.5153686, -28.6120229 ], [ -52.515256, -28.6122301 ], [ -52.5152292, -28.6123479 ], [ -52.515256, -28.6127764 ], [ -52.5152184, -28.6128706 ], [ -52.514977, -28.6133603 ], [ -52.5149328, -28.6134312 ], [ -52.5148568, -28.6136203 ], [ -52.5150453, -28.6138912 ], [ -52.5165571, -28.6158951 ], [ -52.5165848, -28.6159389 ], [ -52.5165977, -28.615965 ], [ -52.5169607, -28.6165557 ], [ -52.517349, -28.6172824 ], [ -52.5178066, -28.6180496 ], [ -52.5181343, -28.6183783 ], [ -52.5194095, -28.6195939 ], [ -52.5196326, -28.6195821 ], [ -52.5197355, -28.6194162 ], [ -52.5201467, -28.6187167 ], [ -52.5205926, -28.6179235 ], [ -52.5210858, -28.6171513 ], [ -52.5213626, -28.6167736 ], [ -52.5215557, -28.6165676 ], [ -52.5224994, -28.6154214 ], [ -52.5231425, -28.6145088 ], [ -52.5237212, -28.6134976 ], [ -52.5240234, -28.6128237 ], [ -52.5180026, -28.6103417 ] ] ] } },
{ "type": "Feature", "properties": { "name": "Horizonte", "code_muni": 4309951.0, "name_muni": "Ibirapuitã" }, "geometry": { "type": "Polygon", "coordinates": [ [ [ -52.5237212, -28.6134976 ], [ -52.5231425, -28.6145088 ], [ -52.5224994, -28.6154214 ], [ -52.5215557, -28.6165676 ], [ -52.5213626, -28.6167736 ], [ -52.5210858, -28.6171513 ], [ -52.5205926, -28.6179235 ], [ -52.5201467, -28.6187167 ], [ -52.5197355, -28.6194162 ], [ -52.5196326, -28.6195821 ], [ -52.5198076, -28.6196966 ], [ -52.5199038, -28.6198265 ], [ -52.5216356, -28.621856 ], [ -52.5236476, -28.6241822 ], [ -52.52398, -28.6245961 ], [ -52.5240931, -28.6244574 ], [ -52.5242561, -28.6242723 ], [ -52.5244171, -28.6241311 ], [ -52.5244654, -28.6240463 ], [ -52.5245619, -28.623858 ], [ -52.5245995, -28.6237355 ], [ -52.5246156, -28.623622499999989 ], [ -52.5245512, -28.6235331 ], [ -52.5244707, -28.6234577 ], [ -52.5243366, -28.6232882 ], [ -52.5242508, -28.6232223 ], [ -52.5242722, -28.623001 ], [ -52.5242025, -28.6229209 ], [ -52.5241542, -28.6228267 ], [ -52.5241918, -28.6227373 ], [ -52.5243044, -28.6226996 ], [ -52.5247604, -28.622666599999988 ], [ -52.5248677, -28.6226054 ], [ -52.5248945, -28.6225112 ], [ -52.5249267, -28.6220827 ], [ -52.5249213, -28.6216589 ], [ -52.524916, -28.6215648 ], [ -52.5248248, -28.6212445 ], [ -52.5248355, -28.6209714 ], [ -52.5247926, -28.6205523 ], [ -52.524814, -28.6204487 ], [ -52.5248033, -28.6203498 ], [ -52.5248087, -28.620251 ], [ -52.5248516, -28.6201662 ], [ -52.5250125, -28.6200155 ], [ -52.5250984, -28.619959 ], [ -52.5254149, -28.6196906 ], [ -52.5254846, -28.6196105 ], [ -52.5255382, -28.6195258 ], [ -52.5256241, -28.6194363 ], [ -52.5257099, -28.6193657 ], [ -52.5258279, -28.6193233 ], [ -52.5259406, -28.619295 ], [ -52.5261766, -28.6192762 ], [ -52.5261927, -28.6192056 ], [ -52.5261873, -28.6190973 ], [ -52.5261498, -28.6190031 ], [ -52.5261283, -28.6189089 ], [ -52.5261283, -28.6185981 ], [ -52.5261927, -28.6185133 ], [ -52.5262839, -28.6184615 ], [ -52.5266218, -28.618405 ], [ -52.5267023, -28.6183438 ], [ -52.5267774, -28.6182685 ], [ -52.5268311, -28.6181743 ], [ -52.5268472, -28.6180754 ], [ -52.5268793, -28.6179671 ], [ -52.5269813, -28.6177834 ], [ -52.5271905, -28.6175056 ], [ -52.5273675, -28.6173455 ], [ -52.5274265, -28.6172701 ], [ -52.5277376, -28.6171242 ], [ -52.5279361, -28.6170582 ], [ -52.5280273, -28.616997 ], [ -52.5284297, -28.616799199999988 ], [ -52.5286013, -28.6166391 ], [ -52.5287301, -28.6164837 ], [ -52.5287891, -28.6163943 ], [ -52.5289715, -28.6162624 ], [ -52.5293577, -28.616107 ], [ -52.5295937, -28.616097599999989 ], [ -52.5297118, -28.6160552 ], [ -52.5297869, -28.6159798 ], [ -52.5297976, -28.6158857 ], [ -52.5297171, -28.6158197 ], [ -52.5295991, -28.6158056 ], [ -52.5294382, -28.6156455 ], [ -52.529347, -28.6155701 ], [ -52.5291539, -28.6153159 ], [ -52.5289822, -28.6151793 ], [ -52.5288856, -28.6151134 ], [ -52.5287623, -28.615066299999988 ], [ -52.5286389, -28.6150286 ], [ -52.5285101, -28.6150098 ], [ -52.5284028, -28.6149721 ], [ -52.528081, -28.6147696 ], [ -52.5277537, -28.6144399 ], [ -52.5276625, -28.6143881 ], [ -52.527566, -28.6143081 ], [ -52.5273568, -28.6141856 ], [ -52.5240234, -28.6128237 ], [ -52.5237212, -28.6134976 ] ] ] } }
]
}
