{
"type": "FeatureCollection",
"name": "bairros_cerro_branco",
"crs": { "type": "name", "properties": { "name": "urn:ogc:def:crs:OGC:1.3:CRS84" } },
"features": [
{ "type": "Feature", "properties": { "name": "Centro", "code_muni": 4305132.0, "name_muni": "Cerro Branco" }, "geometry": { "type": "Polygon", "coordinates": [ [ [ -52.9473182, -29.6651073 ], [ -52.9444564, -29.6638448 ], [ -52.9389348, -29.6614723 ], [ -52.9378682, -29.6617059 ], [ -52.9378129, -29.6617581 ], [ -52.9377289, -29.661795600000012 ], [ -52.9375873, -29.6618457 ], [ -52.9364326, -29.6622087 ], [ -52.9360254, -29.6623022 ], [ -52.9359634, -29.6623164 ], [ -52.9359099, -29.6623318 ], [ -52.935794, -29.6623651 ], [ -52.9348781, -29.6626166 ], [ -52.9348289, -29.6626301 ], [ -52.9345011, -29.662722 ], [ -52.9340489, -29.6628642 ], [ -52.9336288, -29.6629963 ], [ -52.932330928319622, -29.663404345739728 ], [ -52.932379668620491, -29.663495005922833 ], [ -52.9325913, -29.6637367 ], [ -52.9329887, -29.6641693 ], [ -52.9331513, -29.6646885 ], [ -52.9332423, -29.6651027 ], [ -52.9332324, -29.6655248 ], [ -52.9330274, -29.6664502 ], [ -52.9328129, -29.6672006 ], [ -52.9325876, -29.6676667 ], [ -52.9322764, -29.6681934 ], [ -52.9318902, -29.6686829 ], [ -52.931762962665914, -29.668833758552562 ], [ -52.931651530999893, -29.669129590999891 ], [ -52.932464317167209, -29.670568396686967 ], [ -52.9329041, -29.6711113 ], [ -52.9332581, -29.6715168 ], [ -52.9336283, -29.6720528 ], [ -52.9338267, -29.6722766 ], [ -52.9340735, -29.6727333 ], [ -52.9341111, -29.673041 ], [ -52.934095, -29.6733905 ], [ -52.9345724, -29.6738893 ], [ -52.9346274, -29.6742469 ], [ -52.9345282, -29.6744008 ], [ -52.9394509, -29.671707 ], [ -52.9396189, -29.671615 ], [ -52.9396857, -29.671584 ], [ -52.9398925, -29.6714792 ], [ -52.9405279, -29.6711554 ], [ -52.9416926, -29.6705099 ], [ -52.9420167, -29.6703103 ], [ -52.9424783, -29.670053 ], [ -52.9439178, -29.6692493 ], [ -52.9442396, -29.6690779 ], [ -52.9444909, -29.6689211 ], [ -52.944771, -29.668757 ], [ -52.945714, -29.6687219 ], [ -52.9458913, -29.6687153 ], [ -52.9467913, -29.6686807 ], [ -52.9471925, -29.6686544 ], [ -52.9473228, -29.6686904 ], [ -52.9474857, -29.6687243 ], [ -52.9476641, -29.668773 ], [ -52.9479235, -29.6688139 ], [ -52.9482653, -29.6688099 ], [ -52.9485565, -29.6687762 ], [ -52.9487833, -29.6687287 ], [ -52.9490373, -29.6686664 ], [ -52.9492588, -29.6685872 ], [ -52.9494412, -29.6685758 ], [ -52.9497278, -29.6685702 ], [ -52.9500096, -29.664062 ], [ -52.9473182, -29.6651073 ] ] ] } },
{ "type": "Feature", "properties": { "name": "Arrozais", "code_muni": 4305132.0, "name_muni": "Cerro Branco" }, "geometry": { "type": "Polygon", "coordinates": [ [ [ -52.9404063, -29.65179220000001 ], [ -52.939363, -29.6518069 ], [ -52.9390662, -29.6517634 ], [ -52.938595, -29.6518896 ], [ -52.938465196784342, -29.651828717729977 ], [ -52.933835352354244, -29.651959269212472 ], [ -52.933800231697923, -29.652034574715223 ], [ -52.933035609426291, -29.65559150219439 ], [ -52.9330824, -29.655782 ], [ -52.9329094, -29.6565212 ], [ -52.9326734, -29.6574722 ], [ -52.9324642, -29.6578311 ], [ -52.9320028, -29.65826 ], [ -52.931946370223791, -29.658263347567559 ], [ -52.930485759, -29.659972067 ], [ -52.930780400035836, -29.660520159985637 ], [ -52.9309407, -29.6606933 ], [ -52.9312143, -29.6608798 ], [ -52.9314396, -29.6610849 ], [ -52.9316005, -29.6612574 ], [ -52.9316998, -29.6614555 ], [ -52.9317078, -29.6617025 ], [ -52.9317728, -29.6618437 ], [ -52.931984, -29.6623491 ], [ -52.9319894, -29.6626806 ], [ -52.93204323853066, -29.662869219778944 ], [ -52.932330928319622, -29.663404345739728 ], [ -52.9336288, -29.6629963 ], [ -52.9340489, -29.6628642 ], [ -52.9345011, -29.662722 ], [ -52.9348289, -29.6626301 ], [ -52.9348781, -29.6626166 ], [ -52.935794, -29.6623651 ], [ -52.9359099, -29.6623318 ], [ -52.9359634, -29.6623164 ], [ -52.9360254, -29.6623022 ], [ -52.9364326, -29.6622087 ], [ -52.9375873, -29.6618457 ], [ -52.9377289, -29.661795600000012 ], [ -52.9378129, -29.6617581 ], [ -52.9378682, -29.6617059 ], [ -52.9389348, -29.6614723 ], [ -52.9444564, -29.6638448 ], [ -52.9473182, -29.6651073 ], [ -52.9500096, -29.664062 ], [ -52.9531663, -29.6484509 ], [ -52.952664, -29.6486069 ], [ -52.9522488, -29.6487513 ], [ -52.9522219, -29.6487601 ], [ -52.9522031, -29.6487662 ], [ -52.9516596, -29.6489437 ], [ -52.9508411, -29.6491946 ], [ -52.9506405, -29.6492517 ], [ -52.950588, -29.6492667 ], [ -52.9502795, -29.6493492 ], [ -52.9496443, -29.6495826 ], [ -52.9494096, -29.6496688 ], [ -52.9486108, -29.6498922 ], [ -52.9482382, -29.6499836 ], [ -52.9475503, -29.6501525 ], [ -52.9474206, -29.6501843 ], [ -52.9439724, -29.650985 ], [ -52.9406387, -29.651748 ], [ -52.9404063, -29.65179220000001 ] ] ] } },
{ "type": "Feature", "properties": { "name": "Santo Antônio", "code_muni": 4305132.0, "name_muni": "Cerro Branco" }, "geometry": { "type": "Polygon", "coordinates": [ [ [ -52.9421174, -29.6379448 ], [ -52.9420155, -29.6383505 ], [ -52.9419726, -29.6392807 ], [ -52.9418304, -29.6399008 ], [ -52.9418358, -29.6406328 ], [ -52.9418574, -29.641113 ], [ -52.941825, -29.6413975 ], [ -52.9417446, -29.641779700000015 ], [ -52.9414983, -29.6420934 ], [ -52.9414656, -29.6424698 ], [ -52.9413852, -29.6428195 ], [ -52.941378068341471, -29.642928241259273 ], [ -52.942639930124415, -29.644491157579434 ], [ -52.9427692, -29.6445072 ], [ -52.943134, -29.6446145 ], [ -52.9433888, -29.644745 ], [ -52.9435122, -29.6448196 ], [ -52.9439038, -29.645062 ], [ -52.9440647, -29.6454769 ], [ -52.9443383, -29.6458686 ], [ -52.9445019, -29.6460178 ], [ -52.9445073, -29.6462509 ], [ -52.9444376, -29.6465633 ], [ -52.944366866674748, -29.646630003359089 ], [ -52.944396047999909, -29.646666143999898 ], [ -52.941053453476769, -29.649602750973198 ], [ -52.9410258, -29.6496496 ], [ -52.940881, -29.6498267 ], [ -52.94073480513719, -29.649882683752978 ], [ -52.940443944399192, -29.650138203144024 ], [ -52.9403016, -29.6503629 ], [ -52.9398885, -29.6508897 ], [ -52.9397649, -29.6512179 ], [ -52.9394551, -29.6515532 ], [ -52.9390662, -29.6517634 ], [ -52.939363, -29.6518069 ], [ -52.9404063, -29.65179220000001 ], [ -52.9406387, -29.651748 ], [ -52.9439724, -29.650985 ], [ -52.9474206, -29.6501843 ], [ -52.9475503, -29.6501525 ], [ -52.9482382, -29.6499836 ], [ -52.9486108, -29.6498922 ], [ -52.9494096, -29.6496688 ], [ -52.9496443, -29.6495826 ], [ -52.9502795, -29.6493492 ], [ -52.950588, -29.6492667 ], [ -52.9506405, -29.6492517 ], [ -52.9508411, -29.6491946 ], [ -52.9516596, -29.6489437 ], [ -52.9522031, -29.6487662 ], [ -52.9522219, -29.6487601 ], [ -52.9522488, -29.6487513 ], [ -52.952664, -29.6486069 ], [ -52.9531663, -29.6484509 ], [ -52.9534619, -29.648403 ], [ -52.9535965, -29.6483601 ], [ -52.9537088, -29.6483316 ], [ -52.9540824, -29.6482513 ], [ -52.9547256, -29.6481115 ], [ -52.9552439, -29.647961399999989 ], [ -52.9556099, -29.6478165 ], [ -52.955715, -29.6477845 ], [ -52.9563098, -29.6476034 ], [ -52.9568951, -29.647452199999989 ], [ -52.9577057, -29.6472357 ], [ -52.9577366, -29.6471659 ], [ -52.9577536, -29.6471274 ], [ -52.9578641, -29.6468666 ], [ -52.9580081, -29.6464139 ], [ -52.9581522, -29.646048699999987 ], [ -52.9581978, -29.6459257 ], [ -52.9582222, -29.6458159 ], [ -52.9582386, -29.645742 ], [ -52.9582691, -29.6456209 ], [ -52.9582938, -29.6455271 ], [ -52.9583369, -29.645395 ], [ -52.9585142, -29.6448513 ], [ -52.9585987, -29.6445924 ], [ -52.958644, -29.6444231 ], [ -52.9586947, -29.6442336 ], [ -52.9587744, -29.6440316 ], [ -52.9588099, -29.6439415 ], [ -52.9588761, -29.6437009 ], [ -52.9589396, -29.6434699 ], [ -52.9589756, -29.6432738 ], [ -52.9589835, -29.6432487 ], [ -52.9590572, -29.6430151 ], [ -52.9591329, -29.6428216 ], [ -52.9592402, -29.6425473 ], [ -52.9592637, -29.6424872 ], [ -52.95938850000001, -29.6421555 ], [ -52.9594965, -29.6418383 ], [ -52.9596225, -29.641448 ], [ -52.95966940000001, -29.6413027 ], [ -52.9597317, -29.641109799999985 ], [ -52.959755800000011, -29.641035 ], [ -52.959931, -29.6405217 ], [ -52.9600006, -29.6403027 ], [ -52.9599892, -29.6401652 ], [ -52.9599493, -29.640049800000011 ], [ -52.959851, -29.639776 ], [ -52.9597236, -29.6395777 ], [ -52.9594286, -29.6390279 ], [ -52.95935, -29.6388795 ], [ -52.9592336, -29.638744 ], [ -52.9590663, -29.638583 ], [ -52.9589331, -29.6384494 ], [ -52.9588032, -29.6383026 ], [ -52.958586, -29.6379869 ], [ -52.9584492, -29.6378151 ], [ -52.9582692, -29.6376099 ], [ -52.9580887, -29.6374133 ], [ -52.9579726, -29.6372342 ], [ -52.9579018, -29.637086 ], [ -52.9425761, -29.6375718 ], [ -52.9421174, -29.6379448 ] ] ] } },
{ "type": "Feature", "properties": { "name": "Rio Branco", "code_muni": 4305132.0, "name_muni": "Cerro Branco" }, "geometry": { "type": "Polygon", "coordinates": [ [ [ -52.9579018, -29.637086 ], [ -52.9577127, -29.6366777 ], [ -52.9573623, -29.6357206 ], [ -52.9570453, -29.635016 ], [ -52.956755, -29.6341325 ], [ -52.9562386, -29.6341193 ], [ -52.9555841, -29.6341147 ], [ -52.9552331, -29.6340821 ], [ -52.9546643, -29.6340813 ], [ -52.9541817, -29.634264499999986 ], [ -52.9538515, -29.6345424 ], [ -52.953705, -29.6346987 ], [ -52.9532853, -29.6345028 ], [ -52.9525618, -29.6340819 ], [ -52.9520507, -29.633723399999987 ], [ -52.9519696, -29.6336871 ], [ -52.9517056, -29.6335691 ], [ -52.9515496, -29.6334988 ], [ -52.9514773, -29.6334662 ], [ -52.9510592, -29.6332777 ], [ -52.9502975, -29.6327461 ], [ -52.9501239, -29.6326038 ], [ -52.9500199, -29.6325488 ], [ -52.9497376, -29.6324611 ], [ -52.949585, -29.6323382 ], [ -52.949541425092335, -29.632350528979543 ], [ -52.949356421999894, -29.633589636999901 ], [ -52.94844462007466, -29.633963267850678 ], [ -52.9480381, -29.6347451 ], [ -52.9478743, -29.6349398 ], [ -52.9476265, -29.6350803 ], [ -52.9470474, -29.6351799 ], [ -52.9464331, -29.635345400000016 ], [ -52.9458699, -29.63550170000001 ], [ -52.9451483, -29.635711400000012 ], [ -52.9447567, -29.635814 ], [ -52.9441935, -29.6360262 ], [ -52.9436275, -29.636665 ], [ -52.9432949, -29.6369331 ], [ -52.9425761, -29.6375718 ], [ -52.9579018, -29.637086 ] ] ] } }
]
}
