{
"type": "FeatureCollection",
"name": "bairros_engenho_velho",
"crs": { "type": "name", "properties": { "name": "urn:ogc:def:crs:OGC:1.3:CRS84" } },
"features": [
{ "type": "Feature", "properties": { "code_muni": 4306924.0, "name_muni": "Engenho Velho", "code_state": 43.0, "abbrev_state": "RS", "name_state": "Rio Grande do Sul", "code_region": 4.0, "name_region": "Sul", "year": 2022.0 }, "geometry": { "type": "Polygon", "coordinates": [ [ [ -52.942304803999903, -27.721487539 ], [ -52.946055776, -27.718657606 ], [ -52.949992997, -27.718594585999899 ], [ -52.947708817, -27.714737876999898 ], [ -52.955602153, -27.705358471 ], [ -52.957726213999898, -27.69737178 ], [ -52.955590620999892, -27.688890102999906 ], [ -52.957621832, -27.685946681 ], [ -52.96474904, -27.681816039 ], [ -52.966451026999891, -27.677084314 ], [ -52.963393461, -27.677437746 ], [ -52.962271691999895, -27.676002772999905 ], [ -52.962961067, -27.674169895 ], [ -52.957183858, -27.674209557 ], [ -52.951685445, -27.682631871999895 ], [ -52.951951311, -27.687700427 ], [ -52.949137440999891, -27.687871306 ], [ -52.946534626999892, -27.683902074999899 ], [ -52.948202559, -27.680906401999895 ], [ -52.947387293, -27.679133463 ], [ -52.94461957, -27.682540334 ], [ -52.940687419, -27.682211659 ], [ -52.937146345, -27.680128151 ], [ -52.933316332999894, -27.683904707999901 ], [ -52.931203229999902, -27.681764362 ], [ -52.924882604999894, -27.679696072999899 ], [ -52.916479294999903, -27.672468919 ], [ -52.906080061, -27.672086755 ], [ -52.9031216979999, -27.669300479999897 ], [ -52.899584952999902, -27.660824053999903 ], [ -52.907408769, -27.65885572 ], [ -52.90800204100001, -27.649944574999893 ], [ -52.91421806999989, -27.64526432 ], [ -52.916269617999895, -27.64676198 ], [ -52.919548334999902, -27.646417610999901 ], [ -52.921473536999891, -27.6432419829999 ], [ -52.939105883, -27.636031239 ], [ -52.919913505, -27.613559597999902 ], [ -52.918794373, -27.609087976 ], [ -52.917069135, -27.609396656999891 ], [ -52.916377567, -27.607198605 ], [ -52.914682225, -27.607456961 ], [ -52.912068787, -27.609177991 ], [ -52.911360578, -27.6115428479999 ], [ -52.905155234999903, -27.611461554 ], [ -52.90546727799989, -27.612988942999891 ], [ -52.903385073, -27.6128146 ], [ -52.902588748, -27.616070206 ], [ -52.89908573, -27.619173520999905 ], [ -52.891782705, -27.619596327999897 ], [ -52.890848667999897, -27.62320627 ], [ -52.89353443999989, -27.626854138999899 ], [ -52.888130282, -27.629121777 ], [ -52.888017567, -27.632153566999904 ], [ -52.883613757, -27.634761087 ], [ -52.884658315, -27.636575028 ], [ -52.88307494, -27.642119658 ], [ -52.884740872, -27.645421106999908 ], [ -52.87885892, -27.649514404999898 ], [ -52.876399352, -27.653377157 ], [ -52.875445065, -27.660171961999904 ], [ -52.870366235999896, -27.664608845 ], [ -52.868644759999903, -27.671538991 ], [ -52.881969547, -27.672684779999901 ], [ -52.898686912999899, -27.703269915 ], [ -52.894998213999898, -27.700554350999894 ], [ -52.892791115, -27.701340683 ], [ -52.888270325, -27.700415693 ], [ -52.887594894, -27.698132837999903 ], [ -52.885203324, -27.698214667999899 ], [ -52.88387650899989, -27.696485083 ], [ -52.87650883, -27.696177384 ], [ -52.856188952, -27.6982145069999 ], [ -52.854685256, -27.70298249 ], [ -52.862009294, -27.713201914 ], [ -52.871453965999898, -27.713493065 ], [ -52.875242957, -27.717389376 ], [ -52.883500737, -27.717163871 ], [ -52.895571683, -27.721130697 ], [ -52.892397388999896, -27.723556005 ], [ -52.888709445, -27.730415561 ], [ -52.8836698389999, -27.732618134999896 ], [ -52.883561665999899, -27.736763354999898 ], [ -52.894779114, -27.75083734 ], [ -52.906280548, -27.7458126719999 ], [ -52.90901040499989, -27.741505851999893 ], [ -52.914148369, -27.737249469999899 ], [ -52.92557383, -27.735801115 ], [ -52.926412387, -27.730751965 ], [ -52.928140567999897, -27.730335859 ], [ -52.928935612, -27.728060964999894 ], [ -52.935164911999891, -27.726355833 ], [ -52.936484503, -27.723514662 ], [ -52.942304803999903, -27.721487539 ] ] ] } }
]
}
