{
"type": "FeatureCollection",
"name": "bairros_protasio_alves",
"crs": { "type": "name", "properties": { "name": "urn:ogc:def:crs:OGC:1.3:CRS84" } },
"features": [
{ "type": "Feature", "properties": { "code_muni": 4315172.0, "name_muni": "Protásio Alves", "code_state": 43.0, "abbrev_state": "RS", "name_state": "Rio Grande do Sul", "code_region": 4.0, "name_region": "Sul", "year": 2022.0 }, "geometry": { "type": "Polygon", "coordinates": [ [ [ -51.5205037859999, -28.78462387 ], [ -51.520224927999898, -28.781878261 ], [ -51.516766527999891, -28.781776681999894 ], [ -51.513737122999899, -28.7767606039999 ], [ -51.509859166999902, -28.77570765 ], [ -51.508970824999892, -28.773921387 ], [ -51.516356195, -28.771308136 ], [ -51.518683325, -28.775495111999909 ], [ -51.520973301, -28.77560113 ], [ -51.521658201, -28.770425235999905 ], [ -51.526003428, -28.768318260999894 ], [ -51.52156196499989, -28.765265556 ], [ -51.521309603, -28.763723932999902 ], [ -51.523089566, -28.763227673999904 ], [ -51.527824833999901, -28.765962825 ], [ -51.52775758, -28.762786194999901 ], [ -51.531082555, -28.755459876 ], [ -51.535652039999903, -28.750714527 ], [ -51.533443553, -28.748845549999899 ], [ -51.528795199999898, -28.751671976999909 ], [ -51.526298055, -28.747840794 ], [ -51.526654602, -28.745649420999893 ], [ -51.532755463999898, -28.744299966 ], [ -51.537071733999895, -28.738813675999896 ], [ -51.540340848, -28.744776213 ], [ -51.544305359, -28.745640592 ], [ -51.546648241, -28.744808959999901 ], [ -51.545929019, -28.733345886999899 ], [ -51.541448805, -28.730695093 ], [ -51.54144569399989, -28.728978369999904 ], [ -51.551528923, -28.728299202999899 ], [ -51.556033127, -28.725815553 ], [ -51.557258584999893, -28.729075434 ], [ -51.560151761, -28.7278950359999 ], [ -51.560835314, -28.724600688 ], [ -51.562842089999897, -28.723138474999899 ], [ -51.562168399, -28.722012601 ], [ -51.552677925999902, -28.723964183 ], [ -51.549484004, -28.722757473999902 ], [ -51.548948842999891, -28.72115014 ], [ -51.564198711999893, -28.714877823999892 ], [ -51.56480987, -28.710105762 ], [ -51.560464378999903, -28.709401762 ], [ -51.557618641, -28.710724507999899 ], [ -51.556251840999899, -28.7075874 ], [ -51.561461167999894, -28.70250978 ], [ -51.56428871, -28.70642806099989 ], [ -51.566745179, -28.706209207 ], [ -51.574110592999901, -28.697919585 ], [ -51.56366227, -28.695585364999896 ], [ -51.556077673999894, -28.698214972 ], [ -51.554848799, -28.696638042 ], [ -51.555384058999891, -28.693337691 ], [ -51.561689948, -28.692875716999893 ], [ -51.559024308999902, -28.691199712999904 ], [ -51.559146905, -28.686828435999892 ], [ -51.560486851, -28.685953761999905 ], [ -51.557858935, -28.684605680999905 ], [ -51.556328360999892, -28.680688942999986 ], [ -51.550495064, -28.680787481 ], [ -51.547791101, -28.678288924999901 ], [ -51.546728269, -28.679461306999901 ], [ -51.544228502, -28.678289067 ], [ -51.542828783999902, -28.673315468999899 ], [ -51.538150394, -28.671874477 ], [ -51.532282164, -28.667522011999893 ], [ -51.529174558, -28.66750102 ], [ -51.522964601, -28.670482890999896 ], [ -51.511303258999902, -28.666880518 ], [ -51.509374768, -28.668161730000012 ], [ -51.50395832000001, -28.668329758 ], [ -51.497764822, -28.667112749999905 ], [ -51.494198657, -28.664813153999905 ], [ -51.493850533999897, -28.660100929999896 ], [ -51.489516244, -28.653140941999904 ], [ -51.484346132, -28.653898893 ], [ -51.47980401199991, -28.650920004999893 ], [ -51.479747307, -28.649088605 ], [ -51.473520189999903, -28.649311293000011 ], [ -51.472099226999902, -28.650230318 ], [ -51.473066165, -28.652560804 ], [ -51.469336461999902, -28.654858933999904 ], [ -51.467511026999901, -28.648910784 ], [ -51.465726928, -28.650125712 ], [ -51.465069758, -28.653737537 ], [ -51.462032273, -28.65378672 ], [ -51.460804923999902, -28.65721356800001 ], [ -51.462291944, -28.658825036999904 ], [ -51.458818741, -28.661843781999892 ], [ -51.450948298, -28.661774847999901 ], [ -51.447787475, -28.663596939999902 ], [ -51.447563042999903, -28.66594184 ], [ -51.444454118, -28.667454967 ], [ -51.446449703, -28.670988227999899 ], [ -51.445090632999893, -28.673660814 ], [ -51.445485900453001, -28.677438692682898 ], [ -51.452048391766503, -28.6811096269928 ], [ -51.4518789619218, -28.683167753775901 ], [ -51.4478799299999, -28.685037807999908 ], [ -51.436412692013093, -28.687145170902596 ], [ -51.434389960289991, -28.6887343817193 ], [ -51.43609660588379, -28.696395080268999 ], [ -51.431989681245796, -28.708480984628608 ], [ -51.433518485, -28.710692905 ], [ -51.439566968178092, -28.713419830398507 ], [ -51.440313282649996, -28.715970469858295 ], [ -51.431823955532202, -28.733851286587893 ], [ -51.425172290608394, -28.739124601969095 ], [ -51.423570595490091, -28.742078306119303 ], [ -51.424668116772303, -28.744326029705192 ], [ -51.431863177, -28.74504446 ], [ -51.435159734276297, -28.748060620248602 ], [ -51.435726055257895, -28.752345343334305 ], [ -51.43091026, -28.767211167 ], [ -51.431178613018297, -28.771092378735492 ], [ -51.454764345372695, -28.785768433321099 ], [ -51.460214636060094, -28.790742399772103 ], [ -51.459385144, -28.79303183 ], [ -51.457180401282102, -28.793895304035296 ], [ -51.446627322586494, -28.794105204980706 ], [ -51.436064091812895, -28.792262192367385 ], [ -51.432920379293101, -28.797674344190401 ], [ -51.434012412968897, -28.803368284602502 ], [ -51.438037023510695, -28.805896973636692 ], [ -51.449393223822398, -28.8085127496051 ], [ -51.452509107, -28.808087545 ], [ -51.462079112, -28.801847123999899 ], [ -51.464693836989902, -28.801328239939593 ], [ -51.466100289941593, -28.802441077713201 ], [ -51.464870693, -28.80792871300001 ], [ -51.456954720877, -28.816944217557705 ], [ -51.465203534, -28.827070365999898 ], [ -51.465529234, -28.829833198 ], [ -51.457909876425397, -28.835467347926297 ], [ -51.448566629, -28.837263130999897 ], [ -51.444384425, -28.839761054 ], [ -51.441916394, -28.844609039 ], [ -51.44561612199989, -28.849744277 ], [ -51.462620406349892, -28.8561581557823 ], [ -51.464920102999891, -28.851141116 ], [ -51.469763082, -28.848671931999895 ], [ -51.47242090799989, -28.848068622 ], [ -51.476482387, -28.849712993 ], [ -51.478969107999902, -28.849010208 ], [ -51.483081859, -28.84206026 ], [ -51.482841763, -28.835249854 ], [ -51.485443911999901, -28.832962531 ], [ -51.486465075999895, -28.828835533999897 ], [ -51.489262139999909, -28.827766879 ], [ -51.493729706, -28.828875083 ], [ -51.493190739999896, -28.824175274000012 ], [ -51.501760552, -28.816617704 ], [ -51.501963382, -28.812925580999892 ], [ -51.497511548, -28.809129203999898 ], [ -51.500607846, -28.802331422 ], [ -51.495845425, -28.799302672 ], [ -51.495215506, -28.797096103999898 ], [ -51.499214149, -28.795198453999898 ], [ -51.509417629, -28.79477782 ], [ -51.506720433999902, -28.787229916999898 ], [ -51.503931674999897, -28.78521669 ], [ -51.512917781999903, -28.785014367 ], [ -51.518513113, -28.788756460999895 ], [ -51.5205037859999, -28.78462387 ] ] ] } }
]
}
