{
"type": "FeatureCollection",
"name": "bairros_gentil",
"crs": { "type": "name", "properties": { "name": "urn:ogc:def:crs:OGC:1.3:CRS84" } },
"features": [
{ "type": "Feature", "properties": { "code_muni": 4308854.0, "name_muni": "Gentil", "code_state": 43.0, "abbrev_state": "RS", "name_state": "Rio Grande do Sul", "code_region": 4.0, "name_region": "Sul", "year": 2022.0 }, "geometry": { "type": "Polygon", "coordinates": [ [ [ -52.105031655999902, -28.428168207999899 ], [ -52.104299402, -28.421369264 ], [ -52.106605094, -28.419547636999908 ], [ -52.105534, -28.416756262 ], [ -52.109208522, -28.411592601999907 ], [ -52.108164465, -28.408658196 ], [ -52.109172894, -28.400899281 ], [ -52.110732277, -28.398947232999902 ], [ -52.11354656799989, -28.398970882 ], [ -52.115401079, -28.395790666 ], [ -52.1059134939999, -28.394740869 ], [ -52.108137586999902, -28.391789597 ], [ -52.10767920099989, -28.388985089999903 ], [ -52.108999599, -28.389219904 ], [ -52.108277968, -28.386470378999906 ], [ -52.104742057, -28.388596999 ], [ -52.098925204, -28.387064616 ], [ -52.099102017999897, -28.38590525 ], [ -52.096888239, -28.384559185999894 ], [ -52.097656359, -28.379372331999893 ], [ -52.0945779689999, -28.377826544999905 ], [ -52.096309767, -28.373528141 ], [ -52.094402437, -28.371835427 ], [ -52.098119326, -28.371210780999899 ], [ -52.09595070599989, -28.368381476 ], [ -52.097695203999891, -28.367475812 ], [ -52.095707148, -28.363909346999904 ], [ -52.09683139, -28.362597228 ], [ -52.098174054, -28.363337590999901 ], [ -52.102756751999898, -28.36145299 ], [ -52.099109931, -28.358338869 ], [ -52.098614905, -28.356349270999896 ], [ -52.099893865, -28.354534132 ], [ -52.098691553, -28.354166485 ], [ -52.101151192, -28.3531868389999 ], [ -52.101695723, -28.349127983999896 ], [ -52.099170156, -28.347515142 ], [ -52.0987893779999, -28.350565973999903 ], [ -52.093453377999907, -28.35107153 ], [ -52.093808711999891, -28.349625102999905 ], [ -52.090904793999989, -28.3486968899999 ], [ -52.08724281699989, -28.349202165 ], [ -52.086277741999893, -28.347840979 ], [ -52.087741257999902, -28.347117309999899 ], [ -52.085832658999891, -28.345072676 ], [ -52.083435892999894, -28.346245968999906 ], [ -52.082086104, -28.341718591 ], [ -52.07925864, -28.343984444999897 ], [ -52.07753371, -28.34257101 ], [ -52.077065553999894, -28.339624659 ], [ -52.073547764999901, -28.340688165999904 ], [ -52.068473008, -28.339064927 ], [ -52.070645911, -28.336507707999903 ], [ -52.071959675999892, -28.336900621 ], [ -52.071254175, -28.333890464 ], [ -52.06635059, -28.3309444779999 ], [ -52.068663356999899, -28.329293456 ], [ -52.066592495999899, -28.327758516 ], [ -52.067090107999903, -28.32664213499989 ], [ -52.062540780999903, -28.326660666 ], [ -52.064350079, -28.325256344 ], [ -52.062216976999892, -28.321681043 ], [ -52.064638379, -28.314690065 ], [ -52.069286593, -28.313337475 ], [ -52.068779263, -28.311006695999897 ], [ -52.0719231859999, -28.310316079 ], [ -52.073562985, -28.305198130999898 ], [ -52.05058179, -28.302896921 ], [ -52.04068203500001, -28.305759327 ], [ -52.029710415999901, -28.306941279999904 ], [ -52.01990784399991, -28.302646793 ], [ -52.011920480999898, -28.306281472 ], [ -52.005609019, -28.317461152 ], [ -51.995134764999889, -28.323434285 ], [ -51.988680523, -28.325578162999896 ], [ -51.980206903, -28.325549577999897 ], [ -51.963790095, -28.331210267 ], [ -51.9698259849999, -28.335452125 ], [ -51.972041243, -28.341311145 ], [ -51.976131988, -28.344193363999988 ], [ -51.968119666, -28.366301576 ], [ -51.9710401849999, -28.378336327999904 ], [ -51.967698250999902, -28.381983878 ], [ -51.971765542, -28.383275679 ], [ -51.972996488, -28.386745961 ], [ -51.975504163, -28.386456696 ], [ -51.975195761999892, -28.388830707 ], [ -51.972755448, -28.389706367 ], [ -51.973609987, -28.395961848999903 ], [ -51.976365377, -28.397309790999902 ], [ -51.9761403259999, -28.399216897 ], [ -51.981158942, -28.405169702 ], [ -51.980583158999892, -28.407114013999902 ], [ -51.977647651, -28.408300814 ], [ -51.981096013999903, -28.410263298 ], [ -51.98498669899989, -28.419598021 ], [ -51.984603668, -28.42354404 ], [ -51.988396972, -28.4274327329999 ], [ -51.986188371, -28.428698983999894 ], [ -51.987300789999892, -28.432383881 ], [ -51.9849073029999, -28.434403252 ], [ -51.98612467, -28.43826109 ], [ -51.99105007, -28.439433387999898 ], [ -51.998224361, -28.4377548749999 ], [ -52.007505667, -28.441466563999899 ], [ -52.009211955, -28.444343676999903 ], [ -52.012549064, -28.445794156 ], [ -52.014432783, -28.448530381 ], [ -52.016166931, -28.448508756999985 ], [ -52.017851983, -28.45122851299989 ], [ -52.022144774, -28.449682661999894 ], [ -52.027192324999902, -28.449988622 ], [ -52.031719691, -28.453627943 ], [ -52.044257726, -28.457400501999892 ], [ -52.044619478, -28.460991223999901 ], [ -52.047740045999909, -28.461997574999899 ], [ -52.049523055999906, -28.464386432 ], [ -52.05128567, -28.463939926 ], [ -52.053486504, -28.465435403 ], [ -52.056391135999895, -28.46301891 ], [ -52.058414554, -28.464893329999892 ], [ -52.058092366, -28.468439090999897 ], [ -52.062244478, -28.470634270999899 ], [ -52.062452086, -28.474087462999897 ], [ -52.069640428, -28.472543446 ], [ -52.076377587, -28.466015277999901 ], [ -52.075240488, -28.469647897999891 ], [ -52.075954812, -28.476270755 ], [ -52.0833027319999, -28.475274899999899 ], [ -52.084374388, -28.476332737999904 ], [ -52.08747369, -28.473689196999906 ], [ -52.0874635609999, -28.469262794 ], [ -52.090079235, -28.463456175 ], [ -52.08611663499989, -28.45883172 ], [ -52.090646894, -28.4499986 ], [ -52.10133071699989, -28.43882386 ], [ -52.109562502, -28.436073515 ], [ -52.105031655999902, -28.428168207999899 ] ] ] } }
]
}
