{
"type": "FeatureCollection",
"name": "bairros_floriano_peixoto",
"crs": { "type": "name", "properties": { "name": "urn:ogc:def:crs:OGC:1.3:CRS84" } },
"features": [
{ "type": "Feature", "properties": { "code_muni": 4308250.0, "name_muni": "Floriano Peixoto", "code_state": 43.0, "abbrev_state": "RS", "name_state": "Rio Grande do Sul", "code_region": 4.0, "name_region": "Sul", "year": 2022.0 }, "geometry": { "type": "Polygon", "coordinates": [ [ [ -52.004575594, -27.829403361999898 ], [ -52.004047094, -27.827426693999897 ], [ -51.998668731, -27.825159442 ], [ -51.99648245, -27.817792571 ], [ -51.990558967, -27.819867784999904 ], [ -51.983098979, -27.825501324 ], [ -51.977891607999901, -27.818747626999901 ], [ -51.973717328, -27.817846592 ], [ -51.963262487999891, -27.822587309 ], [ -51.960887922, -27.827421987 ], [ -51.955895161999898, -27.830608519999906 ], [ -51.949951095999893, -27.826784393 ], [ -51.948028805, -27.827317042999901 ], [ -51.946439127, -27.819828577 ], [ -51.944484339, -27.819953202 ], [ -51.941685389, -27.825575199 ], [ -51.940360402999893, -27.834430299 ], [ -51.933729168, -27.835894174 ], [ -51.919898597, -27.844933356 ], [ -51.9247539469999, -27.851584867999989 ], [ -51.923866752, -27.854782357 ], [ -51.926874725999895, -27.853050854999903 ], [ -51.929949248999897, -27.844574021 ], [ -51.932980594, -27.841233051 ], [ -51.935227009999899, -27.8411075829999 ], [ -51.937346506, -27.846665275 ], [ -51.935304365, -27.852249285 ], [ -51.929567807999902, -27.855823765 ], [ -51.927218195, -27.859068694 ], [ -51.935606317, -27.865847145 ], [ -51.937280847999894, -27.869670229999901 ], [ -51.935489238999899, -27.870569998999898 ], [ -51.919479048, -27.869692084 ], [ -51.923940237, -27.8818281819999 ], [ -51.929664605, -27.884923963999899 ], [ -51.93710380200001, -27.884070284 ], [ -51.969326585, -27.884852491999901 ], [ -51.970140643, -27.887236672 ], [ -51.977777467999893, -27.884940585 ], [ -51.989378638999902, -27.886204941 ], [ -51.9939181949999, -27.884936970999902 ], [ -52.0060687, -27.89028294 ], [ -52.017553859, -27.881254543999901 ], [ -52.029943769999896, -27.883852338999898 ], [ -52.044367715, -27.884166870999891 ], [ -52.045174959, -27.886611377999895 ], [ -52.050454111, -27.886925647999895 ], [ -52.055000209999896, -27.885658851 ], [ -52.056578465, -27.88238712 ], [ -52.060758130999901, -27.884876262 ], [ -52.061573474999904, -27.892870172 ], [ -52.059565186, -27.895097368999892 ], [ -52.049793851999901, -27.895750167 ], [ -52.049233012999899, -27.899927463 ], [ -52.050910518, -27.906339101999901 ], [ -52.058574425, -27.905438170999986 ], [ -52.060515503, -27.897752569 ], [ -52.065981651999891, -27.89481352 ], [ -52.071671040999895, -27.904455793 ], [ -52.067800808999898, -27.912301245 ], [ -52.070789117999894, -27.913940653999905 ], [ -52.083807958, -27.905675357 ], [ -52.085843772, -27.907550194 ], [ -52.091512419, -27.905476641 ], [ -52.09255138, -27.906428267 ], [ -52.09424353, -27.905854129 ], [ -52.10130552, -27.908757659999896 ], [ -52.107347951, -27.906778478 ], [ -52.119812316, -27.910735078 ], [ -52.134873682, -27.897606967999899 ], [ -52.141766704, -27.894591356 ], [ -52.14862274, -27.894382273 ], [ -52.149837223, -27.893100078 ], [ -52.14845135, -27.888722233999896 ], [ -52.152031179999895, -27.881006167 ], [ -52.149434753, -27.871063582 ], [ -52.145699568999895, -27.869009228 ], [ -52.143806512, -27.870099853999903 ], [ -52.144337441999895, -27.864704195999899 ], [ -52.142322264, -27.862739774 ], [ -52.137697132, -27.864276552 ], [ -52.133910522999898, -27.863761816 ], [ -52.134015806, -27.87347338 ], [ -52.131272571, -27.874302202 ], [ -52.129303598, -27.866722876 ], [ -52.130179449, -27.8625789 ], [ -52.131901663, -27.861152309 ], [ -52.1320149169999, -27.857585653999895 ], [ -52.146237686999903, -27.8456730139999 ], [ -52.090984294, -27.794408185999902 ], [ -52.087686108999897, -27.798313976 ], [ -52.084435559, -27.799753790999898 ], [ -52.085097534999903, -27.808351617 ], [ -52.082675395, -27.818531592999889 ], [ -52.078286237, -27.820272809999896 ], [ -52.074704738, -27.818675336 ], [ -52.0738946, -27.815756341999901 ], [ -52.075867952, -27.814036184 ], [ -52.074732089, -27.811598548999896 ], [ -52.073391423, -27.810962399999909 ], [ -52.072511990999899, -27.812385306 ], [ -52.070511865, -27.812172255 ], [ -52.066595149, -27.820648793 ], [ -52.060745857, -27.820851681 ], [ -52.05862639, -27.823687632 ], [ -52.060543259, -27.825986552 ], [ -52.070033208, -27.824281525999901 ], [ -52.06884853, -27.826686132 ], [ -52.06296073, -27.830711568 ], [ -52.058541358, -27.830559944 ], [ -52.051660972, -27.825796899 ], [ -52.0551764739999, -27.819466185 ], [ -52.054588604999893, -27.815842449999906 ], [ -52.045705090999903, -27.8236761389999 ], [ -52.043011855, -27.819443415 ], [ -52.039499572999894, -27.824537286999899 ], [ -52.034023025, -27.82325943 ], [ -52.027582265, -27.825742159 ], [ -52.025374799, -27.825108445999906 ], [ -52.030030494999899, -27.819944915999901 ], [ -52.028162280999894, -27.817855015 ], [ -52.024004393, -27.817242662999895 ], [ -52.021133473, -27.819917403 ], [ -52.016479821, -27.819031369 ], [ -52.015057638, -27.824940927999897 ], [ -52.011809203, -27.825199856 ], [ -52.007299609, -27.822823722 ], [ -52.006227322, -27.8283608469999 ], [ -52.004575594, -27.829403361999898 ] ] ] } }
]
}
