{
"type": "FeatureCollection",
"name": "bairros_forquetinha",
"crs": { "type": "name", "properties": { "name": "urn:ogc:def:crs:OGC:1.3:CRS84" } },
"features": [
{ "type": "Feature", "properties": { "name": "Imigrante", "code_muni": 4308433.0, "name_muni": "Forquetinha" }, "geometry": { "type": "Polygon", "coordinates": [ [ [ -52.039695203276089, -29.401128030187675 ], [ -52.034521552381669, -29.405580970522745 ], [ -52.0352416, -29.4050378 ], [ -52.0360754, -29.4044121 ], [ -52.0363066, -29.4042433 ], [ -52.0369338, -29.4037682 ], [ -52.0382512, -29.4027615 ], [ -52.038984, -29.40216 ], [ -52.0393229, -29.4018388 ], [ -52.0395117, -29.4016598 ], [ -52.0396845, -29.401496 ], [ -52.0397281, -29.4014337 ], [ -52.0398029, -29.4013315 ], [ -52.0400281, -29.4010186 ], [ -52.039695203276089, -29.401128030187675 ] ] ] } },
{ "type": "Feature", "properties": { "name": "Conventos", "code_muni": 4308433.0, "name_muni": "Forquetinha" }, "geometry": { "type": "MultiPolygon", "coordinates": [ [ [ [ -52.0570487, -29.4136658 ], [ -52.0543646, -29.413953 ], [ -52.0540896, -29.4139624 ], [ -52.052562885485798, -29.41416910101238 ], [ -52.057051657551987, -29.413687970481195 ], [ -52.0570487, -29.4136658 ] ] ], [ [ [ -52.0507033, -29.414358 ], [ -52.0499234, -29.414444 ], [ -52.049755511638153, -29.414469931384836 ], [ -52.051113973729763, -29.414324369950521 ], [ -52.0507033, -29.414358 ] ] ], [ [ [ -52.0476428, -29.4146804 ], [ -52.0472035, -29.414732 ], [ -52.047134157884244, -29.414750773524599 ], [ -52.047850237260675, -29.414674060687741 ], [ -52.0476428, -29.4146804 ] ] ], [ [ [ -52.0449737, -29.4149513 ], [ -52.044841177331435, -29.414952492374816 ], [ -52.044849025, -29.414995550999894 ], [ -52.045548078846224, -29.414920674447458 ], [ -52.0449737, -29.4149513 ] ] ], [ [ [ -52.0444465, -29.4120493 ], [ -52.0438785, -29.4119225 ], [ -52.043387, -29.4118273 ], [ -52.0430598, -29.411789899999988 ], [ -52.0427864, -29.4118106 ], [ -52.0424321, -29.4119231 ], [ -52.04238105624944, -29.411928991063103 ], [ -52.044313797, -29.412058767 ], [ -52.04440684992268, -29.412569359773826 ], [ -52.0444465, -29.4120493 ] ] ], [ [ [ -52.0417294, -29.4117736 ], [ -52.0414285, -29.411523699999986 ], [ -52.0402995, -29.4102997 ], [ -52.0395045, -29.4094457 ], [ -52.0392242, -29.4091169 ], [ -52.0388565, -29.4089137 ], [ -52.0378025, -29.408606700000011 ], [ -52.0371535, -29.4086379 ], [ -52.036683556978204, -29.408851922319201 ], [ -52.038010744, -29.408711830999902 ], [ -52.041834219999892, -29.411892268 ], [ -52.04212194560597, -29.411911590641385 ], [ -52.0417294, -29.4117736 ] ] ], [ [ [ -52.0320125, -29.4094127 ], [ -52.0317328, -29.409586599999987 ], [ -52.031329007446644, -29.410166559360803 ], [ -52.032096799334084, -29.409399909018298 ], [ -52.0320125, -29.4094127 ] ] ] ] } },
{ "type": "Feature", "properties": { "name": "Chapadão", "code_muni": 4308433.0, "name_muni": "Forquetinha" }, "geometry": { "type": "MultiPolygon", "coordinates": [ [ [ [ -52.1357384, -29.4291589 ], [ -52.1353734, -29.4281138 ], [ -52.1340644, -29.4275998 ], [ -52.132004313737077, -29.427354447806021 ], [ -52.139014838, -29.432334367999911 ], [ -52.138988286999989, -29.429645616999888 ], [ -52.153629020715144, -29.429901736083554 ], [ -52.1357384, -29.4291589 ] ] ], [ [ [ -52.1304596, -29.4262075 ], [ -52.1286142, -29.4249273 ], [ -52.1276915, -29.4241797 ], [ -52.127491849801707, -29.424148560382321 ], [ -52.130631234061326, -29.426378979420477 ], [ -52.1304596, -29.4262075 ] ] ] ] } },
{ "type": "Feature", "properties": { "name": "Linha Alto Arroio Alegre", "code_muni": 4308433.0, "name_muni": "Forquetinha" }, "geometry": { "type": "Polygon", "coordinates": [ [ [ -52.1951115, -29.4189184 ], [ -52.1952996, -29.4194919 ], [ -52.1953154, -29.4196847 ], [ -52.1952909, -29.4197844 ], [ -52.1953033, -29.4198651 ], [ -52.1953651, -29.4199489 ], [ -52.195593118374219, -29.42006406362103 ], [ -52.195164063436636, -29.418920377753139 ], [ -52.1951115, -29.4189184 ] ] ] } },
{ "type": "Feature", "properties": { "name": "Linha Arroio Alegre", "code_muni": 4308433.0, "name_muni": "Forquetinha" }, "geometry": { "type": "MultiPolygon", "coordinates": [ [ [ [ -52.195164063436636, -29.418920377753139 ], [ -52.195015487152467, -29.418524327173365 ], [ -52.1950203, -29.4185447 ], [ -52.1950567, -29.4187094 ], [ -52.1951115, -29.4189184 ], [ -52.195164063436636, -29.418920377753139 ] ] ], [ [ [ -52.1820653, -29.4038245 ], [ -52.1817423, -29.4038903 ], [ -52.1815127, -29.4040862 ], [ -52.1807456, -29.4045348 ], [ -52.1800322, -29.4049835 ], [ -52.1794582, -29.4054742 ], [ -52.1791359, -29.406021 ], [ -52.1789432, -29.4062079 ], [ -52.178618854723261, -29.406319021965135 ], [ -52.178868699, -29.406301880999909 ], [ -52.182094532458905, -29.403811193348783 ], [ -52.1820653, -29.4038245 ] ] ], [ [ [ -52.1782887, -29.4062359 ], [ -52.178058, -29.4061237 ], [ -52.177881, -29.4059368 ], [ -52.1776289, -29.4058854 ], [ -52.1774155, -29.4058566 ], [ -52.1771727, -29.4059394 ], [ -52.1767867, -29.4062266 ], [ -52.1757352, -29.4064976 ], [ -52.1745551, -29.4064648 ], [ -52.1734768, -29.4066705 ], [ -52.173448399010852, -29.406673643111791 ], [ -52.178613597380497, -29.406319382648434 ], [ -52.1782887, -29.4062359 ] ] ], [ [ [ -52.1686665, -29.4079869 ], [ -52.1684399, -29.4080653 ], [ -52.1681846, -29.4081902 ], [ -52.1679079, -29.408271 ], [ -52.1676685, -29.4082134 ], [ -52.167489, -29.4079536 ], [ -52.1673002, -29.4078728 ], [ -52.1668762, -29.4076415 ], [ -52.1665822, -29.4073957 ], [ -52.1660873, -29.4071708 ], [ -52.1657298, -29.4071372 ], [ -52.1654034, -29.4071892 ], [ -52.1651614, -29.4071124 ], [ -52.1650464, -29.4069389 ], [ -52.1648381, -29.4067329 ], [ -52.16463, -29.4067025 ], [ -52.1644406, -29.4067372 ], [ -52.1640338, -29.4066927 ], [ -52.163830552983733, -29.40665509285316 ], [ -52.167731752999899, -29.408568489999901 ], [ -52.169011355087342, -29.408059585707623 ], [ -52.1686665, -29.4079869 ] ] ], [ [ [ -52.1623837, -29.4060057 ], [ -52.1621606, -29.4060039 ], [ -52.1617787, -29.4061441 ], [ -52.1615088, -29.4061378 ], [ -52.1612406, -29.4061089 ], [ -52.1610286, -29.405942 ], [ -52.1608257, -29.4058093 ], [ -52.16057, -29.405785 ], [ -52.1603931, -29.4058423 ], [ -52.16027, -29.4059358 ], [ -52.1601597, -29.4061788 ], [ -52.1601429, -29.40639740000001 ], [ -52.160109414799429, -29.406451570133004 ], [ -52.162448410346045, -29.406031869923989 ], [ -52.1623837, -29.4060057 ] ] ], [ [ [ -52.15849750000001, -29.406959 ], [ -52.1582632, -29.4072327 ], [ -52.158229055208068, -29.407366909911481 ], [ -52.158625807565663, -29.4068598048197 ], [ -52.15849750000001, -29.406959 ] ] ], [ [ [ -52.1565348, -29.4095232 ], [ -52.156518195142318, -29.409553559043893 ], [ -52.156554718958851, -29.409506879159871 ], [ -52.1565348, -29.4095232 ] ] ], [ [ [ -52.1564147, -29.4101662 ], [ -52.156457544158904, -29.410270980086509 ], [ -52.156419828383811, -29.410066741753248 ], [ -52.1564147, -29.4101662 ] ] ], [ [ [ -52.1564453, -29.4106631 ], [ -52.1563682, -29.410749299999988 ], [ -52.1562424, -29.4108567 ], [ -52.1563379, -29.411447300000013 ], [ -52.1563873, -29.4117304 ], [ -52.1564178, -29.411946 ], [ -52.1564464, -29.4123054 ], [ -52.1564826, -29.4124237 ], [ -52.1565711, -29.4125098 ], [ -52.1566868, -29.4126128 ], [ -52.1568749, -29.4127675 ], [ -52.156930770088216, -29.412833513723044 ], [ -52.156508962213309, -29.410549417480851 ], [ -52.1564453, -29.4106631 ] ] ], [ [ [ -52.1573244, -29.4144965 ], [ -52.1573919, -29.414585 ], [ -52.1574794, -29.4146307 ], [ -52.1576893, -29.4145736 ], [ -52.1578808, -29.4144641 ], [ -52.158009, -29.4143311 ], [ -52.1581463, -29.4141679 ], [ -52.1583388, -29.4138451 ], [ -52.158543895730851, -29.413590374543443 ], [ -52.15730387928955, -29.414401101826165 ], [ -52.1573244, -29.4144965 ] ] ], [ [ [ -52.1614172, -29.4132657 ], [ -52.1615278, -29.4134669 ], [ -52.161567231010935, -29.413513990967822 ], [ -52.161406806925129, -29.413215256460376 ], [ -52.1614172, -29.4132657 ] ] ], [ [ [ -52.1621368, -29.414667199999986 ], [ -52.1622333, -29.414909099999988 ], [ -52.1624067, -29.4151499 ], [ -52.1625228, -29.41532 ], [ -52.162543399751314, -29.415331724767679 ], [ -52.162087064077788, -29.414481986776352 ], [ -52.1621368, -29.414667199999986 ] ] ], [ [ [ -52.1625987, -29.4153632 ], [ -52.1626928, -29.4153856 ], [ -52.162802, -29.4153498 ], [ -52.1629541, -29.415262500000011 ], [ -52.163044, -29.4152036 ], [ -52.163345049332428, -29.415013149776211 ], [ -52.162595741984433, -29.415361516387922 ], [ -52.1625987, -29.4153632 ] ] ], [ [ [ -52.1656069, -29.4139975 ], [ -52.165612048768118, -29.414000366395221 ], [ -52.165603527, -29.413963103 ], [ -52.165544451685506, -29.413990569973926 ], [ -52.1656069, -29.4139975 ] ] ], [ [ [ -52.1661036, -29.4164492 ], [ -52.1661185, -29.416772 ], [ -52.166131, -29.416925 ], [ -52.1662254, -29.4170762 ], [ -52.1663472, -29.417224 ], [ -52.16652, -29.41724 ], [ -52.1667015, -29.4171559 ], [ -52.1669378, -29.4169787 ], [ -52.167087226300751, -29.416854609912942 ], [ -52.16633516, -29.417162226999885 ], [ -52.166125937531667, -29.416247407678547 ], [ -52.1661036, -29.4164492 ] ] ], [ [ [ -52.169737728485494, -29.41578289693782 ], [ -52.169727813, -29.415774484999897 ], [ -52.169704565755978, -29.415783994547521 ], [ -52.169737728485494, -29.41578289693782 ] ] ], [ [ [ -52.1706456, -29.4165728 ], [ -52.1706699, -29.4166586 ], [ -52.1708083, -29.4167213 ], [ -52.1711872, -29.4166688 ], [ -52.171451407827654, -29.416586137067107 ], [ -52.170801661, -29.416685485999885 ], [ -52.17064084248392, -29.416549056931657 ], [ -52.1706456, -29.4165728 ] ] ], [ [ [ -52.1718646, -29.4165829 ], [ -52.1721392, -29.4166026 ], [ -52.1724295, -29.4165761 ], [ -52.1727811, -29.4165203 ], [ -52.1732529, -29.4164235 ], [ -52.1735959, -29.4163473 ], [ -52.1739398, -29.4162458 ], [ -52.174189, -29.4162355 ], [ -52.1744167, -29.4162554 ], [ -52.1745699, -29.4162951 ], [ -52.1747613, -29.416385599999987 ], [ -52.1750581, -29.4165154 ], [ -52.1753195, -29.4165486 ], [ -52.175381530382332, -29.416536126685298 ], [ -52.174236665, -29.416160221999984 ], [ -52.171603028729074, -29.416562953133024 ], [ -52.1718646, -29.4165829 ] ] ], [ [ [ -52.1761751, -29.4168091 ], [ -52.176190440901713, -29.416826416650466 ], [ -52.176185064, -29.416799951 ], [ -52.176155538961709, -29.416790257150964 ], [ -52.1761751, -29.4168091 ] ] ], [ [ [ -52.1762417, -29.4177125 ], [ -52.176134, -29.4180091 ], [ -52.176104, -29.4181787 ], [ -52.1762608, -29.4183728 ], [ -52.1765045, -29.4185371 ], [ -52.1767649, -29.4185663 ], [ -52.1770303, -29.418524899999987 ], [ -52.1772447, -29.4184302 ], [ -52.1775106, -29.4182426 ], [ -52.17777610000001, -29.4180436 ], [ -52.1781571, -29.4177735 ], [ -52.178185922949623, -29.41775176970215 ], [ -52.176536321999897, -29.418528846 ], [ -52.176310032809148, -29.417415056077157 ], [ -52.1762417, -29.4177125 ] ] ], [ [ [ -52.1799329, -29.4169441 ], [ -52.1800589, -29.417096 ], [ -52.1800911, -29.4172969 ], [ -52.180162, -29.4176881 ], [ -52.1802531, -29.4178024 ], [ -52.1803519, -29.4178044 ], [ -52.1805652, -29.4177408 ], [ -52.18136437865914, -29.417600133126655 ], [ -52.179925833, -29.416932116999906 ], [ -52.179914278937282, -29.416937560110235 ], [ -52.1799329, -29.4169441 ] ] ], [ [ [ -52.186196, -29.4195131 ], [ -52.186214673951874, -29.419479303117352 ], [ -52.186105837288636, -29.419564583331518 ], [ -52.186196, -29.4195131 ] ] ], [ [ [ -52.188647498260252, -29.41771210969485 ], [ -52.188586033, -29.417621141 ], [ -52.188501404862038, -29.417687456227235 ], [ -52.188647498260252, -29.41771210969485 ] ] ], [ [ [ -52.1891356, -29.4187081 ], [ -52.1892858, -29.4192221 ], [ -52.1894413, -29.419535199999984 ], [ -52.189939, -29.4200792 ], [ -52.190393691086058, -29.420296395625126 ], [ -52.189094972665025, -29.418374366655289 ], [ -52.1891356, -29.4187081 ] ] ], [ [ [ -52.1906327, -29.420394599999987 ], [ -52.19081, -29.420361 ], [ -52.1911466, -29.4201866 ], [ -52.191335, -29.419909 ], [ -52.1915621, -29.419321799999985 ], [ -52.1916676, -29.4187221 ], [ -52.191602920284524, -29.418451192675207 ], [ -52.190562130500503, -29.420367714380752 ], [ -52.1906327, -29.420394599999987 ] ] ], [ [ [ -52.192179515404625, -29.417456037143562 ], [ -52.192160623999889, -29.417424198999985 ], [ -52.192145348798078, -29.41745232809577 ], [ -52.192179515404625, -29.417456037143562 ] ] ], [ [ [ -52.1929389, -29.4190679 ], [ -52.1931696, -29.4195445 ], [ -52.1933575, -29.4196761 ], [ -52.193502648897493, -29.41968588779325 ], [ -52.192822175105022, -29.418539113177818 ], [ -52.1929389, -29.4190679 ] ] ], [ [ [ -52.1937275, -29.41965660000001 ], [ -52.1939234, -29.41952550000001 ], [ -52.193997835667403, -29.419251818331936 ], [ -52.193641306877282, -29.419673351343143 ], [ -52.1937275, -29.41965660000001 ] ] ], [ [ [ -52.194893920044272, -29.418200270726789 ], [ -52.194891857999906, -29.418194774 ], [ -52.194889251697091, -29.418197855593156 ], [ -52.194893920044272, -29.418200270726789 ] ] ] ] } },
{ "type": "Feature", "properties": { "name": "Linha Araguari", "code_muni": 4308433.0, "name_muni": "Forquetinha" }, "geometry": { "type": "MultiPolygon", "coordinates": [ [ [ [ -52.1920802, -29.3608088 ], [ -52.192523322903696, -29.361378529760294 ], [ -52.192398995, -29.360771024 ], [ -52.192369453926176, -29.360749938725604 ], [ -52.1920802, -29.3608088 ] ] ], [ [ [ -52.192778, -29.363468 ], [ -52.1925833, -29.3642137 ], [ -52.1925849, -29.3644763 ], [ -52.1925696, -29.3647263 ], [ -52.1925998, -29.3649791 ], [ -52.19259953572643, -29.365210863819616 ], [ -52.19316603, -29.36451887299998 ], [ -52.192854548748549, -29.362996965479429 ], [ -52.192778, -29.363468 ] ] ], [ [ [ -52.1908567, -29.3670886 ], [ -52.1906683, -29.3676297 ], [ -52.1906461, -29.3681273 ], [ -52.1907791, -29.3687359 ], [ -52.1909066, -29.3691852 ], [ -52.190970058716864, -29.369416356712168 ], [ -52.190805923, -29.367401743 ], [ -52.191341198841499, -29.366747921246347 ], [ -52.1908567, -29.3670886 ] ] ], [ [ [ -52.1909676, -29.369847 ], [ -52.191022187052056, -29.370056163135349 ], [ -52.190996696535322, -29.369743301967677 ], [ -52.1909676, -29.369847 ] ] ], [ [ [ -52.1903019, -29.3711132 ], [ -52.1896104, -29.3713671 ], [ -52.1890119, -29.371379199999989 ], [ -52.1890721, -29.3714612 ], [ -52.189267112197918, -29.371640961158239 ], [ -52.190711150567118, -29.37104803188776 ], [ -52.1903019, -29.3711132 ] ] ] ] } },
{ "type": "Feature", "properties": { "name": "Picada Arroio Abelha Sul", "code_muni": 4308433.0, "name_muni": "Forquetinha" }, "geometry": { "type": "MultiPolygon", "coordinates": [ [ [ [ -52.1846134, -29.3862249 ], [ -52.1847311, -29.386435099999989 ], [ -52.1844483, -29.3871056 ], [ -52.18439, -29.3875802 ], [ -52.184482281318409, -29.387721314877695 ], [ -52.184824963, -29.386255611 ], [ -52.184790585043579, -29.386225350499505 ], [ -52.1846134, -29.3862249 ] ] ], [ [ [ -52.184053, -29.3890061 ], [ -52.1839321, -29.3892051 ], [ -52.183836, -29.3895122 ], [ -52.1837533, -29.3901941 ], [ -52.1837555, -29.3906045 ], [ -52.1838931, -29.3910381 ], [ -52.1844711, -29.3912331 ], [ -52.184733349600414, -29.391497790143241 ], [ -52.184063099, -29.38951417 ], [ -52.184209935228921, -29.38888615389946 ], [ -52.184053, -29.3890061 ] ] ], [ [ [ -52.1850066, -29.3927541 ], [ -52.1850747, -29.3929105 ], [ -52.185232, -29.3930476 ], [ -52.185260766080852, -29.393058629730131 ], [ -52.185005405600492, -29.392302920959089 ], [ -52.1850066, -29.3927541 ] ] ], [ [ [ -52.1859813, -29.3933349 ], [ -52.1864267, -29.3935446 ], [ -52.1867768, -29.3937582 ], [ -52.1869385, -29.3938526 ], [ -52.1871376, -29.3938819 ], [ -52.1875696, -29.3939186 ], [ -52.187826181544771, -29.393901494713706 ], [ -52.185661889625273, -29.393212430950168 ], [ -52.1859813, -29.3933349 ] ] ], [ [ [ -52.189706439102238, -29.394555719671512 ], [ -52.189791076999903, -29.3945270359999 ], [ -52.189235632901706, -29.394350209375702 ], [ -52.189706439102238, -29.394555719671512 ] ] ], [ [ [ -52.1862788, -29.395748399999988 ], [ -52.1861945, -29.3958508 ], [ -52.1861558, -29.3960248 ], [ -52.1861838, -29.3961181 ], [ -52.1862707, -29.396278 ], [ -52.186361, -29.396410700000018 ], [ -52.1865146, -29.396592899999987 ], [ -52.1857315, -29.3968527 ], [ -52.1851121, -29.397126 ], [ -52.1847716, -29.3973095 ], [ -52.1842279, -29.3977061 ], [ -52.1839285, -29.3980264 ], [ -52.1836767, -29.3984319 ], [ -52.18344, -29.3987042 ], [ -52.1831205, -29.3990013 ], [ -52.1830534, -29.3990952 ], [ -52.1828699, -29.3993519 ], [ -52.1828056, -29.39952 ], [ -52.1828474, -29.3997829 ], [ -52.1828257, -29.3999206 ], [ -52.1827994, -29.3999882 ], [ -52.182779, -29.4002341 ], [ -52.1827434, -29.4004088 ], [ -52.1826743, -29.4004598 ], [ -52.1826414, -29.4005155 ], [ -52.1826364, -29.4005988 ], [ -52.1826789, -29.4006755 ], [ -52.1827043, -29.4007642 ], [ -52.1827134, -29.4008828 ], [ -52.18268, -29.4009828 ], [ -52.1826756, -29.4010305 ], [ -52.1827573, -29.4015018 ], [ -52.182725659932494, -29.402567146697614 ], [ -52.183117877, -29.399021859 ], [ -52.186708188, -29.396777987999901 ], [ -52.186425942260477, -29.395682819018653 ], [ -52.1862788, -29.395748399999988 ] ] ] ] } },
{ "type": "Feature", "properties": { "name": "Linha Arroio Abelha", "code_muni": 4308433.0, "name_muni": "Forquetinha" }, "geometry": { "type": "MultiPolygon", "coordinates": [ [ [ [ -52.1890721, -29.3714612 ], [ -52.1890119, -29.371379199999989 ], [ -52.1885447, -29.3713886 ], [ -52.1880844, -29.3715287 ], [ -52.1878365, -29.3717086 ], [ -52.1877189, -29.3720752 ], [ -52.1876747, -29.372237 ], [ -52.187647271975138, -29.372306049025607 ], [ -52.189267112197918, -29.371640961158239 ], [ -52.1890721, -29.3714612 ] ] ], [ [ [ -52.18721930000001, -29.37234590000001 ], [ -52.1870893, -29.3722651 ], [ -52.1869361, -29.3722284 ], [ -52.1866974, -29.3722162 ], [ -52.1865254, -29.3722372 ], [ -52.18630970000001, -29.3722956 ], [ -52.1861417, -29.372384 ], [ -52.1859768, -29.3725087 ], [ -52.1858579, -29.3726347 ], [ -52.1857362, -29.3728289 ], [ -52.1856424, -29.372979 ], [ -52.1855299, -29.373088400000011 ], [ -52.186364545748454, -29.373711462671064 ], [ -52.185606608999898, -29.373143882 ], [ -52.187311900439482, -29.37244374523944 ], [ -52.18721930000001, -29.37234590000001 ] ] ], [ [ [ -52.1876588, -29.3749696 ], [ -52.1876835, -29.3753382 ], [ -52.1877645, -29.3755775 ], [ -52.1878539, -29.3757283 ], [ -52.187907, -29.3758727 ], [ -52.1879247, -29.3760175 ], [ -52.1880157, -29.3761416 ], [ -52.188031061934829, -29.376146599514851 ], [ -52.18763711100496, -29.374666837353193 ], [ -52.1876588, -29.3749696 ] ] ], [ [ [ -52.1882246, -29.3771266 ], [ -52.1881949, -29.3772412 ], [ -52.1881999, -29.3775414 ], [ -52.1882326, -29.3777249 ], [ -52.18823840000001, -29.3778353 ], [ -52.1882193, -29.377939 ], [ -52.1881371, -29.3781145 ], [ -52.1880611, -29.3784272 ], [ -52.1880379, -29.3786931 ], [ -52.1880513, -29.3789563 ], [ -52.1881065, -29.3790992 ], [ -52.1881225, -29.3792825 ], [ -52.1881131, -29.3793674 ], [ -52.1880918, -29.3794501 ], [ -52.1881012, -29.3795351 ], [ -52.188113, -29.37957050000001 ], [ -52.1881414, -29.3796035 ], [ -52.1881804, -29.3796272 ], [ -52.1882287, -29.3796413 ], [ -52.1883467, -29.3796531 ], [ -52.1885602, -29.3796305 ], [ -52.1886642, -29.3796213 ], [ -52.1887185, -29.379622399999985 ], [ -52.1887668, -29.3796342 ], [ -52.1886786, -29.3797201 ], [ -52.1886466, -29.3798159 ], [ -52.1886485, -29.3798635 ], [ -52.1886756, -29.379911599999989 ], [ -52.1887922, -29.3800248 ], [ -52.189098, -29.3801838 ], [ -52.1890765, -29.3802819 ], [ -52.189028037736861, -29.380372284455255 ], [ -52.189150309, -29.380350467 ], [ -52.18826988140561, -29.377043632350222 ], [ -52.1882246, -29.3771266 ] ] ], [ [ [ -52.1877355, -29.3805717 ], [ -52.187174174988471, -29.380703063391181 ], [ -52.187924915959776, -29.380569114371102 ], [ -52.1877355, -29.3805717 ] ] ], [ [ [ -52.1856594, -29.380941 ], [ -52.1853537, -29.3811233 ], [ -52.185334844390241, -29.38124897830896 ], [ -52.185770636, -29.380953474 ], [ -52.186020839825915, -29.3809088353708 ], [ -52.1856594, -29.380941 ] ] ], [ [ [ -52.1837175, -29.3820676 ], [ -52.1832401, -29.3822498 ], [ -52.1828216, -29.3825256 ], [ -52.1822734, -29.3832449 ], [ -52.1816254, -29.3837386 ], [ -52.1819485, -29.3838002 ], [ -52.1821915, -29.384028 ], [ -52.1822312, -29.3841648 ], [ -52.1822357, -29.3844926 ], [ -52.182269, -29.3846738 ], [ -52.1821145, -29.384990299999984 ], [ -52.1824401, -29.3852479 ], [ -52.1827134, -29.3856053 ], [ -52.1830497, -29.3858283 ], [ -52.1833765, -29.3858885 ], [ -52.1836844, -29.3858683 ], [ -52.18392690000001, -29.3860353 ], [ -52.1842299, -29.3861112 ], [ -52.1846134, -29.3862249 ], [ -52.184790585043579, -29.386225350499505 ], [ -52.181833979, -29.383622754999987 ], [ -52.184173173003217, -29.382036676640258 ], [ -52.1837175, -29.3820676 ] ] ] ] } }
]
}
