{
"type": "FeatureCollection",
"name": "bairros_itacurubi",
"crs": { "type": "name", "properties": { "name": "urn:ogc:def:crs:OGC:1.3:CRS84" } },
"features": [
{ "type": "Feature", "properties": { "code_muni": 4310553.0, "name_muni": "Itacurubi", "code_state": 43.0, "abbrev_state": "RS", "name_state": "Rio Grande do Sul", "code_region": 4.0, "name_region": "Sul", "year": 2022.0 }, "geometry": { "type": "Polygon", "coordinates": [ [ [ -55.164797882999899, -28.751668341 ], [ -55.158571385999892, -28.739311604 ], [ -55.155373399, -28.736731692 ], [ -55.139115342, -28.741174794999896 ], [ -55.132631986, -28.744999444 ], [ -55.126506853, -28.742939528 ], [ -55.122666925, -28.745272014 ], [ -55.112148820999899, -28.742536029999904 ], [ -55.107667800999899, -28.747597044 ], [ -55.098606823999894, -28.753475598 ], [ -55.095749673999897, -28.751274916999897 ], [ -55.086864863, -28.751319576999901 ], [ -55.085864972, -28.756706413 ], [ -55.0730358, -28.761186253999906 ], [ -55.073140189999904, -28.76338314 ], [ -55.078169195, -28.765986502 ], [ -55.078785013999898, -28.768412962 ], [ -55.071105998, -28.776166940999897 ], [ -55.067488791, -28.777173532999893 ], [ -55.064605582, -28.777449795999893 ], [ -55.062481894, -28.77556652 ], [ -55.060869681, -28.770784090999907 ], [ -55.056009193, -28.766691966999904 ], [ -55.050635875, -28.764420648999899 ], [ -55.047428671, -28.764727928 ], [ -55.043718484, -28.762238631999896 ], [ -55.042790337, -28.774351323 ], [ -55.034515741999897, -28.780701361 ], [ -55.03055294, -28.789421498 ], [ -55.032714876999897, -28.792513009999901 ], [ -55.033968082999898, -28.798169132999895 ], [ -55.024868195999893, -28.7983079699999 ], [ -55.021333042, -28.787678136 ], [ -55.018928963999898, -28.788711253 ], [ -55.014648134, -28.794264862 ], [ -55.007847536, -28.796472010999899 ], [ -55.005083772, -28.784068572 ], [ -55.005082225, -28.777818214 ], [ -55.003395811, -28.776034487999897 ], [ -54.996429567999897, -28.777739761999989 ], [ -54.995252131, -28.780794238999899 ], [ -54.991261864, -28.78338129 ], [ -54.989812042, -28.785921666 ], [ -54.982448689, -28.789389317 ], [ -54.981471865999893, -28.795218260999899 ], [ -54.975929306999895, -28.797743065 ], [ -54.973377493, -28.801358521999902 ], [ -54.969225557999906, -28.803220739 ], [ -54.968195256999905, -28.805904934999901 ], [ -54.964578366, -28.8082729139999 ], [ -54.960580509999893, -28.808439452999902 ], [ -54.961018168, -28.810696329999899 ], [ -54.963623802, -28.812525444999896 ], [ -54.971571782, -28.813089185 ], [ -54.979484366999898, -28.818729328 ], [ -54.997297781, -28.823439114999893 ], [ -55.009714246, -28.830611172 ], [ -55.01790227, -28.832612946 ], [ -55.024054202999892, -28.838242914 ], [ -55.033561941, -28.837753608999904 ], [ -55.033585129999899, -28.835433931999898 ], [ -55.036825732, -28.833312408 ], [ -55.042091172, -28.835740202999908 ], [ -55.046812167, -28.841285421 ], [ -55.053723632999905, -28.845806543 ], [ -55.051712293, -28.848083086 ], [ -55.052911381999891, -28.858464058 ], [ -55.051367977, -28.867644873 ], [ -55.053375122, -28.875384266 ], [ -55.051068090999891, -28.877059559 ], [ -55.046584811999892, -28.887546081 ], [ -55.033119671999891, -28.8929348889999 ], [ -55.024738893999896, -28.898547235 ], [ -55.030572744, -28.900495636 ], [ -55.033605165, -28.899509792999893 ], [ -55.037234700999896, -28.895783005999895 ], [ -55.044699666, -28.897194972 ], [ -55.052404455, -28.896950072 ], [ -55.064452816, -28.894634303 ], [ -55.068205775, -28.892571125 ], [ -55.074251564, -28.893148267 ], [ -55.080255678999897, -28.8960314 ], [ -55.085019093, -28.901144475 ], [ -55.089948653, -28.903467446999986 ], [ -55.095581414, -28.904479092 ], [ -55.103623649, -28.903425591 ], [ -55.09941076, -28.908227942999897 ], [ -55.095212595, -28.909879709999892 ], [ -55.083193052999896, -28.910336855 ], [ -55.083583254, -28.914828281 ], [ -55.072825402, -28.921555204 ], [ -55.07522383, -28.928281528999896 ], [ -55.072924626, -28.932686169 ], [ -55.076432699999891, -28.935396221 ], [ -55.077445698, -28.939722086 ], [ -55.084863595999892, -28.943543591 ], [ -55.089571879999895, -28.950111143999898 ], [ -55.099692192, -28.953455213 ], [ -55.101100636999895, -28.955193872999896 ], [ -55.112887352, -28.952344459 ], [ -55.124877552, -28.951296622 ], [ -55.133983811999897, -28.945815439999905 ], [ -55.139612171, -28.947391771999889 ], [ -55.144050372, -28.945293621 ], [ -55.145273349, -28.946806946 ], [ -55.169424103, -28.948191575999886 ], [ -55.174369208, -28.946247711 ], [ -55.177970767, -28.943161593 ], [ -55.1964446389999, -28.957771157 ], [ -55.195404971999899, -28.965057923 ], [ -55.1975463859999, -28.966677156999904 ], [ -55.197567793, -28.979139942 ], [ -55.227893835, -28.981812878 ], [ -55.2303912839999, -28.977805361 ], [ -55.238882234, -28.978822609 ], [ -55.245053057999897, -28.978024088 ], [ -55.246426097, -28.975719975999905 ], [ -55.245029484, -28.971255663 ], [ -55.25401995499989, -28.973226297999894 ], [ -55.255981248, -28.967146634999903 ], [ -55.257636884, -28.967541636 ], [ -55.259265653999897, -28.971055506 ], [ -55.26284522799989, -28.974238920999898 ], [ -55.272905233999893, -28.971827464999894 ], [ -55.274714343, -28.968491437 ], [ -55.278381984, -28.967622178999893 ], [ -55.281237741, -28.964483605999892 ], [ -55.288754763, -28.964034733999899 ], [ -55.293455335, -28.961352743 ], [ -55.295559474, -28.958542253 ], [ -55.302200765, -28.955131300999906 ], [ -55.306737091999892, -28.956012904 ], [ -55.316136018999892, -28.955325921999908 ], [ -55.319495946, -28.953956992 ], [ -55.320972689, -28.942030093 ], [ -55.322984544999898, -28.940601233999899 ], [ -55.329298574999903, -28.9391109929999 ], [ -55.342316320999899, -28.942769795999901 ], [ -55.345530716, -28.941943851 ], [ -55.34512432199989, -28.940261867999894 ], [ -55.349851251, -28.931573247999903 ], [ -55.358063726999895, -28.931800998 ], [ -55.36008994, -28.929168041999986 ], [ -55.365419808999896, -28.926864248999898 ], [ -55.369211580999902, -28.921791991999989 ], [ -55.373030098999898, -28.92056775 ], [ -55.373125925999894, -28.908845686999904 ], [ -55.37575241, -28.905137388 ], [ -55.375860975, -28.900697002 ], [ -55.373387674, -28.894926177999899 ], [ -55.374363077999895, -28.889891479 ], [ -55.372953697, -28.887191390999909 ], [ -55.369320994, -28.88506057 ], [ -55.367507603999989, -28.879991061999903 ], [ -55.368940177999903, -28.878380683999985 ], [ -55.373343447, -28.878164499 ], [ -55.376598498, -28.874524656999903 ], [ -55.383422084, -28.874710111 ], [ -55.383743253, -28.873572861999889 ], [ -55.387983663999904, -28.875466106 ], [ -55.39117739999989, -28.8798093189999 ], [ -55.396418180999902, -28.880124097 ], [ -55.398989824, -28.878784868 ], [ -55.400720023, -28.870969989999896 ], [ -55.405378728, -28.869804706 ], [ -55.413714798999891, -28.864440247999902 ], [ -55.428003318, -28.864868854 ], [ -55.432168319, -28.862648815999901 ], [ -55.431150322999891, -28.857847806999896 ], [ -55.427697407, -28.854484371999895 ], [ -55.418999554, -28.849628101 ], [ -55.4194281649999, -28.844964209999898 ], [ -55.421941282, -28.843248101 ], [ -55.431427207, -28.844388188 ], [ -55.432773267, -28.827442285 ], [ -55.434805196999896, -28.827519028 ], [ -55.437487383, -28.825254168 ], [ -55.439732224, -28.825541468 ], [ -55.440819478, -28.823614697 ], [ -55.444286953999899, -28.822363407 ], [ -55.447367433999894, -28.8180282759999 ], [ -55.44880542499989, -28.812884386999901 ], [ -55.458317818999902, -28.81462948 ], [ -55.46581206, -28.812123472999897 ], [ -55.467962058999902, -28.809898986999901 ], [ -55.469893958999897, -28.802726112 ], [ -55.47453717, -28.799270964 ], [ -55.478864057, -28.798100538 ], [ -55.479849059999893, -28.792267594 ], [ -55.483359912, -28.788757802 ], [ -55.484686414999899, -28.7813866 ], [ -55.489200603, -28.779473179 ], [ -55.492005316, -28.776698951 ], [ -55.491995253, -28.770665816 ], [ -55.494916793, -28.767918207 ], [ -55.495459711, -28.764840548999903 ], [ -55.502896807999896, -28.765226244 ], [ -55.504037825, -28.764098557999905 ], [ -55.50604589999989, -28.753677701999894 ], [ -55.504787683, -28.750979098 ], [ -55.507627648, -28.744750031 ], [ -55.503813333, -28.741931942 ], [ -55.496099238999903, -28.739810061999901 ], [ -55.497962666, -28.735438589 ], [ -55.497156612, -28.731535990999902 ], [ -55.501893729, -28.730627376 ], [ -55.509297776, -28.733297272 ], [ -55.515956962, -28.727388914 ], [ -55.52005452, -28.726308221999894 ], [ -55.534323985, -28.73011725 ], [ -55.537661301, -28.722352901 ], [ -55.53425575099989, -28.717873862 ], [ -55.535448264, -28.710657984 ], [ -55.543174022, -28.707320749 ], [ -55.546036086, -28.707205991999984 ], [ -55.547722788, -28.708594884 ], [ -55.549837212999897, -28.707473736999901 ], [ -55.536058565, -28.697995510999899 ], [ -55.536470347, -28.692626049 ], [ -55.531605392, -28.686374584 ], [ -55.526231268999901, -28.690410839999988 ], [ -55.525696679, -28.695463229 ], [ -55.522307914, -28.70342906 ], [ -55.518377649999898, -28.704763216999901 ], [ -55.516522649, -28.707001385999895 ], [ -55.514648726, -28.706084185 ], [ -55.51469603, -28.702760305 ], [ -55.512000356, -28.69714327 ], [ -55.508652047999895, -28.693878018 ], [ -55.505278908, -28.694584031 ], [ -55.500554856999898, -28.698732951999901 ], [ -55.493173699, -28.694817332 ], [ -55.489104571, -28.690537435 ], [ -55.488061027999898, -28.684115048 ], [ -55.489441026999891, -28.680616819 ], [ -55.495034188, -28.68019614 ], [ -55.495992849999894, -28.678892827 ], [ -55.493614717999897, -28.675418884999903 ], [ -55.494545232999897, -28.6724226269999 ], [ -55.490957353999896, -28.664713016999894 ], [ -55.485867009999893, -28.661629589 ], [ -55.481498786, -28.668698601999889 ], [ -55.472006356999891, -28.664675809999892 ], [ -55.465774526, -28.663847583999907 ], [ -55.461324401999903, -28.664822142999984 ], [ -55.455528939, -28.668098801999989 ], [ -55.451313665, -28.666757472 ], [ -55.447948519, -28.6693483 ], [ -55.446096944, -28.675253531999893 ], [ -55.439727503, -28.672996623999893 ], [ -55.435855263, -28.667998460999986 ], [ -55.434496674999892, -28.660568509 ], [ -55.431016002, -28.656628742 ], [ -55.438395238999895, -28.652309698999897 ], [ -55.43849920400001, -28.650633345 ], [ -55.436967775, -28.649951347 ], [ -55.427265072999901, -28.650993015 ], [ -55.421954655, -28.649148059 ], [ -55.420920316, -28.64959103 ], [ -55.42088596, -28.654554012999899 ], [ -55.416345244999903, -28.656476186 ], [ -55.415020875, -28.655820643 ], [ -55.413922682, -28.650062972999898 ], [ -55.412206155, -28.648990195 ], [ -55.40577476499989, -28.651881654 ], [ -55.400294961, -28.649041640999894 ], [ -55.395389811, -28.651185199999897 ], [ -55.394745196, -28.657974096 ], [ -55.389722277, -28.660690627 ], [ -55.389245768, -28.663189922 ], [ -55.384597721, -28.664956082999897 ], [ -55.38084481499989, -28.66938239 ], [ -55.379127315999909, -28.667374590999898 ], [ -55.37527690799989, -28.666003698999905 ], [ -55.373844786999896, -28.661625716999907 ], [ -55.375775336999894, -28.657949753 ], [ -55.37497374, -28.657277677 ], [ -55.366094943, -28.654025063999889 ], [ -55.365271150999902, -28.658817427 ], [ -55.363554423, -28.660784245999899 ], [ -55.355983336999891, -28.657710860999888 ], [ -55.353951060999989, -28.653364809 ], [ -55.35673445, -28.650657596 ], [ -55.355998326, -28.649494884 ], [ -55.347807734, -28.649807553999896 ], [ -55.345966296, -28.652356379 ], [ -55.347712413, -28.660910305999892 ], [ -55.345168831, -28.666892452 ], [ -55.338298139999893, -28.665631652999902 ], [ -55.330458719, -28.667443713999905 ], [ -55.323483304, -28.660197427 ], [ -55.324572367, -28.656499696 ], [ -55.320638883, -28.655266063999886 ], [ -55.315807011999901, -28.657692955 ], [ -55.314520737999892, -28.664632162 ], [ -55.308171493, -28.670881492 ], [ -55.30571434, -28.67198508 ], [ -55.303217042, -28.67133703 ], [ -55.298113992, -28.667376869 ], [ -55.290901329, -28.665213873 ], [ -55.286962931999895, -28.666418741 ], [ -55.284489382999901, -28.66895563 ], [ -55.287764497999895, -28.675328027 ], [ -55.285840070999903, -28.681454804999898 ], [ -55.282712903999901, -28.683033467 ], [ -55.280098191, -28.681322466 ], [ -55.279418850999903, -28.677372030999894 ], [ -55.277704528, -28.676235260999906 ], [ -55.276986523999902, -28.673219807999896 ], [ -55.274967445999899, -28.672255479999901 ], [ -55.255438854, -28.682714437999909 ], [ -55.253273699, -28.690877394 ], [ -55.245295733, -28.688435795 ], [ -55.236017208, -28.687443645 ], [ -55.236134737, -28.685078904 ], [ -55.240976643999893, -28.682638465000011 ], [ -55.242191008, -28.677504848000012 ], [ -55.232566075, -28.672357535999897 ], [ -55.230090221, -28.666586333999899 ], [ -55.22593253, -28.666153098999899 ], [ -55.223000632, -28.669255096 ], [ -55.223061596, -28.676618034999894 ], [ -55.2268664979999, -28.692044923 ], [ -55.232661239, -28.696384909999892 ], [ -55.232031537, -28.698715515999893 ], [ -55.22629632799989, -28.701422668 ], [ -55.224722808, -28.704364435999899 ], [ -55.226175359, -28.708602272999904 ], [ -55.225417551, -28.711375167 ], [ -55.222035768, -28.713126175999896 ], [ -55.211823193, -28.71020841 ], [ -55.207534210999896, -28.711498057 ], [ -55.202991632, -28.721670741 ], [ -55.193633900999892, -28.725371321 ], [ -55.19150977999989, -28.727622008000012 ], [ -55.194268791, -28.732595671 ], [ -55.189017314, -28.74364114 ], [ -55.184508332999897, -28.745992966 ], [ -55.183006096, -28.749240379999897 ], [ -55.19266012899989, -28.756082363 ], [ -55.191738679, -28.757984128 ], [ -55.1867066679999, -28.761942884999886 ], [ -55.184670750999892, -28.761833540999898 ], [ -55.176006624, -28.757713239999898 ], [ -55.176238823999896, -28.754586119 ], [ -55.17493488, -28.753810771 ], [ -55.164797882999899, -28.751668341 ] ] ] } }
]
}
