{
"type": "FeatureCollection",
"name": "bairros_marau",
"crs": { "type": "name", "properties": { "name": "urn:ogc:def:crs:OGC:1.3:CRS84" } },
"features": [
{ "type": "Feature", "properties": { "code_muni": 4311809.0, "name_muni": "Marau", "code_state": 43.0, "abbrev_state": "RS", "name_state": "Rio Grande do Sul", "code_region": 4.0, "name_region": "Sul", "year": 2022.0 }, "geometry": { "type": "Polygon", "coordinates": [ [ [ -52.109562502, -28.436073515 ], [ -52.10133071699989, -28.43882386 ], [ -52.090646894, -28.4499986 ], [ -52.08611663499989, -28.45883172 ], [ -52.090079235, -28.463456175 ], [ -52.0874635609999, -28.469262794 ], [ -52.08747369, -28.473689196999906 ], [ -52.084374388, -28.476332737999904 ], [ -52.0833027319999, -28.475274899999899 ], [ -52.075954812, -28.476270755 ], [ -52.075240488, -28.469647897999891 ], [ -52.076377587, -28.466015277999901 ], [ -52.069640428, -28.472543446 ], [ -52.062452086, -28.474087462999897 ], [ -52.062464637999902, -28.478938716 ], [ -52.0635188689999, -28.479374971 ], [ -52.06235156199989, -28.4827824229999 ], [ -52.064177109, -28.482091307 ], [ -52.06588644, -28.483180006999891 ], [ -52.065486533, -28.484946792999903 ], [ -52.067765342, -28.486737225 ], [ -52.0681167239999, -28.492793881999898 ], [ -52.069706594, -28.49085997 ], [ -52.078445679, -28.492858129 ], [ -52.079256449999896, -28.495185982 ], [ -52.083186616, -28.494085036999895 ], [ -52.085102837, -28.496861409 ], [ -52.089885191, -28.494271293999898 ], [ -52.095395944, -28.49644039 ], [ -52.099061519, -28.495903556 ], [ -52.104824721999897, -28.502252213 ], [ -52.109913416, -28.500801316 ], [ -52.111544502999891, -28.497377309999898 ], [ -52.117289679999892, -28.4937974159999 ], [ -52.120619066, -28.495965057 ], [ -52.126114302, -28.496103132 ], [ -52.127760391, -28.500995007 ], [ -52.127175690999891, -28.503156354999891 ], [ -52.129200638, -28.505460073999895 ], [ -52.139221807, -28.487560374999894 ], [ -52.137991614, -28.485139596 ], [ -52.133333149999899, -28.482812523 ], [ -52.136000205, -28.476516757 ], [ -52.149421055999895, -28.476405008 ], [ -52.151953589, -28.479706649 ], [ -52.1555499689999, -28.476693906 ], [ -52.156906702, -28.4777270989999 ], [ -52.1648776339999, -28.477632796 ], [ -52.166298849, -28.4823877279999 ], [ -52.170349479, -28.482569461 ], [ -52.170312635, -28.485653983 ], [ -52.178485624, -28.4895297529999 ], [ -52.18038520399989, -28.489068974 ], [ -52.18231166, -28.496874046999899 ], [ -52.186002544, -28.499607848 ], [ -52.196009833999895, -28.496036236999906 ], [ -52.19893508, -28.496173337 ], [ -52.197065865, -28.489135968 ], [ -52.205534762999896, -28.487304933 ], [ -52.207985870999892, -28.488166243999988 ], [ -52.211740698, -28.4827645 ], [ -52.222804507, -28.487307976 ], [ -52.227236439, -28.485651887 ], [ -52.229353884, -28.486134111 ], [ -52.225810598999892, -28.490110251 ], [ -52.226400355, -28.494790645 ], [ -52.227944147, -28.496481397 ], [ -52.219598405999903, -28.499779476 ], [ -52.220123005999902, -28.502058641 ], [ -52.225796720999902, -28.502236534 ], [ -52.228902804, -28.501038493999896 ], [ -52.232243637, -28.504933794 ], [ -52.234232119, -28.505209507 ], [ -52.241625745, -28.500988033999903 ], [ -52.244314120999903, -28.506187121 ], [ -52.238555976, -28.509478251 ], [ -52.24018871, -28.510635099999895 ], [ -52.244352831, -28.510264972 ], [ -52.243196177, -28.517918506999905 ], [ -52.250152797999903, -28.514519044999894 ], [ -52.251887658, -28.518539341 ], [ -52.254860128, -28.520192247 ], [ -52.24689569399991, -28.524156266 ], [ -52.242133903, -28.522643328999902 ], [ -52.237494817, -28.527580682999897 ], [ -52.238519767999897, -28.529540628999893 ], [ -52.2429723609999, -28.530428179 ], [ -52.244318063, -28.534743917 ], [ -52.240598351, -28.53875148 ], [ -52.234585471999893, -28.537101178999901 ], [ -52.235413875999903, -28.548401251 ], [ -52.239865853, -28.549064302 ], [ -52.243393122, -28.551504044 ], [ -52.248580150999899, -28.559758169 ], [ -52.248721622999902, -28.560905615 ], [ -52.234802064, -28.566816980999899 ], [ -52.24007491, -28.571575246999902 ], [ -52.244631201999901, -28.571864266 ], [ -52.2419266489999, -28.577321911 ], [ -52.244539668999892, -28.581069512999893 ], [ -52.242193592, -28.584259499 ], [ -52.244824230999903, -28.589110545 ], [ -52.2473786689999, -28.585626428999902 ], [ -52.25210237399989, -28.587018794999899 ], [ -52.256902027, -28.582885037 ], [ -52.258122062, -28.5853407819999 ], [ -52.268091748, -28.585287969 ], [ -52.278873811, -28.590089738 ], [ -52.282728323999891, -28.587251051 ], [ -52.287264249, -28.588906844999897 ], [ -52.290492698, -28.588666109 ], [ -52.29069340400001, -28.586244771999905 ], [ -52.294749662999891, -28.585192569 ], [ -52.299781647, -28.589508984 ], [ -52.301473487, -28.595943011 ], [ -52.305685948, -28.597024948999888 ], [ -52.305778229999902, -28.601533764 ], [ -52.303615922999896, -28.604954463 ], [ -52.304673581, -28.607415009 ], [ -52.302286594, -28.607691858 ], [ -52.300422266999902, -28.612405285 ], [ -52.295189162, -28.616360127999894 ], [ -52.285775271, -28.626904776999897 ], [ -52.285937422, -28.629513796 ], [ -52.290495055999898, -28.630069283 ], [ -52.292419235, -28.632132202 ], [ -52.288270692, -28.642283136999893 ], [ -52.297280499, -28.648728228 ], [ -52.301453939999895, -28.648232145999909 ], [ -52.301338476, -28.650953135999895 ], [ -52.30515273, -28.656066001999889 ], [ -52.309157797999895, -28.649821410999905 ], [ -52.311885114999903, -28.648708782 ], [ -52.313615507999899, -28.6493166509999 ], [ -52.337521877, -28.605709831999892 ], [ -52.339611687999891, -28.606625381 ], [ -52.34152847, -28.604915006999896 ], [ -52.347398098, -28.6047000639999 ], [ -52.348058087, -28.601970401999903 ], [ -52.353349971999897, -28.60267909 ], [ -52.348208187999894, -28.593997988999895 ], [ -52.348703644, -28.589395097 ], [ -52.347309063999894, -28.586957390999906 ], [ -52.345078754, -28.586592793 ], [ -52.34370263599989, -28.582095363 ], [ -52.346123249, -28.582091816999892 ], [ -52.35135113, -28.586154302999898 ], [ -52.36105984599989, -28.579060408 ], [ -52.367345897, -28.581782846 ], [ -52.370723077, -28.578602536999906 ], [ -52.375872207, -28.580254963999899 ], [ -52.379117651999898, -28.576960963 ], [ -52.382941962, -28.577592099999901 ], [ -52.383663339999892, -28.575245591999906 ], [ -52.386900219, -28.574541630999903 ], [ -52.391217183, -28.571154978 ], [ -52.390951813999898, -28.569131679 ], [ -52.388459377999901, -28.569534209 ], [ -52.385722889, -28.567293570999901 ], [ -52.377785292999903, -28.565134057 ], [ -52.374597087, -28.56933577 ], [ -52.370940555999894, -28.569350574999902 ], [ -52.368538405, -28.565709746 ], [ -52.365344755, -28.563757992 ], [ -52.363967734, -28.55941136 ], [ -52.366671664, -28.550901982 ], [ -52.363029168, -28.552957298 ], [ -52.356944982, -28.547832104 ], [ -52.350505227, -28.546543440999987 ], [ -52.353284862, -28.539519197999894 ], [ -52.349928835, -28.535398310999895 ], [ -52.349052055, -28.530091473 ], [ -52.3544265519999, -28.525430597 ], [ -52.354140418999989, -28.520369084 ], [ -52.357183274, -28.515015874 ], [ -52.362273129, -28.509130666 ], [ -52.370994222, -28.511006279999904 ], [ -52.371639928, -28.508076775999903 ], [ -52.374472757, -28.51034248 ], [ -52.377136137, -28.510004441 ], [ -52.376483284999892, -28.506739153999902 ], [ -52.377980814999894, -28.502804915999899 ], [ -52.375846700999901, -28.498345599999904 ], [ -52.381903936, -28.4917945619999 ], [ -52.382111892999902, -28.488740701 ], [ -52.385615292, -28.488604618999897 ], [ -52.372089129, -28.481473725999905 ], [ -52.372852682, -28.479101305 ], [ -52.375408776, -28.477047089999903 ], [ -52.384061602, -28.477614737 ], [ -52.389405778, -28.472781465 ], [ -52.389123438999903, -28.469245459999989 ], [ -52.391642708999903, -28.467629813 ], [ -52.396370138, -28.469364443 ], [ -52.400137099999895, -28.468025850999894 ], [ -52.403035932, -28.468726568 ], [ -52.402376389, -28.4731960139999 ], [ -52.408654148, -28.473250645999904 ], [ -52.411849844999892, -28.474258666 ], [ -52.411469639, -28.475916825 ], [ -52.415098776, -28.47690367 ], [ -52.419291169, -28.474293009999901 ], [ -52.417869497, -28.478136639 ], [ -52.419502889999897, -28.479690127 ], [ -52.424172483999897, -28.481808348999895 ], [ -52.424860657999901, -28.483610631 ], [ -52.42596979599989, -28.482511160999898 ], [ -52.431817405999894, -28.485931880999903 ], [ -52.435942587999889, -28.484343840999909 ], [ -52.437116113999892, -28.480876049 ], [ -52.440963413, -28.477189027 ], [ -52.445888618, -28.473100128999903 ], [ -52.448873228, -28.472292509999903 ], [ -52.458397203999894, -28.473626754 ], [ -52.464510709, -28.4767071959999 ], [ -52.476575194, -28.477044017 ], [ -52.493717123999893, -28.481437051999904 ], [ -52.502122793999895, -28.479316941 ], [ -52.508953923, -28.475627374999895 ], [ -52.511727995999891, -28.475966285 ], [ -52.504561074, -28.466813089 ], [ -52.495879275999989, -28.462835498999908 ], [ -52.494660033999899, -28.458296902 ], [ -52.486264513, -28.460170428 ], [ -52.471559259999893, -28.431223512 ], [ -52.469476863, -28.429230764 ], [ -52.464839319, -28.427250704 ], [ -52.461409794, -28.427439337999893 ], [ -52.460716888, -28.423403484999906 ], [ -52.455138448999897, -28.424388601 ], [ -52.451928658, -28.422950242 ], [ -52.449520602, -28.420645873 ], [ -52.452234863999891, -28.418951868 ], [ -52.451978951999891, -28.417458639 ], [ -52.445103263, -28.416079454999903 ], [ -52.447483712999897, -28.413336162 ], [ -52.446389322, -28.407618607 ], [ -52.4507318779999, -28.405732982 ], [ -52.44215932, -28.404103419 ], [ -52.44122527199989, -28.405931278 ], [ -52.439888712, -28.405624593 ], [ -52.437226576999898, -28.400926464999902 ], [ -52.441380796, -28.399071449 ], [ -52.437714875, -28.39630233 ], [ -52.434336037, -28.397480527 ], [ -52.431965384, -28.396233591999898 ], [ -52.430557956, -28.397491197 ], [ -52.430593009999903, -28.401760474 ], [ -52.428606382999895, -28.40346335 ], [ -52.425786246, -28.404105589 ], [ -52.424065754, -28.402437515 ], [ -52.421156875999891, -28.404797182 ], [ -52.417647708999901, -28.402215188 ], [ -52.41527847, -28.402867856999901 ], [ -52.414265552, -28.39748843 ], [ -52.403345720999901, -28.397716365999898 ], [ -52.402458904999897, -28.39308891 ], [ -52.404169423, -28.391303799999896 ], [ -52.395377488, -28.386135163999896 ], [ -52.3945877949999, -28.387144362 ], [ -52.392132918, -28.386317049999906 ], [ -52.390276725, -28.390239214 ], [ -52.385977123000011, -28.391213175 ], [ -52.387850503, -28.387717981 ], [ -52.385088179, -28.387451633999895 ], [ -52.383831688, -28.385187759 ], [ -52.38451846600001, -28.38350172 ], [ -52.382224344999898, -28.383589082999901 ], [ -52.38375950599989, -28.381268097 ], [ -52.381477595, -28.3805545119999 ], [ -52.379347127999893, -28.381626179 ], [ -52.372847835, -28.3768532409999 ], [ -52.371192424999897, -28.377617415 ], [ -52.370989116, -28.379637531999897 ], [ -52.36026129, -28.380494036999899 ], [ -52.359842826, -28.382490794 ], [ -52.3572653639999, -28.383682123 ], [ -52.356868149, -28.386347589 ], [ -52.355085228, -28.385703629 ], [ -52.354124209, -28.387341992 ], [ -52.35139409499989, -28.386384335999896 ], [ -52.350434432, -28.388655969 ], [ -52.346620356, -28.386400492 ], [ -52.345844897999903, -28.388040141 ], [ -52.343633693999898, -28.388626723 ], [ -52.343942219, -28.390770274 ], [ -52.341725058999891, -28.393963842999902 ], [ -52.339062331, -28.393392861999896 ], [ -52.338011996, -28.397529748 ], [ -52.336302442, -28.397214802999894 ], [ -52.335737202, -28.3954433819999 ], [ -52.32946335, -28.395496528 ], [ -52.324239227, -28.392977770999895 ], [ -52.324971166999902, -28.394908249 ], [ -52.320781966, -28.397112856 ], [ -52.31670832399989, -28.394642264 ], [ -52.311994731, -28.395088240999897 ], [ -52.311962176, -28.393665225999904 ], [ -52.306370729, -28.395924175999902 ], [ -52.305572609, -28.392080337 ], [ -52.303159042999901, -28.38965524 ], [ -52.29512095, -28.389273486 ], [ -52.296901995, -28.385675634999899 ], [ -52.295541417, -28.385124588999894 ], [ -52.294632035999904, -28.380609947 ], [ -52.291489253, -28.379468237 ], [ -52.293305845, -28.376004383 ], [ -52.292336545, -28.374921457 ], [ -52.294863466, -28.374179981999898 ], [ -52.296102012999903, -28.370547377 ], [ -52.299312546, -28.372289716999898 ], [ -52.300927445, -28.370702305999892 ], [ -52.303916055999899, -28.37036604 ], [ -52.304238389, -28.367868522 ], [ -52.301242494999897, -28.367257501 ], [ -52.301044442, -28.365600581 ], [ -52.307882430999896, -28.364219675999895 ], [ -52.309600013, -28.361093535999899 ], [ -52.307155722999894, -28.355626244999897 ], [ -52.309846658, -28.353896899999903 ], [ -52.30835955, -28.351503227 ], [ -52.30892628, -28.346895987 ], [ -52.302859988, -28.347031757 ], [ -52.307132826, -28.342408326999891 ], [ -52.303970057999891, -28.339439919 ], [ -52.290492309999891, -28.340897332999901 ], [ -52.288362041, -28.3390862749999 ], [ -52.285548423, -28.338802878 ], [ -52.282020335, -28.334938118 ], [ -52.280370515, -28.337128385 ], [ -52.276812912, -28.338140768999896 ], [ -52.27562735, -28.341257875999904 ], [ -52.271150335999899, -28.342975651 ], [ -52.269026521999898, -28.350972859 ], [ -52.266491008999893, -28.352768307 ], [ -52.262449878, -28.359313895 ], [ -52.262295208, -28.36179448 ], [ -52.258737281, -28.365888796 ], [ -52.259134601, -28.367735936 ], [ -52.261085953, -28.368134295999905 ], [ -52.265172976, -28.367010923 ], [ -52.26385343, -28.369540733999902 ], [ -52.265860044, -28.372127302 ], [ -52.265565034, -28.37721585 ], [ -52.26786265, -28.379361362999894 ], [ -52.269160962999891, -28.38392168099989 ], [ -52.271284568999903, -28.384666690999904 ], [ -52.250863802, -28.387177414999893 ], [ -52.251892692, -28.384111796 ], [ -52.249403115, -28.381801181999901 ], [ -52.251549191, -28.377993952999898 ], [ -52.25005388200001, -28.37709253 ], [ -52.251867570999892, -28.374694594999895 ], [ -52.250957415999899, -28.368664199 ], [ -52.246139292999892, -28.368197283 ], [ -52.245291954, -28.366369581999898 ], [ -52.241863961, -28.366308295 ], [ -52.241648266, -28.364168473999907 ], [ -52.239157275, -28.363775502999896 ], [ -52.239257337, -28.362781794999904 ], [ -52.23646457, -28.363859788 ], [ -52.234999498, -28.360533796999988 ], [ -52.230282095999897, -28.365581167 ], [ -52.226435108, -28.364214155999903 ], [ -52.226606988999897, -28.363326037 ], [ -52.222319979, -28.363209789999903 ], [ -52.219320765, -28.364970314999901 ], [ -52.216714289, -28.364287665999907 ], [ -52.21586868899989, -28.360191993999905 ], [ -52.212960634, -28.360407409999898 ], [ -52.214304108, -28.346748005999896 ], [ -52.202357360999898, -28.338928978999903 ], [ -52.197521960999893, -28.337899422 ], [ -52.188884161, -28.341756092 ], [ -52.182364637, -28.341651063 ], [ -52.180261421, -28.3447362759999 ], [ -52.176798176, -28.345065035999902 ], [ -52.17229939, -28.342822707 ], [ -52.171847410999902, -28.341299177999904 ], [ -52.170055733, -28.341962236 ], [ -52.168316144999899, -28.340312066 ], [ -52.166984528999897, -28.3409936259999 ], [ -52.167313379999896, -28.343805412999902 ], [ -52.165431719, -28.343191696 ], [ -52.163300492, -28.345189601 ], [ -52.161011293999898, -28.343798392999901 ], [ -52.162402680999897, -28.338562936999896 ], [ -52.161541134999894, -28.337330129 ], [ -52.158040445, -28.336989270999908 ], [ -52.15346344999989, -28.340046055999892 ], [ -52.151515299, -28.336780768 ], [ -52.147899482999897, -28.339432243 ], [ -52.147504249, -28.337775159999989 ], [ -52.143735159999892, -28.33776549 ], [ -52.142799023999892, -28.336235112999898 ], [ -52.139960806, -28.337780935 ], [ -52.13860578, -28.336178646999894 ], [ -52.136229828999895, -28.3368667989999 ], [ -52.136042077, -28.334003466999906 ], [ -52.133463079, -28.334080754999896 ], [ -52.13307299, -28.332195086 ], [ -52.129209398999905, -28.33282625 ], [ -52.127153812, -28.331133319999889 ], [ -52.127586537, -28.329179413 ], [ -52.123848032999902, -28.322647982 ], [ -52.122871345, -28.323176112999906 ], [ -52.119604380999903, -28.321097688999895 ], [ -52.11798278, -28.321649631999897 ], [ -52.115428051, -28.318747743 ], [ -52.111346317, -28.319118642 ], [ -52.109499005, -28.317503096999907 ], [ -52.10584147, -28.31900516 ], [ -52.101058296, -28.318907330999895 ], [ -52.098817556, -28.316643971 ], [ -52.094264305, -28.317378163999901 ], [ -52.095939057, -28.319236084999901 ], [ -52.094047599, -28.320874765999985 ], [ -52.095660348, -28.330809726 ], [ -52.0900664, -28.331176680999896 ], [ -52.089909714, -28.339862443999898 ], [ -52.0867079719999, -28.339568411999903 ], [ -52.08610881300001, -28.342525598999899 ], [ -52.083007836, -28.344805707 ], [ -52.083435892999894, -28.346245968999906 ], [ -52.085832658999891, -28.345072676 ], [ -52.087741257999902, -28.347117309999899 ], [ -52.086277741999893, -28.347840979 ], [ -52.08724281699989, -28.349202165 ], [ -52.090904793999989, -28.3486968899999 ], [ -52.093808711999891, -28.349625102999905 ], [ -52.093453377999907, -28.35107153 ], [ -52.0987893779999, -28.350565973999903 ], [ -52.099170156, -28.347515142 ], [ -52.101695723, -28.349127983999896 ], [ -52.101151192, -28.3531868389999 ], [ -52.098691553, -28.354166485 ], [ -52.099893865, -28.354534132 ], [ -52.098614905, -28.356349270999896 ], [ -52.099109931, -28.358338869 ], [ -52.102756751999898, -28.36145299 ], [ -52.098174054, -28.363337590999901 ], [ -52.09683139, -28.362597228 ], [ -52.095707148, -28.363909346999904 ], [ -52.097695203999891, -28.367475812 ], [ -52.09595070599989, -28.368381476 ], [ -52.098119326, -28.371210780999899 ], [ -52.094402437, -28.371835427 ], [ -52.096309767, -28.373528141 ], [ -52.0945779689999, -28.377826544999905 ], [ -52.097656359, -28.379372331999893 ], [ -52.096888239, -28.384559185999894 ], [ -52.099102017999897, -28.38590525 ], [ -52.098925204, -28.387064616 ], [ -52.104742057, -28.388596999 ], [ -52.108277968, -28.386470378999906 ], [ -52.108999599, -28.389219904 ], [ -52.10767920099989, -28.388985089999903 ], [ -52.108137586999902, -28.391789597 ], [ -52.1059134939999, -28.394740869 ], [ -52.115401079, -28.395790666 ], [ -52.11354656799989, -28.398970882 ], [ -52.110732277, -28.398947232999902 ], [ -52.109172894, -28.400899281 ], [ -52.108164465, -28.408658196 ], [ -52.109208522, -28.411592601999907 ], [ -52.105534, -28.416756262 ], [ -52.106605094, -28.419547636999908 ], [ -52.104299402, -28.421369264 ], [ -52.104408566, -28.427501951 ], [ -52.109562502, -28.436073515 ] ] ] } }
]
}
