{
"type": "FeatureCollection",
"name": "bairros_riozinho",
"crs": { "type": "name", "properties": { "name": "urn:ogc:def:crs:OGC:1.3:CRS84" } },
"features": [
{ "type": "Feature", "properties": { "code_muni": 4315750.0, "name_muni": "Riozinho", "code_state": 43.0, "abbrev_state": "RS", "name_state": "Rio Grande do Sul", "code_region": 4.0, "name_region": "Sul", "year": 2022.0 }, "geometry": { "type": "Polygon", "coordinates": [ [ [ -50.411321572, -29.701946801 ], [ -50.450462747, -29.677735206 ], [ -50.4527848399999, -29.67883545 ], [ -50.462949936, -29.677047264 ], [ -50.464862044, -29.669082656999898 ], [ -50.469493491, -29.664800971 ], [ -50.471985833, -29.659051906999899 ], [ -50.4768494899999, -29.659403406 ], [ -50.480395170999898, -29.657416017999903 ], [ -50.479552616, -29.656314616 ], [ -50.481760632, -29.648827167 ], [ -50.485881333999899, -29.643050887000012 ], [ -50.484304801, -29.641234616 ], [ -50.486275685, -29.636967117 ], [ -50.481826645999902, -29.635471364 ], [ -50.484911962, -29.634769525 ], [ -50.488497599, -29.631937843999893 ], [ -50.48270741999989, -29.628748295 ], [ -50.483242485999895, -29.627441900000012 ], [ -50.481323718999896, -29.624275804 ], [ -50.468379974999898, -29.620353941 ], [ -50.472287838999897, -29.614173206 ], [ -50.467926322, -29.611904939999896 ], [ -50.466078318, -29.607283206 ], [ -50.469949337999893, -29.600704084 ], [ -50.473671826, -29.600891762999893 ], [ -50.475530192, -29.6028272729999 ], [ -50.482897304999902, -29.600278064999898 ], [ -50.481532892, -29.598902138 ], [ -50.48282707, -29.594701816999905 ], [ -50.478706195, -29.593507810999895 ], [ -50.477733258999891, -29.591772644999899 ], [ -50.479671647, -29.589931550999903 ], [ -50.478012475, -29.588445663999892 ], [ -50.472851307, -29.589443355999908 ], [ -50.4717275369999, -29.585625300999904 ], [ -50.472870880999899, -29.583228077999898 ], [ -50.467579029, -29.582339193999903 ], [ -50.465950944, -29.577699036999899 ], [ -50.462464494, -29.575608088 ], [ -50.459749484, -29.575801523999893 ], [ -50.459560654, -29.573284554999905 ], [ -50.456355145, -29.571050832 ], [ -50.456723595, -29.568786020999887 ], [ -50.454174387, -29.568803292 ], [ -50.449452479999891, -29.563954345999896 ], [ -50.447155812999902, -29.564156994 ], [ -50.442573226, -29.561823482 ], [ -50.440080821, -29.562296325 ], [ -50.440479206, -29.559869933999899 ], [ -50.436737912, -29.559953602 ], [ -50.435190425, -29.556702038 ], [ -50.432417845, -29.556046505 ], [ -50.432279676, -29.553243220999899 ], [ -50.434654639, -29.552748885 ], [ -50.434996989, -29.551427841 ], [ -50.433724304, -29.55027874 ], [ -50.433791852999896, -29.543433261 ], [ -50.431233049999896, -29.541230625 ], [ -50.432682284, -29.539670857 ], [ -50.432887567, -29.53725762599991 ], [ -50.431338019999899, -29.535908877999898 ], [ -50.432581201999902, -29.533553921 ], [ -50.429454792999891, -29.532657709 ], [ -50.429845316999895, -29.530702134 ], [ -50.424533005999891, -29.525958261 ], [ -50.421213181, -29.518327535 ], [ -50.418770650999903, -29.517342181999901 ], [ -50.417329623999898, -29.519569424999897 ], [ -50.4116637, -29.518371276 ], [ -50.405455914999891, -29.518865151999904 ], [ -50.40385543, -29.515994910000011 ], [ -50.399029613, -29.514029185 ], [ -50.396861428, -29.515028749999907 ], [ -50.396699756, -29.513143307999904 ], [ -50.393586635, -29.513203104 ], [ -50.386323918, -29.509760733000011 ], [ -50.384434046, -29.51050487 ], [ -50.381948421999894, -29.508278365 ], [ -50.380099891, -29.5091169949999 ], [ -50.378287534, -29.506868343 ], [ -50.3710161979999, -29.504280009 ], [ -50.370851332, -29.500332783 ], [ -50.369254538, -29.498636328 ], [ -50.360502069999903, -29.49963294 ], [ -50.347719439770295, -29.494328335623102 ], [ -50.348841307252101, -29.497604900966692 ], [ -50.3542191481964, -29.501807452168205 ], [ -50.356480690580298, -29.506811337285193 ], [ -50.354441740950691, -29.511165251559699 ], [ -50.356489594290501, -29.515603751080807 ], [ -50.3568190315669, -29.524160216556705 ], [ -50.355189652605191, -29.526225877316804 ], [ -50.344896963645596, -29.525789595518305 ], [ -50.344416163296302, -29.529733939124799 ], [ -50.340320456616894, -29.534951513285996 ], [ -50.340563917026401, -29.5436615989417 ], [ -50.349896396907596, -29.547581426166094 ], [ -50.355661549244402, -29.552002118266799 ], [ -50.353440073556399, -29.553662660213991 ], [ -50.354156822225292, -29.556859092165997 ], [ -50.351556938854792, -29.558127870865601 ], [ -50.352407243176394, -29.566029913643902 ], [ -50.350403908387491, -29.572770022244587 ], [ -50.348111203017993, -29.575663728050696 ], [ -50.348129010438392, -29.578601952407698 ], [ -50.343165192017103, -29.582550747869298 ], [ -50.344318222484496, -29.585315349877902 ], [ -50.342519673029592, -29.585974224430704 ], [ -50.338058914233102, -29.583819526568895 ], [ -50.335467934572797, -29.583890756250302 ], [ -50.326270401964393, -29.587630314522809 ], [ -50.333337721913999, -29.5894310899053 ], [ -50.337006050505096, -29.588398259525196 ], [ -50.348865792455101, -29.588950289555896 ], [ -50.345464575169203, -29.598512874281397 ], [ -50.337344391491698, -29.601094950231502 ], [ -50.3318864171558, -29.600213482924399 ], [ -50.330826875645293, -29.602056550930207 ], [ -50.33650299088039, -29.607002561931093 ], [ -50.343296521742097, -29.608329214746806 ], [ -50.341408935185491, -29.612834492094187 ], [ -50.345179656443598, -29.615732649755405 ], [ -50.342602032348694, -29.619071541070198 ], [ -50.345976538504097, -29.620113275160399 ], [ -50.354951478358196, -29.6285094738532 ], [ -50.3593499111835, -29.630272408467398 ], [ -50.359937556054895, -29.632035343081601 ], [ -50.358904725674897, -29.634350307726496 ], [ -50.354310411225804, -29.636131049761008 ], [ -50.350421781257992, -29.641089638807998 ], [ -50.353589210701806, -29.649148274033497 ], [ -50.352091161465189, -29.651082605068492 ], [ -50.353738347847198, -29.653428732699101 ], [ -50.351637072246398, -29.656153268011899 ], [ -50.350408360242589, -29.661753701710499 ], [ -50.345974312576601, -29.662644072727801 ], [ -50.346357172113997, -29.658058661988896 ], [ -50.340899197778199, -29.653304080756694 ], [ -50.338085625363597, -29.654123222092505 ], [ -50.338027137475592, -29.660937016451996 ], [ -50.335605942080491, -29.6627932098732 ], [ -50.330050026932803, -29.6620452982187 ], [ -50.325384482802299, -29.656738686955801 ], [ -50.32101276110739, -29.656271242171695 ], [ -50.314637704623699, -29.663236169454098 ], [ -50.313640489084399, -29.674250058937712 ], [ -50.315599305322294, -29.678390284168 ], [ -50.321043306999989, -29.682453236 ], [ -50.326557116999901, -29.681765207999899 ], [ -50.332216316, -29.682932922 ], [ -50.334929497, -29.687120964 ], [ -50.33399880199989, -29.689235586999896 ], [ -50.336239455999895, -29.694428004 ], [ -50.336670032, -29.700645533999893 ], [ -50.343454408, -29.698614012999901 ], [ -50.35551010599989, -29.703382486999896 ], [ -50.357163501999892, -29.70735267 ], [ -50.357227012, -29.714034151 ], [ -50.358637807, -29.715767174 ], [ -50.367911481, -29.716433418000012 ], [ -50.373282722999903, -29.719173254999905 ], [ -50.383256668999898, -29.719296147 ], [ -50.399827980999902, -29.707341839 ], [ -50.411321572, -29.701946801 ] ] ] } }
]
}
