{
"type": "FeatureCollection",
"name": "bairros_poco_das_antas",
"crs": { "type": "name", "properties": { "name": "urn:ogc:def:crs:OGC:1.3:CRS84" } },
"features": [
{ "type": "Feature", "properties": { "code_muni": 4314753.0, "name_muni": "Poço das Antas", "code_state": 43.0, "abbrev_state": "RS", "name_state": "Rio Grande do Sul", "code_region": 4.0, "name_region": "Sul", "year": 2022.0 }, "geometry": { "type": "Polygon", "coordinates": [ [ [ -51.615338611, -29.4824628 ], [ -51.66937368, -29.480862107 ], [ -51.670533556999899, -29.470794490999893 ], [ -51.690885072, -29.470736293999899 ], [ -51.691229480999901, -29.423525458 ], [ -51.680334305, -29.413407519 ], [ -51.669457576999903, -29.418293123999891 ], [ -51.665800952, -29.414318989 ], [ -51.657530402, -29.399303453 ], [ -51.610526562352291, -29.40080519518061 ], [ -51.60787594138889, -29.411216826533998 ], [ -51.640852089, -29.41723716 ], [ -51.643588154, -29.424840672 ], [ -51.6412814769999, -29.431880642999896 ], [ -51.642649514, -29.435521055 ], [ -51.609820957999908, -29.435583671 ], [ -51.6059931039999, -29.440076091 ], [ -51.604942835, -29.437169762999901 ], [ -51.59857495099989, -29.4351208739999 ], [ -51.5973625089999, -29.432414469 ], [ -51.59499195, -29.433580975 ], [ -51.591479503999892, -29.430454255 ], [ -51.59224111, -29.440286398999898 ], [ -51.569469882999989, -29.458017013999907 ], [ -51.587531423, -29.470222324 ], [ -51.601757063, -29.475654705999901 ], [ -51.6079097739999, -29.474328385999986 ], [ -51.612033481, -29.475087476999903 ], [ -51.615338611, -29.4824628 ] ] ] } }
]
}
