{
"type": "FeatureCollection",
"name": "bairros_pontao",
"crs": { "type": "name", "properties": { "name": "urn:ogc:def:crs:OGC:1.3:CRS84" } },
"features": [
{ "type": "Feature", "properties": { "code_muni": 4314779.0, "name_muni": "Pontão", "code_state": 43.0, "abbrev_state": "RS", "name_state": "Rio Grande do Sul", "code_region": 4.0, "name_region": "Sul", "year": 2022.0 }, "geometry": { "type": "Polygon", "coordinates": [ [ [ -52.660248596, -28.122575208999901 ], [ -52.669369560999897, -28.117689287 ], [ -52.670029117999896, -28.114287367 ], [ -52.67225078, -28.113610454 ], [ -52.674162190999901, -28.110562176999988 ], [ -52.676056245, -28.111729418 ], [ -52.679406094999898, -28.110434171 ], [ -52.679497217999895, -28.11261678099989 ], [ -52.681744915, -28.113015985999905 ], [ -52.683142132999897, -28.115090116 ], [ -52.685164192999892, -28.113701577 ], [ -52.687880521999894, -28.114881834999899 ], [ -52.691473367, -28.111983259999906 ], [ -52.691943083999902, -28.107487864999904 ], [ -52.695345003999897, -28.10581294 ], [ -52.698582035999891, -28.096587833999902 ], [ -52.703750004, -28.090226588999901 ], [ -52.705824134999901, -28.089569202999897 ], [ -52.706392568, -28.084774404 ], [ -52.708327843999896, -28.083017034 ], [ -52.710445365999895, -28.084974006 ], [ -52.713376485, -28.080246465 ], [ -52.715780392999896, -28.07910092 ], [ -52.717306604, -28.069910407 ], [ -52.722822889, -28.061058591999892 ], [ -52.724233124, -28.059604964999895 ], [ -52.728277244, -28.059205759999902 ], [ -52.737467637, -28.055430669 ], [ -52.742130091, -28.051883385999897 ], [ -52.743219263999897, -28.048246971 ], [ -52.747155631999895, -28.046517912 ], [ -52.747859466, -28.043415740999901 ], [ -52.751384774, -28.040690003999902 ], [ -52.753061715999898, -28.037023417999901 ], [ -52.7550666879999, -28.036404145999899 ], [ -52.76654776, -28.038513351999899 ], [ -52.775525683, -28.028048562 ], [ -52.779750227, -28.032193397 ], [ -52.783091847, -28.033149898 ], [ -52.784914557, -28.036204723 ], [ -52.792941963, -28.036537504 ], [ -52.795132598999892, -28.033557932999894 ], [ -52.797427092, -28.033327708999906 ], [ -52.802375142999892, -28.034940271 ], [ -52.804797051, -28.038318678999904 ], [ -52.809174880999898, -28.039544962 ], [ -52.810365253, -28.041303968 ], [ -52.81535228, -28.042803809 ], [ -52.8156465879999, -28.041485555 ], [ -52.812350953, -28.037748458 ], [ -52.813773784, -28.036204169 ], [ -52.820285001999899, -28.034670488 ], [ -52.825597871999911, -28.038407585 ], [ -52.828366205, -28.036936045999902 ], [ -52.828192014, -28.029208437 ], [ -52.826200282999892, -28.02843330799989 ], [ -52.828781608, -28.026295744 ], [ -52.827990655999898, -28.02527563 ], [ -52.826040867, -28.025761544 ], [ -52.826206414999902, -28.02461497 ], [ -52.82453867, -28.024645627 ], [ -52.82296443, -28.022554815 ], [ -52.822152017, -28.023511315999905 ], [ -52.820254345, -28.022341748 ], [ -52.822907713999896, -28.017841291 ], [ -52.821031502, -28.008478621999895 ], [ -52.818910032, -28.004468678 ], [ -52.816941848999896, -28.004284734999892 ], [ -52.816172356, -27.997384596 ], [ -52.812846064, -27.999982782 ], [ -52.811064889, -27.998865332 ], [ -52.811233503, -27.997501093 ], [ -52.808112612999899, -27.995440937999895 ], [ -52.807278740999898, -27.991737563999898 ], [ -52.799810679, -27.984061033999989 ], [ -52.789227858999901, -27.984858118 ], [ -52.780034570999902, -27.978154183 ], [ -52.77617178, -27.977936518 ], [ -52.773455564, -27.975533003999907 ], [ -52.77186446199989, -27.976612132999897 ], [ -52.769847227, -27.974423218 ], [ -52.767397726999896, -27.975054753999895 ], [ -52.763590119999897, -27.973120293 ], [ -52.758810683, -27.968598374999889 ], [ -52.759356377999893, -27.961679074999903 ], [ -52.758105569999898, -27.957074383 ], [ -52.749947724, -27.955072476999899 ], [ -52.745079382, -27.948922669 ], [ -52.741869516999898, -27.947403172 ], [ -52.744907702, -27.945047615 ], [ -52.740304543, -27.93965657 ], [ -52.737373728, -27.925683078 ], [ -52.729779972, -27.924567161 ], [ -52.728087702, -27.922203501 ], [ -52.723556587, -27.922617371999898 ], [ -52.717860504, -27.918254870999895 ], [ -52.712728511, -27.919813782999896 ], [ -52.708651120999903, -27.915460478999904 ], [ -52.704742344, -27.915325588 ], [ -52.704404371, -27.912051559 ], [ -52.7020386, -27.910553939999897 ], [ -52.699019961, -27.911613194 ], [ -52.699161923, -27.912633447 ], [ -52.697826544999891, -27.911709915 ], [ -52.696481807999902, -27.912602246999903 ], [ -52.698498792, -27.913632277 ], [ -52.695693385, -27.921733784 ], [ -52.696175733, -27.924398596999897 ], [ -52.678501880999896, -27.932031815 ], [ -52.673137647, -27.939273531 ], [ -52.66933942299989, -27.941215902999897 ], [ -52.664684652999895, -27.941804238 ], [ -52.659086815, -27.939675849 ], [ -52.657890677999895, -27.945425096 ], [ -52.652015976, -27.947908217 ], [ -52.637705299999894, -27.944855242 ], [ -52.633042162, -27.943037146999902 ], [ -52.630697472999898, -27.940259857999894 ], [ -52.627072289, -27.94222386 ], [ -52.626267653999896, -27.940329074 ], [ -52.617040307, -27.938892844 ], [ -52.61466101, -27.93661737 ], [ -52.610551314, -27.936630347999891 ], [ -52.609426556, -27.9370716 ], [ -52.611252126, -27.942392572999889 ], [ -52.611087738, -27.946995431999895 ], [ -52.607765373999896, -27.947748154999896 ], [ -52.6048107189999, -27.951693463 ], [ -52.600917324, -27.949357425 ], [ -52.598183295, -27.941397595 ], [ -52.596470200999896, -27.942435832999895 ], [ -52.596089513, -27.948306209 ], [ -52.590292679999898, -27.947864957 ], [ -52.587359654999894, -27.94578848 ], [ -52.580234794, -27.945512836 ], [ -52.580487811999902, -27.946833206999905 ], [ -52.57856707, -27.947594582 ], [ -52.578722806, -27.949225483 ], [ -52.5748813229999, -27.954793037999899 ], [ -52.572718325, -27.954031663 ], [ -52.572447951, -27.958253833999901 ], [ -52.571154478, -27.959240161 ], [ -52.5708819399999, -27.961723282 ], [ -52.575709751, -27.966287206999894 ], [ -52.574636903999902, -27.9689174119999 ], [ -52.572248955, -27.968268512 ], [ -52.571967765, -27.966832281999899 ], [ -52.570890592, -27.968156037 ], [ -52.5653252, -27.966920964999893 ], [ -52.560716204999892, -27.962847876 ], [ -52.557374021, -27.964282108 ], [ -52.55610217799989, -27.96294105 ], [ -52.554034353, -27.963771640999905 ], [ -52.551949223, -27.965874073999895 ], [ -52.554008397, -27.968290141999901 ], [ -52.552431571999897, -27.970031354999907 ], [ -52.550560579, -27.968612429 ], [ -52.550099859999889, -27.970920346999904 ], [ -52.550370234999903, -27.972966542999902 ], [ -52.552100633, -27.972373881999903 ], [ -52.55076390100001, -27.97558377 ], [ -52.553270815, -27.975222549 ], [ -52.546576338, -27.981038849999898 ], [ -52.547839527999891, -27.98386805 ], [ -52.543894221, -27.986736185 ], [ -52.545222301, -27.988808337 ], [ -52.542038369, -27.995167549 ], [ -52.54087035, -27.995418457 ], [ -52.539468728, -27.993385239 ], [ -52.534952389, -27.997769634999901 ], [ -52.532553624999892, -27.9983449929999 ], [ -52.531859303, -27.997523053999899 ], [ -52.533570234, -27.995766699999905 ], [ -52.531831183999891, -27.996692462999896 ], [ -52.532285413, -27.994525139 ], [ -52.528759727, -27.994118495999903 ], [ -52.528158414, -27.998405557 ], [ -52.5293004769999, -27.999911003 ], [ -52.530442539, -27.998621855999893 ], [ -52.532224848999903, -28.000049434999898 ], [ -52.532406540999894, -28.002705595999895 ], [ -52.529733076, -28.010124677 ], [ -52.528772704999902, -28.008100111 ], [ -52.527621989999894, -28.009934332999908 ], [ -52.527766911, -28.0136892969999 ], [ -52.525225389, -28.014316565999899 ], [ -52.524502948, -28.012824098 ], [ -52.522032805, -28.0156230169999 ], [ -52.519437207999893, -28.015060637 ], [ -52.513501942999895, -28.018599300999888 ], [ -52.51328348, -28.023822939999892 ], [ -52.514771622, -28.025016915 ], [ -52.51302392, -28.032085590999891 ], [ -52.506638752, -28.034542756 ], [ -52.506958875, -28.036091461999906 ], [ -52.509522026999896, -28.036889608 ], [ -52.499730138, -28.045218229999904 ], [ -52.502715074, -28.045754653 ], [ -52.503294758, -28.048298337999888 ], [ -52.508697925, -28.048445421999901 ], [ -52.514135701, -28.050980454999891 ], [ -52.512621603, -28.054385012999905 ], [ -52.514187612999898, -28.059266899 ], [ -52.513562467, -28.062083723999894 ], [ -52.50928837, -28.062704227 ], [ -52.507848845999902, -28.06002695 ], [ -52.502381473, -28.055791906 ], [ -52.50091049, -28.061317857999899 ], [ -52.496827316999898, -28.062751958 ], [ -52.49212798, -28.067119347 ], [ -52.49628275, -28.069679466 ], [ -52.495026556, -28.070889013999899 ], [ -52.496419434, -28.074833332 ], [ -52.49867581, -28.075228197999898 ], [ -52.499784470999899, -28.076950854 ], [ -52.497953336, -28.077436842999902 ], [ -52.500266121, -28.080613125999893 ], [ -52.499636939, -28.083589807 ], [ -52.49526738, -28.086510077999897 ], [ -52.498860224999895, -28.0892611209999 ], [ -52.501845584, -28.086963522 ], [ -52.503277515, -28.08910708 ], [ -52.498413289, -28.093285713999901 ], [ -52.502713421, -28.093882352 ], [ -52.492492472, -28.095839323999897 ], [ -52.495438777999901, -28.100638461999903 ], [ -52.491913191, -28.104712956 ], [ -52.495616685, -28.106281571999894 ], [ -52.4976300659999, -28.104762857 ], [ -52.500142454, -28.104832283999887 ], [ -52.501700221, -28.107019233 ], [ -52.508124384, -28.1082559 ], [ -52.508653764, -28.109340696999901 ], [ -52.504492485999897, -28.110173819999904 ], [ -52.505000170999892, -28.112534336 ], [ -52.503110455999895, -28.111154476 ], [ -52.499527375, -28.112172014 ], [ -52.49983979599989, -28.115754011 ], [ -52.502057119, -28.115565257 ], [ -52.50027263, -28.118901004999898 ], [ -52.49664507099989, -28.118154665 ], [ -52.495699128999895, -28.120098619 ], [ -52.493511096, -28.120007497 ], [ -52.495152392, -28.116600151999901 ], [ -52.4924404019999, -28.116209625 ], [ -52.489448534, -28.120143095999904 ], [ -52.491599685, -28.121962299 ], [ -52.491512901, -28.123993036999902 ], [ -52.497783023, -28.129184871999897 ], [ -52.504808162, -28.131436908 ], [ -52.508301205999899, -28.131172218 ], [ -52.510424289999889, -28.133045879 ], [ -52.517265961, -28.133263704999898 ], [ -52.520594114999902, -28.1360711569999 ], [ -52.531077584999899, -28.138449029999897 ], [ -52.542619815, -28.1272582739999 ], [ -52.545731009999891, -28.127418824 ], [ -52.54690258999991, -28.130113456999897 ], [ -52.548421305, -28.127922168999895 ], [ -52.553793215, -28.1258437 ], [ -52.559876752, -28.127761619 ], [ -52.571182496999896, -28.123628546 ], [ -52.5769275769999, -28.126865578 ], [ -52.577673916, -28.130185054 ], [ -52.581206013, -28.134584987 ], [ -52.584694716999898, -28.136090684 ], [ -52.587758181, -28.14169691 ], [ -52.592982558999893, -28.143727648 ], [ -52.595091403, -28.146934304999899 ], [ -52.596507061999894, -28.146880065999898 ], [ -52.594978583999897, -28.149195021 ], [ -52.597425884, -28.149576868999887 ], [ -52.597501819999898, -28.150858012999908 ], [ -52.603103706999903, -28.149375097 ], [ -52.605984925, -28.150034653 ], [ -52.606460066, -28.15281173099989 ], [ -52.609574374, -28.154715903 ], [ -52.615528960999903, -28.153215275 ], [ -52.619555724, -28.156285248 ], [ -52.618097758, -28.157309294999898 ], [ -52.619225946, -28.159383426000012 ], [ -52.620579772, -28.158906115 ], [ -52.624589178, -28.163034848999896 ], [ -52.627095057, -28.163347271 ], [ -52.631976639999898, -28.168797286 ], [ -52.631586113, -28.170181485999901 ], [ -52.6333066, -28.169493724999899 ], [ -52.634096331, -28.172019131 ], [ -52.636194326999899, -28.168033589999904 ], [ -52.63782586, -28.168250548999904 ], [ -52.639639638999896, -28.166462805 ], [ -52.641425518999903, -28.168061609999906 ], [ -52.64442142099989, -28.165768535 ], [ -52.644864017, -28.168076981999903 ], [ -52.646738544999891, -28.167643063 ], [ -52.648344043, -28.16978662 ], [ -52.650513636, -28.168293940999902 ], [ -52.651900005, -28.170236810999899 ], [ -52.654303913, -28.169698751999899 ], [ -52.655570955, -28.165784807 ], [ -52.654546908, -28.140027409 ], [ -52.65634333, -28.138170237999901 ], [ -52.664544388, -28.13624364 ], [ -52.666826799, -28.133388457 ], [ -52.663485626999893, -28.130515916 ], [ -52.660248596, -28.122575208999901 ] ] ] } }
]
}
