{
"type": "FeatureCollection",
"name": "bairros_trindade_do_sul",
"crs": { "type": "name", "properties": { "name": "urn:ogc:def:crs:OGC:1.3:CRS84" } },
"features": [
{ "type": "Feature", "properties": { "code_muni": 4321956.0, "name_muni": "Trindade do Sul", "code_state": 43.0, "abbrev_state": "RS", "name_state": "Rio Grande do Sul", "code_region": 4.0, "name_region": "Sul", "year": 2022.0 }, "geometry": { "type": "Polygon", "coordinates": [ [ [ -52.936750413, -27.569761363999895 ], [ -52.940339132, -27.569158048999988 ], [ -52.9415305919999, -27.572162885 ], [ -52.943963142, -27.570893763999909 ], [ -52.945759644, -27.573758789999903 ], [ -52.94961002, -27.572380311 ], [ -52.948262585, -27.577000907 ], [ -52.950406219999891, -27.576828533 ], [ -52.955242864999903, -27.572798158999895 ], [ -52.958515328, -27.575978205999903 ], [ -52.958629889999891, -27.577359642 ], [ -52.9570468699999, -27.577687947 ], [ -52.958888783, -27.579008348999899 ], [ -52.964006837999889, -27.576909878 ], [ -52.9626964509999, -27.581095069 ], [ -52.965808916, -27.582916639 ], [ -52.966273609, -27.580560483999903 ], [ -52.967575841, -27.580151483999895 ], [ -52.971730656, -27.583046329 ], [ -52.974525597, -27.580044154999896 ], [ -52.976793366, -27.584722368 ], [ -52.980048182, -27.58739558 ], [ -52.980753666999902, -27.584051272 ], [ -52.984813496, -27.579825565 ], [ -52.988303948999899, -27.579893442 ], [ -52.989471334, -27.577832869 ], [ -52.993421084, -27.577061167999894 ], [ -52.991937377999896, -27.575178949 ], [ -52.992785375, -27.574255686 ], [ -52.997367474, -27.574202208 ], [ -52.99998556899989, -27.579208337 ], [ -53.00526689, -27.577335994999896 ], [ -53.007872247, -27.5749128799999 ], [ -53.006154769, -27.569503670999907 ], [ -53.008291786, -27.564745525999989 ], [ -53.006834413, -27.561952278 ], [ -53.013547366999902, -27.55852154 ], [ -53.017630661999902, -27.558006347999896 ], [ -53.02126778, -27.554247553 ], [ -53.017348872, -27.552010948 ], [ -53.016265, -27.549677021 ], [ -53.018597392999901, -27.549383099999901 ], [ -53.025747348, -27.551832750999896 ], [ -53.030003029999889, -27.551483527999903 ], [ -53.027566446, -27.5433724 ], [ -53.028497136999896, -27.542423314999986 ], [ -53.03283441, -27.5431194939999 ], [ -53.038591052, -27.547902198 ], [ -53.041399242, -27.547488461999908 ], [ -53.041883589999898, -27.546394538 ], [ -53.036936286, -27.54190633 ], [ -53.037772726, -27.539330483999905 ], [ -53.042431699, -27.535259637 ], [ -53.044287058999899, -27.535296764999902 ], [ -53.048025939999903, -27.541736365 ], [ -53.04971660199989, -27.54139510999989 ], [ -53.050548202, -27.539347027 ], [ -53.048034139, -27.533971640999894 ], [ -53.04933017, -27.529594146 ], [ -53.044227256999896, -27.527932217999897 ], [ -53.042015549, -27.525225269 ], [ -53.03893047, -27.524834921 ], [ -53.036525711, -27.522000223 ], [ -53.032173649999898, -27.522853416 ], [ -53.025618868, -27.518648695 ], [ -53.02288056, -27.518676409 ], [ -53.019455524, -27.512133693999896 ], [ -53.0152995, -27.509641814 ], [ -53.022901471999901, -27.500958786 ], [ -53.026835859999892, -27.499405422999899 ], [ -53.024124419, -27.489784438 ], [ -53.024023168, -27.483592638999898 ], [ -53.042380424, -27.480276698999901 ], [ -53.050824075, -27.473122815 ], [ -53.039684919, -27.469059801999897 ], [ -53.040379574, -27.464319956999894 ], [ -53.038212767999902, -27.457406431 ], [ -53.035459491, -27.453980966999897 ], [ -53.031450272, -27.455616211999896 ], [ -53.029377404999892, -27.458158184 ], [ -53.01768121, -27.456020619999901 ], [ -53.019377001, -27.459535538 ], [ -53.006674502, -27.466285429 ], [ -53.006196342, -27.467933335999895 ], [ -53.00930061, -27.469609476 ], [ -53.004266016, -27.473323773999901 ], [ -53.004407638, -27.47625384 ], [ -53.000706339, -27.479393699 ], [ -52.996210936999901, -27.481256311 ], [ -52.992132517999892, -27.481203386999898 ], [ -52.990232127, -27.478992382999895 ], [ -52.985170239, -27.478610882999899 ], [ -52.982259207, -27.483555289 ], [ -52.97877525, -27.482893617999903 ], [ -52.976348221, -27.484807730999901 ], [ -52.971851118, -27.485694990999892 ], [ -52.968347695, -27.48147404 ], [ -52.96093617, -27.4775343119999 ], [ -52.953961202, -27.476813448 ], [ -52.943294183, -27.479267604 ], [ -52.939881204999892, -27.4780992889999 ], [ -52.935116502, -27.478505984 ], [ -52.928702568999903, -27.475340987 ], [ -52.923707798999892, -27.476523343999904 ], [ -52.916618437999894, -27.471286209 ], [ -52.911314244, -27.47080721 ], [ -52.902848645999903, -27.466201996999899 ], [ -52.900841447999902, -27.47322624 ], [ -52.897957694, -27.474556057 ], [ -52.892382268999903, -27.472557356 ], [ -52.88493169, -27.473221576 ], [ -52.876580826, -27.470062152 ], [ -52.868574979999892, -27.472198141 ], [ -52.865648305, -27.471261171 ], [ -52.861217682, -27.4770622099999 ], [ -52.858191110999897, -27.478643578999897 ], [ -52.854140249, -27.48620613 ], [ -52.851301051, -27.487737448 ], [ -52.847037563999898, -27.487750026999898 ], [ -52.842661226, -27.491780508 ], [ -52.839848867999891, -27.490915225 ], [ -52.838894291, -27.493063828999905 ], [ -52.836030997, -27.493962094 ], [ -52.833851443, -27.498733397 ], [ -52.831381111, -27.499107895 ], [ -52.828233568, -27.504367246999902 ], [ -52.824616996, -27.502587142 ], [ -52.812558966, -27.503245434999897 ], [ -52.805432079999896, -27.497405982 ], [ -52.799974404, -27.49616707 ], [ -52.802799708, -27.499748344999897 ], [ -52.801786946999989, -27.5010272399999 ], [ -52.796906664999902, -27.500379681 ], [ -52.794773788, -27.503114199 ], [ -52.788276286, -27.501066362999893 ], [ -52.783356117, -27.501107353 ], [ -52.778692099999901, -27.50489773 ], [ -52.77585988, -27.511967736 ], [ -52.768734994999896, -27.509617507 ], [ -52.764257205, -27.512515736 ], [ -52.757106606, -27.512741683999899 ], [ -52.761007059, -27.5201041289999 ], [ -52.761682531, -27.524956446 ], [ -52.757835257, -27.526715026 ], [ -52.756880442999901, -27.529432366 ], [ -52.752757378999895, -27.532194406 ], [ -52.747010954, -27.533999692999899 ], [ -52.747200163999899, -27.538382988 ], [ -52.749799101999891, -27.5415094049999 ], [ -52.752561564, -27.542451861 ], [ -52.753319042, -27.544949017 ], [ -52.760172982, -27.546082248999902 ], [ -52.767276473, -27.55280715 ], [ -52.763518659999896, -27.554453865 ], [ -52.754921072999899, -27.555517626 ], [ -52.752572656, -27.548998179 ], [ -52.746748926, -27.546742373 ], [ -52.740512678999899, -27.554485507 ], [ -52.739393045, -27.558007862999894 ], [ -52.739708295, -27.560372943999905 ], [ -52.747957087, -27.570729223999898 ], [ -52.747784716999902, -27.580023162 ], [ -52.750495645999891, -27.58327149 ], [ -52.753962836, -27.584503599 ], [ -52.756714926, -27.580356024 ], [ -52.761017199, -27.579557129 ], [ -52.770523291, -27.58601005 ], [ -52.774067311999893, -27.584277374 ], [ -52.778205512999897, -27.585581577 ], [ -52.782301689, -27.584372368999897 ], [ -52.7873021, -27.590908210999899 ], [ -52.798736107, -27.595799745 ], [ -52.807094095, -27.593819950999904 ], [ -52.810939595, -27.59415611 ], [ -52.814638711, -27.597932323999899 ], [ -52.820299926, -27.596914910999896 ], [ -52.821284976, -27.59441034 ], [ -52.825728824, -27.590692567 ], [ -52.83074615399989, -27.57756833 ], [ -52.843931529, -27.563747792 ], [ -52.84271976, -27.5527041359999 ], [ -52.84111641, -27.549278200999904 ], [ -52.842133162, -27.546750249 ], [ -52.844351710999895, -27.54673352 ], [ -52.845783453, -27.544304633 ], [ -52.848870325, -27.544513399 ], [ -52.85699547, -27.550082809999893 ], [ -52.861776577999898, -27.550772617999897 ], [ -52.864450811, -27.552825624 ], [ -52.870182579, -27.551664119 ], [ -52.878674554, -27.552776876999896 ], [ -52.888134123, -27.548316862 ], [ -52.891996938, -27.5491128809999 ], [ -52.904974717999892, -27.558358144 ], [ -52.9070070779999, -27.56305273 ], [ -52.923260259, -27.564469958 ], [ -52.930389133999903, -27.5615635529999 ], [ -52.936750413, -27.569761363999895 ] ] ] } }
]
}
