{
"type": "FeatureCollection",
"name": "bairros_sarandi",
"crs": { "type": "name", "properties": { "name": "urn:ogc:def:crs:OGC:1.3:CRS84" } },
"features": [
{ "type": "Feature", "properties": { "name": "Pingo", "code_muni": 4320107.0, "name_muni": "Sarandi" }, "geometry": { "type": "MultiPolygon", "coordinates": [ [ [ [ -52.9644033, -27.9283503 ], [ -52.964382801222989, -27.928370662613865 ], [ -52.964406331189082, -27.928350961055539 ], [ -52.9644033, -27.9283503 ] ] ], [ [ [ -52.9547956, -27.9363381 ], [ -52.9548881, -27.936603 ], [ -52.954919, -27.9366444 ], [ -52.9549693, -27.9366853 ], [ -52.9550343, -27.9367007 ], [ -52.9560348, -27.9366717 ], [ -52.9568253, -27.9366361 ], [ -52.9574651, -27.9366551 ], [ -52.9581792, -27.9366426 ], [ -52.958784496929248, -27.936649562302676 ], [ -52.954819047999898, -27.936377463999985 ], [ -52.954906457261991, -27.936304292809861 ], [ -52.9547956, -27.9363381 ] ] ] ] } }
]
}
