{
"type": "FeatureCollection",
"name": "bairros_rodeio_bonito",
"crs": { "type": "name", "properties": { "name": "urn:ogc:def:crs:OGC:1.3:CRS84" } },
"features": [
{ "type": "Feature", "properties": { "code_muni": 4315909.0, "name_muni": "Rodeio Bonito", "code_state": 43.0, "abbrev_state": "RS", "name_state": "Rio Grande do Sul", "code_region": 4.0, "name_region": "Sul", "year": 2022.0 }, "geometry": { "type": "Polygon", "coordinates": [ [ [ -53.165665949999898, -27.508649467999895 ], [ -53.173075614, -27.508661217999901 ], [ -53.176802037999892, -27.510457390999903 ], [ -53.180105490999892, -27.509251467 ], [ -53.190923634999891, -27.519901079 ], [ -53.1950148, -27.520142726 ], [ -53.19554196, -27.514468001 ], [ -53.192627703, -27.510753165 ], [ -53.192950842999899, -27.5080812859999 ], [ -53.188351024, -27.494251706999901 ], [ -53.213870427, -27.4852660409999 ], [ -53.212303275, -27.492335496 ], [ -53.226243059, -27.492062657 ], [ -53.226398914, -27.49466691 ], [ -53.243973755, -27.50272616 ], [ -53.246761718999892, -27.495779351 ], [ -53.24006968, -27.491775829999902 ], [ -53.234566820999902, -27.482070258 ], [ -53.230725658, -27.480863132 ], [ -53.219754129, -27.470562393 ], [ -53.212982129, -27.468312997999899 ], [ -53.212536417, -27.467262988999899 ], [ -53.214324822, -27.467586443 ], [ -53.21451582799989, -27.465747983 ], [ -53.212764783999894, -27.464915613 ], [ -53.209801974, -27.465978148 ], [ -53.20620739, -27.463508965999893 ], [ -53.203564338, -27.464861124 ], [ -53.204266547, -27.462523997999899 ], [ -53.201724000999896, -27.460594913 ], [ -53.20338773799989, -27.456307932999898 ], [ -53.206761921, -27.453012504999901 ], [ -53.205568281999902, -27.451581374999897 ], [ -53.206442651, -27.449039903 ], [ -53.203334973, -27.448976413 ], [ -53.202573378999901, -27.447628065999901 ], [ -53.204026488999894, -27.444901506 ], [ -53.199697263, -27.430284929 ], [ -53.203565208, -27.424869772 ], [ -53.203412234, -27.422627351 ], [ -53.198785180999892, -27.422279826 ], [ -53.187847883, -27.425083599999898 ], [ -53.181907662999897, -27.424574649 ], [ -53.179589920999895, -27.422175512 ], [ -53.177044053, -27.41506953 ], [ -53.1783581, -27.411989237999901 ], [ -53.1830154949999, -27.409086849999895 ], [ -53.18263099699989, -27.405095215999896 ], [ -53.177457279, -27.402840083999898 ], [ -53.175721775999897, -27.404114845 ], [ -53.173569993999891, -27.403165430999898 ], [ -53.170820057999897, -27.40527695 ], [ -53.167330809, -27.405232703 ], [ -53.16381532899991, -27.407061572 ], [ -53.157027082, -27.404274740999895 ], [ -53.150294506, -27.40350747 ], [ -53.146977348999897, -27.401075141 ], [ -53.142838851, -27.40564834 ], [ -53.145008899999901, -27.408269558 ], [ -53.137397485999891, -27.415176475999896 ], [ -53.124101136, -27.434291777999892 ], [ -53.133228422999899, -27.444259691 ], [ -53.128095, -27.450161717 ], [ -53.132548764, -27.450066792 ], [ -53.139151048, -27.445813307 ], [ -53.141484203999902, -27.441172310999896 ], [ -53.142661489, -27.442102695 ], [ -53.142507893999898, -27.446923179 ], [ -53.140123737, -27.448476825999897 ], [ -53.139441206999891, -27.451959412999898 ], [ -53.135672707, -27.454199254999896 ], [ -53.136222118, -27.457562223 ], [ -53.126455961, -27.455715519 ], [ -53.121457687, -27.456450208 ], [ -53.120099094, -27.458482811999897 ], [ -53.120395357999897, -27.463218552999894 ], [ -53.122306802, -27.466115509 ], [ -53.127726933, -27.469552424 ], [ -53.136855260999901, -27.468233171 ], [ -53.151154493, -27.470596859 ], [ -53.153211681999892, -27.473079197999901 ], [ -53.15279487, -27.474924735999899 ], [ -53.148025113, -27.478615240999908 ], [ -53.144896365, -27.479284575999898 ], [ -53.137884903, -27.478154877 ], [ -53.131133378999898, -27.4864698129999 ], [ -53.121681721999892, -27.491609076 ], [ -53.121159167, -27.493568438999898 ], [ -53.127046731999897, -27.494360776 ], [ -53.136654574, -27.491121619999902 ], [ -53.143325561, -27.490321821999895 ], [ -53.1516805159999, -27.494383156 ], [ -53.161372714, -27.495940742 ], [ -53.160051302999896, -27.499238184 ], [ -53.144992005999896, -27.50148724 ], [ -53.12840469, -27.50812416 ], [ -53.125901380999899, -27.510215494 ], [ -53.125420343, -27.512041578 ], [ -53.1313314, -27.516671683 ], [ -53.142974164999899, -27.52092098399989 ], [ -53.144203002, -27.522492360999898 ], [ -53.152593402, -27.520398790999906 ], [ -53.154057802999894, -27.521495968 ], [ -53.16383360399989, -27.517804806999898 ], [ -53.164242654, -27.509888010999898 ], [ -53.165665949999898, -27.508649467999895 ] ] ] } }
]
}
