{
"type": "FeatureCollection",
"name": "bairros_victor_graeff",
"crs": { "type": "name", "properties": { "name": "urn:ogc:def:crs:OGC:1.3:CRS84" } },
"features": [
{ "type": "Feature", "properties": { "code_muni": 4323200.0, "name_muni": "Victor Graeff", "code_state": 43.0, "abbrev_state": "RS", "name_state": "Rio Grande do Sul", "code_region": 4.0, "name_region": "Sul", "year": 2022.0 }, "geometry": { "type": "Polygon", "coordinates": [ [ [ -52.663649345, -28.457973717999899 ], [ -52.664703847999895, -28.45336313799989 ], [ -52.663478563, -28.450688796999895 ], [ -52.661379814999989, -28.4511418119999 ], [ -52.661435485, -28.448991578999909 ], [ -52.659526508999896, -28.449052182999903 ], [ -52.65950315, -28.446775769999903 ], [ -52.654631987999892, -28.450015225999898 ], [ -52.654501833, -28.441988212999899 ], [ -52.650915031999901, -28.441370814 ], [ -52.648168676, -28.442824935 ], [ -52.646422768, -28.44195323 ], [ -52.644800119, -28.438061359 ], [ -52.641975945, -28.43857452 ], [ -52.641270753999891, -28.434960605 ], [ -52.638610741, -28.433261409 ], [ -52.641523393999897, -28.431965209999891 ], [ -52.642730458, -28.428009495 ], [ -52.640794806, -28.426111865999889 ], [ -52.642162325, -28.423416284 ], [ -52.637195317, -28.424858862999905 ], [ -52.635138313, -28.423521093 ], [ -52.637420198, -28.428579864 ], [ -52.633632491999897, -28.425287781999899 ], [ -52.631320527, -28.429171864 ], [ -52.631757107999896, -28.425545918999891 ], [ -52.62945537, -28.420072763 ], [ -52.632595736, -28.414618222999895 ], [ -52.629167373, -28.415806206 ], [ -52.626409451, -28.413282116999898 ], [ -52.624348719999894, -28.413286582999888 ], [ -52.625997244, -28.410662565999907 ], [ -52.622378674999894, -28.408412998 ], [ -52.622275156999898, -28.404030108 ], [ -52.613286881, -28.406323357 ], [ -52.611801531, -28.409564155999892 ], [ -52.604740160999903, -28.411650903 ], [ -52.601053931, -28.417143371999895 ], [ -52.601815771, -28.420297042999906 ], [ -52.599626800999893, -28.424217912999904 ], [ -52.59210863, -28.423010892 ], [ -52.589635947, -28.426664323 ], [ -52.589078571999899, -28.435362595999909 ], [ -52.595035686, -28.4495448129999 ], [ -52.598390701, -28.453025655 ], [ -52.598130431, -28.455650063 ], [ -52.600074389, -28.456434203 ], [ -52.599954619, -28.457929653999898 ], [ -52.605166562, -28.456655194999897 ], [ -52.604181258, -28.459451714 ], [ -52.606259031, -28.460940826 ], [ -52.609498545, -28.460272086 ], [ -52.60891902, -28.463512137999896 ], [ -52.606235671, -28.465833904 ], [ -52.606948877, -28.467590496 ], [ -52.609534407999902, -28.468218685 ], [ -52.60789914, -28.471129472 ], [ -52.612530395, -28.471354509 ], [ -52.614683441, -28.473049057 ], [ -52.611853217, -28.475269291 ], [ -52.611588329, -28.479281199 ], [ -52.612585677, -28.479705467 ], [ -52.61071523, -28.48067875 ], [ -52.611683379999896, -28.484741132999897 ], [ -52.615706809999899, -28.489406614 ], [ -52.620568187999901, -28.487941287 ], [ -52.620250767, -28.489573682999893 ], [ -52.622770255, -28.490536568 ], [ -52.621055767, -28.49129054 ], [ -52.622300433, -28.492187273 ], [ -52.618116240999903, -28.501480351999902 ], [ -52.621931640999897, -28.504378021 ], [ -52.620502627999905, -28.512143734999899 ], [ -52.622136562, -28.512976760999901 ], [ -52.617845347, -28.514738404999903 ], [ -52.617623968, -28.516046084 ], [ -52.618627766, -28.516865525 ], [ -52.617799658, -28.517872261 ], [ -52.620848998, -28.519788257999892 ], [ -52.620251775, -28.523881002999889 ], [ -52.623034058, -28.522745642 ], [ -52.626657413, -28.526458842 ], [ -52.633060268999898, -28.517473421 ], [ -52.633177641, -28.519413777 ], [ -52.636169896, -28.52001094 ], [ -52.640708259, -28.526594896999889 ], [ -52.642990649999902, -28.526360694999905 ], [ -52.64521336, -28.528166582 ], [ -52.646137606, -28.534755248 ], [ -52.650555327999903, -28.5394507419999 ], [ -52.649815547999907, -28.541530986999899 ], [ -52.646223268, -28.541402307999899 ], [ -52.638112964999898, -28.54884612 ], [ -52.63634599999989, -28.552337774 ], [ -52.63853489600001, -28.5537021449999 ], [ -52.636987158, -28.558417518999899 ], [ -52.63827779199989, -28.559544630999891 ], [ -52.637043876, -28.560678888 ], [ -52.638369108999903, -28.561978657999902 ], [ -52.637775234999893, -28.564760357 ], [ -52.641161361999892, -28.567153426999894 ], [ -52.638295124, -28.568043098 ], [ -52.639140175, -28.569492312 ], [ -52.63786720600001, -28.570634301 ], [ -52.6391232779999, -28.5718377429999 ], [ -52.637380929999892, -28.571882511 ], [ -52.637589046, -28.573897304 ], [ -52.639450962999902, -28.574174898 ], [ -52.638695559, -28.575604454 ], [ -52.639896193, -28.575957505 ], [ -52.638433291, -28.576443531999896 ], [ -52.639406821, -28.578637407 ], [ -52.637768858999898, -28.578664279 ], [ -52.640391772, -28.579946377999892 ], [ -52.639507409, -28.584085611 ], [ -52.636080541999902, -28.586712556 ], [ -52.642941439, -28.598876494 ], [ -52.647458527, -28.60087206 ], [ -52.646633956, -28.60649416 ], [ -52.653596098, -28.610828827 ], [ -52.658691967, -28.612073774 ], [ -52.660572955, -28.611630463 ], [ -52.660960926, -28.607243514999904 ], [ -52.664136052999901, -28.606415975999905 ], [ -52.668504567999904, -28.614329328999904 ], [ -52.668831729, -28.618145044 ], [ -52.664476878999892, -28.625461979 ], [ -52.666215690999898, -28.627868898 ], [ -52.669075668999902, -28.628721573999893 ], [ -52.667784098, -28.632356288 ], [ -52.668781179, -28.634146931 ], [ -52.678641355, -28.628946867 ], [ -52.680785848, -28.629039926 ], [ -52.682990079, -28.633604611 ], [ -52.687254693999897, -28.636421911999904 ], [ -52.689695118, -28.636088273999984 ], [ -52.702314955, -28.628712752 ], [ -52.710201599999898, -28.632433649999903 ], [ -52.710979516, -28.633721215 ], [ -52.704079254, -28.638691266 ], [ -52.700930236, -28.643489463 ], [ -52.702213152999903, -28.647622806999898 ], [ -52.69819158, -28.651975923 ], [ -52.700558604, -28.653058678 ], [ -52.706381031, -28.65082382 ], [ -52.708640945999896, -28.651218871 ], [ -52.708745397, -28.65605182 ], [ -52.699478548999899, -28.656774216 ], [ -52.6948986949999, -28.658752800999885 ], [ -52.695385933999894, -28.666329267 ], [ -52.69652640399989, -28.667507633 ], [ -52.701526691, -28.664897917 ], [ -52.69956508, -28.661284015 ], [ -52.703366118, -28.658667212999902 ], [ -52.705364564, -28.661455041999908 ], [ -52.705026368999903, -28.666163765 ], [ -52.706573192999898, -28.668251697 ], [ -52.721084901, -28.665964506 ], [ -52.725947041, -28.672011486 ], [ -52.7144655069999, -28.683824060999893 ], [ -52.708916680999891, -28.686057317999893 ], [ -52.708495846999895, -28.689664621 ], [ -52.710799517999895, -28.69240296 ], [ -52.713317526, -28.692770638 ], [ -52.721495959, -28.685193345 ], [ -52.728407362, -28.685251218000012 ], [ -52.734666651999895, -28.688142637999889 ], [ -52.740165035, -28.688034236 ], [ -52.744182456, -28.679800559999901 ], [ -52.730189229, -28.679961451999894 ], [ -52.731106060999899, -28.672657150999989 ], [ -52.736418186, -28.669501445 ], [ -52.742048884, -28.669197508 ], [ -52.748259792999903, -28.666126354 ], [ -52.757366385999902, -28.6712208289999 ], [ -52.75879929, -28.668484172 ], [ -52.757817072, -28.664237699999905 ], [ -52.764972851, -28.660698979999886 ], [ -52.768971319999899, -28.654524852999891 ], [ -52.76924861, -28.647598715999909 ], [ -52.764352561, -28.653226086 ], [ -52.762873254999896, -28.65114572100001 ], [ -52.762733757, -28.643683517999897 ], [ -52.753688892, -28.642281664999896 ], [ -52.751547197, -28.640197794 ], [ -52.752467957, -28.638449754 ], [ -52.759068342, -28.639992612 ], [ -52.762026175, -28.639395362999895 ], [ -52.763888672999897, -28.636519106 ], [ -52.764668426, -28.633167436999898 ], [ -52.76374695, -28.630111504999903 ], [ -52.761596010999895, -28.628731398 ], [ -52.765733933, -28.623481512 ], [ -52.76434591, -28.623330836 ], [ -52.762956894999895, -28.625271369 ], [ -52.760782327, -28.620339188999893 ], [ -52.762976916, -28.618940113999891 ], [ -52.765298136999903, -28.614491008 ], [ -52.762734317, -28.610934732 ], [ -52.759793769999902, -28.610477535 ], [ -52.761211562, -28.606769030999896 ], [ -52.76043227, -28.605301293 ], [ -52.752158418, -28.599759164 ], [ -52.749473142999896, -28.600223410999892 ], [ -52.746700123, -28.589984333 ], [ -52.751717265, -28.592013563 ], [ -52.754785172, -28.591767494999903 ], [ -52.755619017999891, -28.588936003999898 ], [ -52.759993837, -28.586557325999895 ], [ -52.763402471999903, -28.586794131 ], [ -52.765892395, -28.583151257999901 ], [ -52.764399744999899, -28.580452796 ], [ -52.766113167999897, -28.573608228 ], [ -52.76115147, -28.572829559999899 ], [ -52.769566779999892, -28.571877626999903 ], [ -52.764959642, -28.563937209999903 ], [ -52.761061249, -28.559764297 ], [ -52.759875821, -28.561234850999902 ], [ -52.7572086, -28.557378007999908 ], [ -52.757650812, -28.552791769999903 ], [ -52.763272749999899, -28.549811764 ], [ -52.761666638, -28.546984129 ], [ -52.762969954, -28.544765814999902 ], [ -52.757165761999907, -28.541095984 ], [ -52.755025479, -28.543572715 ], [ -52.752128445, -28.543399071999897 ], [ -52.752838727, -28.5471225749999 ], [ -52.746132303, -28.548985166 ], [ -52.746190355, -28.555040211999895 ], [ -52.7446745989999, -28.554793445 ], [ -52.743307487, -28.549345186 ], [ -52.747643579999895, -28.544334851 ], [ -52.746153971999895, -28.542755827999905 ], [ -52.744510342999895, -28.545120589 ], [ -52.733475152, -28.548085523999905 ], [ -52.732085463, -28.550974853 ], [ -52.729422466, -28.551126788 ], [ -52.726164248, -28.553607010999897 ], [ -52.729105865, -28.554428487999903 ], [ -52.727955051, -28.55553821 ], [ -52.723484348999897, -28.556339785 ], [ -52.721265671, -28.550918506 ], [ -52.727142283, -28.548593782 ], [ -52.726842221, -28.546352676 ], [ -52.731169565999899, -28.54289454 ], [ -52.736238199, -28.542456425999895 ], [ -52.731887664999896, -28.537457516999989 ], [ -52.730915954, -28.5393294789999 ], [ -52.72635551, -28.540769968999889 ], [ -52.722702402, -28.536616336999899 ], [ -52.723689701999895, -28.533121568999892 ], [ -52.732383919, -28.5300597889999 ], [ -52.729849959, -28.528526781 ], [ -52.731189994, -28.526093499 ], [ -52.727389925999901, -28.524417802 ], [ -52.726369997999903, -28.521380539999907 ], [ -52.721803001999895, -28.524270632 ], [ -52.7179119319999, -28.520760596999892 ], [ -52.724284074, -28.51405424 ], [ -52.729083471, -28.513379266999891 ], [ -52.725157243, -28.507028149 ], [ -52.723026467999894, -28.506422635 ], [ -52.722960405, -28.508939090999903 ], [ -52.714163194, -28.514802395999897 ], [ -52.71197237, -28.510807568 ], [ -52.715058098, -28.507387754 ], [ -52.714968254, -28.501314351 ], [ -52.719364357, -28.496181839 ], [ -52.7126266779999, -28.497640182999898 ], [ -52.708246313, -28.488363047 ], [ -52.706854264, -28.488777448999901 ], [ -52.706462285, -28.4934506069999 ], [ -52.703101607, -28.494140334999891 ], [ -52.700719402999901, -28.496831336 ], [ -52.700665807, -28.5057082229999 ], [ -52.698289636, -28.504219457 ], [ -52.695949288999898, -28.507464698 ], [ -52.694451188999892, -28.505516058999902 ], [ -52.688940790999894, -28.506698097 ], [ -52.685712142999897, -28.511196718 ], [ -52.683607529, -28.508001613 ], [ -52.68637396, -28.505768438 ], [ -52.685361282, -28.500852639999895 ], [ -52.690126448999891, -28.4992828439999 ], [ -52.690578458999902, -28.496096211999905 ], [ -52.689930261, -28.494574316999902 ], [ -52.684581819, -28.49171602 ], [ -52.688718201, -28.487603266 ], [ -52.690362203999889, -28.49077762 ], [ -52.692742735, -28.492128527 ], [ -52.694151492999893, -28.49069678 ], [ -52.69777339199991, -28.491022014 ], [ -52.700056087, -28.489362199 ], [ -52.700036402, -28.486050121999895 ], [ -52.687628651999901, -28.486345951 ], [ -52.684871803, -28.485707644999895 ], [ -52.685176854, -28.484415073 ], [ -52.689563898, -28.482473534 ], [ -52.690806075, -28.480546721999904 ], [ -52.697684231, -28.480310526 ], [ -52.694878765999896, -28.475576979 ], [ -52.689451474, -28.474869818999892 ], [ -52.688777818999895, -28.478479245999893 ], [ -52.684319796999894, -28.475283096999895 ], [ -52.68530334, -28.466779679 ], [ -52.689352237, -28.470747722999896 ], [ -52.693602943, -28.470704705999889 ], [ -52.688600602999891, -28.4647969399999 ], [ -52.688594646999903, -28.461392066 ], [ -52.685247323999903, -28.461075579 ], [ -52.67542774399989, -28.455647589 ], [ -52.673127504999989, -28.455797495999896 ], [ -52.6709394169999, -28.458571983 ], [ -52.666359218, -28.455210781999899 ], [ -52.663649345, -28.457973717999899 ] ] ] } }
]
}
