{
"type": "FeatureCollection",
"name": "bairros_frederico_westphalen",
"crs": { "type": "name", "properties": { "name": "urn:ogc:def:crs:OGC:1.3:CRS84" } },
"features": [
{ "type": "Feature", "properties": { "name": "Faguense", "code_muni": 4308508.0, "name_muni": "Frederico Westphalen" }, "geometry": { "type": "Polygon", "coordinates": [ [ [ -53.4266376, -27.3852005 ], [ -53.4228417, -27.3844538 ], [ -53.4227184, -27.3850321 ], [ -53.4226527, -27.3853236 ], [ -53.4225976, -27.3855768 ], [ -53.4225896, -27.3856339 ], [ -53.4226325, -27.3856387 ], [ -53.4225628, -27.385853 ], [ -53.4226057, -27.3858697 ], [ -53.4225285, -27.3861141 ], [ -53.4225132, -27.3861627 ], [ -53.4225561, -27.3861722 ], [ -53.4225588, -27.3861543 ], [ -53.4226768, -27.3861853 ], [ -53.4226017, -27.3864199 ], [ -53.4257627, -27.3876345 ], [ -53.4267497, -27.3869438 ], [ -53.4275007, -27.386391299999985 ], [ -53.4280908, -27.3854863 ], [ -53.4266376, -27.3852005 ] ] ] } },
{ "type": "Feature", "properties": { "name": "Jardim Paraíso", "code_muni": 4308508.0, "name_muni": "Frederico Westphalen" }, "geometry": { "type": "Polygon", "coordinates": [ [ [ -53.4114933, -27.3860674 ], [ -53.4117401, -27.3859864 ], [ -53.4118581, -27.3859769 ], [ -53.4125716, -27.3861674 ], [ -53.4130812, -27.3862008 ], [ -53.4132153, -27.3862579 ], [ -53.4133548, -27.3865628 ], [ -53.4134567, -27.3866104 ], [ -53.4135801, -27.3865961 ], [ -53.413918, -27.386377 ], [ -53.4144867, -27.3860721 ], [ -53.4147495, -27.3858673 ], [ -53.4154469, -27.3855101 ], [ -53.4158278, -27.3855149 ], [ -53.4161818, -27.3856435 ], [ -53.415978, -27.3779601 ], [ -53.4174156, -27.3783793 ], [ -53.4169865, -27.3698236 ], [ -53.417716, -27.3698522 ], [ -53.4172225, -27.3597808 ], [ -53.4162368, -27.3598399 ], [ -53.4113002, -27.3602096 ], [ -53.4112144, -27.3611434 ], [ -53.4091083, -27.3609633 ], [ -53.4090793, -27.3631444 ], [ -53.4093226, -27.3707071 ], [ -53.4092081, -27.3706621 ], [ -53.4088647, -27.3706811 ], [ -53.4087521, -27.3707097 ], [ -53.4086448, -27.3707764 ], [ -53.4084785, -27.3709289 ], [ -53.4081191, -27.3711385 ], [ -53.4078509, -27.3713767 ], [ -53.4077168, -27.3715815 ], [ -53.4076256, -27.3717864 ], [ -53.4075392, -27.3720814 ], [ -53.4074861, -27.3722627 ], [ -53.4073466, -27.3724247 ], [ -53.4068638, -27.3727677 ], [ -53.4065098, -27.373206 ], [ -53.4064615, -27.3732965 ], [ -53.4064454, -27.3733965 ], [ -53.4061664, -27.3736585 ], [ -53.4059572, -27.373911 ], [ -53.4056675, -27.3740777 ], [ -53.4052384, -27.374435 ], [ -53.4050667, -27.3747065 ], [ -53.4050131, -27.3749257 ], [ -53.4048253, -27.3753258 ], [ -53.4043533, -27.3759451 ], [ -53.4053457, -27.3762421 ], [ -53.4111178, -27.3779696 ], [ -53.4106565, -27.3847956 ], [ -53.410627, -27.3850099 ], [ -53.4106797, -27.3850969 ], [ -53.4106122, -27.3861757 ], [ -53.410631, -27.3864639 ], [ -53.4106471, -27.386544099999988 ], [ -53.4105897, -27.386585 ], [ -53.4114933, -27.3860674 ] ] ] } },
{ "type": "Feature", "properties": { "name": "Aparecida", "code_muni": 4308508.0, "name_muni": "Frederico Westphalen" }, "geometry": { "type": "Polygon", "coordinates": [ [ [ -53.405513, -27.362930399999989 ], [ -53.4047242, -27.3628557 ], [ -53.4040609, -27.3627776 ], [ -53.4033189, -27.362699 ], [ -53.4026802, -27.3626531 ], [ -53.4025877, -27.3626781 ], [ -53.4014538, -27.3625823 ], [ -53.4008782, -27.362537 ], [ -53.399798, -27.3624583 ], [ -53.3997332, -27.3624536 ], [ -53.3997197, -27.3624544 ], [ -53.3989553, -27.3627168 ], [ -53.398024, -27.3630333 ], [ -53.3975392, -27.3631986 ], [ -53.3968323, -27.3634398 ], [ -53.3967631, -27.3634632 ], [ -53.3963923, -27.3635834 ], [ -53.3958105, -27.3637879 ], [ -53.3949133, -27.3642842 ], [ -53.3947803, -27.3643567 ], [ -53.3943942, -27.3645737 ], [ -53.3942501, -27.3646864 ], [ -53.3947394, -27.3649929 ], [ -53.3951124, -27.3652822 ], [ -53.3954834, -27.365583 ], [ -53.3957051, -27.365779 ], [ -53.3958961, -27.3659479 ], [ -53.3960151, -27.3660522 ], [ -53.3961337, -27.3661707 ], [ -53.3961734, -27.3662111 ], [ -53.3963745, -27.3664158 ], [ -53.3964729, -27.3665321 ], [ -53.3966089, -27.3666929 ], [ -53.3966881, -27.3667865 ], [ -53.3969646, -27.3671134 ], [ -53.3971343, -27.3673352 ], [ -53.3971787, -27.3673932 ], [ -53.3973043, -27.3675843 ], [ -53.3975643, -27.3680628 ], [ -53.3977099, -27.3684679 ], [ -53.3977465, -27.3686134 ], [ -53.3977952, -27.3688643 ], [ -53.397835, -27.3692756 ], [ -53.3978446, -27.3697096 ], [ -53.3978259, -27.3703318 ], [ -53.3980133, -27.3705356 ], [ -53.3983204, -27.3707298 ], [ -53.3994799, -27.3714628 ], [ -53.3995718, -27.371551 ], [ -53.399958, -27.3717821 ], [ -53.4000638, -27.3718615 ], [ -53.4001166, -27.3719518 ], [ -53.4005488, -27.3722439 ], [ -53.4016442, -27.3728773 ], [ -53.4027815, -27.3733298 ], [ -53.403039, -27.3755402 ], [ -53.4043533, -27.3759451 ], [ -53.4048253, -27.3753258 ], [ -53.4050131, -27.3749257 ], [ -53.4050667, -27.3747065 ], [ -53.4052384, -27.374435 ], [ -53.4056675, -27.3740777 ], [ -53.4059572, -27.373911 ], [ -53.4061664, -27.3736585 ], [ -53.4064454, -27.3733965 ], [ -53.4064615, -27.3732965 ], [ -53.4065098, -27.373206 ], [ -53.4068638, -27.3727677 ], [ -53.4073466, -27.3724247 ], [ -53.4074861, -27.3722627 ], [ -53.4075392, -27.3720814 ], [ -53.4076256, -27.3717864 ], [ -53.4077168, -27.3715815 ], [ -53.4078509, -27.3713767 ], [ -53.4081191, -27.3711385 ], [ -53.4084785, -27.3709289 ], [ -53.4086448, -27.3707764 ], [ -53.4087521, -27.3707097 ], [ -53.4088647, -27.3706811 ], [ -53.4092081, -27.3706621 ], [ -53.4093226, -27.3707071 ], [ -53.4090793, -27.3631444 ], [ -53.405513, -27.362930399999989 ] ] ] } },
{ "type": "Feature", "properties": { "name": "Itapajé", "code_muni": 4308508.0, "name_muni": "Frederico Westphalen" }, "geometry": { "type": "Polygon", "coordinates": [ [ [ -53.4091083, -27.3609633 ], [ -53.4112144, -27.3611434 ], [ -53.4113002, -27.3602096 ], [ -53.4162368, -27.3598399 ], [ -53.4170133, -27.3488604 ], [ -53.416568, -27.3490653 ], [ -53.4164339, -27.349108199999989 ], [ -53.4157258, -27.349113 ], [ -53.4154952, -27.3491559 ], [ -53.4153879, -27.3491987 ], [ -53.4151572, -27.3492512 ], [ -53.4148246, -27.3492607 ], [ -53.4146261, -27.3493512 ], [ -53.4139341, -27.349375 ], [ -53.4138429, -27.3494322 ], [ -53.413505, -27.3495132 ], [ -53.4132582, -27.3497372 ], [ -53.4128881, -27.3497705 ], [ -53.4117723, -27.3497848 ], [ -53.4109032, -27.3501088 ], [ -53.4107101, -27.3502232 ], [ -53.4103561, -27.35049 ], [ -53.4103131, -27.3506901 ], [ -53.4103239, -27.3510761 ], [ -53.4103453, -27.3511856 ], [ -53.4106135, -27.3517098 ], [ -53.4106135, -27.3519289 ], [ -53.4104097, -27.3522839 ], [ -53.4103963, -27.3523375 ], [ -53.4094301, -27.3525917 ], [ -53.4084117, -27.3527884 ], [ -53.4081164, -27.3528442 ], [ -53.4077288, -27.3530165 ], [ -53.406778, -27.3535966 ], [ -53.4058071, -27.3541813 ], [ -53.4057495, -27.3542139 ], [ -53.4050238, -27.3546366 ], [ -53.4046537, -27.354752 ], [ -53.4042353, -27.3548354 ], [ -53.403442, -27.3549646 ], [ -53.4034188, -27.3549763 ], [ -53.4036613, -27.3567763 ], [ -53.4034903, -27.3573576 ], [ -53.4034427, -27.3573248 ], [ -53.402392, -27.356685 ], [ -53.4022782, -27.3579185 ], [ -53.4022067, -27.3591237 ], [ -53.4012808, -27.359159 ], [ -53.4011397, -27.3603427 ], [ -53.4010112, -27.3614205 ], [ -53.4008782, -27.362537 ], [ -53.4014538, -27.3625823 ], [ -53.4025877, -27.3626781 ], [ -53.4026802, -27.3626531 ], [ -53.4033189, -27.362699 ], [ -53.4040609, -27.3627776 ], [ -53.4047242, -27.3628557 ], [ -53.405513, -27.362930399999989 ], [ -53.4090793, -27.3631444 ], [ -53.4091083, -27.3609633 ] ] ] } },
{ "type": "Feature", "properties": { "name": "Fátima", "code_muni": 4308508.0, "name_muni": "Frederico Westphalen" }, "geometry": { "type": "Polygon", "coordinates": [ [ [ -53.4058071, -27.3541813 ], [ -53.406778, -27.3535966 ], [ -53.4077288, -27.3530165 ], [ -53.4081164, -27.3528442 ], [ -53.4084117, -27.3527884 ], [ -53.4094301, -27.3525917 ], [ -53.4103963, -27.3523375 ], [ -53.4104097, -27.3522839 ], [ -53.4106135, -27.3519289 ], [ -53.4106135, -27.3517098 ], [ -53.4103453, -27.3511856 ], [ -53.4103239, -27.3510761 ], [ -53.4103131, -27.3506901 ], [ -53.4103561, -27.35049 ], [ -53.4107101, -27.3502232 ], [ -53.4109032, -27.3501088 ], [ -53.4117723, -27.3497848 ], [ -53.4128881, -27.3497705 ], [ -53.4132582, -27.3497372 ], [ -53.413505, -27.3495132 ], [ -53.4138429, -27.3494322 ], [ -53.4139341, -27.349375 ], [ -53.4146261, -27.3493512 ], [ -53.4148246, -27.3492607 ], [ -53.4151572, -27.3492512 ], [ -53.4153879, -27.3491987 ], [ -53.4154952, -27.3491559 ], [ -53.4157258, -27.349113 ], [ -53.4164339, -27.349108199999989 ], [ -53.416568, -27.3490653 ], [ -53.4170133, -27.3488604 ], [ -53.4144048, -27.3416557 ], [ -53.4134509, -27.3424259 ], [ -53.4130731, -27.3427542 ], [ -53.4126386, -27.3430758 ], [ -53.4120874, -27.3435535 ], [ -53.4114692, -27.3441003 ], [ -53.4111771, -27.3443447 ], [ -53.4102166, -27.3451486 ], [ -53.4098156, -27.345475 ], [ -53.4095594, -27.3456775 ], [ -53.4090579, -27.3460831 ], [ -53.407073, -27.3459634 ], [ -53.4058392, -27.3458395 ], [ -53.4033072, -27.3449342 ], [ -53.4026336, -27.3455802 ], [ -53.4021887, -27.3461802 ], [ -53.4037017, -27.3460577 ], [ -53.4037715, -27.3466215 ], [ -53.4017461, -27.34679 ], [ -53.4010649, -27.3469068 ], [ -53.4008932, -27.346864 ], [ -53.400287, -27.3470879 ], [ -53.3994448, -27.347107 ], [ -53.3993375, -27.3472833 ], [ -53.3992571, -27.347269 ], [ -53.3991605, -27.3474977 ], [ -53.3986616, -27.3476406 ], [ -53.398666, -27.3477498 ], [ -53.39873630000001, -27.3483783 ], [ -53.3986397, -27.3494563 ], [ -53.3988277, -27.349822 ], [ -53.3990412, -27.3497678 ], [ -53.399406, -27.3495658 ], [ -53.3994503, -27.3496166 ], [ -53.3997059, -27.3499504 ], [ -53.4000939, -27.3503947 ], [ -53.4004855, -27.3509486 ], [ -53.3987475, -27.3511193 ], [ -53.3977926, -27.3510975 ], [ -53.3976404, -27.3513043 ], [ -53.3978897, -27.3517563 ], [ -53.3980597, -27.3521171 ], [ -53.3982213, -27.3524958 ], [ -53.3985919, -27.3523935 ], [ -53.3987662, -27.3528271 ], [ -53.3991887, -27.3537514 ], [ -53.3994126, -27.3543291 ], [ -53.3994926, -27.3542973 ], [ -53.3990588, -27.3549297 ], [ -53.3995494, -27.3547448 ], [ -53.3998753, -27.354621 ], [ -53.3999692, -27.3546317 ], [ -53.4001207, -27.3547722 ], [ -53.4002455, -27.3548651 ], [ -53.4003514, -27.354883 ], [ -53.4009297, -27.354787099999989 ], [ -53.4013076, -27.3555929 ], [ -53.4015158, -27.3552862 ], [ -53.4016965, -27.3551903 ], [ -53.4019876, -27.3549997 ], [ -53.4022692, -27.3547663 ], [ -53.4031208, -27.3539527 ], [ -53.4032267, -27.3538944 ], [ -53.4034188, -27.3549763 ], [ -53.403442, -27.3549646 ], [ -53.4042353, -27.3548354 ], [ -53.4046537, -27.354752 ], [ -53.4050238, -27.3546366 ], [ -53.4057495, -27.3542139 ], [ -53.4058071, -27.3541813 ] ] ] } },
{ "type": "Feature", "properties": { "name": "Santo Antônio", "code_muni": 4308508.0, "name_muni": "Frederico Westphalen" }, "geometry": { "type": "Polygon", "coordinates": [ [ [ -53.3990412, -27.3497678 ], [ -53.3988277, -27.349822 ], [ -53.3986397, -27.3494563 ], [ -53.39873630000001, -27.3483783 ], [ -53.398666, -27.3477498 ], [ -53.3986616, -27.3476406 ], [ -53.3991605, -27.3474977 ], [ -53.3992571, -27.347269 ], [ -53.3993375, -27.3472833 ], [ -53.3994448, -27.347107 ], [ -53.400287, -27.3470879 ], [ -53.4008932, -27.346864 ], [ -53.4010649, -27.3469068 ], [ -53.4017461, -27.34679 ], [ -53.4037715, -27.3466215 ], [ -53.4037017, -27.3460577 ], [ -53.4021887, -27.3461802 ], [ -53.4026336, -27.3455802 ], [ -53.4033072, -27.3449342 ], [ -53.4058392, -27.3458395 ], [ -53.407073, -27.3459634 ], [ -53.408103, -27.3415795 ], [ -53.3938766, -27.341732 ], [ -53.3934367, -27.3420656 ], [ -53.3910422, -27.3422153 ], [ -53.3910134, -27.342335399999989 ], [ -53.3905849, -27.3438926 ], [ -53.3909156, -27.3441248 ], [ -53.3912633, -27.3443441 ], [ -53.3914911, -27.3444498 ], [ -53.39167650000001, -27.3445053 ], [ -53.3918523, -27.3445451 ], [ -53.3920847, -27.3445724 ], [ -53.3925379, -27.3445845 ], [ -53.3927695, -27.3445768 ], [ -53.3935038, -27.3445256 ], [ -53.3935537, -27.3445913 ], [ -53.3935976, -27.3453011 ], [ -53.3942145, -27.3460301 ], [ -53.3945069, -27.3462707 ], [ -53.3945134, -27.3462762 ], [ -53.3945954, -27.3463446 ], [ -53.394928, -27.346621 ], [ -53.3954376, -27.3474834 ], [ -53.3957326, -27.3479694 ], [ -53.3959043, -27.3482315 ], [ -53.3961996, -27.3488438 ], [ -53.3946812, -27.3494012 ], [ -53.3947254, -27.3496 ], [ -53.3947469, -27.3497234 ], [ -53.3946907, -27.3507134 ], [ -53.3946863, -27.3508761 ], [ -53.394648, -27.3518777 ], [ -53.3949223, -27.3518876 ], [ -53.395905, -27.3519417 ], [ -53.397073, -27.3517031 ], [ -53.3972128, -27.3516607 ], [ -53.3973572, -27.3515544 ], [ -53.3976404, -27.3513043 ], [ -53.3977926, -27.3510975 ], [ -53.3987475, -27.3511193 ], [ -53.4004855, -27.3509486 ], [ -53.4000939, -27.3503947 ], [ -53.3997059, -27.3499504 ], [ -53.3994503, -27.3496166 ], [ -53.399406, -27.3495658 ], [ -53.3990412, -27.3497678 ] ] ] } },
{ "type": "Feature", "properties": { "name": "Barril", "code_muni": 4308508.0, "name_muni": "Frederico Westphalen" }, "geometry": { "type": "Polygon", "coordinates": [ [ [ -53.3959043, -27.3482315 ], [ -53.3957326, -27.3479694 ], [ -53.3954376, -27.3474834 ], [ -53.394928, -27.346621 ], [ -53.3945954, -27.3463446 ], [ -53.3945134, -27.3462762 ], [ -53.3945069, -27.3462707 ], [ -53.3942145, -27.3460301 ], [ -53.3935976, -27.3453011 ], [ -53.3935537, -27.3445913 ], [ -53.3935038, -27.3445256 ], [ -53.3927695, -27.3445768 ], [ -53.3925379, -27.3445845 ], [ -53.3920847, -27.3445724 ], [ -53.3918523, -27.3445451 ], [ -53.39167650000001, -27.3445053 ], [ -53.3914911, -27.3444498 ], [ -53.3912633, -27.3443441 ], [ -53.3909156, -27.3441248 ], [ -53.3905849, -27.3438926 ], [ -53.3902957, -27.3437533 ], [ -53.3900362, -27.3436781 ], [ -53.3896275, -27.3436275 ], [ -53.3893393, -27.3436116 ], [ -53.3892608, -27.3436073 ], [ -53.3887099, -27.343538 ], [ -53.3886664, -27.3437131 ], [ -53.3886261, -27.3438251 ], [ -53.3885175, -27.3440395 ], [ -53.3883646, -27.3443135 ], [ -53.3880991, -27.3446232 ], [ -53.3873642, -27.3452475 ], [ -53.3870222, -27.3455715 ], [ -53.3867741, -27.3458681 ], [ -53.3865488, -27.3462147 ], [ -53.3864495, -27.3464756 ], [ -53.3863556, -27.3467603 ], [ -53.3862953, -27.3471606 ], [ -53.3862859, -27.3476752 ], [ -53.3863067, -27.3483531 ], [ -53.3863181, -27.3488986 ], [ -53.386331, -27.3494874 ], [ -53.3863564, -27.3499069 ], [ -53.3863612, -27.350125 ], [ -53.3866469, -27.3503694 ], [ -53.3866715, -27.3504259 ], [ -53.3867198, -27.350489 ], [ -53.3868555, -27.350580099999984 ], [ -53.387115, -27.3507076 ], [ -53.3881745, -27.3500353 ], [ -53.3891795, -27.3494507 ], [ -53.3898325, -27.3490135 ], [ -53.3898586, -27.3490111 ], [ -53.3898827, -27.3490131 ], [ -53.3902227, -27.3492854 ], [ -53.3901863, -27.3513681 ], [ -53.3906147, -27.351312 ], [ -53.3922047, -27.35113 ], [ -53.3933455, -27.3512226 ], [ -53.3933596, -27.3509486 ], [ -53.3933736, -27.3506734 ], [ -53.3946907, -27.3507134 ], [ -53.3947469, -27.3497234 ], [ -53.3947254, -27.3496 ], [ -53.3946812, -27.3494012 ], [ -53.3961996, -27.3488438 ], [ -53.3959043, -27.3482315 ] ] ] } },
{ "type": "Feature", "properties": { "name": "Santo Inácio", "code_muni": 4308508.0, "name_muni": "Frederico Westphalen" }, "geometry": { "type": "Polygon", "coordinates": [ [ [ -53.3866208, -27.354113399999989 ], [ -53.3867191, -27.3543672 ], [ -53.3867297, -27.3543965 ], [ -53.3867924, -27.3545708 ], [ -53.3868156, -27.3546352 ], [ -53.3870994, -27.3554417 ], [ -53.3872002, -27.3557281 ], [ -53.3872561, -27.3558851 ], [ -53.3874225, -27.3565684 ], [ -53.3876046, -27.3567698 ], [ -53.3878951, -27.3573892 ], [ -53.3880621, -27.3573351 ], [ -53.389508, -27.3568685 ], [ -53.3913285, -27.3562616 ], [ -53.3924874, -27.3558844 ], [ -53.3923365, -27.3547174 ], [ -53.3922659, -27.3541078 ], [ -53.3921987, -27.3535241 ], [ -53.3921849, -27.3533684 ], [ -53.3921029, -27.3524403 ], [ -53.3922047, -27.35113 ], [ -53.3906147, -27.351312 ], [ -53.3901863, -27.3513681 ], [ -53.3902227, -27.3492854 ], [ -53.3898827, -27.3490131 ], [ -53.3898586, -27.3490111 ], [ -53.3898325, -27.3490135 ], [ -53.3891795, -27.3494507 ], [ -53.3881745, -27.3500353 ], [ -53.387115, -27.3507076 ], [ -53.3868555, -27.350580099999984 ], [ -53.3867198, -27.350489 ], [ -53.3866715, -27.3504259 ], [ -53.3866469, -27.3503694 ], [ -53.3863612, -27.350125 ], [ -53.3863636, -27.3502858 ], [ -53.3863651, -27.3504816 ], [ -53.3863731, -27.3515811 ], [ -53.3863798, -27.3521898 ], [ -53.3863945, -27.3524876 ], [ -53.3864079, -27.3529772 ], [ -53.3864113, -27.3532312 ], [ -53.3864141, -27.3532566 ], [ -53.386423, -27.3533373 ], [ -53.3864381, -27.3534301 ], [ -53.386461, -27.3535709 ], [ -53.3864833, -27.3537077 ], [ -53.3865679, -27.3539664 ], [ -53.3865954, -27.3540463 ], [ -53.3866208, -27.354113399999989 ] ] ] } },
{ "type": "Feature", "properties": { "name": "Ipiranga", "code_muni": 4308508.0, "name_muni": "Frederico Westphalen" }, "geometry": { "type": "Polygon", "coordinates": [ [ [ -53.3953486, -27.3625929 ], [ -53.3952893, -27.3624505 ], [ -53.3948165, -27.361315 ], [ -53.3945972, -27.3608194 ], [ -53.3942109, -27.3599466 ], [ -53.3941841, -27.359883 ], [ -53.3940046, -27.3594526 ], [ -53.3938637, -27.3591175 ], [ -53.3936539, -27.358584 ], [ -53.3934922, -27.3582068 ], [ -53.3933327, -27.3578345 ], [ -53.3930022, -27.3571087 ], [ -53.392827, -27.3567114 ], [ -53.3924874, -27.3558844 ], [ -53.3913285, -27.3562616 ], [ -53.389508, -27.3568685 ], [ -53.3880621, -27.3573351 ], [ -53.3878951, -27.3573892 ], [ -53.3886013, -27.359162699999988 ], [ -53.3886422, -27.3592717 ], [ -53.3887812, -27.3596733 ], [ -53.3889407, -27.3601001 ], [ -53.3897728, -27.3615532 ], [ -53.3902824, -27.3621439 ], [ -53.3907706, -27.3625441 ], [ -53.3912649, -27.3628971 ], [ -53.3917393, -27.3631876 ], [ -53.3919028, -27.3632877 ], [ -53.3929337, -27.3639022 ], [ -53.3932643, -27.3640977 ], [ -53.3936518, -27.3643221 ], [ -53.3937976, -27.3644087 ], [ -53.3939246, -27.3644842 ], [ -53.3941043, -27.3645922 ], [ -53.3942501, -27.3646864 ], [ -53.3943942, -27.3645737 ], [ -53.3947803, -27.3643567 ], [ -53.3949133, -27.3642842 ], [ -53.3958105, -27.3637879 ], [ -53.3953486, -27.3625929 ] ] ] } },
{ "type": "Feature", "properties": { "name": "Centro", "code_muni": 4308508.0, "name_muni": "Frederico Westphalen" }, "geometry": { "type": "Polygon", "coordinates": [ [ [ -53.3945972, -27.3608194 ], [ -53.3948165, -27.361315 ], [ -53.3952893, -27.3624505 ], [ -53.3953486, -27.3625929 ], [ -53.3958105, -27.3637879 ], [ -53.3963923, -27.3635834 ], [ -53.3967631, -27.3634632 ], [ -53.3968323, -27.3634398 ], [ -53.3975392, -27.3631986 ], [ -53.398024, -27.3630333 ], [ -53.3989553, -27.3627168 ], [ -53.3997197, -27.3624544 ], [ -53.3997332, -27.3624536 ], [ -53.399798, -27.3624583 ], [ -53.4008782, -27.362537 ], [ -53.4010112, -27.3614205 ], [ -53.4011397, -27.3603427 ], [ -53.4012808, -27.359159 ], [ -53.4022067, -27.3591237 ], [ -53.4022782, -27.3579185 ], [ -53.402392, -27.356685 ], [ -53.4034427, -27.3573248 ], [ -53.4034903, -27.3573576 ], [ -53.4036613, -27.3567763 ], [ -53.4034188, -27.3549763 ], [ -53.4032267, -27.3538944 ], [ -53.4031208, -27.3539527 ], [ -53.4022692, -27.3547663 ], [ -53.4019876, -27.3549997 ], [ -53.4016965, -27.3551903 ], [ -53.4015158, -27.3552862 ], [ -53.4013076, -27.3555929 ], [ -53.4009297, -27.354787099999989 ], [ -53.4003514, -27.354883 ], [ -53.4002455, -27.3548651 ], [ -53.4001207, -27.3547722 ], [ -53.3999692, -27.3546317 ], [ -53.3998753, -27.354621 ], [ -53.3995494, -27.3547448 ], [ -53.3990588, -27.3549297 ], [ -53.3994926, -27.3542973 ], [ -53.3994126, -27.3543291 ], [ -53.3991887, -27.3537514 ], [ -53.3987662, -27.3528271 ], [ -53.3985919, -27.3523935 ], [ -53.3982213, -27.3524958 ], [ -53.3980597, -27.3521171 ], [ -53.3978897, -27.3517563 ], [ -53.3976404, -27.3513043 ], [ -53.3973572, -27.3515544 ], [ -53.3972128, -27.3516607 ], [ -53.397073, -27.3517031 ], [ -53.395905, -27.3519417 ], [ -53.3949223, -27.3518876 ], [ -53.394648, -27.3518777 ], [ -53.3946863, -27.3508761 ], [ -53.3946907, -27.3507134 ], [ -53.3933736, -27.3506734 ], [ -53.3933596, -27.3509486 ], [ -53.3933455, -27.3512226 ], [ -53.3922047, -27.35113 ], [ -53.3921029, -27.3524403 ], [ -53.3921849, -27.3533684 ], [ -53.3921987, -27.3535241 ], [ -53.3922659, -27.3541078 ], [ -53.3923365, -27.3547174 ], [ -53.3924874, -27.3558844 ], [ -53.392827, -27.3567114 ], [ -53.3930022, -27.3571087 ], [ -53.3933327, -27.3578345 ], [ -53.3934922, -27.3582068 ], [ -53.3936539, -27.358584 ], [ -53.3938637, -27.3591175 ], [ -53.3940046, -27.3594526 ], [ -53.3941841, -27.359883 ], [ -53.3942109, -27.3599466 ], [ -53.3945972, -27.3608194 ] ] ] } },
{ "type": "Feature", "properties": { "name": "Barrilense", "code_muni": 4308508.0, "name_muni": "Frederico Westphalen" }, "geometry": { "type": "Polygon", "coordinates": [ [ [ -53.3910134, -27.342335399999989 ], [ -53.3910422, -27.3422153 ], [ -53.3911741, -27.3415881 ], [ -53.3911503, -27.3412826 ], [ -53.3910332, -27.3409422 ], [ -53.3907556, -27.3403536 ], [ -53.389934, -27.3389315 ], [ -53.3891948, -27.3379723 ], [ -53.38904, -27.3377532 ], [ -53.3883584, -27.336659 ], [ -53.3880534, -27.3364032 ], [ -53.3876892, -27.336343 ], [ -53.3868929, -27.3363279 ], [ -53.3865626, -27.3361022 ], [ -53.3860882, -27.3356808 ], [ -53.3857155, -27.335583 ], [ -53.3852072, -27.3356281 ], [ -53.3846397, -27.3357786 ], [ -53.3839027, -27.3358614 ], [ -53.383774, -27.3358137 ], [ -53.3834961, -27.3357109 ], [ -53.3831827, -27.3354174 ], [ -53.3831234, -27.3350863 ], [ -53.383242, -27.3348229 ], [ -53.3835046, -27.3345144 ], [ -53.383818, -27.3340554 ], [ -53.3838773, -27.3337168 ], [ -53.3837333, -27.3332653 ], [ -53.3833691, -27.3326633 ], [ -53.3861304, -27.3283317 ], [ -53.3813668, -27.3261395 ], [ -53.3784149, -27.3312256 ], [ -53.3771348, -27.3303897 ], [ -53.3752084, -27.3315533 ], [ -53.3800149, -27.333917 ], [ -53.3788133, -27.3349272 ], [ -53.3808571, -27.3422848 ], [ -53.3809698, -27.3424659 ], [ -53.3811575, -27.3426708 ], [ -53.381356, -27.342809 ], [ -53.3814633, -27.3429186 ], [ -53.3816993, -27.3430615 ], [ -53.3818871, -27.3432378 ], [ -53.3820266, -27.3435714 ], [ -53.3822089, -27.3437096 ], [ -53.3825201, -27.3438525 ], [ -53.3830834, -27.3442575 ], [ -53.3831155, -27.3446959 ], [ -53.3832014, -27.3449151 ], [ -53.3834696, -27.3452582 ], [ -53.3838773, -27.3453582 ], [ -53.384253, -27.3454877 ], [ -53.3844495, -27.3455891 ], [ -53.3864081, -27.3446843 ], [ -53.3884935, -27.3437228 ], [ -53.3885592, -27.3436898 ], [ -53.3887099, -27.343538 ], [ -53.3892608, -27.3436073 ], [ -53.3893393, -27.3436116 ], [ -53.3896275, -27.3436275 ], [ -53.3900362, -27.3436781 ], [ -53.3902957, -27.3437533 ], [ -53.3905849, -27.3438926 ], [ -53.3910134, -27.342335399999989 ] ] ] } },
{ "type": "Feature", "properties": { "name": "Distrito Industrial", "code_muni": 4308508.0, "name_muni": "Frederico Westphalen" }, "geometry": { "type": "Polygon", "coordinates": [ [ [ -53.3683205, -27.34299 ], [ -53.3687818, -27.3482601 ], [ -53.3757126, -27.3481648 ], [ -53.376056, -27.3494227 ], [ -53.3771181, -27.3494131 ], [ -53.3803582, -27.349842 ], [ -53.3813131, -27.3496657 ], [ -53.380605, -27.3474405 ], [ -53.3820133, -27.34667 ], [ -53.3832364, -27.3466815 ], [ -53.383334, -27.3466635 ], [ -53.3834112, -27.3466093 ], [ -53.3834397, -27.3465118 ], [ -53.3831891, -27.3460399 ], [ -53.38335690000001, -27.3460253 ], [ -53.3835715, -27.3459654 ], [ -53.3839537, -27.3458193 ], [ -53.3844495, -27.3455891 ], [ -53.384253, -27.3454877 ], [ -53.3838773, -27.3453582 ], [ -53.3834696, -27.3452582 ], [ -53.3832014, -27.3449151 ], [ -53.3831155, -27.3446959 ], [ -53.3830834, -27.3442575 ], [ -53.3825201, -27.3438525 ], [ -53.3822089, -27.3437096 ], [ -53.3820266, -27.3435714 ], [ -53.3818871, -27.3432378 ], [ -53.3816993, -27.3430615 ], [ -53.3814633, -27.3429186 ], [ -53.381356, -27.342809 ], [ -53.3811575, -27.3426708 ], [ -53.3809698, -27.3424659 ], [ -53.3808571, -27.3422848 ], [ -53.3683205, -27.34299 ] ] ] } },
{ "type": "Feature", "properties": { "name": "São Francisco de Paula", "code_muni": 4308508.0, "name_muni": "Frederico Westphalen" }, "geometry": { "type": "Polygon", "coordinates": [ [ [ -53.3885592, -27.3436898 ], [ -53.3884935, -27.3437228 ], [ -53.3864081, -27.3446843 ], [ -53.3844495, -27.3455891 ], [ -53.3839537, -27.3458193 ], [ -53.3835715, -27.3459654 ], [ -53.38335690000001, -27.3460253 ], [ -53.3831891, -27.3460399 ], [ -53.3834397, -27.3465118 ], [ -53.3834112, -27.3466093 ], [ -53.383334, -27.3466635 ], [ -53.3832364, -27.3466815 ], [ -53.3820133, -27.34667 ], [ -53.380605, -27.3474405 ], [ -53.3813131, -27.3496657 ], [ -53.3803582, -27.349842 ], [ -53.3771181, -27.3494131 ], [ -53.3790064, -27.3560074 ], [ -53.3818656, -27.3552284 ], [ -53.3829385, -27.3549854 ], [ -53.3831095, -27.3549882 ], [ -53.3832791, -27.3549711 ], [ -53.3833891, -27.354967 ], [ -53.3834146, -27.3549735 ], [ -53.383434, -27.3549843 ], [ -53.3835643, -27.3551986 ], [ -53.3837616, -27.3551159 ], [ -53.3841105, -27.3549794 ], [ -53.3842625, -27.3549237 ], [ -53.3853429, -27.3545161 ], [ -53.3862231, -27.3541663 ], [ -53.3863886, -27.3541057 ], [ -53.3864352, -27.35409 ], [ -53.3865954, -27.3540463 ], [ -53.3865679, -27.3539664 ], [ -53.3864833, -27.3537077 ], [ -53.386461, -27.3535709 ], [ -53.3864381, -27.3534301 ], [ -53.386423, -27.3533373 ], [ -53.3864141, -27.3532566 ], [ -53.3864113, -27.3532312 ], [ -53.3864079, -27.3529772 ], [ -53.3863945, -27.3524876 ], [ -53.3863798, -27.3521898 ], [ -53.3863731, -27.3515811 ], [ -53.3863651, -27.3504816 ], [ -53.3863636, -27.3502858 ], [ -53.3863612, -27.350125 ], [ -53.3863564, -27.3499069 ], [ -53.386331, -27.3494874 ], [ -53.3863181, -27.3488986 ], [ -53.3863067, -27.3483531 ], [ -53.3862859, -27.3476752 ], [ -53.3862953, -27.3471606 ], [ -53.3863556, -27.3467603 ], [ -53.3864495, -27.3464756 ], [ -53.3865488, -27.3462147 ], [ -53.3867741, -27.3458681 ], [ -53.3870222, -27.3455715 ], [ -53.3873642, -27.3452475 ], [ -53.3880991, -27.3446232 ], [ -53.3883646, -27.3443135 ], [ -53.3885175, -27.3440395 ], [ -53.3886261, -27.3438251 ], [ -53.3886664, -27.3437131 ], [ -53.3887099, -27.343538 ], [ -53.3885592, -27.3436898 ] ] ] } },
{ "type": "Feature", "properties": { "name": "São José", "code_muni": 4308508.0, "name_muni": "Frederico Westphalen" }, "geometry": { "type": "Polygon", "coordinates": [ [ [ -53.3802887, -27.3596189 ], [ -53.3804441, -27.3595855 ], [ -53.380841, -27.3593902 ], [ -53.3813399, -27.3592139 ], [ -53.3815169, -27.3591091 ], [ -53.383019, -27.3583992 ], [ -53.3832336, -27.358275299999988 ], [ -53.3835554, -27.3580085 ], [ -53.3839202, -27.3577512 ], [ -53.3844781, -27.3574368 ], [ -53.3848161, -27.3570937 ], [ -53.3851433, -27.3569556 ], [ -53.3853578, -27.3572686 ], [ -53.3855242, -27.3571509 ], [ -53.3856475, -27.3571092 ], [ -53.3857776, -27.3570961 ], [ -53.3861035, -27.3570604 ], [ -53.3864307, -27.356983 ], [ -53.3865944, -27.3569198 ], [ -53.3870525, -27.3567352 ], [ -53.3874225, -27.3565684 ], [ -53.3872561, -27.3558851 ], [ -53.3872002, -27.3557281 ], [ -53.3870994, -27.3554417 ], [ -53.3868156, -27.3546352 ], [ -53.3867924, -27.3545708 ], [ -53.3867297, -27.3543965 ], [ -53.3867191, -27.3543672 ], [ -53.3866208, -27.354113399999989 ], [ -53.3865954, -27.3540463 ], [ -53.3864352, -27.35409 ], [ -53.3863886, -27.3541057 ], [ -53.3862231, -27.3541663 ], [ -53.3853429, -27.3545161 ], [ -53.3842625, -27.3549237 ], [ -53.3841105, -27.3549794 ], [ -53.3837616, -27.3551159 ], [ -53.3835643, -27.3551986 ], [ -53.383434, -27.3549843 ], [ -53.3834146, -27.3549735 ], [ -53.3833891, -27.354967 ], [ -53.3832791, -27.3549711 ], [ -53.3831095, -27.3549882 ], [ -53.3829385, -27.3549854 ], [ -53.3818656, -27.3552284 ], [ -53.3790064, -27.3560074 ], [ -53.3802887, -27.3596189 ] ] ] } },
{ "type": "Feature", "properties": { "name": "Jardim Primavera", "code_muni": 4308508.0, "name_muni": "Frederico Westphalen" }, "geometry": { "type": "Polygon", "coordinates": [ [ [ -53.3907706, -27.3625441 ], [ -53.3902824, -27.3621439 ], [ -53.3897728, -27.3615532 ], [ -53.3889407, -27.3601001 ], [ -53.3887812, -27.3596733 ], [ -53.3886422, -27.3592717 ], [ -53.3886013, -27.359162699999988 ], [ -53.3878951, -27.3573892 ], [ -53.3876046, -27.3567698 ], [ -53.3874225, -27.3565684 ], [ -53.3870525, -27.3567352 ], [ -53.3865944, -27.3569198 ], [ -53.3864307, -27.356983 ], [ -53.3861035, -27.3570604 ], [ -53.3857776, -27.3570961 ], [ -53.3856475, -27.3571092 ], [ -53.3855242, -27.3571509 ], [ -53.3853578, -27.3572686 ], [ -53.3851433, -27.3569556 ], [ -53.3848161, -27.3570937 ], [ -53.3844781, -27.3574368 ], [ -53.3839202, -27.3577512 ], [ -53.3835554, -27.3580085 ], [ -53.3832336, -27.358275299999988 ], [ -53.383019, -27.3583992 ], [ -53.3815169, -27.3591091 ], [ -53.3813399, -27.3592139 ], [ -53.380841, -27.3593902 ], [ -53.3804441, -27.3595855 ], [ -53.3802887, -27.3596189 ], [ -53.380208, -27.3664698 ], [ -53.381989, -27.366203 ], [ -53.3827829, -27.3684993 ], [ -53.3907116, -27.3676036 ], [ -53.3925247, -27.3669367 ], [ -53.3938766, -27.365879 ], [ -53.3947394, -27.3649929 ], [ -53.3942501, -27.3646864 ], [ -53.3941043, -27.3645922 ], [ -53.3939246, -27.3644842 ], [ -53.3937976, -27.3644087 ], [ -53.3936518, -27.3643221 ], [ -53.3932643, -27.3640977 ], [ -53.3929337, -27.3639022 ], [ -53.3919028, -27.3632877 ], [ -53.3917393, -27.3631876 ], [ -53.3912649, -27.3628971 ], [ -53.3907706, -27.3625441 ] ] ] } },
{ "type": "Feature", "properties": { "name": "Panosso", "code_muni": 4308508.0, "name_muni": "Frederico Westphalen" }, "geometry": { "type": "Polygon", "coordinates": [ [ [ -53.3978446, -27.3697096 ], [ -53.397835, -27.3692756 ], [ -53.3977952, -27.3688643 ], [ -53.3977465, -27.3686134 ], [ -53.3977099, -27.3684679 ], [ -53.3975643, -27.3680628 ], [ -53.3973043, -27.3675843 ], [ -53.3971787, -27.3673932 ], [ -53.3971343, -27.3673352 ], [ -53.3969646, -27.3671134 ], [ -53.3966881, -27.3667865 ], [ -53.3966089, -27.3666929 ], [ -53.3964729, -27.3665321 ], [ -53.3963745, -27.3664158 ], [ -53.3961734, -27.3662111 ], [ -53.3961337, -27.3661707 ], [ -53.3960151, -27.3660522 ], [ -53.3958961, -27.3659479 ], [ -53.3957051, -27.365779 ], [ -53.3954834, -27.365583 ], [ -53.3951124, -27.3652822 ], [ -53.3947394, -27.3649929 ], [ -53.3938766, -27.365879 ], [ -53.3925247, -27.3669367 ], [ -53.3907116, -27.3676036 ], [ -53.3827829, -27.3684993 ], [ -53.3845639, -27.3734918 ], [ -53.3848214, -27.3734441 ], [ -53.3854008, -27.373225 ], [ -53.385905, -27.3730821 ], [ -53.3861411, -27.3730726 ], [ -53.3863664, -27.3730916 ], [ -53.386817, -27.373225 ], [ -53.3872569, -27.3732631 ], [ -53.3874822, -27.3732631 ], [ -53.3876884, -27.3732989 ], [ -53.3879221, -27.3733393 ], [ -53.3886194, -27.3733393 ], [ -53.388834, -27.3733298 ], [ -53.3891773, -27.3731678 ], [ -53.3893919, -27.3731583 ], [ -53.389864, -27.373063 ], [ -53.3903039, -27.3730059 ], [ -53.3905184, -27.3729392 ], [ -53.3907223, -27.3728249 ], [ -53.3908188, -27.3726343 ], [ -53.390851, -27.3724342 ], [ -53.3910012, -27.3722818 ], [ -53.3911944, -27.3721675 ], [ -53.3918059, -27.3716339 ], [ -53.3918595, -27.3714338 ], [ -53.3919883, -27.3712623 ], [ -53.3920634, -27.3710718 ], [ -53.3922029, -27.3709098 ], [ -53.39275, -27.370481 ], [ -53.3931792, -27.3703381 ], [ -53.3932757, -27.370138 ], [ -53.3933187, -27.3699475 ], [ -53.39378, -27.3696617 ], [ -53.3949065, -27.3696617 ], [ -53.3951962, -27.369728399999989 ], [ -53.3953089, -27.3697141 ], [ -53.3956415, -27.3695997 ], [ -53.3957326, -27.3695235 ], [ -53.3958346, -27.3694902 ], [ -53.3960545, -27.3694616 ], [ -53.3967733, -27.3694711 ], [ -53.39724, -27.3696283 ], [ -53.3978259, -27.3703318 ], [ -53.3978446, -27.3697096 ] ] ] } },
{ "type": "Feature", "properties": { "name": "São Cristóvão", "code_muni": 4308508.0, "name_muni": "Frederico Westphalen" }, "geometry": { "type": "Polygon", "coordinates": [ [ [ -53.3866453, -27.3824949 ], [ -53.3977068, -27.3870581 ], [ -53.394059, -27.3882299 ], [ -53.3955717, -27.3907829 ], [ -53.3964515, -27.3904209 ], [ -53.3973527, -27.3925547 ], [ -53.4032965, -27.390821 ], [ -53.4079313, -27.3935263 ], [ -53.4076524, -27.3863722 ], [ -53.4075075, -27.386277 ], [ -53.4060001, -27.386277 ], [ -53.4054315, -27.3860293 ], [ -53.4046483, -27.3859816 ], [ -53.4042299, -27.3857816 ], [ -53.4041119, -27.3856196 ], [ -53.4039402, -27.3852481 ], [ -53.4035647, -27.3847146 ], [ -53.4031463, -27.3842288 ], [ -53.40302830000001, -27.3842764 ], [ -53.40302830000001, -27.3832761 ], [ -53.4028566, -27.3831713 ], [ -53.4022343, -27.3830094 ], [ -53.4020305, -27.3829331 ], [ -53.4016335, -27.3827426 ], [ -53.4014297, -27.3826759 ], [ -53.4010756, -27.3827378 ], [ -53.4009576, -27.3826759 ], [ -53.4008932, -27.3825949 ], [ -53.400861, -27.3824997 ], [ -53.400802, -27.3824139 ], [ -53.4005606, -27.3821948 ], [ -53.4002227, -27.3817995 ], [ -53.4001797, -27.3817137 ], [ -53.4000993, -27.3816375 ], [ -53.399654, -27.3813755 ], [ -53.3870852, -27.3779506 ], [ -53.3866453, -27.3824949 ] ] ] } },
{ "type": "Feature", "properties": { "name": "Bela Vista", "code_muni": 4308508.0, "name_muni": "Frederico Westphalen" }, "geometry": { "type": "Polygon", "coordinates": [ [ [ -53.408457, -27.3869391 ], [ -53.4087253, -27.3869391 ], [ -53.408854, -27.3869343 ], [ -53.4094602, -27.3867009 ], [ -53.4097177, -27.3866866 ], [ -53.4099215, -27.3867914 ], [ -53.4101629, -27.3868295 ], [ -53.4105897, -27.386585 ], [ -53.4106471, -27.386544099999988 ], [ -53.410631, -27.3864639 ], [ -53.4106122, -27.3861757 ], [ -53.4106797, -27.3850969 ], [ -53.410627, -27.3850099 ], [ -53.4106565, -27.3847956 ], [ -53.4111178, -27.3779696 ], [ -53.4053457, -27.3762421 ], [ -53.4043533, -27.3759451 ], [ -53.403039, -27.3755402 ], [ -53.4027815, -27.3733298 ], [ -53.4016442, -27.3728773 ], [ -53.4005488, -27.3722439 ], [ -53.4001166, -27.3719518 ], [ -53.4000638, -27.3718615 ], [ -53.399958, -27.3717821 ], [ -53.3995718, -27.371551 ], [ -53.3994799, -27.3714628 ], [ -53.3983204, -27.3707298 ], [ -53.3980133, -27.3705356 ], [ -53.3978259, -27.3703318 ], [ -53.39724, -27.3696283 ], [ -53.3967733, -27.3694711 ], [ -53.3960545, -27.3694616 ], [ -53.3958346, -27.3694902 ], [ -53.3957326, -27.3695235 ], [ -53.3956415, -27.3695997 ], [ -53.3953089, -27.3697141 ], [ -53.3951962, -27.369728399999989 ], [ -53.3949065, -27.3696617 ], [ -53.39378, -27.3696617 ], [ -53.3933187, -27.3699475 ], [ -53.3932757, -27.370138 ], [ -53.3931792, -27.3703381 ], [ -53.39275, -27.370481 ], [ -53.3922029, -27.3709098 ], [ -53.3920634, -27.3710718 ], [ -53.3919883, -27.3712623 ], [ -53.3918595, -27.3714338 ], [ -53.3918059, -27.3716339 ], [ -53.3911944, -27.3721675 ], [ -53.3910012, -27.3722818 ], [ -53.390851, -27.3724342 ], [ -53.3908188, -27.3726343 ], [ -53.3907223, -27.3728249 ], [ -53.3905184, -27.3729392 ], [ -53.3903039, -27.3730059 ], [ -53.389864, -27.373063 ], [ -53.3893919, -27.3731583 ], [ -53.3891773, -27.3731678 ], [ -53.388834, -27.3733298 ], [ -53.3886194, -27.3733393 ], [ -53.3879221, -27.3733393 ], [ -53.3876884, -27.3732989 ], [ -53.3870852, -27.3779506 ], [ -53.399654, -27.3813755 ], [ -53.4000993, -27.3816375 ], [ -53.4001797, -27.3817137 ], [ -53.4002227, -27.3817995 ], [ -53.4005606, -27.3821948 ], [ -53.400802, -27.3824139 ], [ -53.400861, -27.3824997 ], [ -53.4008932, -27.3825949 ], [ -53.4009576, -27.3826759 ], [ -53.4010756, -27.3827378 ], [ -53.4014297, -27.3826759 ], [ -53.4016335, -27.3827426 ], [ -53.4020305, -27.3829331 ], [ -53.4022343, -27.3830094 ], [ -53.4028566, -27.3831713 ], [ -53.40302830000001, -27.3832761 ], [ -53.40302830000001, -27.3842764 ], [ -53.4031463, -27.3842288 ], [ -53.4035647, -27.3847146 ], [ -53.4039402, -27.3852481 ], [ -53.4041119, -27.3856196 ], [ -53.4042299, -27.3857816 ], [ -53.4046483, -27.3859816 ], [ -53.4054315, -27.3860293 ], [ -53.4060001, -27.386277 ], [ -53.4075075, -27.386277 ], [ -53.4076524, -27.3863722 ], [ -53.408457, -27.3869391 ] ] ] } }
]
}
