{
"type": "FeatureCollection",
"name": "bairros_cambara_do_sul",
"crs": { "type": "name", "properties": { "name": "urn:ogc:def:crs:OGC:1.3:CRS84" } },
"features": [
{ "type": "Feature", "properties": { "code_muni": 4303608.0, "name_muni": "Cambará do Sul", "code_state": 43.0, "abbrev_state": "RS", "name_state": "Rio Grande do Sul", "code_region": 4.0, "name_region": "Sul", "year": 2022.0 }, "geometry": { "type": "Polygon", "coordinates": [ [ [ -50.022798942, -28.867886509 ], [ -50.018039965, -28.870394528 ], [ -50.014579219, -28.868983145 ], [ -50.014600899, -28.876224869999898 ], [ -50.008547955, -28.881920158999897 ], [ -50.011028242999899, -28.884382237999898 ], [ -50.008454667, -28.889417959999893 ], [ -49.999898108, -28.888122983 ], [ -49.996007581999891, -28.893830323 ], [ -49.991468926, -28.892374619 ], [ -49.988725589, -28.897178674 ], [ -49.98658133299989, -28.898062831999905 ], [ -49.98349124, -28.897349156 ], [ -49.981005896999903, -28.899175489 ], [ -49.978464776, -28.8978473069999 ], [ -49.974483861, -28.902002309999904 ], [ -49.9699530789999, -28.901481406999888 ], [ -49.969345452, -28.898625844 ], [ -49.965484736999898, -28.896515540999896 ], [ -49.949720028999891, -28.893539684 ], [ -49.949595985, -28.8979671929999 ], [ -49.951513298999899, -28.900459285999908 ], [ -49.958300631, -28.902420995999893 ], [ -49.959011733, -28.903690167 ], [ -49.958323080999897, -28.905926375 ], [ -49.962628732, -28.913761236 ], [ -49.961860547999898, -28.91581296 ], [ -49.963324429999901, -28.916898154 ], [ -49.963179588999893, -28.918918851999898 ], [ -49.968725210999892, -28.922052101 ], [ -49.965086496, -28.925527875999901 ], [ -49.959692089, -28.926644865 ], [ -49.953322692, -28.9255277839999 ], [ -49.950425617, -28.928527528 ], [ -49.949569305, -28.935648746 ], [ -49.951831091, -28.929886094 ], [ -49.954326033, -28.928983934 ], [ -49.958206356999902, -28.930739237 ], [ -49.959789139, -28.935589019 ], [ -49.958438562, -28.938848854 ], [ -49.95852345, -28.945048644999904 ], [ -49.954699874, -28.952136116 ], [ -49.958026839999896, -28.96255149 ], [ -49.94870692699989, -28.962088147 ], [ -49.933656698999989, -28.965821639999895 ], [ -49.931904097, -28.963157542 ], [ -49.932518340999898, -28.967693438 ], [ -49.930947099, -28.975949926999899 ], [ -49.924780037999895, -28.975576945999901 ], [ -49.920309922999898, -28.977796660999989 ], [ -49.924040608, -28.983048919999902 ], [ -49.924272295, -28.980661561 ], [ -49.926491838999901, -28.979532241999891 ], [ -49.934014637, -28.982062759 ], [ -49.934423087, -28.9856864499999 ], [ -49.936434593999891, -28.984572059 ], [ -49.935764661, -28.980919023 ], [ -49.936798403, -28.979082965000011 ], [ -49.938228132999896, -28.978729443 ], [ -49.941680044999899, -28.981433728 ], [ -49.944652974, -28.989161022 ], [ -49.943400901, -28.990903623 ], [ -49.940463474999902, -28.991752482 ], [ -49.942430515, -29.001209377 ], [ -49.942970677999902, -28.994276501999899 ], [ -49.945420044999899, -28.99216709 ], [ -49.948766383, -28.998167779 ], [ -49.95209369, -29.000056496999893 ], [ -49.951132553, -29.001821785999894 ], [ -49.953629157, -29.005695279999905 ], [ -49.95915468, -29.010481233999894 ], [ -49.957400628, -29.012134154 ], [ -49.955857051999899, -29.011562496999893 ], [ -49.959183975, -29.013613770999889 ], [ -49.960449492999892, -29.01646978 ], [ -49.962703416999894, -29.017509522999909 ], [ -49.961789809, -29.018707887999899 ], [ -49.965991120999902, -29.021746293 ], [ -49.964684973, -29.02369709999989 ], [ -49.950469800999898, -29.020681056999901 ], [ -49.950928646, -29.024486464999896 ], [ -49.949806651999893, -29.024594231 ], [ -49.946773177, -29.021112619 ], [ -49.941431507999894, -29.021329755999897 ], [ -49.94070227, -29.022325297999899 ], [ -49.947551044, -29.02600861 ], [ -49.946139834999897, -29.030754101 ], [ -49.946938472999896, -29.031830788 ], [ -49.956286328, -29.035189602999903 ], [ -49.954581069, -29.037759703999903 ], [ -49.955346398, -29.041102242 ], [ -49.961165459, -29.043765602999901 ], [ -49.959574344000011, -29.047109581 ], [ -49.960998683, -29.050807554 ], [ -49.969759784, -29.051510876 ], [ -49.969683013999898, -29.0538955819999 ], [ -49.972048366, -29.056244187999898 ], [ -49.973662907999902, -29.055580608 ], [ -49.977197384, -29.058843007 ], [ -49.985229876999902, -29.061560079999897 ], [ -49.986386125, -29.063390932999894 ], [ -49.9897888799999, -29.062975686999902 ], [ -49.990864611999896, -29.064941491 ], [ -49.993459581, -29.064348779999897 ], [ -49.994118084, -29.066163827 ], [ -50.00174688899989, -29.069479996 ], [ -50.004413046, -29.0723815919999 ], [ -50.001567369, -29.072703246999897 ], [ -49.993992659, -29.069609896 ], [ -49.989764572999903, -29.070152596999897 ], [ -49.989342579, -29.071870216 ], [ -49.986023217, -29.072797614 ], [ -49.984904071999892, -29.070235312 ], [ -49.986242073, -29.070781092999908 ], [ -49.98827269200001, -29.068844968999894 ], [ -49.984935384, -29.067807874 ], [ -49.9795000989999, -29.068529758 ], [ -49.968082787, -29.065186072999904 ], [ -49.969823568, -29.069147476 ], [ -49.963830513999902, -29.065460166 ], [ -49.957455665999902, -29.066565071 ], [ -49.956942549, -29.062937376 ], [ -49.948993521, -29.058466037 ], [ -49.947142307, -29.059661605 ], [ -49.946188956, -29.056361423999896 ], [ -49.942132584, -29.058217892999895 ], [ -49.942118885999896, -29.059594016999903 ], [ -49.945068079, -29.061227938999902 ], [ -49.943259843, -29.0635407309999 ], [ -49.951743977, -29.061954876999899 ], [ -49.95247426, -29.065529486999903 ], [ -49.948798882999903, -29.068779132 ], [ -49.955973907, -29.067757614 ], [ -49.96033441, -29.070675191 ], [ -49.959207214999893, -29.073989073999901 ], [ -49.954772841, -29.076257835 ], [ -49.956155135, -29.084924973999893 ], [ -49.965233526, -29.081951018 ], [ -49.968259459, -29.0842204859999 ], [ -49.965948731, -29.088932719999903 ], [ -49.966762721999892, -29.096130515 ], [ -49.96299577, -29.099817460999898 ], [ -49.96975994, -29.100573161999904 ], [ -49.970231906, -29.104562766 ], [ -49.968303151, -29.109183331999908 ], [ -49.968277363, -29.11477694 ], [ -49.96436191, -29.115221778 ], [ -49.962602491, -29.117481231999903 ], [ -49.969221574, -29.120838306999907 ], [ -49.968932469, -29.1160249 ], [ -49.977820127, -29.118904447 ], [ -49.977429604, -29.116032533 ], [ -49.981684390999909, -29.119112549 ], [ -49.983441101, -29.116537160999897 ], [ -49.9880412159999, -29.1190978069999 ], [ -49.989512545, -29.11748526 ], [ -49.992604649, -29.1176649179999 ], [ -49.991244948, -29.122322356000012 ], [ -49.986476444999894, -29.126375133 ], [ -49.987436160999899, -29.128438199999895 ], [ -49.984765722, -29.13123246999989 ], [ -49.984317867999891, -29.136708230999901 ], [ -49.979476476999899, -29.134213764 ], [ -49.977763181999897, -29.135907759 ], [ -49.981741332, -29.139078002 ], [ -49.986426594, -29.136277778 ], [ -49.991265051, -29.136875226 ], [ -49.991543178, -29.133866231 ], [ -49.989394419999897, -29.131643645999901 ], [ -49.990128567999903, -29.129018772999896 ], [ -49.993570444999889, -29.131274043 ], [ -49.996802101999897, -29.13150227700001 ], [ -50.0016573999999, -29.127138230999904 ], [ -50.0059527129999, -29.128640269 ], [ -50.008315748, -29.127797003999895 ], [ -50.009284905, -29.126328199999893 ], [ -50.007375061999895, -29.123152639 ], [ -50.004220846, -29.121202482999902 ], [ -50.004616342, -29.120087778 ], [ -50.007924244, -29.121224202 ], [ -50.013418526, -29.12681959 ], [ -50.013188103999909, -29.130759509 ], [ -50.006675942999891, -29.13552126 ], [ -50.009548424999899, -29.139367085999901 ], [ -50.004912202, -29.140637136 ], [ -50.005054156999989, -29.142583945 ], [ -50.007863378, -29.1430887839999 ], [ -50.009126801, -29.1449580089999 ], [ -50.008590721, -29.147682833 ], [ -50.005877214999892, -29.150413854 ], [ -50.01067854, -29.149852672999899 ], [ -50.009543588, -29.157341328 ], [ -50.016400307, -29.153322377999892 ], [ -50.017909146, -29.154689494 ], [ -50.021061927999895, -29.151003456 ], [ -50.020669888, -29.157962371999901 ], [ -50.017803555999897, -29.163608258 ], [ -50.021292517999903, -29.168144082 ], [ -50.023297736, -29.163909791 ], [ -50.027020692, -29.164191818999893 ], [ -50.023543817, -29.166591963 ], [ -50.028750659, -29.171871758 ], [ -50.018810494, -29.1744788459999 ], [ -50.021792776, -29.177880206999905 ], [ -50.019797635, -29.179738598 ], [ -50.015955448999897, -29.18113865 ], [ -50.012931798999894, -29.180385915999988 ], [ -50.011963909, -29.18257688700001 ], [ -50.015232451, -29.1826150599999 ], [ -50.013609232, -29.185503332999897 ], [ -50.015158536999898, -29.186739728 ], [ -50.017479889, -29.181821995999908 ], [ -50.029782853, -29.179721314999906 ], [ -50.03339355, -29.175282355 ], [ -50.038613486, -29.177438638999899 ], [ -50.039979729, -29.180674155 ], [ -50.043366768999903, -29.183734404999896 ], [ -50.046443252, -29.183329327 ], [ -50.051831416, -29.184846434 ], [ -50.051944482999893, -29.182239833 ], [ -50.050656429, -29.183115992 ], [ -50.049908433, -29.181986002 ], [ -50.050607817, -29.179683289 ], [ -50.054023478, -29.183095801 ], [ -50.057894007999899, -29.183868302 ], [ -50.060088745, -29.185979328 ], [ -50.060800721, -29.185163711 ], [ -50.062844728, -29.185915443999903 ], [ -50.065658509999892, -29.190310435 ], [ -50.06532083, -29.1933991339999 ], [ -50.067873506, -29.195493015999901 ], [ -50.067409289999894, -29.191130308 ], [ -50.060211663, -29.179682289 ], [ -50.05972674, -29.175245688 ], [ -50.061312232, -29.175177193 ], [ -50.07160664, -29.186406027 ], [ -50.075322533, -29.188356248999987 ], [ -50.076203953999901, -29.185630187999905 ], [ -50.078676567999899, -29.184829496 ], [ -50.074577424, -29.18211689 ], [ -50.074479164, -29.180813902999894 ], [ -50.081064956, -29.182241954999899 ], [ -50.082443134, -29.179645186 ], [ -50.085555516999889, -29.178985748999906 ], [ -50.080379623999903, -29.178413221 ], [ -50.078016361, -29.175315757 ], [ -50.090073509, -29.175092365999895 ], [ -50.090183622, -29.173243371 ], [ -50.084326582, -29.170684668 ], [ -50.093288426, -29.171025666999988 ], [ -50.092292303, -29.168919417 ], [ -50.093678387, -29.168934968 ], [ -50.093422691999891, -29.167910172999903 ], [ -50.090621338999902, -29.164569421 ], [ -50.076679232999908, -29.159359940999892 ], [ -50.079830913, -29.158329841999901 ], [ -50.078321627, -29.157646429 ], [ -50.072997771, -29.157441987 ], [ -50.06665435, -29.159673000999899 ], [ -50.06282452499989, -29.159371454999899 ], [ -50.06254151, -29.161314687 ], [ -50.060932690999891, -29.161365477999905 ], [ -50.057143832999898, -29.1596311 ], [ -50.057155135, -29.157948958 ], [ -50.061767555999893, -29.160047768 ], [ -50.062478051, -29.1582222669999 ], [ -50.067958539999893, -29.157461982 ], [ -50.062603823, -29.155366704 ], [ -50.079821683, -29.155364771999899 ], [ -50.081280713, -29.1583947459999 ], [ -50.086286534, -29.160056500999904 ], [ -50.090301806999896, -29.160820896000011 ], [ -50.096839497, -29.158936936 ], [ -50.0996649739999, -29.159809653 ], [ -50.101935403, -29.164358759 ], [ -50.096322151, -29.166196265999904 ], [ -50.096574593, -29.169004469999894 ], [ -50.100029091, -29.173568250999899 ], [ -50.096320477999903, -29.17178619 ], [ -50.095953731, -29.173322627999898 ], [ -50.097618356999902, -29.174553917 ], [ -50.09517828, -29.1751655959999 ], [ -50.093315811, -29.177514996999903 ], [ -50.098383016999897, -29.181095216 ], [ -50.091181224, -29.179803088 ], [ -50.090947325999899, -29.181918793 ], [ -50.087631834, -29.183749502999902 ], [ -50.091230928, -29.187358028999906 ], [ -50.088488618, -29.186967040999896 ], [ -50.086402141999898, -29.188736165 ], [ -50.091555854, -29.193038875999903 ], [ -50.092000329, -29.194924252 ], [ -50.088788155, -29.191508907999903 ], [ -50.087079882, -29.19150516 ], [ -50.087761509, -29.193776417 ], [ -50.085006751, -29.192923438 ], [ -50.096901815, -29.200291781 ], [ -50.090359459999895, -29.201279681 ], [ -50.08476798600001, -29.198275364 ], [ -50.085208907, -29.206244985 ], [ -50.090068843, -29.210629766999897 ], [ -50.089471983, -29.212470572000012 ], [ -50.092361579999903, -29.216628194 ], [ -50.089259303999896, -29.215818753999898 ], [ -50.091346164999898, -29.219795464 ], [ -50.083980031999893, -29.213836429 ], [ -50.075710254999898, -29.215863498 ], [ -50.066986742, -29.213365747999898 ], [ -50.052717034999894, -29.213090211 ], [ -50.050463872, -29.213909338 ], [ -50.046997936, -29.217184190999902 ], [ -50.047848068999897, -29.217605863999903 ], [ -50.051669737999894, -29.214404543999901 ], [ -50.067224134, -29.214613288 ], [ -50.074063478, -29.216844734999906 ], [ -50.083766512, -29.215381782 ], [ -50.088997595, -29.223546595 ], [ -50.085517701, -29.224934999 ], [ -50.08413783, -29.227123698999911 ], [ -50.093936679, -29.233898331 ], [ -50.095156637999892, -29.237314204 ], [ -50.098569061, -29.23553419 ], [ -50.0924098899999, -29.226762419 ], [ -50.093551952, -29.22367872 ], [ -50.107540926999903, -29.234066153 ], [ -50.112691156, -29.24000684 ], [ -50.111026949999903, -29.235228875 ], [ -50.106017788, -29.229414918 ], [ -50.111138098, -29.228843970999897 ], [ -50.112960621999896, -29.225889249 ], [ -50.112445578999896, -29.223733093 ], [ -50.109808491, -29.222507295999904 ], [ -50.105401634, -29.225612509 ], [ -50.10038891100001, -29.224704950999985 ], [ -50.097360186999893, -29.221973792 ], [ -50.098619358999898, -29.219503926 ], [ -50.093275322, -29.212780785999897 ], [ -50.094255744999899, -29.212004689 ], [ -50.107765171, -29.211039128 ], [ -50.111146211999902, -29.207790418999892 ], [ -50.115523653, -29.208821085999887 ], [ -50.115490802, -29.206258348999896 ], [ -50.112816013, -29.205220922 ], [ -50.117244467, -29.20535825 ], [ -50.120700869, -29.203896555 ], [ -50.118101371, -29.201866064999905 ], [ -50.127462142999896, -29.200702750999898 ], [ -50.120367846, -29.1977400009999 ], [ -50.126868692, -29.197855392 ], [ -50.130066414999902, -29.19599926 ], [ -50.130184706, -29.198315088 ], [ -50.133035607999901, -29.197349091 ], [ -50.136502443, -29.198480452 ], [ -50.138028988, -29.19787279 ], [ -50.137928986, -29.193214861999891 ], [ -50.139646921, -29.192219802999894 ], [ -50.140106212, -29.194208456 ], [ -50.142848035, -29.194947793 ], [ -50.144819292, -29.197464336999904 ], [ -50.161547643999896, -29.203941933 ], [ -50.1490067679999, -29.201561043 ], [ -50.14692109, -29.201502994 ], [ -50.147108058, -29.203396725999895 ], [ -50.145741823, -29.201807701999904 ], [ -50.142764354999898, -29.201423073999898 ], [ -50.140344152999901, -29.202482484 ], [ -50.142015535, -29.204543132 ], [ -50.138796488, -29.205266105 ], [ -50.140253876, -29.206864109 ], [ -50.133967898, -29.207907351 ], [ -50.137058926999899, -29.212069654999905 ], [ -50.134736554, -29.21507172 ], [ -50.1434368399999, -29.21691743 ], [ -50.143569064, -29.219459228999899 ], [ -50.148226038, -29.219922736999898 ], [ -50.150668921, -29.224572727 ], [ -50.144973404, -29.2238995559999 ], [ -50.146205836, -29.225554639999906 ], [ -50.150485266, -29.226180559999904 ], [ -50.151232551, -29.230155216999904 ], [ -50.140714010999901, -29.228409493999905 ], [ -50.141612599, -29.232033674 ], [ -50.13926544, -29.231774960999903 ], [ -50.139867807, -29.235603183 ], [ -50.141082416, -29.238305832000012 ], [ -50.151858919999903, -29.243222570999897 ], [ -50.177509124, -29.248521292 ], [ -50.17694825, -29.2494191229999 ], [ -50.169982129999902, -29.24952712 ], [ -50.15522866100001, -29.247687513999903 ], [ -50.158459701, -29.251148858 ], [ -50.162105628999896, -29.252476568 ], [ -50.16025805399989, -29.253319781 ], [ -50.161925949, -29.254152624 ], [ -50.161245941999901, -29.254793086999896 ], [ -50.156313516999894, -29.252699504 ], [ -50.151580142999897, -29.248109491 ], [ -50.149158267, -29.250304575 ], [ -50.150023616999903, -29.254150208999896 ], [ -50.138753107999889, -29.253524597 ], [ -50.138963686, -29.256006989 ], [ -50.145887734, -29.2583182 ], [ -50.146187112999897, -29.261740695999901 ], [ -50.139826319999891, -29.266500307999909 ], [ -50.14388278, -29.266414715999911 ], [ -50.145136898, -29.267459613 ], [ -50.144599741, -29.270156902999904 ], [ -50.18313762199989, -29.264555425 ], [ -50.185633179, -29.261436457999903 ], [ -50.190407546, -29.260483942999905 ], [ -50.192389902999892, -29.258735379 ], [ -50.195402783, -29.259673505 ], [ -50.200312219, -29.256564775 ], [ -50.204266479999895, -29.2592442 ], [ -50.20954393999989, -29.261013872 ], [ -50.211607032, -29.260434695999901 ], [ -50.212988325, -29.262380419999886 ], [ -50.219355868, -29.262096877 ], [ -50.221447270999903, -29.265724098 ], [ -50.243079663999893, -29.274010087 ], [ -50.247626961, -29.274132173999899 ], [ -50.246336201, -29.275939591999901 ], [ -50.248869947999893, -29.275794502999904 ], [ -50.248601886999893, -29.277202041999903 ], [ -50.250962235, -29.275795387999892 ], [ -50.256530461999901, -29.277071108 ], [ -50.257904383, -29.281533474999897 ], [ -50.263865411, -29.281563553999895 ], [ -50.263361139, -29.284010602 ], [ -50.267011361999899, -29.286811524 ], [ -50.266277070999898, -29.288664061 ], [ -50.268293275, -29.291096068999895 ], [ -50.270324961, -29.290866934 ], [ -50.272766257999891, -29.287374628 ], [ -50.275630878, -29.287471943999897 ], [ -50.278798945999895, -29.290609932999896 ], [ -50.282657071, -29.289688972 ], [ -50.28511385, -29.290436534 ], [ -50.287266296, -29.295701312999896 ], [ -50.294992696999898, -29.291717831 ], [ -50.29839127, -29.293959061 ], [ -50.300756559, -29.293279183 ], [ -50.301617629, -29.292141428 ], [ -50.299922422999899, -29.286886862999893 ], [ -50.303253661, -29.283447888999905 ], [ -50.297674051999898, -29.278700375 ], [ -50.297923394999899, -29.277209215 ], [ -50.302589903, -29.275370361999894 ], [ -50.303922724, -29.270462672999894 ], [ -50.308519449, -29.271520441999893 ], [ -50.309311959999903, -29.2685422019999 ], [ -50.314587746, -29.268865408999893 ], [ -50.316132774, -29.258379947 ], [ -50.319141213, -29.256649646 ], [ -50.326872475999899, -29.257563971 ], [ -50.328293852999899, -29.256039347999899 ], [ -50.324356602, -29.250848851999901 ], [ -50.328605634, -29.247429875 ], [ -50.33276733400001, -29.239807572 ], [ -50.329372027, -29.235125965 ], [ -50.324590029, -29.220799561 ], [ -50.328235088, -29.220513898 ], [ -50.329764608999895, -29.223038341999903 ], [ -50.333543521, -29.224096110999902 ], [ -50.334294407, -29.222081779 ], [ -50.330087815999896, -29.21855425 ], [ -50.332657965999893, -29.212672042 ], [ -50.336190391999899, -29.212655718999898 ], [ -50.342827567, -29.204347008999903 ], [ -50.342714934, -29.201225936999894 ], [ -50.345241825999899, -29.198130982999906 ], [ -50.357588994, -29.189327668 ], [ -50.356283107, -29.180261543 ], [ -50.359423766, -29.175426494 ], [ -50.360164858, -29.170712239 ], [ -50.358119511, -29.168459582999986 ], [ -50.360058754, -29.163853064 ], [ -50.355920722999898, -29.156667418 ], [ -50.362229793, -29.152819946 ], [ -50.354445069999898, -29.148375030999897 ], [ -50.353935772999897, -29.142165534999901 ], [ -50.351093427, -29.137896098999892 ], [ -50.352652382, -29.136378127999901 ], [ -50.356372478, -29.136093973999895 ], [ -50.362026972, -29.138209511999904 ], [ -50.36634946, -29.135356147 ], [ -50.364305746, -29.130142390999904 ], [ -50.356019889, -29.125519547999897 ], [ -50.358089720999892, -29.119956467 ], [ -50.357534879999903, -29.117067318999897 ], [ -50.354812846, -29.118300109 ], [ -50.353404559999895, -29.117338753 ], [ -50.351528497999901, -29.119900209 ], [ -50.34966299, -29.119760777 ], [ -50.3464620089999, -29.117027793 ], [ -50.344871236, -29.114365883999898 ], [ -50.345640461, -29.113693146999893 ], [ -50.340219281, -29.114937417 ], [ -50.339455546, -29.111793131 ], [ -50.336580828, -29.110741027999904 ], [ -50.336655916, -29.109701636999905 ], [ -50.334125822, -29.111076789 ], [ -50.333264541999903, -29.113852472 ], [ -50.330356047999899, -29.114017257999894 ], [ -50.32987751799989, -29.118737107999909 ], [ -50.326998484999898, -29.119497996999893 ], [ -50.321921523999897, -29.115681971 ], [ -50.317291635999901, -29.117049617 ], [ -50.313628822999902, -29.115900745000012 ], [ -50.309126684, -29.11770875 ], [ -50.308969526999903, -29.122125663 ], [ -50.301066261999893, -29.120361203999892 ], [ -50.299710129999902, -29.118649287 ], [ -50.296011302, -29.12189932 ], [ -50.293875853, -29.121981795 ], [ -50.288120299, -29.126070593 ], [ -50.285549451, -29.126185171 ], [ -50.281712559, -29.129057483999912 ], [ -50.281646135999893, -29.131255123999892 ], [ -50.279289225999896, -29.131561345000012 ], [ -50.272589006, -29.135982168999902 ], [ -50.270067, -29.136097785999901 ], [ -50.270128117999896, -29.138053296999903 ], [ -50.268606268, -29.137595471999894 ], [ -50.263045313, -29.140039219 ], [ -50.260016992, -29.139110371000012 ], [ -50.259916361, -29.134521923 ], [ -50.255491117, -29.134844202999897 ], [ -50.250483248, -29.131619639999901 ], [ -50.247947966, -29.132160692999907 ], [ -50.246281242999892, -29.124451108 ], [ -50.250482416, -29.122212921 ], [ -50.251240185, -29.1190106829999 ], [ -50.24056533999989, -29.102331537999891 ], [ -50.2223627239999, -29.099826048999901 ], [ -50.219930409, -29.095979553999893 ], [ -50.211687981999901, -29.098021645999893 ], [ -50.205560686999895, -29.10073713 ], [ -50.202936633, -29.1034994689999 ], [ -50.198177773999895, -29.104779311999902 ], [ -50.191636726, -29.096339261 ], [ -50.193540793999894, -29.091393043 ], [ -50.192969994, -29.089580107 ], [ -50.196453082999895, -29.086587498999986 ], [ -50.193685727999899, -29.082212714 ], [ -50.195718068, -29.081191504999904 ], [ -50.194686305999902, -29.0767312209999 ], [ -50.193129341, -29.075995559 ], [ -50.193718187999899, -29.073824021999894 ], [ -50.188831482, -29.072363643 ], [ -50.189264028, -29.07091584999991 ], [ -50.183960299, -29.070001877 ], [ -50.183948382, -29.068076486999896 ], [ -50.186480477, -29.068509984999896 ], [ -50.190162151, -29.061986335 ], [ -50.187876855, -29.061733209 ], [ -50.188230478, -29.059914154 ], [ -50.197961076999903, -29.060218744999894 ], [ -50.199686009999901, -29.056947566 ], [ -50.203435769, -29.056480881 ], [ -50.210768289, -29.059490137 ], [ -50.2101539559999, -29.061419484999895 ], [ -50.215528225, -29.057895700999897 ], [ -50.213549813, -29.054870578 ], [ -50.210520878999901, -29.054845581999896 ], [ -50.208919721, -29.051492095 ], [ -50.210840285, -29.050118787 ], [ -50.218109475999896, -29.049808422999895 ], [ -50.222453537, -29.046997814 ], [ -50.228335607, -29.046079252 ], [ -50.226209400999906, -29.042552188999895 ], [ -50.226728384, -29.034136627999892 ], [ -50.229352602999903, -29.030099916 ], [ -50.229235456, -29.022007218999903 ], [ -50.233319777, -29.018084471 ], [ -50.232694567, -29.015259419 ], [ -50.234723382, -29.009549800999899 ], [ -50.240403176, -29.008057295 ], [ -50.242559550999893, -29.010247634999899 ], [ -50.241519039, -29.015051548 ], [ -50.238591227, -29.01521171 ], [ -50.237019028, -29.018909597999901 ], [ -50.239348677, -29.023063065 ], [ -50.244808025999895, -29.022598983 ], [ -50.250034214, -29.024217253 ], [ -50.253093013, -29.021029552 ], [ -50.257615601999895, -29.019333354 ], [ -50.258485051, -29.017500561 ], [ -50.269316443, -29.015377977 ], [ -50.270445728, -29.012678818 ], [ -50.268866357, -29.008005981999904 ], [ -50.273570312999901, -29.006868958 ], [ -50.268838221, -29.003590312000011 ], [ -50.269525245, -28.995866925 ], [ -50.267291934, -28.992361613999901 ], [ -50.26066285799989, -28.990873028 ], [ -50.256540201, -28.994943846 ], [ -50.2514638, -28.989476782999905 ], [ -50.250570016, -28.983180860999902 ], [ -50.254784727, -28.977382926 ], [ -50.254633070999901, -28.974642944 ], [ -50.250990605, -28.970473065 ], [ -50.249728888999989, -28.964677992 ], [ -50.244951902, -28.959389298 ], [ -50.254069855, -28.942061119999899 ], [ -50.258423606999898, -28.940011945 ], [ -50.265583987, -28.938920031 ], [ -50.253098736, -28.928473784999902 ], [ -50.244995327, -28.933827508 ], [ -50.227996769999891, -28.9343668029999 ], [ -50.2226257579999, -28.930239050999898 ], [ -50.218350142, -28.924289784999903 ], [ -50.218032633, -28.920087011 ], [ -50.21678052, -28.91918871 ], [ -50.20804364899989, -28.924809099 ], [ -50.208217739, -28.930014214 ], [ -50.197854381999903, -28.929994791 ], [ -50.195654562, -28.928003885 ], [ -50.190711388, -28.929710335 ], [ -50.188222546, -28.927845589 ], [ -50.188741486, -28.924912984999899 ], [ -50.185376753, -28.924588792 ], [ -50.185873407, -28.923176639 ], [ -50.18364366, -28.921815963 ], [ -50.181459452, -28.922443503999904 ], [ -50.182250253999896, -28.921018948 ], [ -50.1793375459999, -28.918993137 ], [ -50.179953661999896, -28.917974374 ], [ -50.17824006, -28.918140478999895 ], [ -50.177811199, -28.916746147 ], [ -50.174842419999891, -28.916472029 ], [ -50.168002338, -28.912465047 ], [ -50.166848447999897, -28.913119294 ], [ -50.159393658999903, -28.906513391 ], [ -50.160307787, -28.903376864999903 ], [ -50.159072426, -28.898125166999897 ], [ -50.160781793999902, -28.895336663 ], [ -50.159690917, -28.894003251999894 ], [ -50.168142987, -28.884050116 ], [ -50.168844946, -28.888826428 ], [ -50.1726535069999, -28.890402702 ], [ -50.176660775999899, -28.889821522 ], [ -50.181833319, -28.886145856999988 ], [ -50.181932431999897, -28.879373466999901 ], [ -50.179744377, -28.8759509029999 ], [ -50.180156489, -28.872059088999894 ], [ -50.178287495999903, -28.869691364999898 ], [ -50.1786686, -28.868051960999896 ], [ -50.181269496, -28.86589866 ], [ -50.182778459, -28.852235921999988 ], [ -50.185113612999899, -28.849316184 ], [ -50.184873543, -28.845508378 ], [ -50.185782393999894, -28.844174774999892 ], [ -50.189133808999891, -28.844269614 ], [ -50.189245422999896, -28.8410886849999 ], [ -50.193496588, -28.839495101 ], [ -50.193825392999898, -28.837241682 ], [ -50.19865669699989, -28.832064889 ], [ -50.197095944, -28.826951782 ], [ -50.191609415999899, -28.824283853999887 ], [ -50.181248769, -28.824006792 ], [ -50.182906472, -28.830990014999898 ], [ -50.180223331, -28.834054797 ], [ -50.177852021, -28.834560882999895 ], [ -50.174425668, -28.831514359 ], [ -50.168302578999899, -28.833577563999896 ], [ -50.165804878999893, -28.835486578 ], [ -50.164261322999899, -28.839886431 ], [ -50.158000273, -28.836093032999905 ], [ -50.162119500999893, -28.831323074 ], [ -50.158660025, -28.827045154 ], [ -50.161240122, -28.822611729 ], [ -50.157589856, -28.820492081999902 ], [ -50.153803578999899, -28.819927490999891 ], [ -50.140443236, -28.827277645 ], [ -50.142573840999901, -28.831181920999907 ], [ -50.14043667, -28.833671164 ], [ -50.137441703, -28.833404444999903 ], [ -50.137658116999894, -28.826025666 ], [ -50.132728363999902, -28.825360206 ], [ -50.128124333, -28.8205532059999 ], [ -50.112686159, -28.823878622999906 ], [ -50.108172751, -28.825912355999904 ], [ -50.105887174, -28.829861079 ], [ -50.098102183, -28.828156846 ], [ -50.094162035, -28.832694650999898 ], [ -50.086345066, -28.832007087 ], [ -50.085752957, -28.837740014 ], [ -50.089328211999899, -28.843756742000011 ], [ -50.089030308, -28.847412095 ], [ -50.087804515, -28.848137148 ], [ -50.085939861, -28.8476055319999 ], [ -50.084453691, -28.844610379999896 ], [ -50.073581712, -28.842471849999988 ], [ -50.070987573, -28.837816054 ], [ -50.065704683, -28.840531462999898 ], [ -50.063400003, -28.838841424999892 ], [ -50.0599088499999, -28.838681984999898 ], [ -50.058275938999898, -28.839786871999898 ], [ -50.058003459, -28.842577764999898 ], [ -50.051727158999903, -28.846249402999899 ], [ -50.046530388, -28.844498855 ], [ -50.038386194999902, -28.845040614 ], [ -50.037069808999895, -28.845955363 ], [ -50.039511924, -28.848069770999906 ], [ -50.04414406, -28.84902821 ], [ -50.036655416, -28.854411699 ], [ -50.036718494, -28.859743524999899 ], [ -50.035316523999903, -28.860233117000011 ], [ -50.029724041999891, -28.857902592 ], [ -50.027958557, -28.860990974999904 ], [ -50.022736828999896, -28.862361022 ], [ -50.020647064999899, -28.866253415999903 ], [ -50.022798942, -28.867886509 ] ] ] } }
]
}
