{
"type": "FeatureCollection",
"name": "bairros_acegua",
"crs": { "type": "name", "properties": { "name": "urn:ogc:def:crs:OGC:1.3:CRS84" } },
"features": [
{ "type": "Feature", "properties": { "name": "Centro", "code_muni": 4300034.0, "name_muni": "Aceguá" }, "geometry": { "type": "Polygon", "coordinates": [ [ [ -54.1627774, -31.8701652 ], [ -54.1626728, -31.8699305 ], [ -54.1623425, -31.8689024 ], [ -54.1620263, -31.8678611 ], [ -54.1618505, -31.8672513 ], [ -54.1617003, -31.866875 ], [ -54.1568945, -31.8676395 ], [ -54.1574532, -31.8689431 ], [ -54.1580272, -31.8702825 ], [ -54.1571255, -31.8705847 ], [ -54.1542205, -31.8718276 ], [ -54.1547632, -31.872964 ], [ -54.15450640000001, -31.8733234 ], [ -54.1558116, -31.8758586 ], [ -54.1561013, -31.8756718 ], [ -54.1563347, -31.8756046 ], [ -54.156588, -31.8754556 ], [ -54.1568778, -31.8752116 ], [ -54.157152952908675, -31.875074897805131 ], [ -54.157324887871702, -31.874880834558247 ], [ -54.1573197, -31.8747863 ], [ -54.157307, -31.8745727 ], [ -54.1573244, -31.8745011 ], [ -54.1573941, -31.8743371 ], [ -54.1574644, -31.8742362 ], [ -54.1575603, -31.8741486 ], [ -54.1579892, -31.8737875 ], [ -54.1583131, -31.873515500000011 ], [ -54.158890728806995, -31.873260831668826 ], [ -54.162871713366812, -31.87030492629766 ], [ -54.1627774, -31.8701652 ] ] ] } },
{ "type": "Feature", "properties": { "name": "Dom Timóteo", "code_muni": 4300034.0, "name_muni": "Aceguá" }, "geometry": { "type": "Polygon", "coordinates": [ [ [ -54.1629973, -31.8666093 ], [ -54.164231, -31.8663466 ], [ -54.1653746, -31.8660894 ], [ -54.1657666, -31.8660046 ], [ -54.1667417, -31.8659123 ], [ -54.16715880000001, -31.8658639 ], [ -54.1672124, -31.8656873 ], [ -54.1672375, -31.8655749 ], [ -54.1672528, -31.865499599999989 ], [ -54.1672373, -31.864932 ], [ -54.1671464, -31.864226599999988 ], [ -54.1669777, -31.8629065 ], [ -54.166963, -31.8624885 ], [ -54.1669663, -31.8623048 ], [ -54.1669804, -31.8621388 ], [ -54.1670582, -31.861821 ], [ -54.1669951, -31.8617652 ], [ -54.1669562, -31.8616997 ], [ -54.1668007, -31.8611262 ], [ -54.1665968, -31.8602035 ], [ -54.1665646, -31.8600874 ], [ -54.166503, -31.8599962 ], [ -54.1651833, -31.8603915 ], [ -54.1652262, -31.8619224 ], [ -54.1636259, -31.8621072 ], [ -54.1631016, -31.8622329 ], [ -54.1621626, -31.8624579 ], [ -54.1605324, -31.86272880000001 ], [ -54.1616482, -31.8667699 ], [ -54.1617003, -31.866875 ], [ -54.1629973, -31.8666093 ] ] ] } },
{ "type": "Feature", "properties": { "name": "Jardim da Serra", "code_muni": 4300034.0, "name_muni": "Aceguá" }, "geometry": { "type": "Polygon", "coordinates": [ [ [ -54.1669804, -31.8621388 ], [ -54.1669663, -31.8623048 ], [ -54.166963, -31.8624885 ], [ -54.1669777, -31.8629065 ], [ -54.1671464, -31.864226599999988 ], [ -54.1672373, -31.864932 ], [ -54.1672528, -31.865499599999989 ], [ -54.1673344, -31.8660102 ], [ -54.1674936, -31.866006 ], [ -54.168359, -31.8657084 ], [ -54.1697618, -31.8649704 ], [ -54.171734079664738, -31.863723485055413 ], [ -54.173182798418559, -31.862647484220023 ], [ -54.1723716, -31.8619497 ], [ -54.1687185, -31.8645284 ], [ -54.1683537, -31.8641503 ], [ -54.1681927, -31.8616923 ], [ -54.1670582, -31.861821 ], [ -54.1669804, -31.8621388 ] ] ] } },
{ "type": "Feature", "properties": { "name": "Bela Vista", "code_muni": 4300034.0, "name_muni": "Aceguá" }, "geometry": { "type": "Polygon", "coordinates": [ [ [ -54.1667417, -31.8659123 ], [ -54.1657666, -31.8660046 ], [ -54.1653746, -31.8660894 ], [ -54.164231, -31.8663466 ], [ -54.1629973, -31.8666093 ], [ -54.1617003, -31.866875 ], [ -54.1618505, -31.8672513 ], [ -54.1620263, -31.8678611 ], [ -54.1623425, -31.8689024 ], [ -54.1626728, -31.8699305 ], [ -54.1627774, -31.8701652 ], [ -54.162871713366812, -31.87030492629766 ], [ -54.164255665532444, -31.869277262897246 ], [ -54.1643135, -31.8692273 ], [ -54.1650039, -31.8686308 ], [ -54.1659589, -31.8677805 ], [ -54.1664053, -31.8673338 ], [ -54.1666143, -31.8670889 ], [ -54.1667618, -31.8668588 ], [ -54.1668697, -31.8666441 ], [ -54.1670261, -31.8662516 ], [ -54.16715880000001, -31.8658639 ], [ -54.1667417, -31.8659123 ] ] ] } }
]
}
