{
"type": "FeatureCollection",
"name": "bairros_caicara",
"crs": { "type": "name", "properties": { "name": "urn:ogc:def:crs:OGC:1.3:CRS84" } },
"features": [
{ "type": "Feature", "properties": { "name": "Centro", "code_muni": 4303400.0, "name_muni": "Caiçara" }, "geometry": { "type": "Polygon", "coordinates": [ [ [ -53.4270908, -27.2772883 ], [ -53.4232999, -27.27803 ], [ -53.4221079, -27.2803185 ], [ -53.424492, -27.2835182 ], [ -53.4270431, -27.2838784 ], [ -53.4283544, -27.2809118 ], [ -53.43374270000001, -27.2790683 ], [ -53.433242, -27.276589 ], [ -53.4382965, -27.276122799999989 ], [ -53.4378912, -27.2734315 ], [ -53.4325506, -27.2714819 ], [ -53.4289743, -27.2683455 ], [ -53.4271385, -27.2694687 ], [ -53.4270908, -27.2772883 ] ] ] } },
{ "type": "Feature", "properties": { "name": "Ipuaçu", "code_muni": 4303400.0, "name_muni": "Caiçara" }, "geometry": { "type": "Polygon", "coordinates": [ [ [ -53.5554672, -27.2117842 ], [ -53.5517423, -27.2076968 ], [ -53.5431062, -27.207403 ], [ -53.5419947, -27.2087387 ], [ -53.544533, -27.2129462 ], [ -53.5486483, -27.2168998 ], [ -53.5533194, -27.2132401 ], [ -53.5554672, -27.2117842 ] ] ] } }
]
}
