{
"type": "FeatureCollection",
"name": "bairros_novo_machado",
"crs": { "type": "name", "properties": { "name": "urn:ogc:def:crs:OGC:1.3:CRS84" } },
"features": [
{ "type": "Feature", "properties": { "code_muni": 4313425.0, "name_muni": "Novo Machado", "code_state": 43.0, "abbrev_state": "RS", "name_state": "Rio Grande do Sul", "code_region": 4.0, "name_region": "Sul", "year": 2022.0 }, "geometry": { "type": "Polygon", "coordinates": [ [ [ -54.520919004999897, -27.503316504999901 ], [ -54.510309359, -27.485487696999897 ], [ -54.506197772, -27.482349089 ], [ -54.500599059, -27.480353244 ], [ -54.491816008999898, -27.479808207 ], [ -54.474621323, -27.481232073999902 ], [ -54.4721723769999, -27.486174887999894 ], [ -54.478425616, -27.492325383 ], [ -54.477182281, -27.498224165 ], [ -54.475537475, -27.499107498999901 ], [ -54.471239387, -27.4984406999999 ], [ -54.475223066, -27.502634459 ], [ -54.46916565, -27.504027080999904 ], [ -54.46522891, -27.509992503 ], [ -54.469124181, -27.509693731 ], [ -54.47210596, -27.512993773999892 ], [ -54.471329539, -27.517821400999896 ], [ -54.467612144, -27.522608026999897 ], [ -54.473411020999897, -27.523674403 ], [ -54.472384679999898, -27.527422572 ], [ -54.466718532, -27.529399992 ], [ -54.463661164, -27.52866223 ], [ -54.458948745, -27.533870307 ], [ -54.456606069, -27.532809282999903 ], [ -54.456640708999892, -27.531179811 ], [ -54.460545459999892, -27.528159576 ], [ -54.45741008999989, -27.527330532 ], [ -54.455107031, -27.525032107 ], [ -54.456513959999896, -27.522203888 ], [ -54.455159883, -27.520630445999902 ], [ -54.451422856, -27.520487026999895 ], [ -54.447465381, -27.523607625999897 ], [ -54.4537356599999, -27.532256366 ], [ -54.452935538, -27.534405947 ], [ -54.449352959999899, -27.536846765 ], [ -54.441295548, -27.532445336 ], [ -54.431946652, -27.539374176 ], [ -54.429448537, -27.542917891999895 ], [ -54.424657913, -27.543783979 ], [ -54.425222849, -27.546597094999989 ], [ -54.423908277999899, -27.547358271 ], [ -54.448597137, -27.565647366999897 ], [ -54.444154145, -27.573811324 ], [ -54.444135902, -27.579755667 ], [ -54.478717401, -27.593419705 ], [ -54.483839455, -27.601874174999988 ], [ -54.492644571, -27.605273538999903 ], [ -54.508891354, -27.605791413 ], [ -54.51429143, -27.609785429999899 ], [ -54.517206062, -27.609957699999899 ], [ -54.520727622, -27.612194590999898 ], [ -54.528217185, -27.608188836 ], [ -54.529813124, -27.611770513 ], [ -54.534838610999891, -27.611303361 ], [ -54.539452078999894, -27.613753511 ], [ -54.54321899099989, -27.6122556299999 ], [ -54.547133709, -27.6133368019999 ], [ -54.550703778999903, -27.620962886 ], [ -54.554221605999892, -27.622199341999899 ], [ -54.557464345, -27.621072185999903 ], [ -54.563862018, -27.62944055 ], [ -54.56669693, -27.630842064 ], [ -54.571669782, -27.626756058 ], [ -54.580991245, -27.625131557 ], [ -54.582781646999905, -27.621766309 ], [ -54.579663584999899, -27.618135896 ], [ -54.574513377, -27.615430565999894 ], [ -54.565199639999904, -27.614404341999901 ], [ -54.567982774, -27.609316207999896 ], [ -54.563577983, -27.602579235 ], [ -54.5723420099999, -27.602229919 ], [ -54.579475064, -27.599931736 ], [ -54.580725902, -27.597957564999891 ], [ -54.577871257, -27.591191380999891 ], [ -54.582252036999897, -27.589285346999901 ], [ -54.583784089999895, -27.590542476999897 ], [ -54.583562959999902, -27.594347801 ], [ -54.585153411, -27.597016310999901 ], [ -54.591094563999896, -27.59723779 ], [ -54.597516565, -27.600064145 ], [ -54.601546653999897, -27.5992519069999 ], [ -54.600994977, -27.593210757999906 ], [ -54.595180174999903, -27.583317117 ], [ -54.599991938999892, -27.578569366 ], [ -54.590371987, -27.576262959 ], [ -54.596582613999892, -27.572315753999899 ], [ -54.60344193, -27.572903338999904 ], [ -54.60553672, -27.575113938 ], [ -54.605008422, -27.5809993 ], [ -54.606910221, -27.591311441 ], [ -54.611488768999898, -27.589089321999896 ], [ -54.621169645, -27.590654382 ], [ -54.622577954999898, -27.583785288999898 ], [ -54.618559503, -27.576720243999901 ], [ -54.618214601, -27.573418416 ], [ -54.623454227, -27.575032711999896 ], [ -54.628060906, -27.582169538999896 ], [ -54.63747037, -27.576007379 ], [ -54.63076999, -27.568195306 ], [ -54.619958300999897, -27.565940004 ], [ -54.616874913999894, -27.558859851 ], [ -54.618213432999902, -27.557547677999899 ], [ -54.635660764, -27.554692471 ], [ -54.631996958999906, -27.545698252 ], [ -54.626897461999896, -27.544022239999904 ], [ -54.620743111, -27.538785676 ], [ -54.615792062, -27.532240961 ], [ -54.609540507, -27.510420478999894 ], [ -54.594950028, -27.487367241 ], [ -54.591865222, -27.475134567999902 ], [ -54.591106575, -27.462852498 ], [ -54.589394274, -27.458184475999897 ], [ -54.586183169, -27.455073598 ], [ -54.5809710199999, -27.4532574099999 ], [ -54.573351228, -27.453610098999899 ], [ -54.561366964999898, -27.462498858999894 ], [ -54.542411504, -27.486749818 ], [ -54.537127099, -27.502813252999896 ], [ -54.534416753999892, -27.505661795999988 ], [ -54.52492355, -27.506171577 ], [ -54.520919004999897, -27.503316504999901 ] ] ] } }
]
}
