{
"type": "FeatureCollection",
"name": "bairros_cerro_largo",
"crs": { "type": "name", "properties": { "name": "urn:ogc:def:crs:OGC:1.3:CRS84" } },
"features": [
{ "type": "Feature", "properties": { "name": "Floresta", "code_muni": 4305207.0, "name_muni": "Cerro Largo" }, "geometry": { "type": "Polygon", "coordinates": [ [ [ -54.7372971, -28.1530435 ], [ -54.7372998, -28.1526048 ], [ -54.7372934, -28.151733 ], [ -54.7372943, -28.1516643 ], [ -54.7372945, -28.1510936 ], [ -54.7372971, -28.1503333 ], [ -54.7372891, -28.1502198 ], [ -54.7371865, -28.1502185 ], [ -54.7365691, -28.1502169 ], [ -54.7364821, -28.1502167 ], [ -54.7356882, -28.1502148 ], [ -54.7356027, -28.1502139 ], [ -54.7355227, -28.1502127 ], [ -54.7347933, -28.1502115 ], [ -54.7338484, -28.1502021 ], [ -54.7329564, -28.1501965 ], [ -54.7316039, -28.150188 ], [ -54.7315293, -28.15020980000001 ], [ -54.731544, -28.1503097 ], [ -54.73155, -28.1503504 ], [ -54.7318799, -28.1509714 ], [ -54.732132, -28.1518113 ], [ -54.7322469, -28.1525793 ], [ -54.7324396, -28.1533603 ], [ -54.7324507, -28.1536871 ], [ -54.7325619, -28.154161 ], [ -54.7325211, -28.1549094 ], [ -54.7325137, -28.1554094 ], [ -54.7325471, -28.1560434 ], [ -54.732751, -28.1562231 ], [ -54.7337928, -28.1561438 ], [ -54.7343823, -28.1561468 ], [ -54.7347184, -28.1561484 ], [ -54.734965, -28.1561556 ], [ -54.7355147, -28.1561712 ], [ -54.7355673, -28.1561667 ], [ -54.7355982, -28.1561674 ], [ -54.7356077, -28.156168 ], [ -54.7359975, -28.1561775 ], [ -54.7363681, -28.1561866 ], [ -54.737277, -28.1562088 ], [ -54.7372878, -28.1557873 ], [ -54.7372931, -28.1547533 ], [ -54.7372941, -28.1546204 ], [ -54.7372717, -28.153919699999985 ], [ -54.7372971, -28.1530435 ] ] ] } },
{ "type": "Feature", "properties": { "name": "Centro", "code_muni": 4305207.0, "name_muni": "Cerro Largo" }, "geometry": { "type": "Polygon", "coordinates": [ [ [ -54.7303157, -28.1478437 ], [ -54.7305307, -28.1479287 ], [ -54.7306864, -28.1481771 ], [ -54.7310052, -28.14887 ], [ -54.7310858, -28.1490902 ], [ -54.7312276, -28.1493961 ], [ -54.7314662, -28.1499266 ], [ -54.7314981, -28.1499975 ], [ -54.7315105, -28.1500935 ], [ -54.7316039, -28.150188 ], [ -54.7329564, -28.1501965 ], [ -54.7338484, -28.1502021 ], [ -54.7347933, -28.1502115 ], [ -54.7355696, -28.1502133 ], [ -54.7356882, -28.1502148 ], [ -54.7364821, -28.1502167 ], [ -54.7365691, -28.1502169 ], [ -54.7371865, -28.1502185 ], [ -54.7372891, -28.1502198 ], [ -54.7372934, -28.151733 ], [ -54.7441589, -28.1517741 ], [ -54.7441582, -28.1515303 ], [ -54.7441817, -28.150947 ], [ -54.7441957, -28.1502459 ], [ -54.74418, -28.1495528 ], [ -54.7441858, -28.1487421 ], [ -54.7442007, -28.1481511 ], [ -54.7442045, -28.1480039 ], [ -54.7442238, -28.1476653 ], [ -54.7442521, -28.1471678 ], [ -54.7443299, -28.1470732 ], [ -54.7448114, -28.146531599999989 ], [ -54.7449097, -28.1464088 ], [ -54.7455769, -28.14554 ], [ -54.7461058, -28.144432 ], [ -54.7462561, -28.1441084 ], [ -54.7461764, -28.1441043 ], [ -54.7461174, -28.1441018 ], [ -54.7460726, -28.1441019 ], [ -54.7456518, -28.1441027 ], [ -54.7447471, -28.1441044 ], [ -54.744587, -28.1441036 ], [ -54.7443682, -28.1441026 ], [ -54.744255, -28.1441021 ], [ -54.7435322, -28.1440987 ], [ -54.7430466, -28.1441002 ], [ -54.742789, -28.144101 ], [ -54.742642, -28.1441014 ], [ -54.7425087, -28.1441015 ], [ -54.7423052, -28.1440994 ], [ -54.741664, -28.1440929 ], [ -54.7408091, -28.1440856 ], [ -54.7406204, -28.1440844 ], [ -54.7405291, -28.1440838 ], [ -54.7401417, -28.1440815 ], [ -54.7392267, -28.1440744 ], [ -54.73906070000001, -28.1440731 ], [ -54.7389238, -28.1440735 ], [ -54.7374972, -28.1440777 ], [ -54.7373283, -28.1440782 ], [ -54.7338935, -28.1440836 ], [ -54.7338768, -28.1431059 ], [ -54.7338772, -28.1426656 ], [ -54.7287448, -28.1455024 ], [ -54.7288743, -28.1456152 ], [ -54.729053, -28.1457803 ], [ -54.7292579, -28.1459403 ], [ -54.7295211, -28.14609 ], [ -54.7296708, -28.1461582 ], [ -54.7299164, -28.1462829 ], [ -54.7300405, -28.146356 ], [ -54.7301521, -28.1464685 ], [ -54.7302009, -28.1465769 ], [ -54.7302277, -28.146795 ], [ -54.7302324, -28.1469203 ], [ -54.7302356, -28.1470843 ], [ -54.7302343, -28.1472011 ], [ -54.7302399, -28.1477619 ], [ -54.7303157, -28.1478437 ] ] ] } },
{ "type": "Feature", "properties": { "name": "São Pedro", "code_muni": 4305207.0, "name_muni": "Cerro Largo" }, "geometry": { "type": "Polygon", "coordinates": [ [ [ -54.7467835, -28.1430686 ], [ -54.7471713, -28.1424089 ], [ -54.7475786, -28.141716 ], [ -54.7485415, -28.1401938 ], [ -54.7464255, -28.1401474 ], [ -54.7440364, -28.1401198 ], [ -54.7401579, -28.140075 ], [ -54.7338376, -28.1399914 ], [ -54.7338459, -28.1404785 ], [ -54.7338429, -28.1407425 ], [ -54.7338481, -28.1410195 ], [ -54.7338594, -28.1416309 ], [ -54.73387, -28.1422455 ], [ -54.7338709, -28.1422994 ], [ -54.7338772, -28.1426656 ], [ -54.7338768, -28.1431059 ], [ -54.7338935, -28.1440836 ], [ -54.7356055, -28.144093 ], [ -54.7370062, -28.1440767 ], [ -54.7370702, -28.144077 ], [ -54.7371002, -28.1440771 ], [ -54.7373283, -28.1440782 ], [ -54.7374972, -28.1440777 ], [ -54.7389238, -28.1440735 ], [ -54.73906070000001, -28.1440731 ], [ -54.7392267, -28.1440744 ], [ -54.7401417, -28.1440815 ], [ -54.7405291, -28.1440838 ], [ -54.7406204, -28.1440844 ], [ -54.7408091, -28.1440856 ], [ -54.741664, -28.1440929 ], [ -54.7423052, -28.1440994 ], [ -54.7425087, -28.1441015 ], [ -54.742642, -28.1441014 ], [ -54.742789, -28.144101 ], [ -54.7427961, -28.1441009 ], [ -54.7430466, -28.1441002 ], [ -54.7435322, -28.1440987 ], [ -54.744255, -28.1441021 ], [ -54.7443682, -28.1441026 ], [ -54.744587, -28.1441036 ], [ -54.7462561, -28.1441084 ], [ -54.7465041, -28.143613 ], [ -54.7467835, -28.1430686 ] ] ] } },
{ "type": "Feature", "properties": { "name": "Santa Maria", "code_muni": 4305207.0, "name_muni": "Cerro Largo" }, "geometry": { "type": "Polygon", "coordinates": [ [ [ -54.7338481, -28.1410195 ], [ -54.7338429, -28.1407425 ], [ -54.7338459, -28.1404785 ], [ -54.7338376, -28.1399914 ], [ -54.7338285, -28.1395942 ], [ -54.7338242, -28.1393164 ], [ -54.7338363, -28.1385717 ], [ -54.7338466, -28.1378005 ], [ -54.733793, -28.1378133 ], [ -54.7326619, -28.1385721 ], [ -54.7316291, -28.1392792 ], [ -54.7305349, -28.1399927 ], [ -54.7305634, -28.1400113 ], [ -54.7311416, -28.1404298 ], [ -54.7316803, -28.1407497 ], [ -54.7319514, -28.1409087 ], [ -54.732656, -28.1412632 ], [ -54.7332461, -28.1414846 ], [ -54.7338594, -28.1416309 ], [ -54.7338481, -28.1410195 ] ] ] } },
{ "type": "Feature", "properties": { "name": "Santo Antônio", "code_muni": 4305207.0, "name_muni": "Cerro Largo" }, "geometry": { "type": "Polygon", "coordinates": [ [ [ -54.7517155, -28.1516977 ], [ -54.751654, -28.1515601 ], [ -54.751654, -28.1512932 ], [ -54.751651, -28.1509999 ], [ -54.7516768, -28.1508038 ], [ -54.751703, -28.1504209 ], [ -54.7517069, -28.1491414 ], [ -54.7498053, -28.1491414 ], [ -54.7498053, -28.1487924 ], [ -54.7464569, -28.1487441 ], [ -54.7453614, -28.1487463 ], [ -54.7441878, -28.1487544 ], [ -54.7441931, -28.1495493 ], [ -54.7442097, -28.1502619 ], [ -54.7441971, -28.1509517 ], [ -54.744185, -28.1517703 ], [ -54.7441268, -28.1542602 ], [ -54.7441647, -28.1546256 ], [ -54.7441812, -28.1547847 ], [ -54.7441814, -28.1547847 ], [ -54.751704, -28.1547008 ], [ -54.7517155, -28.1516977 ] ] ] } },
{ "type": "Feature", "properties": { "name": "Brasília", "code_muni": 4305207.0, "name_muni": "Cerro Largo" }, "geometry": { "type": "Polygon", "coordinates": [ [ [ -54.7210572, -28.1553578 ], [ -54.7212167, -28.1555453 ], [ -54.72461, -28.154173300000011 ], [ -54.7260888, -28.1535383 ], [ -54.7263946, -28.1539516 ], [ -54.7271236, -28.1536526 ], [ -54.7274407, -28.1535407 ], [ -54.7273983, -28.1534058 ], [ -54.7272842, -28.1531384 ], [ -54.7269581, -28.1521439 ], [ -54.726655, -28.151131 ], [ -54.7263459, -28.1501277 ], [ -54.7262092, -28.1496812 ], [ -54.7261713, -28.1495313 ], [ -54.7258616, -28.1496188 ], [ -54.724486, -28.1499279 ], [ -54.7239366, -28.1500211 ], [ -54.7234158, -28.1500542 ], [ -54.7227614, -28.1500931 ], [ -54.7212485, -28.150181 ], [ -54.7198725, -28.1502915 ], [ -54.7193895, -28.1503305 ], [ -54.7189645, -28.1503202 ], [ -54.7185013, -28.1503472 ], [ -54.7168493, -28.1504161 ], [ -54.7157072, -28.1504177 ], [ -54.7136912, -28.1503812 ], [ -54.7147097, -28.151703 ], [ -54.7177868, -28.1557016 ], [ -54.7192353, -28.1547471 ], [ -54.7200819, -28.1542051 ], [ -54.7206809, -28.1549165 ], [ -54.7210572, -28.1553578 ] ] ] } },
{ "type": "Feature", "properties": { "name": "Esplanada", "code_muni": 4305207.0, "name_muni": "Cerro Largo" }, "geometry": { "type": "Polygon", "coordinates": [ [ [ -54.7193895, -28.1503305 ], [ -54.7200473, -28.1502789 ], [ -54.7205028, -28.1502484 ], [ -54.7218666, -28.1501488 ], [ -54.7223391, -28.1501172 ], [ -54.7225036, -28.1501098 ], [ -54.7229339, -28.1500819 ], [ -54.7231828, -28.150067 ], [ -54.7236911, -28.1500391 ], [ -54.7241847, -28.1499889 ], [ -54.7253132, -28.1497397 ], [ -54.7255558, -28.1496932 ], [ -54.7261713, -28.1495313 ], [ -54.7261071, -28.1493476 ], [ -54.726052, -28.1491677 ], [ -54.7253907, -28.1470472 ], [ -54.7250064, -28.1457716 ], [ -54.7243148, -28.1459207 ], [ -54.7240482, -28.1460222 ], [ -54.7235386, -28.146193 ], [ -54.7230622, -28.1463719 ], [ -54.7223495, -28.1455095 ], [ -54.7218628, -28.144939 ], [ -54.7212904, -28.1442671 ], [ -54.7208997, -28.1439136 ], [ -54.7204719, -28.1435257 ], [ -54.7200087, -28.1440065 ], [ -54.7190082, -28.1446009 ], [ -54.7177232, -28.1450931 ], [ -54.7174599, -28.1454924 ], [ -54.7167542, -28.1457339 ], [ -54.7157958, -28.146254 ], [ -54.714711, -28.1471455 ], [ -54.7142613, -28.1473285 ], [ -54.7168493, -28.1504161 ], [ -54.7189645, -28.1503202 ], [ -54.7193895, -28.1503305 ] ] ] } },
{ "type": "Feature", "properties": { "name": "Urbanizar", "code_muni": 4305207.0, "name_muni": "Cerro Largo" }, "geometry": { "type": "Polygon", "coordinates": [ [ [ -54.7236027, -28.1446746 ], [ -54.7227797, -28.143729 ], [ -54.7227167, -28.1436805 ], [ -54.7226483, -28.1436652 ], [ -54.722255, -28.1436315 ], [ -54.7221762, -28.1436474 ], [ -54.722112, -28.1436794 ], [ -54.7216817, -28.1439662 ], [ -54.721336, -28.1442062 ], [ -54.7213058, -28.144234 ], [ -54.7212904, -28.1442671 ], [ -54.721861, -28.1449406 ], [ -54.7223495, -28.1455095 ], [ -54.7230622, -28.1463719 ], [ -54.7235386, -28.146193 ], [ -54.7240482, -28.1460222 ], [ -54.7243148, -28.1459207 ], [ -54.7241387, -28.1453114 ], [ -54.7236027, -28.1446746 ] ] ] } },
{ "type": "Feature", "properties": { "name": "Parque do Moinho", "code_muni": 4305207.0, "name_muni": "Cerro Largo" }, "geometry": { "type": "Polygon", "coordinates": [ [ [ -54.7314981, -28.1499975 ], [ -54.7314662, -28.1499266 ], [ -54.7312276, -28.1493961 ], [ -54.7310858, -28.1490902 ], [ -54.7310052, -28.14887 ], [ -54.7306864, -28.1481771 ], [ -54.7305307, -28.1479287 ], [ -54.7303157, -28.1478437 ], [ -54.7302399, -28.1477619 ], [ -54.7302343, -28.1472011 ], [ -54.7302356, -28.1470843 ], [ -54.7302324, -28.1469203 ], [ -54.7302277, -28.146795 ], [ -54.7302009, -28.1465769 ], [ -54.7301521, -28.1464685 ], [ -54.7300405, -28.146356 ], [ -54.7299164, -28.1462829 ], [ -54.7296708, -28.1461582 ], [ -54.7295211, -28.14609 ], [ -54.7292579, -28.1459403 ], [ -54.729053, -28.1457803 ], [ -54.7288743, -28.1456152 ], [ -54.7287448, -28.1455024 ], [ -54.7285083, -28.1455574 ], [ -54.7264545, -28.1455853 ], [ -54.7261702, -28.145056 ], [ -54.7255954, -28.144251 ], [ -54.7247294, -28.1448522 ], [ -54.7250064, -28.1457716 ], [ -54.7253907, -28.1470472 ], [ -54.726052, -28.1491677 ], [ -54.7261071, -28.1493476 ], [ -54.7261713, -28.1495313 ], [ -54.7263459, -28.1501277 ], [ -54.7265352, -28.1501348 ], [ -54.7269219, -28.1501348 ], [ -54.7269911, -28.1501363 ], [ -54.7270592, -28.1501382 ], [ -54.7271412, -28.1501394 ], [ -54.7276562, -28.1501506 ], [ -54.7277997, -28.1501534 ], [ -54.7279256, -28.1501558 ], [ -54.7285968, -28.1501698 ], [ -54.7287622, -28.1501732 ], [ -54.7294363, -28.1501873 ], [ -54.7301964, -28.1502032 ], [ -54.7308203, -28.150196199999989 ], [ -54.7314055, -28.1501896 ], [ -54.7316039, -28.150188 ], [ -54.7315105, -28.1500935 ], [ -54.7314981, -28.1499975 ] ] ] } },
{ "type": "Feature", "properties": { "name": "São Fernando", "code_muni": 4305207.0, "name_muni": "Cerro Largo" }, "geometry": { "type": "Polygon", "coordinates": [ [ [ -54.7440364, -28.1401198 ], [ -54.7464255, -28.1401474 ], [ -54.7482279, -28.1401873 ], [ -54.7485415, -28.1401938 ], [ -54.7543869, -28.1402001 ], [ -54.7544872, -28.1402002 ], [ -54.7545372, -28.1402002 ], [ -54.7545423, -28.1356583 ], [ -54.7441367, -28.1355989 ], [ -54.7440364, -28.1401198 ] ] ] } },
{ "type": "Feature", "properties": { "name": "Angst", "code_muni": 4305207.0, "name_muni": "Cerro Largo" }, "geometry": { "type": "Polygon", "coordinates": [ [ [ -54.7524517, -28.1436012 ], [ -54.7524397, -28.1424213 ], [ -54.7512809, -28.1424186 ], [ -54.7483157, -28.1424116 ], [ -54.7475563, -28.1424098 ], [ -54.7471713, -28.1424089 ], [ -54.7467835, -28.1430686 ], [ -54.7465041, -28.143613 ], [ -54.7524517, -28.1436012 ] ] ] } },
{ "type": "Feature", "properties": { "name": "Linha Caçador", "code_muni": 4305207.0, "name_muni": "Cerro Largo" }, "geometry": { "type": "Polygon", "coordinates": [ [ [ -54.7653298, -28.1003491 ], [ -54.7642923, -28.1003387 ], [ -54.7644595, -28.1244455 ], [ -54.7644738, -28.1265044 ], [ -54.7645375, -28.1356825 ], [ -54.7645689, -28.1402089 ], [ -54.7645846, -28.1424723 ], [ -54.7646432, -28.1509245 ], [ -54.7745597, -28.1508181 ], [ -54.7745309, -28.1543935 ], [ -54.7750967, -28.1540593 ], [ -54.7780845, -28.1513053 ], [ -54.7799858, -28.1507664 ], [ -54.7818192, -28.1511855 ], [ -54.7843996, -28.1528619 ], [ -54.7850294, -28.1542486 ], [ -54.7852577, -28.100548 ], [ -54.7653298, -28.1003491 ] ] ] } },
{ "type": "Feature", "properties": { "name": "Linha Reserva", "code_muni": 4305207.0, "name_muni": "Cerro Largo" }, "geometry": { "type": "Polygon", "coordinates": [ [ [ -54.7448992, -28.0766437 ], [ -54.7430703, -28.0765718 ], [ -54.7426964, -28.0767975 ], [ -54.742119, -28.076901 ], [ -54.7415911, -28.0772963 ], [ -54.7409125, -28.0772932 ], [ -54.7398198, -28.0773004 ], [ -54.7339793, -28.0772472 ], [ -54.7338799, -28.13558 ], [ -54.7441367, -28.1355989 ], [ -54.7441499, -28.1345497 ], [ -54.7441718, -28.1327964 ], [ -54.7441925, -28.1311452 ], [ -54.7442515, -28.1264398 ], [ -54.7446836, -28.100107 ], [ -54.7448992, -28.0766437 ] ] ] } },
{ "type": "Feature", "properties": { "name": "Linha Marreca", "code_muni": 4305207.0, "name_muni": "Cerro Largo" }, "geometry": { "type": "Polygon", "coordinates": [ [ [ -54.7269817, -28.1366244 ], [ -54.7274239, -28.1366111 ], [ -54.727759, -28.1366091 ], [ -54.7282067, -28.1366266 ], [ -54.7286487, -28.1367137 ], [ -54.7290362, -28.1369029 ], [ -54.7293675, -28.137207 ], [ -54.7295864, -28.1375672 ], [ -54.7296645, -28.1378985 ], [ -54.7296656, -28.1384672 ], [ -54.7297659, -28.1390037 ], [ -54.7298586, -28.1392172 ], [ -54.7298727, -28.1392496 ], [ -54.7300342, -28.1394829 ], [ -54.7303113, -28.1397994 ], [ -54.730385, -28.1398813 ], [ -54.7305349, -28.1399927 ], [ -54.7316291, -28.1392792 ], [ -54.7326619, -28.1385721 ], [ -54.7338466, -28.1378005 ], [ -54.7338799, -28.13558 ], [ -54.7339793, -28.0772472 ], [ -54.730188, -28.077188 ], [ -54.727664, -28.0771573 ], [ -54.7270109, -28.0771513 ], [ -54.724313, -28.0771295 ], [ -54.7240205, -28.0771279 ], [ -54.7235391, -28.0771253 ], [ -54.7197089, -28.0770917 ], [ -54.7174569, -28.0771039 ], [ -54.7173576, -28.0875557 ], [ -54.7171825, -28.1059789 ], [ -54.722467, -28.1059955 ], [ -54.7226673, -28.1155273 ], [ -54.7211177, -28.1155104 ], [ -54.7212383, -28.1165296 ], [ -54.7218587, -28.1178525 ], [ -54.7220624, -28.1188755 ], [ -54.7223149, -28.1200875 ], [ -54.7196065, -28.1200802 ], [ -54.7195684, -28.1220172 ], [ -54.7195265, -28.1351629 ], [ -54.7210281, -28.1351454 ], [ -54.7218967, -28.135135299999988 ], [ -54.7220593, -28.1354999 ], [ -54.7241928, -28.1355639 ], [ -54.7242384, -28.135568 ], [ -54.7245506, -28.1355958 ], [ -54.7247844, -28.1357054 ], [ -54.7248703, -28.1357609 ], [ -54.7251922, -28.1359686 ], [ -54.7257345, -28.1363459 ], [ -54.7261622, -28.1365389 ], [ -54.7265055, -28.136626599999989 ], [ -54.7269084, -28.1366266 ], [ -54.7269817, -28.1366244 ] ] ] } },
{ "type": "Feature", "properties": { "name": "Linha Cega", "code_muni": 4305207.0, "name_muni": "Cerro Largo" }, "geometry": { "type": "Polygon", "coordinates": [ [ [ -54.7171825, -28.1059789 ], [ -54.7113844, -28.1059933 ], [ -54.7114045, -28.1085168 ], [ -54.7102099, -28.1097132 ], [ -54.710218, -28.1109392 ], [ -54.7102901, -28.1112408 ], [ -54.7114078, -28.1116004 ], [ -54.7119048, -28.1120167 ], [ -54.7123166, -28.113878 ], [ -54.7120785, -28.1141838 ], [ -54.7118071, -28.1145647 ], [ -54.7116993, -28.1150218 ], [ -54.7109451, -28.1150232 ], [ -54.7106848, -28.1168799 ], [ -54.7106642, -28.1179098 ], [ -54.7146848, -28.1179159 ], [ -54.7147363, -28.1208085 ], [ -54.7148081, -28.1208077 ], [ -54.7150244, -28.1208061 ], [ -54.7153965, -28.1208026 ], [ -54.7155874, -28.1208003 ], [ -54.7164481, -28.1208394 ], [ -54.7168556, -28.120900299999988 ], [ -54.7169975, -28.1209215 ], [ -54.71716, -28.1209458 ], [ -54.7172102, -28.1209533 ], [ -54.717249, -28.120965 ], [ -54.7174018, -28.1210111 ], [ -54.7174296, -28.121019 ], [ -54.7176402, -28.1210789 ], [ -54.7180361, -28.1211914 ], [ -54.718748, -28.1214839 ], [ -54.7190545, -28.1216482 ], [ -54.7193186, -28.1218144 ], [ -54.7194858, -28.1219244 ], [ -54.7195684, -28.1220172 ], [ -54.7196065, -28.1200802 ], [ -54.7223149, -28.1200875 ], [ -54.7220624, -28.1188755 ], [ -54.7218587, -28.1178525 ], [ -54.7212383, -28.1165296 ], [ -54.7211177, -28.1155104 ], [ -54.7226673, -28.1155273 ], [ -54.722467, -28.1059955 ], [ -54.7171825, -28.1059789 ] ] ] } },
{ "type": "Feature", "properties": { "name": "Linha Atolosa", "code_muni": 4305207.0, "name_muni": "Cerro Largo" }, "geometry": { "type": "Polygon", "coordinates": [ [ [ -54.6968127, -28.117568599999988 ], [ -54.6994882, -28.1186871 ], [ -54.7017678, -28.1196711 ], [ -54.702157, -28.1198283 ], [ -54.7027971, -28.1200535 ], [ -54.703679, -28.1203104 ], [ -54.7044005, -28.1205023 ], [ -54.7051913, -28.120657 ], [ -54.7059051, -28.1207739 ], [ -54.7060419, -28.120796299999988 ], [ -54.7062897, -28.1208307 ], [ -54.7064473, -28.1208423 ], [ -54.7066133, -28.1208578 ], [ -54.7067723, -28.1208699 ], [ -54.7068815, -28.120880199999988 ], [ -54.7069778, -28.1208866 ], [ -54.7070813, -28.120889699999985 ], [ -54.7072514, -28.120895599999987 ], [ -54.7074424, -28.1209009 ], [ -54.7082098, -28.1209239 ], [ -54.7100537, -28.1208888 ], [ -54.7122566, -28.1208469 ], [ -54.7128934, -28.1208348 ], [ -54.7134087, -28.1208274 ], [ -54.7137399, -28.1208227 ], [ -54.7144235, -28.120813 ], [ -54.714589, -28.1208106 ], [ -54.7147363, -28.1208085 ], [ -54.7146848, -28.1179159 ], [ -54.7106642, -28.1179098 ], [ -54.7106848, -28.1168799 ], [ -54.7109451, -28.1150232 ], [ -54.7116993, -28.1150218 ], [ -54.7118071, -28.1145647 ], [ -54.7120785, -28.1141838 ], [ -54.7123166, -28.113878 ], [ -54.7119048, -28.1120167 ], [ -54.7114078, -28.1116004 ], [ -54.7102901, -28.1112408 ], [ -54.710218, -28.1109392 ], [ -54.7102099, -28.1097132 ], [ -54.7114045, -28.1085168 ], [ -54.7113844, -28.1059933 ], [ -54.7171825, -28.1059789 ], [ -54.7173576, -28.0875557 ], [ -54.7174569, -28.0771039 ], [ -54.7197089, -28.0770917 ], [ -54.7197987, -28.0675415 ], [ -54.7148851, -28.0675187 ], [ -54.7128169, -28.0675011 ], [ -54.7108843, -28.0675417 ], [ -54.710736144000045, -28.067640407924191 ], [ -54.71069241, -28.067722089 ], [ -54.710561825910752, -28.067756545749212 ], [ -54.7104924, -28.0678028 ], [ -54.7097187, -28.0680393 ], [ -54.709459256596247, -28.068047471028088 ], [ -54.703935716537458, -28.069504766108743 ], [ -54.7035984, -28.0697222 ], [ -54.7034801, -28.0697694 ], [ -54.7022343, -28.070059 ], [ -54.7020274, -28.0700359 ], [ -54.701914, -28.070016 ], [ -54.6996969, -28.0694725 ], [ -54.6977276, -28.0682884 ], [ -54.6970946, -28.0678382 ], [ -54.6968127, -28.117568599999988 ] ] ] } },
{ "type": "Feature", "properties": { "name": "Linha São João Centro", "code_muni": 4305207.0, "name_muni": "Cerro Largo" }, "geometry": { "type": "Polygon", "coordinates": [ [ [ -54.7545614, -28.126484 ], [ -54.7644738, -28.1265044 ], [ -54.7644595, -28.1244455 ], [ -54.7642923, -28.1003387 ], [ -54.7446836, -28.100107 ], [ -54.7442515, -28.1264398 ], [ -54.7545614, -28.126484 ] ] ] } },
{ "type": "Feature", "properties": { "name": "Linha Santa Fé", "code_muni": 4305207.0, "name_muni": "Cerro Largo" }, "geometry": { "type": "Polygon", "coordinates": [ [ [ -54.7856378, -28.0693664 ], [ -54.7828176, -28.0692707 ], [ -54.78308, -28.0653513 ], [ -54.7857176, -28.0654146 ], [ -54.785892, -28.0514167 ], [ -54.7857425, -28.0514235 ], [ -54.7856031, -28.0514237 ], [ -54.7854905, -28.05140960000001 ], [ -54.785255, -28.051353 ], [ -54.785162, -28.0513157 ], [ -54.785066, -28.05126 ], [ -54.7839167, -28.0504485 ], [ -54.783902339903669, -28.050432107821489 ], [ -54.783901057, -28.050431713 ], [ -54.78390138487223, -28.0504310176443 ], [ -54.7838743, -28.0504001 ], [ -54.7838524, -28.0503348 ], [ -54.7838314, -28.0502288 ], [ -54.7837889, -28.049888 ], [ -54.7837929, -28.0498069 ], [ -54.7838058, -28.0497343 ], [ -54.7838944, -28.0494866 ], [ -54.7839246, -28.0494255 ], [ -54.7842206, -28.0489875 ], [ -54.7842681, -28.0489247 ], [ -54.7848987, -28.0481937 ], [ -54.7849687, -28.048097 ], [ -54.7850258, -28.0480099 ], [ -54.785197358150349, -28.047682434715576 ], [ -54.786602570301611, -28.044702022097432 ], [ -54.786592534831996, -28.044664599707989 ], [ -54.783875575, -28.043121237 ], [ -54.78366115262201, -28.043140168671393 ], [ -54.7828575, -28.0434975 ], [ -54.7827279, -28.0435422 ], [ -54.7825629, -28.0435655 ], [ -54.7802043, -28.0438467 ], [ -54.778607029039037, -28.043586306648891 ], [ -54.775989126093812, -28.043817320359629 ], [ -54.7759476, -28.0438235 ], [ -54.775940623098151, -28.043821599971807 ], [ -54.775780717, -28.04383570899989 ], [ -54.769895966402707, -28.04260413065845 ], [ -54.769803, -28.0426058 ], [ -54.7682887, -28.0419668 ], [ -54.7676208, -28.0414739 ], [ -54.76758709372546, -28.041339453510243 ], [ -54.767510777, -28.041297024 ], [ -54.766914346537675, -28.039552884737482 ], [ -54.7653298, -28.1003491 ], [ -54.7852577, -28.100548 ], [ -54.7856378, -28.0693664 ] ] ] } },
{ "type": "Feature", "properties": { "name": "Linha Santo Antônio", "code_muni": 4305207.0, "name_muni": "Cerro Largo" }, "geometry": { "type": "Polygon", "coordinates": [ [ [ -54.7964573, -28.0903062 ], [ -54.7965217, -28.1006604 ], [ -54.7852577, -28.100548 ], [ -54.785158, -28.1240054 ], [ -54.7851368, -28.1289905 ], [ -54.7850294, -28.1542486 ], [ -54.7853924, -28.155048 ], [ -54.7835847, -28.1591182 ], [ -54.7830415, -28.1615727 ], [ -54.78253084628993, -28.169051184586792 ], [ -54.785088854, -28.171357147 ], [ -54.788143509999891, -28.171612937 ], [ -54.791944777758587, -28.174167626211496 ], [ -54.795071, -28.1754562 ], [ -54.7952666, -28.1289955 ], [ -54.7952785, -28.1267949 ], [ -54.795314614901862, -28.126795234559999 ], [ -54.795314645, -28.126787029999885 ], [ -54.801703071983361, -28.126776051246971 ], [ -54.8021842, -28.1267557 ], [ -54.803081, -28.1265967 ], [ -54.8036107, -28.1266104 ], [ -54.8044221, -28.1267156 ], [ -54.8051343, -28.1267328 ], [ -54.805502096040655, -28.126742719342946 ], [ -54.805606395769338, -28.090427335467041 ], [ -54.7964573, -28.0903062 ] ] ] } },
{ "type": "Feature", "properties": { "name": "Linha São Francisco", "code_muni": 4305207.0, "name_muni": "Cerro Largo" }, "geometry": { "type": "Polygon", "coordinates": [ [ [ -54.8034253, -28.0460919 ], [ -54.8033393, -28.0460665 ], [ -54.8032732, -28.0460444 ], [ -54.8031896, -28.0460073 ], [ -54.801144671659614, -28.044952065416368 ], [ -54.800994434, -28.044913844 ], [ -54.800959790997723, -28.044856659673144 ], [ -54.8007345, -28.0447404 ], [ -54.8006879, -28.044703099999989 ], [ -54.8006514, -28.0446642 ], [ -54.8006153, -28.0446111 ], [ -54.800187946361518, -28.043582575081032 ], [ -54.798995354237668, -28.041613886265601 ], [ -54.79882939626247, -28.04155940361947 ], [ -54.793488146999891, -28.042007216999899 ], [ -54.795277549113614, -28.044652790853213 ], [ -54.7965026, -28.0457655 ], [ -54.796579, -28.045864 ], [ -54.7976064, -28.0474488 ], [ -54.798243, -28.0484938 ], [ -54.7984305, -28.0488288 ], [ -54.7992181, -28.0504854 ], [ -54.7992427, -28.0505586 ], [ -54.799236, -28.0506641 ], [ -54.7992051, -28.0507741 ], [ -54.7988575, -28.0517446 ], [ -54.7988409, -28.0517763 ], [ -54.798813, -28.0518152 ], [ -54.798689451801003, -28.051937725514726 ], [ -54.798660470999899, -28.052038907999897 ], [ -54.798531203247428, -28.052091593459661 ], [ -54.7984596, -28.0521584 ], [ -54.7984281, -28.0521819 ], [ -54.7983739, -28.0522099 ], [ -54.798327, -28.0522273 ], [ -54.798106890015163, -28.052264528983354 ], [ -54.794908092406679, -28.053568191467878 ], [ -54.7948667, -28.0536132 ], [ -54.7947997, -28.053652 ], [ -54.7947238, -28.0536671 ], [ -54.794657206402455, -28.053670435160761 ], [ -54.794557923, -28.053710895999902 ], [ -54.79184238962516, -28.052875410952296 ], [ -54.79071, -28.0530111 ], [ -54.790665, -28.0530114 ], [ -54.7906035, -28.0529988 ], [ -54.7905149, -28.0529485 ], [ -54.7897233, -28.0524207 ], [ -54.789294843415746, -28.052091547390326 ], [ -54.786303870748952, -28.051171166609869 ], [ -54.785892, -28.0514167 ], [ -54.7857176, -28.0654146 ], [ -54.78308, -28.0653513 ], [ -54.7828176, -28.0692707 ], [ -54.7856378, -28.0693664 ], [ -54.7852577, -28.100548 ], [ -54.7965217, -28.1006604 ], [ -54.7964573, -28.0903062 ], [ -54.805606395769338, -28.090427335467041 ], [ -54.805623786999895, -28.084420681 ], [ -54.806802417, -28.083095585999981 ], [ -54.808054845870181, -28.046770921494005 ], [ -54.8034253, -28.0460919 ] ] ] } },
{ "type": "Feature", "properties": { "name": "Linha Tremônia", "code_muni": 4305207.0, "name_muni": "Cerro Largo" }, "geometry": { "type": "Polygon", "coordinates": [ [ [ -54.677164, -28.1932345 ], [ -54.6731299, -28.1960146 ], [ -54.684796205879174, -28.208937845786892 ], [ -54.685181298, -28.208016788999895 ], [ -54.689082968569181, -28.20303866077565 ], [ -54.6894285, -28.2024356 ], [ -54.690193639556028, -28.201621463420633 ], [ -54.690657730999895, -28.201029278 ], [ -54.690792956267074, -28.200983757670443 ], [ -54.6914643, -28.2002694 ], [ -54.6928546, -28.199613 ], [ -54.694665036055298, -28.199680244486768 ], [ -54.694725569999903, -28.199659864999902 ], [ -54.694751294987753, -28.199683447772127 ], [ -54.6952132, -28.1997006 ], [ -54.6964718, -28.2007458 ], [ -54.6977207, -28.2025012 ], [ -54.6982173, -28.2056299 ], [ -54.697969, -28.2086054 ], [ -54.6967028, -28.2134404 ], [ -54.693615853655892, -28.219525079441958 ], [ -54.690451967307965, -28.227771828318581 ], [ -54.6903223, -28.2284691 ], [ -54.690342051813964, -28.228590935412463 ], [ -54.694628395697187, -28.234271007350234 ], [ -54.694951297693692, -28.234360518951764 ], [ -54.700613733142553, -28.235601685990915 ], [ -54.701002215198706, -28.235674284228629 ], [ -54.703749604105909, -28.234531803528011 ], [ -54.704730751570722, -28.233933388155872 ], [ -54.705992973781534, -28.232072913514326 ], [ -54.706775883864985, -28.229393950224654 ], [ -54.710144818999893, -28.20820594 ], [ -54.712403149999894, -28.206035772 ], [ -54.713304388314242, -28.205975408813298 ], [ -54.7145428, -28.2053548 ], [ -54.7169759, -28.205354799999988 ], [ -54.720023726283543, -28.207036564655596 ], [ -54.72495860759102, -28.208872815608018 ], [ -54.726229, -28.2020786 ], [ -54.725541, -28.2019569 ], [ -54.7248088, -28.2017607 ], [ -54.723636, -28.2018003 ], [ -54.720524, -28.2013707 ], [ -54.7191802, -28.2008542 ], [ -54.7179175, -28.1999287 ], [ -54.7164147, -28.1992917 ], [ -54.7157147, -28.1985459 ], [ -54.7114393, -28.1960898 ], [ -54.70923, -28.1949257 ], [ -54.70843, -28.1943427 ], [ -54.7065759, -28.1923093 ], [ -54.70344930000001, -28.1874781 ], [ -54.7024514, -28.1866388 ], [ -54.6989146, -28.1836642 ], [ -54.698279, -28.1827269 ], [ -54.6980444, -28.1823202 ], [ -54.698204, -28.1821382 ], [ -54.698393, -28.1817008 ], [ -54.6989612, -28.1804835 ], [ -54.699947, -28.1796603 ], [ -54.7015728, -28.178603 ], [ -54.6990021, -28.1757137 ], [ -54.6977633, -28.174321 ], [ -54.6989435, -28.1735454 ], [ -54.6947593, -28.1688165 ], [ -54.6985144, -28.1662628 ], [ -54.693931341135226, -28.160973462268775 ], [ -54.665645442149675, -28.18037436956384 ], [ -54.677164, -28.1932345 ] ] ] } },
{ "type": "Feature", "properties": { "name": "Linha Poço Preto", "code_muni": 4305207.0, "name_muni": "Cerro Largo" }, "geometry": { "type": "Polygon", "coordinates": [ [ [ -54.6351991, -28.2060813 ], [ -54.635306967302824, -28.206385863538944 ], [ -54.639342615, -28.201607397 ], [ -54.640429767234878, -28.201310614551954 ], [ -54.6407302, -28.2010038 ], [ -54.643450311529996, -28.200485981496335 ], [ -54.657426619369005, -28.196669330011517 ], [ -54.6607037, -28.195412 ], [ -54.6622878, -28.195129 ], [ -54.6628388, -28.1952807 ], [ -54.667617300000011, -28.2009839 ], [ -54.6679035, -28.2023043 ], [ -54.6673573, -28.2035514 ], [ -54.664952303718849, -28.206059420649741 ], [ -54.663829870119137, -28.207849158524997 ], [ -54.663312691293292, -28.208972639842408 ], [ -54.663866387234712, -28.213075146079809 ], [ -54.664037164051066, -28.213534999166747 ], [ -54.665622942825443, -28.215792140027556 ], [ -54.6682511, -28.2163282 ], [ -54.6693931, -28.2171814 ], [ -54.6701131, -28.2182533 ], [ -54.6709572, -28.2222785 ], [ -54.671848719464997, -28.225361620637194 ], [ -54.67393949902845, -28.227070934297888 ], [ -54.674524994412437, -28.22707761317147 ], [ -54.679381691658868, -28.221653661761959 ], [ -54.679847844977424, -28.220771964290385 ], [ -54.684796205879174, -28.208937845786892 ], [ -54.6731299, -28.1960146 ], [ -54.677164, -28.1932345 ], [ -54.665645442149675, -28.18037436956384 ], [ -54.635199096901857, -28.201243506862291 ], [ -54.6351991, -28.2060813 ] ] ] } },
{ "type": "Feature", "properties": { "name": "Linha Taquarussu", "code_muni": 4305207.0, "name_muni": "Cerro Largo" }, "geometry": { "type": "Polygon", "coordinates": [ [ [ -54.70344930000001, -28.1874781 ], [ -54.7065759, -28.1923093 ], [ -54.70843, -28.1943427 ], [ -54.70923, -28.1949257 ], [ -54.7114393, -28.1960898 ], [ -54.7157147, -28.1985459 ], [ -54.7164147, -28.1992917 ], [ -54.7179175, -28.1999287 ], [ -54.7191802, -28.2008542 ], [ -54.720524, -28.2013707 ], [ -54.7211147, -28.2014746 ], [ -54.7223866, -28.2016456 ], [ -54.723636, -28.2018003 ], [ -54.7248088, -28.2017607 ], [ -54.726229, -28.2020786 ], [ -54.72495860759102, -28.208872815608018 ], [ -54.730077400654579, -28.210777233800751 ], [ -54.7342923, -28.2115535 ], [ -54.738173389259956, -28.212771431248758 ], [ -54.739823470219434, -28.212800498675531 ], [ -54.74320520765346, -28.211150788027773 ], [ -54.744206996698956, -28.210315843853866 ], [ -54.7447222, -28.2096641 ], [ -54.744943330254081, -28.209186384192076 ], [ -54.744450144, -28.204448272 ], [ -54.739428008999901, -28.198131713999896 ], [ -54.734853648, -28.188461042 ], [ -54.733358751, -28.184167817999892 ], [ -54.733370936346098, -28.183966196303164 ], [ -54.7240495, -28.1744689 ], [ -54.7087287, -28.185042 ], [ -54.7070991, -28.1832338 ], [ -54.7024514, -28.1866388 ], [ -54.70344930000001, -28.1874781 ] ] ] } },
{ "type": "Feature", "properties": { "name": "Linha Santa Bárbara", "code_muni": 4305207.0, "name_muni": "Cerro Largo" }, "geometry": { "type": "Polygon", "coordinates": [ [ [ -54.7321622, -28.1645192 ], [ -54.7282919, -28.1647562 ], [ -54.728225, -28.1640072 ], [ -54.7274054, -28.1640628 ], [ -54.7224552, -28.1584451 ], [ -54.7212781, -28.1592621 ], [ -54.709315, -28.1675451 ], [ -54.7100494, -28.1683648 ], [ -54.7093481, -28.1683455 ], [ -54.7085501, -28.1685488 ], [ -54.7079649, -28.1684862 ], [ -54.7075216, -28.1686582 ], [ -54.7071669, -28.1686269 ], [ -54.7064044, -28.1691741 ], [ -54.7053049, -28.1697056 ], [ -54.7045778, -28.1697525 ], [ -54.7045778, -28.170331 ], [ -54.7047906, -28.1708469 ], [ -54.7044714, -28.1712377 ], [ -54.6990021, -28.1757137 ], [ -54.7015728, -28.178603 ], [ -54.7004637, -28.1793437 ], [ -54.699947, -28.1796603 ], [ -54.6989612, -28.1804835 ], [ -54.698393, -28.1817008 ], [ -54.698204, -28.1821382 ], [ -54.6980444, -28.1823202 ], [ -54.6989146, -28.1836642 ], [ -54.7024514, -28.1866388 ], [ -54.7070991, -28.1832338 ], [ -54.7087287, -28.185042 ], [ -54.7240495, -28.1744689 ], [ -54.733370936346098, -28.183966196303164 ], [ -54.733667007, -28.179067338999989 ], [ -54.73442696936592, -28.17843108763077 ], [ -54.7364729, -28.1764716 ], [ -54.7371507, -28.1765115 ], [ -54.740754, -28.1767238 ], [ -54.7420296, -28.1774751 ], [ -54.741956, -28.1764727 ], [ -54.741956, -28.1747237 ], [ -54.7418794, -28.172802 ], [ -54.7417857, -28.1708128 ], [ -54.7415473, -28.1698669 ], [ -54.7411555, -28.1693039 ], [ -54.7402274, -28.1687709 ], [ -54.7395802, -28.1685832 ], [ -54.737826, -28.1685607 ], [ -54.7358419, -28.1686058 ], [ -54.7342835, -28.1684556 ], [ -54.7331595, -28.167795 ], [ -54.732589, -28.1670143 ], [ -54.7325975, -28.1663537 ], [ -54.7329126, -28.1660008 ], [ -54.733432, -28.1653477 ], [ -54.7346582, -28.1643417 ], [ -54.7321622, -28.1645192 ] ] ] } },
{ "type": "Feature", "properties": { "name": "Industrial I", "code_muni": 4305207.0, "name_muni": "Cerro Largo" }, "geometry": { "type": "Polygon", "coordinates": [ [ [ -54.7210572, -28.1553578 ], [ -54.7206809, -28.1549165 ], [ -54.7200819, -28.1542051 ], [ -54.7192353, -28.1547471 ], [ -54.7179517, -28.1555869 ], [ -54.7212781, -28.1592621 ], [ -54.7224552, -28.1584451 ], [ -54.7212022, -28.1570334 ], [ -54.7220068, -28.1565081 ], [ -54.7212167, -28.1555453 ], [ -54.7210572, -28.1553578 ] ] ] } },
{ "type": "Feature", "properties": { "name": "Linha Encantado", "code_muni": 4305207.0, "name_muni": "Cerro Largo" }, "geometry": { "type": "Polygon", "coordinates": [ [ [ -54.7136912, -28.1503812 ], [ -54.7168493, -28.1504161 ], [ -54.7142613, -28.1473285 ], [ -54.7132048, -28.1477584 ], [ -54.712773, -28.1477584 ], [ -54.7121727, -28.1473498 ], [ -54.7117177, -28.1472925 ], [ -54.7114752, -28.147229 ], [ -54.7114149, -28.1471111 ], [ -54.711312, -28.1470555 ], [ -54.711237, -28.1470224 ], [ -54.7111637, -28.1469399 ], [ -54.7108674, -28.146763 ], [ -54.7103849, -28.1468593 ], [ -54.7101219, -28.1471177 ], [ -54.7098112, -28.1472234 ], [ -54.7093392, -28.147195 ], [ -54.7091568, -28.1470815 ], [ -54.7088349, -28.1467693 ], [ -54.7085667, -28.1464003 ], [ -54.7084808, -28.1462111 ], [ -54.70836280000001, -28.1457949 ], [ -54.7083736, -28.1454165 ], [ -54.7084916, -28.1452557 ], [ -54.7086847, -28.1451611 ], [ -54.7091031, -28.1451043 ], [ -54.7091509, -28.1450855 ], [ -54.7092715, -28.1450383 ], [ -54.7092962, -28.1450286 ], [ -54.7096503, -28.144839399999988 ], [ -54.7097683, -28.1447448 ], [ -54.7092104, -28.1443096 ], [ -54.7088027, -28.143865 ], [ -54.7085667, -28.1437136 ], [ -54.7078371, -28.1434393 ], [ -54.7071076, -28.1434014 ], [ -54.7062385, -28.1434109 ], [ -54.705004700000011, -28.1435528 ], [ -54.7043181, -28.143562299999989 ], [ -54.7041142, -28.1434866 ], [ -54.7039211, -28.1433163 ], [ -54.7037387, -28.1430609 ], [ -54.7035563, -28.1429473 ], [ -54.7029019, -28.1428149 ], [ -54.7025907, -28.142673 ], [ -54.7023118, -28.1423608 ], [ -54.7023118, -28.1420486 ], [ -54.7023654, -28.1418499 ], [ -54.7023761, -28.141585 ], [ -54.7024727, -28.1410174 ], [ -54.702344, -28.1407147 ], [ -54.7020435, -28.1404781 ], [ -54.701432, -28.139901 ], [ -54.7014213, -28.1397024 ], [ -54.7012389, -28.1393618 ], [ -54.7002947, -28.1392861 ], [ -54.699887, -28.1392956 ], [ -54.6985245, -28.1391915 ], [ -54.6980095, -28.1393996 ], [ -54.6969152, -28.1397402 ], [ -54.6961727, -28.1397997 ], [ -54.6958763, -28.1460949 ], [ -54.695564800028968, -28.150484522672254 ], [ -54.695433113810601, -28.159669053758563 ], [ -54.7008062, -28.1559286 ], [ -54.7033205, -28.1588086 ], [ -54.7147097, -28.151703 ], [ -54.7136912, -28.1503812 ] ] ] } },
{ "type": "Feature", "properties": { "name": "Linha Primeira", "code_muni": 4305207.0, "name_muni": "Cerro Largo" }, "geometry": { "type": "Polygon", "coordinates": [ [ [ -54.7186481, -28.1563607 ], [ -54.7179517, -28.1555869 ], [ -54.7177868, -28.1557016 ], [ -54.7147097, -28.151703 ], [ -54.7033205, -28.1588086 ], [ -54.7008062, -28.1559286 ], [ -54.695433113810601, -28.159669053758563 ], [ -54.695429147, -28.159945799 ], [ -54.693931341135226, -28.160973462268775 ], [ -54.6985144, -28.1662628 ], [ -54.6947593, -28.1688165 ], [ -54.6989435, -28.1735454 ], [ -54.6977633, -28.174321 ], [ -54.6990021, -28.1757137 ], [ -54.7044714, -28.1712377 ], [ -54.7047906, -28.1708469 ], [ -54.7045778, -28.170331 ], [ -54.7045778, -28.1697525 ], [ -54.7053049, -28.1697056 ], [ -54.7064044, -28.1691741 ], [ -54.7071669, -28.1686269 ], [ -54.7075216, -28.1686582 ], [ -54.7079649, -28.1684862 ], [ -54.7085501, -28.1685488 ], [ -54.7093481, -28.1683455 ], [ -54.7100494, -28.1683648 ], [ -54.709315, -28.1675451 ], [ -54.7212781, -28.1592621 ], [ -54.7186481, -28.1563607 ] ] ] } },
{ "type": "Feature", "properties": { "name": "Esquina Sandri Moscon", "code_muni": 4305207.0, "name_muni": "Cerro Largo" }, "geometry": { "type": "Polygon", "coordinates": [ [ [ -54.7225467, -28.1423564 ], [ -54.7223709, -28.1419054 ], [ -54.7221232, -28.1416024 ], [ -54.7219634, -28.141539 ], [ -54.7216996, -28.1410386 ], [ -54.7217476, -28.1404608 ], [ -54.7221152, -28.1398266 ], [ -54.7226186, -28.1394038 ], [ -54.7226826, -28.1385089 ], [ -54.7227471, -28.1380582 ], [ -54.7228988, -28.1377922 ], [ -54.7230875, -28.1369745 ], [ -54.7229726, -28.1365331 ], [ -54.7226608, -28.1364462 ], [ -54.7226444, -28.1361061 ], [ -54.7224803, -28.1358745 ], [ -54.722331, -28.1357113 ], [ -54.7220593, -28.1354999 ], [ -54.7218967, -28.135135299999988 ], [ -54.7210281, -28.1351454 ], [ -54.7195265, -28.1351629 ], [ -54.7195684, -28.1220172 ], [ -54.7194858, -28.1219244 ], [ -54.7193186, -28.1218144 ], [ -54.7190545, -28.1216482 ], [ -54.718748, -28.1214839 ], [ -54.7180361, -28.1211914 ], [ -54.7176402, -28.1210789 ], [ -54.7174296, -28.121019 ], [ -54.7174018, -28.1210111 ], [ -54.717249, -28.120965 ], [ -54.7172102, -28.1209533 ], [ -54.71716, -28.1209458 ], [ -54.7169975, -28.1209215 ], [ -54.7168556, -28.120900299999988 ], [ -54.7164481, -28.1208394 ], [ -54.7155874, -28.1208003 ], [ -54.7153965, -28.1208026 ], [ -54.7150244, -28.1208061 ], [ -54.7148081, -28.1208077 ], [ -54.7147363, -28.1208085 ], [ -54.714589, -28.1208106 ], [ -54.7144235, -28.120813 ], [ -54.7137399, -28.1208227 ], [ -54.7134087, -28.1208274 ], [ -54.7128934, -28.1208348 ], [ -54.7122566, -28.1208469 ], [ -54.7100537, -28.1208888 ], [ -54.7082098, -28.1209239 ], [ -54.7074424, -28.1209009 ], [ -54.7072514, -28.120895599999987 ], [ -54.7070813, -28.120889699999985 ], [ -54.7069778, -28.1208866 ], [ -54.7068815, -28.120880199999988 ], [ -54.7067723, -28.1208699 ], [ -54.7066133, -28.1208578 ], [ -54.7064473, -28.1208423 ], [ -54.7062897, -28.1208307 ], [ -54.7060419, -28.120796299999988 ], [ -54.7059051, -28.1207739 ], [ -54.7051913, -28.120657 ], [ -54.7044005, -28.1205023 ], [ -54.703679, -28.1203104 ], [ -54.7027971, -28.1200535 ], [ -54.702157, -28.1198283 ], [ -54.7017678, -28.1196711 ], [ -54.6994882, -28.1186871 ], [ -54.6968127, -28.117568599999988 ], [ -54.6967987, -28.1200407 ], [ -54.696559, -28.1268126 ], [ -54.6961727, -28.1397997 ], [ -54.6969152, -28.1397402 ], [ -54.6980095, -28.1393996 ], [ -54.6985245, -28.1391915 ], [ -54.699887, -28.1392956 ], [ -54.7002947, -28.1392861 ], [ -54.7012389, -28.1393618 ], [ -54.7014213, -28.1397024 ], [ -54.701432, -28.139901 ], [ -54.7020435, -28.1404781 ], [ -54.702344, -28.1407147 ], [ -54.7024727, -28.1410174 ], [ -54.7023761, -28.141585 ], [ -54.7023654, -28.1418499 ], [ -54.7023118, -28.1420486 ], [ -54.7023118, -28.1423608 ], [ -54.7025907, -28.142673 ], [ -54.7029019, -28.1428149 ], [ -54.7035563, -28.1429473 ], [ -54.7037387, -28.1430609 ], [ -54.7039211, -28.1433163 ], [ -54.7041142, -28.1434866 ], [ -54.7043181, -28.143562299999989 ], [ -54.705004700000011, -28.1435528 ], [ -54.7062385, -28.1434109 ], [ -54.7071076, -28.1434014 ], [ -54.7078371, -28.1434393 ], [ -54.7085667, -28.1437136 ], [ -54.7088027, -28.143865 ], [ -54.7092104, -28.1443096 ], [ -54.7097683, -28.1447448 ], [ -54.7096503, -28.144839399999988 ], [ -54.7092962, -28.1450286 ], [ -54.7092715, -28.1450383 ], [ -54.7091509, -28.1450855 ], [ -54.7091031, -28.1451043 ], [ -54.7086847, -28.1451611 ], [ -54.7084916, -28.1452557 ], [ -54.7083736, -28.1454165 ], [ -54.70836280000001, -28.1457949 ], [ -54.7084808, -28.1462111 ], [ -54.7085667, -28.1464003 ], [ -54.7088349, -28.1467693 ], [ -54.7091568, -28.1470815 ], [ -54.7093392, -28.147195 ], [ -54.7098112, -28.1472234 ], [ -54.7101219, -28.1471177 ], [ -54.7103849, -28.1468593 ], [ -54.7108674, -28.146763 ], [ -54.7111637, -28.1469399 ], [ -54.711237, -28.1470224 ], [ -54.711312, -28.1470555 ], [ -54.7114149, -28.1471111 ], [ -54.7114752, -28.147229 ], [ -54.7117177, -28.1472925 ], [ -54.7121727, -28.1473498 ], [ -54.712773, -28.1477584 ], [ -54.7132048, -28.1477584 ], [ -54.7142613, -28.1473285 ], [ -54.714711, -28.1471455 ], [ -54.7157958, -28.146254 ], [ -54.7167542, -28.1457339 ], [ -54.7174599, -28.1454924 ], [ -54.7177232, -28.1450931 ], [ -54.7190082, -28.1446009 ], [ -54.7200087, -28.1440065 ], [ -54.7204719, -28.1435257 ], [ -54.7206617, -28.1433286 ], [ -54.7215991, -28.1428271 ], [ -54.7226513, -28.1426771 ], [ -54.7225467, -28.1423564 ] ] ] } },
{ "type": "Feature", "properties": { "name": "Linha São João Norte", "code_muni": 4305207.0, "name_muni": "Cerro Largo" }, "geometry": { "type": "Polygon", "coordinates": [ [ [ -54.7453552, -28.0766585 ], [ -54.7448992, -28.0766437 ], [ -54.7446836, -28.100107 ], [ -54.7642923, -28.1003387 ], [ -54.7653298, -28.1003491 ], [ -54.766914346537675, -28.039552884737482 ], [ -54.766752842743074, -28.03908058769531 ], [ -54.766737771205719, -28.039082358652326 ], [ -54.762610588, -28.042008606 ], [ -54.762537227515338, -28.041995237257897 ], [ -54.762513, -28.0420029 ], [ -54.7623957, -28.0420338 ], [ -54.7622483, -28.0420582 ], [ -54.7620689, -28.0420793 ], [ -54.7611325, -28.0420857 ], [ -54.759441, -28.0418231 ], [ -54.7592825, -28.0417609 ], [ -54.7588447, -28.0415588 ], [ -54.7583562, -28.0412743 ], [ -54.7582648, -28.0412279 ], [ -54.758191524250726, -28.041207885257162 ], [ -54.757299260094371, -28.041772753779043 ], [ -54.7568727, -28.0422359 ], [ -54.7562322, -28.0426579 ], [ -54.755109329516124, -28.043159093113037 ], [ -54.754994412, -28.04323184 ], [ -54.754952112614234, -28.043229265800374 ], [ -54.7548492, -28.0432752 ], [ -54.753859020302258, -28.043162739235932 ], [ -54.750220290999891, -28.042941218999893 ], [ -54.749486826, -28.046040167999902 ], [ -54.749529473489574, -28.046109925752226 ], [ -54.7514887, -28.0483236 ], [ -54.7515562, -28.0484214 ], [ -54.7516674, -28.0486398 ], [ -54.7516939, -28.0487297 ], [ -54.7519444, -28.0499241 ], [ -54.7519683, -28.0499966 ], [ -54.7520188, -28.0501042 ], [ -54.7520711, -28.0501921 ], [ -54.7521146, -28.0502639 ], [ -54.7521624, -28.0503195 ], [ -54.752199167914156, -28.050356522815271 ], [ -54.752323122432522, -28.05042478181058 ], [ -54.752358, -28.0504357 ], [ -54.7529437, -28.0505498 ], [ -54.7530308, -28.0505723 ], [ -54.7531008, -28.0506027 ], [ -54.754660149123978, -28.051711691147773 ], [ -54.755619740891625, -28.052240079265516 ], [ -54.7572969, -28.0530534 ], [ -54.7573627, -28.0530955 ], [ -54.7574226, -28.0531448 ], [ -54.757462, -28.053188 ], [ -54.7574961, -28.053242299999987 ], [ -54.7579459, -28.054022 ], [ -54.7579781, -28.0540868 ], [ -54.7580144, -28.0541679 ], [ -54.7582544, -28.0547637 ], [ -54.7582931, -28.0548625 ], [ -54.7583184, -28.054933 ], [ -54.7583931, -28.0552075 ], [ -54.7584059, -28.0552686 ], [ -54.7584127, -28.0553415 ], [ -54.7584019, -28.0556231 ], [ -54.7583951, -28.0556918 ], [ -54.7583795, -28.0557471 ], [ -54.7579086, -28.056361 ], [ -54.7578623, -28.0564304 ], [ -54.7578419, -28.0564684 ], [ -54.7578475, -28.0565122 ], [ -54.7578709, -28.05657 ], [ -54.7581164, -28.0569376 ], [ -54.758165, -28.0570117 ], [ -54.758195, -28.0570858 ], [ -54.7582047, -28.0571583 ], [ -54.7580872, -28.0583076 ], [ -54.758058573855315, -28.058546875487128 ], [ -54.75807952, -28.058737523999987 ], [ -54.75802672381721, -28.058813097705379 ], [ -54.7580147, -28.0589136 ], [ -54.7579604, -28.059216 ], [ -54.7579064, -28.0594675 ], [ -54.7578608, -28.0595951 ], [ -54.7566673, -28.0620881 ], [ -54.7565867, -28.0622347 ], [ -54.7565215, -28.06234 ], [ -54.7564435, -28.0624474 ], [ -54.7564015, -28.0625065 ], [ -54.7563506, -28.0625656 ], [ -54.7559677, -28.0629343 ], [ -54.7558822, -28.0630087 ], [ -54.7550762, -28.0636723 ], [ -54.7549948, -28.0637502 ], [ -54.753138280172749, -28.065810036761036 ], [ -54.753038075999896, -28.065953450999899 ], [ -54.747768946, -28.069081556000011 ], [ -54.747717510262184, -28.069055153916278 ], [ -54.747666, -28.0690854 ], [ -54.7472282, -28.0689963 ], [ -54.747100668149784, -28.068738524778727 ], [ -54.74562221833947, -28.06797960681029 ], [ -54.7453552, -28.0766585 ] ] ] } },
{ "type": "Feature", "properties": { "name": "Linha Santa Cruz", "code_muni": 4305207.0, "name_muni": "Cerro Largo" }, "geometry": { "type": "Polygon", "coordinates": [ [ [ -54.7424917, -28.1604051 ], [ -54.7372989, -28.160424 ], [ -54.7405605, -28.1639426 ], [ -54.7391657, -28.1646047 ], [ -54.7400002, -28.1646761 ], [ -54.7395802, -28.1685832 ], [ -54.7402274, -28.1687709 ], [ -54.7411555, -28.1693039 ], [ -54.7415473, -28.1698669 ], [ -54.7417857, -28.1708128 ], [ -54.7418794, -28.172802 ], [ -54.741956, -28.1747237 ], [ -54.741956, -28.1764727 ], [ -54.7420296, -28.1774751 ], [ -54.7439503, -28.1786063 ], [ -54.749500931970829, -28.184312420080619 ], [ -54.75810051, -28.190547730999988 ], [ -54.762082855, -28.1913396049999 ], [ -54.769159951999903, -28.186401922 ], [ -54.77062596, -28.181919553999897 ], [ -54.770712872215441, -28.16698319477435 ], [ -54.7702454, -28.1641347 ], [ -54.7701155, -28.1633429 ], [ -54.7700421, -28.1595429 ], [ -54.7712277, -28.1563446 ], [ -54.7745309, -28.1543935 ], [ -54.7745597, -28.1508181 ], [ -54.7646432, -28.1509245 ], [ -54.7622894, -28.1508578 ], [ -54.7619815, -28.1508335 ], [ -54.7613851, -28.1509152 ], [ -54.7612056, -28.1509454 ], [ -54.7608922, -28.150998 ], [ -54.7609023, -28.1532729 ], [ -54.7584562, -28.1532539 ], [ -54.7584603, -28.1546254 ], [ -54.751704, -28.1547008 ], [ -54.7441814, -28.1547847 ], [ -54.7441812, -28.1547847 ], [ -54.7439769, -28.154787 ], [ -54.7439765, -28.154787 ], [ -54.7439078, -28.1547874 ], [ -54.743764, -28.1547883 ], [ -54.7432064, -28.1547918 ], [ -54.7425207, -28.154796 ], [ -54.7425075, -28.1562614 ], [ -54.7424917, -28.1604051 ] ] ] } },
{ "type": "Feature", "properties": { "name": "Linha do Rio Comandaí", "code_muni": 4305207.0, "name_muni": "Cerro Largo" }, "geometry": { "type": "Polygon", "coordinates": [ [ [ -54.7235391, -28.0771253 ], [ -54.7240205, -28.0771279 ], [ -54.724313, -28.0771295 ], [ -54.7270109, -28.0771513 ], [ -54.727664, -28.0771573 ], [ -54.730188, -28.077188 ], [ -54.7339793, -28.0772472 ], [ -54.7398198, -28.0773004 ], [ -54.7409125, -28.0772932 ], [ -54.7415911, -28.0772963 ], [ -54.742119, -28.076901 ], [ -54.7426964, -28.0767975 ], [ -54.7430703, -28.0765718 ], [ -54.7448992, -28.0766437 ], [ -54.7453552, -28.0766585 ], [ -54.74562221833947, -28.06797960681029 ], [ -54.743951861757964, -28.06712214545826 ], [ -54.7425693, -28.0666457 ], [ -54.7424847, -28.066611 ], [ -54.7424632, -28.0665943 ], [ -54.7424382, -28.0665691 ], [ -54.742249, -28.0663379 ], [ -54.7421878, -28.0662547 ], [ -54.74215449690999, -28.066199445608696 ], [ -54.742091343, -28.066167024 ], [ -54.742071596111046, -28.066044108676785 ], [ -54.7410437, -28.0640677 ], [ -54.7410251, -28.0640182 ], [ -54.7410207, -28.0639779 ], [ -54.7410223, -28.0639373 ], [ -54.741393913493262, -28.06182560647721 ], [ -54.741104964110747, -28.060026786157959 ], [ -54.741003450333707, -28.059976398228976 ], [ -54.731012756876019, -28.055847463188812 ], [ -54.730687213653674, -28.05585601992783 ], [ -54.728939805039097, -28.056334396706944 ], [ -54.72873947903576, -28.056479842558968 ], [ -54.728139844623946, -28.057388052516625 ], [ -54.7271207, -28.0596747 ], [ -54.725998, -28.060987 ], [ -54.7245078, -28.0631505 ], [ -54.724259912412187, -28.063264231470786 ], [ -54.724146537, -28.063435929 ], [ -54.724072947744098, -28.063350010911389 ], [ -54.7234775, -28.0636232 ], [ -54.7228353, -28.0632281 ], [ -54.722551874643869, -28.061574060459495 ], [ -54.72089986000001, -28.059645133999897 ], [ -54.720305053484552, -28.059680696822582 ], [ -54.7183926, -28.0600351 ], [ -54.716664995129577, -28.059898275454497 ], [ -54.716481199, -28.059909258999902 ], [ -54.716418526746281, -28.059878753586268 ], [ -54.7163825, -28.0598759 ], [ -54.716343241991048, -28.059842109035216 ], [ -54.711324943070288, -28.057399315123313 ], [ -54.71130342948581, -28.057407034510263 ], [ -54.710678817, -28.059327300999893 ], [ -54.710906148930981, -28.059905768016272 ], [ -54.7117865, -28.0613298 ], [ -54.7126165, -28.0642207 ], [ -54.7124029, -28.0649675 ], [ -54.7119109, -28.0659075 ], [ -54.7108843, -28.0675417 ], [ -54.7128169, -28.0675011 ], [ -54.7148851, -28.0675187 ], [ -54.7174072, -28.0675143 ], [ -54.7185976, -28.0675313 ], [ -54.719178, -28.0675303 ], [ -54.7197987, -28.0675415 ], [ -54.7197089, -28.0770917 ], [ -54.7235391, -28.0771253 ] ] ] } },
{ "type": "Feature", "properties": { "name": "Vila Santo Antônio", "code_muni": 4305207.0, "name_muni": "Cerro Largo" }, "geometry": { "type": "Polygon", "coordinates": [ [ [ -54.7952785, -28.1267949 ], [ -54.795314614901862, -28.126795234559999 ], [ -54.795314645, -28.126787029999885 ], [ -54.795526894632197, -28.126786670037529 ], [ -54.795551, -28.1241048 ], [ -54.785158, -28.1240054 ], [ -54.7851368, -28.1289905 ], [ -54.7952666, -28.1289955 ], [ -54.7952785, -28.1267949 ] ] ] } },
{ "type": "Feature", "properties": { "name": "Vila São Francisco", "code_muni": 4305207.0, "name_muni": "Cerro Largo" }, "geometry": { "type": "Polygon", "coordinates": [ [ [ -54.7856378, -28.0693664 ], [ -54.7863492, -28.0693648 ], [ -54.7863407, -28.0713251 ], [ -54.7885917, -28.0713713 ], [ -54.7886353, -28.0703628 ], [ -54.7879373, -28.0695391 ], [ -54.7879461, -28.068215 ], [ -54.7887487, -28.0675529 ], [ -54.788897, -28.0654589 ], [ -54.7857176, -28.0654146 ], [ -54.78308, -28.0653513 ], [ -54.7828176, -28.0692707 ], [ -54.7856378, -28.0693664 ] ] ] } },
{ "type": "Feature", "properties": { "name": "Vila São João Norte", "code_muni": 4305207.0, "name_muni": "Cerro Largo" }, "geometry": { "type": "Polygon", "coordinates": [ [ [ -54.7572511, -28.0647397 ], [ -54.7547503, -28.0647088 ], [ -54.754266, -28.0785821 ], [ -54.7571615, -28.07864150000001 ], [ -54.7572511, -28.0647397 ] ] ] } },
{ "type": "Feature", "properties": { "name": "Vila Atolosa", "code_muni": 4305207.0, "name_muni": "Cerro Largo" }, "geometry": { "type": "Polygon", "coordinates": [ [ [ -54.7061251, -28.0755766 ], [ -54.706186, -28.0770144 ], [ -54.7060374, -28.0803231 ], [ -54.7084564, -28.0803413 ], [ -54.7088259, -28.0755806 ], [ -54.7061251, -28.0755766 ] ] ] } },
{ "type": "Feature", "properties": { "name": "Vila Tremônia", "code_muni": 4305207.0, "name_muni": "Cerro Largo" }, "geometry": { "type": "Polygon", "coordinates": [ [ [ -54.688236, -28.1829325 ], [ -54.6881918, -28.1821069 ], [ -54.6866985, -28.1821225 ], [ -54.6866897, -28.1810009 ], [ -54.6864423, -28.180409 ], [ -54.6858944, -28.1803856 ], [ -54.6848518, -28.1804946 ], [ -54.6850727, -28.1841475 ], [ -54.6855498, -28.1858921 ], [ -54.6881742, -28.1886024 ], [ -54.6905599, -28.1870448 ], [ -54.6887397, -28.1848874 ], [ -54.688236, -28.1829325 ] ] ] } },
{ "type": "Feature", "properties": { "name": "Fronteira Sul", "code_muni": 4305207.0, "name_muni": "Cerro Largo" }, "geometry": { "type": "Polygon", "coordinates": [ [ [ -54.7557428, -28.1424406 ], [ -54.7572663, -28.1424448 ], [ -54.7583836, -28.142448 ], [ -54.7604831, -28.1424538 ], [ -54.7607699, -28.1424546 ], [ -54.7614347, -28.1424565 ], [ -54.7620291, -28.1424581 ], [ -54.7625884, -28.1424597 ], [ -54.7645846, -28.1424723 ], [ -54.7645689, -28.1402089 ], [ -54.7635839, -28.140208 ], [ -54.7552565, -28.1402008 ], [ -54.7545372, -28.1402002 ], [ -54.7544872, -28.1402002 ], [ -54.7543869, -28.1402001 ], [ -54.7485415, -28.1401938 ], [ -54.7475786, -28.141716 ], [ -54.7471713, -28.1424089 ], [ -54.7475563, -28.1424098 ], [ -54.7483157, -28.1424116 ], [ -54.7512809, -28.1424186 ], [ -54.7524397, -28.1424213 ], [ -54.7541943, -28.1424316 ], [ -54.7545263, -28.1424335 ], [ -54.7557428, -28.1424406 ] ] ] } },
{ "type": "Feature", "properties": { "name": "Serro Azul", "code_muni": 4305207.0, "name_muni": "Cerro Largo" }, "geometry": { "type": "Polygon", "coordinates": [ [ [ -54.7441367, -28.1355989 ], [ -54.7545423, -28.1356583 ], [ -54.7545445, -28.1346077 ], [ -54.7441499, -28.1345497 ], [ -54.7441367, -28.1355989 ] ] ] } },
{ "type": "Feature", "properties": { "name": "Industrial II", "code_muni": 4305207.0, "name_muni": "Cerro Largo" }, "geometry": { "type": "Polygon", "coordinates": [ [ [ -54.7545482, -28.1328509 ], [ -54.7441718, -28.1327964 ], [ -54.7441499, -28.1345497 ], [ -54.7545445, -28.1346077 ], [ -54.7545482, -28.1328509 ] ] ] } },
{ "type": "Feature", "properties": { "name": "Wagner", "code_muni": 4305207.0, "name_muni": "Cerro Largo" }, "geometry": { "type": "Polygon", "coordinates": [ [ [ -54.7441718, -28.1327964 ], [ -54.7545482, -28.1328509 ], [ -54.7545516, -28.1311799 ], [ -54.7441925, -28.1311452 ], [ -54.7441718, -28.1327964 ] ] ] } },
{ "type": "Feature", "properties": { "name": "Ledur", "code_muni": 4305207.0, "name_muni": "Cerro Largo" }, "geometry": { "type": "Polygon", "coordinates": [ [ [ -54.7545614, -28.126484 ], [ -54.7442515, -28.1264398 ], [ -54.7441925, -28.1311452 ], [ -54.7545516, -28.1311799 ], [ -54.7545614, -28.126484 ] ] ] } },
{ "type": "Feature", "properties": { "name": "Esquina Gaúcha", "code_muni": 4305207.0, "name_muni": "Cerro Largo" }, "geometry": { "type": "Polygon", "coordinates": [ [ [ -54.7335102, -28.1569779 ], [ -54.7333094, -28.1569805 ], [ -54.733236, -28.156982 ], [ -54.7331637, -28.1569929 ], [ -54.73312390000001, -28.1570061 ], [ -54.7330338, -28.1569748 ], [ -54.7330491, -28.1570925 ], [ -54.7330697, -28.1572362 ], [ -54.7329882, -28.1576773 ], [ -54.7328918, -28.158076 ], [ -54.7329196, -28.1582269 ], [ -54.73294, -28.1583375 ], [ -54.7330252, -28.1590172 ], [ -54.7333811, -28.1595531 ], [ -54.7335775, -28.1601838 ], [ -54.7336924, -28.1603663 ], [ -54.7337521, -28.1604612 ], [ -54.7338222, -28.1605727 ], [ -54.7349679, -28.1620046 ], [ -54.7372989, -28.160424 ], [ -54.7424917, -28.1604051 ], [ -54.7425075, -28.1562614 ], [ -54.737277, -28.1562088 ], [ -54.7363681, -28.1561866 ], [ -54.7359975, -28.1561775 ], [ -54.7356077, -28.156168 ], [ -54.7355982, -28.1561674 ], [ -54.7355673, -28.1561667 ], [ -54.7355641, -28.1569858 ], [ -54.7355333, -28.1570193 ], [ -54.7354403, -28.1569894 ], [ -54.7349609, -28.1569845 ], [ -54.7343704, -28.1569813 ], [ -54.7337767, -28.1569786 ], [ -54.7335102, -28.1569779 ] ] ] } },
{ "type": "Feature", "properties": { "name": "Fraternidade", "code_muni": 4305207.0, "name_muni": "Cerro Largo" }, "geometry": { "type": "Polygon", "coordinates": [ [ [ -54.7349679, -28.1620046 ], [ -54.7352284, -28.1623302 ], [ -54.735646, -28.1629229 ], [ -54.7356631, -28.1633057 ], [ -54.7354757, -28.1637036 ], [ -54.7346582, -28.1643417 ], [ -54.7371936, -28.1642154 ], [ -54.7377294, -28.1652448 ], [ -54.7391657, -28.1646047 ], [ -54.7405605, -28.1639426 ], [ -54.7372989, -28.160424 ], [ -54.7349679, -28.1620046 ] ] ] } },
{ "type": "Feature", "properties": { "name": "Antônio Paulino Moscon", "code_muni": 4305207.0, "name_muni": "Cerro Largo" }, "geometry": { "type": "Polygon", "coordinates": [ [ [ -54.7346582, -28.1643417 ], [ -54.7354757, -28.1637036 ], [ -54.7356631, -28.1633057 ], [ -54.735646, -28.1629229 ], [ -54.7352284, -28.1623302 ], [ -54.7349679, -28.1620046 ], [ -54.7338222, -28.1605727 ], [ -54.7337521, -28.1604612 ], [ -54.7336924, -28.1603663 ], [ -54.7335775, -28.1601838 ], [ -54.7333811, -28.1595531 ], [ -54.7330252, -28.1590172 ], [ -54.73294, -28.1583375 ], [ -54.7329196, -28.1582269 ], [ -54.7328918, -28.158076 ], [ -54.7329882, -28.1576773 ], [ -54.7330697, -28.1572362 ], [ -54.7330491, -28.1570925 ], [ -54.7330338, -28.1569748 ], [ -54.7330215, -28.1568996 ], [ -54.7329585, -28.1565957 ], [ -54.732751, -28.1562231 ], [ -54.7325471, -28.1560434 ], [ -54.7325137, -28.1554094 ], [ -54.7294002, -28.1563128 ], [ -54.7298044, -28.1568237 ], [ -54.7313156, -28.1587342 ], [ -54.7321974, -28.1600462 ], [ -54.7329888, -28.1614121 ], [ -54.7330982, -28.161736399999988 ], [ -54.7331344, -28.1625 ], [ -54.7327899, -28.1634718 ], [ -54.7322276, -28.1643301 ], [ -54.7321622, -28.1645192 ], [ -54.7346582, -28.1643417 ] ] ] } },
{ "type": "Feature", "properties": { "name": "São José", "code_muni": 4305207.0, "name_muni": "Cerro Largo" }, "geometry": { "type": "Polygon", "coordinates": [ [ [ -54.7238613, -28.158013399999987 ], [ -54.7224552, -28.1584451 ], [ -54.7274054, -28.1640628 ], [ -54.728225, -28.1640072 ], [ -54.7282919, -28.1647562 ], [ -54.7321622, -28.1645192 ], [ -54.7322276, -28.1643301 ], [ -54.7327899, -28.1634718 ], [ -54.7331344, -28.1625 ], [ -54.7330982, -28.161736399999988 ], [ -54.7329888, -28.1614121 ], [ -54.7321974, -28.1600462 ], [ -54.7313156, -28.1587342 ], [ -54.7298044, -28.1568237 ], [ -54.7294002, -28.1563128 ], [ -54.7238613, -28.158013399999987 ] ] ] } },
{ "type": "Feature", "properties": { "name": "Vila Nova", "code_muni": 4305207.0, "name_muni": "Cerro Largo" }, "geometry": { "type": "Polygon", "coordinates": [ [ [ -54.7287114, -28.1554421 ], [ -54.7279535, -28.1543973 ], [ -54.727608, -28.1538759 ], [ -54.7274407, -28.1535407 ], [ -54.7271236, -28.1536526 ], [ -54.7263946, -28.1539516 ], [ -54.7260888, -28.1535383 ], [ -54.72461, -28.154173300000011 ], [ -54.7212167, -28.1555453 ], [ -54.7220068, -28.1565081 ], [ -54.7212022, -28.1570334 ], [ -54.7224552, -28.1584451 ], [ -54.7238613, -28.158013399999987 ], [ -54.7294002, -28.1563128 ], [ -54.7287114, -28.1554421 ] ] ] } },
{ "type": "Feature", "properties": { "name": "CIEP", "code_muni": 4305207.0, "name_muni": "Cerro Largo" }, "geometry": { "type": "Polygon", "coordinates": [ [ [ -54.7316039, -28.150188 ], [ -54.7314055, -28.1501896 ], [ -54.7308203, -28.150196199999989 ], [ -54.7301964, -28.1502032 ], [ -54.7294363, -28.1501873 ], [ -54.7287622, -28.1501732 ], [ -54.7285968, -28.1501698 ], [ -54.7279256, -28.1501558 ], [ -54.7277997, -28.1501534 ], [ -54.7276562, -28.1501506 ], [ -54.7271412, -28.1501394 ], [ -54.7270592, -28.1501382 ], [ -54.7269911, -28.1501363 ], [ -54.7269219, -28.1501348 ], [ -54.7265352, -28.1501348 ], [ -54.7263459, -28.1501277 ], [ -54.726655, -28.151131 ], [ -54.7269581, -28.1521439 ], [ -54.7272842, -28.1531384 ], [ -54.7273983, -28.1534058 ], [ -54.7274407, -28.1535407 ], [ -54.727608, -28.1538759 ], [ -54.7279535, -28.1543973 ], [ -54.7287114, -28.1554421 ], [ -54.7294002, -28.1563128 ], [ -54.7325137, -28.1554094 ], [ -54.7325211, -28.1549094 ], [ -54.7325619, -28.154161 ], [ -54.7324507, -28.1536871 ], [ -54.7324396, -28.1533603 ], [ -54.7322469, -28.1525793 ], [ -54.732132, -28.1518113 ], [ -54.7318799, -28.1509714 ], [ -54.73155, -28.1503504 ], [ -54.731544, -28.1503097 ], [ -54.7315293, -28.15020980000001 ], [ -54.7316039, -28.150188 ] ] ] } },
{ "type": "Feature", "properties": { "name": "Morro do Convento", "code_muni": 4305207.0, "name_muni": "Cerro Largo" }, "geometry": { "type": "Polygon", "coordinates": [ [ [ -54.7425075, -28.1562614 ], [ -54.7425207, -28.154796 ], [ -54.7432064, -28.1547918 ], [ -54.743764, -28.1547883 ], [ -54.7439078, -28.1547874 ], [ -54.7439765, -28.154787 ], [ -54.7439769, -28.154787 ], [ -54.7441812, -28.1547847 ], [ -54.7441647, -28.1546256 ], [ -54.7441268, -28.1542602 ], [ -54.744115, -28.1535809 ], [ -54.7441351, -28.1526888 ], [ -54.7441589, -28.1517741 ], [ -54.7372934, -28.151733 ], [ -54.7372998, -28.1526048 ], [ -54.7372971, -28.1530435 ], [ -54.7372717, -28.153919699999985 ], [ -54.7372941, -28.1546204 ], [ -54.7372931, -28.1547533 ], [ -54.7372878, -28.1557873 ], [ -54.737277, -28.1562088 ], [ -54.7425075, -28.1562614 ] ] ] } },
{ "type": "Feature", "properties": { "name": "Irmão Gabriel", "code_muni": 4305207.0, "name_muni": "Cerro Largo" }, "geometry": { "type": "Polygon", "coordinates": [ [ [ -54.7461058, -28.144432 ], [ -54.7455769, -28.14554 ], [ -54.7449097, -28.1464088 ], [ -54.7448114, -28.146531599999989 ], [ -54.7443299, -28.1470732 ], [ -54.7442521, -28.1471678 ], [ -54.7442238, -28.1476653 ], [ -54.7442045, -28.1480039 ], [ -54.7442007, -28.1481511 ], [ -54.7441858, -28.1487421 ], [ -54.7441878, -28.1487544 ], [ -54.7453614, -28.1487463 ], [ -54.7464569, -28.1487441 ], [ -54.7498053, -28.1487924 ], [ -54.7498053, -28.1491414 ], [ -54.7517069, -28.1491414 ], [ -54.751703, -28.1504209 ], [ -54.7516768, -28.1508038 ], [ -54.751651, -28.1509999 ], [ -54.751654, -28.1512932 ], [ -54.751654, -28.1515601 ], [ -54.7517155, -28.1516977 ], [ -54.751704, -28.1547008 ], [ -54.7584603, -28.1546254 ], [ -54.7584562, -28.1532539 ], [ -54.7609023, -28.1532729 ], [ -54.7608922, -28.150998 ], [ -54.7608777, -28.14681 ], [ -54.7545193, -28.1467434 ], [ -54.7545279, -28.1425981 ], [ -54.7545263, -28.1424335 ], [ -54.7541943, -28.1424316 ], [ -54.7524397, -28.1424213 ], [ -54.7524517, -28.1436012 ], [ -54.7465041, -28.143613 ], [ -54.7462561, -28.1441084 ], [ -54.7461058, -28.144432 ] ] ] } }
]
}
