{
"type": "FeatureCollection",
"name": "bairros_barra_do_rio_azul",
"crs": { "type": "name", "properties": { "name": "urn:ogc:def:crs:OGC:1.3:CRS84" } },
"features": [
{ "type": "Feature", "properties": { "code_muni": 4301925.0, "name_muni": "Barra do Rio Azul", "code_state": 43.0, "abbrev_state": "RS", "name_state": "Rio Grande do Sul", "code_region": 4.0, "name_region": "Sul", "year": 2022.0 }, "geometry": { "type": "Polygon", "coordinates": [ [ [ -52.407588825999902, -27.478075378 ], [ -52.415117239, -27.477979795999904 ], [ -52.415057741999895, -27.481321497 ], [ -52.426228621999904, -27.481568658999901 ], [ -52.425476805999899, -27.487075548999908 ], [ -52.427104546, -27.4897903909999 ], [ -52.428729642, -27.489708490999895 ], [ -52.434106196999906, -27.494857468 ], [ -52.436824186, -27.494590425 ], [ -52.44060633, -27.4823475429999 ], [ -52.449571401999897, -27.482358763 ], [ -52.449717617, -27.477297539999899 ], [ -52.447336505, -27.475522762 ], [ -52.444807617, -27.475614010999895 ], [ -52.445572797999901, -27.455576875 ], [ -52.451960364999891, -27.457795065 ], [ -52.45169684199989, -27.448965305999902 ], [ -52.449068396, -27.449084173 ], [ -52.449172931, -27.437010943 ], [ -52.453159259, -27.436987847999891 ], [ -52.453246609, -27.408599812 ], [ -52.44707047299989, -27.407406965999908 ], [ -52.447186753, -27.402465446 ], [ -52.449201043999899, -27.401409699999892 ], [ -52.443014237999897, -27.3939115219999 ], [ -52.432005265, -27.394282871 ], [ -52.426344897, -27.390465558 ], [ -52.433538588, -27.379812575 ], [ -52.43470359, -27.383149306 ], [ -52.442592436, -27.376581184 ], [ -52.433816023, -27.368381014 ], [ -52.436496188, -27.36059295 ], [ -52.439195399, -27.361519964 ], [ -52.442989661999896, -27.360550967999899 ], [ -52.442302334, -27.357035611 ], [ -52.439173812999989, -27.353938707999902 ], [ -52.435038088999896, -27.353050273 ], [ -52.430397994, -27.347843396 ], [ -52.430144728999899, -27.346556053 ], [ -52.43336749, -27.34567938 ], [ -52.430218478, -27.341289211999896 ], [ -52.433791497, -27.338110544999903 ], [ -52.438960465, -27.338599952 ], [ -52.436648507, -27.335961606999895 ], [ -52.435989059999891, -27.325801479999896 ], [ -52.436953184999901, -27.322885081 ], [ -52.439637812999898, -27.32105189 ], [ -52.440626721999898, -27.316391028999899 ], [ -52.444347025, -27.312529911 ], [ -52.445755848, -27.308165618 ], [ -52.444953964, -27.306703496999898 ], [ -52.434570468999901, -27.303791668 ], [ -52.430931975, -27.299897757999894 ], [ -52.42403146600001, -27.298295955 ], [ -52.422373636, -27.295906693999896 ], [ -52.423237883999903, -27.290294811 ], [ -52.420120174, -27.286650384 ], [ -52.419197327999903, -27.282383374999895 ], [ -52.406887611999892, -27.290117132 ], [ -52.394080943999903, -27.29443486 ], [ -52.395933122, -27.298366938999909 ], [ -52.394492957, -27.308672768 ], [ -52.398621168, -27.313090987 ], [ -52.392146169999904, -27.313924963 ], [ -52.389766903, -27.305768215999898 ], [ -52.386752437, -27.313065009999896 ], [ -52.38773603, -27.31678555 ], [ -52.382076153, -27.321978332 ], [ -52.381525995999901, -27.325216379 ], [ -52.383797779, -27.326662563999903 ], [ -52.387452931, -27.339425072 ], [ -52.382749205, -27.364707011999897 ], [ -52.380533039999897, -27.36360631 ], [ -52.368219246, -27.390914138 ], [ -52.362005737999894, -27.417593371 ], [ -52.364496313, -27.417559718999897 ], [ -52.364066226, -27.433083166999896 ], [ -52.367891286, -27.433179262999893 ], [ -52.367578482999896, -27.440887002999901 ], [ -52.362872647, -27.440821425 ], [ -52.359713671, -27.456889331999893 ], [ -52.34655931, -27.468924763 ], [ -52.355281651, -27.470455971 ], [ -52.353747559999896, -27.472270181999896 ], [ -52.368621558, -27.471095805999894 ], [ -52.356948195, -27.479140933999901 ], [ -52.360512071, -27.484115572 ], [ -52.36278978699989, -27.484913773 ], [ -52.367583189, -27.493621941 ], [ -52.366368189999903, -27.497587596999896 ], [ -52.363569249, -27.500729572999894 ], [ -52.368018621, -27.498517008 ], [ -52.372994801999894, -27.499388409999892 ], [ -52.374361017999895, -27.4974682 ], [ -52.374295994, -27.493749215 ], [ -52.399076175999895, -27.479034574 ], [ -52.400935734, -27.480608829999902 ], [ -52.406797129, -27.480620103 ], [ -52.407588825999902, -27.478075378 ] ] ] } }
]
}
