{
"type": "FeatureCollection",
"name": "bairros_vista_alegre",
"crs": { "type": "name", "properties": { "name": "urn:ogc:def:crs:OGC:1.3:CRS84" } },
"features": [
{ "type": "Feature", "properties": { "code_muni": 4323507.0, "name_muni": "Vista Alegre", "code_state": 43.0, "abbrev_state": "RS", "name_state": "Rio Grande do Sul", "code_region": 4.0, "name_region": "Sul", "year": 2022.0 }, "geometry": { "type": "Polygon", "coordinates": [ [ [ -53.544314121, -27.297290152999903 ], [ -53.546569223999903, -27.296125574 ], [ -53.546665791, -27.297482511999899 ], [ -53.5480243599999, -27.297590639 ], [ -53.549538801, -27.295903053 ], [ -53.54717059, -27.286860325 ], [ -53.544288740999896, -27.287449602 ], [ -53.542523076, -27.282408094999898 ], [ -53.548257104999898, -27.279470160999896 ], [ -53.547183479, -27.271312523999899 ], [ -53.556560125, -27.268836260999898 ], [ -53.554863424, -27.262000784999891 ], [ -53.560206883, -27.258090946 ], [ -53.559120612, -27.256500405999901 ], [ -53.553645097999897, -27.254807082999896 ], [ -53.554535057, -27.252644975999896 ], [ -53.56026159, -27.250418834 ], [ -53.561540248, -27.244710002 ], [ -53.560719210999892, -27.242681318999903 ], [ -53.553647079, -27.241188031 ], [ -53.553970809, -27.237659508 ], [ -53.549633555999897, -27.236258337 ], [ -53.546331857, -27.237553528 ], [ -53.549549425999899, -27.248878837999904 ], [ -53.546234872, -27.250263322 ], [ -53.542283346, -27.247386085999899 ], [ -53.540205367999903, -27.247864795999899 ], [ -53.538547177999895, -27.250116365999897 ], [ -53.53882085, -27.260392542 ], [ -53.537723707999895, -27.261720936 ], [ -53.530222452, -27.264604545999902 ], [ -53.525624856, -27.259030872 ], [ -53.522063052, -27.260709038999902 ], [ -53.522107682999895, -27.269401548 ], [ -53.52003792499989, -27.278665275 ], [ -53.516011351, -27.278815649 ], [ -53.514860316, -27.277331655999909 ], [ -53.515661200999894, -27.273848289999901 ], [ -53.512167012, -27.273313636999905 ], [ -53.507334274999906, -27.276758478 ], [ -53.507690026, -27.28105987 ], [ -53.504427084, -27.284363922 ], [ -53.498667322, -27.283542935 ], [ -53.49510055199989, -27.288288678 ], [ -53.487716275, -27.290007021 ], [ -53.489265554, -27.291811238 ], [ -53.484936574, -27.293860595999895 ], [ -53.484080476, -27.298607966 ], [ -53.485896855, -27.300516177 ], [ -53.490882982, -27.298508722 ], [ -53.4944579799999, -27.30192039 ], [ -53.491708335999903, -27.302434941999891 ], [ -53.490609467, -27.305829641999892 ], [ -53.48142431, -27.306739987 ], [ -53.482751659, -27.308906228999891 ], [ -53.487883865999891, -27.308597832 ], [ -53.488384525, -27.309559301 ], [ -53.480694351999901, -27.31737125 ], [ -53.487757003999896, -27.322687100999893 ], [ -53.483254097, -27.324584507999905 ], [ -53.478224715, -27.324888459 ], [ -53.477699975999897, -27.330529554 ], [ -53.472367259, -27.333185511999901 ], [ -53.471371344, -27.339099041999898 ], [ -53.466502259, -27.341598365 ], [ -53.46323297, -27.340972963 ], [ -53.462280618, -27.342087976999895 ], [ -53.460427810999896, -27.349974217 ], [ -53.460647220999903, -27.355870271999898 ], [ -53.463224609999891, -27.364688187 ], [ -53.467069061, -27.365662195 ], [ -53.467126177, -27.370621254999904 ], [ -53.47067817899989, -27.371710462 ], [ -53.475519903, -27.3764908489999 ], [ -53.477645347, -27.381975651999898 ], [ -53.480127614, -27.384057794999897 ], [ -53.478583060999895, -27.386383904 ], [ -53.480652845, -27.387622532 ], [ -53.488805919999898, -27.389309495 ], [ -53.498175197, -27.385915181 ], [ -53.499443626, -27.39026222 ], [ -53.506776644, -27.390938984999902 ], [ -53.510535988999898, -27.394080942 ], [ -53.512929664, -27.393277134 ], [ -53.516645428999901, -27.395105741999899 ], [ -53.531982776999904, -27.387449277 ], [ -53.531304217999903, -27.383729124 ], [ -53.529215439, -27.381534905 ], [ -53.52550467, -27.380316236999896 ], [ -53.5238672629999, -27.376176605 ], [ -53.518986901999895, -27.376996967 ], [ -53.512995047999901, -27.374396492999896 ], [ -53.512396822, -27.365762627 ], [ -53.515952026, -27.3626045 ], [ -53.517960797999905, -27.354099855999895 ], [ -53.521940174999898, -27.347908085 ], [ -53.526871848, -27.344824941 ], [ -53.528086820999903, -27.341074659 ], [ -53.530253957999903, -27.341144484 ], [ -53.538016323, -27.336797233 ], [ -53.539995738, -27.332300459999892 ], [ -53.540381022, -27.325341907999903 ], [ -53.544980639, -27.321404309999895 ], [ -53.541861061, -27.318206077999893 ], [ -53.540782621999909, -27.3133277109999 ], [ -53.542769264, -27.310866964999896 ], [ -53.542132637, -27.309417735999894 ], [ -53.546753087999903, -27.30769147 ], [ -53.5451835329999, -27.306276388999908 ], [ -53.54259020699989, -27.306980963999894 ], [ -53.541600123, -27.305496413999897 ], [ -53.541903611, -27.303226657 ], [ -53.546596050999902, -27.300843417999896 ], [ -53.544314121, -27.297290152999903 ] ] ] } }
]
}
