{
"type": "FeatureCollection",
"name": "bairros_portao",
"crs": { "type": "name", "properties": { "name": "urn:ogc:def:crs:OGC:1.3:CRS84" } },
"features": [
{ "type": "Feature", "properties": { "name": "Boa Vista", "code_muni": 4314803.0, "name_muni": "Portão" }, "geometry": { "type": "MultiPolygon", "coordinates": [ [ [ [ -51.1969972, -29.703258 ], [ -51.1971349, -29.7029994 ], [ -51.197258, -29.702561599999989 ], [ -51.197227627139192, -29.70193516172311 ], [ -51.196985383022302, -29.703280161888863 ], [ -51.1969972, -29.703258 ] ] ], [ [ [ -51.1972132, -29.7016376 ], [ -51.1969893, -29.7011123 ], [ -51.1971013, -29.7005287 ], [ -51.1965301, -29.699526699999986 ], [ -51.1959726, -29.6988546 ], [ -51.1954215, -29.6982038 ], [ -51.1952423, -29.6977369 ], [ -51.1950743, -29.6972019 ], [ -51.1947944, -29.6969392 ], [ -51.194169150522704, -29.696654108446584 ], [ -51.197218907780119, -29.701755323971806 ], [ -51.1972132, -29.7016376 ] ] ], [ [ [ -51.1924052, -29.6836534 ], [ -51.1930543, -29.6822972 ], [ -51.1932099, -29.682017500000011 ], [ -51.193218322831399, -29.681878366540843 ], [ -51.192383306, -29.683277605999905 ], [ -51.192416365, -29.693722020999893 ], [ -51.192781307181527, -29.694332518216797 ], [ -51.1924052, -29.6836534 ] ] ] ] } },
{ "type": "Feature", "properties": { "name": "Arroio da Manteiga", "code_muni": 4314803.0, "name_muni": "Portão" }, "geometry": { "type": "MultiPolygon", "coordinates": [ [ [ [ -51.2093487, -29.7386405 ], [ -51.2100287, -29.7346795 ], [ -51.2100287, -29.7310964 ], [ -51.2099198, -29.7297956 ], [ -51.2098789, -29.7270047 ], [ -51.2076183, -29.7258457 ], [ -51.206374981229978, -29.725240177905448 ], [ -51.207938354, -29.726837955999901 ], [ -51.209819656, -29.734419589999987 ], [ -51.208686200514364, -29.738648184388364 ], [ -51.2093487, -29.7386405 ] ] ], [ [ [ -51.2045133, -29.7216355 ], [ -51.2018714, -29.7196013 ], [ -51.1989571, -29.7172004 ], [ -51.1984396, -29.7163252 ], [ -51.197282, -29.7156274 ], [ -51.196630694663412, -29.715205857029762 ], [ -51.196699565, -29.715350281999989 ], [ -51.204108719445195, -29.722923918387089 ], [ -51.2045133, -29.7216355 ] ] ], [ [ [ -51.1962606, -29.7137468 ], [ -51.1963151, -29.7130371 ], [ -51.1967781, -29.7125167 ], [ -51.197391, -29.7121855 ], [ -51.1970641, -29.7117006 ], [ -51.1966828, -29.710293 ], [ -51.1965875, -29.7090038 ], [ -51.1964922, -29.7079274 ], [ -51.1961926, -29.7077145 ], [ -51.196191525759048, -29.707687604861508 ], [ -51.195328974999896, -29.712475992 ], [ -51.196560040998598, -29.715057691846575 ], [ -51.1962606, -29.7137468 ] ] ], [ [ [ -51.1967101, -29.7068865 ], [ -51.196472255280156, -29.706129057260725 ], [ -51.19626215613345, -29.707295485342772 ], [ -51.1967101, -29.7068865 ] ] ] ] } },
{ "type": "Feature", "properties": { "name": "Campo Grande", "code_muni": 4314803.0, "name_muni": "Portão" }, "geometry": { "type": "MultiPolygon", "coordinates": [ [ [ [ -51.227113, -29.6583672 ], [ -51.2271988, -29.6578544 ], [ -51.2273759, -29.6575421 ], [ -51.2273437, -29.6569127 ], [ -51.2271881, -29.6561715 ], [ -51.2271881, -29.6558639 ], [ -51.2273169, -29.6554536 ], [ -51.2278748, -29.6549315 ], [ -51.2278104, -29.6535702 ], [ -51.2276924, -29.6532159 ], [ -51.2276924, -29.6523488 ], [ -51.227789468082285, -29.652146744398721 ], [ -51.226609369, -29.653020263 ], [ -51.227315013, -29.657186845 ], [ -51.227093729780222, -29.658378250574103 ], [ -51.227113, -29.6583672 ] ] ], [ [ [ -51.22847560000001, -29.6520318 ], [ -51.2293553, -29.6519666 ], [ -51.2296558, -29.6516029 ], [ -51.2299991, -29.6510715 ], [ -51.2306535, -29.6500179 ], [ -51.2304282, -29.6495703 ], [ -51.2294841, -29.6485353 ], [ -51.229175157023036, -29.648222038196547 ], [ -51.230527418999891, -29.650119993000018 ], [ -51.228114705842593, -29.65190599635423 ], [ -51.22847560000001, -29.6520318 ] ] ], [ [ [ -51.22854, -29.6470901 ], [ -51.2281323, -29.6467264 ], [ -51.2277246, -29.6461856 ], [ -51.227246284766117, -29.645137672604726 ], [ -51.227235855999901, -29.6455 ], [ -51.228941371538944, -29.6478939020176 ], [ -51.22854, -29.6470901 ] ] ], [ [ [ -51.2275314, -29.644292700000012 ], [ -51.2277353, -29.6436307 ], [ -51.2277675, -29.6431365 ], [ -51.227333490650729, -29.642107782038753 ], [ -51.227251460843334, -29.644957838916788 ], [ -51.2275314, -29.644292700000012 ] ] ], [ [ [ -51.2284112, -29.6371126 ], [ -51.228448, -29.6366335 ], [ -51.228326473873601, -29.636648996174895 ], [ -51.228080339861222, -29.637396115308906 ], [ -51.2284112, -29.6371126 ] ] ] ] } },
{ "type": "Feature", "properties": { "name": "Industrial", "code_muni": 4314803.0, "name_muni": "Portão" }, "geometry": { "type": "MultiPolygon", "coordinates": [ [ [ [ -51.1975471, -29.6802097 ], [ -51.1976369, -29.6800782 ], [ -51.1977482, -29.6799249 ], [ -51.197889580518165, -29.679766953114761 ], [ -51.197531550864191, -29.679980478891611 ], [ -51.1975471, -29.6802097 ] ] ], [ [ [ -51.1984241, -29.6794589 ], [ -51.198500916334453, -29.679435258626459 ], [ -51.19844832, -29.679433721999889 ], [ -51.198335257402398, -29.679501152675915 ], [ -51.1984241, -29.6794589 ] ] ], [ [ [ -51.2024582, -29.6795987 ], [ -51.2029464, -29.6798602 ], [ -51.2031509, -29.680244 ], [ -51.2047921, -29.6818607 ], [ -51.206350765487024, -29.683416575245687 ], [ -51.202805359, -29.679560943999896 ], [ -51.202307784628736, -29.679546422496038 ], [ -51.2024582, -29.6795987 ] ] ], [ [ [ -51.208074112215513, -29.685293621399229 ], [ -51.208073283, -29.685289671999985 ], [ -51.208067162004347, -29.685283016082675 ], [ -51.208074112215513, -29.685293621399229 ] ] ], [ [ [ -51.2081612, -29.6860684 ], [ -51.2080729, -29.6864604 ], [ -51.2080616, -29.686904899999988 ], [ -51.2080482, -29.6873587 ], [ -51.2080974, -29.6876476 ], [ -51.2082927, -29.6877897 ], [ -51.2083164, -29.6883081 ], [ -51.2083879, -29.6889473 ], [ -51.2084123, -29.6893295 ], [ -51.2085153, -29.6897792 ], [ -51.2087664, -29.6902522 ], [ -51.2091741, -29.690867300000011 ], [ -51.2092176, -29.6911258 ], [ -51.2093255, -29.6914063 ], [ -51.209387295432407, -29.6915476656721 ], [ -51.208196977305619, -29.685878801410709 ], [ -51.2081612, -29.6860684 ] ] ], [ [ [ -51.2151991, -29.6890842 ], [ -51.2157078, -29.6888837 ], [ -51.2160708, -29.6885367 ], [ -51.2162161, -29.6883054 ], [ -51.2163936, -29.6882704 ], [ -51.2164738, -29.6879008 ], [ -51.216045466700812, -29.68732696050084 ], [ -51.214780810888158, -29.68908212590933 ], [ -51.2151991, -29.6890842 ] ] ] ] } },
{ "type": "Feature", "properties": { "name": "Lago Azul", "code_muni": 4314803.0, "name_muni": "Portão" }, "geometry": { "type": "MultiPolygon", "coordinates": [ [ [ [ -51.1957097, -29.6803817 ], [ -51.195923135763913, -29.680443493566504 ], [ -51.195640554733131, -29.680314411164488 ], [ -51.1957097, -29.6803817 ] ] ], [ [ [ -51.1967397, -29.680679899999987 ], [ -51.1973083, -29.6805308 ], [ -51.1974457, -29.6803415 ], [ -51.1975471, -29.6802097 ], [ -51.197531550864191, -29.679980478891611 ], [ -51.19648326214157, -29.680605658421214 ], [ -51.1967397, -29.680679899999987 ] ] ] ] } },
{ "type": "Feature", "properties": { "name": "Zoológico", "code_muni": 4314803.0, "name_muni": "Portão" }, "geometry": { "type": "MultiPolygon", "coordinates": [ [ [ [ -51.1905314, -29.7988811 ], [ -51.1913242, -29.7973956 ], [ -51.1915512, -29.7965194 ], [ -51.1916853, -29.7951693 ], [ -51.1915531, -29.7946061 ], [ -51.1912957, -29.7936899 ], [ -51.190712, -29.7932281 ], [ -51.1900082, -29.7930344 ], [ -51.1883345, -29.7931536 ], [ -51.188102807806573, -29.79323038979652 ], [ -51.19127056, -29.79374636099989 ], [ -51.190404349298717, -29.798903221879954 ], [ -51.1905314, -29.7988811 ] ] ], [ [ [ -51.1873904, -29.7934665 ], [ -51.1868754, -29.7939134 ], [ -51.186635006891933, -29.794469711897062 ], [ -51.187855876841638, -29.793312229606478 ], [ -51.1873904, -29.7934665 ] ] ], [ [ [ -51.185952951459072, -29.794989051076595 ], [ -51.186015184, -29.795057339 ], [ -51.18616015945431, -29.794919894959769 ], [ -51.185952951459072, -29.794989051076595 ] ] ], [ [ [ -51.1949606, -29.7904572 ], [ -51.195127153282229, -29.790354823110935 ], [ -51.19472701804726, -29.790500338517525 ], [ -51.1949606, -29.7904572 ] ] ], [ [ [ -51.1957846, -29.7899507 ], [ -51.1962481, -29.7894293 ], [ -51.1964884, -29.7886993 ], [ -51.1963168, -29.7882374 ], [ -51.1953554, -29.787865 ], [ -51.1941023, -29.7876788 ], [ -51.1926689, -29.7878501 ], [ -51.192204251384894, -29.787976820381928 ], [ -51.196406426, -29.788503963999986 ], [ -51.195350841427455, -29.790217325933838 ], [ -51.1957846, -29.7899507 ] ] ], [ [ [ -51.1872616, -29.7874553 ], [ -51.1867209, -29.7878277 ], [ -51.1864033, -29.7882747 ], [ -51.186213929495267, -29.78861744624917 ], [ -51.187572041110847, -29.787455300189787 ], [ -51.1872616, -29.7874553 ] ] ], [ [ [ -51.18578773480921, -29.78889498852929 ], [ -51.1858578269999, -29.788922158999984 ], [ -51.185929975463026, -29.788860422628797 ], [ -51.18578773480921, -29.78889498852929 ] ] ], [ [ [ -51.189519, -29.7849002 ], [ -51.1898794, -29.7850716 ], [ -51.1903773, -29.785183299999989 ], [ -51.1908923, -29.7850939 ], [ -51.1914244, -29.7846991 ], [ -51.1918106, -29.7840659 ], [ -51.1917677, -29.7836041 ], [ -51.1917351, -29.7835456 ], [ -51.1913815, -29.7829113 ], [ -51.19119169957311, -29.782669974916285 ], [ -51.190833934999901, -29.785077649999888 ], [ -51.1891797927873, -29.784634334142275 ], [ -51.189519, -29.7849002 ] ] ], [ [ [ -51.1930724, -29.781585299999989 ], [ -51.1937247, -29.7815853 ], [ -51.1941281, -29.7814735 ], [ -51.1944456, -29.7811905 ], [ -51.1945143, -29.7808925 ], [ -51.194344279054405, -29.780523642692344 ], [ -51.194365276, -29.781161058999889 ], [ -51.192627842061043, -29.781549454025285 ], [ -51.1930724, -29.781585299999989 ] ] ], [ [ [ -51.1943426, -29.7774507 ], [ -51.194686, -29.7769144 ], [ -51.1946173, -29.7762439 ], [ -51.194195264519188, -29.775999668304497 ], [ -51.194248363820535, -29.777611776216958 ], [ -51.1943426, -29.7774507 ] ] ], [ [ [ -51.1941281, -29.7759608 ], [ -51.1933277, -29.7759808 ], [ -51.1924715, -29.776616399999988 ], [ -51.192093727157449, -29.776984597800556 ], [ -51.194142742086484, -29.775969273423947 ], [ -51.1941281, -29.7759608 ] ] ], [ [ [ -51.1895705, -29.7782106 ], [ -51.18919608849054, -29.778196366853614 ], [ -51.189532012, -29.778253901 ], [ -51.189685022642408, -29.778178088113197 ], [ -51.1895705, -29.7782106 ] ] ] ] } },
{ "type": "Feature", "properties": { "name": "Carioca", "code_muni": 4314803.0, "name_muni": "Portão" }, "geometry": { "type": "MultiPolygon", "coordinates": [ [ [ [ -51.190404349298717, -29.798903221879954 ], [ -51.190351427752852, -29.799218265540635 ], [ -51.1905314, -29.7988811 ], [ -51.190404349298717, -29.798903221879954 ] ] ], [ [ [ -51.192449913302923, -29.803219798334457 ], [ -51.192630961, -29.803403362 ], [ -51.192670932172156, -29.803382047817852 ], [ -51.192449913302923, -29.803219798334457 ] ] ], [ [ [ -51.190114199782826, -29.800630466982945 ], [ -51.190082467, -29.800819367 ], [ -51.190152430795301, -29.800890307855738 ], [ -51.190114199782826, -29.800630466982945 ] ] ] ] } },
{ "type": "Feature", "properties": { "name": "Rincão do Cascalho", "code_muni": 4314803.0, "name_muni": "Portão" }, "geometry": { "type": "Polygon", "coordinates": [ [ [ -51.2480631, -29.6536543 ], [ -51.2479512, -29.6537133 ], [ -51.2478157, -29.6538159 ], [ -51.2476318, -29.6540083 ], [ -51.2476058, -29.6541752 ], [ -51.2476595, -29.654502699999988 ], [ -51.2477799, -29.6552251 ], [ -51.247867, -29.655344 ], [ -51.2478575, -29.6556331 ], [ -51.2479458, -29.6557584 ], [ -51.2480663, -29.6559243 ], [ -51.248114, -29.6564136 ], [ -51.2479888, -29.6566826 ], [ -51.248018, -29.65703370000001 ], [ -51.2480674, -29.6573029 ], [ -51.2482649, -29.6576444 ], [ -51.2485922, -29.6576563 ], [ -51.2488764, -29.657775 ], [ -51.2491076, -29.658323 ], [ -51.2492728, -29.6589121 ], [ -51.2491931, -29.6593233 ], [ -51.2488934, -29.6596453 ], [ -51.2487047, -29.6599054 ], [ -51.2487208, -29.6603715 ], [ -51.2486594, -29.6609472 ], [ -51.2487908, -29.6612004 ], [ -51.2490034, -29.661431 ], [ -51.2489407, -29.6615602 ], [ -51.2488557, -29.6616682 ], [ -51.2487706, -29.6619672 ], [ -51.2487679, -29.662416 ], [ -51.2487869, -29.6628657 ], [ -51.2489489, -29.6630355 ], [ -51.2491652, -29.6630646 ], [ -51.2492456, -29.6631831 ], [ -51.2495849, -29.6639308 ], [ -51.2495941, -29.6641456 ], [ -51.2494925, -29.6642247 ], [ -51.2493142, -29.6642717 ], [ -51.2492662, -29.664478 ], [ -51.2494462, -29.6648124 ], [ -51.2496006, -29.6650469 ], [ -51.2495737, -29.6655876 ], [ -51.2496328, -29.666436 ], [ -51.249599, -29.6669981 ], [ -51.2497186, -29.667289 ], [ -51.2497972, -29.6678086 ], [ -51.2497906, -29.6683208 ], [ -51.2496803, -29.6687237 ], [ -51.2493836, -29.6690335 ], [ -51.2492231, -29.6693691 ], [ -51.2492034, -29.6698254 ], [ -51.2492605, -29.6700783 ], [ -51.2492778, -29.6702053 ], [ -51.24926, -29.6703197 ], [ -51.2491483, -29.6704073 ], [ -51.2490432, -29.6703854 ], [ -51.2490105, -29.6702348 ], [ -51.2488273, -29.6701866 ], [ -51.2487337, -29.670220699999987 ], [ -51.2486899, -29.6703494 ], [ -51.2484452, -29.6704533 ], [ -51.2481514, -29.6705399 ], [ -51.2478035, -29.6707196 ], [ -51.2474866, -29.6708004 ], [ -51.2472059, -29.6708589 ], [ -51.2470297, -29.6709694 ], [ -51.246984, -29.6710559 ], [ -51.2470307, -29.6711181 ], [ -51.2470015, -29.6712255 ], [ -51.2467181, -29.671475699999984 ], [ -51.2466255, -29.6716439 ], [ -51.2461083, -29.6722445 ], [ -51.2459106, -29.6723844 ], [ -51.2457993, -29.6724902 ], [ -51.2453096, -29.6727571 ], [ -51.2450914, -29.6727204 ], [ -51.2450305, -29.672402 ], [ -51.2450252, -29.6721408 ], [ -51.2448532, -29.6719499 ], [ -51.2444432, -29.6720685 ], [ -51.2441055, -29.6721607 ], [ -51.243459, -29.6722456 ], [ -51.2429158, -29.6721751 ], [ -51.2427624, -29.6719494 ], [ -51.2426906, -29.6717641 ], [ -51.2426113, -29.6715979 ], [ -51.2424155, -29.67138 ], [ -51.2420938, -29.6711425 ], [ -51.24203760000001, -29.6709626 ], [ -51.2417845, -29.6708888 ], [ -51.2414576, -29.6706012 ], [ -51.241094, -29.6706806 ], [ -51.2408827, -29.6710352 ], [ -51.240676, -29.6715418 ], [ -51.2404986, -29.671848600000011 ], [ -51.2403117, -29.6719775 ], [ -51.2400335, -29.6718956 ], [ -51.2397973, -29.6718503 ], [ -51.2396284, -29.6718774 ], [ -51.2393655, -29.6721692 ], [ -51.2389256, -29.6726819 ], [ -51.238814, -29.6733517 ], [ -51.2386863, -29.6739094 ], [ -51.2384615, -29.6742455 ], [ -51.2385579, -29.6743116 ], [ -51.2404221, -29.6753784 ], [ -51.2412456, -29.6757913 ], [ -51.2429783, -29.676772 ], [ -51.2444454, -29.6755963 ], [ -51.2457432, -29.682405199999987 ], [ -51.2466571, -29.6881927 ], [ -51.2472674, -29.687517899999989 ], [ -51.2477877, -29.6870426 ], [ -51.2489653, -29.6860208 ], [ -51.2494491, -29.6856358 ], [ -51.2499259, -29.6851334 ], [ -51.25050610000001, -29.6842585 ], [ -51.2508786, -29.6838713 ], [ -51.2515069, -29.6832085 ], [ -51.2517909, -29.6829171 ], [ -51.2526797, -29.6820052 ], [ -51.2532209, -29.681491 ], [ -51.2539434, -29.6808347 ], [ -51.2554381, -29.6794247 ], [ -51.2565288, -29.6784195 ], [ -51.2575722, -29.6773499 ], [ -51.2580192, -29.6768529 ], [ -51.2594788, -29.6751632 ], [ -51.2614419, -29.6729185 ], [ -51.2622285, -29.6717801 ], [ -51.262427, -29.6715611 ], [ -51.2626862, -29.6713174 ], [ -51.2629745, -29.6711019 ], [ -51.2632153, -29.6710099 ], [ -51.2635255, -29.6709497 ], [ -51.2638648, -29.6709243 ], [ -51.2648318, -29.670956 ], [ -51.2651186, -29.6709493 ], [ -51.2657185, -29.6709306 ], [ -51.2669686, -29.6708532 ], [ -51.2670417, -29.6708322 ], [ -51.267086, -29.6707967 ], [ -51.2673233, -29.670288599999985 ], [ -51.2676828, -29.6694764 ], [ -51.268018, -29.6695883 ], [ -51.2696743, -29.6701657 ], [ -51.2708198, -29.6705467 ], [ -51.2727267, -29.6708619 ], [ -51.2739162, -29.670933 ], [ -51.2746983, -29.6709882 ], [ -51.2752533, -29.6710274 ], [ -51.276184, -29.6711323 ], [ -51.2768561, -29.6711311 ], [ -51.2775954, -29.6710204 ], [ -51.287764802110544, -29.66793982055761 ], [ -51.288077811577217, -29.663115092495442 ], [ -51.288086600956795, -29.662301796817463 ], [ -51.287085053634463, -29.662188881701805 ], [ -51.2864837, -29.6621932 ], [ -51.2863328, -29.6622217 ], [ -51.2859258, -29.6623668 ], [ -51.2857246, -29.6624041 ], [ -51.2848824, -29.662446 ], [ -51.2845565, -29.6624367 ], [ -51.2838216, -29.662206 ], [ -51.2831128, -29.6620568 ], [ -51.2824322, -29.662009 ], [ -51.2819025, -29.661847 ], [ -51.2812024, -29.661621 ], [ -51.280986334604428, -29.661501139051516 ], [ -51.280985022, -29.661500991 ], [ -51.280983392989647, -29.66149950720439 ], [ -51.2808873, -29.6614462 ], [ -51.2803609, -29.6609759 ], [ -51.28024820000001, -29.6608495 ], [ -51.280211828190197, -29.660796714732523 ], [ -51.278523302385992, -29.659258643000321 ], [ -51.2774111, -29.658436 ], [ -51.2772931, -29.6582949 ], [ -51.2771067, -29.6579535 ], [ -51.2770209, -29.6577181 ], [ -51.2770189, -29.6574786 ], [ -51.277020188665993, -29.657423903759131 ], [ -51.276576642458664, -29.655738621955127 ], [ -51.276565, -29.6557208 ], [ -51.276563700823523, -29.655689448509452 ], [ -51.276512359, -29.655494367999896 ], [ -51.276876451793719, -29.654347629112007 ], [ -51.276912, -29.6542197 ], [ -51.276922837559418, -29.654201531568358 ], [ -51.277531303427509, -29.652285054875488 ], [ -51.2774706, -29.652062599999987 ], [ -51.2775412, -29.6518448 ], [ -51.2774637, -29.6517147 ], [ -51.2774259, -29.6516923 ], [ -51.2773984, -29.6516654 ], [ -51.2773227, -29.6514336 ], [ -51.2772934, -29.6513828 ], [ -51.2772037, -29.6513216 ], [ -51.2771963, -29.6512518 ], [ -51.277869, -29.6492051 ], [ -51.2786109, -29.6470499 ], [ -51.2784592, -29.646977 ], [ -51.2778041, -29.6467381 ], [ -51.2773903, -29.646588400000013 ], [ -51.2770837, -29.6464448 ], [ -51.2768412, -29.6463057 ], [ -51.2767011, -29.6461676 ], [ -51.2765431, -29.6458342 ], [ -51.2764449, -29.6457054 ], [ -51.2763356, -29.6456436 ], [ -51.2761807, -29.6456349 ], [ -51.2758823, -29.645643 ], [ -51.2748523, -29.645687899999988 ], [ -51.2746042, -29.6456681 ], [ -51.2744044, -29.645618 ], [ -51.2742254, -29.6454963 ], [ -51.2737218, -29.6450643 ], [ -51.273526, -29.6449629 ], [ -51.2733523, -29.6449198 ], [ -51.2727627, -29.6449633 ], [ -51.2722262, -29.6450472 ], [ -51.2715825, -29.6452337 ], [ -51.2708022, -29.6455212 ], [ -51.270255, -29.6457951 ], [ -51.2700089, -29.6459589 ], [ -51.269614, -29.6462433 ], [ -51.26954820000001, -29.6463284 ], [ -51.2691208, -29.6468853 ], [ -51.2688871, -29.6474275 ], [ -51.2688334, -29.6476641 ], [ -51.2688139, -29.6480549 ], [ -51.2688093, -29.6481484 ], [ -51.2688147, -29.6485412 ], [ -51.2688589, -29.648906 ], [ -51.2689991, -29.6495196 ], [ -51.2690386, -29.6498395 ], [ -51.2690681, -29.6504444 ], [ -51.2690322, -29.650717 ], [ -51.2689374, -29.6508943 ], [ -51.2686819, -29.651228799999984 ], [ -51.2684754, -29.651401299999986 ], [ -51.2680777, -29.6516711 ], [ -51.2678025, -29.65179 ], [ -51.2672201, -29.6519462 ], [ -51.2670377, -29.6519473 ], [ -51.2664642, -29.6518417 ], [ -51.2656108, -29.6515808 ], [ -51.2651092, -29.6514998 ], [ -51.2644594, -29.6513838 ], [ -51.2643182, -29.651126 ], [ -51.2641865, -29.6510214 ], [ -51.2629685, -29.6503717 ], [ -51.2620019, -29.6498765 ], [ -51.2617001, -29.649423500000012 ], [ -51.2615083, -29.6491565 ], [ -51.2614292, -29.6489176 ], [ -51.2613836, -29.648670500000012 ], [ -51.2613219, -29.6474537 ], [ -51.2612709, -29.64716 ], [ -51.2611502, -29.6466169 ], [ -51.2610178, -29.6459472 ], [ -51.2605018, -29.6451698 ], [ -51.2599421, -29.6446381 ], [ -51.2596356, -29.6443469 ], [ -51.2587145, -29.6435975 ], [ -51.2581348, -29.6432437 ], [ -51.257939, -29.6430899 ], [ -51.2577412, -29.6428253 ], [ -51.2575507, -29.6425234 ], [ -51.2573388, -29.6421277 ], [ -51.2570605, -29.6421434 ], [ -51.2568393, -29.6421341 ], [ -51.2566334, -29.6421102 ], [ -51.2565433, -29.642061200000011 ], [ -51.2564805, -29.6421294 ], [ -51.256384, -29.642246 ], [ -51.256333, -29.6423695 ], [ -51.2563196, -29.642446500000013 ], [ -51.25635710000001, -29.642584 ], [ -51.2563786, -29.6427565 ], [ -51.2563866, -29.6428987 ], [ -51.2564537, -29.6431808 ], [ -51.2565073, -29.643295 ], [ -51.2565208, -29.6434022 ], [ -51.2565127, -29.6434932 ], [ -51.2565127, -29.6436773 ], [ -51.2565878, -29.6438399 ], [ -51.2565423, -29.6443659 ], [ -51.2565871, -29.6445852 ], [ -51.2565422, -29.6449268 ], [ -51.2564415, -29.6451565 ], [ -51.2562193, -29.645438 ], [ -51.2558138, -29.6458055 ], [ -51.255314, -29.6460483 ], [ -51.2549203, -29.6461857 ], [ -51.2544527, -29.646219 ], [ -51.2539458, -29.6463208 ], [ -51.253667900000011, -29.646497 ], [ -51.2534726, -29.6466928 ], [ -51.2532491, -29.6467663 ], [ -51.2529756, -29.646794299999989 ], [ -51.2527146, -29.6467768 ], [ -51.2523614, -29.6469562 ], [ -51.2521958, -29.6470884 ], [ -51.2519664, -29.6473325 ], [ -51.2518215, -29.6474957 ], [ -51.2517552, -29.6476224 ], [ -51.2515533, -29.6477847 ], [ -51.251468, -29.6480598 ], [ -51.2512625, -29.6483521 ], [ -51.2511444, -29.6484986 ], [ -51.2510537, -29.6488705 ], [ -51.2509156, -29.6490366 ], [ -51.2507993, -29.6491233 ], [ -51.2505441, -29.6494144 ], [ -51.2504041, -29.6496404 ], [ -51.2502463, -29.6501905 ], [ -51.2499472, -29.6504605 ], [ -51.2497441, -29.6507352 ], [ -51.2496179, -29.6511233 ], [ -51.2496067, -29.6512682 ], [ -51.2496244, -29.6515192 ], [ -51.2495976, -29.6519078 ], [ -51.2496256, -29.6521904 ], [ -51.2495391, -29.6524294 ], [ -51.2493474, -29.652551 ], [ -51.2491467, -29.6527419 ], [ -51.2489118, -29.6530282 ], [ -51.2484013, -29.6534369 ], [ -51.2482283, -29.6535606 ], [ -51.2481693, -29.6535917 ], [ -51.2480631, -29.6536543 ] ] ] } },
{ "type": "Feature", "properties": { "name": "Estação Portão", "code_muni": 4314803.0, "name_muni": "Portão" }, "geometry": { "type": "Polygon", "coordinates": [ [ [ -51.2673233, -29.670288599999985 ], [ -51.267086, -29.6707967 ], [ -51.2670417, -29.6708322 ], [ -51.2669686, -29.6708532 ], [ -51.2657185, -29.6709306 ], [ -51.2651186, -29.6709493 ], [ -51.2648318, -29.670956 ], [ -51.2638648, -29.6709243 ], [ -51.2635255, -29.6709497 ], [ -51.2632153, -29.6710099 ], [ -51.2629745, -29.6711019 ], [ -51.2626862, -29.6713174 ], [ -51.262427, -29.6715611 ], [ -51.2622285, -29.6717801 ], [ -51.2614419, -29.6729185 ], [ -51.2594788, -29.6751632 ], [ -51.2580192, -29.6768529 ], [ -51.2575722, -29.6773499 ], [ -51.2565288, -29.6784195 ], [ -51.2554381, -29.6794247 ], [ -51.2539434, -29.6808347 ], [ -51.2532209, -29.681491 ], [ -51.2526797, -29.6820052 ], [ -51.2517909, -29.6829171 ], [ -51.2515069, -29.6832085 ], [ -51.2508786, -29.6838713 ], [ -51.2516123, -29.6842988 ], [ -51.2519288, -29.684482899999985 ], [ -51.2521058, -29.684625099999987 ], [ -51.2522963, -29.6848092 ], [ -51.2524894, -29.6850165 ], [ -51.2526912, -29.6852165 ], [ -51.2527327, -29.6852708 ], [ -51.2523029, -29.6861918 ], [ -51.2519806, -29.6872723 ], [ -51.251841, -29.6879212 ], [ -51.2515515, -29.6885206 ], [ -51.2512262, -29.6888871 ], [ -51.2508258, -29.6891138 ], [ -51.2505675, -29.689372 ], [ -51.2504057, -29.6896209 ], [ -51.2504147, -29.6897738 ], [ -51.2504184, -29.6900806 ], [ -51.2502826, -29.69015430000001 ], [ -51.2497454, -29.690475 ], [ -51.2489557, -29.690685 ], [ -51.248466, -29.690909300000012 ], [ -51.2482178, -29.6912221 ], [ -51.2477856, -29.6915452 ], [ -51.2475358, -29.6918682 ], [ -51.2469233, -29.692383700000011 ], [ -51.246697, -29.692511399999987 ], [ -51.2463484, -29.692708 ], [ -51.2460202, -29.693097699999988 ], [ -51.2455827, -29.6933636 ], [ -51.2454043, -29.6934571 ], [ -51.2453111, -29.6935251 ], [ -51.2449115, -29.6938207 ], [ -51.2445108, -29.6940311 ], [ -51.2441432, -29.6944289 ], [ -51.2437863, -29.6947894 ], [ -51.2434004, -29.6946601 ], [ -51.242357, -29.6949622 ], [ -51.2416982, -29.6953626 ], [ -51.2410562, -29.6953566 ], [ -51.2403927, -29.6954253 ], [ -51.2395658, -29.6953098 ], [ -51.2395281, -29.6953773 ], [ -51.2395429, -29.6954429 ], [ -51.23956780000001, -29.695595 ], [ -51.2395741, -29.6957281 ], [ -51.2395384, -29.6961164 ], [ -51.2394934, -29.6964042 ], [ -51.2391642, -29.6978973 ], [ -51.2390767, -29.6978845 ], [ -51.2384964, -29.6984203 ], [ -51.2384102, -29.6985195 ], [ -51.2381542, -29.6988038 ], [ -51.2378964, -29.6990902 ], [ -51.23733, -29.6997428 ], [ -51.2368452, -29.7003098 ], [ -51.2365302, -29.700658 ], [ -51.2363533, -29.7008616 ], [ -51.2358374, -29.701486 ], [ -51.2357005, -29.7016319 ], [ -51.2349376, -29.7024819 ], [ -51.2348024, -29.702632499999986 ], [ -51.2343049, -29.7031869 ], [ -51.2341885, -29.703241 ], [ -51.2348548, -29.7035929 ], [ -51.2356195, -29.703919 ], [ -51.2370014, -29.7045461 ], [ -51.2371614, -29.7046097 ], [ -51.2374568, -29.7047286 ], [ -51.2378129, -29.704792 ], [ -51.2383121, -29.7048022 ], [ -51.2385369, -29.7047895 ], [ -51.2388288, -29.7047185 ], [ -51.2390711, -29.7045816 ], [ -51.239255, -29.704447600000012 ], [ -51.2399478, -29.7040558 ], [ -51.2400461, -29.7040003 ], [ -51.2401709, -29.7039701 ], [ -51.2403476, -29.7039578 ], [ -51.2398977, -29.7052749 ], [ -51.2395556, -29.7056343 ], [ -51.2458238, -29.7083253 ], [ -51.2474133, -29.7073337 ], [ -51.2476078, -29.7076612 ], [ -51.2480584, -29.7081528 ], [ -51.2483923, -29.7086024 ], [ -51.2491263, -29.7095302 ], [ -51.249303, -29.7097085 ], [ -51.2497286, -29.7101111 ], [ -51.2498667, -29.7102917 ], [ -51.2499798, -29.710488 ], [ -51.250204, -29.711107 ], [ -51.2503755, -29.7115362 ], [ -51.2507275, -29.7122803 ], [ -51.2508059, -29.7124309 ], [ -51.2509005, -29.7125847 ], [ -51.2509975, -29.7127064 ], [ -51.2510507, -29.7127656 ], [ -51.2511364, -29.7128605 ], [ -51.2512557, -29.7129454 ], [ -51.2514893, -29.7130688 ], [ -51.2517409, -29.713151 ], [ -51.2524044, -29.7133174 ], [ -51.2546166, -29.713841599999988 ], [ -51.2558186, -29.7141324 ], [ -51.2566, -29.7144368 ], [ -51.257332, -29.7147643 ], [ -51.2576815, -29.7149018 ], [ -51.2582588, -29.7150902 ], [ -51.2594347, -29.7153989 ], [ -51.2596264, -29.7154471 ], [ -51.2598284, -29.7155539 ], [ -51.259988, -29.7156496 ], [ -51.2601342, -29.7158064 ], [ -51.2602482, -29.7159608 ], [ -51.2603605, -29.7161675 ], [ -51.2607578, -29.7174489 ], [ -51.2609608, -29.7178824 ], [ -51.2612776, -29.7185588 ], [ -51.2616223, -29.719027 ], [ -51.2624097, -29.719762699999986 ], [ -51.2638596, -29.721117499999988 ], [ -51.2646514, -29.7218464 ], [ -51.2649895, -29.722353 ], [ -51.2650278, -29.722410300000011 ], [ -51.2658154, -29.7223946 ], [ -51.2672056, -29.7223058 ], [ -51.2685508, -29.7222323 ], [ -51.2700527, -29.7221151 ], [ -51.2703368, -29.7220832 ], [ -51.2715558, -29.7220263 ], [ -51.2717002, -29.7220196 ], [ -51.2741278, -29.7216812 ], [ -51.2775464, -29.7215845 ], [ -51.2782702, -29.7216135 ], [ -51.2790609, -29.7218746 ], [ -51.2804862, -29.7223291 ], [ -51.2817, -29.7226095 ], [ -51.2847066, -29.7231027 ], [ -51.2858145, -29.7232679 ], [ -51.2857759, -29.7231935 ], [ -51.2855675, -29.7227723 ], [ -51.2852098, -29.7219815 ], [ -51.2849893, -29.7208806 ], [ -51.2847242, -29.7193299 ], [ -51.28415025514154, -29.716990773667284 ], [ -51.284103734, -29.716870585 ], [ -51.284100363855138, -29.716787435131351 ], [ -51.2840927, -29.7167562 ], [ -51.2840456, -29.7158485 ], [ -51.2839611, -29.7154012 ], [ -51.2839621, -29.7153848 ], [ -51.2839919, -29.7149051 ], [ -51.284014994874241, -29.714681118726492 ], [ -51.283652470644832, -29.705735433532023 ], [ -51.2835896, -29.7052511 ], [ -51.283599579892744, -29.704430148009777 ], [ -51.283539710712084, -29.702952597118447 ], [ -51.2834957, -29.7027699 ], [ -51.283481, -29.7024216 ], [ -51.2836607, -29.701895099999987 ], [ -51.284163538347336, -29.701238363698682 ], [ -51.285723872378711, -29.698490632058018 ], [ -51.2857461, -29.6984236 ], [ -51.2858346, -29.6982034 ], [ -51.2858205, -29.698059 ], [ -51.2852553, -29.697295900000015 ], [ -51.2845324, -29.6965247 ], [ -51.2844667, -29.6963337 ], [ -51.2844828, -29.695856 ], [ -51.284464909654993, -29.69564973266549 ], [ -51.284387494, -29.695512836999985 ], [ -51.286122684784004, -29.691088089295835 ], [ -51.2861382, -29.6909896 ], [ -51.2865186, -29.6897141 ], [ -51.287278421493639, -29.688140726518576 ], [ -51.28746954042132, -29.687653317064662 ], [ -51.287519, -29.6874423 ], [ -51.287511085475593, -29.686203894193607 ], [ -51.287500002009715, -29.685941082829604 ], [ -51.2874493, -29.6857005 ], [ -51.2870725, -29.6850771 ], [ -51.2868203, -29.6843548 ], [ -51.2867787, -29.683912 ], [ -51.2870114, -29.6816278 ], [ -51.2872455, -29.6801114 ], [ -51.28724881368705, -29.67998449226441 ], [ -51.287092297640285, -29.676272531150289 ], [ -51.2870228, -29.6760927 ], [ -51.287015243044053, -29.676072960885513 ], [ -51.28643705300955, -29.675202564080134 ], [ -51.2862812, -29.6749787 ], [ -51.2858748, -29.6744462 ], [ -51.285876910153263, -29.674359318230657 ], [ -51.285866776, -29.674344061999896 ], [ -51.285877967576553, -29.6743157806802 ], [ -51.2859105, -29.6729763 ], [ -51.2859714, -29.6718244 ], [ -51.2860827, -29.6713886 ], [ -51.2862597, -29.671081 ], [ -51.2868015, -29.6705718 ], [ -51.2875392, -29.6699868 ], [ -51.2876236, -29.6698377 ], [ -51.287699445206947, -29.668947177211876 ], [ -51.287764802110544, -29.66793982055761 ], [ -51.2775954, -29.6710204 ], [ -51.2768561, -29.6711311 ], [ -51.276184, -29.6711323 ], [ -51.2752533, -29.6710274 ], [ -51.2746983, -29.6709882 ], [ -51.2739162, -29.670933 ], [ -51.2727267, -29.6708619 ], [ -51.2708198, -29.6705467 ], [ -51.2696743, -29.6701657 ], [ -51.268018, -29.6695883 ], [ -51.2676828, -29.6694764 ], [ -51.2673233, -29.670288599999985 ] ] ] } },
{ "type": "Feature", "properties": { "name": "Centro", "code_muni": 4314803.0, "name_muni": "Portão" }, "geometry": { "type": "Polygon", "coordinates": [ [ [ -51.2457432, -29.682405199999987 ], [ -51.2444454, -29.6755963 ], [ -51.2429783, -29.676772 ], [ -51.2412456, -29.6757913 ], [ -51.2404221, -29.6753784 ], [ -51.2385579, -29.6743116 ], [ -51.2384615, -29.6742455 ], [ -51.2384076, -29.6743018 ], [ -51.2381601, -29.674406900000015 ], [ -51.2375738, -29.674798 ], [ -51.2371446, -29.675264 ], [ -51.2368214, -29.6754026 ], [ -51.2367149, -29.675638 ], [ -51.2367424, -29.6758275 ], [ -51.2367712, -29.6760948 ], [ -51.236743, -29.6762993 ], [ -51.236736, -29.6764456 ], [ -51.2368823, -29.6765151 ], [ -51.2373128, -29.6765399 ], [ -51.2374827, -29.6763543 ], [ -51.2375474, -29.6761805 ], [ -51.2377417, -29.6761153 ], [ -51.2378717, -29.6762826 ], [ -51.2379967, -29.6766011 ], [ -51.238037, -29.6768868 ], [ -51.2381928, -29.6771015 ], [ -51.2381779, -29.6776045 ], [ -51.2381002, -29.6778121 ], [ -51.2380978, -29.6780078 ], [ -51.2380157, -29.6782632 ], [ -51.2377833, -29.6784678 ], [ -51.2375227, -29.6786156 ], [ -51.2374352, -29.6788047 ], [ -51.2372303, -29.6788977 ], [ -51.2363643, -29.6791787 ], [ -51.2360553, -29.6793045 ], [ -51.2358342, -29.6795283 ], [ -51.2355742, -29.680054699999982 ], [ -51.2354906, -29.6805111 ], [ -51.2352522, -29.6807375 ], [ -51.2346103, -29.6808143 ], [ -51.2340984, -29.681009 ], [ -51.2338838, -29.6814612 ], [ -51.2341958, -29.681898099999987 ], [ -51.2343523, -29.6822724 ], [ -51.2343772, -29.6825935 ], [ -51.2344533, -29.683134 ], [ -51.2343143, -29.6834397 ], [ -51.234055, -29.6835749 ], [ -51.2337866, -29.6837615 ], [ -51.2336921, -29.6841568 ], [ -51.233554, -29.684484 ], [ -51.2331435, -29.6844547 ], [ -51.2326106, -29.6844852 ], [ -51.2325285, -29.6846288 ], [ -51.2323555, -29.684663399999987 ], [ -51.2318212, -29.6839933 ], [ -51.2316584, -29.6838114 ], [ -51.2313081, -29.6838303 ], [ -51.230554, -29.683493 ], [ -51.2303507, -29.6832052 ], [ -51.2301814, -29.6823555 ], [ -51.2300833, -29.6817383 ], [ -51.229943, -29.6810772 ], [ -51.2298458, -29.6808844 ], [ -51.2296824, -29.6808527 ], [ -51.2295005, -29.6810146 ], [ -51.229266, -29.6811042 ], [ -51.2289841, -29.6814009 ], [ -51.2288363, -29.6816345 ], [ -51.2283862, -29.682054300000015 ], [ -51.2281589, -29.6821406 ], [ -51.2278122, -29.682317 ], [ -51.2278473, -29.6823462 ], [ -51.2279794, -29.6824137 ], [ -51.2281215, -29.6825582 ], [ -51.2283277, -29.6830958 ], [ -51.2284032, -29.683406399999985 ], [ -51.2285426, -29.6842383 ], [ -51.2287438, -29.6858717 ], [ -51.2291135, -29.688539 ], [ -51.229195, -29.6892022 ], [ -51.22935, -29.690299 ], [ -51.2293563, -29.6903461 ], [ -51.2293929, -29.6903782 ], [ -51.2303253, -29.69074 ], [ -51.2312594, -29.6913847 ], [ -51.2313841, -29.691164300000015 ], [ -51.2318027, -29.6905839 ], [ -51.2323628, -29.6905844 ], [ -51.2326156, -29.6905841 ], [ -51.232998, -29.690585 ], [ -51.2333076, -29.690546 ], [ -51.2333549, -29.6905706 ], [ -51.2324444, -29.6914718 ], [ -51.2295925, -29.6940559 ], [ -51.229151, -29.6943692 ], [ -51.2284037, -29.694772 ], [ -51.2255884, -29.6962175 ], [ -51.2247937, -29.696568 ], [ -51.2248258, -29.6966203 ], [ -51.2255164, -29.6964968 ], [ -51.2266869, -29.696621 ], [ -51.2274096, -29.6967106 ], [ -51.2276768, -29.6967416 ], [ -51.2284125, -29.6968292 ], [ -51.228518200000011, -29.6968562 ], [ -51.2285886, -29.6968939 ], [ -51.2287044, -29.6969742 ], [ -51.2295015, -29.6976158 ], [ -51.2297603, -29.697864 ], [ -51.2301069, -29.6982833 ], [ -51.2308988, -29.6992282 ], [ -51.2310328, -29.6993942 ], [ -51.23157530000001, -29.7001023 ], [ -51.231659, -29.7002083 ], [ -51.2328322, -29.7016516 ], [ -51.2336507, -29.7027471 ], [ -51.2337162, -29.702828699999987 ], [ -51.2340581, -29.7031602 ], [ -51.2341885, -29.703241 ], [ -51.2343049, -29.7031869 ], [ -51.2348024, -29.702632499999986 ], [ -51.2349376, -29.7024819 ], [ -51.2357005, -29.7016319 ], [ -51.2358374, -29.701486 ], [ -51.2363533, -29.7008616 ], [ -51.2365302, -29.700658 ], [ -51.2368452, -29.7003098 ], [ -51.23733, -29.6997428 ], [ -51.2378964, -29.6990902 ], [ -51.2381542, -29.6988038 ], [ -51.2384102, -29.6985195 ], [ -51.2384964, -29.6984203 ], [ -51.2390767, -29.6978845 ], [ -51.2391642, -29.6978973 ], [ -51.2394934, -29.6964042 ], [ -51.2395384, -29.6961164 ], [ -51.2395741, -29.6957281 ], [ -51.23956780000001, -29.695595 ], [ -51.2395429, -29.6954429 ], [ -51.2395281, -29.6953773 ], [ -51.2395658, -29.6953098 ], [ -51.2403927, -29.6954253 ], [ -51.2410562, -29.6953566 ], [ -51.2416982, -29.6953626 ], [ -51.242357, -29.6949622 ], [ -51.2434004, -29.6946601 ], [ -51.2437863, -29.6947894 ], [ -51.2441432, -29.6944289 ], [ -51.2445108, -29.6940311 ], [ -51.2449115, -29.6938207 ], [ -51.2453111, -29.6935251 ], [ -51.2454043, -29.6934571 ], [ -51.2455827, -29.6933636 ], [ -51.2460202, -29.693097699999988 ], [ -51.2463484, -29.692708 ], [ -51.246697, -29.692511399999987 ], [ -51.2469233, -29.692383700000011 ], [ -51.2475358, -29.6918682 ], [ -51.2477856, -29.6915452 ], [ -51.2482178, -29.6912221 ], [ -51.248466, -29.690909300000012 ], [ -51.2489557, -29.690685 ], [ -51.2497454, -29.690475 ], [ -51.2502826, -29.69015430000001 ], [ -51.2504184, -29.6900806 ], [ -51.2504147, -29.6897738 ], [ -51.2504057, -29.6896209 ], [ -51.2505675, -29.689372 ], [ -51.2508258, -29.6891138 ], [ -51.2512262, -29.6888871 ], [ -51.2515515, -29.6885206 ], [ -51.251841, -29.6879212 ], [ -51.2519806, -29.6872723 ], [ -51.2523029, -29.6861918 ], [ -51.2527327, -29.6852708 ], [ -51.2526912, -29.6852165 ], [ -51.2524894, -29.6850165 ], [ -51.2522963, -29.6848092 ], [ -51.2521058, -29.684625099999987 ], [ -51.2519288, -29.684482899999985 ], [ -51.2516123, -29.6842988 ], [ -51.2508786, -29.6838713 ], [ -51.25050610000001, -29.6842585 ], [ -51.2499259, -29.6851334 ], [ -51.2494491, -29.6856358 ], [ -51.2489653, -29.6860208 ], [ -51.2477877, -29.6870426 ], [ -51.2472674, -29.687517899999989 ], [ -51.2466571, -29.6881927 ], [ -51.2457432, -29.682405199999987 ] ] ] } },
{ "type": "Feature", "properties": { "name": "Portão Velho", "code_muni": 4314803.0, "name_muni": "Portão" }, "geometry": { "type": "Polygon", "coordinates": [ [ [ -51.232998, -29.690585 ], [ -51.2326156, -29.6905841 ], [ -51.2323628, -29.6905844 ], [ -51.2318027, -29.6905839 ], [ -51.2313841, -29.691164300000015 ], [ -51.2312594, -29.6913847 ], [ -51.2303253, -29.69074 ], [ -51.2293929, -29.6903782 ], [ -51.2293563, -29.6903461 ], [ -51.22935, -29.690299 ], [ -51.229195, -29.6892022 ], [ -51.2291135, -29.688539 ], [ -51.2287438, -29.6858717 ], [ -51.2285426, -29.6842383 ], [ -51.2284032, -29.683406399999985 ], [ -51.2283277, -29.6830958 ], [ -51.2281215, -29.6825582 ], [ -51.2279794, -29.6824137 ], [ -51.2278473, -29.6823462 ], [ -51.2278122, -29.682317 ], [ -51.22754590000001, -29.6826024 ], [ -51.2274105, -29.6826499 ], [ -51.2272482, -29.6825858 ], [ -51.2270862, -29.6824163 ], [ -51.2268136, -29.6821742 ], [ -51.2264015, -29.6821298 ], [ -51.2260504, -29.6822485 ], [ -51.2257218, -29.682234 ], [ -51.2254378, -29.6822382 ], [ -51.225259, -29.6824025 ], [ -51.225146, -29.6826554 ], [ -51.2250771, -29.682864 ], [ -51.2247684, -29.6830546 ], [ -51.2247219, -29.6832199 ], [ -51.224734, -29.6833924 ], [ -51.2245751, -29.6833855 ], [ -51.2243413, -29.6833816 ], [ -51.2241371, -29.6836848 ], [ -51.2242388, -29.6838807 ], [ -51.2241537, -29.6839812 ], [ -51.2242151, -29.6842565 ], [ -51.2241435, -29.6844689 ], [ -51.2237516, -29.684602200000011 ], [ -51.2234758, -29.6848352 ], [ -51.2233681, -29.6849496 ], [ -51.2231492, -29.6850013 ], [ -51.2228627, -29.6851207 ], [ -51.2226298, -29.6853679 ], [ -51.2225316, -29.6856911 ], [ -51.222624, -29.685820599999989 ], [ -51.2228499, -29.6860717 ], [ -51.2228222, -29.686563 ], [ -51.222539, -29.6866795 ], [ -51.2215509, -29.686727399999988 ], [ -51.2213846, -29.6866231 ], [ -51.2212097, -29.6866635 ], [ -51.2210882, -29.6868282 ], [ -51.2207474, -29.6869474 ], [ -51.219959, -29.6871185 ], [ -51.2198057, -29.6871407 ], [ -51.21955040000001, -29.6871413 ], [ -51.2193032, -29.687132399999985 ], [ -51.2185549, -29.6870345 ], [ -51.218098500000011, -29.6871419 ], [ -51.2178486, -29.6872819 ], [ -51.2175173, -29.6876828 ], [ -51.2166385, -29.6878978 ], [ -51.2164738, -29.6879008 ], [ -51.2163936, -29.6882704 ], [ -51.2162161, -29.6883054 ], [ -51.2160708, -29.6885367 ], [ -51.2157078, -29.6888837 ], [ -51.2151991, -29.6890842 ], [ -51.214780810888158, -29.68908212590933 ], [ -51.214133155999896, -29.689980951999889 ], [ -51.214391781, -29.693695012 ], [ -51.211848168, -29.695937793999988 ], [ -51.209878701, -29.693887780999901 ], [ -51.209387295432407, -29.6915476656721 ], [ -51.2093255, -29.6914063 ], [ -51.2092176, -29.6911258 ], [ -51.2091741, -29.690867300000011 ], [ -51.2087664, -29.6902522 ], [ -51.2085153, -29.6897792 ], [ -51.2084123, -29.6893295 ], [ -51.2083879, -29.6889473 ], [ -51.2083164, -29.6883081 ], [ -51.2082927, -29.6877897 ], [ -51.2080974, -29.6876476 ], [ -51.2080482, -29.6873587 ], [ -51.2080616, -29.686904899999988 ], [ -51.2080729, -29.6864604 ], [ -51.2081612, -29.6860684 ], [ -51.208196977305619, -29.685878801410709 ], [ -51.208074112215513, -29.685293621399229 ], [ -51.208067162004347, -29.685283016082675 ], [ -51.206350765487024, -29.683416575245687 ], [ -51.2047921, -29.6818607 ], [ -51.2031509, -29.680244 ], [ -51.2029464, -29.6798602 ], [ -51.2024582, -29.6795987 ], [ -51.202307784628736, -29.679546422496038 ], [ -51.198500916334453, -29.679435258626459 ], [ -51.1984241, -29.6794589 ], [ -51.198335257402398, -29.679501152675915 ], [ -51.197889580518165, -29.679766953114761 ], [ -51.1977482, -29.6799249 ], [ -51.1976369, -29.6800782 ], [ -51.1975471, -29.6802097 ], [ -51.1974457, -29.6803415 ], [ -51.1973083, -29.6805308 ], [ -51.1967397, -29.680679899999987 ], [ -51.19648326214157, -29.680605658421214 ], [ -51.196394294999898, -29.680658716 ], [ -51.195923135763913, -29.680443493566504 ], [ -51.1957097, -29.6803817 ], [ -51.195640554733131, -29.680314411164488 ], [ -51.194470539999898, -29.679779940999897 ], [ -51.193218322831399, -29.681878366540843 ], [ -51.1932099, -29.682017500000011 ], [ -51.1930543, -29.6822972 ], [ -51.1924052, -29.6836534 ], [ -51.192781307181527, -29.694332518216797 ], [ -51.194169150522704, -29.696654108446584 ], [ -51.1947944, -29.6969392 ], [ -51.1950743, -29.6972019 ], [ -51.1952423, -29.6977369 ], [ -51.1954215, -29.6982038 ], [ -51.1959726, -29.6988546 ], [ -51.1965301, -29.699526699999986 ], [ -51.1971013, -29.7005287 ], [ -51.1969893, -29.7011123 ], [ -51.1972132, -29.7016376 ], [ -51.197218907780119, -29.701755323971806 ], [ -51.197250499999903, -29.701808163999896 ], [ -51.197227627139192, -29.70193516172311 ], [ -51.197258, -29.702561599999989 ], [ -51.1971349, -29.7029994 ], [ -51.1969972, -29.703258 ], [ -51.196985383022302, -29.703280161888863 ], [ -51.196472255280156, -29.706129057260725 ], [ -51.1967101, -29.7068865 ], [ -51.19626215613345, -29.707295485342772 ], [ -51.196191525759048, -29.707687604861508 ], [ -51.1961926, -29.7077145 ], [ -51.1964922, -29.7079274 ], [ -51.1965875, -29.7090038 ], [ -51.1966828, -29.710293 ], [ -51.1970641, -29.7117006 ], [ -51.197391, -29.7121855 ], [ -51.1967781, -29.7125167 ], [ -51.1963151, -29.7130371 ], [ -51.1962606, -29.7137468 ], [ -51.196560040998598, -29.715057691846575 ], [ -51.196630694663412, -29.715205857029762 ], [ -51.197282, -29.7156274 ], [ -51.1984396, -29.7163252 ], [ -51.1989571, -29.7172004 ], [ -51.2018714, -29.7196013 ], [ -51.2045133, -29.7216355 ], [ -51.204108719445195, -29.722923918387089 ], [ -51.206374981229978, -29.725240177905448 ], [ -51.2076183, -29.7258457 ], [ -51.2098789, -29.7270047 ], [ -51.2104499, -29.7272177 ], [ -51.2105253, -29.7261306 ], [ -51.2102504, -29.7245601 ], [ -51.2099805, -29.7231588 ], [ -51.2098546, -29.722477 ], [ -51.2097891, -29.7218219 ], [ -51.2096883, -29.721245 ], [ -51.2096091, -29.7206564 ], [ -51.2094692, -29.7203223 ], [ -51.2092625, -29.7200122 ], [ -51.2093221, -29.7196227 ], [ -51.2094761, -29.7192342 ], [ -51.210247, -29.7185167 ], [ -51.2111375, -29.7176595 ], [ -51.2117383, -29.7173054 ], [ -51.2122199, -29.7167098 ], [ -51.212932, -29.7159466 ], [ -51.2131378, -29.7157903 ], [ -51.2135864, -29.7154928 ], [ -51.2138948, -29.7152462 ], [ -51.2140045, -29.7148862 ], [ -51.2140112, -29.7144757 ], [ -51.2141588, -29.7141187 ], [ -51.2144875, -29.7141218 ], [ -51.2149089, -29.7142489 ], [ -51.2154313, -29.7142861 ], [ -51.2158174, -29.7141612 ], [ -51.2161025, -29.7139815 ], [ -51.2162606, -29.7143379 ], [ -51.2207927, -29.7126899 ], [ -51.2218954, -29.7123655 ], [ -51.222009, -29.7126943 ], [ -51.2237566, -29.7123248 ], [ -51.2259021, -29.7120475 ], [ -51.2273365, -29.7118718 ], [ -51.2271817, -29.7114486 ], [ -51.2289473, -29.7114598 ], [ -51.2293355, -29.7114243 ], [ -51.2295486, -29.7113965 ], [ -51.2297383, -29.7113407 ], [ -51.2299018, -29.7112646 ], [ -51.2308067, -29.7106206 ], [ -51.231033600000011, -29.7106769 ], [ -51.2318717, -29.7104707 ], [ -51.232737, -29.7104353 ], [ -51.233308, -29.7102968 ], [ -51.2338186, -29.7099768 ], [ -51.2372156, -29.7069493 ], [ -51.2391511, -29.7059137 ], [ -51.2395556, -29.7056343 ], [ -51.2398977, -29.7052749 ], [ -51.2403476, -29.7039578 ], [ -51.2401709, -29.7039701 ], [ -51.2400461, -29.7040003 ], [ -51.2399478, -29.7040558 ], [ -51.239255, -29.704447600000012 ], [ -51.2390711, -29.7045816 ], [ -51.2388288, -29.7047185 ], [ -51.2385369, -29.7047895 ], [ -51.2383121, -29.7048022 ], [ -51.2378129, -29.704792 ], [ -51.2374568, -29.7047286 ], [ -51.2371614, -29.7046097 ], [ -51.2370014, -29.7045461 ], [ -51.2356195, -29.703919 ], [ -51.2348548, -29.7035929 ], [ -51.2341885, -29.703241 ], [ -51.2340581, -29.7031602 ], [ -51.2337162, -29.702828699999987 ], [ -51.2336507, -29.7027471 ], [ -51.2328322, -29.7016516 ], [ -51.231659, -29.7002083 ], [ -51.23157530000001, -29.7001023 ], [ -51.2310328, -29.6993942 ], [ -51.2308988, -29.6992282 ], [ -51.2301069, -29.6982833 ], [ -51.2297603, -29.697864 ], [ -51.2295015, -29.6976158 ], [ -51.2287044, -29.6969742 ], [ -51.2285886, -29.6968939 ], [ -51.228518200000011, -29.6968562 ], [ -51.2284125, -29.6968292 ], [ -51.2276768, -29.6967416 ], [ -51.2274096, -29.6967106 ], [ -51.2266869, -29.696621 ], [ -51.2255164, -29.6964968 ], [ -51.2248258, -29.6966203 ], [ -51.2247937, -29.696568 ], [ -51.2255884, -29.6962175 ], [ -51.2284037, -29.694772 ], [ -51.229151, -29.6943692 ], [ -51.2295925, -29.6940559 ], [ -51.2324444, -29.6914718 ], [ -51.2333549, -29.6905706 ], [ -51.2333076, -29.690546 ], [ -51.232998, -29.690585 ] ] ] } }
]
}
