{
"type": "FeatureCollection",
"name": "bairros_santo_antonio_das_missoes",
"crs": { "type": "name", "properties": { "name": "urn:ogc:def:crs:OGC:1.3:CRS84" } },
"features": [
{ "type": "Feature", "properties": { "code_muni": 4317707.0, "name_muni": "Santo Antônio das Missões", "code_state": 43.0, "abbrev_state": "RS", "name_state": "Rio Grande do Sul", "code_region": 4.0, "name_region": "Sul", "year": 2022.0 }, "geometry": { "type": "Polygon", "coordinates": [ [ [ -55.384485567, -28.3048671449999 ], [ -55.38183866, -28.297213106999894 ], [ -55.38090543, -28.287233559999901 ], [ -55.370197671, -28.272452565 ], [ -55.364443066, -28.261598143 ], [ -55.359445545, -28.262206392999904 ], [ -55.351437642, -28.254120035 ], [ -55.350471131999896, -28.246568281999895 ], [ -55.341925573, -28.239416779999896 ], [ -55.332570271, -28.220301274 ], [ -55.326672445, -28.212469707 ], [ -55.326527238, -28.209292644 ], [ -55.321878494, -28.207931083999895 ], [ -55.318111616, -28.208941798999899 ], [ -55.319058728999892, -28.217707538 ], [ -55.316008175, -28.223409987 ], [ -55.313522700999989, -28.223613412 ], [ -55.310226084999989, -28.219799813999899 ], [ -55.304521467, -28.218675135 ], [ -55.30192713, -28.222158013999898 ], [ -55.302237953, -28.229215742 ], [ -55.300255526999898, -28.229661344 ], [ -55.297999037999894, -28.220846532999897 ], [ -55.290852833, -28.214548134 ], [ -55.285740099, -28.207854024 ], [ -55.284087758999895, -28.208956706 ], [ -55.286710751, -28.226536047 ], [ -55.289697872, -28.232032155 ], [ -55.294637378999902, -28.2353976479999 ], [ -55.286749103, -28.247394791000016 ], [ -55.287238613999889, -28.255994546 ], [ -55.296981769999896, -28.258121883999898 ], [ -55.306223716, -28.255302915999902 ], [ -55.309408123, -28.251437184999894 ], [ -55.317411756999903, -28.247019802 ], [ -55.327382105, -28.249487433999899 ], [ -55.328070117, -28.250650005 ], [ -55.326815454, -28.258701691999896 ], [ -55.32402076599989, -28.263636756 ], [ -55.321747517999903, -28.264676439 ], [ -55.315442812, -28.263610411999892 ], [ -55.314389688999896, -28.266494054 ], [ -55.316334663, -28.270165337 ], [ -55.327375925, -28.275801031999904 ], [ -55.32603836, -28.278334759 ], [ -55.321892251, -28.280528478999898 ], [ -55.311147405, -28.281134536 ], [ -55.300370132, -28.285457130999905 ], [ -55.296424133999899, -28.2822710639999 ], [ -55.2947766139999, -28.277619589 ], [ -55.292068951, -28.275736154999901 ], [ -55.284386351, -28.275565888 ], [ -55.282823331, -28.277658351999904 ], [ -55.284543708999898, -28.284686608 ], [ -55.279381836, -28.298103017 ], [ -55.281671019, -28.304766879999896 ], [ -55.28491407, -28.306101435 ], [ -55.288353833, -28.303191904 ], [ -55.289982246, -28.299231203 ], [ -55.297513927999901, -28.296064405 ], [ -55.312242910999899, -28.306789753 ], [ -55.293354595, -28.310249461 ], [ -55.282449793, -28.315205263999893 ], [ -55.269538935999897, -28.312413619 ], [ -55.266121415, -28.310811461 ], [ -55.2613175769999, -28.305516666 ], [ -55.256419659, -28.305015984 ], [ -55.24310395, -28.308539182999898 ], [ -55.23176892, -28.308021187 ], [ -55.2239451149999, -28.305326256999898 ], [ -55.221053975, -28.297594897 ], [ -55.222688778, -28.295677499 ], [ -55.222302028999898, -28.293504816999899 ], [ -55.220133948, -28.292373875999896 ], [ -55.217141509, -28.297276150999892 ], [ -55.215824719, -28.302963721 ], [ -55.204735727, -28.309375716 ], [ -55.205835228, -28.312660002 ], [ -55.213042999, -28.318210634 ], [ -55.210857929, -28.325965617 ], [ -55.201228571999891, -28.338434503 ], [ -55.206457488999909, -28.339865292 ], [ -55.200177612999902, -28.349281138 ], [ -55.194932716, -28.349919034 ], [ -55.189799981, -28.345525904999903 ], [ -55.185167953, -28.352018868 ], [ -55.177913726, -28.352135836999896 ], [ -55.176678325999902, -28.353233670999902 ], [ -55.178514827, -28.35668864 ], [ -55.183489859, -28.358720655 ], [ -55.188431061, -28.367862215999899 ], [ -55.196563, -28.371682333 ], [ -55.193216574, -28.375868146 ], [ -55.195037649, -28.380319036999893 ], [ -55.196384633, -28.392059392 ], [ -55.199811032, -28.393040642999903 ], [ -55.204128751, -28.391259498 ], [ -55.208165225999892, -28.3915945809999 ], [ -55.209643139, -28.393153113 ], [ -55.209354265999892, -28.395662003 ], [ -55.201986616999896, -28.398378774 ], [ -55.192519047, -28.407168259999892 ], [ -55.180880693999896, -28.409115557999897 ], [ -55.178866037, -28.408560103999896 ], [ -55.180528061, -28.399401821 ], [ -55.179365827, -28.397475742 ], [ -55.167242286, -28.396233129999899 ], [ -55.164170912, -28.397465662999899 ], [ -55.163775144999896, -28.404766138999893 ], [ -55.161495755, -28.405372930999885 ], [ -55.157748902, -28.403925194 ], [ -55.155257893999895, -28.407321518999886 ], [ -55.160374726, -28.420216648999901 ], [ -55.163868883, -28.424167383999894 ], [ -55.16381359, -28.4276973 ], [ -55.173995411, -28.436274692 ], [ -55.178854529, -28.437463312 ], [ -55.187471035, -28.442169204 ], [ -55.187527374999902, -28.451781680999897 ], [ -55.185230565, -28.458776626 ], [ -55.190078628, -28.470266231 ], [ -55.18883566400001, -28.481739531999899 ], [ -55.190911096, -28.485488048 ], [ -55.189410522999893, -28.489201091 ], [ -55.1925273579999, -28.491261474999902 ], [ -55.191570691, -28.495385679 ], [ -55.193738838999899, -28.5052502029999 ], [ -55.193071356, -28.517465446 ], [ -55.195862089999899, -28.522866697 ], [ -55.200032365, -28.526997147999989 ], [ -55.199752390999898, -28.535023694999889 ], [ -55.205715811999902, -28.543658058999906 ], [ -55.217708909, -28.546528268 ], [ -55.234789222, -28.54636412 ], [ -55.238900252999898, -28.549323721999905 ], [ -55.231567581, -28.578971087 ], [ -55.239889074, -28.602631529999901 ], [ -55.245550212999902, -28.612324015999892 ], [ -55.24589329, -28.623542959 ], [ -55.248428872, -28.627899662999901 ], [ -55.25158918599989, -28.630155712 ], [ -55.253596656999903, -28.636340459999904 ], [ -55.261763247, -28.641357397 ], [ -55.270510045, -28.642848146999903 ], [ -55.272307704, -28.646705163 ], [ -55.277826429, -28.650018291 ], [ -55.281460888, -28.654143820999902 ], [ -55.287888592999892, -28.650415599999985 ], [ -55.29656743999989, -28.649532614999895 ], [ -55.298857009, -28.64673385 ], [ -55.301756119999894, -28.646091661999893 ], [ -55.308239479999898, -28.658315656999893 ], [ -55.313609418999903, -28.659892076999892 ], [ -55.313579537999892, -28.657495348999898 ], [ -55.322588927, -28.655450024999908 ], [ -55.324572367, -28.656499696 ], [ -55.323483304, -28.660197427 ], [ -55.330458719, -28.667443713999905 ], [ -55.338298139999893, -28.665631652999902 ], [ -55.345168831, -28.666892452 ], [ -55.347712413, -28.660910305999892 ], [ -55.346231635, -28.650785813 ], [ -55.355998326, -28.649494884 ], [ -55.35673445, -28.650657596 ], [ -55.353951060999989, -28.653364809 ], [ -55.355983336999891, -28.657710860999888 ], [ -55.363554423, -28.660784245999899 ], [ -55.365271150999902, -28.658817427 ], [ -55.366094943, -28.654025063999889 ], [ -55.367596066, -28.653822275 ], [ -55.37497374, -28.657277677 ], [ -55.375775336999894, -28.657949753 ], [ -55.373844786999896, -28.661625716999907 ], [ -55.37527690799989, -28.666003698999905 ], [ -55.379127315999909, -28.667374590999898 ], [ -55.38084481499989, -28.66938239 ], [ -55.384597721, -28.664956082999897 ], [ -55.389245768, -28.663189922 ], [ -55.389722277, -28.660690627 ], [ -55.394745196, -28.657974096 ], [ -55.395389811, -28.651185199999897 ], [ -55.400294961, -28.649041640999894 ], [ -55.40577476499989, -28.651881654 ], [ -55.412206155, -28.648990195 ], [ -55.413922682, -28.650062972999898 ], [ -55.415020875, -28.655820643 ], [ -55.416345244999903, -28.656476186 ], [ -55.42088596, -28.654554012999899 ], [ -55.420920316, -28.64959103 ], [ -55.421954655, -28.649148059 ], [ -55.427265072999901, -28.650993015 ], [ -55.43849920400001, -28.650633345 ], [ -55.438395238999895, -28.652309698999897 ], [ -55.431016002, -28.656628742 ], [ -55.434496674999892, -28.660568509 ], [ -55.435855263, -28.667998460999986 ], [ -55.439727503, -28.672996623999893 ], [ -55.446096944, -28.675253531999893 ], [ -55.447948519, -28.6693483 ], [ -55.451313665, -28.666757472 ], [ -55.455528939, -28.668098801999989 ], [ -55.461324401999903, -28.664822142999984 ], [ -55.465774526, -28.663847583999907 ], [ -55.472006356999891, -28.664675809999892 ], [ -55.481498786, -28.668698601999889 ], [ -55.485867009999893, -28.661629589 ], [ -55.490957353999896, -28.664713016999894 ], [ -55.494545232999897, -28.6724226269999 ], [ -55.493614717999897, -28.675418884999903 ], [ -55.495992849999894, -28.678892827 ], [ -55.495034188, -28.68019614 ], [ -55.48902415, -28.681021039 ], [ -55.487782405, -28.687640858 ], [ -55.489104571, -28.690537435 ], [ -55.493173699, -28.694817332 ], [ -55.500554856999898, -28.698732951999901 ], [ -55.505278908, -28.694584031 ], [ -55.508652047999895, -28.693878018 ], [ -55.512000356, -28.69714327 ], [ -55.51469603, -28.702760305 ], [ -55.514648726, -28.706084185 ], [ -55.516522649, -28.707001385999895 ], [ -55.518377649999898, -28.704763216999901 ], [ -55.522307914, -28.70342906 ], [ -55.525696679, -28.695463229 ], [ -55.526231268999901, -28.690410839999988 ], [ -55.530137219, -28.686673543 ], [ -55.531605392, -28.686374584 ], [ -55.536470347, -28.692626049 ], [ -55.536058565, -28.697995510999899 ], [ -55.549837212999897, -28.707473736999901 ], [ -55.55661687, -28.700282009 ], [ -55.561721254, -28.697009049 ], [ -55.571974676, -28.694472758 ], [ -55.570247572, -28.690588546 ], [ -55.563748739999902, -28.683384766 ], [ -55.572966599, -28.676280458 ], [ -55.574485968, -28.676411646999988 ], [ -55.57648943, -28.681127934999893 ], [ -55.585432424, -28.685869549999897 ], [ -55.59091075, -28.690783915999894 ], [ -55.593269343, -28.69002639 ], [ -55.596332065999903, -28.686443305999902 ], [ -55.606716873, -28.684387301999898 ], [ -55.616643162999893, -28.677953666999898 ], [ -55.624886579, -28.683741987999987 ], [ -55.628782338, -28.684544038999906 ], [ -55.635921158, -28.6717287459999 ], [ -55.641694098999899, -28.669185395999904 ], [ -55.658986153999898, -28.672039954 ], [ -55.662830121999903, -28.671905314999901 ], [ -55.665953138, -28.670049261999985 ], [ -55.671126909, -28.67164173 ], [ -55.675680235, -28.671527741 ], [ -55.681729885, -28.665740863999897 ], [ -55.689593316999897, -28.663304855 ], [ -55.696614446, -28.654836010999905 ], [ -55.707344476999893, -28.661635388999986 ], [ -55.717172637, -28.657837980999894 ], [ -55.719985143, -28.653148577 ], [ -55.71280495, -28.646866455 ], [ -55.699764995, -28.626140553 ], [ -55.710332889, -28.623997849 ], [ -55.717001104, -28.626143476 ], [ -55.722455598, -28.625596198 ], [ -55.725361849, -28.622448934 ], [ -55.725567562, -28.619706749999988 ], [ -55.723610688, -28.617985242 ], [ -55.724739650999894, -28.616981323999902 ], [ -55.728330591, -28.6188813549999 ], [ -55.7312685919999, -28.622614494999901 ], [ -55.733219031, -28.622748341 ], [ -55.754557191999893, -28.598602781999904 ], [ -55.7584167219999, -28.596865964999896 ], [ -55.766023097, -28.596520004999892 ], [ -55.769513729, -28.594505339 ], [ -55.772374945, -28.585208404 ], [ -55.770728807999902, -28.581354661 ], [ -55.769555477, -28.583507837999896 ], [ -55.764877273, -28.583994526 ], [ -55.760517913999891, -28.5816534759999 ], [ -55.757062512999909, -28.582144774 ], [ -55.753738829, -28.580287122 ], [ -55.750321421, -28.581528272 ], [ -55.744090271999902, -28.576620982 ], [ -55.734192203, -28.573218921 ], [ -55.729612451, -28.567644838999989 ], [ -55.730409345999902, -28.563497798 ], [ -55.72820401300001, -28.559394407999903 ], [ -55.729276386, -28.5574061249999 ], [ -55.728348524999895, -28.550471995 ], [ -55.72376663499989, -28.548385099 ], [ -55.718852692, -28.548745962999899 ], [ -55.712476469, -28.542235042 ], [ -55.7013928269999, -28.536834650999896 ], [ -55.697134671999898, -28.531412281 ], [ -55.695483369, -28.519662527 ], [ -55.687248268, -28.515157162 ], [ -55.679266143999897, -28.498327416999899 ], [ -55.662960869, -28.496030817 ], [ -55.658719436, -28.497970708 ], [ -55.646476365, -28.498196188999891 ], [ -55.635056718, -28.496177971 ], [ -55.624210945, -28.488447922 ], [ -55.611160962, -28.486987473999893 ], [ -55.603049746999901, -28.488712533 ], [ -55.590378512, -28.488447234 ], [ -55.587352398, -28.485528164999899 ], [ -55.583969291, -28.48433983 ], [ -55.577888238, -28.477060066 ], [ -55.570492101, -28.4749841789999 ], [ -55.568030972, -28.46932019 ], [ -55.554886933, -28.462122337 ], [ -55.551501892, -28.4611433769999 ], [ -55.54188525099989, -28.462426348999895 ], [ -55.528757883, -28.457761595 ], [ -55.5233813729999, -28.448182594999903 ], [ -55.522110633, -28.429454956 ], [ -55.524507726, -28.423986457 ], [ -55.524436738, -28.415184199999896 ], [ -55.517627515, -28.41237068 ], [ -55.502687215, -28.399781794999988 ], [ -55.503459597, -28.392324266999896 ], [ -55.4999836389999, -28.3661290219999 ], [ -55.50938232, -28.362061284999989 ], [ -55.519758212999903, -28.351735575 ], [ -55.520612726, -28.347848628 ], [ -55.52533342000001, -28.3433519609999 ], [ -55.511000366, -28.336345665 ], [ -55.509223178, -28.333496490999902 ], [ -55.507301390999899, -28.333690943 ], [ -55.504162733, -28.33119684 ], [ -55.504025382, -28.327019581999899 ], [ -55.497952188999903, -28.320537626 ], [ -55.497870845, -28.316262301999895 ], [ -55.494778617, -28.310034322 ], [ -55.490259476999903, -28.305280626 ], [ -55.488444079, -28.299899196 ], [ -55.488175707, -28.291822372 ], [ -55.490182309, -28.285984266 ], [ -55.487236192999902, -28.281146497 ], [ -55.487533288999892, -28.275237705999892 ], [ -55.486225065, -28.272270288999898 ], [ -55.478790056, -28.265833696999898 ], [ -55.464025544, -28.256900566 ], [ -55.460726791999903, -28.251686115 ], [ -55.448334061, -28.253163093 ], [ -55.443571634, -28.248768438 ], [ -55.429376205, -28.269948238 ], [ -55.41837529, -28.276959104 ], [ -55.414274658999894, -28.282990269 ], [ -55.413163895, -28.289580445 ], [ -55.409773592, -28.294563922 ], [ -55.400273281, -28.299818504 ], [ -55.384485567, -28.3048671449999 ] ] ] } }
]
}
