{
"type": "FeatureCollection",
"name": "bairros_aurea",
"crs": { "type": "name", "properties": { "name": "urn:ogc:def:crs:OGC:1.3:CRS84" } },
"features": [
{ "type": "Feature", "properties": { "code_muni": 4301552.0, "name_muni": "Áurea", "code_state": 43.0, "abbrev_state": "RS", "name_state": "Rio Grande do Sul", "code_region": 4.0, "name_region": "Sul", "year": 2022.0 }, "geometry": { "type": "Polygon", "coordinates": [ [ [ -52.072985262, -27.673626734 ], [ -52.070281775, -27.670475327 ], [ -52.069759389, -27.675652312999897 ], [ -52.066687439, -27.6786744 ], [ -52.062143515999907, -27.677406383999902 ], [ -52.061096846999902, -27.671473514999889 ], [ -52.066956373, -27.669551605 ], [ -52.067964095, -27.6628808839999 ], [ -52.060036726, -27.659932324999904 ], [ -52.05308998, -27.662814307 ], [ -52.054735999999892, -27.668451155 ], [ -52.047550423, -27.666515681 ], [ -52.047855152999901, -27.664706872999908 ], [ -52.056307177999891, -27.656940834999894 ], [ -52.056809722, -27.655076218 ], [ -52.053780018999895, -27.6539766349999 ], [ -52.046700073999901, -27.659551813999901 ], [ -52.041489742, -27.660715552999886 ], [ -52.037967572, -27.654652723 ], [ -52.046492757, -27.65181939 ], [ -52.048119250999903, -27.649102757 ], [ -52.046543701, -27.646685546999901 ], [ -52.037355003, -27.644090288 ], [ -52.034666350999899, -27.639287725 ], [ -52.026999192999902, -27.643312669 ], [ -52.019235769, -27.643640853 ], [ -52.015949629, -27.64838328 ], [ -52.012496297, -27.650409447 ], [ -52.0067706889999, -27.648153125 ], [ -52.008859894999894, -27.643407015 ], [ -52.006445878, -27.639393615 ], [ -52.01227385100001, -27.637349942 ], [ -52.010653162, -27.634870157 ], [ -52.002446982, -27.634965012999899 ], [ -52.001873217, -27.640535488 ], [ -51.987131485, -27.639090852 ], [ -51.988853199999895, -27.647618848 ], [ -51.990693657999891, -27.648980648 ], [ -51.990795712, -27.669263832 ], [ -51.9959431629999, -27.669312598 ], [ -51.996364663999898, -27.685219307999901 ], [ -51.997176466, -27.686298356999899 ], [ -52.001355739, -27.685685409 ], [ -52.000931998999896, -27.694096961 ], [ -52.006900048, -27.694954010999901 ], [ -52.004702884, -27.699836692 ], [ -52.008658737, -27.699997381999903 ], [ -52.008920062, -27.703129448 ], [ -52.011672308, -27.70545857 ], [ -52.014510726, -27.705713117999903 ], [ -52.014186332, -27.7081314509999 ], [ -52.01667551, -27.709954261999904 ], [ -52.017209491, -27.712102286999901 ], [ -52.016767828, -27.718035681999893 ], [ -52.0216904339999, -27.720565350999898 ], [ -52.026681638999889, -27.731871473999895 ], [ -52.03109152, -27.7336133169999 ], [ -52.033013579999903, -27.736420854999899 ], [ -52.03612531999989, -27.735512808999893 ], [ -52.039365795, -27.736676051 ], [ -52.039667885, -27.740248876 ], [ -52.041963452999894, -27.740274023 ], [ -52.043783404, -27.741917233 ], [ -52.043756762, -27.747631036 ], [ -52.045460498999901, -27.750940980999896 ], [ -52.061003667, -27.765694552999896 ], [ -52.05791786, -27.769736366 ], [ -52.070576358, -27.764497725 ], [ -52.0712909, -27.768722744999884 ], [ -52.074711443999895, -27.768434514 ], [ -52.0762010669999, -27.772191472 ], [ -52.075282307999892, -27.774053696 ], [ -52.078135612, -27.779288302999898 ], [ -52.074977612999895, -27.786943317 ], [ -52.072680428, -27.7888844239999 ], [ -52.075492967999892, -27.790309849 ], [ -52.072287198, -27.794941397999896 ], [ -52.073090285, -27.80051264 ], [ -52.084738075, -27.800642669999899 ], [ -52.084580906, -27.799520384999902 ], [ -52.087686108999897, -27.798313976 ], [ -52.092024317, -27.793510652999895 ], [ -52.093270324999899, -27.78789405 ], [ -52.09660001799989, -27.785104813 ], [ -52.096976025999901, -27.77388253 ], [ -52.100733581999989, -27.776801983999988 ], [ -52.107242165999892, -27.7720579809999 ], [ -52.108117299, -27.7728835519999 ], [ -52.116464381, -27.764825586 ], [ -52.114240768999899, -27.762685679 ], [ -52.148988680999892, -27.733994249 ], [ -52.14806909, -27.73331576499989 ], [ -52.155576569999894, -27.727193637 ], [ -52.149754336999898, -27.721973464 ], [ -52.152246928, -27.721813255 ], [ -52.152385081, -27.702126124 ], [ -52.154990798, -27.702087349 ], [ -52.155111255, -27.669031074 ], [ -52.151283399, -27.666940789 ], [ -52.153277647, -27.661651886999898 ], [ -52.149845219, -27.661035951 ], [ -52.144620297999893, -27.668517869999988 ], [ -52.142016032999891, -27.670225183999904 ], [ -52.143178969, -27.660787333 ], [ -52.141928134999901, -27.659467407 ], [ -52.138119623, -27.6639609919999 ], [ -52.135287505, -27.664710202 ], [ -52.13004011, -27.669108265 ], [ -52.130113593, -27.6722759479999 ], [ -52.123936328999903, -27.670914234 ], [ -52.119288168, -27.671426059999899 ], [ -52.119674465999893, -27.667572317 ], [ -52.110247194, -27.672184894999905 ], [ -52.10437124, -27.666694353 ], [ -52.094598575, -27.668644716999907 ], [ -52.0940758529999, -27.671270977999907 ], [ -52.096745364999897, -27.674378056999988 ], [ -52.094681954, -27.6759342 ], [ -52.085420768999896, -27.670284100999901 ], [ -52.0845815, -27.675287609999891 ], [ -52.082907345, -27.676779533999898 ], [ -52.0790541269999, -27.675932196 ], [ -52.078004694, -27.671406771 ], [ -52.072985262, -27.673626734 ] ] ] } }
]
}
