{
"type": "FeatureCollection",
"name": "bairros_porto_vera_cruz",
"crs": { "type": "name", "properties": { "name": "urn:ogc:def:crs:OGC:1.3:CRS84" } },
"features": [
{ "type": "Feature", "properties": { "code_muni": 4315073.0, "name_muni": "Porto Vera Cruz", "code_state": 43.0, "abbrev_state": "RS", "name_state": "Rio Grande do Sul", "code_region": 4.0, "name_region": "Sul", "year": 2022.0 }, "geometry": { "type": "Polygon", "coordinates": [ [ [ -54.906638611999895, -27.729786940999901 ], [ -54.902486734999989, -27.715568627 ], [ -54.902859798999899, -27.698854871 ], [ -54.896405329999901, -27.700385949999898 ], [ -54.894397163999898, -27.70410995 ], [ -54.893033838, -27.703800751999896 ], [ -54.890162023, -27.702214184 ], [ -54.89109470599989, -27.698942186 ], [ -54.88001545, -27.692785860999908 ], [ -54.875417137999897, -27.692309835999904 ], [ -54.872767859, -27.695636135 ], [ -54.869256389, -27.69481954 ], [ -54.870398071999894, -27.693354408999905 ], [ -54.869094113, -27.693384696 ], [ -54.866964466999896, -27.690418477 ], [ -54.86470851099989, -27.691058864999903 ], [ -54.8621029829999, -27.689491062999895 ], [ -54.858284317, -27.69241605 ], [ -54.849158901999893, -27.692537261 ], [ -54.8457595, -27.694368176999902 ], [ -54.838436004999892, -27.692167646 ], [ -54.835985545, -27.692955774 ], [ -54.829433787, -27.700871386 ], [ -54.82498103599989, -27.701304164 ], [ -54.819260917, -27.7045479569999 ], [ -54.824818934999897, -27.719552376 ], [ -54.8292883989999, -27.71772379 ], [ -54.829903139, -27.715722867999904 ], [ -54.830084067, -27.716542562 ], [ -54.833102631, -27.714915768 ], [ -54.830976601, -27.719021348999899 ], [ -54.836050718, -27.726307778 ], [ -54.829808974999899, -27.727359969 ], [ -54.827154433, -27.730643223 ], [ -54.828919301, -27.734573376 ], [ -54.825598469999903, -27.735385349 ], [ -54.825091932, -27.739066452 ], [ -54.822375099999903, -27.739651043 ], [ -54.832287780999891, -27.742457545 ], [ -54.833775611, -27.756874803999899 ], [ -54.832110498, -27.756320939 ], [ -54.832639946, -27.760087486 ], [ -54.829750958, -27.761577267999897 ], [ -54.831730033, -27.767903815999897 ], [ -54.828312282999896, -27.769357084 ], [ -54.829869935, -27.780817054 ], [ -54.831351847, -27.779926743 ], [ -54.837029144, -27.78767018 ], [ -54.837761368, -27.785115785999899 ], [ -54.849456448, -27.779202401 ], [ -54.851611152, -27.776425748 ], [ -54.852853379, -27.782770559 ], [ -54.877683287, -27.785281132 ], [ -54.876009454, -27.789826494 ], [ -54.890922329, -27.792804718999896 ], [ -54.892537925999903, -27.798175318999903 ], [ -54.896744199, -27.796499934999897 ], [ -54.906420355, -27.799202412999904 ], [ -54.909538783, -27.802067995999899 ], [ -54.910082282, -27.806098340999895 ], [ -54.915740376, -27.80952708 ], [ -54.915586593999898, -27.810622924 ], [ -54.919603058, -27.813638977 ], [ -54.918767192, -27.815993299999896 ], [ -54.921181734, -27.817563363 ], [ -54.923660283999894, -27.816849820999895 ], [ -54.925878181, -27.817746769999893 ], [ -54.925285704, -27.815168518999904 ], [ -54.931419446999897, -27.812841056 ], [ -54.928116286, -27.808066122 ], [ -54.928174700999897, -27.805856406 ], [ -54.939406522, -27.8061392299999 ], [ -54.948385934, -27.812552033 ], [ -54.955128722, -27.820616190999896 ], [ -54.956950930999895, -27.82074619 ], [ -54.956841147, -27.818357367 ], [ -54.959398697, -27.816198648999904 ], [ -54.957278204, -27.814761100999895 ], [ -54.956906894, -27.80880925 ], [ -54.955448385999901, -27.807941282999892 ], [ -54.953435954, -27.809800197999891 ], [ -54.949147020999895, -27.809922961 ], [ -54.947770288999891, -27.800264889999898 ], [ -54.953106808, -27.793673946 ], [ -54.962754759999903, -27.789854356 ], [ -54.970095248, -27.798471176 ], [ -54.981386352, -27.787357144999898 ], [ -54.984157484, -27.790417439 ], [ -54.980011874999903, -27.794446052 ], [ -54.982272618, -27.800128947999987 ], [ -54.981554235, -27.804909583 ], [ -54.987714728, -27.805039683 ], [ -54.989891756, -27.800403566999901 ], [ -54.999316048, -27.790508983999889 ], [ -54.993042446999894, -27.775548673999893 ], [ -54.988766234, -27.772243665 ], [ -54.983647498, -27.770749687 ], [ -54.977662156, -27.7708600469999 ], [ -54.960949366, -27.778479959 ], [ -54.949424177, -27.779284550999904 ], [ -54.937407401, -27.770452224999897 ], [ -54.929344747999892, -27.756371374 ], [ -54.915371911, -27.738054768 ], [ -54.906638611999895, -27.729786940999901 ] ] ] } }
]
}
