{
"type": "FeatureCollection",
"name": "bairros_harmonia",
"crs": { "type": "name", "properties": { "name": "urn:ogc:def:crs:OGC:1.3:CRS84" } },
"features": [
{ "type": "Feature", "properties": { "code_muni": 4309555.0, "name_muni": "Harmonia", "code_state": 43.0, "abbrev_state": "RS", "name_state": "Rio Grande do Sul", "code_region": 4.0, "name_region": "Sul", "year": 2022.0 }, "geometry": { "type": "Polygon", "coordinates": [ [ [ -51.4224690732798, -29.572917512159599 ], [ -51.442171937437998, -29.571190104874798 ], [ -51.440446931330889, -29.568299086844604 ], [ -51.441981283923496, -29.563452229484703 ], [ -51.444686665223792, -29.562848434319601 ], [ -51.4467970860508, -29.566436413212102 ], [ -51.452253042170298, -29.565744233701704 ], [ -51.454064490676892, -29.563437182104195 ], [ -51.460360378779299, -29.565800581339808 ], [ -51.461999902957693, -29.568972377090194 ], [ -51.465155098, -29.559219162 ], [ -51.470240245, -29.557279999999899 ], [ -51.469457067, -29.549336502999903 ], [ -51.457723836, -29.510166043 ], [ -51.46229657, -29.506396665 ], [ -51.453401162, -29.5017078559999 ], [ -51.451051697, -29.502007856 ], [ -51.445504619, -29.508408942 ], [ -51.4410723189999, -29.510781885 ], [ -51.435836682999891, -29.519437199 ], [ -51.432393385999909, -29.517086022999894 ], [ -51.429534014, -29.518287644999901 ], [ -51.419777456, -29.515367888999908 ], [ -51.417032166999903, -29.518799357 ], [ -51.414195617, -29.51855584 ], [ -51.414288346, -29.516939782999899 ], [ -51.4088092269999, -29.5160827569999 ], [ -51.407431128, -29.517610534 ], [ -51.404837520999891, -29.517223874 ], [ -51.405745755999902, -29.519284934 ], [ -51.403501677999891, -29.520053215 ], [ -51.401786692, -29.523355002999892 ], [ -51.400709733, -29.522326329 ], [ -51.399940957, -29.52535017 ], [ -51.399442342, -29.524248234 ], [ -51.395319603, -29.525751643 ], [ -51.395599392999891, -29.528809247 ], [ -51.392782558, -29.528483548999901 ], [ -51.392570587, -29.526802135 ], [ -51.387860004999901, -29.527593699 ], [ -51.376244635, -29.552429033999893 ], [ -51.379309404, -29.552915108 ], [ -51.384557974, -29.55031048 ], [ -51.388113902, -29.551579478999905 ], [ -51.396728568, -29.551845234 ], [ -51.4029276099999, -29.549492438 ], [ -51.410175349, -29.551113814 ], [ -51.41071507, -29.552492303 ], [ -51.408825731, -29.555633327 ], [ -51.405145416, -29.553661752 ], [ -51.400087722, -29.557721026 ], [ -51.395680171, -29.556141746 ], [ -51.394364896999896, -29.556727794 ], [ -51.394812966, -29.560302186999895 ], [ -51.391275918, -29.562472602999897 ], [ -51.390807365999898, -29.564796500999901 ], [ -51.395694058999894, -29.569724449 ], [ -51.392251291, -29.573296237 ], [ -51.387662383, -29.575549946 ], [ -51.386523172999894, -29.580418053999892 ], [ -51.386647583014593, -29.583641172062396 ], [ -51.388517620258703, -29.5835230341163 ], [ -51.396339696948999, -29.580368847003005 ], [ -51.413868067, -29.576065234999891 ], [ -51.414445187999895, -29.580180309999903 ], [ -51.411433291, -29.582012701999901 ], [ -51.409353768, -29.587323155 ], [ -51.406060612, -29.588623959 ], [ -51.406743247999898, -29.590710629999901 ], [ -51.420725113999893, -29.587697443 ], [ -51.42403932, -29.588302758999905 ], [ -51.428909032047997, -29.579826180827595 ], [ -51.422825408060291, -29.5760765016284 ], [ -51.4224690732798, -29.572917512159599 ] ] ] } }
]
}
