{
"type": "FeatureCollection",
"name": "bairros_vespasiano_correa",
"crs": { "type": "name", "properties": { "name": "urn:ogc:def:crs:OGC:1.3:CRS84" } },
"features": [
{ "type": "Feature", "properties": { "code_muni": 4322855.0, "name_muni": "Vespasiano Corrêa", "code_state": 43.0, "abbrev_state": "RS", "name_state": "Rio Grande do Sul", "code_region": 4.0, "name_region": "Sul", "year": 2022.0 }, "geometry": { "type": "Polygon", "coordinates": [ [ [ -51.808399414999897, -29.081724145999896 ], [ -51.779634293999891, -29.094241048 ], [ -51.788330126999902, -29.102027928 ], [ -51.791688286, -29.102780373 ], [ -51.795494996999892, -29.109725107 ], [ -51.795488612, -29.112722805 ], [ -51.800780168, -29.115836315 ], [ -51.829231563999898, -29.115297719 ], [ -51.829329758, -29.112579248 ], [ -51.832290739, -29.107701964999904 ], [ -51.831062414, -29.1061552359999 ], [ -51.830750398, -29.096831983999891 ], [ -51.860465322, -29.097127703999906 ], [ -51.862605158999898, -29.1017145349999 ], [ -51.859943213999898, -29.108009672 ], [ -51.86239243099989, -29.1124517279999 ], [ -51.862680123, -29.116229807000011 ], [ -51.893673409, -29.116442234 ], [ -51.893808906999894, -29.106715597999905 ], [ -51.907717474, -29.107477097999901 ], [ -51.908010873, -29.10336683299991 ], [ -51.911852102999894, -29.099560574999899 ], [ -51.924571710999892, -29.097687268 ], [ -51.928156233, -29.095666552 ], [ -51.925918982, -29.07594426 ], [ -51.926343378, -29.068387925 ], [ -51.917737201, -29.062254348 ], [ -51.916665966, -29.059956805999906 ], [ -51.917841782, -29.049486715999901 ], [ -51.913269268, -29.041665126999899 ], [ -51.917466126, -29.034091713 ], [ -51.918325040999896, -29.0228589019999 ], [ -51.878777145, -29.019216562999894 ], [ -51.879196191999903, -29.017047783999907 ], [ -51.86880566, -29.017403866999892 ], [ -51.868641509, -29.0202476609999 ], [ -51.852304957999891, -29.016847261 ], [ -51.849995897, -29.018739506 ], [ -51.851604062, -29.025808106999893 ], [ -51.814099102999897, -29.014511614 ], [ -51.805329037, -29.045702714 ], [ -51.809037283, -29.064301316 ], [ -51.803597079, -29.065448026 ], [ -51.808399414999897, -29.081724145999896 ] ] ] } }
]
}
