{
"type": "FeatureCollection",
"name": "bairros_getulio_vargas",
"crs": { "type": "name", "properties": { "name": "urn:ogc:def:crs:OGC:1.3:CRS84" } },
"features": [
{ "type": "Feature", "properties": { "name": "Santo Antônio", "code_muni": 4308904.0, "name_muni": "Getúlio Vargas" }, "geometry": { "type": "Polygon", "coordinates": [ [ [ -52.2463319, -27.9030725 ], [ -52.2449095, -27.9043577 ], [ -52.2420514, -27.9068483 ], [ -52.2401194, -27.90506 ], [ -52.2400005, -27.90495 ], [ -52.233, -27.911 ], [ -52.234052471403707, -27.911549186901478 ], [ -52.239166917, -27.907199810999902 ], [ -52.240892623, -27.909000487 ], [ -52.246932927617586, -27.903636974184412 ], [ -52.2463319, -27.9030725 ] ] ] } },
{ "type": "Feature", "properties": { "name": "Florestinha", "code_muni": 4308904.0, "name_muni": "Getúlio Vargas" }, "geometry": { "type": "Polygon", "coordinates": [ [ [ -52.2595185, -27.8917941 ], [ -52.255768, -27.8955208 ], [ -52.249502, -27.9001846 ], [ -52.2463319, -27.9030725 ], [ -52.246932927617586, -27.903636974184412 ], [ -52.259805827429112, -27.892203832388404 ], [ -52.2595185, -27.8917941 ] ] ] } },
{ "type": "Feature", "properties": { "name": "Centro", "code_muni": 4308904.0, "name_muni": "Getúlio Vargas" }, "geometry": { "type": "Polygon", "coordinates": [ [ [ -52.2232263, -27.881204 ], [ -52.2229568, -27.8815809 ], [ -52.2227668, -27.8818347 ], [ -52.2225614, -27.8820749 ], [ -52.2223096, -27.8823267 ], [ -52.2220754, -27.8826177 ], [ -52.221596, -27.8828051 ], [ -52.2212117, -27.8828539 ], [ -52.2208317, -27.882893 ], [ -52.2205931, -27.8830824 ], [ -52.2205202, -27.8833206 ], [ -52.2205512, -27.8835705 ], [ -52.2205998, -27.8841329 ], [ -52.2203811, -27.884201199999989 ], [ -52.2198708, -27.884129 ], [ -52.2194533, -27.8839943 ], [ -52.2189916, -27.884062600000011 ], [ -52.2186271, -27.8842832 ], [ -52.2184614, -27.8844961 ], [ -52.2181875, -27.8847499 ], [ -52.2179423, -27.8851834 ], [ -52.2176816, -27.8856207 ], [ -52.2173834, -27.886179199999987 ], [ -52.2202211, -27.8889248 ], [ -52.2134264, -27.895768799999988 ], [ -52.2134662, -27.8960584 ], [ -52.2135539, -27.8966976 ], [ -52.213667, -27.8975199 ], [ -52.2140318, -27.8975412 ], [ -52.2141391, -27.8974772 ], [ -52.2141981, -27.8973824 ], [ -52.2142102, -27.8972746 ], [ -52.214005, -27.8967957 ], [ -52.2139956, -27.8967163 ], [ -52.214009, -27.8966227 ], [ -52.2140734, -27.8964875 ], [ -52.2142249, -27.8962659 ], [ -52.2143711, -27.8961735 ], [ -52.2144972, -27.896053699999989 ], [ -52.2146018, -27.8959471 ], [ -52.2149867, -27.8956045 ], [ -52.215452, -27.8952952 ], [ -52.216014, -27.895 ], [ -52.2164995, -27.8948104 ], [ -52.2169527, -27.8946599 ], [ -52.2169804, -27.8946506 ], [ -52.2186278, -27.894322 ], [ -52.2186916, -27.8943128 ], [ -52.2190127, -27.8942486 ], [ -52.2192553, -27.8941857 ], [ -52.2194794, -27.8941277 ], [ -52.2203551, -27.8939463 ], [ -52.2209103, -27.8938112 ], [ -52.2213355, -27.8936346 ], [ -52.2216801, -27.8934663 ], [ -52.2220529, -27.893215 ], [ -52.22234, -27.8929673 ], [ -52.2229006, -27.8924564 ], [ -52.222995, -27.8923646 ], [ -52.2230828, -27.8922748 ], [ -52.2231807, -27.8921541 ], [ -52.2232231, -27.8920688 ], [ -52.2233773, -27.891662 ], [ -52.2235036, -27.891278 ], [ -52.2235926, -27.8909442 ], [ -52.223634, -27.8908039 ], [ -52.2237481, -27.8904153 ], [ -52.2238472, -27.890329 ], [ -52.2247568, -27.8910976 ], [ -52.225502, -27.8917722 ], [ -52.2256018, -27.8918629 ], [ -52.2264607, -27.8926453 ], [ -52.2274576, -27.8935411 ], [ -52.2282292, -27.892888899999988 ], [ -52.2294566, -27.8918255 ], [ -52.2303878, -27.8910469 ], [ -52.2294103, -27.8902025 ], [ -52.2294253, -27.8901077 ], [ -52.2295582, -27.8899931 ], [ -52.2298314, -27.8897574 ], [ -52.2302149, -27.8894386 ], [ -52.2302994, -27.8893722 ], [ -52.2311464, -27.8886418 ], [ -52.2320154, -27.8878774 ], [ -52.23117220000001, -27.8870923 ], [ -52.2302841, -27.8863341 ], [ -52.2312035, -27.8855844 ], [ -52.2320821, -27.8848241 ], [ -52.232924, -27.884085 ], [ -52.2328234, -27.883975 ], [ -52.2319668, -27.8831832 ], [ -52.2317227, -27.8829351 ], [ -52.2311215, -27.8823996 ], [ -52.2302397, -27.8816096 ], [ -52.230099, -27.881464 ], [ -52.2298976, -27.881647199999989 ], [ -52.2291488, -27.8822584 ], [ -52.2284662, -27.8824634 ], [ -52.2281525, -27.8826353 ], [ -52.2279183, -27.8827056 ], [ -52.2275936, -27.8827466 ], [ -52.2273749, -27.8827016 ], [ -52.226922, -27.8822799 ], [ -52.2265642, -27.8819616 ], [ -52.2262461, -27.8817 ], [ -52.2257866, -27.88137 ], [ -52.2252321, -27.8811923 ], [ -52.2244634, -27.8810205 ], [ -52.2238758, -27.8809502 ], [ -52.2236129, -27.8809502 ], [ -52.2234671, -27.8809853 ], [ -52.2232263, -27.881204 ] ] ] } },
{ "type": "Feature", "properties": { "name": "Champagnat", "code_muni": 4308904.0, "name_muni": "Getúlio Vargas" }, "geometry": { "type": "Polygon", "coordinates": [ [ [ -52.23, -27.913 ], [ -52.233, -27.911 ], [ -52.2400005, -27.90495 ], [ -52.2401194, -27.90506 ], [ -52.2420514, -27.9068483 ], [ -52.2449095, -27.9043577 ], [ -52.242574, -27.9022629 ], [ -52.2416049, -27.9012771 ], [ -52.2399114, -27.8997817 ], [ -52.2394316, -27.8993792 ], [ -52.239029, -27.8990093 ], [ -52.238571, -27.8985573 ], [ -52.2369797, -27.897051 ], [ -52.2364456, -27.8966082 ], [ -52.2360368, -27.8962443 ], [ -52.2358847, -27.8961156 ], [ -52.2354003, -27.8956315 ], [ -52.2348877, -27.895178 ], [ -52.2343571, -27.8946992 ], [ -52.2336, -27.8940571 ], [ -52.2320683, -27.8926012 ], [ -52.2312351, -27.8918181 ], [ -52.2303878, -27.8910469 ], [ -52.2294566, -27.8918255 ], [ -52.2282292, -27.892888899999988 ], [ -52.2274576, -27.8935411 ], [ -52.22837590000001, -27.8942981 ], [ -52.2292574, -27.8950853 ], [ -52.2308095, -27.8964713 ], [ -52.2318913, -27.8974515 ], [ -52.2314037, -27.8978754 ], [ -52.2308513, -27.8983643 ], [ -52.230375, -27.8987762 ], [ -52.2304121, -27.8988177 ], [ -52.2304496, -27.8988556 ], [ -52.2310625, -27.8994815 ], [ -52.2315024, -27.8999129 ], [ -52.2320554, -27.9004558 ], [ -52.2320831, -27.9005541 ], [ -52.2250772, -27.9069636 ], [ -52.23, -27.913 ] ] ] } },
{ "type": "Feature", "properties": { "name": "São Pelegrino", "code_muni": 4308904.0, "name_muni": "Getúlio Vargas" }, "geometry": { "type": "Polygon", "coordinates": [ [ [ -52.2303878, -27.8910469 ], [ -52.2312351, -27.8918181 ], [ -52.2320683, -27.8926012 ], [ -52.2336, -27.8940571 ], [ -52.2345209, -27.8932654 ], [ -52.2354019, -27.8925057 ], [ -52.2362468, -27.8917397 ], [ -52.2371395, -27.8910019 ], [ -52.2355536, -27.8895687 ], [ -52.2363838, -27.8888276 ], [ -52.237293, -27.888067 ], [ -52.237669, -27.8877346 ], [ -52.2381819, -27.8873419 ], [ -52.2373208, -27.8865844 ], [ -52.2365093, -27.8858034 ], [ -52.2355155, -27.8848798 ], [ -52.2346656, -27.8856218 ], [ -52.2337688, -27.8848608 ], [ -52.232924, -27.884085 ], [ -52.2320821, -27.8848241 ], [ -52.2312035, -27.8855844 ], [ -52.2302841, -27.8863341 ], [ -52.23117220000001, -27.8870923 ], [ -52.2320154, -27.8878774 ], [ -52.2311464, -27.8886418 ], [ -52.2302994, -27.8893722 ], [ -52.2302149, -27.8894386 ], [ -52.2298314, -27.8897574 ], [ -52.2295582, -27.8899931 ], [ -52.2294253, -27.8901077 ], [ -52.2294103, -27.8902025 ], [ -52.2303878, -27.8910469 ] ] ] } },
{ "type": "Feature", "properties": { "name": "Nossa Senhora dos Navegantes", "code_muni": 4308904.0, "name_muni": "Getúlio Vargas" }, "geometry": { "type": "Polygon", "coordinates": [ [ [ -52.2403201, -27.8882343 ], [ -52.2406203, -27.8879767 ], [ -52.2411794, -27.8874196 ], [ -52.2401994, -27.8864704 ], [ -52.2397388, -27.8860367 ], [ -52.2388656, -27.885280099999989 ], [ -52.2379786, -27.8845288 ], [ -52.2385794, -27.883974 ], [ -52.2365463, -27.8819636 ], [ -52.2364336, -27.8819731 ], [ -52.2364551, -27.8820726 ], [ -52.2365141, -27.8821532 ], [ -52.2365946, -27.8822149 ], [ -52.2366428, -27.8823002 ], [ -52.2365195, -27.8824662 ], [ -52.2363102, -27.8826369 ], [ -52.2361976, -27.8826559 ], [ -52.2359401, -27.8826511 ], [ -52.2358543, -27.8825847 ], [ -52.235865, -27.8823998 ], [ -52.2358918, -27.882305 ], [ -52.2358167, -27.8822338 ], [ -52.2355807, -27.8822433 ], [ -52.2350764, -27.8824235 ], [ -52.2349584, -27.882433 ], [ -52.23481360000001, -27.8823951 ], [ -52.2347998, -27.8823046 ], [ -52.2347155, -27.8819675 ], [ -52.2347509, -27.8815594 ], [ -52.2346669, -27.8811591 ], [ -52.2341942, -27.8805928 ], [ -52.2336817, -27.880134 ], [ -52.2333459, -27.8799895 ], [ -52.2328003, -27.8801984 ], [ -52.2322348, -27.8804327 ], [ -52.2319189, -27.880704099999988 ], [ -52.2315434, -27.8809541 ], [ -52.2313004, -27.8810185 ], [ -52.2310441, -27.8810205 ], [ -52.230472, -27.881245 ], [ -52.23019810000001, -27.8813739 ], [ -52.230099, -27.881464 ], [ -52.2302397, -27.8816096 ], [ -52.2311215, -27.8823996 ], [ -52.2317227, -27.8829351 ], [ -52.2319668, -27.8831832 ], [ -52.2328234, -27.883975 ], [ -52.232924, -27.884085 ], [ -52.2337688, -27.8848608 ], [ -52.2346656, -27.8856218 ], [ -52.2355155, -27.8848798 ], [ -52.2365093, -27.8858034 ], [ -52.2373208, -27.8865844 ], [ -52.2381819, -27.8873419 ], [ -52.2396217, -27.8886556 ], [ -52.2397207, -27.8887483 ], [ -52.2403201, -27.8882343 ] ] ] } },
{ "type": "Feature", "properties": { "name": "Monte Claro", "code_muni": 4308904.0, "name_muni": "Getúlio Vargas" }, "geometry": { "type": "Polygon", "coordinates": [ [ [ -52.2413099, -27.8932055 ], [ -52.2430265, -27.891650399999989 ], [ -52.2419323, -27.8907762 ], [ -52.2415679, -27.8904216 ], [ -52.2408582, -27.8897636 ], [ -52.2404779, -27.8894119 ], [ -52.2401292, -27.8890939 ], [ -52.2397207, -27.8887483 ], [ -52.2396217, -27.8886556 ], [ -52.2381819, -27.8873419 ], [ -52.237669, -27.8877346 ], [ -52.237293, -27.888067 ], [ -52.2363838, -27.8888276 ], [ -52.2355536, -27.8895687 ], [ -52.2371395, -27.8910019 ], [ -52.2378176, -27.8916633 ], [ -52.2383753, -27.8921649 ], [ -52.2393815, -27.8930639 ], [ -52.2402075, -27.8922691 ], [ -52.2413099, -27.8932055 ] ] ] } },
{ "type": "Feature", "properties": { "name": "Nossa Senhora Consoladora", "code_muni": 4308904.0, "name_muni": "Getúlio Vargas" }, "geometry": { "type": "Polygon", "coordinates": [ [ [ -52.2253346, -27.8700945 ], [ -52.2251979, -27.8706754 ], [ -52.2250356, -27.8713275 ], [ -52.2249722, -27.8714631 ], [ -52.2246976, -27.8720506 ], [ -52.2242282, -27.8727311 ], [ -52.2235966, -27.8733867 ], [ -52.2236609, -27.8734401 ], [ -52.2239023, -27.8736369 ], [ -52.2239184, -27.8736843 ], [ -52.2238997, -27.8737317 ], [ -52.2238192, -27.8737957 ], [ -52.2232586, -27.8742249 ], [ -52.22269, -27.8748176 ], [ -52.2224057, -27.8751591 ], [ -52.2222126, -27.8752444 ], [ -52.2221482, -27.8753155 ], [ -52.2223789, -27.8753203 ], [ -52.2224808, -27.8753582 ], [ -52.2224969, -27.8754483 ], [ -52.2223413, -27.8757992 ], [ -52.2223467, -27.8760079 ], [ -52.2224271, -27.8761881 ], [ -52.2227436, -27.8764773 ], [ -52.2230494, -27.8766243 ], [ -52.2232693, -27.8766907 ], [ -52.223382, -27.8766954 ], [ -52.2235966, -27.8767998 ], [ -52.2237521, -27.877108 ], [ -52.2237575, -27.8773024 ], [ -52.2236127, -27.8779188 ], [ -52.223559, -27.8781133 ], [ -52.2233445, -27.8784499 ], [ -52.2233015, -27.8787724 ], [ -52.223221100000011, -27.878834 ], [ -52.2230011, -27.878872 ], [ -52.2229314, -27.8789526 ], [ -52.2228348, -27.8789952 ], [ -52.2228241, -27.8790901 ], [ -52.2228134, -27.8797539 ], [ -52.2230145, -27.8801048 ], [ -52.2231165, -27.8802305 ], [ -52.2232425, -27.8804533 ], [ -52.2233149, -27.8805292 ], [ -52.2234356, -27.8807971 ], [ -52.2234671, -27.8809853 ], [ -52.2236129, -27.8809502 ], [ -52.2238758, -27.8809502 ], [ -52.2244634, -27.8810205 ], [ -52.2252321, -27.8811923 ], [ -52.2257866, -27.88137 ], [ -52.2262461, -27.8817 ], [ -52.2265642, -27.8819616 ], [ -52.226922, -27.8822799 ], [ -52.2273749, -27.8827016 ], [ -52.2275936, -27.8827466 ], [ -52.2279183, -27.8827056 ], [ -52.2281525, -27.8826353 ], [ -52.2284662, -27.8824634 ], [ -52.2291488, -27.8822584 ], [ -52.2298976, -27.881647199999989 ], [ -52.230099, -27.881464 ], [ -52.23019810000001, -27.8813739 ], [ -52.230472, -27.881245 ], [ -52.2310441, -27.8810205 ], [ -52.2313004, -27.8810185 ], [ -52.2315434, -27.8809541 ], [ -52.2319189, -27.880704099999988 ], [ -52.2322348, -27.8804327 ], [ -52.2328003, -27.8801984 ], [ -52.2333459, -27.8799895 ], [ -52.2336817, -27.880134 ], [ -52.2341942, -27.8805928 ], [ -52.2346669, -27.8811591 ], [ -52.2347509, -27.8815594 ], [ -52.2347155, -27.8819675 ], [ -52.2347998, -27.8823046 ], [ -52.23481360000001, -27.8823951 ], [ -52.2349584, -27.882433 ], [ -52.2350764, -27.8824235 ], [ -52.2355807, -27.8822433 ], [ -52.2358167, -27.8822338 ], [ -52.2358918, -27.882305 ], [ -52.235865, -27.8823998 ], [ -52.2358543, -27.8825847 ], [ -52.2359401, -27.8826511 ], [ -52.2361976, -27.8826559 ], [ -52.2363102, -27.8826369 ], [ -52.2365195, -27.8824662 ], [ -52.2366428, -27.8823002 ], [ -52.2365946, -27.8822149 ], [ -52.2365141, -27.8821532 ], [ -52.2364551, -27.8820726 ], [ -52.2364336, -27.8819731 ], [ -52.2365463, -27.8819636 ], [ -52.2368681, -27.8818024 ], [ -52.2368735, -27.8815084 ], [ -52.2369379, -27.881423 ], [ -52.2373778, -27.8812808 ], [ -52.2374797, -27.8812239 ], [ -52.2377104, -27.8811765 ], [ -52.2381771, -27.8811148 ], [ -52.2387564, -27.8811053 ], [ -52.23886370000001, -27.8810864 ], [ -52.2391534, -27.8809726 ], [ -52.23925, -27.8809157 ], [ -52.2394753, -27.8808588 ], [ -52.2397918, -27.8807402 ], [ -52.2400332, -27.8805268 ], [ -52.2401458, -27.880346599999985 ], [ -52.2402853, -27.8800527 ], [ -52.2405213, -27.8797966 ], [ -52.2406501, -27.8795121 ], [ -52.2408271, -27.8792845 ], [ -52.2410578, -27.879275 ], [ -52.2412938, -27.8792276 ], [ -52.2414869, -27.8791185 ], [ -52.2414762, -27.8790237 ], [ -52.2412992, -27.8788957 ], [ -52.2412992, -27.8787961 ], [ -52.2413313, -27.8787012 ], [ -52.2414976, -27.8785685 ], [ -52.2418946, -27.8783504 ], [ -52.2419697, -27.8782745 ], [ -52.2420394, -27.8780943 ], [ -52.242077, -27.8777956 ], [ -52.2419751, -27.8777671 ], [ -52.2418624, -27.8777813 ], [ -52.2416693, -27.8778762 ], [ -52.2415513, -27.8780326 ], [ -52.2413904, -27.8781512 ], [ -52.2412884, -27.8781227 ], [ -52.2412241, -27.8780469 ], [ -52.2412187, -27.8778572 ], [ -52.2412992, -27.8775679 ], [ -52.2413957, -27.8775016 ], [ -52.2416318, -27.8774731 ], [ -52.2418517, -27.8773878 ], [ -52.2420555, -27.8772929 ], [ -52.2421521, -27.8772265 ], [ -52.242195, -27.8771317 ], [ -52.2421628, -27.8770369 ], [ -52.2419643, -27.8769562 ], [ -52.2418839, -27.8768899 ], [ -52.2418839, -27.8767855 ], [ -52.2419161, -27.8766907 ], [ -52.2420609, -27.8765816 ], [ -52.2426349, -27.8766101 ], [ -52.2427261, -27.8765579 ], [ -52.2426778, -27.876373 ], [ -52.2424901, -27.8760268 ], [ -52.2425276, -27.8758798 ], [ -52.2426295, -27.8758324 ], [ -52.2427368, -27.8758229 ], [ -52.2429621, -27.8758466 ], [ -52.2430587, -27.875804 ], [ -52.2431499, -27.8757281 ], [ -52.2434557, -27.8752491 ], [ -52.2434825, -27.8751543 ], [ -52.2435039, -27.8748698 ], [ -52.2434986, -27.8746754 ], [ -52.2431177, -27.8743102 ], [ -52.2429943, -27.8741537 ], [ -52.2430104, -27.8739498 ], [ -52.24304260000001, -27.8738503 ], [ -52.2430801, -27.8737554 ], [ -52.2432143, -27.8735894 ], [ -52.2431928, -27.8734946 ], [ -52.2431123, -27.8734282 ], [ -52.243005, -27.873433 ], [ -52.2429246, -27.8733666 ], [ -52.2428924, -27.8730726 ], [ -52.2427958, -27.8730204 ], [ -52.2426939, -27.8730157 ], [ -52.2426295, -27.872935 ], [ -52.242592, -27.8727359 ], [ -52.2425062, -27.8726742 ], [ -52.242415, -27.8727216 ], [ -52.2422701, -27.8728639 ], [ -52.2421682, -27.8729018 ], [ -52.2420716, -27.8728639 ], [ -52.2420824, -27.8727691 ], [ -52.2421682, -27.8725794 ], [ -52.2422057, -27.8723755 ], [ -52.2420394, -27.8722996 ], [ -52.2415942, -27.8719961 ], [ -52.2414064, -27.8719013 ], [ -52.2413582, -27.8718254 ], [ -52.2416532, -27.8716736 ], [ -52.2416157, -27.8715741 ], [ -52.2415245, -27.8715172 ], [ -52.2414172, -27.871484 ], [ -52.2410846, -27.8714745 ], [ -52.2409934, -27.8714318 ], [ -52.2409773, -27.8713322 ], [ -52.2410578, -27.8712611 ], [ -52.2411543, -27.8712184 ], [ -52.2414333, -27.8710335 ], [ -52.2416854, -27.870692 ], [ -52.2418517, -27.8705403 ], [ -52.2422004, -27.870251 ], [ -52.2425652, -27.8700091 ], [ -52.2425276, -27.869919 ], [ -52.2423452, -27.8698242 ], [ -52.2422969, -27.8697388 ], [ -52.2423506, -27.8696535 ], [ -52.2425383, -27.8695491 ], [ -52.2425866, -27.869459 ], [ -52.2426671, -27.8693832 ], [ -52.2428924, -27.869340499999989 ], [ -52.2429782, -27.8692741 ], [ -52.2429782, -27.8691745 ], [ -52.2428602, -27.8689706 ], [ -52.2429085, -27.8688734 ], [ -52.2430667, -27.868705 ], [ -52.24308820000001, -27.868657599999988 ], [ -52.243115, -27.8685604 ], [ -52.243115, -27.8682687 ], [ -52.2431445, -27.8682261 ], [ -52.2429514, -27.8681549 ], [ -52.2427958, -27.8680221 ], [ -52.2334028, -27.8770179 ], [ -52.2254339, -27.8695444 ], [ -52.2253346, -27.8700945 ] ] ] } },
{ "type": "Feature", "properties": { "name": "Santa Catarina", "code_muni": 4308904.0, "name_muni": "Getúlio Vargas" }, "geometry": { "type": "Polygon", "coordinates": [ [ [ -52.2242282, -27.8727311 ], [ -52.2246976, -27.8720506 ], [ -52.2249722, -27.8714631 ], [ -52.2250356, -27.8713275 ], [ -52.2251979, -27.8706754 ], [ -52.2253346, -27.8700945 ], [ -52.2254339, -27.8695444 ], [ -52.2188544, -27.8633604 ], [ -52.2059369, -27.8754625 ], [ -52.2173834, -27.886179199999987 ], [ -52.2176816, -27.8856207 ], [ -52.2179423, -27.8851834 ], [ -52.2181875, -27.8847499 ], [ -52.2184614, -27.8844961 ], [ -52.2186271, -27.8842832 ], [ -52.2189916, -27.884062600000011 ], [ -52.2194533, -27.8839943 ], [ -52.2198708, -27.884129 ], [ -52.2203811, -27.884201199999989 ], [ -52.2205998, -27.8841329 ], [ -52.2205512, -27.8835705 ], [ -52.2205202, -27.8833206 ], [ -52.2205931, -27.8830824 ], [ -52.2208317, -27.882893 ], [ -52.2212117, -27.8828539 ], [ -52.221596, -27.8828051 ], [ -52.2220754, -27.8826177 ], [ -52.2223096, -27.8823267 ], [ -52.2225614, -27.8820749 ], [ -52.2227668, -27.8818347 ], [ -52.2229568, -27.8815809 ], [ -52.2232263, -27.881204 ], [ -52.2234671, -27.8809853 ], [ -52.2234356, -27.8807971 ], [ -52.2233149, -27.8805292 ], [ -52.2232425, -27.8804533 ], [ -52.2231165, -27.8802305 ], [ -52.2230145, -27.8801048 ], [ -52.2228134, -27.8797539 ], [ -52.2228241, -27.8790901 ], [ -52.2228348, -27.8789952 ], [ -52.2229314, -27.8789526 ], [ -52.2230011, -27.878872 ], [ -52.223221100000011, -27.878834 ], [ -52.2233015, -27.8787724 ], [ -52.2233445, -27.8784499 ], [ -52.223559, -27.8781133 ], [ -52.2236127, -27.8779188 ], [ -52.2237575, -27.8773024 ], [ -52.2237521, -27.877108 ], [ -52.2235966, -27.8767998 ], [ -52.223382, -27.8766954 ], [ -52.2232693, -27.8766907 ], [ -52.2230494, -27.8766243 ], [ -52.2227436, -27.8764773 ], [ -52.2224271, -27.8761881 ], [ -52.2223467, -27.8760079 ], [ -52.2223413, -27.8757992 ], [ -52.2224969, -27.8754483 ], [ -52.2224808, -27.8753582 ], [ -52.2223789, -27.8753203 ], [ -52.2221482, -27.8753155 ], [ -52.2222126, -27.8752444 ], [ -52.2224057, -27.8751591 ], [ -52.22269, -27.8748176 ], [ -52.2232586, -27.8742249 ], [ -52.2238192, -27.8737957 ], [ -52.2238997, -27.8737317 ], [ -52.2239184, -27.8736843 ], [ -52.2239023, -27.8736369 ], [ -52.2236609, -27.8734401 ], [ -52.2235966, -27.8733867 ], [ -52.2242282, -27.8727311 ] ] ] } },
{ "type": "Feature", "properties": { "name": "Santo André", "code_muni": 4308904.0, "name_muni": "Getúlio Vargas" }, "geometry": { "type": "Polygon", "coordinates": [ [ [ -52.2237481, -27.8904153 ], [ -52.223634, -27.8908039 ], [ -52.2235926, -27.8909442 ], [ -52.2235036, -27.891278 ], [ -52.2233773, -27.891662 ], [ -52.2232231, -27.8920688 ], [ -52.2231807, -27.8921541 ], [ -52.2230828, -27.8922748 ], [ -52.222995, -27.8923646 ], [ -52.2229006, -27.8924564 ], [ -52.22234, -27.8929673 ], [ -52.2220529, -27.893215 ], [ -52.2216801, -27.8934663 ], [ -52.2213355, -27.8936346 ], [ -52.2209103, -27.8938112 ], [ -52.2203551, -27.8939463 ], [ -52.2194794, -27.8941277 ], [ -52.2192553, -27.8941857 ], [ -52.2190127, -27.8942486 ], [ -52.2186916, -27.8943128 ], [ -52.2186278, -27.894322 ], [ -52.2169804, -27.8946506 ], [ -52.2169527, -27.8946599 ], [ -52.2164995, -27.8948104 ], [ -52.216014, -27.895 ], [ -52.215452, -27.8952952 ], [ -52.2149867, -27.8956045 ], [ -52.2146018, -27.8959471 ], [ -52.2144972, -27.896053699999989 ], [ -52.2143711, -27.8961735 ], [ -52.2142249, -27.8962659 ], [ -52.2140734, -27.8964875 ], [ -52.214009, -27.8966227 ], [ -52.2139956, -27.8967163 ], [ -52.214005, -27.8967957 ], [ -52.2142102, -27.8972746 ], [ -52.2141981, -27.8973824 ], [ -52.2141391, -27.8974772 ], [ -52.2140318, -27.8975412 ], [ -52.213667, -27.8975199 ], [ -52.2138485, -27.8985813 ], [ -52.2140454, -27.8997594 ], [ -52.2141613, -27.9002062 ], [ -52.2142689, -27.900494099999989 ], [ -52.2147024, -27.9014088 ], [ -52.2151731, -27.9023029 ], [ -52.2159764, -27.9038324 ], [ -52.2172894, -27.9058122 ], [ -52.2204423, -27.9028676 ], [ -52.2250772, -27.9069636 ], [ -52.2320831, -27.9005541 ], [ -52.2320554, -27.9004558 ], [ -52.2315024, -27.8999129 ], [ -52.2310625, -27.8994815 ], [ -52.2304496, -27.8988556 ], [ -52.2304121, -27.8988177 ], [ -52.230375, -27.8987762 ], [ -52.2308513, -27.8983643 ], [ -52.2314037, -27.8978754 ], [ -52.2318913, -27.8974515 ], [ -52.2308095, -27.8964713 ], [ -52.2292574, -27.8950853 ], [ -52.22837590000001, -27.8942981 ], [ -52.2274576, -27.8935411 ], [ -52.2264607, -27.8926453 ], [ -52.2256018, -27.8918629 ], [ -52.225502, -27.8917722 ], [ -52.2247568, -27.8910976 ], [ -52.2238472, -27.890329 ], [ -52.2237481, -27.8904153 ] ] ] } },
{ "type": "Feature", "properties": { "name": "São Cristóvão", "code_muni": 4308904.0, "name_muni": "Getúlio Vargas" }, "geometry": { "type": "Polygon", "coordinates": [ [ [ -52.2056345, -27.9030647 ], [ -52.2130314, -27.9098766 ], [ -52.2172894, -27.9058122 ], [ -52.2159764, -27.9038324 ], [ -52.2151731, -27.9023029 ], [ -52.2147024, -27.9014088 ], [ -52.2142689, -27.900494099999989 ], [ -52.2141613, -27.9002062 ], [ -52.2140454, -27.8997594 ], [ -52.2138485, -27.8985813 ], [ -52.213667, -27.8975199 ], [ -52.2135539, -27.8966976 ], [ -52.2134662, -27.8960584 ], [ -52.2134264, -27.895768799999988 ], [ -52.2056345, -27.9030647 ] ] ] } },
{ "type": "Feature", "properties": { "name": "São José", "code_muni": 4308904.0, "name_muni": "Getúlio Vargas" }, "geometry": { "type": "Polygon", "coordinates": [ [ [ -52.2449095, -27.9043577 ], [ -52.2463319, -27.9030725 ], [ -52.249502, -27.9001846 ], [ -52.2413099, -27.8932055 ], [ -52.2402075, -27.8922691 ], [ -52.2393815, -27.8930639 ], [ -52.2383753, -27.8921649 ], [ -52.2378176, -27.8916633 ], [ -52.2371395, -27.8910019 ], [ -52.2362468, -27.8917397 ], [ -52.2354019, -27.8925057 ], [ -52.2345209, -27.8932654 ], [ -52.2336, -27.8940571 ], [ -52.2343571, -27.8946992 ], [ -52.2348877, -27.895178 ], [ -52.2354003, -27.8956315 ], [ -52.2358847, -27.8961156 ], [ -52.2360368, -27.8962443 ], [ -52.2364456, -27.8966082 ], [ -52.2369797, -27.897051 ], [ -52.238571, -27.8985573 ], [ -52.239029, -27.8990093 ], [ -52.2394316, -27.8993792 ], [ -52.2399114, -27.8997817 ], [ -52.2416049, -27.9012771 ], [ -52.242574, -27.9022629 ], [ -52.2449095, -27.9043577 ] ] ] } },
{ "type": "Feature", "properties": { "name": "XV de Novembro", "code_muni": 4308904.0, "name_muni": "Getúlio Vargas" }, "geometry": { "type": "Polygon", "coordinates": [ [ [ -52.2429514, -27.8681549 ], [ -52.2431445, -27.8682261 ], [ -52.243115, -27.8682687 ], [ -52.243115, -27.8685604 ], [ -52.24308820000001, -27.868657599999988 ], [ -52.2430667, -27.868705 ], [ -52.2429085, -27.8688734 ], [ -52.2428602, -27.8689706 ], [ -52.2429782, -27.8691745 ], [ -52.2429782, -27.8692741 ], [ -52.2428924, -27.869340499999989 ], [ -52.2426671, -27.8693832 ], [ -52.2425866, -27.869459 ], [ -52.2425383, -27.8695491 ], [ -52.2423506, -27.8696535 ], [ -52.2422969, -27.8697388 ], [ -52.2423452, -27.8698242 ], [ -52.2425276, -27.869919 ], [ -52.2425652, -27.8700091 ], [ -52.2422004, -27.870251 ], [ -52.2418517, -27.8705403 ], [ -52.2416854, -27.870692 ], [ -52.2414333, -27.8710335 ], [ -52.2411543, -27.8712184 ], [ -52.2410578, -27.8712611 ], [ -52.2409773, -27.8713322 ], [ -52.2409934, -27.8714318 ], [ -52.2410846, -27.8714745 ], [ -52.2414172, -27.871484 ], [ -52.2415245, -27.8715172 ], [ -52.2416157, -27.8715741 ], [ -52.2416532, -27.8716736 ], [ -52.2413582, -27.8718254 ], [ -52.2414064, -27.8719013 ], [ -52.2415942, -27.8719961 ], [ -52.2420394, -27.8722996 ], [ -52.2422057, -27.8723755 ], [ -52.2421682, -27.8725794 ], [ -52.2420824, -27.8727691 ], [ -52.2420716, -27.8728639 ], [ -52.2421682, -27.8729018 ], [ -52.2422701, -27.8728639 ], [ -52.242415, -27.8727216 ], [ -52.2425062, -27.8726742 ], [ -52.242592, -27.8727359 ], [ -52.2426295, -27.872935 ], [ -52.2426939, -27.8730157 ], [ -52.2427958, -27.8730204 ], [ -52.2428924, -27.8730726 ], [ -52.2429246, -27.8733666 ], [ -52.243005, -27.873433 ], [ -52.2431123, -27.8734282 ], [ -52.2431928, -27.8734946 ], [ -52.2432143, -27.8735894 ], [ -52.2430801, -27.8737554 ], [ -52.24304260000001, -27.8738503 ], [ -52.2430104, -27.8739498 ], [ -52.2429943, -27.8741537 ], [ -52.2431177, -27.8743102 ], [ -52.2434986, -27.8746754 ], [ -52.2435039, -27.8748698 ], [ -52.2434825, -27.8751543 ], [ -52.2434557, -27.8752491 ], [ -52.2431499, -27.8757281 ], [ -52.2430587, -27.875804 ], [ -52.2429621, -27.8758466 ], [ -52.2427368, -27.8758229 ], [ -52.2426295, -27.8758324 ], [ -52.2425276, -27.8758798 ], [ -52.2424901, -27.8760268 ], [ -52.2426778, -27.876373 ], [ -52.2427261, -27.8765579 ], [ -52.2426349, -27.8766101 ], [ -52.2420609, -27.8765816 ], [ -52.2419161, -27.8766907 ], [ -52.2418839, -27.8767855 ], [ -52.2418839, -27.8768899 ], [ -52.2419643, -27.8769562 ], [ -52.2421628, -27.8770369 ], [ -52.242195, -27.8771317 ], [ -52.2421521, -27.8772265 ], [ -52.2420555, -27.8772929 ], [ -52.2418517, -27.8773878 ], [ -52.2416318, -27.8774731 ], [ -52.2413957, -27.8775016 ], [ -52.2412992, -27.8775679 ], [ -52.2412187, -27.8778572 ], [ -52.2412241, -27.8780469 ], [ -52.2412884, -27.8781227 ], [ -52.2413904, -27.8781512 ], [ -52.2415513, -27.8780326 ], [ -52.2416693, -27.8778762 ], [ -52.2418624, -27.8777813 ], [ -52.2419751, -27.8777671 ], [ -52.242077, -27.8777956 ], [ -52.2420394, -27.8780943 ], [ -52.2419697, -27.8782745 ], [ -52.2418946, -27.8783504 ], [ -52.2414976, -27.8785685 ], [ -52.2413313, -27.8787012 ], [ -52.2412992, -27.8787961 ], [ -52.2412992, -27.8788957 ], [ -52.2414762, -27.8790237 ], [ -52.2414869, -27.8791185 ], [ -52.2412938, -27.8792276 ], [ -52.2410578, -27.879275 ], [ -52.2408271, -27.8792845 ], [ -52.2406501, -27.8795121 ], [ -52.2405213, -27.8797966 ], [ -52.2402853, -27.8800527 ], [ -52.2401458, -27.880346599999985 ], [ -52.2400332, -27.8805268 ], [ -52.2397918, -27.8807402 ], [ -52.2394753, -27.8808588 ], [ -52.23925, -27.8809157 ], [ -52.2391534, -27.8809726 ], [ -52.23886370000001, -27.8810864 ], [ -52.2387564, -27.8811053 ], [ -52.2381771, -27.8811148 ], [ -52.2377104, -27.8811765 ], [ -52.2374797, -27.8812239 ], [ -52.2373778, -27.8812808 ], [ -52.2369379, -27.881423 ], [ -52.2368735, -27.8815084 ], [ -52.2368681, -27.8818024 ], [ -52.2365463, -27.8819636 ], [ -52.2385794, -27.883974 ], [ -52.2379786, -27.8845288 ], [ -52.2388656, -27.885280099999989 ], [ -52.2397388, -27.8860367 ], [ -52.2401994, -27.8864704 ], [ -52.2411794, -27.8874196 ], [ -52.2406203, -27.8879767 ], [ -52.2403201, -27.8882343 ], [ -52.2397207, -27.8887483 ], [ -52.2401292, -27.8890939 ], [ -52.2404779, -27.8894119 ], [ -52.2408582, -27.8897636 ], [ -52.2415679, -27.8904216 ], [ -52.2419323, -27.8907762 ], [ -52.2430265, -27.891650399999989 ], [ -52.2481871, -27.8868806 ], [ -52.246213, -27.8851926 ], [ -52.2626281, -27.8702083 ], [ -52.2510839, -27.8600975 ], [ -52.2427958, -27.8680221 ], [ -52.2429514, -27.8681549 ] ] ] } }
]
}
