{
"type": "FeatureCollection",
"name": "bairros_marques_de_souza",
"crs": { "type": "name", "properties": { "name": "urn:ogc:def:crs:OGC:1.3:CRS84" } },
"features": [
{ "type": "Feature", "properties": { "code_muni": 4312054.0, "name_muni": "Marques de Souza", "code_state": 43.0, "abbrev_state": "RS", "name_state": "Rio Grande do Sul", "code_region": 4.0, "name_region": "Sul", "year": 2022.0 }, "geometry": { "type": "Polygon", "coordinates": [ [ [ -52.130968939999903, -29.351887559 ], [ -52.165121575999891, -29.327322259 ], [ -52.166956248, -29.327050656 ], [ -52.165591628, -29.319988522999907 ], [ -52.167293346, -29.317698178999908 ], [ -52.165204769999896, -29.317378082999905 ], [ -52.166131317, -29.313907453999892 ], [ -52.165220743, -29.313029362999899 ], [ -52.170695198, -29.307122809 ], [ -52.172240684, -29.304073190999905 ], [ -52.171513825, -29.302202426 ], [ -52.181240639999892, -29.300709385999909 ], [ -52.179775534, -29.294567661 ], [ -52.182755798, -29.289747792999901 ], [ -52.186140592999891, -29.286805409 ], [ -52.193717788999898, -29.284151700999907 ], [ -52.196494942999891, -29.280900103 ], [ -52.201510332999895, -29.278972983 ], [ -52.198294736, -29.270381304 ], [ -52.195297028, -29.267483512999899 ], [ -52.189678259999894, -29.26597587 ], [ -52.191195068, -29.262659808 ], [ -52.197482170999898, -29.259948903999902 ], [ -52.197850643, -29.253404287 ], [ -52.203296072999898, -29.246516470999889 ], [ -52.199200804, -29.246418451 ], [ -52.200878042999904, -29.244989726 ], [ -52.201602904, -29.239626861 ], [ -52.204543948, -29.235310216999899 ], [ -52.206256775, -29.235813048 ], [ -52.208026796, -29.2390038 ], [ -52.209029538, -29.238427626 ], [ -52.209586840999989, -29.232741774 ], [ -52.21139385, -29.232911419999908 ], [ -52.20871527, -29.232138060999905 ], [ -52.206041728999892, -29.220655892 ], [ -52.210848869, -29.223010971999905 ], [ -52.213561614, -29.22216670300001 ], [ -52.218963886, -29.223328030999891 ], [ -52.223317357, -29.228897861999901 ], [ -52.229656011, -29.230392898999987 ], [ -52.229212656999891, -29.233648815 ], [ -52.232563491999898, -29.234218203 ], [ -52.233207522, -29.235578216 ], [ -52.235222972, -29.234266851 ], [ -52.234730172, -29.237100344999895 ], [ -52.236578736, -29.236768712999897 ], [ -52.236559781, -29.23832622 ], [ -52.239060923999901, -29.238257378 ], [ -52.239946914, -29.240874721999901 ], [ -52.247597701, -29.241362904 ], [ -52.251996791, -29.232722606 ], [ -52.250672714, -29.226502175999897 ], [ -52.247379725, -29.221756483 ], [ -52.247499242999893, -29.21847509 ], [ -52.258142917, -29.21346948 ], [ -52.259061581, -29.211821783999898 ], [ -52.257569438, -29.211299439999905 ], [ -52.248701696999902, -29.197335128 ], [ -52.244567199, -29.200772718999907 ], [ -52.242998644999901, -29.195114449 ], [ -52.234989781, -29.193035123999898 ], [ -52.231054103, -29.193413721 ], [ -52.226002528, -29.196847192 ], [ -52.221131073, -29.205867887999904 ], [ -52.218197761999896, -29.204916823 ], [ -52.213803492999894, -29.200772302 ], [ -52.210646901, -29.200350576999902 ], [ -52.207131280999903, -29.202867284 ], [ -52.206117454, -29.20999832 ], [ -52.20309478, -29.214886411 ], [ -52.200893846, -29.213948086999892 ], [ -52.197508085, -29.208575053999901 ], [ -52.197351001999898, -29.204925046999989 ], [ -52.199985376, -29.20014974 ], [ -52.197631306999902, -29.198567103 ], [ -52.191588211999893, -29.203904115999901 ], [ -52.184394644, -29.207980865 ], [ -52.184119708, -29.210737364999893 ], [ -52.187510018999902, -29.214000387999903 ], [ -52.185861800999895, -29.217021987999903 ], [ -52.181981255, -29.216453163 ], [ -52.177722527, -29.212385804999897 ], [ -52.174383105999901, -29.213267967 ], [ -52.171051765999891, -29.219222573 ], [ -52.175952885, -29.226475923 ], [ -52.174091169, -29.228668023999901 ], [ -52.169599494, -29.229180254 ], [ -52.158115719, -29.221683151 ], [ -52.153603394999891, -29.222810991999896 ], [ -52.151053347, -29.233624087999896 ], [ -52.151472844, -29.235939217 ], [ -52.158001832, -29.243695994999893 ], [ -52.158147254, -29.257171752 ], [ -52.154333257, -29.258543243 ], [ -52.140975986999905, -29.258852307 ], [ -52.136311383, -29.276579555 ], [ -52.130939763, -29.27832182 ], [ -52.126305462999895, -29.274937473 ], [ -52.120348288999899, -29.277962794 ], [ -52.11797074, -29.282323934 ], [ -52.118940762, -29.287328977999902 ], [ -52.11121595, -29.291928755999898 ], [ -52.106335424999891, -29.291149931999904 ], [ -52.104632701999897, -29.296223021999896 ], [ -52.105469443999901, -29.300566526 ], [ -52.096570341, -29.302687718999898 ], [ -52.088484174, -29.301480641999895 ], [ -52.087802492, -29.302506406 ], [ -52.091623938999895, -29.310076874999904 ], [ -52.10077225, -29.319623077 ], [ -52.097588549, -29.322788667999912 ], [ -52.091081986999903, -29.321623453 ], [ -52.091283403, -29.327277398 ], [ -52.08933085199989, -29.332834863 ], [ -52.084397275999891, -29.333564149 ], [ -52.083178443, -29.333006037 ], [ -52.082606858, -29.329423886 ], [ -52.077637443999897, -29.327939272 ], [ -52.071958703999904, -29.331326142 ], [ -52.068814104999895, -29.32966273300001 ], [ -52.063330596, -29.330529499 ], [ -52.060394974, -29.335566534 ], [ -52.063924061, -29.340759322999894 ], [ -52.069059609, -29.344222296999906 ], [ -52.062004115, -29.349941526999892 ], [ -52.063662916999895, -29.354055 ], [ -52.062062744999892, -29.356906997999896 ], [ -52.063178374999893, -29.363195774 ], [ -52.05333774, -29.373494353999899 ], [ -52.047790145, -29.374874548 ], [ -52.051779659, -29.379647683 ], [ -52.050601449999895, -29.380677169 ], [ -52.032530844999897, -29.384631974999898 ], [ -52.030544097, -29.391422012 ], [ -52.031020266, -29.392908283999901 ], [ -52.034569561999895, -29.394320164 ], [ -52.034860244999891, -29.401213776 ], [ -52.048143364999895, -29.399862031999902 ], [ -52.05479975, -29.388920077 ], [ -52.089566797, -29.360120831 ], [ -52.112379315999902, -29.361896455 ], [ -52.127260623, -29.343993003 ], [ -52.130968939999903, -29.351887559 ] ] ] } }
]
}
