{
"type": "FeatureCollection",
"name": "bairros_tres_de_maio",
"crs": { "type": "name", "properties": { "name": "urn:ogc:def:crs:OGC:1.3:CRS84" } },
"features": [
{ "type": "Feature", "properties": { "code_muni": 4321808.0, "name_muni": "Três de Maio", "code_state": 43.0, "abbrev_state": "RS", "name_state": "Rio Grande do Sul", "code_region": 4.0, "name_region": "Sul", "year": 2022.0 }, "geometry": { "type": "Polygon", "coordinates": [ [ [ -54.252604455, -27.625733732999898 ], [ -54.24323057, -27.619287438999898 ], [ -54.239484274999896, -27.618571012 ], [ -54.235931834, -27.614006248 ], [ -54.235428720999892, -27.609991358999899 ], [ -54.229588135, -27.607480251 ], [ -54.2257765969999, -27.607683725 ], [ -54.22338813399989, -27.603303092 ], [ -54.21706875599989, -27.602429528999906 ], [ -54.215480396, -27.600612434 ], [ -54.212442791999898, -27.600158393 ], [ -54.214310235, -27.593788181 ], [ -54.208666238, -27.593507378 ], [ -54.207834309, -27.591958838 ], [ -54.205913019, -27.595447132999901 ], [ -54.204086165, -27.594662991999904 ], [ -54.200710377, -27.596105137999899 ], [ -54.202096889, -27.593587118 ], [ -54.1999824379999, -27.591223903 ], [ -54.196167761, -27.595622682999903 ], [ -54.1955225849999, -27.599449888 ], [ -54.196831727, -27.601823882 ], [ -54.203404059, -27.606365163999989 ], [ -54.20149672, -27.608241183 ], [ -54.196708016999892, -27.604310626 ], [ -54.187897929, -27.615582401 ], [ -54.184349466, -27.617085722 ], [ -54.181383539, -27.616835168 ], [ -54.168818281, -27.611514038999903 ], [ -54.163180827, -27.614010177999898 ], [ -54.159084278, -27.618783221999902 ], [ -54.153362262, -27.622710648 ], [ -54.14991402, -27.622372401 ], [ -54.145474524999898, -27.618593741 ], [ -54.143781723, -27.619307818 ], [ -54.142530522, -27.625117526999908 ], [ -54.147224875999896, -27.6266966009999 ], [ -54.152820049, -27.626055341 ], [ -54.165029833999903, -27.627314371999901 ], [ -54.177075193, -27.622212476999895 ], [ -54.181137683, -27.622075063999894 ], [ -54.176852044, -27.625532701999894 ], [ -54.181602186, -27.640659281999898 ], [ -54.179733605, -27.6408037419999 ], [ -54.169421762999896, -27.631525433 ], [ -54.166213112, -27.631140206999898 ], [ -54.145338091, -27.639034991 ], [ -54.142276249, -27.642876681 ], [ -54.155792044, -27.642356391 ], [ -54.165033944, -27.644879150999895 ], [ -54.161145276, -27.649433744 ], [ -54.1504904889999, -27.650845456 ], [ -54.144646328, -27.649898833999895 ], [ -54.144176541, -27.651016929 ], [ -54.150866318999896, -27.654495707 ], [ -54.165814967, -27.653229629 ], [ -54.172871179, -27.66451863 ], [ -54.17594829, -27.665643772 ], [ -54.175772119, -27.667774258999895 ], [ -54.171257458, -27.671210757 ], [ -54.170959142999891, -27.676185809999904 ], [ -54.169472265, -27.676411308 ], [ -54.165974107, -27.671247165999898 ], [ -54.163567618999892, -27.674330735 ], [ -54.168688306, -27.681246012 ], [ -54.170482896, -27.689610584 ], [ -54.168678911, -27.6915578539999 ], [ -54.169061337, -27.703773504 ], [ -54.172620379, -27.710596411 ], [ -54.176970398, -27.714974554 ], [ -54.179188971, -27.720347425999897 ], [ -54.181855031999909, -27.721499739 ], [ -54.184723804, -27.721068975 ], [ -54.197572607, -27.730952452999905 ], [ -54.189835543999891, -27.739276184999902 ], [ -54.188962593, -27.742322666 ], [ -54.182466256999909, -27.744381781999898 ], [ -54.180211314, -27.746516584999899 ], [ -54.177320838, -27.746085058999899 ], [ -54.181007357999896, -27.750454523 ], [ -54.181446644999902, -27.755500142 ], [ -54.175605925, -27.7620534 ], [ -54.17327223, -27.7628083389999 ], [ -54.16817644799989, -27.7616539059999 ], [ -54.168557708, -27.769880525 ], [ -54.160216151, -27.769046667999902 ], [ -54.152209415, -27.764205873 ], [ -54.147134162, -27.7592324149999 ], [ -54.145637275999903, -27.750913275999899 ], [ -54.147363006, -27.749539741 ], [ -54.147416882, -27.744248558 ], [ -54.149608842, -27.740545161999901 ], [ -54.148333068999889, -27.739585928999901 ], [ -54.143049364, -27.741744559 ], [ -54.138247266999898, -27.745940432999902 ], [ -54.140587472999989, -27.756333175 ], [ -54.136822596999892, -27.758902094999904 ], [ -54.131398085999891, -27.759145304999898 ], [ -54.125438281999891, -27.75081491 ], [ -54.107276637, -27.756878197999988 ], [ -54.107067845, -27.7586579929999 ], [ -54.112529493999901, -27.762334575 ], [ -54.119563834, -27.758572194999896 ], [ -54.119125234, -27.762327017 ], [ -54.125758328, -27.768725393999894 ], [ -54.138993035999896, -27.770593979999905 ], [ -54.143380212999894, -27.774461152999905 ], [ -54.137421961, -27.777649102999902 ], [ -54.123078713, -27.779777054 ], [ -54.119605317, -27.78156612 ], [ -54.1286824969999, -27.783426579 ], [ -54.131233282, -27.786086646999902 ], [ -54.124152841999901, -27.792773202 ], [ -54.123112985, -27.798556413 ], [ -54.130226249, -27.799578143 ], [ -54.131786685, -27.797599588 ], [ -54.131938810999898, -27.791970238 ], [ -54.13547654, -27.789290754 ], [ -54.136953477, -27.794924099999896 ], [ -54.138926083999898, -27.796606090999898 ], [ -54.149645127, -27.792942232 ], [ -54.156706884, -27.796437295 ], [ -54.160510862, -27.795308118 ], [ -54.160038034, -27.799339866 ], [ -54.161645385, -27.801161104999895 ], [ -54.170133990999901, -27.806040746999898 ], [ -54.176857044, -27.80740228 ], [ -54.17897004, -27.811021367 ], [ -54.185462102, -27.809649943999897 ], [ -54.192614458, -27.811601756 ], [ -54.192863848999892, -27.802473997999989 ], [ -54.196548816, -27.806665978999895 ], [ -54.201751185, -27.807109824999905 ], [ -54.203833007999897, -27.811302683999909 ], [ -54.202328724, -27.823613005 ], [ -54.206195527, -27.820988423 ], [ -54.210188791, -27.822324384999902 ], [ -54.220136474999897, -27.819307927999898 ], [ -54.231491085999899, -27.822125782999901 ], [ -54.23669424, -27.819635654 ], [ -54.241482087999898, -27.819897461 ], [ -54.252319289, -27.81601998 ], [ -54.260030690999891, -27.8151879 ], [ -54.265799078, -27.817449542 ], [ -54.274040498, -27.817894021 ], [ -54.27813716, -27.821033042 ], [ -54.285513861, -27.814878778 ], [ -54.283773618999902, -27.810625439 ], [ -54.284824974999893, -27.807976676 ], [ -54.295059368, -27.806440365 ], [ -54.296220601999899, -27.807296557 ], [ -54.295098207, -27.810754284 ], [ -54.297985774, -27.814612 ], [ -54.300833513, -27.825116959 ], [ -54.306997068, -27.827627364 ], [ -54.311817858, -27.832778962 ], [ -54.314102896, -27.83099097 ], [ -54.321381587, -27.829741601 ], [ -54.32143303, -27.826981788 ], [ -54.325697563999903, -27.825363345 ], [ -54.327203993, -27.823134027 ], [ -54.332243965, -27.822355006999903 ], [ -54.334557498, -27.82023279 ], [ -54.337757778, -27.821623514999899 ], [ -54.336298556, -27.826673199 ], [ -54.338777491, -27.82837625 ], [ -54.344119145, -27.827872144 ], [ -54.348603983, -27.825757441 ], [ -54.350273632, -27.830477180999893 ], [ -54.358930647, -27.835555197 ], [ -54.362635455, -27.83574494 ], [ -54.363093670999895, -27.8370837689999 ], [ -54.3591150029999, -27.841292947999907 ], [ -54.35898060800001, -27.843024059999902 ], [ -54.360442202999899, -27.843246748 ], [ -54.363712446, -27.841816922 ], [ -54.369373848999899, -27.835147746 ], [ -54.37154545, -27.829860290999903 ], [ -54.365348417999897, -27.826513658 ], [ -54.369441363999989, -27.822709158999899 ], [ -54.366215235, -27.818943995 ], [ -54.369292311, -27.818254501999895 ], [ -54.375205448, -27.822381392999901 ], [ -54.379189351, -27.822682734 ], [ -54.38243791, -27.821971722999894 ], [ -54.383002528, -27.819737668999903 ], [ -54.379796235, -27.813031005 ], [ -54.367351576, -27.816707581999903 ], [ -54.365538993, -27.814012465 ], [ -54.366970589999895, -27.809346961 ], [ -54.359613650999989, -27.811476082 ], [ -54.357451751, -27.810494487 ], [ -54.359848835, -27.808005807 ], [ -54.368198671, -27.806962305 ], [ -54.374215185, -27.799392286999904 ], [ -54.383836534999908, -27.793952493999896 ], [ -54.376697096, -27.791371470999898 ], [ -54.374979805, -27.788593186999897 ], [ -54.374812772, -27.781604665 ], [ -54.366773219, -27.783507707999892 ], [ -54.361065991, -27.776166477999894 ], [ -54.356634111999895, -27.774226117999902 ], [ -54.359505046, -27.772607919999896 ], [ -54.366329006999898, -27.775087814 ], [ -54.369291437999898, -27.780470789999988 ], [ -54.371884017999903, -27.781141530999896 ], [ -54.376730328, -27.773631381 ], [ -54.37903854199989, -27.773666580999894 ], [ -54.382838866, -27.776227008 ], [ -54.386065513999895, -27.771429972 ], [ -54.390272078, -27.773515307 ], [ -54.390917074999891, -27.771741198 ], [ -54.3882596179999, -27.769626274 ], [ -54.393181211, -27.761215654999898 ], [ -54.39875116, -27.762248279999895 ], [ -54.405010365, -27.761179711 ], [ -54.406200032, -27.759196384999903 ], [ -54.405283907, -27.758071088999898 ], [ -54.402847605, -27.757323812 ], [ -54.398839107, -27.7582666939999 ], [ -54.396864517, -27.755874730999903 ], [ -54.400323202, -27.749952316 ], [ -54.391302171999889, -27.748927749 ], [ -54.39931223, -27.743919159 ], [ -54.412579306999902, -27.742680954 ], [ -54.416490425999903, -27.739248279 ], [ -54.416895847, -27.735979508 ], [ -54.414334212999989, -27.734163473 ], [ -54.40560777799989, -27.734598111 ], [ -54.402152424, -27.738182563 ], [ -54.400382152, -27.737778915 ], [ -54.400194816, -27.730363612 ], [ -54.400907711999892, -27.729518715 ], [ -54.415522011999897, -27.729935824999895 ], [ -54.423763196, -27.724759091 ], [ -54.421691375, -27.720271512999904 ], [ -54.413881695, -27.718270119 ], [ -54.41454881899989, -27.716632085999898 ], [ -54.419397134, -27.715382108 ], [ -54.420877447, -27.7021359089999 ], [ -54.415797661999903, -27.705555081999901 ], [ -54.411115071, -27.702763521999902 ], [ -54.40936537999989, -27.700122886 ], [ -54.402176996, -27.697890668 ], [ -54.396502283, -27.6992326499999 ], [ -54.391442056, -27.697509934 ], [ -54.388354472999893, -27.700824102 ], [ -54.3876514, -27.698398627 ], [ -54.385576334999897, -27.698191454 ], [ -54.38238448899989, -27.695209761999894 ], [ -54.364128827999899, -27.69099152 ], [ -54.351992504, -27.695305677 ], [ -54.341842925, -27.694583011 ], [ -54.333876238, -27.691537895 ], [ -54.324635998, -27.694418663 ], [ -54.317842175, -27.6918743099999 ], [ -54.312281507, -27.68758431 ], [ -54.30196697, -27.685869152 ], [ -54.299620992, -27.682452334999898 ], [ -54.296049760999892, -27.682465427 ], [ -54.292662499999899, -27.680230815 ], [ -54.286678232, -27.680901155 ], [ -54.287056914999894, -27.678985344999894 ], [ -54.284753716, -27.675424633 ], [ -54.278433358, -27.672746058 ], [ -54.278956556, -27.666947951999902 ], [ -54.274483668, -27.661270667999904 ], [ -54.270955000999891, -27.6461992979999 ], [ -54.268945588999905, -27.644975243 ], [ -54.267199763999898, -27.640034473999901 ], [ -54.265299723999895, -27.639109677 ], [ -54.264396126999891, -27.630771905999904 ], [ -54.261161594, -27.629441789999905 ], [ -54.258408663, -27.62589328 ], [ -54.254956728, -27.624524316 ], [ -54.252604455, -27.625733732999898 ] ] ] } }
]
}
