{
"type": "FeatureCollection",
"name": "bairros_ernestina",
"crs": { "type": "name", "properties": { "name": "urn:ogc:def:crs:OGC:1.3:CRS84" } },
"features": [
{ "type": "Feature", "properties": { "code_muni": 4307054.0, "name_muni": "Ernestina", "code_state": 43.0, "abbrev_state": "RS", "name_state": "Rio Grande do Sul", "code_region": 4.0, "name_region": "Sul", "year": 2022.0 }, "geometry": { "type": "Polygon", "coordinates": [ [ [ -52.574715833, -28.521611306 ], [ -52.578350883, -28.518700011 ], [ -52.582114459, -28.517707894999909 ], [ -52.587401251, -28.517375743999899 ], [ -52.588907541, -28.518758758999986 ], [ -52.594918542, -28.515406414 ], [ -52.599085666, -28.516987677 ], [ -52.600292119999892, -28.513900352999901 ], [ -52.604345388, -28.5109391189999 ], [ -52.609023459, -28.513991615999899 ], [ -52.610560662, -28.517011044 ], [ -52.613058796, -28.517087024999988 ], [ -52.615254950999891, -28.519058334 ], [ -52.618499389, -28.517301366 ], [ -52.617845347, -28.514738404999903 ], [ -52.622136562, -28.512976760999901 ], [ -52.620502627999905, -28.512143734999899 ], [ -52.621931640999897, -28.504378021 ], [ -52.618116240999903, -28.501480351999902 ], [ -52.622300433, -28.492187273 ], [ -52.621055767, -28.49129054 ], [ -52.622770255, -28.490536568 ], [ -52.620250767, -28.489573682999893 ], [ -52.620568187999901, -28.487941287 ], [ -52.615706809999899, -28.489406614 ], [ -52.611683379999896, -28.484741132999897 ], [ -52.61071523, -28.48067875 ], [ -52.612585677, -28.479705467 ], [ -52.611588329, -28.479281199 ], [ -52.611853217, -28.475269291 ], [ -52.614683441, -28.473049057 ], [ -52.612530395, -28.471354509 ], [ -52.60789914, -28.471129472 ], [ -52.609534407999902, -28.468218685 ], [ -52.606948877, -28.467590496 ], [ -52.606235671, -28.465833904 ], [ -52.60891902, -28.463512137999896 ], [ -52.609498545, -28.460272086 ], [ -52.606259031, -28.460940826 ], [ -52.604181258, -28.459451714 ], [ -52.605166562, -28.456655194999897 ], [ -52.599954619, -28.457929653999898 ], [ -52.600074389, -28.456434203 ], [ -52.598130431, -28.455650063 ], [ -52.598390701, -28.453025655 ], [ -52.595035686, -28.4495448129999 ], [ -52.590715039, -28.4405976379999 ], [ -52.588739534999903, -28.429678178 ], [ -52.59210863, -28.423010892 ], [ -52.599626800999893, -28.424217912999904 ], [ -52.601815771, -28.420297042999906 ], [ -52.601053931, -28.417143371999895 ], [ -52.602948081, -28.413039915999903 ], [ -52.611801531, -28.409564155999892 ], [ -52.613286881, -28.406323357 ], [ -52.622275156999898, -28.404030108 ], [ -52.622378674999894, -28.408412998 ], [ -52.625997244, -28.410662565999907 ], [ -52.628074506, -28.409609015999898 ], [ -52.626554762999902, -28.407398719999904 ], [ -52.630241085, -28.4051794989999 ], [ -52.63270292899989, -28.410484644 ], [ -52.633824644, -28.41040026699989 ], [ -52.633094653999891, -28.406842895 ], [ -52.637677845, -28.407338986 ], [ -52.634269415999896, -28.40381345 ], [ -52.634548875, -28.402473815999901 ], [ -52.638874971999897, -28.401033024 ], [ -52.636993288, -28.400382691999905 ], [ -52.637045015999902, -28.398972208 ], [ -52.634486374999895, -28.399946201 ], [ -52.634943022, -28.396644307 ], [ -52.638552788, -28.393504761 ], [ -52.638382677, -28.390207412999892 ], [ -52.63544246, -28.389839691 ], [ -52.632724256, -28.387280946 ], [ -52.636527169, -28.384097369999893 ], [ -52.639943272, -28.384821662999986 ], [ -52.641817847, -28.383607979 ], [ -52.642780197, -28.3847976129999 ], [ -52.6477214619999, -28.383298583999903 ], [ -52.647650654, -28.380354973999896 ], [ -52.646047731, -28.379712049 ], [ -52.647370211, -28.376886017999905 ], [ -52.64872503999991, -28.37681464799989 ], [ -52.649219689999896, -28.372400671 ], [ -52.647319551, -28.370585591999902 ], [ -52.643477951, -28.373025715 ], [ -52.638067443, -28.367442325 ], [ -52.63520274, -28.368078588999904 ], [ -52.634682525, -28.364963573 ], [ -52.632453846, -28.365966116 ], [ -52.631688664, -28.368195840999896 ], [ -52.631432058, -28.3649779049999 ], [ -52.629281894, -28.364790308999897 ], [ -52.629470416999894, -28.363615764 ], [ -52.627894598999902, -28.364858456 ], [ -52.625685243, -28.364118978 ], [ -52.623986593, -28.367445314 ], [ -52.619938225999903, -28.366436368999899 ], [ -52.621986933999892, -28.363976103 ], [ -52.620280823, -28.362980894 ], [ -52.63005415, -28.354385127999901 ], [ -52.627558029999904, -28.353750163 ], [ -52.625423972, -28.350904856999897 ], [ -52.623668704999901, -28.351361704999892 ], [ -52.620504641, -28.346380398 ], [ -52.615618266, -28.346109869 ], [ -52.612542260999895, -28.341534359 ], [ -52.607527599, -28.34290690699989 ], [ -52.606343447, -28.341263684 ], [ -52.60282065699991, -28.3406304169999 ], [ -52.602639393999901, -28.334217704 ], [ -52.599825650999904, -28.331952370999904 ], [ -52.598212482999891, -28.332787464 ], [ -52.595801229, -28.331489707999893 ], [ -52.59250041, -28.3346268459999 ], [ -52.590762251999898, -28.334646799 ], [ -52.587554519, -28.332963563 ], [ -52.582842131999897, -28.327240951 ], [ -52.572308549, -28.327000362 ], [ -52.571313897, -28.324889702 ], [ -52.568108453, -28.323840272 ], [ -52.566555005999902, -28.320746668 ], [ -52.562503433, -28.31946268 ], [ -52.560150201999896, -28.32117726 ], [ -52.558780063, -28.320011635 ], [ -52.556992538, -28.321589588999899 ], [ -52.550185535, -28.335267359999893 ], [ -52.530469616999902, -28.338838328999895 ], [ -52.525265909, -28.342307822999892 ], [ -52.522383971999894, -28.349566068999888 ], [ -52.520441558, -28.3505409969999 ], [ -52.515135238, -28.350175708999888 ], [ -52.513134785, -28.352967738 ], [ -52.515837959, -28.357516065 ], [ -52.511846899, -28.362807007 ], [ -52.511001060999902, -28.37041464 ], [ -52.508023363999889, -28.372574316999895 ], [ -52.508193952999903, -28.380360832999905 ], [ -52.510656099, -28.386123618999907 ], [ -52.509461006, -28.387889593 ], [ -52.510513124999896, -28.3888330139999 ], [ -52.508227170999902, -28.391180662999894 ], [ -52.509653161999893, -28.392754273 ], [ -52.508410828, -28.394753373999908 ], [ -52.510447518, -28.396298475 ], [ -52.508861275999891, -28.398513942 ], [ -52.5099760109999, -28.398854517 ], [ -52.509681989999891, -28.410237293 ], [ -52.506801101999891, -28.41225091 ], [ -52.505337794999903, -28.411648468999896 ], [ -52.503827305, -28.408376951 ], [ -52.500139162000011, -28.407339529999899 ], [ -52.497274535, -28.403855461 ], [ -52.497739888, -28.402627360999894 ], [ -52.495576185999901, -28.4016977369999 ], [ -52.495832202, -28.400190375 ], [ -52.489402677, -28.395815128 ], [ -52.485598747, -28.396932163 ], [ -52.482900349, -28.3932205099999 ], [ -52.478957777999895, -28.392828339999895 ], [ -52.478123696, -28.3894251749999 ], [ -52.475265088, -28.389880382999895 ], [ -52.472769690999897, -28.384215873 ], [ -52.468845637999891, -28.38795723 ], [ -52.461518982, -28.379834877 ], [ -52.456731024, -28.382408687 ], [ -52.44974323799989, -28.3917603199999 ], [ -52.445099152, -28.393997934 ], [ -52.446717981999903, -28.400481076999899 ], [ -52.444628248999898, -28.401436955999884 ], [ -52.443669966999892, -28.404159472999897 ], [ -52.4507318779999, -28.405732982 ], [ -52.446389322, -28.407618607 ], [ -52.447483712999897, -28.413336162 ], [ -52.445103263, -28.416079454999903 ], [ -52.451978951999891, -28.417458639 ], [ -52.452234863999891, -28.418951868 ], [ -52.449520602, -28.420645873 ], [ -52.451928658, -28.422950242 ], [ -52.455138448999897, -28.424388601 ], [ -52.460716888, -28.423403484999906 ], [ -52.461409794, -28.427439337999893 ], [ -52.464839319, -28.427250704 ], [ -52.471559259999893, -28.431223512 ], [ -52.486264513, -28.460170428 ], [ -52.494660033999899, -28.458296902 ], [ -52.495879275999989, -28.462835498999908 ], [ -52.504561074, -28.466813089 ], [ -52.511903638, -28.476258695 ], [ -52.515142179999899, -28.489315545 ], [ -52.518314489, -28.495027297 ], [ -52.525635554, -28.499258519 ], [ -52.544566015, -28.498033493 ], [ -52.546713779, -28.505141895999905 ], [ -52.544417982, -28.516778407999904 ], [ -52.547202464, -28.518902973 ], [ -52.555384537, -28.519534187 ], [ -52.552315393999898, -28.529797475999899 ], [ -52.573457677, -28.524628988 ], [ -52.574715833, -28.521611306 ] ] ] } }
]
}
