{
"type": "FeatureCollection",
"name": "bairros_sao_jose_dos_ausentes",
"crs": { "type": "name", "properties": { "name": "urn:ogc:def:crs:OGC:1.3:CRS84" } },
"features": [
{ "type": "Feature", "properties": { "code_muni": 4318622.0, "name_muni": "São José dos Ausentes", "code_state": 43.0, "abbrev_state": "RS", "name_state": "Rio Grande do Sul", "code_region": 4.0, "name_region": "Sul", "year": 2022.0 }, "geometry": { "type": "Polygon", "coordinates": [ [ [ -50.029659189, -28.858016925999905 ], [ -50.035316523999903, -28.860233117000011 ], [ -50.036718494, -28.859743524999899 ], [ -50.036655416, -28.854411699 ], [ -50.04414406, -28.84902821 ], [ -50.039511924, -28.848069770999906 ], [ -50.037069808999895, -28.845955363 ], [ -50.038386194999902, -28.845040614 ], [ -50.046530388, -28.844498855 ], [ -50.051727158999903, -28.846249402999899 ], [ -50.058003459, -28.842577764999898 ], [ -50.058275938999898, -28.839786871999898 ], [ -50.0599088499999, -28.838681984999898 ], [ -50.063400003, -28.838841424999892 ], [ -50.065704683, -28.840531462999898 ], [ -50.070987573, -28.837816054 ], [ -50.073581712, -28.842471849999988 ], [ -50.084453691, -28.844610379999896 ], [ -50.085939861, -28.8476055319999 ], [ -50.087804515, -28.848137148 ], [ -50.089030308, -28.847412095 ], [ -50.089328211999899, -28.843756742000011 ], [ -50.085752957, -28.837740014 ], [ -50.086345066, -28.832007087 ], [ -50.094162035, -28.832694650999898 ], [ -50.098102183, -28.828156846 ], [ -50.105887174, -28.829861079 ], [ -50.108172751, -28.825912355999904 ], [ -50.112686159, -28.823878622999906 ], [ -50.128124333, -28.8205532059999 ], [ -50.132728363999902, -28.825360206 ], [ -50.137658116999894, -28.826025666 ], [ -50.137441703, -28.833404444999903 ], [ -50.14043667, -28.833671164 ], [ -50.142573840999901, -28.831181920999907 ], [ -50.140443236, -28.827277645 ], [ -50.153803578999899, -28.819927490999891 ], [ -50.157589856, -28.820492081999902 ], [ -50.161240122, -28.822611729 ], [ -50.158660025, -28.827045154 ], [ -50.162119500999893, -28.831323074 ], [ -50.158000273, -28.836093032999905 ], [ -50.164261322999899, -28.839886431 ], [ -50.165804878999893, -28.835486578 ], [ -50.168302578999899, -28.833577563999896 ], [ -50.174425668, -28.831514359 ], [ -50.177852021, -28.834560882999895 ], [ -50.180223331, -28.834054797 ], [ -50.182906472, -28.830990014999898 ], [ -50.181248769, -28.824006792 ], [ -50.191609415999899, -28.824283853999887 ], [ -50.197095944, -28.826951782 ], [ -50.19865669699989, -28.832064889 ], [ -50.193825392999898, -28.837241682 ], [ -50.193495651, -28.841234785 ], [ -50.198803593, -28.842254302999898 ], [ -50.197566259, -28.847767346999902 ], [ -50.200869048, -28.848983545999886 ], [ -50.203868131, -28.849082477 ], [ -50.207541001, -28.84701753 ], [ -50.207964127, -28.844775494 ], [ -50.206130109, -28.8408137129999 ], [ -50.215567327, -28.837323884999893 ], [ -50.2173645, -28.835278585 ], [ -50.215635213, -28.832142507999894 ], [ -50.211066344999892, -28.831678723 ], [ -50.20802595, -28.829921157999905 ], [ -50.212245235, -28.817893085 ], [ -50.211573466999901, -28.811341473 ], [ -50.202922389, -28.808843047 ], [ -50.203183881, -28.805818776 ], [ -50.200725632999898, -28.800049669 ], [ -50.198228876, -28.799548718 ], [ -50.196660902, -28.795516850999892 ], [ -50.200384875999895, -28.79478704 ], [ -50.197693414, -28.790284730999904 ], [ -50.203240117999897, -28.786788927 ], [ -50.2035546339999, -28.783767936999901 ], [ -50.199627892, -28.784901306999885 ], [ -50.197900937, -28.783754218 ], [ -50.199927265, -28.780973305 ], [ -50.19649283, -28.779472717 ], [ -50.194687174, -28.770851603 ], [ -50.192333452, -28.769197483 ], [ -50.189826661, -28.761246911999908 ], [ -50.187896388999896, -28.760350839 ], [ -50.188519903, -28.758333517 ], [ -50.186683953999903, -28.757127375 ], [ -50.184633276999897, -28.748369515 ], [ -50.177267647999898, -28.736670708 ], [ -50.174107952, -28.734591651 ], [ -50.164182377, -28.722685649 ], [ -50.162428393, -28.722173659 ], [ -50.158726319, -28.712211661 ], [ -50.15178564, -28.710648509 ], [ -50.147955198, -28.713069236 ], [ -50.145082875999904, -28.709025098 ], [ -50.139281191, -28.705540909 ], [ -50.1386135179999, -28.701588299 ], [ -50.130719763999892, -28.695182071 ], [ -50.128058548999903, -28.690216377 ], [ -50.119580831, -28.688906069 ], [ -50.117021420999897, -28.685441733999895 ], [ -50.105668522, -28.681479034999903 ], [ -50.102834612, -28.67800749 ], [ -50.100712745, -28.671680820999899 ], [ -50.097827662, -28.668578096 ], [ -50.100228366, -28.666938582999901 ], [ -50.099116702999893, -28.662828030999904 ], [ -50.103360897, -28.658444296 ], [ -50.1037680909999, -28.655463281 ], [ -50.107905682, -28.653504907999896 ], [ -50.107685088, -28.650365278 ], [ -50.110149309999898, -28.645273253 ], [ -50.100634763999899, -28.638459619999896 ], [ -50.094812642, -28.637124316 ], [ -50.081692808, -28.637326474 ], [ -50.073206789, -28.635650195 ], [ -50.061659783, -28.637959501999902 ], [ -50.043004244, -28.635747966999901 ], [ -50.037633017, -28.637598029999889 ], [ -50.025909855, -28.634892551 ], [ -50.022102312999891, -28.635432503999901 ], [ -50.027857621999893, -28.6264143 ], [ -50.037369350999903, -28.619663626 ], [ -50.039591932999897, -28.614998535 ], [ -50.040898904, -28.605069423 ], [ -50.03897813, -28.593537727 ], [ -50.033831714, -28.588241320999906 ], [ -50.032842691, -28.580703483 ], [ -50.025538556999898, -28.572871178 ], [ -50.03196865, -28.563711828 ], [ -50.048673955, -28.568046228999897 ], [ -50.050361994, -28.565784811 ], [ -50.048178162999896, -28.558912459999899 ], [ -50.052995412, -28.55045116 ], [ -50.055071894, -28.539605073 ], [ -50.057404329, -28.537481159 ], [ -50.058154585, -28.524043622 ], [ -50.063236011999905, -28.516237338999897 ], [ -50.064605588999896, -28.511372975 ], [ -50.072680536, -28.508077371 ], [ -50.072526092, -28.502514679999905 ], [ -50.069557972, -28.49996169 ], [ -50.067023279, -28.491628652 ], [ -50.068650681999898, -28.479211522 ], [ -50.065608516999895, -28.476857746999901 ], [ -50.055450685, -28.475759653 ], [ -50.048515406, -28.476906313 ], [ -50.041399725, -28.480125382 ], [ -50.037747957, -28.479365635 ], [ -50.025823183999897, -28.473083365 ], [ -50.023918513999895, -28.459364412999893 ], [ -50.019004209999899, -28.451419705 ], [ -50.013876364999902, -28.450775512 ], [ -50.002452164, -28.458032991 ], [ -49.994868220999898, -28.456590106 ], [ -49.989393051, -28.457154650999897 ], [ -49.986356777, -28.454752744 ], [ -49.989520109, -28.448217008 ], [ -49.988639551999903, -28.445252841 ], [ -49.980983363999897, -28.440641819999893 ], [ -49.97269395699989, -28.43899311 ], [ -49.970430569, -28.441222127999886 ], [ -49.969375832, -28.452517645999897 ], [ -49.967225932, -28.455912727999891 ], [ -49.9591254589999, -28.449902821 ], [ -49.955748285, -28.449053791 ], [ -49.952505373, -28.45033676 ], [ -49.951351389, -28.466930598 ], [ -49.94726016, -28.474441344 ], [ -49.946413135999897, -28.480877956 ], [ -49.943685684999892, -28.482739975 ], [ -49.928443651, -28.471409562 ], [ -49.929820337, -28.465460031 ], [ -49.938546663, -28.458624217 ], [ -49.928513775999903, -28.451223534999901 ], [ -49.924184876, -28.452232217999907 ], [ -49.917848894, -28.458749549999897 ], [ -49.908441057999894, -28.461769117999889 ], [ -49.9044987, -28.464610305999898 ], [ -49.895783117999898, -28.463810114 ], [ -49.890217428, -28.461551724999907 ], [ -49.888845742999898, -28.459420328 ], [ -49.889237695, -28.456598282999899 ], [ -49.898440701, -28.44436933 ], [ -49.894349553, -28.441004403 ], [ -49.891138552, -28.440157321 ], [ -49.887686400999897, -28.442122183999984 ], [ -49.885826423, -28.446394869999896 ], [ -49.883627385999894, -28.447618637999891 ], [ -49.880854351, -28.447256571 ], [ -49.876280795, -28.443272592 ], [ -49.871692155999902, -28.441642381 ], [ -49.85914187, -28.442328191999898 ], [ -49.854219891999897, -28.444657959 ], [ -49.858199119999895, -28.449331124 ], [ -49.864950382, -28.451086612 ], [ -49.871936977, -28.450836534 ], [ -49.877767221999903, -28.454522052999899 ], [ -49.874280465, -28.458840026 ], [ -49.863572917999896, -28.4628459639999 ], [ -49.86293216, -28.472024206 ], [ -49.869392577, -28.48178483 ], [ -49.866649846, -28.4886323109999 ], [ -49.863921556, -28.489355308 ], [ -49.853281922, -28.488284969999903 ], [ -49.8439264309999, -28.485196818 ], [ -49.841011293, -28.485598062999902 ], [ -49.839865637999893, -28.487319602 ], [ -49.844469046, -28.490657276 ], [ -49.845258149999893, -28.493715849999901 ], [ -49.8425728, -28.496158696999899 ], [ -49.838671620999897, -28.496287684 ], [ -49.835498505, -28.493469461 ], [ -49.832477164999901, -28.487321524 ], [ -49.8287138439999, -28.485250181 ], [ -49.826042259, -28.478448249999897 ], [ -49.8182997709999, -28.483666066999906 ], [ -49.810980173, -28.484313556 ], [ -49.816159018999898, -28.479319169 ], [ -49.8172655, -28.469868785999907 ], [ -49.811827380999894, -28.467940665 ], [ -49.808782848, -28.469224536999899 ], [ -49.802569111, -28.485724965 ], [ -49.795211718, -28.488939482 ], [ -49.793134790999893, -28.494391337 ], [ -49.790926258, -28.496420219 ], [ -49.783464486999897, -28.496867712 ], [ -49.780580458, -28.495059614999896 ], [ -49.78505777, -28.492630154 ], [ -49.786039511, -28.487652039999908 ], [ -49.778045339, -28.477255971 ], [ -49.778558847999896, -28.475574185 ], [ -49.781545261, -28.474236815 ], [ -49.781007115, -28.471767712 ], [ -49.773207602999896, -28.46822631 ], [ -49.772080283, -28.463361215 ], [ -49.765860834, -28.459147838 ], [ -49.764273371999899, -28.462102318999897 ], [ -49.767567426, -28.476577705 ], [ -49.764891213999903, -28.483460728 ], [ -49.769733077, -28.487637532 ], [ -49.770831681999901, -28.494329281 ], [ -49.76594054, -28.500863884999905 ], [ -49.763901704, -28.501373825 ], [ -49.75443938, -28.498254071 ], [ -49.748261538, -28.493972535 ], [ -49.74298454, -28.495248626 ], [ -49.739266486, -28.500334729 ], [ -49.745278324, -28.503607162 ], [ -49.746559154, -28.506825008 ], [ -49.738817991, -28.508509924 ], [ -49.736233692, -28.513345802999904 ], [ -49.728438801, -28.515728249999899 ], [ -49.726566502, -28.518300997 ], [ -49.735480343999903, -28.523615347 ], [ -49.746720108, -28.535391132 ], [ -49.749448291, -28.542733099 ], [ -49.749180555999892, -28.54647003 ], [ -49.746056219, -28.549775752999903 ], [ -49.741470319, -28.549390851999899 ], [ -49.739104602999902, -28.547340061999897 ], [ -49.737680927, -28.550647034999908 ], [ -49.730901229, -28.551182968 ], [ -49.725977628, -28.569503885 ], [ -49.720689096999905, -28.574283414 ], [ -49.720632978, -28.576902613 ], [ -49.717433747, -28.577098878999905 ], [ -49.713775282, -28.574468523 ], [ -49.713748583, -28.572398176 ], [ -49.712307892999895, -28.572253691999908 ], [ -49.711487665999989, -28.574488689 ], [ -49.712535446999901, -28.576800555 ], [ -49.70914785, -28.578535616 ], [ -49.707968336, -28.582227197999899 ], [ -49.711054370999904, -28.586927848999892 ], [ -49.710169226999895, -28.589773075 ], [ -49.712363887, -28.591185321999902 ], [ -49.711752141, -28.592973942 ], [ -49.712877213, -28.593538362999908 ], [ -49.710386489, -28.596560623 ], [ -49.70858133, -28.596692873999899 ], [ -49.710263407, -28.604161705 ], [ -49.704201274, -28.605742596 ], [ -49.70306699, -28.604353644999904 ], [ -49.698405672, -28.606757248 ], [ -49.696760572, -28.614475545999898 ], [ -49.693371375, -28.616223961999893 ], [ -49.69145986, -28.620169237 ], [ -49.693665079, -28.62555384 ], [ -49.707014745, -28.6304648999999 ], [ -49.707913577999904, -28.630243327999892 ], [ -49.705822503, -28.628102332 ], [ -49.7097174949999, -28.625774604 ], [ -49.71456671, -28.625433689 ], [ -49.715946847999902, -28.623792496 ], [ -49.723424467, -28.626171443 ], [ -49.727548144, -28.624220552999898 ], [ -49.732216535, -28.624148449 ], [ -49.734251221, -28.625344377 ], [ -49.733779752, -28.623626934999898 ], [ -49.744990040999895, -28.624320001999905 ], [ -49.748810421, -28.626862448999901 ], [ -49.748957871, -28.629022485999908 ], [ -49.751363658999892, -28.627339317 ], [ -49.754025484999893, -28.627249306 ], [ -49.754465598, -28.628315992 ], [ -49.756994404999901, -28.627329620999905 ], [ -49.755031895999899, -28.623388604999899 ], [ -49.757032879999898, -28.621777602999895 ], [ -49.756259906, -28.617275821 ], [ -49.757363555, -28.615413857 ], [ -49.761966323, -28.619172884 ], [ -49.763278371999903, -28.618048164999902 ], [ -49.765411458, -28.619322912 ], [ -49.765621382999903, -28.62138606 ], [ -49.769661527, -28.624017137999903 ], [ -49.772011252, -28.627469753999904 ], [ -49.778903928, -28.629480246 ], [ -49.779973551, -28.626259128 ], [ -49.784343701, -28.624379526999984 ], [ -49.784370263, -28.617701296999897 ], [ -49.781302436, -28.612051945 ], [ -49.782557644, -28.609800215999897 ], [ -49.783827985999899, -28.60990756 ], [ -49.79112455699989, -28.615412402999898 ], [ -49.79059411, -28.613830596 ], [ -49.795338752, -28.615166014 ], [ -49.795524073, -28.617278455 ], [ -49.798070623999905, -28.61766986 ], [ -49.798192346999897, -28.624016235999896 ], [ -49.804022088999901, -28.628374961 ], [ -49.807980044, -28.628778130999898 ], [ -49.80900932, -28.631743747 ], [ -49.807520333999896, -28.632748316999894 ], [ -49.808807218, -28.63533941 ], [ -49.814012744, -28.6355044549999 ], [ -49.816616513, -28.638144262 ], [ -49.819002176, -28.642872005999902 ], [ -49.8153946199999, -28.64294204 ], [ -49.8165051, -28.647189644 ], [ -49.81328531, -28.6475567909999 ], [ -49.822748288, -28.654542238 ], [ -49.810097868, -28.651962092 ], [ -49.812943861999891, -28.6538269 ], [ -49.815505361, -28.657993664999896 ], [ -49.823326961, -28.659169801 ], [ -49.824578947, -28.665744332 ], [ -49.828293577, -28.665947036 ], [ -49.829231792, -28.668331253 ], [ -49.834462743999893, -28.665678962 ], [ -49.8391766619999, -28.666541772 ], [ -49.838173583999897, -28.671664611 ], [ -49.841326272999893, -28.676859715 ], [ -49.836382213, -28.678914384999899 ], [ -49.840298586, -28.685873858 ], [ -49.839410468, -28.686828632999894 ], [ -49.836538565, -28.686332397999895 ], [ -49.838010595, -28.690026171999889 ], [ -49.830716888, -28.689196443 ], [ -49.824530095999897, -28.68689963700001 ], [ -49.822618527, -28.688248894 ], [ -49.813498635, -28.687045523999899 ], [ -49.821935496, -28.693220891999893 ], [ -49.828682898, -28.692183068 ], [ -49.834866534, -28.693926497999904 ], [ -49.835418642, -28.697752534 ], [ -49.837771094999894, -28.700716905 ], [ -49.840143650999899, -28.700980124 ], [ -49.842566953, -28.707300732 ], [ -49.836350707, -28.708333989 ], [ -49.842036123, -28.714168629 ], [ -49.844700073, -28.714004895 ], [ -49.842733560999903, -28.709940613 ], [ -49.843379355, -28.708385656 ], [ -49.847389542, -28.709147683 ], [ -49.84630490699989, -28.704461043 ], [ -49.847860751, -28.704760399999898 ], [ -49.847614306, -28.703790214 ], [ -49.852999438, -28.706172410000011 ], [ -49.852114544999893, -28.703888036 ], [ -49.8542360389999, -28.7047184749999 ], [ -49.855049554999901, -28.703353407999892 ], [ -49.860940737999989, -28.703935548999905 ], [ -49.86101023, -28.702794217 ], [ -49.863701057, -28.702931196 ], [ -49.863204720999896, -28.700297604999907 ], [ -49.869377713999896, -28.70101519 ], [ -49.871805927, -28.702986927 ], [ -49.871150077, -28.705972469999899 ], [ -49.869766581, -28.706466460999891 ], [ -49.870187063999893, -28.708724678 ], [ -49.868743934999898, -28.709656079 ], [ -49.871589937999893, -28.712544319999903 ], [ -49.872918886, -28.716362919999899 ], [ -49.868962328999892, -28.71604387 ], [ -49.875034391, -28.722533923 ], [ -49.8680198449999, -28.721958517 ], [ -49.873972588, -28.726765456 ], [ -49.871124692, -28.727255159 ], [ -49.875183279999895, -28.728126367999899 ], [ -49.883318749999894, -28.737699031 ], [ -49.878219569, -28.736755729 ], [ -49.880098671, -28.741289444999893 ], [ -49.8781412169999, -28.743730232 ], [ -49.874813853, -28.743679362 ], [ -49.874793128, -28.744631964 ], [ -49.881335173, -28.746520846 ], [ -49.88563946499989, -28.745685362 ], [ -49.888382645, -28.746665119999896 ], [ -49.889155552, -28.745701012 ], [ -49.88658456, -28.739596143 ], [ -49.895730913, -28.739271368999901 ], [ -49.89105775, -28.738208110999903 ], [ -49.88599779, -28.730329711 ], [ -49.884668104999896, -28.725824096999897 ], [ -49.881063493999903, -28.72228787300001 ], [ -49.882554087999907, -28.717387518 ], [ -49.893262767999893, -28.722883464999899 ], [ -49.896553065, -28.725979105 ], [ -49.897536134999903, -28.7213092769999 ], [ -49.904860841999891, -28.718478439 ], [ -49.91365729599989, -28.7244772029999 ], [ -49.90794902399989, -28.713774516999894 ], [ -49.905860768, -28.712265416 ], [ -49.904945736999892, -28.707613446 ], [ -49.912269099, -28.713818219 ], [ -49.915095761, -28.71466043 ], [ -49.916636966999903, -28.717378594 ], [ -49.92604066, -28.718312809999894 ], [ -49.934677846999897, -28.725676495999885 ], [ -49.932823946, -28.730778121999894 ], [ -49.928854789999896, -28.732874111999898 ], [ -49.932171368999896, -28.735757222 ], [ -49.931123124, -28.738379107 ], [ -49.928667129, -28.739293824999898 ], [ -49.927547365, -28.741668451999903 ], [ -49.925519618, -28.740311373999901 ], [ -49.924574280999892, -28.743673024 ], [ -49.922524148, -28.743808353 ], [ -49.921743716, -28.745542585999903 ], [ -49.928821093, -28.749704666999904 ], [ -49.927593276, -28.753767024 ], [ -49.935029986, -28.755297259 ], [ -49.936238655999894, -28.756863188999894 ], [ -49.944454916, -28.751982187 ], [ -49.950757645, -28.753252437 ], [ -49.948791378, -28.756736337999904 ], [ -49.953430876, -28.758013981 ], [ -49.950247872, -28.763426852 ], [ -49.952009322, -28.7651997739999 ], [ -49.951110112, -28.766663372 ], [ -49.95420286, -28.766739776999902 ], [ -49.955373581999901, -28.7690904359999 ], [ -49.958147437, -28.768871089999902 ], [ -49.961332851, -28.772180407999905 ], [ -49.958532877, -28.776105315999892 ], [ -49.962172801, -28.777604009 ], [ -49.960730263, -28.781490138 ], [ -49.9569943119999, -28.78361072 ], [ -49.959489006999895, -28.78665489 ], [ -49.9578007819999, -28.794726249999893 ], [ -49.95381399, -28.799287515999897 ], [ -49.950889012999902, -28.800426208 ], [ -49.950558428, -28.802116468 ], [ -49.959632242999895, -28.798089069 ], [ -49.962702412999903, -28.799110438 ], [ -49.961724728, -28.806705469 ], [ -49.9644026349999, -28.811201482999891 ], [ -49.966144137999898, -28.821327916 ], [ -49.964254758, -28.829059638999986 ], [ -49.957818308, -28.829101346 ], [ -49.956891296, -28.834646996999901 ], [ -49.95845406, -28.834688959999905 ], [ -49.960365185999898, -28.838136082999895 ], [ -49.959622187, -28.840578171999901 ], [ -49.960456163999901, -28.844053315999897 ], [ -49.961812633, -28.844562397999898 ], [ -49.959827383999901, -28.847729774 ], [ -49.962390493, -28.852416631 ], [ -49.956463339, -28.856190212999898 ], [ -49.956006077, -28.8588348 ], [ -49.957085831, -28.861767058999902 ], [ -49.961749187, -28.863903503999893 ], [ -49.968715728999904, -28.869666584999894 ], [ -49.969870402, -28.876492802 ], [ -49.967135228, -28.876692471999895 ], [ -49.956760652, -28.87036333 ], [ -49.951531723999892, -28.870391858999906 ], [ -49.952421757, -28.873038218 ], [ -49.949488581, -28.875714189 ], [ -49.954195042, -28.878413221 ], [ -49.953858144, -28.880344217 ], [ -49.950527011, -28.880587321000011 ], [ -49.941175659999899, -28.87628311 ], [ -49.938348775999891, -28.8726204 ], [ -49.932108131999897, -28.872202869 ], [ -49.936378066, -28.874681296999899 ], [ -49.938224866, -28.879651904 ], [ -49.940966476, -28.87874758 ], [ -49.943589878, -28.879658345999893 ], [ -49.946225610999896, -28.885187002 ], [ -49.9504252, -28.88692872 ], [ -49.951134298999897, -28.88816188600001 ], [ -49.948236043999898, -28.890008124 ], [ -49.951057084, -28.891509452 ], [ -49.950850746999897, -28.893470316999984 ], [ -49.965484736999898, -28.896515540999896 ], [ -49.969345452, -28.898625844 ], [ -49.9699530789999, -28.901481406999888 ], [ -49.974483861, -28.902002309999904 ], [ -49.978464776, -28.8978473069999 ], [ -49.981005896999903, -28.899175489 ], [ -49.98349124, -28.897349156 ], [ -49.98658133299989, -28.898062831999905 ], [ -49.988725589, -28.897178674 ], [ -49.991468926, -28.892374619 ], [ -49.996007581999891, -28.893830323 ], [ -49.999898108, -28.888122983 ], [ -50.008454667, -28.889417959999893 ], [ -50.011028242999899, -28.884382237999898 ], [ -50.008547955, -28.881920158999897 ], [ -50.014600899, -28.876224869999898 ], [ -50.014579219, -28.868983145 ], [ -50.018039965, -28.870394528 ], [ -50.020679438999899, -28.869893851 ], [ -50.022798942, -28.867886509 ], [ -50.020647064999899, -28.866253415999903 ], [ -50.022736828999896, -28.862361022 ], [ -50.027958557, -28.860990974999904 ], [ -50.029659189, -28.858016925999905 ] ] ] } }
]
}
