{
"type": "FeatureCollection",
"name": "bairros_jaguari",
"crs": { "type": "name", "properties": { "name": "urn:ogc:def:crs:OGC:1.3:CRS84" } },
"features": [
{ "type": "Feature", "properties": { "name": "Nossa Senhora de Lourdes", "code_muni": 4311106.0, "name_muni": "Jaguari" }, "geometry": { "type": "Polygon", "coordinates": [ [ [ -54.6903679, -29.4861804 ], [ -54.6869154, -29.4861315 ], [ -54.6868394, -29.490205299999989 ], [ -54.6871868, -29.4902102 ], [ -54.6873826, -29.490238199999986 ], [ -54.6875623, -29.4902125 ], [ -54.6877916, -29.4901345 ], [ -54.688967, -29.4898029 ], [ -54.6898439, -29.4897991 ], [ -54.6899163, -29.4893288 ], [ -54.6899928, -29.4888327 ], [ -54.6900339, -29.487925799999989 ], [ -54.6903612, -29.486539 ], [ -54.6903679, -29.4861804 ] ] ] } },
{ "type": "Feature", "properties": { "name": "Rivera", "code_muni": 4311106.0, "name_muni": "Jaguari" }, "geometry": { "type": "Polygon", "coordinates": [ [ [ -54.6767498, -29.5088079 ], [ -54.6768285, -29.5092166 ], [ -54.676913, -29.5094901 ], [ -54.6770361, -29.5105431 ], [ -54.6771012, -29.5110935 ], [ -54.6772256, -29.5121102 ], [ -54.6773927, -29.5121307 ], [ -54.6777052, -29.51221 ], [ -54.6778768, -29.512119 ], [ -54.6779664, -29.5121402 ], [ -54.6779334, -29.511825699999989 ], [ -54.677937, -29.5117566 ], [ -54.6780127, -29.511698600000013 ], [ -54.6780943, -29.511639299999988 ], [ -54.6780566, -29.511595 ], [ -54.6779978, -29.511584 ], [ -54.677863, -29.5114016 ], [ -54.6779253, -29.5112963 ], [ -54.6781282, -29.5112744 ], [ -54.6783034, -29.5113421 ], [ -54.6784261, -29.5114473 ], [ -54.6785088, -29.511588 ], [ -54.6786431, -29.5116632 ], [ -54.6787298, -29.5116521 ], [ -54.6789122, -29.5114374 ], [ -54.6790409, -29.5111293 ], [ -54.6791482, -29.5109472 ], [ -54.6794754, -29.5106578 ], [ -54.6795988, -29.5105831 ], [ -54.6797864, -29.510557 ], [ -54.679969, -29.5105317 ], [ -54.6805583, -29.5103744 ], [ -54.6817035, -29.510646600000012 ], [ -54.6822447, -29.5109199 ], [ -54.6824548, -29.5109864 ], [ -54.6826831, -29.5109487 ], [ -54.6830048, -29.5109366 ], [ -54.6832222, -29.5108142 ], [ -54.6834603, -29.5106719 ], [ -54.6837744, -29.5104651 ], [ -54.6839583, -29.5102302 ], [ -54.6841123, -29.5099538 ], [ -54.6841985, -29.5094731 ], [ -54.6842961, -29.5092512 ], [ -54.6845355, -29.509017 ], [ -54.6848031, -29.5089603 ], [ -54.6850393, -29.5089532 ], [ -54.6851816, -29.5087084 ], [ -54.6856064, -29.5087482 ], [ -54.6858024, -29.5087286 ], [ -54.685839, -29.5085889 ], [ -54.6863159, -29.5076834 ], [ -54.6867799, -29.5068847 ], [ -54.6870534, -29.5064138 ], [ -54.687473, -29.5056657 ], [ -54.6876368, -29.5049531 ], [ -54.6879066, -29.5037507 ], [ -54.6879165, -29.5037017 ], [ -54.688156, -29.5022851 ], [ -54.6884964, -29.5016665 ], [ -54.6885271, -29.501283499999989 ], [ -54.6885783, -29.5010341 ], [ -54.6885885, -29.5003928 ], [ -54.6885578, -29.4998406 ], [ -54.6884903, -29.4993705 ], [ -54.6884685, -29.4992689 ], [ -54.6883177, -29.4982717 ], [ -54.688268, -29.4972259 ], [ -54.68909, -29.4942735 ], [ -54.6887932, -29.493935 ], [ -54.6877289, -29.4933738 ], [ -54.6873297, -29.4932937 ], [ -54.6846562, -29.4930277 ], [ -54.6838912, -29.493309699999987 ], [ -54.6832708, -29.4939965 ], [ -54.6827448, -29.4952819 ], [ -54.6820502, -29.4967199 ], [ -54.6813152, -29.4979584 ], [ -54.6806678, -29.4991968 ], [ -54.6793528, -29.5007991 ], [ -54.6792624, -29.5010593 ], [ -54.6792546, -29.5010817 ], [ -54.6791766, -29.501517 ], [ -54.6790264, -29.5015224 ], [ -54.6788234, -29.5017676 ], [ -54.678818, -29.5020745 ], [ -54.6787729, -29.502284 ], [ -54.6785908, -29.5027242 ], [ -54.6783964, -29.5030087 ], [ -54.6782199, -29.5032524 ], [ -54.6772758, -29.503575199999986 ], [ -54.6760687, -29.5035928 ], [ -54.6753809, -29.5034696 ], [ -54.6752482, -29.5033207 ], [ -54.6751517, -29.5033607 ], [ -54.6744651, -29.5031833 ], [ -54.6735853, -29.502539 ], [ -54.6733922, -29.5023756 ], [ -54.6732862, -29.5020581 ], [ -54.6729684, -29.501862 ], [ -54.672739, -29.5016309 ], [ -54.6727431, -29.5014838 ], [ -54.6725875, -29.501241 ], [ -54.6727002, -29.5011197 ], [ -54.672845, -29.5004567 ], [ -54.6731454, -29.5003586 ], [ -54.6734297, -29.5001672 ], [ -54.6736443, -29.49991510000001 ], [ -54.6737731, -29.4996443 ], [ -54.6737784, -29.4993921 ], [ -54.6735317, -29.4992334 ], [ -54.6735317, -29.4991213 ], [ -54.6736765, -29.4989953 ], [ -54.6736497, -29.4988972 ], [ -54.6734673, -29.4987805 ], [ -54.67336, -29.4986871 ], [ -54.6733278, -29.498435 ], [ -54.6733922, -29.4982436 ], [ -54.6735209, -29.4976226 ], [ -54.6734244, -29.4972677 ], [ -54.6733224, -29.4971417 ], [ -54.6732213, -29.4970425 ], [ -54.6726331, -29.4974288 ], [ -54.6719975, -29.49803 ], [ -54.6717252, -29.498296099999987 ], [ -54.6714865, -29.4985762 ], [ -54.6712076, -29.4990641 ], [ -54.6710519, -29.4994914 ], [ -54.6709996, -29.499878899999985 ], [ -54.6710157, -29.5003843 ], [ -54.6710559, -29.5006024 ], [ -54.6711045, -29.5008189 ], [ -54.6712596, -29.5012316 ], [ -54.6715135, -29.5016666 ], [ -54.6720557, -29.502300800000015 ], [ -54.6725194, -29.5028048 ], [ -54.6730714, -29.5034446 ], [ -54.6747522, -29.5053212 ], [ -54.674852, -29.5054421 ], [ -54.675062, -29.5057014 ], [ -54.6754279, -29.506191299999987 ], [ -54.6757337, -29.5066066 ], [ -54.6760978, -29.507162 ], [ -54.676174, -29.5073658 ], [ -54.6763683, -29.5077237 ], [ -54.6765412, -29.5080993 ], [ -54.6766222, -29.5083068 ], [ -54.6766857, -29.508556 ], [ -54.6767046, -29.5086286 ], [ -54.6767235, -29.5086955 ], [ -54.6767498, -29.5088079 ] ], [ [ -54.6829348, -29.5057928 ], [ -54.6828886, -29.5028231 ], [ -54.6831695, -29.5028022 ], [ -54.6837175, -29.5027979 ], [ -54.6839333, -29.5028133 ], [ -54.6841619, -29.5028592 ], [ -54.6843252, -29.502905500000011 ], [ -54.6844176, -29.5029505 ], [ -54.6846782, -29.5030497 ], [ -54.6854893, -29.5034203 ], [ -54.6859214, -29.5035647 ], [ -54.6863742, -29.5036188 ], [ -54.6865351, -29.5036332 ], [ -54.6866376, -29.5056529 ], [ -54.6829348, -29.5057928 ] ] ] } },
{ "type": "Feature", "properties": { "name": "Nossa Senhora Aparecida", "code_muni": 4311106.0, "name_muni": "Jaguari" }, "geometry": { "type": "Polygon", "coordinates": [ [ [ -54.6863742, -29.5036188 ], [ -54.6859214, -29.5035647 ], [ -54.6854893, -29.5034203 ], [ -54.6846782, -29.5030497 ], [ -54.6844176, -29.5029505 ], [ -54.6843252, -29.502905500000011 ], [ -54.6841619, -29.5028592 ], [ -54.6839333, -29.5028133 ], [ -54.6837175, -29.5027979 ], [ -54.6831695, -29.5028022 ], [ -54.6828886, -29.5028231 ], [ -54.6829348, -29.5057928 ], [ -54.6866376, -29.5056529 ], [ -54.6865351, -29.5036332 ], [ -54.6863742, -29.5036188 ] ] ] } },
{ "type": "Feature", "properties": { "name": "Consolata", "code_muni": 4311106.0, "name_muni": "Jaguari" }, "geometry": { "type": "Polygon", "coordinates": [ [ [ -54.703854, -29.5104337 ], [ -54.7038728, -29.5108142 ], [ -54.704648, -29.510916900000012 ], [ -54.7073267, -29.5108211 ], [ -54.7073376, -29.510820699999986 ], [ -54.7073955, -29.5108184 ], [ -54.7073949, -29.5106336 ], [ -54.7073863, -29.5101845 ], [ -54.7073776, -29.5097294 ], [ -54.7073689, -29.5092732 ], [ -54.7073597, -29.5087935 ], [ -54.7073583, -29.5087215 ], [ -54.7073516, -29.5083705 ], [ -54.7073465, -29.5081053 ], [ -54.7073393, -29.5077649 ], [ -54.7073279, -29.5071345 ], [ -54.7073252, -29.5069933 ], [ -54.7064341, -29.5066172 ], [ -54.7053426, -29.50615650000001 ], [ -54.7050569, -29.506036 ], [ -54.7040266, -29.5056011 ], [ -54.7039372, -29.50578380000001 ], [ -54.7039747, -29.5065354 ], [ -54.7039581, -29.5078212 ], [ -54.7039173, -29.5101255 ], [ -54.7039172, -29.510131 ], [ -54.703854, -29.5104337 ] ] ] } },
{ "type": "Feature", "properties": { "name": "Promorar", "code_muni": 4311106.0, "name_muni": "Jaguari" }, "geometry": { "type": "Polygon", "coordinates": [ [ [ -54.6989631, -29.4965202 ], [ -54.6989999, -29.4985792 ], [ -54.7022563, -29.498535 ], [ -54.7023118, -29.498435 ], [ -54.7022528, -29.498337 ], [ -54.7021508, -29.4981175 ], [ -54.7022313, -29.49787 ], [ -54.7022957, -29.4977113 ], [ -54.7021776, -29.4975806 ], [ -54.7023118, -29.497183699999987 ], [ -54.7023547, -29.4967635 ], [ -54.7023279, -29.4966281 ], [ -54.7025086, -29.4964596 ], [ -54.6989631, -29.4965202 ] ] ] } },
{ "type": "Feature", "properties": { "name": "Santa Rosa", "code_muni": 4311106.0, "name_muni": "Jaguari" }, "geometry": { "type": "Polygon", "coordinates": [ [ [ -54.6992702, -29.484904100000012 ], [ -54.694944, -29.4849092 ], [ -54.6949716, -29.4898007 ], [ -54.6949408, -29.4933634 ], [ -54.6949407, -29.4934045 ], [ -54.6949261, -29.4939199 ], [ -54.6949364, -29.4942529 ], [ -54.6949621, -29.494299 ], [ -54.6962514, -29.4942923 ], [ -54.6965942, -29.4942905 ], [ -54.6968266, -29.4942892 ], [ -54.6969918, -29.4942884 ], [ -54.6975926, -29.4942852 ], [ -54.697779, -29.4942835 ], [ -54.6985584, -29.4942814 ], [ -54.6992755, -29.4942763 ], [ -54.6994234, -29.4942699 ], [ -54.6994389, -29.4937531 ], [ -54.6994086, -29.4930931 ], [ -54.6993676, -29.4929378 ], [ -54.699336, -29.4923029 ], [ -54.6993204, -29.4912529 ], [ -54.6992923, -29.4897805 ], [ -54.6992978, -29.4883804 ], [ -54.6992702, -29.484904100000012 ] ] ] } },
{ "type": "Feature", "properties": { "name": "Sagrado Coração de Jesus", "code_muni": 4311106.0, "name_muni": "Jaguari" }, "geometry": { "type": "Polygon", "coordinates": [ [ [ -54.6890944, -29.5077562 ], [ -54.68910850000001, -29.5079659 ], [ -54.6892248, -29.508225 ], [ -54.6894318, -29.5084791 ], [ -54.6894374, -29.5085778 ], [ -54.6892475, -29.5086321 ], [ -54.6887229, -29.5085778 ], [ -54.6886152, -29.5086568 ], [ -54.6885131, -29.5089208 ], [ -54.6885358, -29.5090393 ], [ -54.6885822, -29.5093609 ], [ -54.68834720000001, -29.5094381 ], [ -54.6881867, -29.5095838 ], [ -54.693827, -29.5095514 ], [ -54.6945346, -29.509542599999985 ], [ -54.6945358, -29.5090867 ], [ -54.6945272, -29.5086047 ], [ -54.6945358, -29.5077563 ], [ -54.694532, -29.5063625 ], [ -54.6950891, -29.506357 ], [ -54.696791, -29.506340100000013 ], [ -54.6968036, -29.5051188 ], [ -54.6967941, -29.5025521 ], [ -54.6965991, -29.5025117 ], [ -54.6964679, -29.5024012 ], [ -54.6964075, -29.5023517 ], [ -54.696395, -29.5023412 ], [ -54.6963386, -29.502342500000012 ], [ -54.6962931, -29.5023443 ], [ -54.6939822, -29.5024027 ], [ -54.6937132, -29.5024085 ], [ -54.6934454, -29.5024761 ], [ -54.6929588, -29.5026708 ], [ -54.6925464, -29.5028057 ], [ -54.6925568, -29.5028956 ], [ -54.6925843, -29.5030193 ], [ -54.6925928, -29.5040279 ], [ -54.6925812, -29.5051279 ], [ -54.692864, -29.5051344 ], [ -54.6929268, -29.505142 ], [ -54.6928851, -29.5053848 ], [ -54.6927859, -29.5056711 ], [ -54.6926668, -29.5060141 ], [ -54.6925789, -29.5061078 ], [ -54.6923011, -29.5060684 ], [ -54.6920175, -29.5060437 ], [ -54.691924, -29.506115199999986 ], [ -54.6918191, -29.5062682 ], [ -54.6915469, -29.5065175 ], [ -54.6912435, -29.50671980000001 ], [ -54.690753, -29.5068777 ], [ -54.6901973, -29.5070159 ], [ -54.6899676, -29.5072034 ], [ -54.6899563, -29.5074008 ], [ -54.6894941, -29.5075242 ], [ -54.6892513, -29.5076651 ], [ -54.6890944, -29.5077562 ] ] ] } },
{ "type": "Feature", "properties": { "name": "Mauá", "code_muni": 4311106.0, "name_muni": "Jaguari" }, "geometry": { "type": "Polygon", "coordinates": [ [ [ -54.6917291, -29.5030859 ], [ -54.6908727, -29.5033777 ], [ -54.690082, -29.5036635 ], [ -54.689633, -29.5037762 ], [ -54.6893307, -29.5038369 ], [ -54.6890601, -29.5038455 ], [ -54.6889828, -29.5038361 ], [ -54.6888659, -29.503821799999987 ], [ -54.6887835, -29.5038117 ], [ -54.6885768, -29.5038481 ], [ -54.6886785, -29.5040432 ], [ -54.6886825, -29.5047447 ], [ -54.6886785, -29.5053135 ], [ -54.6888229, -29.5056031 ], [ -54.6889793, -29.5057776 ], [ -54.6889311, -29.5061126 ], [ -54.6889271, -29.5064023 ], [ -54.6889271, -29.5067478 ], [ -54.6889632, -29.5072328 ], [ -54.6890835, -29.5074178 ], [ -54.6892513, -29.5076651 ], [ -54.6894941, -29.5075242 ], [ -54.6899563, -29.5074008 ], [ -54.6899676, -29.5072034 ], [ -54.6901973, -29.5070159 ], [ -54.690753, -29.5068777 ], [ -54.6912435, -29.50671980000001 ], [ -54.6915469, -29.5065175 ], [ -54.6918191, -29.5062682 ], [ -54.691924, -29.506115199999986 ], [ -54.6920175, -29.5060437 ], [ -54.6923011, -29.5060684 ], [ -54.6925789, -29.5061078 ], [ -54.6926668, -29.5060141 ], [ -54.6927859, -29.5056711 ], [ -54.6928851, -29.5053848 ], [ -54.6929268, -29.505142 ], [ -54.692864, -29.5051344 ], [ -54.6925812, -29.5051279 ], [ -54.6925928, -29.5040279 ], [ -54.6925843, -29.5030193 ], [ -54.6925568, -29.5028956 ], [ -54.6925464, -29.5028057 ], [ -54.6917291, -29.5030859 ] ] ] } },
{ "type": "Feature", "properties": { "name": "Centro", "code_muni": 4311106.0, "name_muni": "Jaguari" }, "geometry": { "type": "Polygon", "coordinates": [ [ [ -54.6949621, -29.494299 ], [ -54.6949364, -29.4942529 ], [ -54.6949261, -29.4939199 ], [ -54.6949407, -29.4934045 ], [ -54.6949408, -29.4933634 ], [ -54.6949716, -29.4898007 ], [ -54.6947922, -29.4898028 ], [ -54.6937477, -29.4898066 ], [ -54.6936453, -29.4898067 ], [ -54.6924454, -29.4898275 ], [ -54.6923522, -29.4898285 ], [ -54.6917387, -29.4898212 ], [ -54.691274300000011, -29.4898157 ], [ -54.6911919, -29.48981770000001 ], [ -54.6904089, -29.4897967 ], [ -54.6900632, -29.4897982 ], [ -54.6900643, -29.4905818 ], [ -54.6900524, -29.4912688 ], [ -54.6896157, -29.4935529 ], [ -54.6895812, -29.4939974 ], [ -54.6896324, -29.4945853 ], [ -54.6894686, -29.4950395 ], [ -54.6894686, -29.4952711 ], [ -54.689049, -29.4961441 ], [ -54.6890081, -29.4981749 ], [ -54.6891616, -29.4991102 ], [ -54.6892343, -29.4993906 ], [ -54.6892342, -29.499407299999987 ], [ -54.6892332, -29.5000009 ], [ -54.6891748, -29.5006571 ], [ -54.6891833, -29.5011533 ], [ -54.6890695, -29.5018001 ], [ -54.6889191, -29.5020315 ], [ -54.6886704, -29.503154 ], [ -54.6885952, -29.5037118 ], [ -54.6885861, -29.5037791 ], [ -54.6887835, -29.5038117 ], [ -54.6888659, -29.503821799999987 ], [ -54.6889828, -29.5038361 ], [ -54.6890601, -29.5038455 ], [ -54.6893307, -29.5038369 ], [ -54.689633, -29.5037762 ], [ -54.690082, -29.5036635 ], [ -54.6908727, -29.5033777 ], [ -54.6917291, -29.5030859 ], [ -54.6925464, -29.5028057 ], [ -54.6929588, -29.5026708 ], [ -54.6934454, -29.5024761 ], [ -54.6937132, -29.5024085 ], [ -54.6939822, -29.5024027 ], [ -54.6962931, -29.5023443 ], [ -54.6963386, -29.502342500000012 ], [ -54.696395, -29.5023412 ], [ -54.6964154, -29.5023413 ], [ -54.6964967, -29.50234 ], [ -54.6962981, -29.5021702 ], [ -54.696251, -29.502049199999984 ], [ -54.696514, -29.5019406 ], [ -54.6965241, -29.5017411 ], [ -54.6964536, -29.5013307 ], [ -54.6964436, -29.5012222 ], [ -54.6963775, -29.5007833 ], [ -54.6963557, -29.4996669 ], [ -54.6963349, -29.4985952 ], [ -54.6963136, -29.4974998 ], [ -54.6962927, -29.496428 ], [ -54.6962708, -29.4953142 ], [ -54.696252, -29.4944077 ], [ -54.6962514, -29.4942923 ], [ -54.6949621, -29.494299 ] ] ] } }
]
}
