{
"type": "FeatureCollection",
"name": "bairros_palmares_do_sul",
"crs": { "type": "name", "properties": { "name": "urn:ogc:def:crs:OGC:1.3:CRS84" } },
"features": [
{ "type": "Feature", "properties": { "code_muni": 4313656.0, "name_muni": "Palmares do Sul", "code_state": 43.0, "abbrev_state": "RS", "name_state": "Rio Grande do Sul", "code_region": 4.0, "name_region": "Sul", "year": 2022.0 }, "geometry": { "type": "Polygon", "coordinates": [ [ [ -50.251901245999903, -30.304877615999903 ], [ -50.304050834999899, -30.442389071 ], [ -50.320715917, -30.47687486 ], [ -50.334255798999891, -30.500802007999912 ], [ -50.686429991, -30.500800317 ], [ -50.696375588, -30.441098821 ], [ -50.700513052, -30.424762646 ], [ -50.707880117999892, -30.409152960000011 ], [ -50.724777876, -30.383973606000012 ], [ -50.729115699, -30.375029263999988 ], [ -50.72949418, -30.368137279999889 ], [ -50.726298468, -30.365069461 ], [ -50.721924328999897, -30.36395226 ], [ -50.721856149, -30.360882449 ], [ -50.71754034500001, -30.351986365999899 ], [ -50.71571789099989, -30.351346670999884 ], [ -50.710834293999902, -30.353967635999904 ], [ -50.708455953999902, -30.35386277 ], [ -50.70558487999989, -30.347630926 ], [ -50.699101496, -30.345990314999895 ], [ -50.69892148, -30.350109286 ], [ -50.693650928999901, -30.351694138 ], [ -50.686698256999897, -30.356837816999903 ], [ -50.679627038, -30.368818073999901 ], [ -50.65846878, -30.384288141999892 ], [ -50.653383698, -30.389665906999902 ], [ -50.648749979999891, -30.391322782 ], [ -50.647879691999897, -30.395465322999907 ], [ -50.645673065, -30.396702983 ], [ -50.643441884, -30.395919292 ], [ -50.641233907999897, -30.392909088999911 ], [ -50.644792668, -30.388204706 ], [ -50.641218583999894, -30.386699748999884 ], [ -50.638704375, -30.387044338 ], [ -50.640843431, -30.388718003 ], [ -50.63459863, -30.39324141 ], [ -50.629637664, -30.391531898 ], [ -50.623994629, -30.392101953999902 ], [ -50.635298385999896, -30.387379457 ], [ -50.634673904, -30.38613314 ], [ -50.631258754, -30.38655354 ], [ -50.630182493999889, -30.383097345999897 ], [ -50.636223254999891, -30.381080751999892 ], [ -50.637920662999896, -30.378931571 ], [ -50.632116289999892, -30.374885112 ], [ -50.630583499999894, -30.367629985 ], [ -50.630971198999902, -30.3614274339999 ], [ -50.633801704999897, -30.356998371 ], [ -50.635617023, -30.341003078 ], [ -50.63257221, -30.3325139949999 ], [ -50.628614571999897, -30.3283004849999 ], [ -50.625066454, -30.328410064 ], [ -50.626419800999898, -30.34369013 ], [ -50.620663298, -30.356773308 ], [ -50.596732067999895, -30.391018582999894 ], [ -50.593358174999892, -30.394166269 ], [ -50.593098814, -30.400342166 ], [ -50.596656453, -30.401804734999896 ], [ -50.603938391, -30.399597613 ], [ -50.611751431, -30.405267407999897 ], [ -50.616106492, -30.404332924999895 ], [ -50.619646271, -30.406719135999904 ], [ -50.620933925, -30.409353499 ], [ -50.619679699, -30.410307966999902 ], [ -50.621977269999903, -30.412159991 ], [ -50.625563134999901, -30.411889392 ], [ -50.629136734, -30.407040791999989 ], [ -50.633294342999896, -30.406183558999903 ], [ -50.642363296, -30.409720894 ], [ -50.645687344999892, -30.412653385999899 ], [ -50.650184152999891, -30.413571745999899 ], [ -50.653734011, -30.417494041999891 ], [ -50.656430566, -30.426257776999908 ], [ -50.656425941999899, -30.430846113 ], [ -50.653096212, -30.43981338 ], [ -50.654407106999891, -30.442961797999896 ], [ -50.652091117999902, -30.444747396 ], [ -50.651027752999902, -30.4488543259999 ], [ -50.649210092, -30.448674323 ], [ -50.647808685, -30.450512131 ], [ -50.649217241, -30.453605421 ], [ -50.640415494, -30.463397022999988 ], [ -50.634784088999901, -30.466203701 ], [ -50.630789641, -30.470685471999989 ], [ -50.6145244699999, -30.482028065 ], [ -50.611097904, -30.485710938 ], [ -50.597138276, -30.4908859939999 ], [ -50.582661198, -30.490135548 ], [ -50.574420037, -30.481475761 ], [ -50.574590491, -30.477594063 ], [ -50.57132618899989, -30.471059071999896 ], [ -50.574501247999898, -30.464323572 ], [ -50.572331979999895, -30.460914018 ], [ -50.568671281, -30.458420578999899 ], [ -50.567464738, -30.450649887999905 ], [ -50.565609456999894, -30.448012749999986 ], [ -50.564514472, -30.437576389 ], [ -50.567039198, -30.429701866999899 ], [ -50.564663083, -30.423041404999893 ], [ -50.562923939, -30.409688785 ], [ -50.565627434, -30.404206344999988 ], [ -50.565331817, -30.397875421 ], [ -50.5674667769999, -30.395712605 ], [ -50.565637061, -30.387912017 ], [ -50.559098495999898, -30.379313496999885 ], [ -50.558551321, -30.375476010999897 ], [ -50.55365907999991, -30.371572804999989 ], [ -50.551070281, -30.366428775 ], [ -50.553548167, -30.3656910569999 ], [ -50.553425309, -30.364121455 ], [ -50.549578709999892, -30.363917337 ], [ -50.545316332, -30.355979380999898 ], [ -50.543696712, -30.342150304 ], [ -50.546605657, -30.338752777 ], [ -50.546262581, -30.331224636999885 ], [ -50.549502871, -30.326613669 ], [ -50.555442495, -30.32205741 ], [ -50.55576546399989, -30.320112892999905 ], [ -50.55538316, -30.316831297 ], [ -50.543012059, -30.299922414 ], [ -50.542173506, -30.2906039229999 ], [ -50.543833166, -30.281954265 ], [ -50.542417631, -30.278556173 ], [ -50.5392095569999, -30.276669012 ], [ -50.537779557, -30.273866221999988 ], [ -50.539129897, -30.269109047 ], [ -50.538527621, -30.26461755 ], [ -50.542996241, -30.254978519 ], [ -50.543539021999898, -30.238244865 ], [ -50.541322537, -30.207793491 ], [ -50.537326919999892, -30.202943045 ], [ -50.535201996999895, -30.20353948 ], [ -50.534114121999899, -30.207123875999986 ], [ -50.529324776, -30.209262158999884 ], [ -50.528693281999892, -30.213393902999904 ], [ -50.525484773999892, -30.21754936 ], [ -50.524384902, -30.222048991000012 ], [ -50.52051912, -30.22139678 ], [ -50.510174221999897, -30.214531302999898 ], [ -50.503221493999902, -30.213645071999988 ], [ -50.491225977999896, -30.209833549999903 ], [ -50.48557951, -30.206240690999902 ], [ -50.480238121, -30.204711485 ], [ -50.477061627999902, -30.201654936 ], [ -50.47163539, -30.205101469999899 ], [ -50.4564535499999, -30.204265334999896 ], [ -50.452985519, -30.202548587 ], [ -50.451899235, -30.200189598 ], [ -50.447263203, -30.199783941 ], [ -50.436768749, -30.206826312 ], [ -50.437387085999895, -30.208639197 ], [ -50.418952894, -30.210829436 ], [ -50.412257505999889, -30.209892295 ], [ -50.412173783, -30.216258728999897 ], [ -50.4136959739999, -30.220556663 ], [ -50.390299582999894, -30.211061094999899 ], [ -50.380463683, -30.211100232 ], [ -50.362757266, -30.205550713 ], [ -50.356914399999901, -30.19676068 ], [ -50.341478886999909, -30.203046319 ], [ -50.292798553, -30.213702289 ], [ -50.269000971, -30.222387054 ], [ -50.264821414, -30.227236737999892 ], [ -50.265841498, -30.228100183 ], [ -50.268695874999892, -30.2267288799999 ], [ -50.270716632999893, -30.224190077999896 ], [ -50.271382955, -30.226107343 ], [ -50.268639627, -30.231159005999899 ], [ -50.261892162, -30.237482561 ], [ -50.265482678, -30.239081467999902 ], [ -50.267556438, -30.238325542 ], [ -50.268894788, -30.24003017 ], [ -50.26926137, -30.246511691999988 ], [ -50.266080498, -30.251555324 ], [ -50.266503508, -30.254276789999899 ], [ -50.268234858, -30.253793926999901 ], [ -50.274618054, -30.2422039849999 ], [ -50.2804030839999, -30.241428643999889 ], [ -50.28617095, -30.244998914 ], [ -50.286906433999903, -30.248205013 ], [ -50.283983362, -30.253338520999908 ], [ -50.285109172, -30.256508519 ], [ -50.288938653999899, -30.257639722 ], [ -50.289487126, -30.259928901 ], [ -50.284340108, -30.268729216999908 ], [ -50.280950141999902, -30.271718608999908 ], [ -50.290744921999902, -30.283099477999897 ], [ -50.289527886, -30.284887242 ], [ -50.290539926, -30.286755209 ], [ -50.288020178999901, -30.288885149 ], [ -50.289378734, -30.291432137 ], [ -50.251901245999903, -30.304877615999903 ] ] ] } }
]
}
