{
"type": "FeatureCollection",
"name": "bairros_arroio_do_meio",
"crs": { "type": "name", "properties": { "name": "urn:ogc:def:crs:OGC:1.3:CRS84" } },
"features": [
{ "type": "Feature", "properties": { "name": "Dom Pedro II", "code_muni": 4301008.0, "name_muni": "Arroio do Meio" }, "geometry": { "type": "Polygon", "coordinates": [ [ [ -51.9291683, -29.3832629 ], [ -51.9309284, -29.3844923 ], [ -51.9310329, -29.384562699999986 ], [ -51.9325969, -29.3856163 ], [ -51.9331917, -29.386017 ], [ -51.9336321, -29.386315499999988 ], [ -51.9341363, -29.3866412 ], [ -51.9349385, -29.3871903 ], [ -51.9347763, -29.3880085 ], [ -51.9340221, -29.391055199999986 ], [ -51.9338322, -29.3918225 ], [ -51.9352872, -29.3950064 ], [ -51.9355717, -29.394769 ], [ -51.9359628, -29.3944542 ], [ -51.936431, -29.394191 ], [ -51.936956, -29.3939278 ], [ -51.93743, -29.3938246 ], [ -51.9375899, -29.3937849 ], [ -51.9378449, -29.3937215 ], [ -51.9381767, -29.3936544 ], [ -51.9383604, -29.3936286 ], [ -51.9385085, -29.3936648 ], [ -51.9385855, -29.3938404 ], [ -51.9386328, -29.3941914 ], [ -51.9386505, -29.3944341 ], [ -51.9386505, -29.3946664 ], [ -51.9385734, -29.3948471 ], [ -51.9384668, -29.3949601 ], [ -51.9384216, -29.3950455 ], [ -51.9384192, -29.3951826 ], [ -51.9384634, -29.3952257 ], [ -51.93852, -29.3952807 ], [ -51.9386023, -29.395314 ], [ -51.9387629, -29.3953789 ], [ -51.9388576, -29.395507899999984 ], [ -51.9388339, -29.3956009 ], [ -51.9387482, -29.3956702 ], [ -51.938668, -29.3957351 ], [ -51.9384802, -29.395962300000011 ], [ -51.9384311, -29.3960949 ], [ -51.938477, -29.396300599999989 ], [ -51.9385848, -29.3964527 ], [ -51.9387329, -29.3966127 ], [ -51.9389699, -29.3967522 ], [ -51.9391536, -29.3967883 ], [ -51.9393136, -29.3967367 ], [ -51.9394881, -29.3967707 ], [ -51.9396224, -29.3968753 ], [ -51.9397755, -29.396937 ], [ -51.939912, -29.3969227 ], [ -51.9400839, -29.3968298 ], [ -51.9403582, -29.3967481 ], [ -51.9407857, -29.3966925 ], [ -51.9410865, -29.3967075 ], [ -51.9412039, -29.396747399999988 ], [ -51.9413038, -29.3969067 ], [ -51.9414874, -29.3970925 ], [ -51.9417481, -29.3971752 ], [ -51.9419935, -29.3971531 ], [ -51.9420918, -29.3971443 ], [ -51.9423999, -29.3970927 ], [ -51.942714, -29.397103099999988 ], [ -51.9429688, -29.3971031 ], [ -51.9432117, -29.3972116 ], [ -51.9433361, -29.3973871 ], [ -51.9434309, -29.3975523 ], [ -51.9434664, -29.3978105 ], [ -51.9435612, -29.3980428 ], [ -51.943727, -29.3983268 ], [ -51.9439996, -29.3985024 ], [ -51.9441774, -29.3985644 ], [ -51.9442899, -29.3985541 ], [ -51.94447370000001, -29.398456 ], [ -51.9446041, -29.3982443 ], [ -51.9446752, -29.3979294 ], [ -51.9446575, -29.3975319 ], [ -51.944545, -29.3970931 ], [ -51.944354, -29.3967834 ], [ -51.9441907, -29.3965175 ], [ -51.9440876, -29.3963377 ], [ -51.9439156, -29.3962103 ], [ -51.9436277, -29.3960492 ], [ -51.9435073, -29.396008 ], [ -51.9433912, -29.3960417 ], [ -51.9433053, -29.3959967 ], [ -51.9432236, -29.3958431 ], [ -51.9432151, -29.3955959 ], [ -51.9432452, -29.395184 ], [ -51.9430996, -29.3948802 ], [ -51.9429965, -29.3946367 ], [ -51.9429922, -29.394367 ], [ -51.9432313, -29.3940877 ], [ -51.9434157, -29.3939678 ], [ -51.9436455, -29.393913 ], [ -51.9440353, -29.3938533 ], [ -51.9441775, -29.3937528 ], [ -51.9441471, -29.3936787 ], [ -51.9441001, -29.3935579 ], [ -51.9441503, -29.3933578 ], [ -51.944156, -29.3931709 ], [ -51.9442016, -29.3929099 ], [ -51.9442177, -29.3928146 ], [ -51.944265, -29.39266790000001 ], [ -51.9444112, -29.3925069 ], [ -51.94451870000001, -29.3923758 ], [ -51.9446133, -29.392297200000012 ], [ -51.944768, -29.3923384 ], [ -51.9449529, -29.3924358 ], [ -51.9451807, -29.3924883 ], [ -51.9455081, -29.3925745 ], [ -51.9457445, -29.3925146 ], [ -51.946054, -29.3924697 ], [ -51.9462561, -29.3924697 ], [ -51.9464839, -29.3924286 ], [ -51.9467763, -29.3922825 ], [ -51.946965400000011, -29.3921269 ], [ -51.9469998, -29.3919808 ], [ -51.946901, -29.3918722 ], [ -51.9467419, -29.3918347 ], [ -51.9465571, -29.3916437 ], [ -51.9465529, -29.3914227 ], [ -51.9466518, -29.3912991 ], [ -51.9467979, -29.3912355 ], [ -51.9469226, -29.3911494 ], [ -51.9470817, -29.3909659 ], [ -51.9470903, -29.3907861 ], [ -51.9469555, -29.3904911 ], [ -51.9467062, -29.3904311 ], [ -51.946315, -29.3903524 ], [ -51.9461216, -29.3901277 ], [ -51.9460744, -29.3898842 ], [ -51.9462248, -29.3897794 ], [ -51.94657740000001, -29.3895659 ], [ -51.9469299, -29.3893825 ], [ -51.9471964, -29.389405 ], [ -51.9474586, -29.38945 ], [ -51.9477337, -29.3894088 ], [ -51.9480733, -29.3894051 ], [ -51.948314, -29.3894875 ], [ -51.94880830000001, -29.3894089 ], [ -51.9492672, -29.3893753 ], [ -51.9495767, -29.389439 ], [ -51.9499507, -29.3893304 ], [ -51.9502043, -29.3890833 ], [ -51.9505224, -29.3888548 ], [ -51.9508965, -29.3885178 ], [ -51.9511575, -29.3882191 ], [ -51.9513937, -29.3878763 ], [ -51.9515725, -29.387546 ], [ -51.9516155, -29.3872219 ], [ -51.9515369, -29.386823 ], [ -51.9514225, -29.3861 ], [ -51.9512438, -29.3853022 ], [ -51.9511222, -29.3848778 ], [ -51.9511938, -29.3845226 ], [ -51.9512368, -29.3842296 ], [ -51.9511581, -29.3839678 ], [ -51.9508577, -29.3837621 ], [ -51.9505216, -29.3836748 ], [ -51.950184, -29.383842 ], [ -51.9499287, -29.3840755 ], [ -51.9495628, -29.3843683 ], [ -51.9491586, -29.384613 ], [ -51.9487712, -29.3847006 ], [ -51.9482617, -29.3847105 ], [ -51.9478518, -29.3847906 ], [ -51.9474381, -29.3849441 ], [ -51.9469293, -29.3849303 ], [ -51.9466388, -29.3847784 ], [ -51.9464297, -29.3845759 ], [ -51.9462554, -29.3842569 ], [ -51.9462381, -29.3839531 ], [ -51.9465519, -29.3835785 ], [ -51.9468424, -29.3833161 ], [ -51.9470052, -29.3831237 ], [ -51.9469877, -29.3830022 ], [ -51.9468657, -29.3829465 ], [ -51.9463777, -29.3828401 ], [ -51.9459478, -29.382673 ], [ -51.9458142, -29.3824502 ], [ -51.9458491, -29.382273 ], [ -51.9460931, -29.382197100000013 ], [ -51.9465115, -29.3820149 ], [ -51.9472495, -29.3814931 ], [ -51.9482779, -29.3809262 ], [ -51.9489196, -29.3805529 ], [ -51.949106, -29.38030130000001 ], [ -51.9491899, -29.3797735 ], [ -51.9490875, -29.3792783 ], [ -51.9489665, -29.3788886 ], [ -51.9486963, -29.3786531 ], [ -51.9482118, -29.3786855 ], [ -51.9480998, -29.3787008 ], [ -51.9477366, -29.3787504 ], [ -51.9470192, -29.3789208 ], [ -51.9464135, -29.3790587 ], [ -51.9457799, -29.379221 ], [ -51.9453195, -29.3792724 ], [ -51.9447311, -29.3791644 ], [ -51.9445453, -29.3789283 ], [ -51.9447233, -29.3785708 ], [ -51.9452808, -29.3783414 ], [ -51.9455982, -29.3779434 ], [ -51.9456833, -29.3775318 ], [ -51.9456446, -29.3769112 ], [ -51.9457066, -29.3766143 ], [ -51.9456291, -29.3762365 ], [ -51.94540460000001, -29.3760409 ], [ -51.9449866, -29.3761353 ], [ -51.9445298, -29.3763377 ], [ -51.944375, -29.3762568 ], [ -51.9443827, -29.3759599 ], [ -51.9442434, -29.3756159 ], [ -51.9439182, -29.3753865 ], [ -51.9435543, -29.3752988 ], [ -51.9429969, -29.3751976 ], [ -51.9425711, -29.3750559 ], [ -51.9423311, -29.3749615 ], [ -51.9422382, -29.3746984 ], [ -51.9424085, -29.3741991 ], [ -51.9424374, -29.374111 ], [ -51.9395828, -29.3730129 ], [ -51.9363826, -29.3749558 ], [ -51.9362736, -29.375022 ], [ -51.9363399, -29.3754051 ], [ -51.9364157, -29.375934 ], [ -51.9364718, -29.3760983 ], [ -51.936646, -29.3766885 ], [ -51.9369521, -29.3774799 ], [ -51.9369583, -29.3774963 ], [ -51.9370788, -29.3778136 ], [ -51.9370916, -29.3778472 ], [ -51.9371286, -29.3779447 ], [ -51.9371706, -29.3780819 ], [ -51.9371801, -29.3783477 ], [ -51.9291683, -29.3832629 ] ] ] } },
{ "type": "Feature", "properties": { "name": "Aimoré", "code_muni": 4301008.0, "name_muni": "Arroio do Meio" }, "geometry": { "type": "Polygon", "coordinates": [ [ [ -51.9338322, -29.3918225 ], [ -51.9340221, -29.391055199999986 ], [ -51.9347763, -29.3880085 ], [ -51.9349385, -29.3871903 ], [ -51.9341363, -29.3866412 ], [ -51.9336321, -29.386315499999988 ], [ -51.9331917, -29.386017 ], [ -51.9325969, -29.3856163 ], [ -51.9310329, -29.384562699999986 ], [ -51.9309284, -29.3844923 ], [ -51.9291683, -29.3832629 ], [ -51.9212986, -29.3883145 ], [ -51.9208103, -29.388450399999986 ], [ -51.9203267, -29.3887516 ], [ -51.9199691, -29.3889954 ], [ -51.9197077, -29.3892075 ], [ -51.9193458, -29.3894396 ], [ -51.9186916, -29.389833 ], [ -51.91839430000001, -29.3899963 ], [ -51.9184, -29.3900463 ], [ -51.9184575, -29.3901462 ], [ -51.9184524, -29.3903315 ], [ -51.9183934, -29.3904157 ], [ -51.9183719, -29.3907241 ], [ -51.9184493, -29.3913733 ], [ -51.9184291, -29.3916953 ], [ -51.9185007, -29.391944 ], [ -51.9185168, -29.3922385 ], [ -51.9184685, -29.392332 ], [ -51.9183773, -29.3924114 ], [ -51.9181734, -29.3925189 ], [ -51.9180248, -29.3926994 ], [ -51.9179663, -29.3929734 ], [ -51.9179547, -29.393407 ], [ -51.9177599, -29.3937546 ], [ -51.9174578, -29.3939287 ], [ -51.9172937, -29.394052 ], [ -51.9169351, -29.3944586 ], [ -51.9166797, -29.3946797 ], [ -51.9164466, -29.3947936 ], [ -51.9162384, -29.3947838 ], [ -51.9160545, -29.3946362 ], [ -51.91592570000001, -29.3945941 ], [ -51.9158077, -29.3946268 ], [ -51.9157594, -29.3947203 ], [ -51.9157255, -29.3949482 ], [ -51.9157978, -29.3951738 ], [ -51.9160337, -29.3954094 ], [ -51.9163871, -29.395547600000011 ], [ -51.9165775, -29.3956937 ], [ -51.9166754, -29.3959308 ], [ -51.9166432, -29.3960944 ], [ -51.9165842, -29.3962008 ], [ -51.9165051, -29.396376 ], [ -51.9163804, -29.3966506 ], [ -51.9163871, -29.39730960000001 ], [ -51.9164729, -29.3974965 ], [ -51.916748147515413, -29.397767278887798 ], [ -51.919692854187062, -29.397519513074069 ], [ -51.9219384, -29.397161 ], [ -51.9245411, -29.3970514 ], [ -51.924817190975453, -29.397088196873099 ], [ -51.925179235, -29.397057715999889 ], [ -51.925402014355512, -29.397166139021536 ], [ -51.9259885, -29.3972443 ], [ -51.9272625, -29.3978172 ], [ -51.9283322, -29.3984703 ], [ -51.9295699, -29.3990686 ], [ -51.9316775, -29.3996952 ], [ -51.9334092, -29.400287 ], [ -51.9343171, -29.4007602 ], [ -51.9343425, -29.4005355 ], [ -51.934279, -29.4003658 ], [ -51.9339583, -29.4000056 ], [ -51.9334606, -29.3996215 ], [ -51.9327595, -29.3991132 ], [ -51.9322501, -29.3987568 ], [ -51.9320783, -29.3986225 ], [ -51.9317229, -29.3981113 ], [ -51.9314267, -29.3977034 ], [ -51.9311424, -29.3972955 ], [ -51.9308522, -29.3969848 ], [ -51.93055, -29.396773 ], [ -51.9304731, -29.3964942 ], [ -51.9306094, -29.39636 ], [ -51.93097680000001, -29.3964479 ], [ -51.9316701, -29.3965048 ], [ -51.9323515, -29.3964844 ], [ -51.9327663, -29.3964896 ], [ -51.9330922, -29.396531 ], [ -51.9332936, -29.3966756 ], [ -51.9335484, -29.3968925 ], [ -51.9336194, -29.3971868 ], [ -51.9337873, -29.3973882 ], [ -51.9341962, -29.3973263 ], [ -51.9349547, -29.3971819 ], [ -51.9354169, -29.3971098 ], [ -51.9356836, -29.3970169 ], [ -51.9359207, -29.3968311 ], [ -51.9359918, -29.3966917 ], [ -51.9359385, -29.3965162 ], [ -51.9357194, -29.3962477 ], [ -51.9354588, -29.3957933 ], [ -51.9353226, -29.3953957 ], [ -51.9352872, -29.3950064 ], [ -51.9338322, -29.3918225 ] ] ] } },
{ "type": "Feature", "properties": { "name": "São Caetano", "code_muni": 4301008.0, "name_muni": "Arroio do Meio" }, "geometry": { "type": "Polygon", "coordinates": [ [ [ -51.9121814, -29.3939865 ], [ -51.912396, -29.3949633 ], [ -51.9113848, -29.3953583 ], [ -51.9145073, -29.3987361 ], [ -51.915387205570347, -29.398457180757401 ], [ -51.916233680999895, -29.397810558999904 ], [ -51.916748147515413, -29.397767278887798 ], [ -51.9164729, -29.3974965 ], [ -51.9163871, -29.39730960000001 ], [ -51.9163804, -29.3966506 ], [ -51.9165051, -29.396376 ], [ -51.9165842, -29.3962008 ], [ -51.9166432, -29.3960944 ], [ -51.9166754, -29.3959308 ], [ -51.9165775, -29.3956937 ], [ -51.9163871, -29.395547600000011 ], [ -51.9160337, -29.3954094 ], [ -51.9157978, -29.3951738 ], [ -51.9157255, -29.3949482 ], [ -51.9157594, -29.3947203 ], [ -51.9158077, -29.3946268 ], [ -51.91592570000001, -29.3945941 ], [ -51.9160545, -29.3946362 ], [ -51.9162384, -29.3947838 ], [ -51.9164466, -29.3947936 ], [ -51.9166797, -29.3946797 ], [ -51.9169351, -29.3944586 ], [ -51.9172937, -29.394052 ], [ -51.9174578, -29.3939287 ], [ -51.9177599, -29.3937546 ], [ -51.9179547, -29.393407 ], [ -51.9179663, -29.3929734 ], [ -51.9180248, -29.3926994 ], [ -51.9181734, -29.3925189 ], [ -51.9183773, -29.3924114 ], [ -51.9184685, -29.392332 ], [ -51.9185168, -29.3922385 ], [ -51.9185007, -29.391944 ], [ -51.9184291, -29.3916953 ], [ -51.9184493, -29.3913733 ], [ -51.9183719, -29.3907241 ], [ -51.9183934, -29.3904157 ], [ -51.9184524, -29.3903315 ], [ -51.9184575, -29.3901462 ], [ -51.9184, -29.3900463 ], [ -51.91839430000001, -29.3899963 ], [ -51.9186916, -29.389833 ], [ -51.9193458, -29.3894396 ], [ -51.9197077, -29.3892075 ], [ -51.9199691, -29.3889954 ], [ -51.9203267, -29.3887516 ], [ -51.9208103, -29.388450399999986 ], [ -51.9212986, -29.3883145 ], [ -51.9291683, -29.3832629 ], [ -51.9371801, -29.3783477 ], [ -51.9371706, -29.3780819 ], [ -51.9371286, -29.3779447 ], [ -51.9370916, -29.3778472 ], [ -51.9370788, -29.3778136 ], [ -51.9369583, -29.3774963 ], [ -51.9369521, -29.3774799 ], [ -51.936646, -29.3766885 ], [ -51.9364718, -29.3760983 ], [ -51.9364157, -29.375934 ], [ -51.9363399, -29.3754051 ], [ -51.9362736, -29.375022 ], [ -51.9362301, -29.3747753 ], [ -51.9361791, -29.3746748 ], [ -51.9361681, -29.3746597 ], [ -51.9360745, -29.374532200000015 ], [ -51.9359672, -29.3743849 ], [ -51.9357031, -29.3740395 ], [ -51.9354241, -29.373685399999989 ], [ -51.9352732, -29.3734939 ], [ -51.9350965, -29.3732511 ], [ -51.9329937, -29.3705083 ], [ -51.9318152, -29.3689738 ], [ -51.9251901, -29.3729147 ], [ -51.9266895, -29.3747449 ], [ -51.9231141, -29.3770378 ], [ -51.9230711, -29.37697 ], [ -51.9213945, -29.377966 ], [ -51.9210614, -29.3777321 ], [ -51.9206664, -29.3774612 ], [ -51.9206271, -29.3774342 ], [ -51.9202284, -29.3771608 ], [ -51.9201323, -29.3770949 ], [ -51.9200293, -29.377022 ], [ -51.9198932, -29.3769289 ], [ -51.9194299, -29.376612 ], [ -51.920743, -29.3757429 ], [ -51.917991, -29.3735926 ], [ -51.9191766, -29.3728306 ], [ -51.9185865, -29.3723117 ], [ -51.9173634, -29.3731111 ], [ -51.9143271, -29.3710167 ], [ -51.9127715, -29.370437 ], [ -51.9109905, -29.3701004 ], [ -51.910513, -29.3699976 ], [ -51.9100678, -29.369675 ], [ -51.9098532, -29.3693525 ], [ -51.9097567, -29.3690159 ], [ -51.9098049, -29.3685904 ], [ -51.9100088, -29.368165 ], [ -51.9112051, -29.3661454 ], [ -51.9086194, -29.3649532 ], [ -51.9070959, -29.3676087 ], [ -51.9069135, -29.3683754 ], [ -51.9068599, -29.3691795 ], [ -51.9069994, -29.3699555 ], [ -51.9074266, -29.370853 ], [ -51.9077137, -29.3712807 ], [ -51.9086087, -29.371947 ], [ -51.9093919, -29.3723304 ], [ -51.9102717, -29.3725547 ], [ -51.9117952, -29.3727978 ], [ -51.9106257, -29.3734523 ], [ -51.9126045, -29.3760192 ], [ -51.9136512, -29.3773697 ], [ -51.9022993, -29.3846916 ], [ -51.9005688, -29.3858115 ], [ -51.900692, -29.385858 ], [ -51.9008151, -29.3859523 ], [ -51.9011506, -29.3864549 ], [ -51.9013533, -29.38679620000001 ], [ -51.901491, -29.387028100000013 ], [ -51.9018072, -29.3874196 ], [ -51.9018837, -29.3875136 ], [ -51.9021147, -29.3877222 ], [ -51.9024531, -29.3879852 ], [ -51.9028957, -29.3882016 ], [ -51.9032067, -29.3883474 ], [ -51.9033837, -29.3883497 ], [ -51.9036064, -29.3883427 ], [ -51.9038585, -29.3883567 ], [ -51.9041455, -29.3884339 ], [ -51.9046176, -29.3885952 ], [ -51.9048295, -29.3887575 ], [ -51.9049743, -29.38892 ], [ -51.9051419, -29.3892752 ], [ -51.9051929, -29.389364 ], [ -51.9054274, -29.38969 ], [ -51.9056328, -29.390203 ], [ -51.9059221, -29.3901466 ], [ -51.9061282, -29.3901721 ], [ -51.9065917, -29.3900885 ], [ -51.9070208, -29.3901072 ], [ -51.9072676, -29.3900511 ], [ -51.9080159, -29.3897403 ], [ -51.9083592, -29.3895837 ], [ -51.9085389, -29.389553299999985 ], [ -51.9088528, -29.3894365 ], [ -51.9090754, -29.3893079 ], [ -51.9092033, -29.389245200000012 ], [ -51.9105989, -29.3915888 ], [ -51.9112811, -29.3912804 ], [ -51.9114506, -29.3912037 ], [ -51.9114928, -29.3912577 ], [ -51.9116008, -29.3914432 ], [ -51.9117379, -29.39166620000001 ], [ -51.9117736, -29.3917728 ], [ -51.9117671, -29.3918982 ], [ -51.9117605, -29.3920262 ], [ -51.9117235, -29.3922206 ], [ -51.9115347, -29.3927954 ], [ -51.9114835, -29.3928797 ], [ -51.9116329, -29.3931826 ], [ -51.9117294, -29.3933813 ], [ -51.9119503, -29.393742 ], [ -51.9120248, -29.3938005 ], [ -51.9121273, -29.3938218 ], [ -51.9121814, -29.3939865 ] ] ] } },
{ "type": "Feature", "properties": { "name": "Novo Horizonte", "code_muni": 4301008.0, "name_muni": "Arroio do Meio" }, "geometry": { "type": "Polygon", "coordinates": [ [ [ -51.9230638, -29.3742636 ], [ -51.920743, -29.3757429 ], [ -51.9194299, -29.376612 ], [ -51.9198932, -29.3769289 ], [ -51.9200293, -29.377022 ], [ -51.9201323, -29.3770949 ], [ -51.9202284, -29.3771608 ], [ -51.9206271, -29.3774342 ], [ -51.9206664, -29.3774612 ], [ -51.9210614, -29.3777321 ], [ -51.9213945, -29.377966 ], [ -51.9230711, -29.37697 ], [ -51.9231141, -29.3770378 ], [ -51.9266895, -29.3747449 ], [ -51.9251901, -29.3729147 ], [ -51.9230638, -29.3742636 ] ] ] } },
{ "type": "Feature", "properties": { "name": "Dona Rita", "code_muni": 4301008.0, "name_muni": "Arroio do Meio" }, "geometry": { "type": "Polygon", "coordinates": [ [ [ -51.9439388, -29.3614748 ], [ -51.9404626, -29.3571547 ], [ -51.9350338, -29.3605772 ], [ -51.9385958, -29.3648971 ], [ -51.9349051, -29.3671225 ], [ -51.9356775, -29.3680949 ], [ -51.9335318, -29.36946 ], [ -51.9327808, -29.3683941 ], [ -51.9318152, -29.3689738 ], [ -51.9329937, -29.3705083 ], [ -51.9350965, -29.3732511 ], [ -51.9352732, -29.3734939 ], [ -51.9354241, -29.373685399999989 ], [ -51.9357031, -29.3740395 ], [ -51.9359672, -29.3743849 ], [ -51.9360745, -29.374532200000015 ], [ -51.9361681, -29.3746597 ], [ -51.9361791, -29.3746748 ], [ -51.9362301, -29.3747753 ], [ -51.9362736, -29.375022 ], [ -51.9363826, -29.3749558 ], [ -51.9395828, -29.3730129 ], [ -51.9424374, -29.374111 ], [ -51.9425014, -29.3739158 ], [ -51.9427027, -29.373565 ], [ -51.9428963, -29.3734098 ], [ -51.9432214, -29.3733423 ], [ -51.943624, -29.3734705 ], [ -51.9439801, -29.3738078 ], [ -51.9442743, -29.3740507 ], [ -51.9446614, -29.3742801 ], [ -51.9450485, -29.3744757 ], [ -51.9454433, -29.374657899999985 ], [ -51.945722, -29.3747186 ], [ -51.9461788, -29.3746984 ], [ -51.9465814, -29.3746309 ], [ -51.9470614, -29.374469 ], [ -51.9474098, -29.3743678 ], [ -51.9476885, -29.3741452 ], [ -51.947882, -29.3737066 ], [ -51.9481762, -29.3733626 ], [ -51.9484472, -29.3731332 ], [ -51.9486949, -29.37297130000001 ], [ -51.9489349, -29.3726879 ], [ -51.949051, -29.3724855 ], [ -51.9491517, -29.3722696 ], [ -51.9491207, -29.3720807 ], [ -51.9490278, -29.3718851 ], [ -51.9484936, -29.3717164 ], [ -51.9478278, -29.3716152 ], [ -51.9473556, -29.3714533 ], [ -51.9471388, -29.3712846 ], [ -51.9471698, -29.3707719 ], [ -51.9472549, -29.3704075 ], [ -51.9473091, -29.3698948 ], [ -51.947371, -29.3695102 ], [ -51.9475104, -29.3692471 ], [ -51.9477349, -29.368936699999988 ], [ -51.9480446, -29.3686534 ], [ -51.9484162, -29.3684847 ], [ -51.948842, -29.3683835 ], [ -51.9493917, -29.3682486 ], [ -51.9496704, -29.3681406 ], [ -51.9497942, -29.3680529 ], [ -51.9499955, -29.3677965 ], [ -51.9501137, -29.3675667 ], [ -51.9504139, -29.3674836 ], [ -51.9506923, -29.367452400000012 ], [ -51.9511181, -29.3675266 ], [ -51.95137, -29.3675807 ], [ -51.9516747, -29.3675427 ], [ -51.95188, -29.367511 ], [ -51.952074, -29.3673936 ], [ -51.9522053, -29.367308499999986 ], [ -51.9523496, -29.3673105 ], [ -51.9523206, -29.367424 ], [ -51.9523139, -29.3674685 ], [ -51.9522905, -29.367559 ], [ -51.9522761, -29.3676844 ], [ -51.9522729, -29.367827599999988 ], [ -51.9523136, -29.3680918 ], [ -51.9522352, -29.3683007 ], [ -51.9530387, -29.3682481 ], [ -51.9537706, -29.368199 ], [ -51.9538723, -29.3682211 ], [ -51.9539213, -29.3682461 ], [ -51.9539465, -29.3682589 ], [ -51.9557042, -29.3703366 ], [ -51.9558229, -29.3704874 ], [ -51.9559626, -29.3706705 ], [ -51.9568834, -29.3718773 ], [ -51.9577051, -29.3711827 ], [ -51.9475677, -29.3590517 ], [ -51.9439388, -29.3614748 ] ] ] } },
{ "type": "Feature", "properties": { "name": "Bela Vista", "code_muni": 4301008.0, "name_muni": "Arroio do Meio" }, "geometry": { "type": "Polygon", "coordinates": [ [ [ -51.952074, -29.3673936 ], [ -51.95188, -29.367511 ], [ -51.9516747, -29.3675427 ], [ -51.95137, -29.3675807 ], [ -51.9511181, -29.3675266 ], [ -51.9506923, -29.367452400000012 ], [ -51.9504139, -29.3674836 ], [ -51.9501137, -29.3675667 ], [ -51.9499955, -29.3677965 ], [ -51.9497942, -29.3680529 ], [ -51.9496704, -29.3681406 ], [ -51.9493917, -29.3682486 ], [ -51.948842, -29.3683835 ], [ -51.9484162, -29.3684847 ], [ -51.9480446, -29.3686534 ], [ -51.9477349, -29.368936699999988 ], [ -51.9475104, -29.3692471 ], [ -51.947371, -29.3695102 ], [ -51.9473091, -29.3698948 ], [ -51.9472549, -29.3704075 ], [ -51.9471698, -29.3707719 ], [ -51.9471388, -29.3712846 ], [ -51.9473556, -29.3714533 ], [ -51.9478278, -29.3716152 ], [ -51.9484936, -29.3717164 ], [ -51.9490278, -29.3718851 ], [ -51.9491207, -29.3720807 ], [ -51.9491517, -29.3722696 ], [ -51.949051, -29.3724855 ], [ -51.9489349, -29.3726879 ], [ -51.9486949, -29.37297130000001 ], [ -51.9484472, -29.3731332 ], [ -51.9481762, -29.3733626 ], [ -51.947882, -29.3737066 ], [ -51.9476885, -29.3741452 ], [ -51.9474098, -29.3743678 ], [ -51.9470614, -29.374469 ], [ -51.9465814, -29.3746309 ], [ -51.9461788, -29.3746984 ], [ -51.945722, -29.3747186 ], [ -51.9454433, -29.374657899999985 ], [ -51.9450485, -29.3744757 ], [ -51.9446614, -29.3742801 ], [ -51.9442743, -29.3740507 ], [ -51.9439801, -29.3738078 ], [ -51.943624, -29.3734705 ], [ -51.9432214, -29.3733423 ], [ -51.9428963, -29.3734098 ], [ -51.9427027, -29.373565 ], [ -51.9425014, -29.3739158 ], [ -51.9424374, -29.374111 ], [ -51.9424085, -29.3741991 ], [ -51.9422382, -29.3746984 ], [ -51.9423311, -29.3749615 ], [ -51.9425711, -29.3750559 ], [ -51.9429969, -29.3751976 ], [ -51.9435543, -29.3752988 ], [ -51.9439182, -29.3753865 ], [ -51.9442434, -29.3756159 ], [ -51.9443827, -29.3759599 ], [ -51.944375, -29.3762568 ], [ -51.9445298, -29.3763377 ], [ -51.9449866, -29.3761353 ], [ -51.94540460000001, -29.3760409 ], [ -51.9456291, -29.3762365 ], [ -51.9457066, -29.3766143 ], [ -51.9456446, -29.3769112 ], [ -51.9456833, -29.3775318 ], [ -51.9455982, -29.3779434 ], [ -51.9452808, -29.3783414 ], [ -51.9447233, -29.3785708 ], [ -51.9445453, -29.3789283 ], [ -51.9447311, -29.3791644 ], [ -51.9453195, -29.3792724 ], [ -51.9457799, -29.379221 ], [ -51.9464135, -29.3790587 ], [ -51.9470192, -29.3789208 ], [ -51.9477366, -29.3787504 ], [ -51.9480998, -29.3787008 ], [ -51.9482118, -29.3786855 ], [ -51.9486963, -29.3786531 ], [ -51.9489665, -29.3788886 ], [ -51.9490875, -29.3792783 ], [ -51.9491899, -29.3797735 ], [ -51.949106, -29.38030130000001 ], [ -51.9489196, -29.3805529 ], [ -51.9482779, -29.3809262 ], [ -51.9472495, -29.3814931 ], [ -51.9465115, -29.3820149 ], [ -51.9460931, -29.382197100000013 ], [ -51.9458491, -29.382273 ], [ -51.9458142, -29.3824502 ], [ -51.9459478, -29.382673 ], [ -51.9463777, -29.3828401 ], [ -51.9468657, -29.3829465 ], [ -51.9469877, -29.3830022 ], [ -51.9470052, -29.3831237 ], [ -51.9468424, -29.3833161 ], [ -51.9465519, -29.3835785 ], [ -51.9462381, -29.3839531 ], [ -51.9462554, -29.3842569 ], [ -51.9464297, -29.3845759 ], [ -51.9466388, -29.3847784 ], [ -51.9469293, -29.3849303 ], [ -51.9474381, -29.3849441 ], [ -51.9478518, -29.3847906 ], [ -51.9482617, -29.3847105 ], [ -51.9487712, -29.3847006 ], [ -51.9491586, -29.384613 ], [ -51.9495628, -29.3843683 ], [ -51.9499287, -29.3840755 ], [ -51.950184, -29.383842 ], [ -51.9505216, -29.3836748 ], [ -51.9508577, -29.3837621 ], [ -51.9511581, -29.3839678 ], [ -51.9512368, -29.3842296 ], [ -51.9511938, -29.3845226 ], [ -51.9511222, -29.3848778 ], [ -51.9512438, -29.3853022 ], [ -51.9514225, -29.3861 ], [ -51.9515369, -29.386823 ], [ -51.9516155, -29.3872219 ], [ -51.9515725, -29.387546 ], [ -51.9513937, -29.3878763 ], [ -51.9511575, -29.3882191 ], [ -51.9508965, -29.3885178 ], [ -51.9505224, -29.3888548 ], [ -51.9502043, -29.3890833 ], [ -51.9499507, -29.3893304 ], [ -51.9495767, -29.389439 ], [ -51.9492672, -29.3893753 ], [ -51.94880830000001, -29.3894089 ], [ -51.948314, -29.3894875 ], [ -51.9480733, -29.3894051 ], [ -51.9477337, -29.3894088 ], [ -51.9474586, -29.38945 ], [ -51.9471964, -29.389405 ], [ -51.9469299, -29.3893825 ], [ -51.94657740000001, -29.3895659 ], [ -51.9462248, -29.3897794 ], [ -51.9460744, -29.3898842 ], [ -51.9461216, -29.3901277 ], [ -51.946315, -29.3903524 ], [ -51.9467062, -29.3904311 ], [ -51.9469555, -29.3904911 ], [ -51.9470903, -29.3907861 ], [ -51.9470817, -29.3909659 ], [ -51.9469226, -29.3911494 ], [ -51.9467979, -29.3912355 ], [ -51.9466518, -29.3912991 ], [ -51.9465529, -29.3914227 ], [ -51.9465571, -29.3916437 ], [ -51.9467419, -29.3918347 ], [ -51.946901, -29.3918722 ], [ -51.9469998, -29.3919808 ], [ -51.946965400000011, -29.3921269 ], [ -51.9467763, -29.3922825 ], [ -51.9464839, -29.3924286 ], [ -51.9462561, -29.3924697 ], [ -51.946054, -29.3924697 ], [ -51.9457445, -29.3925146 ], [ -51.9455081, -29.3925745 ], [ -51.9451807, -29.3924883 ], [ -51.9449529, -29.3924358 ], [ -51.944768, -29.3923384 ], [ -51.9446133, -29.392297200000012 ], [ -51.94451870000001, -29.3923758 ], [ -51.9444112, -29.3925069 ], [ -51.944265, -29.39266790000001 ], [ -51.9442177, -29.3928146 ], [ -51.9442016, -29.3929099 ], [ -51.9445441, -29.393146 ], [ -51.9461945, -29.3944342 ], [ -51.9470113, -29.3950708 ], [ -51.9474031, -29.3953965 ], [ -51.947903, -29.395807 ], [ -51.9483885, -29.3963678 ], [ -51.9493108, -29.3977522 ], [ -51.9501044, -29.3990496 ], [ -51.9506402, -29.3998967 ], [ -51.9507274, -29.4000263 ], [ -51.9508101, -29.4002433 ], [ -51.9510025, -29.4001479 ], [ -51.9510931, -29.4000711 ], [ -51.9511063, -29.3999627 ], [ -51.9510855, -29.3997775 ], [ -51.9510176, -29.399567 ], [ -51.9510669, -29.3993254 ], [ -51.9510254, -29.3991402 ], [ -51.9509755, -29.3990306 ], [ -51.9509944, -29.3988904 ], [ -51.951124, -29.3987562 ], [ -51.9516236, -29.3985902 ], [ -51.9517334, -29.398484 ], [ -51.9516996, -29.3981916 ], [ -51.9515659, -29.3980478 ], [ -51.9513749, -29.3979364 ], [ -51.9512683, -29.397818 ], [ -51.9512585, -29.3977061 ], [ -51.9513293, -29.397568 ], [ -51.9515723, -29.3973797 ], [ -51.9516206, -29.3973002 ], [ -51.9516206, -29.3972067 ], [ -51.9515884, -29.3971133 ], [ -51.9516495, -29.3968962 ], [ -51.9518191, -29.3967814 ], [ -51.9521034, -29.3965992 ], [ -51.9523019, -29.3965478 ], [ -51.9525164, -29.3965384 ], [ -51.9526237, -29.396515 ], [ -51.952731, -29.3964636 ], [ -51.9530743, -29.396071 ], [ -51.9534659, -29.395435400000011 ], [ -51.9536805, -29.395169 ], [ -51.9541043, -29.3948839 ], [ -51.9542813, -29.3946315 ], [ -51.9544476, -29.3944866 ], [ -51.9545496, -29.3944352 ], [ -51.9546568, -29.3944165 ], [ -51.9550645, -29.3945754 ], [ -51.9553274, -29.3946455 ], [ -51.9555098, -29.3947577 ], [ -51.9556385, -29.394753 ], [ -51.9557566, -29.3946409 ], [ -51.9558638, -29.3944773 ], [ -51.9558853, -29.3943791 ], [ -51.9558746, -29.3940847 ], [ -51.9561267, -29.3935659 ], [ -51.9561535, -29.3934724 ], [ -51.9563627, -29.3932434 ], [ -51.95647, -29.3931966 ], [ -51.9567168, -29.3931546 ], [ -51.9569099, -29.3930518 ], [ -51.956985, -29.392977 ], [ -51.9575161, -29.392804 ], [ -51.9578809, -29.3927994 ], [ -51.9582349, -29.3928695 ], [ -51.9583422, -29.3928742 ], [ -51.9584495, -29.3928321 ], [ -51.9586963, -29.3926919 ], [ -51.9587821, -29.3926124 ], [ -51.9587767, -29.392369399999986 ], [ -51.959002, -29.39230389999998 ], [ -51.9592112, -29.3920843 ], [ -51.9592917, -29.3918646 ], [ -51.9593453, -29.391775799999987 ], [ -51.9594473, -29.391729 ], [ -51.9596887, -29.3918506 ], [ -51.9598818, -29.3916122 ], [ -51.9600427, -29.3912476 ], [ -51.96006950000001, -29.3908503 ], [ -51.9601125, -29.3906867 ], [ -51.9600856, -29.3905839 ], [ -51.9600642, -29.3902801 ], [ -51.9600642, -29.3899296 ], [ -51.96015, -29.3897379 ], [ -51.9602251, -29.3896631 ], [ -51.9605202, -29.3894014 ], [ -51.960901, -29.3891069 ], [ -51.9610941, -29.3890088 ], [ -51.961475, -29.388747 ], [ -51.9619739, -29.3885367 ], [ -51.9622904, -29.3882609 ], [ -51.9625801, -29.3881861 ], [ -51.9626106, -29.3881686 ], [ -51.9628456, -29.3880342 ], [ -51.963028, -29.3879174 ], [ -51.9631916, -29.3877655 ], [ -51.9634867, -29.3877888 ], [ -51.9635886, -29.3877141 ], [ -51.9637173, -29.3875855 ], [ -51.9637683, -29.3875621 ], [ -51.9639534, -29.3876369 ], [ -51.9640902, -29.3877328 ], [ -51.9642028, -29.3877818 ], [ -51.9643477, -29.3879781 ], [ -51.9644898, -29.3880903 ], [ -51.9646829, -29.388109 ], [ -51.9647902, -29.3880366 ], [ -51.9648466, -29.3879407 ], [ -51.9653454, -29.3876229 ], [ -51.9655466, -29.3874009 ], [ -51.9656593, -29.387330799999983 ], [ -51.9658443, -29.3873612 ], [ -51.9659463, -29.3873986 ], [ -51.9661233, -29.3874149 ], [ -51.966193, -29.38740090000001 ], [ -51.9664612, -29.3872747 ], [ -51.9669896, -29.3868143 ], [ -51.9674295, -29.3861833 ], [ -51.9674644, -29.3860898 ], [ -51.9674778, -29.385994 ], [ -51.9674563, -29.3859496 ], [ -51.9673625, -29.3858841 ], [ -51.9672605, -29.3858818 ], [ -51.9671077, -29.3859402 ], [ -51.9670057, -29.3858631 ], [ -51.966995, -29.3857229 ], [ -51.9670272, -29.3856294 ], [ -51.9670916, -29.3855499 ], [ -51.9672632, -29.3854097 ], [ -51.9671774, -29.3853489 ], [ -51.9669467, -29.3848908 ], [ -51.9668555, -29.3847693 ], [ -51.9667375, -29.3845309 ], [ -51.9664586, -29.384344 ], [ -51.9663727, -29.3842645 ], [ -51.9661313, -29.3841944 ], [ -51.965906, -29.3841663 ], [ -51.9656593, -29.3842084 ], [ -51.9654259, -29.3843136 ], [ -51.9652194, -29.3844445 ], [ -51.9649002, -29.3846104 ], [ -51.9647768, -29.3846221 ], [ -51.9645971, -29.3846057 ], [ -51.9644791, -29.384545 ], [ -51.9644576, -29.384358 ], [ -51.9644845, -29.3842364 ], [ -51.964522, -29.3841476 ], [ -51.9646937, -29.3839092 ], [ -51.9645113, -29.38377370000001 ], [ -51.9644094, -29.3837316 ], [ -51.9642806, -29.3836288 ], [ -51.9642928, -29.3835029 ], [ -51.9643074, -29.383353 ], [ -51.9644469, -29.383138 ], [ -51.9644791, -29.3830305 ], [ -51.9644737, -29.3829043 ], [ -51.9643557, -29.382722 ], [ -51.9642136, -29.3823223 ], [ -51.9642323, -29.3822756 ], [ -51.9642189, -29.3821003 ], [ -51.9641492, -29.3820606 ], [ -51.96372, -29.382105 ], [ -51.9636422, -29.382133 ], [ -51.9634411, -29.3822592 ], [ -51.9631353, -29.3821984 ], [ -51.9630897, -29.3821657 ], [ -51.9630843, -29.382119 ], [ -51.9630951, -29.3819273 ], [ -51.9635108, -29.381544 ], [ -51.963771, -29.381450499999989 ], [ -51.964168, -29.3811747 ], [ -51.964227, -29.3810953 ], [ -51.9642645, -29.3809644 ], [ -51.9641894, -29.3808896 ], [ -51.9639534, -29.3808756 ], [ -51.9638515, -29.3808429 ], [ -51.963653, -29.38074 ], [ -51.9629395, -29.3807026 ], [ -51.9629073, -29.3805764 ], [ -51.963315, -29.3800903 ], [ -51.9634652, -29.3800482 ], [ -51.9634811, -29.3799954 ], [ -51.9634292, -29.3799284 ], [ -51.9633164, -29.3797561 ], [ -51.9632672, -29.3796807 ], [ -51.9631604, -29.3795168 ], [ -51.9628644, -29.3791471 ], [ -51.9616149, -29.3776302 ], [ -51.9609979, -29.3768745 ], [ -51.9607399, -29.3765553 ], [ -51.9605503, -29.3763436 ], [ -51.9604423, -29.3762311 ], [ -51.9602899, -29.3760553 ], [ -51.9601635, -29.375921 ], [ -51.9601031, -29.3758462 ], [ -51.9599437, -29.3756489 ], [ -51.9598813, -29.3755674 ], [ -51.959828, -29.375477399999987 ], [ -51.9597029, -29.3752796 ], [ -51.959483, -29.3749973 ], [ -51.9591638, -29.3746203 ], [ -51.9588685, -29.3742106 ], [ -51.9584432, -29.3737339 ], [ -51.9583829, -29.373666300000011 ], [ -51.9576462, -29.3727347 ], [ -51.9570808, -29.3720663 ], [ -51.9568834, -29.3718773 ], [ -51.9559626, -29.3706705 ], [ -51.9558229, -29.3704874 ], [ -51.9557042, -29.3703366 ], [ -51.9539465, -29.3682589 ], [ -51.9539213, -29.3682461 ], [ -51.9538723, -29.3682211 ], [ -51.9537706, -29.368199 ], [ -51.9530387, -29.3682481 ], [ -51.9522352, -29.3683007 ], [ -51.9523136, -29.3680918 ], [ -51.9522729, -29.367827599999988 ], [ -51.9522761, -29.3676844 ], [ -51.9522905, -29.367559 ], [ -51.9523139, -29.3674685 ], [ -51.9523206, -29.367424 ], [ -51.9523496, -29.3673105 ], [ -51.9522053, -29.367308499999986 ], [ -51.952074, -29.3673936 ] ] ] } },
{ "type": "Feature", "properties": { "name": "Rui Barbosa", "code_muni": 4301008.0, "name_muni": "Arroio do Meio" }, "geometry": { "type": "Polygon", "coordinates": [ [ [ -51.963315, -29.3800903 ], [ -51.9629073, -29.3805764 ], [ -51.9629395, -29.3807026 ], [ -51.963653, -29.38074 ], [ -51.9638515, -29.3808429 ], [ -51.9639534, -29.3808756 ], [ -51.9641894, -29.3808896 ], [ -51.9642645, -29.3809644 ], [ -51.964227, -29.3810953 ], [ -51.964168, -29.3811747 ], [ -51.963771, -29.381450499999989 ], [ -51.9635108, -29.381544 ], [ -51.9630951, -29.3819273 ], [ -51.9630843, -29.382119 ], [ -51.9630897, -29.3821657 ], [ -51.9631353, -29.3821984 ], [ -51.9634411, -29.3822592 ], [ -51.9636422, -29.382133 ], [ -51.96372, -29.382105 ], [ -51.9641492, -29.3820606 ], [ -51.9642189, -29.3821003 ], [ -51.9642323, -29.3822756 ], [ -51.9642136, -29.3823223 ], [ -51.9643557, -29.382722 ], [ -51.9644737, -29.3829043 ], [ -51.9644791, -29.3830305 ], [ -51.9644469, -29.383138 ], [ -51.9643074, -29.383353 ], [ -51.9642928, -29.3835029 ], [ -51.9642806, -29.3836288 ], [ -51.9644094, -29.3837316 ], [ -51.9645113, -29.38377370000001 ], [ -51.9646937, -29.3839092 ], [ -51.964522, -29.3841476 ], [ -51.9644845, -29.3842364 ], [ -51.9644576, -29.384358 ], [ -51.9644791, -29.384545 ], [ -51.9645971, -29.3846057 ], [ -51.9647768, -29.3846221 ], [ -51.9649002, -29.3846104 ], [ -51.9652194, -29.3844445 ], [ -51.9654259, -29.3843136 ], [ -51.9656593, -29.3842084 ], [ -51.965906, -29.3841663 ], [ -51.9661313, -29.3841944 ], [ -51.9663727, -29.3842645 ], [ -51.9664586, -29.384344 ], [ -51.9667375, -29.3845309 ], [ -51.9668555, -29.3847693 ], [ -51.9669467, -29.3848908 ], [ -51.9671774, -29.3853489 ], [ -51.9672632, -29.3854097 ], [ -51.9676834, -29.3852233 ], [ -51.9677721, -29.3852355 ], [ -51.9683527, -29.3859584 ], [ -51.9683859, -29.3859987 ], [ -51.9693443, -29.3871397 ], [ -51.9703943, -29.3884401 ], [ -51.9717099, -29.390055 ], [ -51.9717529, -29.3901121 ], [ -51.9727199, -29.3912702 ], [ -51.9730462, -29.3916917 ], [ -51.9739742, -29.3928156 ], [ -51.9743944, -29.3933253 ], [ -51.9746059, -29.393597 ], [ -51.9755782, -29.3947998 ], [ -51.9757071, -29.3949556 ], [ -51.9757484, -29.3950055 ], [ -51.9758409, -29.3951172 ], [ -51.9760378, -29.395355 ], [ -51.976299, -29.3952092 ], [ -51.9765668, -29.3950597 ], [ -51.9770229, -29.3947477 ], [ -51.9769389, -29.3945952 ], [ -51.9736135, -29.3905704 ], [ -51.973407, -29.3903244 ], [ -51.9733036, -29.3901841 ], [ -51.9731995, -29.3900647 ], [ -51.972937, -29.3897415 ], [ -51.96841, -29.3841939 ], [ -51.9685668, -29.3841383 ], [ -51.9686794, -29.38397 ], [ -51.9687921, -29.3838765 ], [ -51.9688779, -29.3838204 ], [ -51.9692802, -29.383741 ], [ -51.9695377, -29.3836568 ], [ -51.9701064, -29.383572699999984 ], [ -51.970219, -29.3835727 ], [ -51.970852, -29.383441799999986 ], [ -51.9710666, -29.3833437 ], [ -51.9711471, -29.3832642 ], [ -51.9712007, -29.3831754 ], [ -51.9712168, -29.3829089 ], [ -51.9712544, -29.382810800000012 ], [ -51.9713509, -29.3827453 ], [ -51.9719517, -29.3824041 ], [ -51.9720858, -29.3823667 ], [ -51.972456, -29.382362 ], [ -51.9726223, -29.3823247 ], [ -51.9727886, -29.3821938 ], [ -51.9728261, -29.3820909 ], [ -51.9727886, -29.3816796 ], [ -51.9727027, -29.3811934 ], [ -51.9726974, -29.3809083 ], [ -51.9727886, -29.3808242 ], [ -51.9729007, -29.3807767 ], [ -51.9721341, -29.379968699999989 ], [ -51.9693446, -29.3761917 ], [ -51.9687224, -29.375621400000011 ], [ -51.968261, -29.3753503 ], [ -51.9682181, -29.3754391 ], [ -51.9682127, -29.37557 ], [ -51.9680733, -29.3757149 ], [ -51.9677782, -29.3758878 ], [ -51.967569, -29.3759065 ], [ -51.9674349, -29.3760141 ], [ -51.9673222, -29.37602810000001 ], [ -51.9671506, -29.3759486 ], [ -51.966936, -29.3759486 ], [ -51.9663245, -29.3761543 ], [ -51.965965, -29.3763553 ], [ -51.9658148, -29.3765189 ], [ -51.9655198, -29.3770892 ], [ -51.9655037, -29.377337 ], [ -51.9656056, -29.3774024 ], [ -51.9663459, -29.3776595 ], [ -51.9665283, -29.3778091 ], [ -51.9666785, -29.378019500000011 ], [ -51.9667, -29.378113 ], [ -51.966759, -29.3782018 ], [ -51.9669789, -29.3784355 ], [ -51.9669253, -29.378529 ], [ -51.9668448, -29.3785944 ], [ -51.9666088, -29.3785944 ], [ -51.9664908, -29.37857570000001 ], [ -51.9662923, -29.378500899999988 ], [ -51.9660562, -29.3784449 ], [ -51.9659489, -29.3784495 ], [ -51.9657505, -29.3785243 ], [ -51.9656485, -29.3785898 ], [ -51.9655895, -29.3786739 ], [ -51.9650155, -29.3792302 ], [ -51.9648976, -29.3793803 ], [ -51.963315, -29.3774305 ], [ -51.966024, -29.3752053 ], [ -51.9675475, -29.3734383 ], [ -51.9659704, -29.37212 ], [ -51.9642162, -29.3741068 ], [ -51.9618559, -29.3760702 ], [ -51.959955, -29.3738892 ], [ -51.9593085, -29.3731347 ], [ -51.9590668, -29.3728757 ], [ -51.9581974, -29.3717951 ], [ -51.9577051, -29.3711827 ], [ -51.9568834, -29.3718773 ], [ -51.9570808, -29.3720663 ], [ -51.9576462, -29.3727347 ], [ -51.9583829, -29.373666300000011 ], [ -51.9584432, -29.3737339 ], [ -51.9588685, -29.3742106 ], [ -51.9591638, -29.3746203 ], [ -51.959483, -29.3749973 ], [ -51.9597029, -29.3752796 ], [ -51.959828, -29.375477399999987 ], [ -51.9598813, -29.3755674 ], [ -51.9599437, -29.3756489 ], [ -51.9601031, -29.3758462 ], [ -51.9601635, -29.375921 ], [ -51.9602899, -29.3760553 ], [ -51.9604423, -29.3762311 ], [ -51.9605503, -29.3763436 ], [ -51.9607399, -29.3765553 ], [ -51.9609979, -29.3768745 ], [ -51.9616149, -29.3776302 ], [ -51.9628644, -29.3791471 ], [ -51.9631604, -29.3795168 ], [ -51.9632672, -29.3796807 ], [ -51.9633164, -29.3797561 ], [ -51.9634292, -29.3799284 ], [ -51.9634811, -29.3799954 ], [ -51.9634652, -29.3800482 ], [ -51.963315, -29.3800903 ] ] ] } },
{ "type": "Feature", "properties": { "name": "Medianeira", "code_muni": 4301008.0, "name_muni": "Arroio do Meio" }, "geometry": { "type": "Polygon", "coordinates": [ [ [ -51.9760378, -29.395355 ], [ -51.9758409, -29.3951172 ], [ -51.9757484, -29.3950055 ], [ -51.9757071, -29.3949556 ], [ -51.9755782, -29.3947998 ], [ -51.9746059, -29.393597 ], [ -51.9743944, -29.3933253 ], [ -51.9739742, -29.3928156 ], [ -51.9730462, -29.3916917 ], [ -51.9727199, -29.3912702 ], [ -51.9717529, -29.3901121 ], [ -51.9717099, -29.390055 ], [ -51.9703943, -29.3884401 ], [ -51.9693443, -29.3871397 ], [ -51.9683859, -29.3859987 ], [ -51.9683527, -29.3859584 ], [ -51.9677721, -29.3852355 ], [ -51.9676834, -29.3852233 ], [ -51.9672632, -29.3854097 ], [ -51.9670916, -29.3855499 ], [ -51.9670272, -29.3856294 ], [ -51.966995, -29.3857229 ], [ -51.9670057, -29.3858631 ], [ -51.9671077, -29.3859402 ], [ -51.9672605, -29.3858818 ], [ -51.9673625, -29.3858841 ], [ -51.9674563, -29.3859496 ], [ -51.9674778, -29.385994 ], [ -51.9674644, -29.3860898 ], [ -51.9674295, -29.3861833 ], [ -51.9669896, -29.3868143 ], [ -51.9664612, -29.3872747 ], [ -51.966193, -29.38740090000001 ], [ -51.9661233, -29.3874149 ], [ -51.9659463, -29.3873986 ], [ -51.9658443, -29.3873612 ], [ -51.9656593, -29.387330799999983 ], [ -51.9655466, -29.3874009 ], [ -51.9653454, -29.3876229 ], [ -51.9648466, -29.3879407 ], [ -51.9647902, -29.3880366 ], [ -51.9646829, -29.388109 ], [ -51.9644898, -29.3880903 ], [ -51.9643477, -29.3879781 ], [ -51.9642028, -29.3877818 ], [ -51.9640902, -29.3877328 ], [ -51.9639534, -29.3876369 ], [ -51.9637683, -29.3875621 ], [ -51.9637173, -29.3875855 ], [ -51.9635886, -29.3877141 ], [ -51.9634867, -29.3877888 ], [ -51.9631916, -29.3877655 ], [ -51.963028, -29.3879174 ], [ -51.9628456, -29.3880342 ], [ -51.9626106, -29.3881686 ], [ -51.9625801, -29.3881861 ], [ -51.9622904, -29.3882609 ], [ -51.9619739, -29.3885367 ], [ -51.961475, -29.388747 ], [ -51.9610941, -29.3890088 ], [ -51.960901, -29.3891069 ], [ -51.9605202, -29.3894014 ], [ -51.9602251, -29.3896631 ], [ -51.96015, -29.3897379 ], [ -51.9600642, -29.3899296 ], [ -51.9600642, -29.3902801 ], [ -51.9600856, -29.3905839 ], [ -51.9601125, -29.3906867 ], [ -51.96006950000001, -29.3908503 ], [ -51.9600427, -29.3912476 ], [ -51.9598818, -29.3916122 ], [ -51.9596887, -29.3918506 ], [ -51.9594473, -29.391729 ], [ -51.9593453, -29.391775799999987 ], [ -51.9592917, -29.3918646 ], [ -51.9592112, -29.3920843 ], [ -51.959002, -29.39230389999998 ], [ -51.9587767, -29.392369399999986 ], [ -51.9587821, -29.3926124 ], [ -51.9586963, -29.3926919 ], [ -51.9584495, -29.3928321 ], [ -51.9583422, -29.3928742 ], [ -51.9582349, -29.3928695 ], [ -51.9578809, -29.3927994 ], [ -51.9575161, -29.392804 ], [ -51.956985, -29.392977 ], [ -51.9569099, -29.3930518 ], [ -51.9567168, -29.3931546 ], [ -51.95647, -29.3931966 ], [ -51.9563627, -29.3932434 ], [ -51.9561535, -29.3934724 ], [ -51.9561267, -29.3935659 ], [ -51.9558746, -29.3940847 ], [ -51.9558853, -29.3943791 ], [ -51.9558638, -29.3944773 ], [ -51.9557566, -29.3946409 ], [ -51.9556385, -29.394753 ], [ -51.9555098, -29.3947577 ], [ -51.9553274, -29.3946455 ], [ -51.9550645, -29.3945754 ], [ -51.9546568, -29.3944165 ], [ -51.9545496, -29.3944352 ], [ -51.9544476, -29.3944866 ], [ -51.9542813, -29.3946315 ], [ -51.9541043, -29.3948839 ], [ -51.9536805, -29.395169 ], [ -51.9534659, -29.395435400000011 ], [ -51.9530743, -29.396071 ], [ -51.952731, -29.3964636 ], [ -51.9526237, -29.396515 ], [ -51.9525164, -29.3965384 ], [ -51.9523019, -29.3965478 ], [ -51.9521034, -29.3965992 ], [ -51.9518191, -29.3967814 ], [ -51.9516495, -29.3968962 ], [ -51.9515884, -29.3971133 ], [ -51.9516206, -29.3972067 ], [ -51.9516206, -29.3973002 ], [ -51.9515723, -29.3973797 ], [ -51.9513293, -29.397568 ], [ -51.9512585, -29.3977061 ], [ -51.9512683, -29.397818 ], [ -51.9513749, -29.3979364 ], [ -51.9515659, -29.3980478 ], [ -51.9516996, -29.3981916 ], [ -51.9517334, -29.398484 ], [ -51.9516236, -29.3985902 ], [ -51.951124, -29.3987562 ], [ -51.9509944, -29.3988904 ], [ -51.9509755, -29.3990306 ], [ -51.9510254, -29.3991402 ], [ -51.9510669, -29.3993254 ], [ -51.9510176, -29.399567 ], [ -51.9510855, -29.3997775 ], [ -51.9511063, -29.3999627 ], [ -51.9510931, -29.4000711 ], [ -51.9510025, -29.4001479 ], [ -51.9508101, -29.4002433 ], [ -51.9510409, -29.4004639 ], [ -51.951131, -29.4005838 ], [ -51.9513605, -29.4008782 ], [ -51.9515965, -29.4011633 ], [ -51.9520632, -29.4016493 ], [ -51.9522349, -29.4018246 ], [ -51.9524173, -29.4020045 ], [ -51.952862, -29.4023526 ], [ -51.9529827, -29.4024546 ], [ -51.953133, -29.4025873 ], [ -51.9532524, -29.4027431 ], [ -51.9534085, -29.4028932 ], [ -51.9543113, -29.4037593 ], [ -51.9550268, -29.4045461 ], [ -51.9557638, -29.405349099999988 ], [ -51.9558197, -29.4054147 ], [ -51.9560646, -29.4057142 ], [ -51.9562323, -29.4059136 ], [ -51.9564833, -29.405779 ], [ -51.9565989, -29.4057032 ], [ -51.9573561, -29.405222 ], [ -51.9590343, -29.4041504 ], [ -51.9595581, -29.4038458 ], [ -51.959703, -29.4038099 ], [ -51.9598533, -29.4038252 ], [ -51.9599761, -29.403904799999989 ], [ -51.9606178, -29.4046561 ], [ -51.9608447, -29.4050208 ], [ -51.9625318, -29.4039834 ], [ -51.968658, -29.4001137 ], [ -51.9760378, -29.395355 ] ] ] } },
{ "type": "Feature", "properties": { "name": "Barra do Forqueta", "code_muni": 4301008.0, "name_muni": "Arroio do Meio" }, "geometry": { "type": "Polygon", "coordinates": [ [ [ -51.9544573, -29.4196271 ], [ -51.9552138, -29.4205872 ], [ -51.9552827, -29.4206747 ], [ -51.955436389157434, -29.421194719851439 ], [ -51.955702338847964, -29.421573347905319 ], [ -51.9567543, -29.4212423 ], [ -51.959909, -29.420728199999989 ], [ -51.9620304, -29.420629 ], [ -51.962053754672723, -29.420632833511981 ], [ -51.96217634899989, -29.420614321999896 ], [ -51.972645835802574, -29.422487614965963 ], [ -51.9716192, -29.4210023 ], [ -51.9702459, -29.4162175 ], [ -51.9690228, -29.4145727 ], [ -51.9696879, -29.4147315 ], [ -51.9708252, -29.414582 ], [ -51.9718659, -29.4144138 ], [ -51.9725311, -29.414068 ], [ -51.9726062, -29.4142082 ], [ -51.9729495, -29.4140119 ], [ -51.974355, -29.4157689 ], [ -51.9749987, -29.4153297 ], [ -51.973722, -29.4137315 ], [ -51.9739366, -29.4136007 ], [ -51.9735289, -29.4131614 ], [ -51.9743765, -29.4127222 ], [ -51.9780243, -29.4114511 ], [ -51.968658, -29.4001137 ], [ -51.9625318, -29.4039834 ], [ -51.9608447, -29.4050208 ], [ -51.9606178, -29.4046561 ], [ -51.9599761, -29.403904799999989 ], [ -51.9598533, -29.4038252 ], [ -51.959703, -29.4038099 ], [ -51.9595581, -29.4038458 ], [ -51.9590343, -29.4041504 ], [ -51.9573561, -29.405222 ], [ -51.9565989, -29.4057032 ], [ -51.9564833, -29.405779 ], [ -51.9562323, -29.4059136 ], [ -51.9570702, -29.4069102 ], [ -51.9573095, -29.4072151 ], [ -51.9575561, -29.407519 ], [ -51.9580762, -29.408082 ], [ -51.958211, -29.4082426 ], [ -51.9583001, -29.4083488 ], [ -51.95916170000001, -29.4094047 ], [ -51.9593561, -29.4096321 ], [ -51.9579721, -29.4111894 ], [ -51.9537878, -29.4144418 ], [ -51.951555275835474, -29.416983636159102 ], [ -51.953393159, -29.418285693 ], [ -51.954133220530132, -29.419339371071107 ], [ -51.9544573, -29.4196271 ] ] ] } },
{ "type": "Feature", "properties": { "name": "São José", "code_muni": 4301008.0, "name_muni": "Arroio do Meio" }, "geometry": { "type": "Polygon", "coordinates": [ [ [ -51.9506655, -29.400315 ], [ -51.9504529, -29.4003738 ], [ -51.9502662, -29.4003918 ], [ -51.950121, -29.4004912 ], [ -51.9500847, -29.4007216 ], [ -51.9500898, -29.4009249 ], [ -51.9500431, -29.4011146 ], [ -51.9498616, -29.4014398 ], [ -51.9498616, -29.4017109 ], [ -51.9497838, -29.4019521 ], [ -51.9498003, -29.4021247 ], [ -51.9498978, -29.4022304 ], [ -51.9501316, -29.4023121 ], [ -51.9502203, -29.4024038 ], [ -51.9502384, -29.4025714 ], [ -51.9500839, -29.4028 ], [ -51.9495839, -29.403186599999987 ], [ -51.949443, -29.4033524 ], [ -51.9492053, -29.4034892 ], [ -51.9491547, -29.4035873 ], [ -51.9490515, -29.4036258 ], [ -51.9489151, -29.4035931 ], [ -51.948749, -29.4034531 ], [ -51.9483964, -29.403191 ], [ -51.9482589, -29.4030284 ], [ -51.9481548, -29.4029825 ], [ -51.9480234, -29.4030077 ], [ -51.9478211, -29.4031057 ], [ -51.9474339, -29.403279699999988 ], [ -51.9470645, -29.4033507 ], [ -51.9467966, -29.4033889 ], [ -51.9465806, -29.4033401 ], [ -51.9464047, -29.4033575 ], [ -51.9461527, -29.4035282 ], [ -51.9459527, -29.4037233 ], [ -51.9457767, -29.403995 ], [ -51.9457243, -29.4041222 ], [ -51.945696, -29.4043574 ], [ -51.9457326, -29.4046108 ], [ -51.9459109, -29.404850299999989 ], [ -51.9459208, -29.404971899999989 ], [ -51.9458632, -29.4051406 ], [ -51.9458436, -29.4052196 ], [ -51.9458649, -29.40527620000001 ], [ -51.9460124, -29.4053913 ], [ -51.9461443, -29.4055752 ], [ -51.9462843, -29.4057564 ], [ -51.9463922, -29.4059271 ], [ -51.9465333, -29.405978 ], [ -51.9467017, -29.405955 ], [ -51.9469137, -29.4058819 ], [ -51.9472736, -29.4057705 ], [ -51.9476888, -29.405578 ], [ -51.9478976, -29.405439499999986 ], [ -51.9480096, -29.4052897 ], [ -51.9480641, -29.4052547 ], [ -51.9481526, -29.4052621 ], [ -51.9482695, -29.405352499999985 ], [ -51.9484535, -29.4055406 ], [ -51.9486414, -29.4057602 ], [ -51.9489875, -29.4060197 ], [ -51.9491594, -29.4061068 ], [ -51.9492154, -29.406173 ], [ -51.9491874, -29.4063124 ], [ -51.9491714, -29.406504 ], [ -51.9490193, -29.406765300000018 ], [ -51.9486794, -29.4070684 ], [ -51.9483074, -29.4072809 ], [ -51.9479763, -29.4074237 ], [ -51.9476359, -29.4075034 ], [ -51.9472254, -29.4075264 ], [ -51.9468129, -29.4074937 ], [ -51.9465114, -29.4074221 ], [ -51.9462006, -29.4073677 ], [ -51.9459894, -29.4072548 ], [ -51.9456847, -29.4070193 ], [ -51.9453114, -29.406838 ], [ -51.9450835, -29.406677699999985 ], [ -51.9448875, -29.406580199999986 ], [ -51.9447196, -29.4065801 ], [ -51.9446396, -29.4066115 ], [ -51.9445776, -29.4066683 ], [ -51.9444876, -29.4067508 ], [ -51.9444275, -29.4069355 ], [ -51.9445035, -29.4071619 ], [ -51.9445914, -29.4074281 ], [ -51.9445594, -29.407640600000015 ], [ -51.9444771, -29.4078608 ], [ -51.9443688, -29.4079615 ], [ -51.9442565, -29.4079716 ], [ -51.9440919, -29.4078863 ], [ -51.9438915, -29.4078008 ], [ -51.9437555, -29.4077903 ], [ -51.9436275, -29.4078495 ], [ -51.9435075, -29.4080028 ], [ -51.9434115, -29.4082258 ], [ -51.9433594, -29.4085114 ], [ -51.9433993, -29.4087901 ], [ -51.9435473, -29.4089992 ], [ -51.9437712, -29.4092431 ], [ -51.9439152, -29.4094173 ], [ -51.9439311, -29.409647299999985 ], [ -51.943995, -29.410073600000011 ], [ -51.9440269, -29.4104569 ], [ -51.9440669, -29.4108192 ], [ -51.943900672161341, -29.4115600547253 ], [ -51.951555275835474, -29.416983636159102 ], [ -51.9537878, -29.4144418 ], [ -51.9579721, -29.4111894 ], [ -51.9593561, -29.4096321 ], [ -51.95916170000001, -29.4094047 ], [ -51.9583001, -29.4083488 ], [ -51.958211, -29.4082426 ], [ -51.9580762, -29.408082 ], [ -51.9575561, -29.407519 ], [ -51.9573095, -29.4072151 ], [ -51.9570702, -29.4069102 ], [ -51.9562323, -29.4059136 ], [ -51.9560646, -29.4057142 ], [ -51.9558197, -29.4054147 ], [ -51.9557638, -29.405349099999988 ], [ -51.9550268, -29.4045461 ], [ -51.9543113, -29.4037593 ], [ -51.9534085, -29.4028932 ], [ -51.9532524, -29.4027431 ], [ -51.953133, -29.4025873 ], [ -51.9529827, -29.4024546 ], [ -51.952862, -29.4023526 ], [ -51.9524173, -29.4020045 ], [ -51.9522349, -29.4018246 ], [ -51.9520632, -29.4016493 ], [ -51.9515965, -29.4011633 ], [ -51.9513605, -29.4008782 ], [ -51.951131, -29.4005838 ], [ -51.9510409, -29.4004639 ], [ -51.9508101, -29.4002433 ], [ -51.9506655, -29.400315 ] ] ] } },
{ "type": "Feature", "properties": { "name": "Navegantes", "code_muni": 4301008.0, "name_muni": "Arroio do Meio" }, "geometry": { "type": "Polygon", "coordinates": [ [ [ -51.9352192, -29.4015976 ], [ -51.935729, -29.4020709 ], [ -51.936612, -29.4032474 ], [ -51.9373911, -29.4049896 ], [ -51.9382288, -29.406449 ], [ -51.9391046, -29.4076587 ], [ -51.9404588, -29.4089598 ], [ -51.94190068715438, -29.410142817740429 ], [ -51.943900672161341, -29.4115600547253 ], [ -51.9440669, -29.4108192 ], [ -51.9440269, -29.4104569 ], [ -51.943995, -29.410073600000011 ], [ -51.9439311, -29.409647299999985 ], [ -51.9439152, -29.4094173 ], [ -51.9437712, -29.4092431 ], [ -51.9435473, -29.4089992 ], [ -51.9433993, -29.4087901 ], [ -51.9433594, -29.4085114 ], [ -51.9434115, -29.4082258 ], [ -51.9435075, -29.4080028 ], [ -51.9436275, -29.4078495 ], [ -51.9437555, -29.4077903 ], [ -51.9438915, -29.4078008 ], [ -51.9440919, -29.4078863 ], [ -51.9442565, -29.4079716 ], [ -51.9443688, -29.4079615 ], [ -51.9444771, -29.4078608 ], [ -51.9445594, -29.407640600000015 ], [ -51.9445914, -29.4074281 ], [ -51.9445035, -29.4071619 ], [ -51.9444275, -29.4069355 ], [ -51.9444876, -29.4067508 ], [ -51.9445776, -29.4066683 ], [ -51.9442633, -29.4057662 ], [ -51.9437711, -29.405852699999986 ], [ -51.9432801, -29.4059656 ], [ -51.9433506, -29.4058632 ], [ -51.9433804, -29.4056702 ], [ -51.9429939, -29.4052094 ], [ -51.942536, -29.4046096 ], [ -51.9424836, -29.4045447 ], [ -51.9419893, -29.404983899999987 ], [ -51.9419485, -29.4049461 ], [ -51.941227, -29.4043899 ], [ -51.9410393, -29.4043385 ], [ -51.9403059, -29.4036867 ], [ -51.9394737, -29.4027487 ], [ -51.9386681, -29.4032751 ], [ -51.9358867, -29.4006605 ], [ -51.9349431, -29.4013413 ], [ -51.9352192, -29.4015976 ] ] ] } },
{ "type": "Feature", "properties": { "name": "Centro", "code_muni": 4301008.0, "name_muni": "Arroio do Meio" }, "geometry": { "type": "Polygon", "coordinates": [ [ [ -51.9403059, -29.4036867 ], [ -51.9410393, -29.4043385 ], [ -51.941227, -29.4043899 ], [ -51.9419485, -29.4049461 ], [ -51.9419893, -29.404983899999987 ], [ -51.9424836, -29.4045447 ], [ -51.942536, -29.4046096 ], [ -51.9429939, -29.4052094 ], [ -51.9433804, -29.4056702 ], [ -51.9433506, -29.4058632 ], [ -51.9432801, -29.4059656 ], [ -51.9437711, -29.405852699999986 ], [ -51.9442633, -29.4057662 ], [ -51.9445776, -29.4066683 ], [ -51.9446396, -29.4066115 ], [ -51.9447196, -29.4065801 ], [ -51.9448875, -29.406580199999986 ], [ -51.9450835, -29.406677699999985 ], [ -51.9453114, -29.406838 ], [ -51.9456847, -29.4070193 ], [ -51.9459894, -29.4072548 ], [ -51.9462006, -29.4073677 ], [ -51.9465114, -29.4074221 ], [ -51.9468129, -29.4074937 ], [ -51.9472254, -29.4075264 ], [ -51.9476359, -29.4075034 ], [ -51.9479763, -29.4074237 ], [ -51.9483074, -29.4072809 ], [ -51.9486794, -29.4070684 ], [ -51.9490193, -29.406765300000018 ], [ -51.9491714, -29.406504 ], [ -51.9491874, -29.4063124 ], [ -51.9492154, -29.406173 ], [ -51.9491594, -29.4061068 ], [ -51.9489875, -29.4060197 ], [ -51.9486414, -29.4057602 ], [ -51.9484535, -29.4055406 ], [ -51.9482695, -29.405352499999985 ], [ -51.9481526, -29.4052621 ], [ -51.9480641, -29.4052547 ], [ -51.9480096, -29.4052897 ], [ -51.9478976, -29.405439499999986 ], [ -51.9476888, -29.405578 ], [ -51.9472736, -29.4057705 ], [ -51.9469137, -29.4058819 ], [ -51.9467017, -29.405955 ], [ -51.9465333, -29.405978 ], [ -51.9463922, -29.4059271 ], [ -51.9462843, -29.4057564 ], [ -51.9461443, -29.4055752 ], [ -51.9460124, -29.4053913 ], [ -51.9458649, -29.40527620000001 ], [ -51.9458436, -29.4052196 ], [ -51.9458632, -29.4051406 ], [ -51.9459208, -29.404971899999989 ], [ -51.9459109, -29.404850299999989 ], [ -51.9457326, -29.4046108 ], [ -51.945696, -29.4043574 ], [ -51.9457243, -29.4041222 ], [ -51.9457767, -29.403995 ], [ -51.9459527, -29.4037233 ], [ -51.9461527, -29.4035282 ], [ -51.9464047, -29.4033575 ], [ -51.9465806, -29.4033401 ], [ -51.9467966, -29.4033889 ], [ -51.9470645, -29.4033507 ], [ -51.9474339, -29.403279699999988 ], [ -51.9478211, -29.4031057 ], [ -51.9480234, -29.4030077 ], [ -51.9481548, -29.4029825 ], [ -51.9482589, -29.4030284 ], [ -51.9483964, -29.403191 ], [ -51.948749, -29.4034531 ], [ -51.9489151, -29.4035931 ], [ -51.9490515, -29.4036258 ], [ -51.9491547, -29.4035873 ], [ -51.9492053, -29.4034892 ], [ -51.949443, -29.4033524 ], [ -51.9495839, -29.403186599999987 ], [ -51.9500839, -29.4028 ], [ -51.9502384, -29.4025714 ], [ -51.9502203, -29.4024038 ], [ -51.9501316, -29.4023121 ], [ -51.9498978, -29.4022304 ], [ -51.9498003, -29.4021247 ], [ -51.9497838, -29.4019521 ], [ -51.9498616, -29.4017109 ], [ -51.9498616, -29.4014398 ], [ -51.9500431, -29.4011146 ], [ -51.9500898, -29.4009249 ], [ -51.9500847, -29.4007216 ], [ -51.950121, -29.4004912 ], [ -51.9502662, -29.4003918 ], [ -51.9504529, -29.4003738 ], [ -51.9506655, -29.400315 ], [ -51.9508101, -29.4002433 ], [ -51.9507274, -29.4000263 ], [ -51.9506402, -29.3998967 ], [ -51.9501044, -29.3990496 ], [ -51.9493108, -29.3977522 ], [ -51.9483885, -29.3963678 ], [ -51.947903, -29.395807 ], [ -51.9474031, -29.3953965 ], [ -51.9470113, -29.3950708 ], [ -51.9461945, -29.3944342 ], [ -51.9445441, -29.393146 ], [ -51.9442016, -29.3929099 ], [ -51.944156, -29.3931709 ], [ -51.9441503, -29.3933578 ], [ -51.9441001, -29.3935579 ], [ -51.9441471, -29.3936787 ], [ -51.9441775, -29.3937528 ], [ -51.9440353, -29.3938533 ], [ -51.9436455, -29.393913 ], [ -51.9434157, -29.3939678 ], [ -51.9432313, -29.3940877 ], [ -51.9429922, -29.394367 ], [ -51.9429965, -29.3946367 ], [ -51.9430996, -29.3948802 ], [ -51.9432452, -29.395184 ], [ -51.9432151, -29.3955959 ], [ -51.9432236, -29.3958431 ], [ -51.9433053, -29.3959967 ], [ -51.9433912, -29.3960417 ], [ -51.9435073, -29.396008 ], [ -51.9436277, -29.3960492 ], [ -51.9439156, -29.3962103 ], [ -51.9440876, -29.3963377 ], [ -51.9441907, -29.3965175 ], [ -51.944354, -29.3967834 ], [ -51.944545, -29.3970931 ], [ -51.9446575, -29.3975319 ], [ -51.9446752, -29.3979294 ], [ -51.9446041, -29.3982443 ], [ -51.94447370000001, -29.398456 ], [ -51.9442899, -29.3985541 ], [ -51.9441774, -29.3985644 ], [ -51.9439996, -29.3985024 ], [ -51.943727, -29.3983268 ], [ -51.9435612, -29.3980428 ], [ -51.9434664, -29.3978105 ], [ -51.9434309, -29.3975523 ], [ -51.9433361, -29.3973871 ], [ -51.9432117, -29.3972116 ], [ -51.9429688, -29.3971031 ], [ -51.942714, -29.397103099999988 ], [ -51.9423999, -29.3970927 ], [ -51.9420918, -29.3971443 ], [ -51.9419935, -29.3971531 ], [ -51.9417481, -29.3971752 ], [ -51.9414874, -29.3970925 ], [ -51.9413038, -29.3969067 ], [ -51.9412039, -29.396747399999988 ], [ -51.9410865, -29.3967075 ], [ -51.9407857, -29.3966925 ], [ -51.9403582, -29.3967481 ], [ -51.9400839, -29.3968298 ], [ -51.939912, -29.3969227 ], [ -51.9397755, -29.396937 ], [ -51.9396224, -29.3968753 ], [ -51.9394881, -29.3967707 ], [ -51.9393136, -29.3967367 ], [ -51.9391536, -29.3967883 ], [ -51.9389699, -29.3967522 ], [ -51.9387329, -29.3966127 ], [ -51.9385848, -29.3964527 ], [ -51.938477, -29.396300599999989 ], [ -51.9384311, -29.3960949 ], [ -51.9384802, -29.395962300000011 ], [ -51.938668, -29.3957351 ], [ -51.9387482, -29.3956702 ], [ -51.9388339, -29.3956009 ], [ -51.9388576, -29.395507899999984 ], [ -51.9387629, -29.3953789 ], [ -51.9386023, -29.395314 ], [ -51.93852, -29.3952807 ], [ -51.9384634, -29.3952257 ], [ -51.9384192, -29.3951826 ], [ -51.9384216, -29.3950455 ], [ -51.9384668, -29.3949601 ], [ -51.9385734, -29.3948471 ], [ -51.9386505, -29.3946664 ], [ -51.9386505, -29.3944341 ], [ -51.9386328, -29.3941914 ], [ -51.9385855, -29.3938404 ], [ -51.9385085, -29.3936648 ], [ -51.9383604, -29.3936286 ], [ -51.9381767, -29.3936544 ], [ -51.9378449, -29.3937215 ], [ -51.9375899, -29.3937849 ], [ -51.93743, -29.3938246 ], [ -51.936956, -29.3939278 ], [ -51.936431, -29.394191 ], [ -51.9359628, -29.3944542 ], [ -51.9355717, -29.394769 ], [ -51.9352872, -29.3950064 ], [ -51.9353226, -29.3953957 ], [ -51.9354588, -29.3957933 ], [ -51.9357194, -29.3962477 ], [ -51.9359385, -29.3965162 ], [ -51.9359918, -29.3966917 ], [ -51.9359207, -29.3968311 ], [ -51.9356836, -29.3970169 ], [ -51.9354169, -29.3971098 ], [ -51.9349547, -29.3971819 ], [ -51.9341962, -29.3973263 ], [ -51.9337873, -29.3973882 ], [ -51.9336194, -29.3971868 ], [ -51.9335484, -29.3968925 ], [ -51.9332936, -29.3966756 ], [ -51.9330922, -29.396531 ], [ -51.9327663, -29.3964896 ], [ -51.9323515, -29.3964844 ], [ -51.9316701, -29.3965048 ], [ -51.93097680000001, -29.3964479 ], [ -51.9306094, -29.39636 ], [ -51.9304731, -29.3964942 ], [ -51.93055, -29.396773 ], [ -51.9308522, -29.3969848 ], [ -51.9311424, -29.3972955 ], [ -51.9314267, -29.3977034 ], [ -51.9317229, -29.3981113 ], [ -51.9320783, -29.3986225 ], [ -51.9322501, -29.3987568 ], [ -51.9327595, -29.3991132 ], [ -51.9334606, -29.3996215 ], [ -51.9339583, -29.4000056 ], [ -51.934279, -29.4003658 ], [ -51.9343425, -29.4005355 ], [ -51.9343171, -29.4007602 ], [ -51.9347019, -29.4011174 ], [ -51.9349431, -29.4013413 ], [ -51.9358867, -29.4006605 ], [ -51.9386681, -29.4032751 ], [ -51.9394737, -29.4027487 ], [ -51.9403059, -29.4036867 ] ] ] } },
{ "type": "Feature", "properties": { "name": "Palmas", "code_muni": 4301008.0, "name_muni": "Arroio do Meio" }, "geometry": { "type": "MultiPolygon", "coordinates": [ [ [ [ -51.9023212, -29.2947396 ], [ -51.902506709914, -29.294597524143974 ], [ -51.902206518693617, -29.294718421192581 ], [ -51.9023212, -29.2947396 ] ] ], [ [ [ -51.9062795, -29.2944941 ], [ -51.9064113, -29.2945934 ], [ -51.906485509372558, -29.294580674044596 ], [ -51.906272886501831, -29.294418683942567 ], [ -51.9062795, -29.2944941 ] ] ] ] } },
{ "type": "Feature", "properties": { "name": "Planalto", "code_muni": 4301008.0, "name_muni": "Arroio do Meio" }, "geometry": { "type": "MultiPolygon", "coordinates": [ [ [ [ -51.9873148, -29.4104349 ], [ -51.9868807, -29.4108408 ], [ -51.9862944, -29.4116606 ], [ -51.986043499704515, -29.411879971237919 ], [ -51.987698275634905, -29.411088749201465 ], [ -51.9879053, -29.4104485 ], [ -51.9873148, -29.4104349 ] ] ], [ [ [ -51.983152, -29.4113316 ], [ -51.9821939, -29.4109396 ], [ -51.98093, -29.4107241 ], [ -51.980171, -29.4108316 ], [ -51.9793652, -29.4111391 ], [ -51.9790713, -29.4116933 ], [ -51.9791077, -29.4127667 ], [ -51.979465, -29.4131943 ], [ -51.98007012986087, -29.413353716058946 ], [ -51.979365895999898, -29.412999049999893 ], [ -51.979806644, -29.41106877399989 ], [ -51.984900906727617, -29.412059933306669 ], [ -51.983152, -29.4113316 ] ] ], [ [ [ -51.984367217266751, -29.415615255348808 ], [ -51.984290196, -29.415478892999889 ], [ -51.983996856788792, -29.415331178028637 ], [ -51.984367217266751, -29.415615255348808 ] ] ], [ [ [ -51.9853326, -29.418355099999989 ], [ -51.9842088, -29.4197512 ], [ -51.9832094, -29.4209478 ], [ -51.982578098825606, -29.421386973775807 ], [ -51.984211436, -29.420768209999899 ], [ -51.985683736999896, -29.417946023 ], [ -51.985594794545854, -29.417788563103151 ], [ -51.9853326, -29.418355099999989 ] ] ], [ [ [ -51.9801871, -29.4221375 ], [ -51.9779406, -29.4225764 ], [ -51.977999494576736, -29.423121359485414 ], [ -51.981824983399761, -29.421672270360798 ], [ -51.9801871, -29.4221375 ] ] ] ] } },
{ "type": "Feature", "properties": { "name": "Igrejinha", "code_muni": 4301008.0, "name_muni": "Arroio do Meio" }, "geometry": { "type": "MultiPolygon", "coordinates": [ [ [ [ -51.9924183, -29.4108689 ], [ -51.9918787, -29.4110899 ], [ -51.9911664, -29.4116574 ], [ -51.99116348675139, -29.411657564881278 ], [ -51.991296201, -29.41171625 ], [ -51.993075892474657, -29.411044347185332 ], [ -51.9930325, -29.4107629 ], [ -51.9924183, -29.4108689 ] ] ], [ [ [ -51.9889982, -29.4104738 ], [ -51.9879053, -29.4104485 ], [ -51.987698275634905, -29.411088749201465 ], [ -51.988745165, -29.410588167999901 ], [ -51.989680556386283, -29.41100181184429 ], [ -51.9889982, -29.4104738 ] ] ] ] } },
{ "type": "Feature", "properties": { "name": "Imigrante", "code_muni": 4301008.0, "name_muni": "Arroio do Meio" }, "geometry": { "type": "MultiPolygon", "coordinates": [ [ [ [ -52.033523833920313, -29.403211521354432 ], [ -52.033566261, -29.403207741999889 ], [ -52.033572271712671, -29.403190004551096 ], [ -52.033523833920313, -29.403211521354432 ] ] ], [ [ [ -52.0311054, -29.4030257 ], [ -52.0282068, -29.402615399999984 ], [ -52.0262201, -29.4027788 ], [ -52.0252311, -29.4031515 ], [ -52.024684, -29.4036749 ], [ -52.0243836, -29.4042731 ], [ -52.0243167, -29.4057197 ], [ -52.022813170276557, -29.406775988776506 ], [ -52.023295104999896, -29.406685695 ], [ -52.026871368999906, -29.4038039449999 ], [ -52.032522263794817, -29.403300736052952 ], [ -52.0311054, -29.4030257 ] ] ], [ [ [ -52.0194832, -29.4071319 ], [ -52.017443160670076, -29.407781968834772 ], [ -52.022586925668797, -29.406818376602796 ], [ -52.0194832, -29.4071319 ] ] ], [ [ [ -52.0008669, -29.4071917 ], [ -52.0005119, -29.4069509 ], [ -51.9994695, -29.406661 ], [ -51.9985056, -29.4066658 ], [ -51.9981059, -29.4068247 ], [ -51.9977208, -29.4071652 ], [ -51.996326, -29.4078568 ], [ -51.995457, -29.408698 ], [ -51.994533366694654, -29.410494069830072 ], [ -51.994837120999897, -29.410379383 ], [ -51.997461756, -29.407298763 ], [ -52.001558276428383, -29.407421292457915 ], [ -52.0008669, -29.4071917 ] ] ], [ [ [ -51.9930325, -29.4107629 ], [ -51.993075892474657, -29.411044347185332 ], [ -51.99448609228034, -29.410511918883991 ], [ -51.9930325, -29.4107629 ] ] ] ] } }
]
}
