{
"type": "FeatureCollection",
"name": "bairros_carlos_gomes",
"crs": { "type": "name", "properties": { "name": "urn:ogc:def:crs:OGC:1.3:CRS84" } },
"features": [
{ "type": "Feature", "properties": { "code_muni": 4304853.0, "name_muni": "Carlos Gomes", "code_state": 43.0, "abbrev_state": "RS", "name_state": "Rio Grande do Sul", "code_region": 4.0, "name_region": "Sul", "year": 2022.0 }, "geometry": { "type": "Polygon", "coordinates": [ [ [ -51.963427591, -27.7306341029999 ], [ -51.983325857, -27.726827229 ], [ -51.973479214, -27.673016622 ], [ -51.946804071, -27.666855316999904 ], [ -51.947175907, -27.665401256999893 ], [ -51.908117596, -27.6544401089999 ], [ -51.907025585, -27.651160852 ], [ -51.896401657, -27.652158390999901 ], [ -51.892666516, -27.655812782999895 ], [ -51.888028495, -27.664342487999903 ], [ -51.892773007, -27.679053328999903 ], [ -51.880162546999891, -27.683284736 ], [ -51.87408426199989, -27.689104601999897 ], [ -51.875268841, -27.694060610999905 ], [ -51.87708407, -27.695462262 ], [ -51.890372933, -27.697001175 ], [ -51.892676144999896, -27.698613023999904 ], [ -51.892960253, -27.701927899999902 ], [ -51.87868178, -27.712721364999897 ], [ -51.877753959, -27.714758416999899 ], [ -51.879651456, -27.719736139 ], [ -51.893944457, -27.710553913999895 ], [ -51.896188009999889, -27.709901542999898 ], [ -51.900361185999898, -27.712381482999898 ], [ -51.890912214, -27.719252309 ], [ -51.888402998999901, -27.722205284 ], [ -51.88790246699989, -27.725441437 ], [ -51.88959195199989, -27.727559965 ], [ -51.898796359, -27.731156644 ], [ -51.899018898999898, -27.734730363 ], [ -51.895802323999909, -27.738748874 ], [ -51.896973795999891, -27.7419761909999 ], [ -51.902229898, -27.747771387999901 ], [ -51.904487463, -27.754901168999904 ], [ -51.907420441999911, -27.756968872999902 ], [ -51.915043518999902, -27.753941183999906 ], [ -51.927390973999891, -27.751267151 ], [ -51.943596081, -27.750195517999888 ], [ -51.949158897, -27.751251410999895 ], [ -51.954715033, -27.749576411 ], [ -51.958842089, -27.750814556 ], [ -51.96177259, -27.748815454999907 ], [ -51.962980946, -27.749243693 ], [ -51.963427591, -27.7306341029999 ] ] ] } }
]
}
