{
"type": "FeatureCollection",
"name": "bairros_santana_da_boa_vista",
"crs": { "type": "name", "properties": { "name": "urn:ogc:def:crs:OGC:1.3:CRS84" } },
"features": [
{ "type": "Feature", "properties": { "code_muni": 4317004.0, "name_muni": "Santana da Boa Vista", "code_state": 43.0, "abbrev_state": "RS", "name_state": "Rio Grande do Sul", "code_region": 4.0, "name_region": "Sul", "year": 2022.0 }, "geometry": { "type": "Polygon", "coordinates": [ [ [ -52.958363410621089, -30.809841663036092 ], [ -52.96420962748789, -30.811596548378294 ], [ -52.962961482292897, -30.816504105643585 ], [ -52.955298312915502, -30.816349362845699 ], [ -52.957067652257706, -30.824904428890502 ], [ -52.954907204748096, -30.824868719013097 ], [ -52.955322969737203, -30.8268480664352 ], [ -52.954013607611699, -30.828099612570803 ], [ -52.950099124997493, -30.826276708416799 ], [ -52.947555221439295, -30.829497399151496 ], [ -52.951356622776501, -30.830182688678295 ], [ -52.95016034192799, -30.833362568127306 ], [ -52.951840406577396, -30.836355395842695 ], [ -52.951309859845999, -30.839783543953203 ], [ -52.954435324244301, -30.841198335236896 ], [ -52.95360549474141, -30.845432506266196 ], [ -52.960965130169001, -30.848112447447701 ], [ -52.960536611655193, -30.858464910590794 ], [ -52.96508111851039, -30.859697751552101 ], [ -52.9670256062929, -30.857363005841005 ], [ -52.968283954309591, -30.859185909994999 ], [ -52.970229292324703, -30.859359357964902 ], [ -52.983812649024202, -30.853067617881209 ], [ -52.987097957629992, -30.855455078172394 ], [ -52.988363107528002, -30.859168905292087 ], [ -52.983052538800891, -30.858401142953799 ], [ -52.981901320414991, -30.861576771226808 ], [ -52.985649156940489, -30.866753002798294 ], [ -52.984662884170604, -30.871704772291203 ], [ -52.988512748913699, -30.8698308540285 ], [ -52.990893407323803, -30.874799628224299 ], [ -52.995144583055996, -30.875547835153103 ], [ -52.995416658302794, -30.8806356422695 ], [ -52.998708768789903, -30.885043261268603 ], [ -52.998953636511999, -30.890253502246004 ], [ -53.00725193154129, -30.8886890695766 ], [ -53.008716036461202, -30.8921962895547 ], [ -53.012883889151396, -30.892742990754801 ], [ -53.012162889747202, -30.897273043615009 ], [ -53.014864937040301, -30.899402882655998 ], [ -53.012775059052593, -30.902986623799098 ], [ -53.018624676860099, -30.905979451514604 ], [ -53.017700317525303, -30.907384161434297 ], [ -53.013127186987191, -30.9073206772226 ], [ -53.012992719250107, -30.909791905911309 ], [ -53.019740185372299, -30.915396655996595 ], [ -53.018604271214294, -30.917205956387502 ], [ -53.020600623340499, -30.920052543658503 ], [ -53.024028771450901, -30.920657911082795 ], [ -53.02460693135049, -30.927289745225103 ], [ -53.028744303073694, -30.929900650960203 ], [ -53.026606684414901, -30.938118340050192 ], [ -53.02052580264759, -30.950742631504493 ], [ -53.023110517492803, -30.9626187160301 ], [ -53.020607425221598, -30.972780726500297 ], [ -53.023001687393993, -30.986357281318696 ], [ -53.02946347450699, -30.9871735070593 ], [ -53.0376529394375, -30.984534377164795 ], [ -53.04118991764669, -30.982112907467698 ], [ -53.047910176244201, -30.973675173874401 ], [ -53.051256751, -30.973879622 ], [ -53.054305645013599, -30.978075140756804 ], [ -53.0579293472099, -30.978538518912085 ], [ -53.061262268983903, -30.9772053502024 ], [ -53.063433769545895, -30.974374917399505 ], [ -53.066873820950498, -30.974617234416701 ], [ -53.066843212485203, -30.970811581901195 ], [ -53.068645710995696, -30.969519224478596 ], [ -53.078100325824103, -30.970889803534607 ], [ -53.082575963634994, -30.968468333837603 ], [ -53.086602677288489, -30.968767616609103 ], [ -53.097676139835791, -30.975093366098687 ], [ -53.124666004324496, -30.985500244291096 ], [ -53.130518104, -30.990490441 ], [ -53.131065724270002, -30.994489780494099 ], [ -53.127985322336194, -30.997185876143806 ], [ -53.126312059568001, -31.001198986035103 ], [ -53.122304901320994, -31.004206267747694 ], [ -53.124365871315995, -31.008236382341803 ], [ -53.123686533435801, -31.013387957094494 ], [ -53.125917550460095, -31.016802501442598 ], [ -53.130529225894392, -31.017496293322107 ], [ -53.133562864896902, -31.019373612525392 ], [ -53.1368821829086, -31.025740173301998 ], [ -53.141194895589003, -31.029486542137199 ], [ -53.147187032883494, -31.030603518339603 ], [ -53.152846198018203, -31.030045764083599 ], [ -53.15863799983569, -31.026172092756401 ], [ -53.186144807293502, -31.014738130506998 ], [ -53.198966353301799, -31.006861552110397 ], [ -53.203775283290092, -31.009269418045101 ], [ -53.2066456771445, -31.008725267551405 ], [ -53.216794083852399, -30.995182722138807 ], [ -53.223067968996801, -30.990507279068098 ], [ -53.225516646218502, -30.991078637086503 ], [ -53.227840338874991, -30.994026402339586 ], [ -53.234751050145292, -31.009357842500293 ], [ -53.238396858453193, -31.009249012401504 ], [ -53.244314495072494, -31.000991528659306 ], [ -53.248518057636502, -30.998733304110296 ], [ -53.25413641148419, -30.999712774999004 ], [ -53.259972425529398, -31.002936866674396 ], [ -53.259809180381197, -31.009480276361408 ], [ -53.261713707109301, -31.010527766061788 ], [ -53.269182172635603, -31.009058559728697 ], [ -53.272459829124202, -31.006600529919996 ], [ -53.278582372414689, -31.005888883102791 ], [ -53.281724841515995, -31.000882698560492 ], [ -53.278904611534308, -30.994760155270601 ], [ -53.2809222195377, -30.992421158383099 ], [ -53.2861188567528, -30.994189647487701 ], [ -53.285574706258991, -30.999998454008193 ], [ -53.298143642900797, -31.003265572340492 ], [ -53.307490367393797, -30.998474832625785 ], [ -53.31943447073099, -30.987918313047601 ], [ -53.324168580026402, -30.985768918597394 ], [ -53.327311049127701, -30.988285614630801 ], [ -53.326889332494993, -30.994393703922899 ], [ -53.327926619373699, -30.995998947879411 ], [ -53.343542888308498, -30.997076195809903 ], [ -53.345937150480893, -30.995348517992408 ], [ -53.34913403463149, -30.987029817319492 ], [ -53.356252203276796, -30.986342827320797 ], [ -53.358901535993901, -30.979085220111092 ], [ -53.3687914712173, -30.979636172486003 ], [ -53.381504187126993, -30.984914432275094 ], [ -53.385612523354702, -30.988070505138694 ], [ -53.393611535612401, -30.985989129500194 ], [ -53.400154945299491, -30.982683415250897 ], [ -53.404725809446795, -30.9752557610115 ], [ -53.412391529527099, -30.975419006159598 ], [ -53.415506791103702, -30.973147177848301 ], [ -53.416040738775699, -30.966751709076693 ], [ -53.417580581127496, -30.964778298390005 ], [ -53.411802316570601, -30.961148659461589 ], [ -53.416592541385697, -30.957887157439906 ], [ -53.416073472828103, -30.954175881025094 ], [ -53.419830236823401, -30.955645937593793 ], [ -53.4216429381556, -30.954578042249896 ], [ -53.4173033379681, -30.9518028747319 ], [ -53.421085183899493, -30.951836884137698 ], [ -53.422457888542901, -30.950154268782391 ], [ -53.419163652468491, -30.9484733538984 ], [ -53.416793196880199, -30.944426234601298 ], [ -53.413031331474102, -30.943519883934592 ], [ -53.412560301202994, -30.936110934868392 ], [ -53.409147457325098, -30.933379979577992 ], [ -53.413356546418193, -30.930280022234694 ], [ -53.408517007964697, -30.925630936453889 ], [ -53.408360564697702, -30.923243476162703 ], [ -53.412009773945698, -30.921294312088698 ], [ -53.418862669226598, -30.921189308048902 ], [ -53.421392969022001, -30.919903327389093 ], [ -53.421311346448391, -30.915965463309099 ], [ -53.413897295970791, -30.916988721307 ], [ -53.412740148999902, -30.913118348999905 ], [ -53.4193694093739, -30.909393145627099 ], [ -53.419750314719501, -30.906264280288102 ], [ -53.4254230836166, -30.899163116345001 ], [ -53.424904440177194, -30.895871005858005 ], [ -53.4319222810757, -30.895962406135205 ], [ -53.429822767, -30.892082757 ], [ -53.42467487668759, -30.891781374803497 ], [ -53.423141052483103, -30.890437578153492 ], [ -53.427439841383595, -30.889645158996998 ], [ -53.432469832510307, -30.885054314324801 ], [ -53.427987392818196, -30.8796876300805 ], [ -53.426141532314801, -30.879096291538797 ], [ -53.423802535427001, -30.880408204365903 ], [ -53.423059429909394, -30.878680951667103 ], [ -53.418175679227794, -30.876074555824498 ], [ -53.423088222733895, -30.8744075163909 ], [ -53.421947322337502, -30.872733981934001 ], [ -53.423540663001894, -30.8710641201064 ], [ -53.421540054301495, -30.867479281371498 ], [ -53.424056961032399, -30.860259405138599 ], [ -53.425440160697896, -30.859438526897506 ], [ -53.424724993897108, -30.857786459865594 ], [ -53.42272588062081, -30.857550563592696 ], [ -53.419651687442396, -30.8609654521557 ], [ -53.417813479055397, -30.855487812223295 ], [ -53.422118124805301, -30.850336239193705 ], [ -53.424149869266692, -30.852916028935301 ], [ -53.425766578615594, -30.852429091285401 ], [ -53.424841522776291, -30.844171607542997 ], [ -53.425744472501499, -30.841197059881694 ], [ -53.423248182111593, -30.840496466120999 ], [ -53.421321833254297, -30.842261947111801 ], [ -53.417418780988498, -30.841959202230996 ], [ -53.418216490515192, -30.844362060215897 ], [ -53.417125553537304, -30.84517326062771 ], [ -53.411754703402195, -30.844851795660208 ], [ -53.410557572316002, -30.843518626950601 ], [ -53.411441816868297, -30.8410155346794 ], [ -53.408463786827802, -30.838085042160898 ], [ -53.408804601424201, -30.836605761785204 ], [ -53.411945156074999, -30.836771160828402 ], [ -53.412495097777196, -30.834392393054301 ], [ -53.4155991392281, -30.832494232505791 ], [ -53.414356888152, -30.830583608655598 ], [ -53.415026280651297, -30.827824347398305 ], [ -53.409522034277003, -30.827510838757604 ], [ -53.408761875686693, -30.824514170957201 ], [ -53.420107413480899, -30.818351666615698 ], [ -53.419000033817298, -30.817208335290502 ], [ -53.413115543499295, -30.816613722590493 ], [ -53.415296783021894, -30.811785725695504 ], [ -53.407698766829597, -30.810402920424998 ], [ -53.408052779574099, -30.808235143723902 ], [ -53.41333273983399, -30.805999450408098 ], [ -53.413370701234896, -30.8048484809431 ], [ -53.405549640742699, -30.800109934384 ], [ -53.404119307146097, -30.795913767970898 ], [ -53.396078067771491, -30.797020542142203 ], [ -53.395105848778591, -30.799340948792199 ], [ -53.39360300143619, -30.799255745143096 ], [ -53.392493476394002, -30.794905157097805 ], [ -53.3959742008619, -30.793411137384386 ], [ -53.396742846547291, -30.791812209331212 ], [ -53.392939953889098, -30.7913953686048 ], [ -53.392029248004597, -30.7880560878775 ], [ -53.389409440982703, -30.788068800603003 ], [ -53.388505873557804, -30.784723166103412 ], [ -53.389678648256897, -30.779759631973093 ], [ -53.3847146292769, -30.780935147745399 ], [ -53.374545483115995, -30.777156275266105 ], [ -53.373340654369301, -30.779766295205299 ], [ -53.369888967726702, -30.781379860938088 ], [ -53.3690725082947, -30.777266858725604 ], [ -53.366232688545203, -30.777528476299899 ], [ -53.365028054226698, -30.779286026583193 ], [ -53.362155385899094, -30.7753637776114 ], [ -53.360413679203091, -30.776603420460599 ], [ -53.358603336518399, -30.775024371195297 ], [ -53.357252768038201, -30.777674748535105 ], [ -53.354332277002399, -30.778115269529302 ], [ -53.353230068094994, -30.780595239570896 ], [ -53.349857159625095, -30.780024766689799 ], [ -53.349874164327993, -30.783055004751596 ], [ -53.348176313353591, -30.782575884502101 ], [ -53.34743259426979, -30.778206818130993 ], [ -53.344825893143202, -30.781138149606399 ], [ -53.337396538434497, -30.777581190873303 ], [ -53.3356501554426, -30.778771094958596 ], [ -53.332584045569, -30.7781722607976 ], [ -53.3329071849437, -30.776758356096504 ], [ -53.330781283879993, -30.775627350512501 ], [ -53.329288696077995, -30.777159474240602 ], [ -53.3279691311307, -30.776152795827301 ], [ -53.325956742590407, -30.777110047754405 ], [ -53.3255171280179, -30.776174620457994 ], [ -53.32275846503839, -30.779109913672208 ], [ -53.321528872103094, -30.779161280285201 ], [ -53.3200653452094, -30.776696946321003 ], [ -53.30909684391689, -30.780161856645904 ], [ -53.308039619297993, -30.778751114434804 ], [ -53.306766433472696, -30.780550711597705 ], [ -53.304313656084993, -30.780654043682805 ], [ -53.301235900866502, -30.775280322048307 ], [ -53.296100114959103, -30.773070125797105 ], [ -53.292616353739902, -30.7694525177535 ], [ -53.291451530759595, -30.770024435247905 ], [ -53.288327767662793, -30.766602954662311 ], [ -53.281831971143994, -30.775561032165292 ], [ -53.2751389200711, -30.778683095623098 ], [ -53.2727922710652, -30.782450912672498 ], [ -53.2689968213732, -30.782458139673302 ], [ -53.259295764239894, -30.786048273112598 ], [ -53.257064606977195, -30.7838238007133 ], [ -53.250937195616999, -30.783899940144405 ], [ -53.248716462209892, -30.782183177257387 ], [ -53.244965775192, -30.782838619899298 ], [ -53.241664047409294, -30.780450212083107 ], [ -53.237353558539702, -30.781302135268891 ], [ -53.234747142657099, -30.777158881226399 ], [ -53.228924742232294, -30.772242449389591 ], [ -53.226728029008299, -30.772906063451504 ], [ -53.225594017617304, -30.771316658314184 ], [ -53.222692639159995, -30.770866614404195 ], [ -53.222750650155092, -30.769860486207495 ], [ -53.216098591499495, -30.768581876963591 ], [ -53.214830040663294, -30.762378986454795 ], [ -53.216870605012495, -30.753400078188495 ], [ -53.215884332244897, -30.746809480452992 ], [ -53.212340552152199, -30.738177468126299 ], [ -53.208000951966994, -30.734484471770092 ], [ -53.212741863143599, -30.728213137329899 ], [ -53.207589839147992, -30.727287667160599 ], [ -53.205181929634598, -30.7251925864723 ], [ -53.200729585758793, -30.7275583473673 ], [ -53.201443938517599, -30.723166141500599 ], [ -53.199226525255703, -30.7203229551709 ], [ -53.193376907448091, -30.7231389339759 ], [ -53.190690511130896, -30.723132629634794 ], [ -53.189268571220502, -30.719506729430297 ], [ -53.193503591178398, -30.715091421946099 ], [ -53.182830021291508, -30.712937197241693 ], [ -53.183770178523403, -30.708570802096901 ], [ -53.190109947963599, -30.704984818889105 ], [ -53.189124214262499, -30.699279233577109 ], [ -53.193138841604693, -30.699365934160895 ], [ -53.195873197835695, -30.695556880704785 ], [ -53.188091845775297, -30.696563559118204 ], [ -53.181256473048698, -30.695385245529394 ], [ -53.180415313619399, -30.693753686291494 ], [ -53.198852421788892, -30.681830684500504 ], [ -53.200762670159293, -30.679207429264096 ], [ -53.199073099926302, -30.677829668129903 ], [ -53.192567483586295, -30.6781848761925 ], [ -53.190526919234799, -30.676661254809996 ], [ -53.192206983886592, -30.670084260837598 ], [ -53.188316307856397, -30.666887376687004 ], [ -53.189907948050603, -30.662615795311201 ], [ -53.187231605546501, -30.651594195584892 ], [ -53.190824208340999, -30.6507952980676 ], [ -53.191751257845702, -30.647396161068993 ], [ -53.197512451198094, -30.644450946521701 ], [ -53.196480280365691, -30.643296470525797 ], [ -53.189656278444794, -30.6431925985049 ], [ -53.187978043892599, -30.641585146169596 ], [ -53.202532239505103, -30.639353361704398 ], [ -53.203552521680791, -30.636755043096901 ], [ -53.2000085272226, -30.633378743115802 ], [ -53.200573297727694, -30.631789669841599 ], [ -53.2090147342157, -30.628774120377802 ], [ -53.215833961004002, -30.628219151768203 ], [ -53.219414508570807, -30.625902216566605 ], [ -53.218470526420909, -30.623096294230105 ], [ -53.208599517510109, -30.616825531264201 ], [ -53.21293546170169, -30.612280529413301 ], [ -53.214534389754903, -30.612530701829805 ], [ -53.215428606204192, -30.616433997975697 ], [ -53.221659129359502, -30.618539605319398 ], [ -53.226202785982103, -30.615682815227299 ], [ -53.227386151753002, -30.609800194188285 ], [ -53.2292854981091, -30.610161315247602 ], [ -53.230884879377491, -30.614216986288806 ], [ -53.232412653315102, -30.613945626257699 ], [ -53.231361204028403, -30.605894787840494 ], [ -53.233038084356302, -30.605992681394792 ], [ -53.235807042196399, -30.609275443163693 ], [ -53.239118814998001, -30.608314367534891 ], [ -53.239588888127798, -30.605262333272492 ], [ -53.234062340988899, -30.602386935479004 ], [ -53.233513502594093, -30.6008091950407 ], [ -53.234949274723398, -30.598829569832102 ], [ -53.240146642383891, -30.597236113490005 ], [ -53.238575407831398, -30.592185291598799 ], [ -53.244006241337203, -30.589134482272001 ], [ -53.244289044938398, -30.586748780097498 ], [ -53.24212088399559, -30.583971503705911 ], [ -53.246241127913592, -30.582408012536003 ], [ -53.247451862762198, -30.580272221848098 ], [ -53.246982930524503, -30.5771262062812 ], [ -53.249705821608103, -30.574765883917092 ], [ -53.247043749890103, -30.572657090754994 ], [ -53.246700126923201, -30.570396930846794 ], [ -53.243704026234795, -30.5690793012587 ], [ -53.2367399109826, -30.573311643437798 ], [ -53.227531118721792, -30.5703171657285 ], [ -53.227804404889696, -30.567283938475502 ], [ -53.231753121018201, -30.564723121489891 ], [ -53.234172924448302, -30.558741819443291 ], [ -53.231678904873199, -30.550074954117299 ], [ -53.227246049061598, -30.5424552325618 ], [ -53.243940978967593, -30.5319610208897 ], [ -53.2412281414883, -30.527961929576097 ], [ -53.235970287342695, -30.526353284679004 ], [ -53.2334093790815, -30.520714525187792 ], [ -53.230672323461199, -30.519991834332195 ], [ -53.226440851823092, -30.523252051986699 ], [ -53.2228843473656, -30.524201257165998 ], [ -53.218473245686198, -30.522707360745592 ], [ -53.215768483038495, -30.520241893452798 ], [ -53.216609642467795, -30.509999327126099 ], [ -53.221080969459891, -30.506138518959112 ], [ -53.222373125470995, -30.503030869632401 ], [ -53.218264990654902, -30.497921846503797 ], [ -53.223434420345299, -30.492670794239302 ], [ -53.222828149213903, -30.489650271037991 ], [ -53.225449067849802, -30.4877992444295 ], [ -53.224140647978601, -30.484710272234398 ], [ -53.228719437699901, -30.480464479233394 ], [ -53.229093585480001, -30.4767271847731 ], [ -53.231542262701794, -30.473652734483597 ], [ -53.231537956278899, -30.4698395162027 ], [ -53.227749113159803, -30.467181887488504 ], [ -53.213927993571197, -30.464576831238709 ], [ -53.214841713494302, -30.462739328437298 ], [ -53.217502921145794, -30.462724105081794 ], [ -53.218378524603395, -30.461467804468597 ], [ -53.217749467874995, -30.457682587036704 ], [ -53.213422051260693, -30.456443975119498 ], [ -53.21350444089569, -30.4509094242283 ], [ -53.20918672499991, -30.453706775999912 ], [ -53.206609667999892, -30.459754336999904 ], [ -53.206353048, -30.464435926 ], [ -53.200863071, -30.469296621999899 ], [ -53.195986048, -30.477439592999904 ], [ -53.192823091, -30.479841899 ], [ -53.191108476, -30.48643022700001 ], [ -53.187609482, -30.487982444999894 ], [ -53.185801564, -30.490453439 ], [ -53.190253845, -30.495679316 ], [ -53.186429298, -30.5010106 ], [ -53.191339496, -30.5029533599999 ], [ -53.192577840999895, -30.504878657999896 ], [ -53.191469728999891, -30.513150211 ], [ -53.189638734, -30.516221823 ], [ -53.191670501, -30.5186012459999 ], [ -53.189966861, -30.521255128 ], [ -53.189232236, -30.532306161999912 ], [ -53.18572653, -30.533585859 ], [ -53.183688504, -30.531936011 ], [ -53.183234980999899, -30.529223616 ], [ -53.1809851639999, -30.528490615 ], [ -53.175180990999898, -30.529745641 ], [ -53.17326632, -30.531893749999895 ], [ -53.176544365, -30.535503488 ], [ -53.17573616499989, -30.54161921 ], [ -53.173989645999903, -30.542343260999903 ], [ -53.162831059, -30.537507782 ], [ -53.161291934, -30.53980424 ], [ -53.165211976, -30.543512194 ], [ -53.166882901999898, -30.54774595 ], [ -53.15553457, -30.546621167999895 ], [ -53.152176707, -30.55656077 ], [ -53.147072094, -30.563520439999902 ], [ -53.141650066999901, -30.566901483 ], [ -53.142713279, -30.570701278999895 ], [ -53.140993496, -30.575519095999901 ], [ -53.134337939, -30.575535443 ], [ -53.131459972, -30.58040134 ], [ -53.131830062999903, -30.584849612 ], [ -53.128862959999893, -30.588443973 ], [ -53.122795595999889, -30.591009004999901 ], [ -53.124407253, -30.597423816999907 ], [ -53.120921451, -30.601453748 ], [ -53.125333726999898, -30.605723618999896 ], [ -53.123446545, -30.609273678 ], [ -53.113396188, -30.607573024 ], [ -53.107973783, -30.613097459 ], [ -53.104748601, -30.6138293449999 ], [ -53.104302823999902, -30.617729962999892 ], [ -53.10092758199989, -30.623393536 ], [ -53.096143808, -30.624675437 ], [ -53.0894743859999, -30.635168289 ], [ -53.0840322829999, -30.635495363 ], [ -53.082030356, -30.639041264 ], [ -53.079862922, -30.637903912999906 ], [ -53.078415853, -30.640012356999897 ], [ -53.072104968, -30.641704638 ], [ -53.070330092999896, -30.644358133 ], [ -53.06749910699989, -30.6439888039999 ], [ -53.063876580999896, -30.646516199 ], [ -53.055497887999898, -30.647385512 ], [ -53.052773599, -30.652120771999886 ], [ -53.054335261999896, -30.656323501 ], [ -53.053291202, -30.661530969999895 ], [ -53.049158813, -30.665190673 ], [ -53.035357383, -30.671315096999905 ], [ -53.029439400999898, -30.666618803999899 ], [ -53.025731341, -30.665421238 ], [ -53.020439113, -30.666008308999899 ], [ -53.020033801999901, -30.667809141 ], [ -53.016331059, -30.670316528999908 ], [ -53.016518904, -30.672479003999985 ], [ -53.013808093, -30.673059153999898 ], [ -53.011499108, -30.669429333 ], [ -53.010160406999901, -30.670028855999892 ], [ -53.009141305999897, -30.668247873 ], [ -53.006503935999902, -30.669000701999895 ], [ -53.003620519, -30.667388505 ], [ -52.997728391999892, -30.6666252539999 ], [ -52.994984411, -30.670313743 ], [ -52.991676890999891, -30.671470563999897 ], [ -52.99267914099989, -30.675551492999897 ], [ -52.986711470850601, -30.679334723274103 ], [ -52.994274236756297, -30.6822447813894 ], [ -52.993064734367309, -30.685977380436498 ], [ -52.9949991928397, -30.687198218980104 ], [ -52.993293283930093, -30.687797856904105 ], [ -52.99034476828389, -30.685482944006196 ], [ -52.987647430870098, -30.686288524643192 ], [ -52.982629121698203, -30.691431964894601 ], [ -52.983703253762499, -30.692896096160204 ], [ -52.9879167120381, -30.693434658496205 ], [ -52.986880318971394, -30.696756547190404 ], [ -52.99237908567909, -30.697591545097911 ], [ -52.987452824311703, -30.700131613258097 ], [ -52.985912377630001, -30.704363174469307 ], [ -52.982985924936699, -30.703961515584286 ], [ -52.981271803216096, -30.708128585087302 ], [ -52.978169412616793, -30.706261719846999 ], [ -52.975987934964891, -30.706370171297507 ], [ -52.9775923815426, -30.712604535930005 ], [ -52.976193929762594, -30.712744833681398 ], [ -52.9746823346347, -30.71088023130811 ], [ -52.972220543030993, -30.7149379908684 ], [ -52.972977264381903, -30.715725029464895 ], [ -52.975163193863203, -30.714806305479993 ], [ -52.978290475998996, -30.718177977247297 ], [ -52.972529216724197, -30.718795739926801 ], [ -52.973284187203596, -30.721500530848704 ], [ -52.975771905074893, -30.721325625185695 ], [ -52.9777717283065, -30.7232248077257 ], [ -52.974269361414791, -30.725964502449404 ], [ -52.974665363132502, -30.728713885803298 ], [ -52.970210587149097, -30.729062522241204 ], [ -52.969860165147402, -30.727702384273105 ], [ -52.966228085723195, -30.727895149385102 ], [ -52.961767327022898, -30.731180883106298 ], [ -52.961311053780392, -30.733586969797098 ], [ -52.954977289165299, -30.732498530790402 ], [ -52.9536565088478, -30.7381489852512 ], [ -52.949214898457001, -30.739788356695204 ], [ -52.9497308321234, -30.741775153884312 ], [ -52.953093452422799, -30.743196234333805 ], [ -52.957501517256794, -30.750650118093088 ], [ -52.960248637743696, -30.752768161565708 ], [ -52.959605983527602, -30.755533384988198 ], [ -52.963004809698397, -30.759543185237597 ], [ -52.960796251547499, -30.761059306099405 ], [ -52.960680845332703, -30.763412687735595 ], [ -52.962520556169402, -30.764462658004099 ], [ -52.961205830466902, -30.767021960533501 ], [ -52.954872065851703, -30.771192424336895 ], [ -52.955645208855302, -30.773727925189402 ], [ -52.958148697206703, -30.774247294730102 ], [ -52.956935800517293, -30.776277086391293 ], [ -52.953862827188495, -30.777521663218092 ], [ -52.95661899914321, -30.780153377490194 ], [ -52.957004734854401, -30.782880706540894 ], [ -52.952405540867602, -30.784543339388499 ], [ -52.950217348519296, -30.783398328707801 ], [ -52.948223762729398, -30.785778864747499 ], [ -52.949194532654303, -30.787862399498998 ], [ -52.95144269097699, -30.787545598124904 ], [ -52.954118531154698, -30.791421889223798 ], [ -52.953837962212503, -30.792696994834102 ], [ -52.951274148933109, -30.792685999945306 ], [ -52.9510360841264, -30.793825783581099 ], [ -52.956338490596501, -30.794721775121204 ], [ -52.953945588797502, -30.7980659062565 ], [ -52.955762597990592, -30.799777840125294 ], [ -52.957210491759902, -30.805044636338501 ], [ -52.955062797780002, -30.807057993165301 ], [ -52.958363410621089, -30.809841663036092 ] ] ] } }
]
}
