{
"type": "FeatureCollection",
"name": "bairros_dois_lajeados",
"crs": { "type": "name", "properties": { "name": "urn:ogc:def:crs:OGC:1.3:CRS84" } },
"features": [
{ "type": "Feature", "properties": { "code_muni": 4306452.0, "name_muni": "Dois Lajeados", "code_state": 43.0, "abbrev_state": "RS", "name_state": "Rio Grande do Sul", "code_region": 4.0, "name_region": "Sul", "year": 2022.0 }, "geometry": { "type": "Polygon", "coordinates": [ [ [ -51.794809901, -29.008873747999896 ], [ -51.851604062, -29.025808106999893 ], [ -51.849995897, -29.018739506 ], [ -51.852304957999891, -29.016847261 ], [ -51.868641509, -29.0202476609999 ], [ -51.86880566, -29.017403866999892 ], [ -51.879196191999903, -29.017047783999907 ], [ -51.878777145, -29.019216562999894 ], [ -51.918325040999896, -29.0228589019999 ], [ -51.915088579, -29.015878433 ], [ -51.922074912, -29.013196064999896 ], [ -51.923495387999907, -29.008284521 ], [ -51.922611129, -29.005022153 ], [ -51.928456621999892, -29.000924714999904 ], [ -51.93188939, -28.994310540999901 ], [ -51.929338796, -28.990137939 ], [ -51.912712206, -28.9941835189999 ], [ -51.906856964, -28.990967385 ], [ -51.906113503, -28.988063836 ], [ -51.90931475299989, -28.984583421 ], [ -51.922345952999891, -28.981752354 ], [ -51.925073083, -28.978197517 ], [ -51.922710361999989, -28.974155971999899 ], [ -51.908353479, -28.97417288 ], [ -51.905949536, -28.971673344 ], [ -51.909581777, -28.968856324999901 ], [ -51.924303112, -28.962255726 ], [ -51.925048257, -28.95971037 ], [ -51.92361571, -28.953858193 ], [ -51.919052555, -28.951981256 ], [ -51.9142383289999, -28.953366757 ], [ -51.912421590999898, -28.961748366999899 ], [ -51.907352357, -28.966012188 ], [ -51.906511963, -28.965319988 ], [ -51.90939587, -28.961245066999897 ], [ -51.908368189, -28.951730229 ], [ -51.913631832, -28.9478920409999 ], [ -51.913683636, -28.946120315 ], [ -51.889708018, -28.946374416 ], [ -51.889620371, -28.932479031 ], [ -51.869988847999892, -28.932634483999905 ], [ -51.870076333, -28.928808159 ], [ -51.859314684, -28.929083103 ], [ -51.856009786, -28.933065668 ], [ -51.856091869999894, -28.91925968399989 ], [ -51.842780568, -28.919424202 ], [ -51.842429680999892, -28.936662050999903 ], [ -51.781304134, -28.936285838999897 ], [ -51.779138600999893, -28.940565646 ], [ -51.773771317, -28.940944198999887 ], [ -51.767608703999898, -28.943294384999895 ], [ -51.76984586399989, -28.954465118 ], [ -51.767351944, -28.959278573999896 ], [ -51.757057344, -28.957093562 ], [ -51.755262038, -28.957794153999899 ], [ -51.754070721999902, -28.960838838 ], [ -51.756666376999902, -28.963518287999893 ], [ -51.77288922, -28.961213733 ], [ -51.778323375999904, -28.965775943 ], [ -51.777494727, -28.970027237999897 ], [ -51.772369409, -28.97302601 ], [ -51.768638922, -28.971459882 ], [ -51.752997477999898, -28.9742759069999 ], [ -51.749787501, -28.979299779 ], [ -51.759534777999903, -28.991112773999902 ], [ -51.760600444, -29.008092844 ], [ -51.779875976, -29.008089594999898 ], [ -51.779674375, -29.000763956999901 ], [ -51.792821656999898, -28.998676065 ], [ -51.794809901, -29.008873747999896 ] ] ] } }
]
}
