{
"type": "FeatureCollection",
"name": "bairros_montenegro",
"crs": { "type": "name", "properties": { "name": "urn:ogc:def:crs:OGC:1.3:CRS84" } },
"features": [
{ "type": "Feature", "properties": { "code_muni": 4312401.0, "name_muni": "Montenegro", "code_state": 43.0, "abbrev_state": "RS", "name_state": "Rio Grande do Sul", "code_region": 4.0, "name_region": "Sul", "year": 2022.0 }, "geometry": { "type": "Polygon", "coordinates": [ [ [ -51.497066957, -29.810067956 ], [ -51.499019163999897, -29.807447640999985 ], [ -51.506557129, -29.802767027999895 ], [ -51.50815162899989, -29.800507288999896 ], [ -51.508916308, -29.793866299999898 ], [ -51.5169206099999, -29.784519228 ], [ -51.522126667, -29.781001922 ], [ -51.529394970999903, -29.780132441 ], [ -51.530981491, -29.777360465999898 ], [ -51.54211463, -29.773787779 ], [ -51.550579275, -29.779911339 ], [ -51.554451904, -29.779488834999899 ], [ -51.558423863, -29.785028363 ], [ -51.560413336, -29.785187696 ], [ -51.566695802, -29.779870566999907 ], [ -51.578810828, -29.779421032999895 ], [ -51.586528196, -29.776016458000012 ], [ -51.586933219999906, -29.774568465 ], [ -51.584475790999903, -29.770988882 ], [ -51.584878590999892, -29.762437087 ], [ -51.588448609, -29.758422779999904 ], [ -51.588894512, -29.755327903 ], [ -51.585471809, -29.752749154 ], [ -51.578626402999902, -29.752045859 ], [ -51.576530166999902, -29.747548574999897 ], [ -51.575579167999891, -29.739760127999904 ], [ -51.570892537, -29.737089007999902 ], [ -51.565901686, -29.736578069 ], [ -51.641890578999892, -29.635771499999986 ], [ -51.63806184, -29.628926820999897 ], [ -51.644538673999897, -29.623420823999904 ], [ -51.6457608589999, -29.616518799999898 ], [ -51.648370036, -29.614313348999897 ], [ -51.647075346, -29.612302027999895 ], [ -51.652556607, -29.604638485999903 ], [ -51.652508193999893, -29.600400244 ], [ -51.656950756, -29.595370199999891 ], [ -51.661820745999897, -29.592736295999902 ], [ -51.662737341, -29.590103935999903 ], [ -51.649461043, -29.590170848 ], [ -51.647981291999898, -29.585556481 ], [ -51.648339084, -29.576762496999901 ], [ -51.64272245, -29.574631293 ], [ -51.638573848, -29.575738032999894 ], [ -51.637592767999898, -29.578415054999905 ], [ -51.631207221999901, -29.583309728 ], [ -51.629882099, -29.585765024999898 ], [ -51.630035560999907, -29.59235961 ], [ -51.622492598999898, -29.596670453999891 ], [ -51.621322386, -29.594455033 ], [ -51.608147932, -29.5922338949999 ], [ -51.604765447, -29.595901056999903 ], [ -51.59928601, -29.598344147 ], [ -51.591015614, -29.610545554999899 ], [ -51.569057904, -29.614545087 ], [ -51.56632676200001, -29.613470946999897 ], [ -51.555607406, -29.614477538 ], [ -51.549917821, -29.61205906 ], [ -51.539759595, -29.613109501999904 ], [ -51.533803277999894, -29.611115169 ], [ -51.53264647399989, -29.605290479 ], [ -51.535884922, -29.59877656 ], [ -51.535542763, -29.594750329 ], [ -51.531683507, -29.596891646999904 ], [ -51.527025895, -29.594661749999901 ], [ -51.524991311, -29.58646557 ], [ -51.514102231, -29.584187137000011 ], [ -51.514384895, -29.579722737999905 ], [ -51.512132887, -29.577197966 ], [ -51.507989904999903, -29.576921328 ], [ -51.50643808, -29.578388719 ], [ -51.50323829, -29.576992198 ], [ -51.502670012999893, -29.58692597 ], [ -51.496493251999908, -29.600168555999989 ], [ -51.495284349, -29.601747197999902 ], [ -51.493015934, -29.601116482 ], [ -51.49064043899989, -29.60510135 ], [ -51.484942342999894, -29.606191919999986 ], [ -51.479630721, -29.609423907999901 ], [ -51.479081103999903, -29.612835436999905 ], [ -51.476176183, -29.612255461 ], [ -51.47434767, -29.615594855 ], [ -51.4752929799999, -29.618892319999897 ], [ -51.470933986, -29.62128181 ], [ -51.471596763, -29.623359325 ], [ -51.4686339369999, -29.622978248 ], [ -51.467594898999891, -29.624012514999901 ], [ -51.466890621831503, -29.621380643087196 ], [ -51.463024725628394, -29.625276313894588 ], [ -51.457783434801001, -29.624173197821502 ], [ -51.451707974817694, -29.628320812205999 ], [ -51.449300073754095, -29.6270109247127 ], [ -51.447671474934303, -29.628032130609089 ], [ -51.447540970922802, -29.626979229166189 ], [ -51.447232659697299, -29.6284418665829 ], [ -51.443939204273903, -29.629509110060397 ], [ -51.441590852418891, -29.627316354524599 ], [ -51.439288603176891, -29.6325528429965 ], [ -51.436832678557593, -29.630720104047203 ], [ -51.43409335493309, -29.630551386291607 ], [ -51.435281937927201, -29.632522273001893 ], [ -51.432515120817193, -29.632784316533101 ], [ -51.430900088651804, -29.635201342072303 ], [ -51.42812312656509, -29.634298819389503 ], [ -51.42661686775299, -29.640185466761 ], [ -51.4283906777979, -29.640291058553007 ], [ -51.427483452808303, -29.642839328467197 ], [ -51.429807552768303, -29.643213592041597 ], [ -51.430456831236192, -29.645018317250504 ], [ -51.428462653101292, -29.645292851908504 ], [ -51.427677948207403, -29.651798122711906 ], [ -51.428946283, -29.656452370999901 ], [ -51.432026816, -29.660162944 ], [ -51.425869979, -29.664671921 ], [ -51.425592609, -29.666636702999895 ], [ -51.428388627999894, -29.67081432 ], [ -51.42789614, -29.674613454999907 ], [ -51.423352301, -29.680215717 ], [ -51.423365562, -29.683057151999897 ], [ -51.42589469099989, -29.686081808 ], [ -51.427088394999892, -29.691552000999899 ], [ -51.434637413, -29.697716102 ], [ -51.453347605, -29.705954021000011 ], [ -51.457120952, -29.705848848 ], [ -51.459099164, -29.704008582 ], [ -51.458203287999893, -29.701577590999893 ], [ -51.454509937999902, -29.698436472 ], [ -51.456175852999898, -29.697008627999892 ], [ -51.458934724999899, -29.697240983 ], [ -51.464193789, -29.703188245 ], [ -51.462927740999909, -29.706183763 ], [ -51.45697108, -29.711383214 ], [ -51.459149552, -29.715302247 ], [ -51.458257218999989, -29.717976657999891 ], [ -51.455662827, -29.719929497 ], [ -51.452236405, -29.71925321 ], [ -51.453975051, -29.713077649999892 ], [ -51.45319943, -29.7123134469999 ], [ -51.449143879, -29.713634843 ], [ -51.436703958, -29.726165202999905 ], [ -51.433783869, -29.725048296999898 ], [ -51.426868048, -29.715347403999903 ], [ -51.424532466999892, -29.714107311 ], [ -51.420006122, -29.713730719 ], [ -51.413838607999899, -29.716927722 ], [ -51.414410801, -29.722590540999899 ], [ -51.409188739999891, -29.724531692 ], [ -51.4076842059999, -29.729005171 ], [ -51.411578329999898, -29.730715141 ], [ -51.414043443, -29.734651273999901 ], [ -51.41423970599989, -29.739855011 ], [ -51.412390492, -29.746190952999889 ], [ -51.417155705, -29.750009669999898 ], [ -51.417944365, -29.754660513 ], [ -51.416060216999902, -29.757357597999896 ], [ -51.40717655, -29.761819342 ], [ -51.407250959, -29.764230035 ], [ -51.411059689, -29.766536196999905 ], [ -51.409858925, -29.770111232 ], [ -51.403110082, -29.772075336999904 ], [ -51.399403221999904, -29.76750779 ], [ -51.394511201999897, -29.764587596 ], [ -51.391865168, -29.764444417999986 ], [ -51.389535416999898, -29.773995687 ], [ -51.383724635, -29.782021035999897 ], [ -51.37474255, -29.787097025 ], [ -51.360143377, -29.788653098999902 ], [ -51.35577008699989, -29.795080101999893 ], [ -51.357056715999896, -29.796943353 ], [ -51.366489116, -29.796151390999988 ], [ -51.367409176, -29.800127911999898 ], [ -51.361055716, -29.802840569 ], [ -51.35451088299989, -29.807738249999897 ], [ -51.349949706, -29.818647765 ], [ -51.35063744, -29.822937994 ], [ -51.356294122, -29.830672744 ], [ -51.359256859, -29.831037618 ], [ -51.36694906, -29.825652298 ], [ -51.370356489999899, -29.826577578999903 ], [ -51.371933434, -29.828760250999895 ], [ -51.372172711, -29.833732143 ], [ -51.370259237, -29.836410725999897 ], [ -51.366741894, -29.837334301999896 ], [ -51.367818207, -29.839428606 ], [ -51.370119637, -29.84035442 ], [ -51.37135288, -29.839268134999905 ], [ -51.375092928, -29.840435256 ], [ -51.389805146, -29.8386348249999 ], [ -51.392120612, -29.837116176999899 ], [ -51.39513492399989, -29.839014077999892 ], [ -51.399569388, -29.836999659999904 ], [ -51.409016430999898, -29.839418586 ], [ -51.413408605, -29.83819091 ], [ -51.424108399, -29.844158768999897 ], [ -51.427665896999898, -29.843230831 ], [ -51.436268427, -29.844680163 ], [ -51.43816833599989, -29.844374377 ], [ -51.444576753, -29.833957988999892 ], [ -51.448878616999899, -29.832428005999905 ], [ -51.452088585999903, -29.82897882299989 ], [ -51.456049906, -29.829357176999984 ], [ -51.459439184, -29.828172643999896 ], [ -51.463273809, -29.829386902 ], [ -51.464901458999989, -29.827511988999987 ], [ -51.481617701999902, -29.823724357999897 ], [ -51.486545701, -29.820537823999903 ], [ -51.488709935, -29.823746562999901 ], [ -51.492235057, -29.823189515 ], [ -51.494159348, -29.818072485999899 ], [ -51.497110909999897, -29.815588483999903 ], [ -51.497066957, -29.810067956 ] ] ] } }
]
}
