{
"type": "FeatureCollection",
"name": "bairros_dom_feliciano",
"crs": { "type": "name", "properties": { "name": "urn:ogc:def:crs:OGC:1.3:CRS84" } },
"features": [
{ "type": "Feature", "properties": { "code_muni": 4306502.0, "name_muni": "Dom Feliciano", "code_state": 43.0, "abbrev_state": "RS", "name_state": "Rio Grande do Sul", "code_region": 4.0, "name_region": "Sul", "year": 2022.0 }, "geometry": { "type": "Polygon", "coordinates": [ [ [ -52.148624755, -30.458241144999903 ], [ -52.148041331999892, -30.460290261999894 ], [ -52.144938239999895, -30.460551000999899 ], [ -52.139961532, -30.465091985 ], [ -52.133286553999895, -30.467293559 ], [ -52.124977035, -30.4762943069999 ], [ -52.122216301, -30.476541374 ], [ -52.118542062999893, -30.478955753 ], [ -52.116464002, -30.477553235 ], [ -52.115264690999901, -30.48103578 ], [ -52.114538874999901, -30.480107265999898 ], [ -52.111366639, -30.480512276999903 ], [ -52.111670074, -30.476341363999907 ], [ -52.106842446, -30.476230821999895 ], [ -52.107629889, -30.481613323 ], [ -52.105143000999902, -30.481210195999903 ], [ -52.103663282999896, -30.483068027999899 ], [ -52.100500494, -30.482925521999988 ], [ -52.100755642, -30.491454759 ], [ -52.099523596, -30.492295316 ], [ -52.095630749, -30.491111299999901 ], [ -52.094408128999902, -30.491786918999896 ], [ -52.090891708999898, -30.495708767999901 ], [ -52.088913628999897, -30.501022878 ], [ -52.089823797999898, -30.503334864 ], [ -52.0808419049999, -30.510653510999902 ], [ -52.078458999, -30.509063743 ], [ -52.077349599999899, -30.511168378 ], [ -52.073037814, -30.506741911999899 ], [ -52.071413654, -30.50900301 ], [ -52.06781848299989, -30.509345665 ], [ -52.062852009, -30.506382678 ], [ -52.060648946, -30.507037084999986 ], [ -52.060704867, -30.509888433999894 ], [ -52.056690089, -30.509845792 ], [ -52.054610531, -30.513604942 ], [ -52.050682386999902, -30.514956645 ], [ -52.043407731999892, -30.523666094 ], [ -52.026960761999895, -30.537106088 ], [ -52.019463448, -30.537132137 ], [ -52.015145727999894, -30.540347055 ], [ -52.011373723, -30.545512539999908 ], [ -52.011115032, -30.549713494999896 ], [ -52.00826577, -30.55458455 ], [ -52.003051969999902, -30.556091825 ], [ -52.002582474999897, -30.561707974999898 ], [ -52.000104802, -30.563266063999897 ], [ -51.997442039, -30.562767063 ], [ -51.993286678999901, -30.564129685 ], [ -51.990649129, -30.567009797 ], [ -51.986722497, -30.567481193999988 ], [ -51.982245927999898, -30.575879339 ], [ -51.987044818, -30.583166696 ], [ -51.990756169999898, -30.585225903 ], [ -51.993548975, -30.585008365 ], [ -51.994077225, -30.589179884 ], [ -51.996779966, -30.590202603 ], [ -51.997535732, -30.59346053 ], [ -52.001079154, -30.596362717 ], [ -51.997855053, -30.601511753999901 ], [ -51.98656093599989, -30.603338510999897 ], [ -51.982101938, -30.606375065 ], [ -51.987287121, -30.615626103 ], [ -51.983434524, -30.620177971 ], [ -51.984731442999895, -30.62217649 ], [ -51.983890947, -30.624175256999898 ], [ -51.981353143, -30.625972754 ], [ -51.978143062, -30.631448772999889 ], [ -51.971916877, -30.636551276999988 ], [ -51.977583298999896, -30.64200485 ], [ -51.975852989, -30.645680469 ], [ -51.979170028999903, -30.66047186 ], [ -51.98674226, -30.663685906 ], [ -51.987919822, -30.666486902 ], [ -51.995739224, -30.666308315 ], [ -51.999496028999893, -30.669054272 ], [ -51.998042627, -30.677180022999902 ], [ -51.994421460999895, -30.677453331 ], [ -51.990310916999903, -30.680187929999903 ], [ -51.982822343999892, -30.698882997999899 ], [ -51.985210203999898, -30.704193388 ], [ -51.984621747999896, -30.709597362 ], [ -51.986443062, -30.717063096999901 ], [ -51.988712689, -30.716076600999898 ], [ -51.9948792019999, -30.71709983499991 ], [ -52.000501744, -30.715293775 ], [ -52.008460066999909, -30.7240889619999 ], [ -52.010872029, -30.7221177599999 ], [ -52.015378281, -30.7223003249999 ], [ -52.018222774, -30.729646950999896 ], [ -52.035909822999891, -30.735116957999892 ], [ -52.037247997999891, -30.737571901 ], [ -52.047176674999911, -30.741002179 ], [ -52.049142735, -30.739994732999904 ], [ -52.052433419, -30.741045082 ], [ -52.05934941399989, -30.737562404 ], [ -52.063045342, -30.739343549 ], [ -52.063451245999893, -30.741916392999897 ], [ -52.065780772, -30.743360149 ], [ -52.067586294, -30.753626402999899 ], [ -52.071376973, -30.757031885999908 ], [ -52.070882178, -30.760261811 ], [ -52.073937125, -30.763857377 ], [ -52.073965511, -30.769354857999893 ], [ -52.076846531999898, -30.773046972 ], [ -52.076764576999899, -30.776483222 ], [ -52.074777114, -30.778121975 ], [ -52.077218711999897, -30.779809288 ], [ -52.0757384999999, -30.782154426 ], [ -52.080311771, -30.781790252 ], [ -52.079713678, -30.783862633 ], [ -52.088138990999902, -30.789013447999896 ], [ -52.08836267, -30.793234226 ], [ -52.092317310999903, -30.797867036 ], [ -52.090167574, -30.803896044999892 ], [ -52.092974657999903, -30.8063315049999 ], [ -52.09392675, -30.809296027 ], [ -52.097054064, -30.811405169 ], [ -52.094231513, -30.820114267 ], [ -52.097603826999901, -30.823121538 ], [ -52.095644647, -30.825412962 ], [ -52.101966906, -30.832577211999901 ], [ -52.099101983, -30.835361292 ], [ -52.100148245, -30.837388432999894 ], [ -52.098048287, -30.840549806 ], [ -52.098132028, -30.843247253999898 ], [ -52.101856870999903, -30.845600428999902 ], [ -52.104968269, -30.844171620999905 ], [ -52.105020372, -30.846201312999906 ], [ -52.112066938999902, -30.845582792 ], [ -52.115873619, -30.847782568 ], [ -52.116516772, -30.851681164 ], [ -52.114050219, -30.85237389 ], [ -52.114763142, -30.855002042 ], [ -52.112329127, -30.8562705209999 ], [ -52.112783384999894, -30.858543230999899 ], [ -52.110861762, -30.861885044 ], [ -52.112172574999896, -30.862498408 ], [ -52.11046785699989, -30.864853255 ], [ -52.110188807, -30.870280395 ], [ -52.112316399999891, -30.872286249 ], [ -52.109959509, -30.875088757999897 ], [ -52.110837308, -30.875765251 ], [ -52.109011333, -30.876717890999899 ], [ -52.113957169999892, -30.87800558 ], [ -52.114029205, -30.879293419 ], [ -52.116376351, -30.878752274 ], [ -52.117307199, -30.880677513 ], [ -52.120179699999895, -30.881353179 ], [ -52.120148695, -30.884187433 ], [ -52.122110419, -30.884743745 ], [ -52.124916121, -30.882650042 ], [ -52.12682619799989, -30.874717382 ], [ -52.136434025, -30.871681285 ], [ -52.136457779999894, -30.868880028 ], [ -52.138860726, -30.867853184 ], [ -52.138991566, -30.865913835 ], [ -52.140891288, -30.864401364999907 ], [ -52.145127000999906, -30.865174852999903 ], [ -52.154071417999901, -30.862409823 ], [ -52.155495383, -30.86292816 ], [ -52.163994703, -30.854309755 ], [ -52.1640662249999, -30.851514231 ], [ -52.168945522999898, -30.845280572 ], [ -52.170004721999895, -30.840718329 ], [ -52.178854348, -30.837620866999895 ], [ -52.177433365, -30.830515603 ], [ -52.178957583999903, -30.828256745 ], [ -52.176277787999894, -30.821676559 ], [ -52.179055857, -30.810035199 ], [ -52.183820031, -30.806177695 ], [ -52.181852028, -30.801071809 ], [ -52.183520610999899, -30.798077954 ], [ -52.182845149999899, -30.787730107999899 ], [ -52.185408015, -30.780054130999901 ], [ -52.177683714999901, -30.773839813999896 ], [ -52.189601248, -30.764186325 ], [ -52.192754204, -30.763560259 ], [ -52.194471547, -30.764569810999902 ], [ -52.19598152, -30.763425716 ], [ -52.199119614, -30.771221904999901 ], [ -52.208225163999899, -30.777096835 ], [ -52.212821974, -30.777787888 ], [ -52.21363000199991, -30.778896486 ], [ -52.213232489999903, -30.770105853 ], [ -52.208003791999893, -30.763112562999897 ], [ -52.208761201999899, -30.7575824699999 ], [ -52.210649121999893, -30.755585816 ], [ -52.219080522, -30.754576369999896 ], [ -52.225442160999904, -30.755579732999902 ], [ -52.227680557, -30.757522111999904 ], [ -52.229613512999897, -30.755839609 ], [ -52.232376205, -30.757448186 ], [ -52.240370276, -30.756587407 ], [ -52.244229269999899, -30.759639713999903 ], [ -52.244071125999895, -30.761524735 ], [ -52.248468842, -30.767157034 ], [ -52.245397655, -30.768871055 ], [ -52.24558538, -30.770210444999989 ], [ -52.252918404, -30.773751341 ], [ -52.251416174, -30.775143171 ], [ -52.252260777999894, -30.781256875999894 ], [ -52.254038541999897, -30.783303757999906 ], [ -52.256915157, -30.783887632999903 ], [ -52.257976382, -30.785941013999899 ], [ -52.256095354, -30.792779028 ], [ -52.259516593999891, -30.794065508 ], [ -52.25757917499989, -30.796878063999898 ], [ -52.262600162999902, -30.799734593 ], [ -52.26640901, -30.798864735999892 ], [ -52.267351211999902, -30.796159229 ], [ -52.269091312999898, -30.795992285 ], [ -52.270327183999896, -30.794160823 ], [ -52.268829323, -30.793626871999901 ], [ -52.268521362999891, -30.790775573 ], [ -52.270272491, -30.790493424 ], [ -52.268629237, -30.790343766 ], [ -52.268409289, -30.7888538139999 ], [ -52.275060735, -30.785485809 ], [ -52.274717135999893, -30.778089746 ], [ -52.2818005459999, -30.772942679 ], [ -52.281594419, -30.771860505999904 ], [ -52.283926219, -30.771479591999903 ], [ -52.286723512, -30.765723935 ], [ -52.288620314999896, -30.766771434 ], [ -52.291842624, -30.764477244 ], [ -52.293108124, -30.760895053 ], [ -52.291062863, -30.758919315 ], [ -52.292217459, -30.758714922 ], [ -52.293578081, -30.753981409999895 ], [ -52.294849738, -30.754063269 ], [ -52.293981701, -30.751507855999908 ], [ -52.300571712999989, -30.745622766999897 ], [ -52.304520414, -30.7446121689999 ], [ -52.306086847999893, -30.739364144 ], [ -52.308897596, -30.737476752 ], [ -52.311121344999897, -30.738303064 ], [ -52.311616307999891, -30.735003616 ], [ -52.316074769999894, -30.73248273 ], [ -52.31574706, -30.730014857999898 ], [ -52.317553879999892, -30.728199775999894 ], [ -52.31508081, -30.723961824 ], [ -52.317450607999902, -30.723081234999892 ], [ -52.317709390999902, -30.721347696999896 ], [ -52.3246694649999, -30.714590562999899 ], [ -52.336329884999898, -30.713539050999898 ], [ -52.34117861499989, -30.71100818 ], [ -52.342181653, -30.704494519 ], [ -52.3367122289999, -30.698227296 ], [ -52.335243603, -30.688245176999892 ], [ -52.335861334, -30.687161887999903 ], [ -52.338646912999891, -30.68858183 ], [ -52.339669853, -30.687483861 ], [ -52.340044521, -30.685352232999904 ], [ -52.336605466, -30.682601888 ], [ -52.336380151999897, -30.680950472999907 ], [ -52.342971843, -30.678596163 ], [ -52.34162026, -30.676274764 ], [ -52.344376710999903, -30.671558196 ], [ -52.340537078999894, -30.666926159 ], [ -52.3408549769999, -30.658521601 ], [ -52.338945185999897, -30.653713932 ], [ -52.341863302, -30.648112056999903 ], [ -52.344053362, -30.648111108 ], [ -52.344364728999892, -30.641472206999904 ], [ -52.340728632, -30.639038727 ], [ -52.342094001, -30.63770971 ], [ -52.345517714, -30.637358307999897 ], [ -52.34642, -30.635833064999904 ], [ -52.342258456, -30.631003101 ], [ -52.348521751, -30.625415667 ], [ -52.354436146999902, -30.62702734 ], [ -52.356396581999896, -30.622068595 ], [ -52.357033790999893, -30.613492083 ], [ -52.362503443, -30.608525178999987 ], [ -52.362288059, -30.60558248 ], [ -52.366152485, -30.608725261 ], [ -52.369248002999903, -30.608722606 ], [ -52.369669541, -30.606843947999895 ], [ -52.368012799, -30.606504831999896 ], [ -52.36918982, -30.602236756 ], [ -52.374427527, -30.602776651999903 ], [ -52.376045948999902, -30.605347260999984 ], [ -52.379365074, -30.604122452999896 ], [ -52.380424982, -30.6060457479999 ], [ -52.380952313, -30.601994024 ], [ -52.384619969, -30.601122426 ], [ -52.386087158, -30.597921950999897 ], [ -52.389996601999897, -30.597046882 ], [ -52.392285786999892, -30.598361208999986 ], [ -52.39355899600001, -30.596028525999891 ], [ -52.399646479, -30.595991688 ], [ -52.399500885999899, -30.592985847 ], [ -52.402672605, -30.59351902 ], [ -52.405443069999897, -30.590156629 ], [ -52.408709517, -30.590121747 ], [ -52.411086667999903, -30.585602756999901 ], [ -52.413475983999895, -30.584355778 ], [ -52.4196423449999, -30.587443865999905 ], [ -52.421083261, -30.582369492999899 ], [ -52.425012530999894, -30.582981646999908 ], [ -52.427121303, -30.581529905 ], [ -52.429944502999895, -30.581677614999904 ], [ -52.434037418999893, -30.574640126 ], [ -52.440907505, -30.574148986999909 ], [ -52.445585622, -30.576625505 ], [ -52.450717261, -30.577281894 ], [ -52.45263557, -30.576695951 ], [ -52.452943515, -30.574373712999908 ], [ -52.452651531, -30.570832245 ], [ -52.449436889, -30.565097857 ], [ -52.453727182, -30.560727038 ], [ -52.449487983, -30.555527011 ], [ -52.445732703, -30.555568833999892 ], [ -52.443252236, -30.553129441 ], [ -52.434751198999891, -30.556551132 ], [ -52.4328280289999, -30.554928111 ], [ -52.430518959, -30.554877763000011 ], [ -52.42756871599989, -30.551149977 ], [ -52.425135417, -30.551762704999895 ], [ -52.418427553999898, -30.547998257 ], [ -52.424288582, -30.5432741 ], [ -52.424458114999901, -30.539552376 ], [ -52.422633318, -30.538514806 ], [ -52.421246175, -30.530267642999888 ], [ -52.419000314, -30.528216644999905 ], [ -52.415216388, -30.529765171999909 ], [ -52.414154762, -30.528337243 ], [ -52.414802239, -30.522539857 ], [ -52.409767657, -30.519248073 ], [ -52.405710342, -30.514002908999903 ], [ -52.401977432, -30.515702297 ], [ -52.397923784999897, -30.507789252999903 ], [ -52.399562932, -30.506817340999895 ], [ -52.402185086, -30.509568604 ], [ -52.404672284, -30.506811418 ], [ -52.402745223999901, -30.504876786 ], [ -52.402764829, -30.502275164 ], [ -52.399859096999904, -30.49967465200001 ], [ -52.399165115, -30.494977370000012 ], [ -52.400293792999896, -30.492910631 ], [ -52.404403681, -30.492059117999901 ], [ -52.404563026999902, -30.484655885999899 ], [ -52.391167485, -30.481572935 ], [ -52.393105147999989, -30.477623224999903 ], [ -52.390518804, -30.475988737 ], [ -52.390177036999901, -30.472010023999903 ], [ -52.385636967, -30.47196114 ], [ -52.386712852999899, -30.470127439999899 ], [ -52.385601510999898, -30.46811337 ], [ -52.381588256, -30.464999136 ], [ -52.379592322999891, -30.465726515 ], [ -52.378706630999893, -30.463115455 ], [ -52.37335086, -30.45941161 ], [ -52.372738432999896, -30.456724553999905 ], [ -52.375420278, -30.455192339000011 ], [ -52.374968123, -30.451629776999901 ], [ -52.372155473, -30.451264647999892 ], [ -52.368941737999897, -30.453663150999901 ], [ -52.367719321, -30.451285902999899 ], [ -52.362983464, -30.449365159 ], [ -52.360712667, -30.44605841 ], [ -52.36124877, -30.440651290999902 ], [ -52.355696550999895, -30.439208852 ], [ -52.354684611, -30.432571962999891 ], [ -52.350610482, -30.435194564999986 ], [ -52.349502474, -30.434531227 ], [ -52.348034821999903, -30.430932298 ], [ -52.348654699, -30.429113879999896 ], [ -52.350860172999901, -30.428771089 ], [ -52.353506104, -30.4231534369999 ], [ -52.350676683, -30.418021334999903 ], [ -52.353577925, -30.413111242 ], [ -52.348316935999897, -30.404608833999895 ], [ -52.348389782, -30.402754629 ], [ -52.350778487, -30.401877533999897 ], [ -52.357869942, -30.402820924 ], [ -52.360706256, -30.399067819 ], [ -52.358594243, -30.392123112 ], [ -52.351004176999908, -30.390056983 ], [ -52.351506962, -30.385523351 ], [ -52.3558685799999, -30.379149809000012 ], [ -52.35433275, -30.374309114 ], [ -52.351131364, -30.371824719 ], [ -52.346393523, -30.365380581 ], [ -52.346134132, -30.361939392999897 ], [ -52.342944934999899, -30.359013951 ], [ -52.333943093, -30.359823069 ], [ -52.324139073, -30.356296867 ], [ -52.319379759, -30.346749122999903 ], [ -52.314060174, -30.343301391999898 ], [ -52.304255542, -30.344408386999895 ], [ -52.303793259, -30.341781596 ], [ -52.305589607999899, -30.336766197 ], [ -52.29960912699989, -30.334005571 ], [ -52.297789485999893, -30.338489387 ], [ -52.297946324999891, -30.342288241999892 ], [ -52.290332044, -30.347108552 ], [ -52.288739808999892, -30.356415591 ], [ -52.284841628, -30.361558278 ], [ -52.280979492, -30.362951419999902 ], [ -52.281431774999895, -30.364751144 ], [ -52.277633788999907, -30.368053335999903 ], [ -52.27311947, -30.368765765 ], [ -52.272449596999891, -30.370177323999901 ], [ -52.27157668, -30.368817524999898 ], [ -52.268833029999897, -30.368882229999905 ], [ -52.265909006, -30.373035252 ], [ -52.263680581, -30.373493569999901 ], [ -52.261226190999899, -30.382717462 ], [ -52.264807838, -30.386128936 ], [ -52.261798649, -30.388938767999885 ], [ -52.263781147, -30.394638609 ], [ -52.256696215, -30.402662635 ], [ -52.25849884, -30.407644986 ], [ -52.251209837, -30.413432096 ], [ -52.252150344, -30.417953865 ], [ -52.2328536529999, -30.426957812999895 ], [ -52.234794385, -30.433416814999898 ], [ -52.233927675, -30.435987032999897 ], [ -52.232027640999902, -30.437140008 ], [ -52.227859028, -30.436386381 ], [ -52.222862138, -30.440202628999884 ], [ -52.220629835, -30.445076347999898 ], [ -52.212784399, -30.447805408 ], [ -52.206378604, -30.445247459 ], [ -52.201534236, -30.447547185 ], [ -52.191741863999901, -30.445202450999897 ], [ -52.188094734999893, -30.445524330999898 ], [ -52.183865330999893, -30.449113403999895 ], [ -52.174903494, -30.443784945999887 ], [ -52.169386529, -30.441978925999901 ], [ -52.163829899999897, -30.444298809 ], [ -52.158723112, -30.442726268999895 ], [ -52.152760524, -30.444029921 ], [ -52.152359992999891, -30.447764952999886 ], [ -52.14952629, -30.448944959 ], [ -52.146208172999891, -30.454752402999905 ], [ -52.148624755, -30.458241144999903 ] ] ] } }
]
}
