{
"type": "FeatureCollection",
"name": "bairros_caraa",
"crs": { "type": "name", "properties": { "name": "urn:ogc:def:crs:OGC:1.3:CRS84" } },
"features": [
{ "type": "Feature", "properties": { "code_muni": 4304713.0, "name_muni": "Caraá", "code_state": 43.0, "abbrev_state": "RS", "name_state": "Rio Grande do Sul", "code_region": 4.0, "name_region": "Sul", "year": 2022.0 }, "geometry": { "type": "Polygon", "coordinates": [ [ [ -50.401953136, -29.842803790999906 ], [ -50.404382816999892, -29.839430831999891 ], [ -50.407953114999899, -29.838572569 ], [ -50.412516109, -29.833345874 ], [ -50.4200269, -29.830780828999892 ], [ -50.420540914999897, -29.821887902999894 ], [ -50.427256612999905, -29.817116283 ], [ -50.434257665, -29.816732884 ], [ -50.433388481999899, -29.813610105 ], [ -50.434340031, -29.810918526 ], [ -50.432677635999902, -29.807809513999892 ], [ -50.43482663399989, -29.805697255 ], [ -50.439479096, -29.805768448 ], [ -50.441773200999897, -29.801570894 ], [ -50.445852391, -29.799588727 ], [ -50.447548039, -29.79963065 ], [ -50.450188325999903, -29.803190217 ], [ -50.458591386, -29.801138810999898 ], [ -50.458382856, -29.797338970999895 ], [ -50.460954471, -29.794428228 ], [ -50.467531381999905, -29.792784296 ], [ -50.473781608, -29.786880089 ], [ -50.477300254999896, -29.787628088 ], [ -50.4794598, -29.789573682 ], [ -50.484279279, -29.788664426 ], [ -50.484590136, -29.786877365999889 ], [ -50.47941479699989, -29.783061777999905 ], [ -50.477424868, -29.783394582 ], [ -50.475496408, -29.782092306 ], [ -50.465446915, -29.785738524 ], [ -50.463861659, -29.78406582 ], [ -50.463722124999897, -29.779621617 ], [ -50.467245652, -29.772214534999907 ], [ -50.458873028, -29.766193137 ], [ -50.453230671, -29.765848374 ], [ -50.453387027, -29.763292110999895 ], [ -50.44322278899989, -29.756874841999895 ], [ -50.439655246, -29.752312432999894 ], [ -50.434495081, -29.751080438 ], [ -50.433601439, -29.748190436 ], [ -50.434785766999894, -29.741999237 ], [ -50.42560575999989, -29.737951386 ], [ -50.422974075999903, -29.733749100999905 ], [ -50.423123442, -29.730621332999892 ], [ -50.425512167, -29.726895171 ], [ -50.421043786, -29.719416888 ], [ -50.417711772, -29.718061551999885 ], [ -50.410477345999901, -29.7073646969999 ], [ -50.407142742, -29.705951375 ], [ -50.399827980999902, -29.707341839 ], [ -50.383256668999898, -29.719296147 ], [ -50.373282722999903, -29.719173254999905 ], [ -50.367911481, -29.716433418000012 ], [ -50.358637807, -29.715767174 ], [ -50.357227012, -29.714034151 ], [ -50.357163501999892, -29.70735267 ], [ -50.35551010599989, -29.703382486999896 ], [ -50.343454408, -29.698614012999901 ], [ -50.337643336, -29.700973962 ], [ -50.336146455999895, -29.699995231999889 ], [ -50.336239455999895, -29.694428004 ], [ -50.33399880199989, -29.689235586999896 ], [ -50.334929497, -29.687120964 ], [ -50.332216316, -29.682932922 ], [ -50.326557116999901, -29.681765207999899 ], [ -50.321043306999989, -29.682453236 ], [ -50.315599305322294, -29.678390284168 ], [ -50.316026683410598, -29.681560004989493 ], [ -50.312824604168803, -29.685302324114804 ], [ -50.301630940480194, -29.684334681441598 ], [ -50.297747366426194, -29.688048583778098 ], [ -50.294380309205295, -29.688472803103998 ], [ -50.29249853405279, -29.687750415486292 ], [ -50.292480697321501, -29.684655742605095 ], [ -50.289688630329501, -29.6845815229123 ], [ -50.282929127708492, -29.687973374627497 ], [ -50.277395281821597, -29.688597660223209 ], [ -50.276142251447503, -29.693458169503394 ], [ -50.278300495935198, -29.696044495542402 ], [ -50.283803127542392, -29.695968689434306 ], [ -50.280177811904906, -29.698902831733701 ], [ -50.279107608026692, -29.701975208700805 ], [ -50.275803353552796, -29.702956228922407 ], [ -50.273997384508291, -29.707977268784408 ], [ -50.263411284479695, -29.708195768742797 ], [ -50.259433693399103, -29.711036268202903 ], [ -50.250212103315199, -29.7101622683691 ], [ -50.242149900766002, -29.712802104601995 ], [ -50.231251657939595, -29.708004023881404 ], [ -50.226393033102298, -29.709953936730095 ], [ -50.225677679407298, -29.712926961721102 ], [ -50.227060026083294, -29.718509858619097 ], [ -50.223229155336192, -29.725336765497097 ], [ -50.230237037925193, -29.731121986626096 ], [ -50.231761332, -29.734222335999984 ], [ -50.230214159, -29.74604091 ], [ -50.234926435, -29.749391058 ], [ -50.247132833, -29.7503970019999 ], [ -50.253608463, -29.753747807000011 ], [ -50.255913924, -29.757117498 ], [ -50.251982417, -29.776699080999904 ], [ -50.256651759, -29.785310964 ], [ -50.253716832, -29.804685481 ], [ -50.258119945, -29.809337409 ], [ -50.259478631, -29.816425495 ], [ -50.263332729, -29.820023643999892 ], [ -50.264526378, -29.825912114999895 ], [ -50.276167659, -29.834780571 ], [ -50.275150617999898, -29.840699544 ], [ -50.278311507999895, -29.846775806 ], [ -50.279680679, -29.85370907 ], [ -50.278161778, -29.857552993999903 ], [ -50.281386058, -29.859176593 ], [ -50.287232748999898, -29.855257784999907 ], [ -50.3029879219999, -29.848306142 ], [ -50.305647618, -29.84943485 ], [ -50.308921589, -29.848196162 ], [ -50.311582137999892, -29.851497499999898 ], [ -50.314636854, -29.851518701 ], [ -50.322673387999892, -29.855392239 ], [ -50.323205046999895, -29.854081396 ], [ -50.326973044999896, -29.85283707100001 ], [ -50.333792216999903, -29.853971688999899 ], [ -50.3349746439999, -29.851113478999899 ], [ -50.33931029, -29.849429423999897 ], [ -50.345936881999897, -29.848601598 ], [ -50.348547321999909, -29.849730812 ], [ -50.351343383, -29.848635553999902 ], [ -50.351779647999891, -29.843562167 ], [ -50.355719840999896, -29.840008364 ], [ -50.375009765, -29.861028318 ], [ -50.379563629, -29.855533212999905 ], [ -50.401953136, -29.842803790999906 ] ] ] } }
]
}
