{
"type": "FeatureCollection",
"name": "bairros_santa_cecilia_do_sul",
"crs": { "type": "name", "properties": { "name": "urn:ogc:def:crs:OGC:1.3:CRS84" } },
"features": [
{ "type": "Feature", "properties": { "code_muni": 4316733.0, "name_muni": "Santa Cecília do Sul", "code_state": 43.0, "abbrev_state": "RS", "name_state": "Rio Grande do Sul", "code_region": 4.0, "name_region": "Sul", "year": 2022.0 }, "geometry": { "type": "Polygon", "coordinates": [ [ [ -51.964866978, -28.116918117999901 ], [ -51.964183072, -28.112078172999894 ], [ -51.959251063, -28.112038717 ], [ -51.959185303, -28.110605146999902 ], [ -51.9346830819999, -28.108408758999897 ], [ -51.934196457, -28.109816024999901 ], [ -51.923937878999901, -28.108553431 ], [ -51.924461021999896, -28.111215361999903 ], [ -51.918389794999896, -28.11211672199989 ], [ -51.918256492, -28.113335509 ], [ -51.909091152, -28.118527528 ], [ -51.90033794, -28.115767037 ], [ -51.89656239, -28.116912726999892 ], [ -51.899321324, -28.119900648999899 ], [ -51.898824603, -28.121369509 ], [ -51.894431464, -28.121223229999899 ], [ -51.893621357, -28.11976164 ], [ -51.891511566, -28.120643534 ], [ -51.890748996, -28.116433073999897 ], [ -51.892199221999903, -28.114912346 ], [ -51.889724803, -28.114848327999894 ], [ -51.886327767, -28.116351936999905 ], [ -51.884340043, -28.119122299 ], [ -51.884959763, -28.120006399 ], [ -51.881183437999894, -28.121875394 ], [ -51.87702166, -28.12767944 ], [ -51.878589890999891, -28.131688225999895 ], [ -51.876490082, -28.135547530999897 ], [ -51.880378623999903, -28.137957136999905 ], [ -51.876638326, -28.141783137999901 ], [ -51.872793440999899, -28.141587507999898 ], [ -51.866372003, -28.13740188 ], [ -51.864884359, -28.139952950999898 ], [ -51.866878196, -28.143397131 ], [ -51.865817546, -28.14415107 ], [ -51.862116059999892, -28.143036723 ], [ -51.860025671999892, -28.145828843999904 ], [ -51.850542654, -28.151471043999894 ], [ -51.849197986, -28.151826354 ], [ -51.848908977999898, -28.150037708 ], [ -51.847186791999903, -28.150639648 ], [ -51.845276204999898, -28.14865458 ], [ -51.842094979, -28.152283962999896 ], [ -51.838035218, -28.151570614 ], [ -51.834995447, -28.152799445 ], [ -51.829950088, -28.147483522 ], [ -51.827211341, -28.148525101 ], [ -51.825624306, -28.152490268999902 ], [ -51.820226884, -28.153068165 ], [ -51.816226830999902, -28.157866043999906 ], [ -51.814637454, -28.158087368999897 ], [ -51.813325144, -28.156165191999893 ], [ -51.810616207, -28.159147385 ], [ -51.811225169, -28.159965075999896 ], [ -51.802078841, -28.162868634999906 ], [ -51.800088734, -28.165468667999988 ], [ -51.7968095969999, -28.166112310999896 ], [ -51.795741762, -28.173242375 ], [ -51.791232648999895, -28.178961313999892 ], [ -51.791703486, -28.182763495 ], [ -51.788268199, -28.184432635999897 ], [ -51.791427518, -28.192897661 ], [ -51.790538728999891, -28.194135162999892 ], [ -51.797246193, -28.196880196999906 ], [ -51.798489388, -28.201182747 ], [ -51.798501609, -28.212904944999895 ], [ -51.82463332, -28.230300634999903 ], [ -51.829625727, -28.230584663999903 ], [ -51.83138731199989, -28.234829342 ], [ -51.8383064719999, -28.238370873999902 ], [ -51.846504108, -28.246929183 ], [ -51.846372883, -28.238903988999898 ], [ -51.850436054999903, -28.234526525 ], [ -51.856797563, -28.233725240999902 ], [ -51.864903629, -28.229796636999904 ], [ -51.868083653, -28.230422593 ], [ -51.8729224739999, -28.225765149 ], [ -51.875097726, -28.228808893999904 ], [ -51.878041234, -28.22995681 ], [ -51.884105519999899, -28.227047978 ], [ -51.884501913, -28.224567303 ], [ -51.886433216999897, -28.223200854 ], [ -51.884845985, -28.218589677 ], [ -51.887783639, -28.214488558 ], [ -51.89086044, -28.2145441219999 ], [ -51.89261441, -28.20995019 ], [ -51.89464413199989, -28.213310707999895 ], [ -51.898939335, -28.212641572999896 ], [ -51.899809243999989, -28.215200373999899 ], [ -51.9034978299999, -28.2109561679999 ], [ -51.908077176999896, -28.213210884 ], [ -51.909412698, -28.216983630999895 ], [ -51.907509048999891, -28.221080308 ], [ -51.904411366, -28.221875381 ], [ -51.909715992, -28.224843823999901 ], [ -51.91005559, -28.227390859 ], [ -51.908098809, -28.230649663 ], [ -51.908823911, -28.232238351 ], [ -51.914865050999893, -28.232106853999902 ], [ -51.915099458, -28.237135496 ], [ -51.912568639, -28.2400933599999 ], [ -51.915989286999896, -28.241685237 ], [ -51.918853983, -28.239950998 ], [ -51.920842681, -28.240713668 ], [ -51.920655602999894, -28.244158291 ], [ -51.924170972, -28.246133863 ], [ -51.925900462, -28.244973961 ], [ -51.925098538, -28.243125311 ], [ -51.929343963999891, -28.241391941999989 ], [ -51.932432745, -28.242557156 ], [ -51.93614835599989, -28.246526189999894 ], [ -51.946149648999892, -28.244156513999897 ], [ -51.949795967999897, -28.251349761 ], [ -51.957886684999892, -28.253675342999902 ], [ -51.959323527, -28.255345678 ], [ -51.960574129999891, -28.260857616999903 ], [ -51.964042706, -28.266860818999895 ], [ -51.963998107999892, -28.278156102 ], [ -51.968162323999898, -28.278290115999905 ], [ -51.970746033999895, -28.2732809399999 ], [ -51.969459131999898, -28.259469785 ], [ -51.9806578399999, -28.242084598 ], [ -51.981656995, -28.236387994 ], [ -51.979900334, -28.236292378 ], [ -51.977876039, -28.241673675 ], [ -51.973511984, -28.241463714 ], [ -51.971874116, -28.239771988 ], [ -51.97247341, -28.233966495999901 ], [ -51.970903435, -28.2300222769999 ], [ -51.97248173, -28.222809020999893 ], [ -51.969993041999892, -28.210887785999898 ], [ -51.967384673, -28.208932261 ], [ -51.963155626999892, -28.209723149 ], [ -51.963045028999893, -28.207779445 ], [ -51.960589523, -28.206577970999902 ], [ -51.968886568999892, -28.197491050999897 ], [ -51.975885156999894, -28.194193883 ], [ -51.969766525999901, -28.189161816 ], [ -51.974261849999898, -28.184615411 ], [ -51.972487985, -28.184386146 ], [ -51.970860451, -28.179987439999891 ], [ -51.966762371, -28.177225719 ], [ -51.967906834, -28.174121699999905 ], [ -51.961915904, -28.16865459 ], [ -51.964528058, -28.16545273 ], [ -51.967760991, -28.164501265999906 ], [ -51.975184511, -28.154148407 ], [ -51.972840634, -28.153651335999896 ], [ -51.972951426, -28.151459799 ], [ -51.970806389, -28.150982384 ], [ -51.969691462, -28.147994082 ], [ -51.974667519, -28.140788143 ], [ -51.975425449999904, -28.135337854999896 ], [ -51.983724333999902, -28.139997563 ], [ -51.987859855, -28.134130915999901 ], [ -51.987286922, -28.130954523 ], [ -51.989462401, -28.129051691 ], [ -51.984377213, -28.128412058 ], [ -51.986411185, -28.126914828999901 ], [ -51.983168018999905, -28.126052199 ], [ -51.982510417999904, -28.122764193 ], [ -51.980037837999895, -28.122790497 ], [ -51.97985167, -28.115466749999904 ], [ -51.978136059999891, -28.11381059 ], [ -51.974363677, -28.114198745 ], [ -51.970856253, -28.106243264999893 ], [ -51.969629246999901, -28.106381166999903 ], [ -51.964866978, -28.116918117999901 ] ] ] } }
]
}
