{
"type": "FeatureCollection",
"name": "bairros_esperanca_do_sul",
"crs": { "type": "name", "properties": { "name": "urn:ogc:def:crs:OGC:1.3:CRS84" } },
"features": [
{ "type": "Feature", "properties": { "code_muni": 4307450.0, "name_muni": "Esperança do Sul", "code_state": 43.0, "abbrev_state": "RS", "name_state": "Rio Grande do Sul", "code_region": 4.0, "name_region": "Sul", "year": 2022.0 }, "geometry": { "type": "Polygon", "coordinates": [ [ [ -53.962824515, -27.376149219999892 ], [ -53.979275289, -27.389575653999891 ], [ -53.981407769, -27.388070672 ], [ -53.993326478, -27.387627746 ], [ -53.993348645, -27.388881248 ], [ -54.000426708, -27.388696404 ], [ -54.000467159, -27.391125793 ], [ -54.024912824, -27.40022925999989 ], [ -54.027764157, -27.396185761 ], [ -54.030147913, -27.383684559999903 ], [ -54.033337971, -27.381907815 ], [ -54.030339636999891, -27.378664194999896 ], [ -54.035813629, -27.375178541 ], [ -54.035973243999891, -27.371730238999895 ], [ -54.038764882, -27.370771089 ], [ -54.039504533, -27.36711686 ], [ -54.043920023999895, -27.365250175 ], [ -54.046325377, -27.36201772 ], [ -54.054697001, -27.3588813809999 ], [ -54.053780678, -27.355553493999899 ], [ -54.058776332, -27.353146446 ], [ -54.057745698, -27.349754557 ], [ -54.059717471999903, -27.345967937 ], [ -54.066637263, -27.347807616999908 ], [ -54.064648480999892, -27.341096103 ], [ -54.068977113, -27.336755936 ], [ -54.073076472, -27.336178086 ], [ -54.071982719999902, -27.332493029 ], [ -54.067511862999901, -27.328456774 ], [ -54.078752547, -27.324642529 ], [ -54.079019155, -27.318735803 ], [ -54.082560734, -27.317679687 ], [ -54.08608465, -27.320005898 ], [ -54.0861861449999, -27.325824871999895 ], [ -54.08761928, -27.326254451999901 ], [ -54.091324809, -27.320389726 ], [ -54.096220488, -27.317291919 ], [ -54.095139903, -27.313138649999896 ], [ -54.099350331, -27.313613120999904 ], [ -54.103075562999898, -27.3116051649999 ], [ -54.106207538, -27.311630796 ], [ -54.107792213, -27.307980046 ], [ -54.111641727999903, -27.308351544999901 ], [ -54.115477588, -27.304290078 ], [ -54.110661415, -27.304948254999903 ], [ -54.111456771, -27.302504165999895 ], [ -54.09650892, -27.302777788 ], [ -54.080280452999901, -27.297749309 ], [ -54.072278086, -27.290954459 ], [ -54.064784564, -27.275909333 ], [ -54.05501758, -27.263977930999896 ], [ -54.051654071, -27.265919473999894 ], [ -54.052786725, -27.273526816 ], [ -54.049680527, -27.2767966719999 ], [ -54.042876098, -27.276492086 ], [ -54.031139364999895, -27.270479372999901 ], [ -54.027559206, -27.270712959 ], [ -54.030618917, -27.276640600999901 ], [ -54.02885637299989, -27.280115454999905 ], [ -54.025485874, -27.279863421 ], [ -54.012256055, -27.274486528999901 ], [ -54.001515896999898, -27.264708867 ], [ -53.998057086, -27.262672901999988 ], [ -53.994688149, -27.263346053 ], [ -53.991295690999898, -27.267263479999894 ], [ -54.001317039, -27.272260683999896 ], [ -54.001619038999891, -27.273990701999892 ], [ -53.995124018, -27.272392365 ], [ -53.982523946999891, -27.271854393 ], [ -53.982155979, -27.274028379999894 ], [ -53.989951259999899, -27.281242538 ], [ -53.989899637999898, -27.282464467999908 ], [ -53.980808351999897, -27.281839915 ], [ -53.975769274999898, -27.2911660689999 ], [ -53.968968751, -27.292559928999896 ], [ -53.961543364, -27.301043913999898 ], [ -53.958454645, -27.302397621999898 ], [ -53.94803625, -27.297984722 ], [ -53.9324611219999, -27.2965224 ], [ -53.932204156999902, -27.29881362 ], [ -53.937566389, -27.305785806999893 ], [ -53.952939036, -27.311484532 ], [ -53.953421587, -27.319640201 ], [ -53.94664319799989, -27.321239638 ], [ -53.936317814999903, -27.309151412999903 ], [ -53.935112612, -27.317720594 ], [ -53.932347662, -27.322040245 ], [ -53.91829502, -27.323398152 ], [ -53.916973981999902, -27.325329532 ], [ -53.917744579, -27.327189045999905 ], [ -53.923269186, -27.326478345999899 ], [ -53.926531291999893, -27.330468048999901 ], [ -53.929830093, -27.331115903 ], [ -53.92875659, -27.33643533 ], [ -53.933327342, -27.339616029999899 ], [ -53.929666752999893, -27.344954954999896 ], [ -53.933696622, -27.345692425 ], [ -53.934961721, -27.349481517999898 ], [ -53.937515821, -27.350948266999989 ], [ -53.936185423, -27.355112483 ], [ -53.94110326, -27.357465530999892 ], [ -53.947275483999903, -27.358007664 ], [ -53.949827671, -27.360026486 ], [ -53.955221682999898, -27.370910072 ], [ -53.956537918, -27.378377355999898 ], [ -53.962824515, -27.376149219999892 ] ] ] } }
]
}
