{
"type": "FeatureCollection",
"name": "bairros_paim_filho",
"crs": { "type": "name", "properties": { "name": "urn:ogc:def:crs:OGC:1.3:CRS84" } },
"features": [
{ "type": "Feature", "properties": { "code_muni": 4313607.0, "name_muni": "Paim Filho", "code_state": 43.0, "abbrev_state": "RS", "name_state": "Rio Grande do Sul", "code_region": 4.0, "name_region": "Sul", "year": 2022.0 }, "geometry": { "type": "Polygon", "coordinates": [ [ [ -51.733260402, -27.670769349999905 ], [ -51.728131570999899, -27.677098660999896 ], [ -51.728870694, -27.679252130999899 ], [ -51.722690455, -27.68364271 ], [ -51.717967441, -27.6809293869999 ], [ -51.716939367, -27.684926357999906 ], [ -51.71234605, -27.684847014 ], [ -51.709107920999898, -27.688331161999901 ], [ -51.70556837, -27.686437049999896 ], [ -51.700638194, -27.686898347 ], [ -51.699782607, -27.688196549999901 ], [ -51.700959245, -27.689911107999897 ], [ -51.705431343, -27.691908428 ], [ -51.708960385999895, -27.703676312 ], [ -51.695991783999901, -27.719288849999902 ], [ -51.674613955, -27.729790760999901 ], [ -51.673339271, -27.733308553 ], [ -51.692890765, -27.742806001 ], [ -51.694127997, -27.745483012 ], [ -51.702680432, -27.753444272 ], [ -51.702491047, -27.75817944499989 ], [ -51.704563350999898, -27.756969934 ], [ -51.705073757, -27.759626124 ], [ -51.708823777, -27.763293317 ], [ -51.7143205899999, -27.765407011 ], [ -51.714506967, -27.769757484 ], [ -51.717253507, -27.773294630999899 ], [ -51.71501640799989, -27.807050578 ], [ -51.716042091, -27.807456829999989 ], [ -51.720396552, -27.806935828999897 ], [ -51.724085124999895, -27.807996895 ], [ -51.734567042, -27.805443123 ], [ -51.736680782, -27.802176817 ], [ -51.736500774, -27.798494707 ], [ -51.744987137999907, -27.796080409 ], [ -51.75095056899989, -27.789416182 ], [ -51.752440044, -27.783078366 ], [ -51.751924533, -27.781529955999886 ], [ -51.747353626999903, -27.779029595999898 ], [ -51.745483167, -27.774712813 ], [ -51.754252477, -27.767496939999894 ], [ -51.762279678, -27.768524525 ], [ -51.766855232999902, -27.767906629 ], [ -51.769784144, -27.765836866 ], [ -51.776861919999895, -27.76565313 ], [ -51.776805806, -27.760278039999889 ], [ -51.827882368, -27.758818076 ], [ -51.833396998999895, -27.753414775999889 ], [ -51.837606735, -27.751899362 ], [ -51.841694526, -27.752959931 ], [ -51.847961359, -27.750472298 ], [ -51.853051293, -27.751337038 ], [ -51.856948711, -27.750106633 ], [ -51.85745360899989, -27.746961816 ], [ -51.867449799, -27.738692014 ], [ -51.875228604, -27.730400937999885 ], [ -51.875372999, -27.728552148999899 ], [ -51.882164229, -27.722275081 ], [ -51.881027955, -27.719776152 ], [ -51.878412974, -27.718382134 ], [ -51.87868178, -27.712721364999897 ], [ -51.892960253, -27.701927899999902 ], [ -51.892676144999896, -27.698613023999904 ], [ -51.890372933, -27.697001175 ], [ -51.87708407, -27.695462262 ], [ -51.875268841, -27.694060610999905 ], [ -51.87408426199989, -27.689104601999897 ], [ -51.880162546999891, -27.683284736 ], [ -51.892773007, -27.679053328999903 ], [ -51.84344155, -27.675755367 ], [ -51.842910225, -27.676637419 ], [ -51.7665088259999, -27.667570967 ], [ -51.757006953, -27.669814244 ], [ -51.754648410999899, -27.667164737 ], [ -51.752064547, -27.669486149 ], [ -51.749755288, -27.669631799999905 ], [ -51.747471555999894, -27.666407907999904 ], [ -51.742746365, -27.669921072 ], [ -51.736638184999897, -27.667133512 ], [ -51.73341118, -27.667246771 ], [ -51.733260402, -27.670769349999905 ] ] ] } }
]
}
