{
"type": "FeatureCollection",
"name": "bairros_fazenda_vilanova",
"crs": { "type": "name", "properties": { "name": "urn:ogc:def:crs:OGC:1.3:CRS84" } },
"features": [
{ "type": "Feature", "properties": { "code_muni": 4308078.0, "name_muni": "Fazenda Vilanova", "code_state": 43.0, "abbrev_state": "RS", "name_state": "Rio Grande do Sul", "code_region": 4.0, "name_region": "Sul", "year": 2022.0 }, "geometry": { "type": "Polygon", "coordinates": [ [ [ -51.799618354, -29.613852027 ], [ -51.799345058, -29.61630673 ], [ -51.801645482, -29.617891449999892 ], [ -51.803184648999896, -29.6267203959999 ], [ -51.808255759, -29.633289157 ], [ -51.809387799, -29.63280914800001 ], [ -51.811274602, -29.63520392800001 ], [ -51.815978055, -29.6366927609999 ], [ -51.823584536999896, -29.647614255 ], [ -51.826763029999903, -29.648765674999904 ], [ -51.837259263, -29.644267605 ], [ -51.841338280999892, -29.643252757 ], [ -51.843082189, -29.644254182999887 ], [ -51.845125762999899, -29.640839733999897 ], [ -51.847925695, -29.639249275999898 ], [ -51.853957115999897, -29.642198532 ], [ -51.856898150999896, -29.641158473 ], [ -51.860031728, -29.6377027569999 ], [ -51.865576071, -29.637020097999891 ], [ -51.872855229, -29.639102078 ], [ -51.873540314, -29.642576984 ], [ -51.880629058999901, -29.639476289 ], [ -51.889576104999897, -29.632679289999899 ], [ -51.878986508, -29.633281516 ], [ -51.876106958, -29.628904867 ], [ -51.871470051, -29.62648762200001 ], [ -51.874416523, -29.623534454 ], [ -51.870480081, -29.619299485999896 ], [ -51.869916986, -29.615533425 ], [ -51.872457343, -29.607025698 ], [ -51.870594582, -29.600101326999908 ], [ -51.885765363, -29.597844751 ], [ -51.881727629, -29.594081972 ], [ -51.880840889, -29.584891631999898 ], [ -51.876198248, -29.580667230999897 ], [ -51.879317821, -29.576914018 ], [ -51.873408997, -29.573530567 ], [ -51.875670699, -29.569284824 ], [ -51.874434870999899, -29.565753303999909 ], [ -51.882695634999891, -29.560181042000011 ], [ -51.876807544, -29.546568519999902 ], [ -51.865175041, -29.540410251 ], [ -51.844717124999896, -29.536278062 ], [ -51.829952036, -29.5352434 ], [ -51.8260803209999, -29.53062863600001 ], [ -51.821503019, -29.528863708 ], [ -51.816760386999896, -29.529374824999902 ], [ -51.817045447999895, -29.533971594 ], [ -51.812694002999898, -29.534895699999907 ], [ -51.810350241, -29.537695158 ], [ -51.811208708, -29.549044283999894 ], [ -51.805663664, -29.555073508 ], [ -51.798432057, -29.55822210299991 ], [ -51.796012537, -29.567458063999897 ], [ -51.796863024999894, -29.570975713999889 ], [ -51.795558859, -29.573706415999901 ], [ -51.798112316, -29.578377766 ], [ -51.799253908, -29.590509831 ], [ -51.798893428, -29.593132637999897 ], [ -51.795862972, -29.594808445 ], [ -51.794588442, -29.5976306919999 ], [ -51.796133510999901, -29.599838722999898 ], [ -51.79868660599989, -29.614199106999894 ], [ -51.799618354, -29.613852027 ] ] ] } }
]
}
