{
"type": "FeatureCollection",
"name": "bairros_pinhal_grande",
"crs": { "type": "name", "properties": { "name": "urn:ogc:def:crs:OGC:1.3:CRS84" } },
"features": [
{ "type": "Feature", "properties": { "name": "Limeira", "code_muni": 4314472.0, "name_muni": "Pinhal Grande" }, "geometry": { "type": "Polygon", "coordinates": [ [ [ -53.339525, -29.3459564 ], [ -53.343773, -29.340191 ], [ -53.3473778, -29.3387742 ], [ -53.3496094, -29.3382878 ], [ -53.3510042, -29.3369971 ], [ -53.3497811, -29.3341164 ], [ -53.3454037, -29.3324702 ], [ -53.3428074, -29.3323393 ], [ -53.3378506, -29.3329753 ], [ -53.3345891, -29.3291965 ], [ -53.3300615, -29.3307492 ], [ -53.3313704, -29.3332185 ], [ -53.3351255, -29.3365108 ], [ -53.3362842, -29.3385497 ], [ -53.3362842, -29.3393166 ], [ -53.3355761, -29.3422346 ], [ -53.3365283, -29.3439274 ], [ -53.3373738, -29.3444753 ], [ -53.3375213, -29.3445157 ], [ -53.3375398, -29.3445297 ], [ -53.337579, -29.3445594 ], [ -53.3379837, -29.344856 ], [ -53.339525, -29.3459564 ] ] ] } },
{ "type": "Feature", "properties": { "name": "Integração", "code_muni": 4314472.0, "name_muni": "Pinhal Grande" }, "geometry": { "type": "Polygon", "coordinates": [ [ [ -53.3173426, -29.3532064 ], [ -53.3170153, -29.3532663 ], [ -53.3167733, -29.3533057 ], [ -53.3171769, -29.3545587 ], [ -53.3185814, -29.3546958 ], [ -53.3200421, -29.3538437 ], [ -53.3210196, -29.3545097 ], [ -53.3203892, -29.3558328 ], [ -53.3229706, -29.3565978 ], [ -53.325413, -29.3548329 ], [ -53.3277389, -29.3542061 ], [ -53.3293907, -29.3535107 ], [ -53.3323907, -29.3529623 ], [ -53.3353298, -29.350786599999985 ], [ -53.3345144, -29.34938750000001 ], [ -53.33503120000001, -29.3493875 ], [ -53.3369751, -29.3471447 ], [ -53.339525, -29.3459564 ], [ -53.3375213, -29.3445157 ], [ -53.3373738, -29.3444753 ], [ -53.3365283, -29.3439274 ], [ -53.3355369, -29.3448136 ], [ -53.3348158, -29.3452922 ], [ -53.3344978, -29.3456221 ], [ -53.3333795, -29.3467823 ], [ -53.3320761, -29.3473308 ], [ -53.3311098, -29.3480164 ], [ -53.3299974, -29.3481731 ], [ -53.3295818, -29.3486561 ], [ -53.3295255, -29.3487215 ], [ -53.3292671, -29.3493484 ], [ -53.3286491, -29.3497597 ], [ -53.3281097, -29.3501417 ], [ -53.3268737, -29.3507881 ], [ -53.3247051, -29.3516303 ], [ -53.3219185, -29.3514345 ], [ -53.3189522, -29.3513267 ], [ -53.3181462, -29.3516368 ], [ -53.3178787, -29.3516197 ], [ -53.3176799, -29.3523004 ], [ -53.3176295, -29.3527888 ], [ -53.3176017, -29.3528621 ], [ -53.3175841, -29.3529626 ], [ -53.3176028, -29.3530428 ], [ -53.3176321, -29.3530706 ], [ -53.3173426, -29.3532064 ] ] ] } },
{ "type": "Feature", "properties": { "name": "São José", "code_muni": 4314472.0, "name_muni": "Pinhal Grande" }, "geometry": { "type": "Polygon", "coordinates": [ [ [ -53.3177588, -29.3516044 ], [ -53.3170239, -29.3513051 ], [ -53.3169112, -29.3512537 ], [ -53.3166108, -29.351062 ], [ -53.316584, -29.3509685 ], [ -53.316423, -29.3506552 ], [ -53.3163855, -29.3505383 ], [ -53.3163265, -29.3504448 ], [ -53.3162353, -29.35037 ], [ -53.3161387, -29.3503092 ], [ -53.3160261, -29.3502811 ], [ -53.315731, -29.3501222 ], [ -53.315731, -29.3499375 ], [ -53.3157096, -29.3497761 ], [ -53.3157149, -29.34966630000001 ], [ -53.3157015, -29.3496172 ], [ -53.315672, -29.3495681 ], [ -53.3156989, -29.349367 ], [ -53.3156828, -29.349320200000012 ], [ -53.3156828, -29.3492244 ], [ -53.3156264, -29.3490818 ], [ -53.3155594, -29.3489976 ], [ -53.3154735, -29.348927499999988 ], [ -53.3154145, -29.3489064 ], [ -53.3152831, -29.3488877 ], [ -53.3152429, -29.348848 ], [ -53.3152268, -29.3487498 ], [ -53.3151839, -29.3487124 ], [ -53.3148687, -29.348551099999987 ], [ -53.3147789, -29.3484646 ], [ -53.3147426, -29.3484131 ], [ -53.3146756, -29.3483617 ], [ -53.3144865, -29.3482728 ], [ -53.3144463, -29.348236600000011 ], [ -53.3143671, -29.3482091 ], [ -53.3142679, -29.348153 ], [ -53.3142149, -29.3480605 ], [ -53.314172, -29.3480417 ], [ -53.3139659, -29.3480124 ], [ -53.3139628, -29.347836 ], [ -53.3139199, -29.3477612 ], [ -53.3137751, -29.3477518 ], [ -53.3136624, -29.3477705 ], [ -53.3135551, -29.3477144 ], [ -53.3134478, -29.3476723 ], [ -53.3133566, -29.3475508 ], [ -53.313362, -29.3474713 ], [ -53.313244, -29.3474993 ], [ -53.3132386, -29.3473965 ], [ -53.3131313, -29.347377799999986 ], [ -53.313067, -29.347317 ], [ -53.313024, -29.3472702 ], [ -53.3128631, -29.3472048 ], [ -53.3127773, -29.3472235 ], [ -53.3126861, -29.3472702 ], [ -53.3125895, -29.347298299999984 ], [ -53.3124661, -29.3472328 ], [ -53.3122784, -29.3470785 ], [ -53.3120048, -29.3469476 ], [ -53.311801, -29.3467559 ], [ -53.3115488, -29.3466062 ], [ -53.3113074, -29.3464052 ], [ -53.3107388, -29.3460311 ], [ -53.310315, -29.3459796 ], [ -53.3099878, -29.345895500000012 ], [ -53.3096498, -29.3459609 ], [ -53.3091134, -29.3459796 ], [ -53.3089203, -29.345975 ], [ -53.308754, -29.3460498 ], [ -53.3086628, -29.3458955 ], [ -53.3085233, -29.3456617 ], [ -53.3081317, -29.3451099 ], [ -53.3079547, -29.3449977 ], [ -53.3078474, -29.344848 ], [ -53.3076811, -29.3449182 ], [ -53.307429, -29.3449275 ], [ -53.3071768, -29.345021 ], [ -53.3068389, -29.3450585 ], [ -53.306635, -29.3451379 ], [ -53.3062649, -29.3451099 ], [ -53.3057821, -29.3450538 ], [ -53.3051866, -29.3449509 ], [ -53.3047521, -29.344946200000013 ], [ -53.3044142, -29.3449836 ], [ -53.3042693, -29.3450164 ], [ -53.3041942, -29.345105199999985 ], [ -53.3041513, -29.3452174 ], [ -53.3040601, -29.3453156 ], [ -53.3038938, -29.3454279 ], [ -53.3036631, -29.3454863 ], [ -53.3033627, -29.34542080000001 ], [ -53.303419, -29.3456664 ], [ -53.3034056, -29.3459516 ], [ -53.3032608, -29.3462462 ], [ -53.3032393, -29.346494 ], [ -53.3032286, -29.3467839 ], [ -53.3031482, -29.3470037 ], [ -53.3029175, -29.3471627 ], [ -53.3027136, -29.3473497 ], [ -53.3025742, -29.3476162 ], [ -53.3024776, -29.3477425 ], [ -53.3022255, -29.3479015 ], [ -53.302027, -29.3480605 ], [ -53.3019036, -29.3481914 ], [ -53.3018553, -29.3482428 ], [ -53.3015496, -29.3481259 ], [ -53.3013886, -29.3480745 ], [ -53.3011727, -29.3481807 ], [ -53.3009756, -29.3483644 ], [ -53.3008254, -29.348514 ], [ -53.3007181, -29.348818 ], [ -53.3005855, -29.3490772 ], [ -53.300541, -29.3492622 ], [ -53.3005679, -29.3494679 ], [ -53.3006161, -29.3496129 ], [ -53.3006001, -29.3498092 ], [ -53.3129269, -29.3552039 ], [ -53.3135393, -29.3547889 ], [ -53.3138871, -29.3546549 ], [ -53.314816, -29.3542932 ], [ -53.3152398, -29.3539846 ], [ -53.3159149, -29.3535842 ], [ -53.3166667, -29.3533301 ], [ -53.3167733, -29.3533057 ], [ -53.3170153, -29.3532663 ], [ -53.3173426, -29.3532064 ], [ -53.3176321, -29.3530706 ], [ -53.3176028, -29.3530428 ], [ -53.3175841, -29.3529626 ], [ -53.3176017, -29.3528621 ], [ -53.3176295, -29.3527888 ], [ -53.3176799, -29.3523004 ], [ -53.3178787, -29.3516197 ], [ -53.3177588, -29.3516044 ] ] ] } }
]
}
