{
"type": "FeatureCollection",
"name": "bairros_sao_jose_do_norte",
"crs": { "type": "name", "properties": { "name": "urn:ogc:def:crs:OGC:1.3:CRS84" } },
"features": [
{ "type": "Feature", "properties": { "code_muni": 4318507.0, "name_muni": "São José do Norte", "code_state": 43.0, "abbrev_state": "RS", "name_state": "Rio Grande do Sul", "code_region": 4.0, "name_region": "Sul", "year": 2022.0 }, "geometry": { "type": "MultiPolygon", "coordinates": [ [ [ [ -51.968285476999903, -32.031243036 ], [ -52.075753753999891, -32.141487137999889 ], [ -52.081564312, -32.155444577 ], [ -52.081886052, -32.159851624999909 ], [ -52.08304419, -32.160172136999989 ], [ -52.082874725, -32.156771689 ], [ -52.07907555, -32.147689313999898 ], [ -52.078806184, -32.137838197 ], [ -52.082207898999989, -32.132922961999988 ], [ -52.089770722, -32.13140270199991 ], [ -52.092270734, -32.129585365 ], [ -52.0905868729999, -32.127370159 ], [ -52.085101826, -32.127034643999899 ], [ -52.082733806, -32.12333799 ], [ -52.083990878, -32.118988457999897 ], [ -52.080755640999904, -32.118997497 ], [ -52.080162721, -32.117160844999894 ], [ -52.076308798999897, -32.114554559999902 ], [ -52.076900087999896, -32.110406414999893 ], [ -52.073002972, -32.106811385 ], [ -52.068762026999906, -32.09876309 ], [ -52.066221552999892, -32.096883305999903 ], [ -52.064402603, -32.097993438999893 ], [ -52.062557759, -32.097397545 ], [ -52.063585186, -32.095292602 ], [ -52.060537176, -32.0897312069999 ], [ -52.058299366999989, -32.080242370999905 ], [ -52.054017342, -32.077860389 ], [ -52.049693389, -32.077210233 ], [ -52.045639766, -32.053825504999985 ], [ -52.047188755, -32.052992378999896 ], [ -52.041030732, -32.044431394999897 ], [ -52.040636068, -32.036476576 ], [ -52.039014209999891, -32.0364536189999 ], [ -52.039052649, -32.030022691999903 ], [ -52.045330204, -32.013970937 ], [ -52.043872273, -32.006868251 ], [ -52.053832583, -31.984929241 ], [ -52.05396248599989, -31.980751928 ], [ -52.049199122999894, -31.976437082 ], [ -52.040476199, -31.973112321 ], [ -52.038023844999891, -31.970922227 ], [ -52.034844167999893, -31.971709188 ], [ -52.033353567999903, -31.970548059999892 ], [ -52.0273039859999, -31.97098061 ], [ -52.021877036, -31.969236603 ], [ -52.020368398999899, -31.966078889999892 ], [ -52.018583297, -31.967313467999901 ], [ -52.01524681, -31.96670972 ], [ -52.009799864999891, -31.960144985999897 ], [ -52.0101932009999, -31.958525178999892 ], [ -52.007205709999894, -31.956208 ], [ -52.008306725999901, -31.951826691 ], [ -52.005436253, -31.951534366 ], [ -52.004652748, -31.944917801 ], [ -52.0061356269999, -31.939022388999909 ], [ -52.0091642309999, -31.934032160999895 ], [ -52.011922069, -31.932628549 ], [ -52.010418128, -31.929576558999898 ], [ -52.011838117, -31.929169053 ], [ -52.015208163, -31.922418573 ], [ -52.018359797, -31.921056088999894 ], [ -52.019920246, -31.917663618999896 ], [ -52.032014624999896, -31.906978363999901 ], [ -52.042933129999895, -31.902681974 ], [ -52.044810696999896, -31.899421092 ], [ -52.04697054, -31.899242117 ], [ -52.047473485999895, -31.896658889 ], [ -52.044539305999891, -31.897292614 ], [ -52.046334160999898, -31.893563015 ], [ -52.047424551999903, -31.893687574 ], [ -52.048521041, -31.889545793 ], [ -52.054311098, -31.886748435 ], [ -52.058212821, -31.881891450999898 ], [ -52.066656834, -31.87764742 ], [ -52.07067133, -31.873193291999893 ], [ -52.082016164, -31.866022283999907 ], [ -52.088218602, -31.857504814 ], [ -52.089570678, -31.846139051 ], [ -52.09271962, -31.841385483999893 ], [ -52.098609592999892, -31.840594327 ], [ -52.09812368099989, -31.835911339999903 ], [ -52.096112338, -31.834109607999903 ], [ -52.08304566, -31.828321394999893 ], [ -52.076883513, -31.824963864 ], [ -52.074446826, -31.821927076 ], [ -52.062529842999901, -31.816152093 ], [ -52.049121307999897, -31.814254725 ], [ -52.015398364, -31.816553652 ], [ -52.006099526999897, -31.819577239 ], [ -52.004709867, -31.819008111999903 ], [ -51.986911526, -31.826529335 ], [ -51.965735115, -31.840503146999904 ], [ -51.960666924999892, -31.841733464 ], [ -51.952360279999894, -31.846968896 ], [ -51.950538331, -31.847003969999896 ], [ -51.929572986, -31.860319703999892 ], [ -51.908159633, -31.868908646 ], [ -51.892677764, -31.872181036 ], [ -51.878707159, -31.873083271 ], [ -51.860410401, -31.870176328 ], [ -51.843689223, -31.862761733 ], [ -51.809697935, -31.843539977 ], [ -51.805564793, -31.83930349 ], [ -51.802953552, -31.832747889 ], [ -51.804776551, -31.814753351 ], [ -51.799259323999898, -31.813499728999894 ], [ -51.792764083999892, -31.814952886 ], [ -51.787489928, -31.808377329999903 ], [ -51.787249620999894, -31.805046597999898 ], [ -51.793561456, -31.804467324 ], [ -51.796473772, -31.807334306 ], [ -51.794417850999892, -31.81244744299989 ], [ -51.796172132, -31.8131457009999 ], [ -51.813428211, -31.808303845999887 ], [ -51.827502769, -31.802317715999894 ], [ -51.832979006999892, -31.801453597 ], [ -51.840497388, -31.803049991 ], [ -51.840705194, -31.801987921 ], [ -51.818374860999903, -31.7972279419999 ], [ -51.806589185, -31.791778032 ], [ -51.806128053999892, -31.789519633999902 ], [ -51.802298651999891, -31.788464819 ], [ -51.791791456999903, -31.788694776999893 ], [ -51.773437612999899, -31.786455385999908 ], [ -51.759259901, -31.787086567999896 ], [ -51.755719744, -31.788790541 ], [ -51.753982123, -31.787428938999906 ], [ -51.750338233, -31.788909224999898 ], [ -51.734590334, -31.788685485 ], [ -51.733326717999901, -31.787242832999908 ], [ -51.725501622, -31.785638903999896 ], [ -51.7086456769999, -31.784835708999889 ], [ -51.699015173, -31.781928462999907 ], [ -51.693165475999898, -31.782190715999896 ], [ -51.689631237, -31.781338596999902 ], [ -51.681789562999896, -31.775691372 ], [ -51.673453144, -31.77411008 ], [ -51.671247288, -31.771744473999892 ], [ -51.656054261999891, -31.764928868 ], [ -51.654366624, -31.761814007999892 ], [ -51.648357142, -31.758635883999901 ], [ -51.647100509, -31.755822576999904 ], [ -51.640678242, -31.752257686999904 ], [ -51.631919661, -31.743385686999904 ], [ -51.623848451999891, -31.738121754 ], [ -51.624094369, -31.735933142 ], [ -51.621352886999894, -31.734887186 ], [ -51.617592778, -31.730755592 ], [ -51.613263961, -31.729405471 ], [ -51.610365198, -31.7246085039999 ], [ -51.605805717, -31.721652287 ], [ -51.600060540999898, -31.714594427999899 ], [ -51.598664106999898, -31.714711383000012 ], [ -51.594913654, -31.70701153800001 ], [ -51.583345261, -31.696262929999897 ], [ -51.573091465999902, -31.684302891000012 ], [ -51.572610564999898, -31.681669052 ], [ -51.561481864, -31.670045683999902 ], [ -51.544210898999893, -31.646121789999896 ], [ -51.542354506, -31.641110609999892 ], [ -51.529801221, -31.620975179 ], [ -51.509679279999901, -31.596875812 ], [ -51.507401047, -31.590999822999905 ], [ -51.502552764, -31.590423135 ], [ -51.498410317, -31.583157403 ], [ -51.475152581, -31.565955597 ], [ -51.474059945, -31.566431985 ], [ -51.475691699, -31.56904671 ], [ -51.474387727, -31.570242843999896 ], [ -51.474266939, -31.578946081 ], [ -51.471251905, -31.581466626999909 ], [ -51.469757386, -31.589704799999893 ], [ -51.44752685799989, -31.606262087999902 ], [ -51.444207058, -31.615656359 ], [ -51.440609933, -31.620942007999897 ], [ -51.437960714, -31.623704174999901 ], [ -51.436945974, -31.619564566999898 ], [ -51.435844562999897, -31.619865594 ], [ -51.436075811, -31.623549354 ], [ -51.43501162, -31.623624435999897 ], [ -51.433728394, -31.621937844999906 ], [ -51.436683947999896, -31.614128284999893 ], [ -51.440829628, -31.609353245 ], [ -51.445728723999899, -31.600099078 ], [ -51.450535507, -31.594956214 ], [ -51.458651615, -31.578356901999904 ], [ -51.462157904, -31.567049256 ], [ -51.460786898, -31.556299631999892 ], [ -51.455572812999897, -31.553792424999987 ], [ -51.457169469, -31.551267537999902 ], [ -51.455715374, -31.546373546 ], [ -51.446770293, -31.53617158 ], [ -51.446441411, -31.530930511999902 ], [ -51.448191574, -31.527484671 ], [ -51.450010581, -31.528007365 ], [ -51.460472436, -31.544382373 ], [ -51.461977745, -31.552562708 ], [ -51.464007007, -31.554360845 ], [ -51.463715820999894, -31.551001867 ], [ -51.455116184, -31.528850682 ], [ -51.440593538, -31.506683372999902 ], [ -51.44045295, -31.504308776999903 ], [ -51.436481145, -31.504023303999894 ], [ -51.428176231999899, -31.491998146 ], [ -51.423095197999899, -31.48835001 ], [ -51.421546712, -31.488102631999894 ], [ -51.420347706, -31.4897915459999 ], [ -51.422371488999893, -31.499936593 ], [ -51.420712107, -31.503445359999908 ], [ -51.416344223, -31.509556899 ], [ -51.410634291, -31.514151044 ], [ -51.399308882, -31.5204054169999 ], [ -51.383114401999897, -31.526970232999901 ], [ -51.364872143, -31.531809398 ], [ -51.356861511, -31.531616378 ], [ -51.343206584, -31.527911061999902 ], [ -51.336450021, -31.523087732 ], [ -51.310643673999891, -31.512847733999894 ], [ -51.297108653, -31.506098474999899 ], [ -51.282405992999891, -31.496931402999987 ], [ -51.264335053, -31.482786228 ], [ -51.237543939, -31.457435093999901 ], [ -51.185961924, -31.504387771 ], [ -51.220937466, -31.5394089179999 ], [ -51.267521842, -31.578613404999892 ], [ -51.344676727, -31.636221244999891 ], [ -51.427238632, -31.695617448 ], [ -51.489313938, -31.735293274 ], [ -51.600474903, -31.796819868999901 ], [ -51.722173604, -31.856308253 ], [ -51.760132402, -31.876635830999888 ], [ -51.803141439999891, -31.901681203 ], [ -51.847672319, -31.930777596 ], [ -51.886864010999894, -31.959840732 ], [ -51.927200953, -31.993345417999898 ], [ -51.968285476999903, -32.031243036 ] ] ], [ [ [ -52.101471624999895, -31.792459606 ], [ -52.099156926, -31.791555944 ], [ -52.09422902499989, -31.792858484 ], [ -52.094538756, -31.795750906 ], [ -52.101131549999906, -31.80102276 ], [ -52.106216968999902, -31.801760821 ], [ -52.108813697, -31.793476654 ], [ -52.111209797, -31.793513253 ], [ -52.110501913, -31.792097721999912 ], [ -52.108971329, -31.791556892 ], [ -52.108153667999893, -31.79282081 ], [ -52.104471348999894, -31.790906042999893 ], [ -52.101471624999895, -31.792459606 ] ] ] ] } }
]
}
