{
"type": "FeatureCollection",
"name": "bairros_sao_francisco_de_assis",
"crs": { "type": "name", "properties": { "name": "urn:ogc:def:crs:OGC:1.3:CRS84" } },
"features": [
{ "type": "Feature", "properties": { "name": "Centro", "code_muni": 4318101.0, "name_muni": "São Francisco de Assis" }, "geometry": { "type": "Polygon", "coordinates": [ [ [ -55.1306713, -29.544218399999984 ], [ -55.1292229, -29.5472425 ], [ -55.1276779, -29.5466825 ], [ -55.1270155, -29.5464633 ], [ -55.1265066, -29.5463431 ], [ -55.125924, -29.5475606 ], [ -55.1254379, -29.5486718 ], [ -55.1248094, -29.5499822 ], [ -55.1242704, -29.551004 ], [ -55.1241476, -29.5512562 ], [ -55.1239008, -29.5518162 ], [ -55.1235527, -29.5524926 ], [ -55.1228748, -29.5537517 ], [ -55.1226603, -29.5541028 ], [ -55.1223822, -29.554606299999989 ], [ -55.1221351, -29.5550447 ], [ -55.1215187, -29.5563029 ], [ -55.1208806, -29.5575653 ], [ -55.1215993, -29.5578162 ], [ -55.1219363, -29.5579339 ], [ -55.122308, -29.5580808 ], [ -55.1230076, -29.5583507 ], [ -55.123759, -29.5586456 ], [ -55.12319320000001, -29.5597703 ], [ -55.1231396, -29.5598768 ], [ -55.1245792, -29.5604471 ], [ -55.1259326, -29.5609833 ], [ -55.1276894, -29.5617193 ], [ -55.1289766, -29.5620723 ], [ -55.1291409, -29.5621336 ], [ -55.1296235, -29.5612491 ], [ -55.1297718, -29.5609263 ], [ -55.1311793, -29.5614778 ], [ -55.1317814, -29.560237 ], [ -55.132427, -29.5588913 ], [ -55.1329868, -29.557772 ], [ -55.1332424, -29.5572176 ], [ -55.1336641, -29.5563782 ], [ -55.134234, -29.5551619 ], [ -55.1348818, -29.5538508 ], [ -55.1355193, -29.5524602 ], [ -55.1356816, -29.5520025 ], [ -55.1372543, -29.5477392 ], [ -55.1368206, -29.5474978 ], [ -55.1358566, -29.5471692 ], [ -55.1349588, -29.5470829 ], [ -55.134767, -29.5470347 ], [ -55.1346212, -29.546939 ], [ -55.1346076, -29.546816 ], [ -55.1346184, -29.5465153 ], [ -55.1345256, -29.5463786 ], [ -55.1342431, -29.546159899999989 ], [ -55.1339561, -29.545923 ], [ -55.133616, -29.5457526 ], [ -55.1330312, -29.5455904 ], [ -55.1325148, -29.5453897 ], [ -55.1321863, -29.545102699999987 ], [ -55.1321048, -29.5448459 ], [ -55.1312621, -29.5443519 ], [ -55.1306713, -29.544218399999984 ] ] ] } },
{ "type": "Feature", "properties": { "name": "Getúlio Vargas", "code_muni": 4318101.0, "name_muni": "São Francisco de Assis" }, "geometry": { "type": "Polygon", "coordinates": [ [ [ -55.1329868, -29.557772 ], [ -55.132427, -29.5588913 ], [ -55.1317814, -29.560237 ], [ -55.1311793, -29.5614778 ], [ -55.1297718, -29.5609263 ], [ -55.1296235, -29.5612491 ], [ -55.1291409, -29.5621336 ], [ -55.1286384, -29.5632572 ], [ -55.1318514, -29.5640602 ], [ -55.1322055, -29.5633603 ], [ -55.1335251, -29.5640229 ], [ -55.1366902, -29.5645081 ], [ -55.1386777, -29.5585822 ], [ -55.1385251, -29.5585806 ], [ -55.1378914, -29.5584044 ], [ -55.136484, -29.558043 ], [ -55.1347091, -29.5575935 ], [ -55.1332424, -29.5572176 ], [ -55.1329868, -29.557772 ] ] ] } },
{ "type": "Feature", "properties": { "name": "João de Deus", "code_muni": 4318101.0, "name_muni": "São Francisco de Assis" }, "geometry": { "type": "Polygon", "coordinates": [ [ [ -55.1347091, -29.5575935 ], [ -55.136484, -29.558043 ], [ -55.1378914, -29.5584044 ], [ -55.1385251, -29.5585806 ], [ -55.1386777, -29.5585822 ], [ -55.1389969, -29.5530105 ], [ -55.1356816, -29.5520025 ], [ -55.1355193, -29.5524602 ], [ -55.1348818, -29.5538508 ], [ -55.134234, -29.5551619 ], [ -55.1336641, -29.5563782 ], [ -55.1332424, -29.5572176 ], [ -55.1347091, -29.5575935 ] ] ] } },
{ "type": "Feature", "properties": { "name": "Santo Antônio das Olarias", "code_muni": 4318101.0, "name_muni": "São Francisco de Assis" }, "geometry": { "type": "Polygon", "coordinates": [ [ [ -55.1270155, -29.5464633 ], [ -55.1276779, -29.5466825 ], [ -55.1249528, -29.5426503 ], [ -55.122174, -29.542697 ], [ -55.1172602, -29.5443864 ], [ -55.1165482, -29.544748 ], [ -55.1166111, -29.5449068 ], [ -55.1167694, -29.5450981 ], [ -55.1169531, -29.545251 ], [ -55.1172669, -29.5455228 ], [ -55.1176518, -29.5457142 ], [ -55.1179482, -29.545846 ], [ -55.1182312, -29.5459405 ], [ -55.1190157, -29.5462345 ], [ -55.1194398, -29.5463867 ], [ -55.1197334, -29.5464948 ], [ -55.1205212, -29.5468089 ], [ -55.1209567, -29.5469651 ], [ -55.1218508, -29.5473195 ], [ -55.1224047, -29.5475482 ], [ -55.1232302, -29.5478449 ], [ -55.1238745, -29.5481187 ], [ -55.1254379, -29.5486718 ], [ -55.125924, -29.5475606 ], [ -55.1265066, -29.5463431 ], [ -55.1270155, -29.5464633 ] ] ] } },
{ "type": "Feature", "properties": { "name": "Italiano", "code_muni": 4318101.0, "name_muni": "São Francisco de Assis" }, "geometry": { "type": "Polygon", "coordinates": [ [ [ -55.1165482, -29.544748 ], [ -55.1141167, -29.5459825 ], [ -55.1125395, -29.5487826 ], [ -55.1133147, -29.5486391 ], [ -55.1139946, -29.5489027 ], [ -55.1146708, -29.5491371 ], [ -55.1160744, -29.5496408 ], [ -55.1175431, -29.5502191 ], [ -55.119052, -29.5507791 ], [ -55.1205326, -29.5513463 ], [ -55.1220272, -29.5519219 ], [ -55.1223725, -29.552056 ], [ -55.1235527, -29.5524926 ], [ -55.1239008, -29.5518162 ], [ -55.1241476, -29.5512562 ], [ -55.1242704, -29.551004 ], [ -55.1248094, -29.5499822 ], [ -55.1254379, -29.5486718 ], [ -55.1238745, -29.5481187 ], [ -55.1232302, -29.5478449 ], [ -55.1224047, -29.5475482 ], [ -55.1218508, -29.5473195 ], [ -55.1209567, -29.5469651 ], [ -55.1205212, -29.5468089 ], [ -55.1197334, -29.5464948 ], [ -55.1194398, -29.5463867 ], [ -55.1190157, -29.5462345 ], [ -55.1182312, -29.5459405 ], [ -55.1179482, -29.545846 ], [ -55.1176518, -29.5457142 ], [ -55.1172669, -29.5455228 ], [ -55.1169531, -29.545251 ], [ -55.1167694, -29.5450981 ], [ -55.1166111, -29.5449068 ], [ -55.1165482, -29.544748 ] ] ] } },
{ "type": "Feature", "properties": { "name": "Padre Matheus Mandarino", "code_muni": 4318101.0, "name_muni": "São Francisco de Assis" }, "geometry": { "type": "Polygon", "coordinates": [ [ [ -55.1223725, -29.552056 ], [ -55.1220272, -29.5519219 ], [ -55.1205326, -29.5513463 ], [ -55.119052, -29.5507791 ], [ -55.1175431, -29.5502191 ], [ -55.1160744, -29.5496408 ], [ -55.1146708, -29.5491371 ], [ -55.1139946, -29.5489027 ], [ -55.1133147, -29.5486391 ], [ -55.1125395, -29.5487826 ], [ -55.115329, -29.5499306 ], [ -55.1128614, -29.5543731 ], [ -55.1144385, -29.5550077 ], [ -55.115054, -29.5552098 ], [ -55.1164732, -29.5557745 ], [ -55.1180081, -29.556367300000012 ], [ -55.119326, -29.5568797 ], [ -55.1208806, -29.5575653 ], [ -55.1215187, -29.5563029 ], [ -55.1221351, -29.5550447 ], [ -55.1223822, -29.554606299999989 ], [ -55.1226603, -29.5541028 ], [ -55.1228748, -29.5537517 ], [ -55.1235527, -29.5524926 ], [ -55.1223725, -29.552056 ] ] ] } },
{ "type": "Feature", "properties": { "name": "João XXIII", "code_muni": 4318101.0, "name_muni": "São Francisco de Assis" }, "geometry": { "type": "Polygon", "coordinates": [ [ [ -55.119326, -29.5568797 ], [ -55.1180081, -29.556367300000012 ], [ -55.1164732, -29.5557745 ], [ -55.115054, -29.5552098 ], [ -55.1144385, -29.5550077 ], [ -55.1132369, -29.5577329 ], [ -55.1107693, -29.5579942 ], [ -55.111177, -29.5595807 ], [ -55.1096857, -29.559842 ], [ -55.1083124, -29.5610366 ], [ -55.1084121, -29.561231 ], [ -55.1094599, -29.5622703 ], [ -55.1104991, -29.5632656 ], [ -55.1108895, -29.5636452 ], [ -55.1114181, -29.5641637 ], [ -55.1116032, -29.5642897 ], [ -55.1122966, -29.5644997 ], [ -55.1137345, -29.565033 ], [ -55.1152636, -29.565559 ], [ -55.1166706, -29.566085 ], [ -55.11707, -29.5663306 ], [ -55.1178691, -29.5654921 ], [ -55.1181032, -29.5652325 ], [ -55.1188138, -29.564461 ], [ -55.1191239, -29.5641464 ], [ -55.1198431, -29.5634095 ], [ -55.1201654, -29.5630058 ], [ -55.12075, -29.5623174 ], [ -55.1211034, -29.5618911 ], [ -55.1215111, -29.5615053 ], [ -55.1216726, -29.5613712 ], [ -55.1221459, -29.5610653 ], [ -55.1226292, -29.5607239 ], [ -55.1228948, -29.560307 ], [ -55.1231396, -29.5598768 ], [ -55.12319320000001, -29.5597703 ], [ -55.123759, -29.5586456 ], [ -55.1230076, -29.5583507 ], [ -55.122308, -29.5580808 ], [ -55.1219363, -29.5579339 ], [ -55.1215993, -29.5578162 ], [ -55.1208806, -29.5575653 ], [ -55.119326, -29.5568797 ] ] ] } },
{ "type": "Feature", "properties": { "name": "Ari Lopes", "code_muni": 4318101.0, "name_muni": "São Francisco de Assis" }, "geometry": { "type": "Polygon", "coordinates": [ [ [ -55.1067245, -29.562417699999987 ], [ -55.1140525, -29.5700183 ], [ -55.1145474, -29.569357 ], [ -55.1148597, -29.5689906 ], [ -55.1152437, -29.5684728 ], [ -55.1154482, -29.56819710000001 ], [ -55.115839, -29.5677093 ], [ -55.1161205, -29.5674114 ], [ -55.11707, -29.5663306 ], [ -55.1166706, -29.566085 ], [ -55.1152636, -29.565559 ], [ -55.1137345, -29.565033 ], [ -55.1122966, -29.5644997 ], [ -55.1116032, -29.5642897 ], [ -55.1114181, -29.5641637 ], [ -55.1108895, -29.5636452 ], [ -55.1104991, -29.5632656 ], [ -55.1094599, -29.5622703 ], [ -55.1084121, -29.561231 ], [ -55.1083124, -29.5610366 ], [ -55.1067245, -29.562417699999987 ] ] ] } },
{ "type": "Feature", "properties": { "name": "Assis Brasil Martins de Bitencourt", "code_muni": 4318101.0, "name_muni": "São Francisco de Assis" }, "geometry": { "type": "Polygon", "coordinates": [ [ [ -55.1228948, -29.560307 ], [ -55.1226292, -29.5607239 ], [ -55.1221459, -29.5610653 ], [ -55.1216726, -29.5613712 ], [ -55.1215111, -29.5615053 ], [ -55.1211034, -29.5618911 ], [ -55.12075, -29.5623174 ], [ -55.1201654, -29.5630058 ], [ -55.1198431, -29.5634095 ], [ -55.1191239, -29.5641464 ], [ -55.1188138, -29.564461 ], [ -55.1181032, -29.5652325 ], [ -55.1178691, -29.5654921 ], [ -55.11707, -29.5663306 ], [ -55.1161205, -29.5674114 ], [ -55.115839, -29.5677093 ], [ -55.1154482, -29.56819710000001 ], [ -55.1152437, -29.5684728 ], [ -55.1148597, -29.5689906 ], [ -55.1145474, -29.569357 ], [ -55.1140525, -29.5700183 ], [ -55.1138619, -29.5704336 ], [ -55.1131038, -29.5720441 ], [ -55.1128337, -29.5726402 ], [ -55.1126879, -29.5730293 ], [ -55.1125666, -29.5734405 ], [ -55.1124869, -29.5737782 ], [ -55.1122914, -29.574515 ], [ -55.1121734, -29.5752253 ], [ -55.1161337, -29.5716561 ], [ -55.1181668, -29.5728272 ], [ -55.118428, -29.5724633 ], [ -55.118759, -29.572025 ], [ -55.1193071, -29.5712919 ], [ -55.1202047, -29.5701646 ], [ -55.1207854, -29.5693747 ], [ -55.1209622, -29.5691506 ], [ -55.1210347, -29.5690526 ], [ -55.1215871, -29.5683363 ], [ -55.1218023, -29.568034299999987 ], [ -55.1218901, -29.5679051 ], [ -55.1218416, -29.5677636 ], [ -55.1218551, -29.567682 ], [ -55.1219181, -29.5675292 ], [ -55.1220348, -29.5673053 ], [ -55.1224853, -29.5666554 ], [ -55.1227643, -29.5661562 ], [ -55.1230654, -29.5655532 ], [ -55.1231746, -29.565396899999989 ], [ -55.1232249, -29.5653285 ], [ -55.1234153, -29.5650766 ], [ -55.1234937, -29.5649676 ], [ -55.1238688, -29.5644237 ], [ -55.1241283, -29.5639586 ], [ -55.1243227, -29.5636051 ], [ -55.1244895, -29.5633012 ], [ -55.1246316, -29.5630609 ], [ -55.1251802, -29.5621734 ], [ -55.1255015, -29.5616442 ], [ -55.1259326, -29.5609833 ], [ -55.1245792, -29.5604471 ], [ -55.1231396, -29.5598768 ], [ -55.1228948, -29.560307 ] ] ] } },
{ "type": "Feature", "properties": { "name": "Vila Nova", "code_muni": 4318101.0, "name_muni": "São Francisco de Assis" }, "geometry": { "type": "Polygon", "coordinates": [ [ [ -55.1289766, -29.5620723 ], [ -55.1276894, -29.5617193 ], [ -55.1259326, -29.5609833 ], [ -55.1255015, -29.5616442 ], [ -55.1251802, -29.5621734 ], [ -55.1246316, -29.5630609 ], [ -55.1244895, -29.5633012 ], [ -55.1243227, -29.5636051 ], [ -55.1241283, -29.5639586 ], [ -55.1238688, -29.5644237 ], [ -55.1234937, -29.5649676 ], [ -55.1234153, -29.5650766 ], [ -55.1232249, -29.5653285 ], [ -55.1231746, -29.565396899999989 ], [ -55.1230654, -29.5655532 ], [ -55.1227643, -29.5661562 ], [ -55.1224853, -29.5666554 ], [ -55.1220348, -29.5673053 ], [ -55.1219181, -29.5675292 ], [ -55.1218551, -29.567682 ], [ -55.1218416, -29.5677636 ], [ -55.1218901, -29.5679051 ], [ -55.1218023, -29.568034299999987 ], [ -55.1215871, -29.5683363 ], [ -55.1210347, -29.5690526 ], [ -55.1209622, -29.5691506 ], [ -55.1207854, -29.5693747 ], [ -55.1202047, -29.5701646 ], [ -55.1193071, -29.5712919 ], [ -55.118759, -29.572025 ], [ -55.118428, -29.5724633 ], [ -55.1181668, -29.5728272 ], [ -55.1273775, -29.5780945 ], [ -55.1282466, -29.5778613 ], [ -55.1267982, -29.5667571 ], [ -55.1286384, -29.5632572 ], [ -55.1291409, -29.5621336 ], [ -55.1289766, -29.5620723 ] ] ] } }
]
}
