{
"type": "FeatureCollection",
"name": "bairros_cacique_doble",
"crs": { "type": "name", "properties": { "name": "urn:ogc:def:crs:OGC:1.3:CRS84" } },
"features": [
{ "type": "Feature", "properties": { "code_muni": 4303202.0, "name_muni": "Cacique Doble", "code_state": 43.0, "abbrev_state": "RS", "name_state": "Rio Grande do Sul", "code_region": 4.0, "name_region": "Sul", "year": 2022.0 }, "geometry": { "type": "Polygon", "coordinates": [ [ [ -51.690961687, -27.7052125129999 ], [ -51.683481678, -27.708101066 ], [ -51.677452646999903, -27.706509829 ], [ -51.673951186, -27.709337223 ], [ -51.679271022, -27.710283854 ], [ -51.676021062, -27.712962927 ], [ -51.669822181, -27.713429566999892 ], [ -51.665771343, -27.712304472 ], [ -51.665347321, -27.719018677 ], [ -51.66040336, -27.722872532999904 ], [ -51.658368669, -27.721408029 ], [ -51.65993659, -27.717898846 ], [ -51.658261556999896, -27.717183151 ], [ -51.655038127999894, -27.723188943 ], [ -51.655174315999901, -27.733057064999986 ], [ -51.640631805999895, -27.738614122999902 ], [ -51.634445937999892, -27.739036516999896 ], [ -51.631215942, -27.742176585 ], [ -51.631416586999897, -27.746537471999893 ], [ -51.628679377, -27.751045401999896 ], [ -51.619251339999899, -27.756153594 ], [ -51.614228344, -27.767702219999901 ], [ -51.618262467, -27.76950927 ], [ -51.619187758, -27.778611145 ], [ -51.623622549999901, -27.780016475 ], [ -51.622626494, -27.791405708 ], [ -51.610759952, -27.788606757 ], [ -51.608653280999903, -27.787014604 ], [ -51.603448324999903, -27.787887655 ], [ -51.601008598, -27.786689388 ], [ -51.607116321, -27.848517232999896 ], [ -51.605160818999892, -27.849539434999901 ], [ -51.602369094, -27.857089410999901 ], [ -51.59901357199989, -27.859077779 ], [ -51.5990717829999, -27.860870919 ], [ -51.593544746, -27.867174754 ], [ -51.590551542, -27.880123817 ], [ -51.608041079, -27.882041296999898 ], [ -51.623380526999902, -27.860804361 ], [ -51.638805495, -27.849993421 ], [ -51.640525359, -27.850529939 ], [ -51.639998262999903, -27.853545776 ], [ -51.64278336, -27.859380296 ], [ -51.643172719999903, -27.8640536519999 ], [ -51.640829336, -27.869465014999889 ], [ -51.648411857, -27.870692111 ], [ -51.664154526999901, -27.868921956999898 ], [ -51.6713798769999, -27.870855208 ], [ -51.673712744999889, -27.879885323999904 ], [ -51.679770865, -27.877960625 ], [ -51.685285246, -27.897810814 ], [ -51.691242165999896, -27.897532747 ], [ -51.696294129, -27.902278607 ], [ -51.695181455, -27.903679709999896 ], [ -51.696191473999896, -27.904725734999893 ], [ -51.70366376, -27.900443353999897 ], [ -51.708109878, -27.900562421 ], [ -51.711376388, -27.896537947 ], [ -51.720925125, -27.896943222999898 ], [ -51.729913692, -27.889244241 ], [ -51.735214067, -27.890513874 ], [ -51.742367935999908, -27.882115504 ], [ -51.752826668999901, -27.879762496999902 ], [ -51.752961977, -27.878030173 ], [ -51.748644084, -27.87244321 ], [ -51.755775018999898, -27.861003035999893 ], [ -51.753696383, -27.858065435 ], [ -51.749240734999894, -27.856351548 ], [ -51.748964999999899, -27.8543050819999 ], [ -51.757782193, -27.848638891999894 ], [ -51.763470904, -27.84682601 ], [ -51.770053102, -27.838734067 ], [ -51.767838937, -27.836590319 ], [ -51.763328187, -27.836877233999893 ], [ -51.758717766, -27.844084311 ], [ -51.755525803, -27.844165957 ], [ -51.751343124999892, -27.83886904 ], [ -51.744137629, -27.844107551 ], [ -51.737315173999903, -27.842796273 ], [ -51.740534823, -27.836381719 ], [ -51.743181568, -27.825792304999901 ], [ -51.753756478, -27.821719868999907 ], [ -51.754261533, -27.820313746999901 ], [ -51.754713416999891, -27.816853810999891 ], [ -51.752926473999899, -27.813173472 ], [ -51.74288028, -27.811158841999909 ], [ -51.742697725, -27.806881304999898 ], [ -51.755784508, -27.802975005999901 ], [ -51.763721265, -27.802648141 ], [ -51.765678684, -27.801503839 ], [ -51.759868406, -27.791675290999901 ], [ -51.761523068, -27.784932375 ], [ -51.751924533, -27.781529955999886 ], [ -51.752380651, -27.784770256999899 ], [ -51.750622564, -27.789919853999908 ], [ -51.748876815, -27.790521709 ], [ -51.744136249, -27.796757306 ], [ -51.736500774, -27.798494707 ], [ -51.736680782, -27.802176817 ], [ -51.734623373, -27.805419507999893 ], [ -51.724085124999895, -27.807996895 ], [ -51.71501640799989, -27.807050578 ], [ -51.717253507, -27.773294630999899 ], [ -51.714506967, -27.769757484 ], [ -51.7143205899999, -27.765407011 ], [ -51.708823777, -27.763293317 ], [ -51.705073757, -27.759626124 ], [ -51.704563350999898, -27.756969934 ], [ -51.702491047, -27.75817944499989 ], [ -51.702680432, -27.753444272 ], [ -51.694127997, -27.745483012 ], [ -51.692890765, -27.742806001 ], [ -51.673339271, -27.733308553 ], [ -51.674613955, -27.729790760999901 ], [ -51.695991783999901, -27.719288849999902 ], [ -51.708960385999895, -27.703676312 ], [ -51.705431343, -27.691908428 ], [ -51.700959245, -27.689911107999897 ], [ -51.701198803999894, -27.69251586 ], [ -51.703180626999895, -27.694031411 ], [ -51.701821071, -27.696708036 ], [ -51.70095363, -27.6960264639999 ], [ -51.695277314999892, -27.700457174999904 ], [ -51.691190964, -27.701269237 ], [ -51.690961687, -27.7052125129999 ] ] ] } }
]
}
