{
"type": "FeatureCollection",
"name": "bairros_guarani_das_missoes",
"crs": { "type": "name", "properties": { "name": "urn:ogc:def:crs:OGC:1.3:CRS84" } },
"features": [
{ "type": "Feature", "properties": { "name": "Centro", "code_muni": 4309506.0, "name_muni": "Guarani das Missões" }, "geometry": { "type": "Polygon", "coordinates": [ [ [ -54.5624547, -28.1499537 ], [ -54.5624614, -28.1488109 ], [ -54.5626304, -28.1486613 ], [ -54.5627477, -28.1439785 ], [ -54.5628054, -28.1439821 ], [ -54.5639755, -28.1440093 ], [ -54.5639735, -28.1433204 ], [ -54.5639701, -28.1426718 ], [ -54.5639453, -28.1418671 ], [ -54.5644502, -28.1418275 ], [ -54.5647712, -28.14176 ], [ -54.5653052, -28.1416199 ], [ -54.5657069, -28.1416004 ], [ -54.5661253, -28.1416099 ], [ -54.5664445, -28.1416513 ], [ -54.5664016, -28.1373779 ], [ -54.5651769, -28.1385299 ], [ -54.5621191, -28.1399786 ], [ -54.5608277, -28.1397023 ], [ -54.5604389, -28.1396559 ], [ -54.5603792, -28.1398029 ], [ -54.5603599, -28.139896 ], [ -54.5603273, -28.1399395 ], [ -54.5602868, -28.1399767 ], [ -54.5601849, -28.1400193 ], [ -54.5601258, -28.1400335 ], [ -54.5598449, -28.1400051 ], [ -54.5585038, -28.1398076 ], [ -54.5583093, -28.1397556 ], [ -54.5581631, -28.1397047 ], [ -54.5576361, -28.1394824 ], [ -54.5572505, -28.139282 ], [ -54.5570561, -28.1392293 ], [ -54.5569132, -28.139237 ], [ -54.5568375, -28.1392536 ], [ -54.5567878, -28.1392837 ], [ -54.5567731, -28.1393003 ], [ -54.556766, -28.1393296 ], [ -54.5567681, -28.139364199999989 ], [ -54.5567633, -28.1395546 ], [ -54.5567577, -28.1397804 ], [ -54.5567295, -28.1406082 ], [ -54.5567349, -28.1409098 ], [ -54.5567047, -28.1416353 ], [ -54.556702, -28.1417281 ], [ -54.5566316, -28.1427404 ], [ -54.5566276, -28.1438721 ], [ -54.5565753, -28.1449387 ], [ -54.5565471, -28.1460054 ], [ -54.556535, -28.1470791 ], [ -54.5565176, -28.1480015 ], [ -54.5564935, -28.1487387 ], [ -54.5563687, -28.1488387 ], [ -54.5562279, -28.1488079 ], [ -54.5511022, -28.1487748 ], [ -54.5480794, -28.1487701 ], [ -54.5481079, -28.1519066 ], [ -54.5500556, -28.1519189 ], [ -54.5512079, -28.1518675 ], [ -54.5536046, -28.1514742 ], [ -54.5559357, -28.1511173 ], [ -54.5560447, -28.1511006 ], [ -54.5583192, -28.150738 ], [ -54.5604347, -28.1504008 ], [ -54.5624583, -28.1500215 ], [ -54.5624547, -28.1499537 ] ] ] } },
{ "type": "Feature", "properties": { "name": "Pampa", "code_muni": 4309506.0, "name_muni": "Guarani das Missões" }, "geometry": { "type": "Polygon", "coordinates": [ [ [ -54.564547, -28.1496807 ], [ -54.5655792, -28.1495777 ], [ -54.5659696, -28.149575 ], [ -54.5660555, -28.1427298 ], [ -54.5664847, -28.1427061 ], [ -54.5664445, -28.1416513 ], [ -54.5661253, -28.1416099 ], [ -54.5657069, -28.1416004 ], [ -54.5653052, -28.1416199 ], [ -54.5647712, -28.14176 ], [ -54.5644502, -28.1418275 ], [ -54.5639453, -28.1418671 ], [ -54.5639701, -28.1426718 ], [ -54.5639735, -28.1433204 ], [ -54.5639755, -28.1440093 ], [ -54.5628054, -28.1439821 ], [ -54.5627477, -28.1439785 ], [ -54.5626304, -28.1486613 ], [ -54.5624614, -28.1488109 ], [ -54.5624547, -28.1499537 ], [ -54.5624583, -28.1500215 ], [ -54.564547, -28.1496807 ] ] ] } },
{ "type": "Feature", "properties": { "name": "Santa Fé", "code_muni": 4309506.0, "name_muni": "Guarani das Missões" }, "geometry": { "type": "Polygon", "coordinates": [ [ [ -54.5559168, -28.1537411 ], [ -54.5583201, -28.1536749 ], [ -54.5583192, -28.150738 ], [ -54.5560447, -28.1511006 ], [ -54.5559357, -28.1511173 ], [ -54.5559168, -28.1537411 ] ] ] } },
{ "type": "Feature", "properties": { "name": "Santa Tereza", "code_muni": 4309506.0, "name_muni": "Guarani das Missões" }, "geometry": { "type": "Polygon", "coordinates": [ [ [ -54.5483422, -28.1430514 ], [ -54.5480794, -28.1487701 ], [ -54.5511022, -28.1487748 ], [ -54.5562279, -28.1488079 ], [ -54.5563687, -28.1488387 ], [ -54.5564935, -28.1487387 ], [ -54.5565176, -28.1480015 ], [ -54.556535, -28.1470791 ], [ -54.5565471, -28.1460054 ], [ -54.5565753, -28.1449387 ], [ -54.5566276, -28.1438721 ], [ -54.5566316, -28.1427404 ], [ -54.556702, -28.1417281 ], [ -54.5567047, -28.1416353 ], [ -54.5567349, -28.1409098 ], [ -54.5567295, -28.1406082 ], [ -54.5567577, -28.1397804 ], [ -54.5564579, -28.1397846 ], [ -54.5562883, -28.1397225 ], [ -54.556122, -28.1396492 ], [ -54.5558149, -28.1396196 ], [ -54.5554715, -28.139473 ], [ -54.5543128, -28.1394458 ], [ -54.5531357, -28.139426 ], [ -54.5520155, -28.1393925 ], [ -54.5518599, -28.1393878 ], [ -54.5512523, -28.1393774 ], [ -54.550671, -28.1393908 ], [ -54.5484603, -28.1392577 ], [ -54.5483422, -28.1430514 ] ] ] } },
{ "type": "Feature", "properties": { "name": "Vila Esperança", "code_muni": 4309506.0, "name_muni": "Guarani das Missões" }, "geometry": { "type": "Polygon", "coordinates": [ [ [ -54.5567633, -28.1395546 ], [ -54.5567681, -28.139364199999989 ], [ -54.556766, -28.1393296 ], [ -54.5567731, -28.1393003 ], [ -54.5567878, -28.1392837 ], [ -54.5568375, -28.1392536 ], [ -54.5569132, -28.139237 ], [ -54.5570561, -28.1392293 ], [ -54.5572505, -28.139282 ], [ -54.5576361, -28.1394824 ], [ -54.5581631, -28.1397047 ], [ -54.5583093, -28.1397556 ], [ -54.5585038, -28.1398076 ], [ -54.5598449, -28.1400051 ], [ -54.5601258, -28.1400335 ], [ -54.5601849, -28.1400193 ], [ -54.5602868, -28.1399767 ], [ -54.5603273, -28.1399395 ], [ -54.5603599, -28.139896 ], [ -54.5603792, -28.1398029 ], [ -54.5604389, -28.1396559 ], [ -54.5590044, -28.1394845 ], [ -54.5577414, -28.1389737 ], [ -54.5571527, -28.1384127 ], [ -54.5572666, -28.1373492 ], [ -54.5579541, -28.1370071 ], [ -54.5485997, -28.1368357 ], [ -54.5484603, -28.1392577 ], [ -54.550671, -28.1393908 ], [ -54.5512523, -28.1393774 ], [ -54.5518599, -28.1393878 ], [ -54.5520155, -28.1393925 ], [ -54.5531357, -28.139426 ], [ -54.5543128, -28.1394458 ], [ -54.5554715, -28.139473 ], [ -54.5558149, -28.1396196 ], [ -54.556122, -28.1396492 ], [ -54.5562883, -28.1397225 ], [ -54.5564579, -28.1397846 ], [ -54.5567577, -28.1397804 ], [ -54.5567633, -28.1395546 ] ] ] } },
{ "type": "Feature", "properties": { "name": "Linha Tremônia", "code_muni": 4309506.0, "name_muni": "Guarani das Missões" }, "geometry": { "type": "Polygon", "coordinates": [ [ [ -54.665645442149675, -28.18037436956384 ], [ -54.693931341135226, -28.160973462268775 ], [ -54.6937762, -28.1607944 ], [ -54.6652475, -28.17993 ], [ -54.665645442149675, -28.18037436956384 ] ] ] } },
{ "type": "Feature", "properties": { "name": "Linha Poço Preto", "code_muni": 4309506.0, "name_muni": "Guarani das Missões" }, "geometry": { "type": "Polygon", "coordinates": [ [ [ -54.6351991, -28.2000813 ], [ -54.635199096901857, -28.201243506862291 ], [ -54.665645442149675, -28.18037436956384 ], [ -54.6652475, -28.17993 ], [ -54.6351991, -28.2000813 ] ] ] } },
{ "type": "Feature", "properties": { "name": "Linha Encantado", "code_muni": 4309506.0, "name_muni": "Guarani das Missões" }, "geometry": { "type": "Polygon", "coordinates": [ [ [ -54.694886, -28.1600499 ], [ -54.695433043540753, -28.159669102673746 ], [ -54.695561832118308, -28.15052634586397 ], [ -54.694886, -28.1600499 ] ] ] } },
{ "type": "Feature", "properties": { "name": "Linha Primeira", "code_muni": 4309506.0, "name_muni": "Guarani das Missões" }, "geometry": { "type": "Polygon", "coordinates": [ [ [ -54.694886, -28.1600499 ], [ -54.6937762, -28.1607944 ], [ -54.693931341135226, -28.160973462268775 ], [ -54.695429147, -28.159945799 ], [ -54.695433043540753, -28.159669102673746 ], [ -54.694886, -28.1600499 ] ] ] } }
]
}
