{
"type": "FeatureCollection",
"name": "bairros_salto_do_jacui",
"crs": { "type": "name", "properties": { "name": "urn:ogc:def:crs:OGC:1.3:CRS84" } },
"features": [
{ "type": "Feature", "properties": { "name": "CEEE", "code_muni": 4316451.0, "name_muni": "Salto do Jacuí" }, "geometry": { "type": "Polygon", "coordinates": [ [ [ -53.2333947, -29.090526900000011 ], [ -53.2328368, -29.0880143 ], [ -53.2267428, -29.0826888 ], [ -53.2199058, -29.0820208 ], [ -53.2189992, -29.0819762 ], [ -53.2188034, -29.0832326 ], [ -53.2182294, -29.0873322 ], [ -53.2182689, -29.0873915 ], [ -53.2181533, -29.0882332 ], [ -53.2181042, -29.0889389 ], [ -53.2179769, -29.089955299999989 ], [ -53.2179638, -29.0900067 ], [ -53.2172289, -29.0898227 ], [ -53.2172121, -29.0898738 ], [ -53.2170508, -29.0905955 ], [ -53.216039, -29.0903939 ], [ -53.2159434, -29.090775900000015 ], [ -53.2164172, -29.0908955 ], [ -53.2170464, -29.0910848 ], [ -53.2183702, -29.0915278 ], [ -53.2186411, -29.0912231 ], [ -53.2189375, -29.0908961 ], [ -53.2191625, -29.0906025 ], [ -53.2191852, -29.0905744 ], [ -53.2202223, -29.0911762 ], [ -53.2211772, -29.0914012 ], [ -53.2221186, -29.0914387 ], [ -53.2227248, -29.0913075 ], [ -53.223154, -29.091124700000012 ], [ -53.2247794, -29.0902621 ], [ -53.2257181, -29.0900934 ], [ -53.2263055, -29.0900371 ], [ -53.2264316, -29.0900605 ], [ -53.2294679, -29.0920083 ], [ -53.2294935, -29.092129100000012 ], [ -53.229932, -29.0924053 ], [ -53.2333947, -29.090526900000011 ] ] ] } },
{ "type": "Feature", "properties": { "name": "Harmonia", "code_muni": 4316451.0, "name_muni": "Salto do Jacuí" }, "geometry": { "type": "Polygon", "coordinates": [ [ [ -53.1983216, -29.1002675 ], [ -53.1983247, -29.0995118 ], [ -53.1983154, -29.098668 ], [ -53.1983086, -29.0981395 ], [ -53.1982939, -29.097747 ], [ -53.1982899, -29.0976228 ], [ -53.1982939, -29.097556 ], [ -53.1983084, -29.097496399999986 ], [ -53.1983492, -29.0974015 ], [ -53.1984755, -29.097328 ], [ -53.2010765, -29.0959561 ], [ -53.2011997, -29.0958921 ], [ -53.2012518, -29.0958376 ], [ -53.2012803, -29.0957618 ], [ -53.2012779, -29.095667 ], [ -53.2012732, -29.0955225 ], [ -53.2012471, -29.0939136 ], [ -53.2012203, -29.0932192 ], [ -53.201221, -29.0931012 ], [ -53.2011629, -29.0921064 ], [ -53.2019652, -29.0919859 ], [ -53.2027363, -29.0918532 ], [ -53.2034545, -29.0917657 ], [ -53.2045205, -29.091645 ], [ -53.2048001, -29.0916071 ], [ -53.2050062, -29.0915522 ], [ -53.2051627, -29.0914807 ], [ -53.2053888, -29.0913288 ], [ -53.2055721, -29.0911833 ], [ -53.2057567, -29.0910332 ], [ -53.205994, -29.090891 ], [ -53.2061247, -29.090821 ], [ -53.2063171, -29.0907429 ], [ -53.2063956, -29.090718700000014 ], [ -53.2076937, -29.090405099999987 ], [ -53.2082682, -29.0902268 ], [ -53.2082558, -29.0901989 ], [ -53.2076108, -29.089263699999989 ], [ -53.2074718, -29.0890932 ], [ -53.207201, -29.088859 ], [ -53.2070792, -29.0887736 ], [ -53.2063497, -29.0882261 ], [ -53.2049585, -29.0871544 ], [ -53.2048615, -29.0869924 ], [ -53.2048034, -29.0867892 ], [ -53.204657, -29.0864102 ], [ -53.2042514, -29.085353399999985 ], [ -53.2039407, -29.0845411 ], [ -53.2037016, -29.0838487 ], [ -53.2035357, -29.0833879 ], [ -53.20338850000001, -29.0830133 ], [ -53.2031849, -29.0824336 ], [ -53.2030267, -29.0818965 ], [ -53.2030082, -29.0817633 ], [ -53.2025168, -29.081686699999988 ], [ -53.2022484, -29.0818128 ], [ -53.202181, -29.0820495 ], [ -53.2019253, -29.0824215 ], [ -53.2018627, -29.0827507 ], [ -53.2019042, -29.0833782 ], [ -53.201988, -29.0835988 ], [ -53.2019711, -29.0840472 ], [ -53.2019434, -29.0843629 ], [ -53.2018215, -29.0846475 ], [ -53.20163440000001, -29.08483 ], [ -53.2013037, -29.084867 ], [ -53.2011109, -29.0850775 ], [ -53.2009777, -29.0852815 ], [ -53.20068340000001, -29.0853168 ], [ -53.2004831, -29.0852104 ], [ -53.2003821, -29.0849678 ], [ -53.2003184, -29.0845828 ], [ -53.2003329, -29.084159 ], [ -53.2003116, -29.0832278 ], [ -53.2000426, -29.0824491 ], [ -53.1999246, -29.0820076 ], [ -53.199639, -29.0816805 ], [ -53.1993026, -29.081563 ], [ -53.1989277, -29.0814816 ], [ -53.1982591, -29.0816136 ], [ -53.1979043, -29.0817889 ], [ -53.1976604, -29.0823628 ], [ -53.197527, -29.0825346 ], [ -53.1968799, -29.083005 ], [ -53.1967395, -29.0832722 ], [ -53.1963073, -29.0835151 ], [ -53.1962077, -29.08416 ], [ -53.1960695, -29.0843304 ], [ -53.1959917, -29.0844263 ], [ -53.1955786, -29.084425899999989 ], [ -53.1952811, -29.0842446 ], [ -53.1949217, -29.0840669 ], [ -53.1947962, -29.0840578 ], [ -53.1946532, -29.0840884 ], [ -53.1943969, -29.0842294 ], [ -53.1941065, -29.0845614 ], [ -53.1939374, -29.084917899999986 ], [ -53.1931599, -29.0854437 ], [ -53.18784, -29.0851453 ], [ -53.1783343, -29.0888206 ], [ -53.1782725, -29.0899598 ], [ -53.178357, -29.0901602 ], [ -53.1785998, -29.0904766 ], [ -53.1786829, -29.090742599999984 ], [ -53.1786896, -29.0910438 ], [ -53.1787178, -29.0911891 ], [ -53.1782484, -29.0925216 ], [ -53.1771385, -29.0956961 ], [ -53.1770387, -29.0961146 ], [ -53.1769851, -29.0965247 ], [ -53.1769717, -29.0968646 ], [ -53.1769958, -29.0973403 ], [ -53.1770617, -29.0977904 ], [ -53.1983216, -29.1002675 ] ] ] } },
{ "type": "Feature", "properties": { "name": "Menino Deus", "code_muni": 4316451.0, "name_muni": "Salto do Jacuí" }, "geometry": { "type": "Polygon", "coordinates": [ [ [ -53.2012725, -29.099827 ], [ -53.20622920000001, -29.0963958 ], [ -53.2112289, -29.1012331 ], [ -53.20992, -29.1023956 ], [ -53.2090187, -29.1039517 ], [ -53.2107353, -29.1053953 ], [ -53.2121529, -29.103868 ], [ -53.2121529, -29.1038175 ], [ -53.2121723, -29.1037754 ], [ -53.2123742, -29.103575599999985 ], [ -53.2124922, -29.1034426 ], [ -53.2126099, -29.1033145 ], [ -53.2127475, -29.1031771 ], [ -53.2129925, -29.1029224 ], [ -53.2118654, -29.1018948 ], [ -53.2120241, -29.1017605 ], [ -53.2122722, -29.1015062 ], [ -53.2123835, -29.1014124 ], [ -53.2125056, -29.1013304 ], [ -53.2123367, -29.1012557 ], [ -53.2121274, -29.1011498 ], [ -53.2120401, -29.1010992 ], [ -53.2117838, -29.100957 ], [ -53.2116746, -29.1008787 ], [ -53.2115872, -29.100791399999984 ], [ -53.2115402, -29.1007385 ], [ -53.2115074, -29.1006702 ], [ -53.2114531, -29.1005747 ], [ -53.2114112, -29.1004719 ], [ -53.2113576, -29.1003466 ], [ -53.2113321, -29.1002728 ], [ -53.2113187, -29.1002436 ], [ -53.2112671, -29.1001557 ], [ -53.211237, -29.100112 ], [ -53.2111645, -29.1000027 ], [ -53.2111081, -29.0998996 ], [ -53.2110304, -29.0997555 ], [ -53.2108936, -29.0994508 ], [ -53.210856, -29.0993618 ], [ -53.2107849, -29.099188300000012 ], [ -53.210675, -29.0989258 ], [ -53.2106227, -29.0987911 ], [ -53.2106106, -29.0986938 ], [ -53.2106213, -29.098552 ], [ -53.210628, -29.0984934 ], [ -53.210641, -29.0984165 ], [ -53.2106708, -29.0983165 ], [ -53.2107286, -29.0981946 ], [ -53.2107952, -29.0980944 ], [ -53.2108622, -29.0980117 ], [ -53.210766, -29.0978589 ], [ -53.2107162, -29.0977286 ], [ -53.210683, -29.0975959 ], [ -53.2106379, -29.0975325 ], [ -53.2105891, -29.0974704 ], [ -53.2105068, -29.0974084 ], [ -53.2102921, -29.0972642 ], [ -53.2098913, -29.0970166 ], [ -53.2097182, -29.0969254 ], [ -53.2096128, -29.0968728 ], [ -53.2094264, -29.09682 ], [ -53.2092394, -29.0967745 ], [ -53.2091247, -29.0967275 ], [ -53.2090244, -29.0966765 ], [ -53.208929, -29.0966123 ], [ -53.2088712, -29.0965411 ], [ -53.2088255, -29.096474 ], [ -53.2087789, -29.0963507 ], [ -53.2087377, -29.09618140000001 ], [ -53.2084666, -29.0950735 ], [ -53.2083151, -29.0945944 ], [ -53.2080033, -29.0935336 ], [ -53.2088421, -29.0934546 ], [ -53.2093955, -29.0934107 ], [ -53.2096076, -29.0933939 ], [ -53.2113289, -29.0932687 ], [ -53.211455, -29.0932595 ], [ -53.2125265, -29.0931777 ], [ -53.2130154, -29.0931329 ], [ -53.2135374, -29.0931509 ], [ -53.2137398, -29.0931603 ], [ -53.213962, -29.0931966 ], [ -53.2143246, -29.0933422 ], [ -53.2145387, -29.0934332 ], [ -53.214772, -29.0935247 ], [ -53.2149249, -29.093663 ], [ -53.2149947, -29.0937497 ], [ -53.2149518, -29.0938833 ], [ -53.2147265, -29.093988800000012 ], [ -53.2147908, -29.094188 ], [ -53.2150295, -29.0942747 ], [ -53.215043, -29.0944247 ], [ -53.2150671, -29.0945466 ], [ -53.21541040000001, -29.0946919 ], [ -53.2154667, -29.094699 ], [ -53.2157376, -29.0948325 ], [ -53.2158503, -29.0948583 ], [ -53.2160515, -29.0949638 ], [ -53.2162193, -29.095032 ], [ -53.2162726, -29.0949874 ], [ -53.2164247, -29.094858 ], [ -53.2165633, -29.0946662 ], [ -53.2166645, -29.0944828 ], [ -53.2167435, -29.0943111 ], [ -53.2168237, -29.0941157 ], [ -53.2168732, -29.0940001 ], [ -53.2171324, -29.0933759 ], [ -53.2173371, -29.0928872 ], [ -53.2174165, -29.0927075 ], [ -53.2174864, -29.0925767 ], [ -53.2175267, -29.0925028 ], [ -53.217587, -29.0924255 ], [ -53.2176313, -29.0923704 ], [ -53.2179156, -29.092061 ], [ -53.2182974, -29.0916026 ], [ -53.2183702, -29.0915278 ], [ -53.2170464, -29.0910848 ], [ -53.2164172, -29.0908955 ], [ -53.2159434, -29.090775900000015 ], [ -53.2157914, -29.0914148 ], [ -53.2147094, -29.0910591 ], [ -53.2147284, -29.0908593 ], [ -53.2147727, -29.0905133 ], [ -53.2135252, -29.090432400000012 ], [ -53.2124211, -29.0904425 ], [ -53.2124173, -29.0897536 ], [ -53.2122856, -29.0897793 ], [ -53.2121314, -29.0898039 ], [ -53.2118927, -29.0898637 ], [ -53.2114015, -29.0900079 ], [ -53.2106176, -29.0901932 ], [ -53.2104469, -29.089592 ], [ -53.21043, -29.0895538 ], [ -53.210382, -29.0894801 ], [ -53.2102042, -29.0895754 ], [ -53.2082682, -29.0902268 ], [ -53.2076937, -29.090405099999987 ], [ -53.2063956, -29.090718700000014 ], [ -53.2063171, -29.0907429 ], [ -53.2061247, -29.090821 ], [ -53.205994, -29.090891 ], [ -53.2057567, -29.0910332 ], [ -53.2055721, -29.0911833 ], [ -53.2053888, -29.0913288 ], [ -53.2051627, -29.0914807 ], [ -53.2050062, -29.0915522 ], [ -53.2048001, -29.0916071 ], [ -53.2045205, -29.091645 ], [ -53.2034545, -29.0917657 ], [ -53.2027363, -29.0918532 ], [ -53.2019652, -29.0919859 ], [ -53.2011629, -29.0921064 ], [ -53.201221, -29.0931012 ], [ -53.2012203, -29.0932192 ], [ -53.2012471, -29.0939136 ], [ -53.2012732, -29.0955225 ], [ -53.2012779, -29.095667 ], [ -53.2012803, -29.0957618 ], [ -53.2012518, -29.0958376 ], [ -53.2011997, -29.0958921 ], [ -53.2010765, -29.0959561 ], [ -53.1984755, -29.097328 ], [ -53.1983492, -29.0974015 ], [ -53.1983084, -29.097496399999986 ], [ -53.1982939, -29.097556 ], [ -53.1982899, -29.0976228 ], [ -53.1982939, -29.097747 ], [ -53.1983086, -29.0981395 ], [ -53.1983154, -29.098668 ], [ -53.1983247, -29.0995118 ], [ -53.1983216, -29.1002675 ], [ -53.2012725, -29.099827 ] ] ] } },
{ "type": "Feature", "properties": { "name": "Portão", "code_muni": 4316451.0, "name_muni": "Salto do Jacuí" }, "geometry": { "type": "Polygon", "coordinates": [ [ [ -53.229932, -29.0924053 ], [ -53.2294935, -29.092129100000012 ], [ -53.2294679, -29.0920083 ], [ -53.2264316, -29.0900605 ], [ -53.2263055, -29.0900371 ], [ -53.2257181, -29.0900934 ], [ -53.2247794, -29.0902621 ], [ -53.223154, -29.091124700000012 ], [ -53.2227248, -29.0913075 ], [ -53.2221186, -29.0914387 ], [ -53.2211772, -29.0914012 ], [ -53.2202223, -29.0911762 ], [ -53.2191852, -29.0905744 ], [ -53.2191625, -29.0906025 ], [ -53.2189375, -29.0908961 ], [ -53.2186411, -29.0912231 ], [ -53.2183702, -29.0915278 ], [ -53.2182974, -29.0916026 ], [ -53.2179156, -29.092061 ], [ -53.2176313, -29.0923704 ], [ -53.217587, -29.0924255 ], [ -53.2175267, -29.0925028 ], [ -53.2174864, -29.0925767 ], [ -53.2174165, -29.0927075 ], [ -53.2173371, -29.0928872 ], [ -53.2171324, -29.0933759 ], [ -53.2168732, -29.0940001 ], [ -53.2168237, -29.0941157 ], [ -53.2167435, -29.0943111 ], [ -53.2166645, -29.0944828 ], [ -53.2165633, -29.0946662 ], [ -53.2164247, -29.094858 ], [ -53.2162726, -29.0949874 ], [ -53.2162193, -29.095032 ], [ -53.21632240000001, -29.095074 ], [ -53.2165504, -29.095238 ], [ -53.2166228, -29.0953177 ], [ -53.2167515, -29.0953833 ], [ -53.2169902, -29.0954724 ], [ -53.2171646, -29.0955779 ], [ -53.2172853, -29.095688 ], [ -53.2176179, -29.0957419 ], [ -53.2178405, -29.0958286 ], [ -53.2178861, -29.0958568 ], [ -53.21798, -29.095985699999989 ], [ -53.2181034, -29.0960935 ], [ -53.2184735, -29.0963021 ], [ -53.2185325, -29.096454400000013 ], [ -53.2186586, -29.096588 ], [ -53.218908, -29.0967286 ], [ -53.2191923, -29.0968693 ], [ -53.2192996, -29.0968997 ], [ -53.2209921, -29.0956271 ], [ -53.2237387, -29.0981395 ], [ -53.2265282, -29.101439400000011 ], [ -53.2330513, -29.099452 ], [ -53.2353259, -29.0966395 ], [ -53.2374287, -29.091802 ], [ -53.2333947, -29.090526900000011 ], [ -53.229932, -29.0924053 ] ] ] } },
{ "type": "Feature", "properties": { "name": "Cruzeiro", "code_muni": 4316451.0, "name_muni": "Salto do Jacuí" }, "geometry": { "type": "Polygon", "coordinates": [ [ [ -53.2192996, -29.0968997 ], [ -53.2191923, -29.0968693 ], [ -53.218908, -29.0967286 ], [ -53.2186586, -29.096588 ], [ -53.2185325, -29.096454400000013 ], [ -53.2184735, -29.0963021 ], [ -53.2181034, -29.0960935 ], [ -53.21798, -29.095985699999989 ], [ -53.2178861, -29.0958568 ], [ -53.2178405, -29.0958286 ], [ -53.2176179, -29.0957419 ], [ -53.2172853, -29.095688 ], [ -53.2171646, -29.0955779 ], [ -53.2169902, -29.0954724 ], [ -53.2167515, -29.0953833 ], [ -53.2166228, -29.0953177 ], [ -53.2165504, -29.095238 ], [ -53.21632240000001, -29.095074 ], [ -53.2162193, -29.095032 ], [ -53.2160515, -29.0949638 ], [ -53.2158503, -29.0948583 ], [ -53.2157376, -29.0948325 ], [ -53.2154667, -29.094699 ], [ -53.21541040000001, -29.0946919 ], [ -53.2150671, -29.0945466 ], [ -53.215043, -29.0944247 ], [ -53.2150295, -29.0942747 ], [ -53.2147908, -29.094188 ], [ -53.2147265, -29.093988800000012 ], [ -53.2149518, -29.0938833 ], [ -53.2149947, -29.0937497 ], [ -53.2149249, -29.093663 ], [ -53.214772, -29.0935247 ], [ -53.2145387, -29.0934332 ], [ -53.2143246, -29.0933422 ], [ -53.213962, -29.0931966 ], [ -53.2137398, -29.0931603 ], [ -53.2135374, -29.0931509 ], [ -53.2130154, -29.0931329 ], [ -53.2125265, -29.0931777 ], [ -53.211455, -29.0932595 ], [ -53.2113289, -29.0932687 ], [ -53.2096076, -29.0933939 ], [ -53.2093955, -29.0934107 ], [ -53.2088421, -29.0934546 ], [ -53.2080033, -29.0935336 ], [ -53.2083151, -29.0945944 ], [ -53.2084666, -29.0950735 ], [ -53.2087377, -29.09618140000001 ], [ -53.2087789, -29.0963507 ], [ -53.2088255, -29.096474 ], [ -53.2088712, -29.0965411 ], [ -53.208929, -29.0966123 ], [ -53.2090244, -29.0966765 ], [ -53.2091247, -29.0967275 ], [ -53.2092394, -29.0967745 ], [ -53.2094264, -29.09682 ], [ -53.2096128, -29.0968728 ], [ -53.2097182, -29.0969254 ], [ -53.2098913, -29.0970166 ], [ -53.2102921, -29.0972642 ], [ -53.2105068, -29.0974084 ], [ -53.2105891, -29.0974704 ], [ -53.2106379, -29.0975325 ], [ -53.210683, -29.0975959 ], [ -53.2107162, -29.0977286 ], [ -53.210766, -29.0978589 ], [ -53.2108622, -29.0980117 ], [ -53.2107952, -29.0980944 ], [ -53.2107286, -29.0981946 ], [ -53.2106708, -29.0983165 ], [ -53.210641, -29.0984165 ], [ -53.210628, -29.0984934 ], [ -53.2106213, -29.098552 ], [ -53.2106106, -29.0986938 ], [ -53.2106227, -29.0987911 ], [ -53.210675, -29.0989258 ], [ -53.2107849, -29.099188300000012 ], [ -53.210856, -29.0993618 ], [ -53.2108936, -29.0994508 ], [ -53.2110304, -29.0997555 ], [ -53.2111081, -29.0998996 ], [ -53.2111645, -29.1000027 ], [ -53.211237, -29.100112 ], [ -53.2112671, -29.1001557 ], [ -53.2113187, -29.1002436 ], [ -53.2113321, -29.1002728 ], [ -53.2113576, -29.1003466 ], [ -53.2114112, -29.1004719 ], [ -53.2114531, -29.1005747 ], [ -53.2115074, -29.1006702 ], [ -53.2115402, -29.1007385 ], [ -53.2115872, -29.100791399999984 ], [ -53.2116746, -29.1008787 ], [ -53.2117838, -29.100957 ], [ -53.2120401, -29.1010992 ], [ -53.2121274, -29.1011498 ], [ -53.2123367, -29.1012557 ], [ -53.2125056, -29.1013304 ], [ -53.2123835, -29.1014124 ], [ -53.2122722, -29.1015062 ], [ -53.2120241, -29.1017605 ], [ -53.2118654, -29.1018948 ], [ -53.2129925, -29.1029224 ], [ -53.2130961, -29.1028158 ], [ -53.2132376, -29.1026855 ], [ -53.2134021, -29.1025385 ], [ -53.2134893, -29.1024419 ], [ -53.2135389, -29.1023604 ], [ -53.2135691, -29.1022678 ], [ -53.2135865, -29.1021893 ], [ -53.2154507, -29.1006117 ], [ -53.215762, -29.1003119 ], [ -53.2162151, -29.0998692 ], [ -53.2164109, -29.0996864 ], [ -53.2165812, -29.0995141 ], [ -53.2166965, -29.0994016 ], [ -53.2168025, -29.0993172 ], [ -53.2168883, -29.0991754 ], [ -53.2192996, -29.0968997 ] ] ] } },
{ "type": "Feature", "properties": { "name": "Nossa Senhora dos Navegantes", "code_muni": 4316451.0, "name_muni": "Salto do Jacuí" }, "geometry": { "type": "Polygon", "coordinates": [ [ [ -53.2108391, -29.0892229 ], [ -53.2108712, -29.0890471 ], [ -53.2111911, -29.0884413 ], [ -53.211355, -29.0884619 ], [ -53.2125168, -29.0885326 ], [ -53.2126041, -29.0874865 ], [ -53.2137711, -29.08757970000001 ], [ -53.2137388, -29.087882899999986 ], [ -53.2136585, -29.088606 ], [ -53.2146139, -29.088677100000012 ], [ -53.2155651, -29.0887496 ], [ -53.2165149, -29.088819399999988 ], [ -53.2181042, -29.0889389 ], [ -53.2181533, -29.0882332 ], [ -53.2182689, -29.0873915 ], [ -53.2182294, -29.0873322 ], [ -53.2188034, -29.0832326 ], [ -53.2189992, -29.0819762 ], [ -53.2199058, -29.0820208 ], [ -53.2267428, -29.0826888 ], [ -53.226104, -29.0801871 ], [ -53.2253158, -29.0771005 ], [ -53.2129991, -29.0768942 ], [ -53.213042, -29.0739218 ], [ -53.2102062, -29.0741171 ], [ -53.2101089, -29.0742202 ], [ -53.209902, -29.0744508 ], [ -53.2097917, -29.0746604 ], [ -53.2097367, -29.0749168 ], [ -53.2097758, -29.0751622 ], [ -53.2098817, -29.0753804 ], [ -53.2099785, -29.0755119 ], [ -53.210082, -29.0755809 ], [ -53.210547, -29.0756954 ], [ -53.2105332, -29.0757796 ], [ -53.2105168, -29.0758686 ], [ -53.2101797, -29.0757967 ], [ -53.2100251, -29.075897800000011 ], [ -53.2099376, -29.0760354 ], [ -53.2098187, -29.0760286 ], [ -53.2095415, -29.0760192 ], [ -53.2093993, -29.0761041 ], [ -53.2092592, -29.0761862 ], [ -53.209102, -29.076344 ], [ -53.2089868, -29.0765374 ], [ -53.2088826, -29.0768576 ], [ -53.2086997, -29.0771739 ], [ -53.2086733, -29.0774267 ], [ -53.2087392, -29.0776113 ], [ -53.2087345, -29.077819399999985 ], [ -53.2086772, -29.0778476 ], [ -53.2084778, -29.0777359 ], [ -53.2083042, -29.077653900000012 ], [ -53.2081309, -29.0776235 ], [ -53.2079556, -29.0776117 ], [ -53.2077479, -29.0776776 ], [ -53.2075799, -29.0777868 ], [ -53.2073369, -29.0780279 ], [ -53.2071856, -29.0782709 ], [ -53.2069358, -29.0785289 ], [ -53.2067587, -29.078716699999987 ], [ -53.2065407, -29.0789094 ], [ -53.206353, -29.0791463 ], [ -53.2063292, -29.0794645 ], [ -53.206268, -29.0795874 ], [ -53.206136, -29.0796074 ], [ -53.2060212, -29.0796061 ], [ -53.2058848, -29.0795795 ], [ -53.2054495, -29.0797198 ], [ -53.2053487, -29.0798156 ], [ -53.2052231, -29.079928 ], [ -53.2050344, -29.0799738 ], [ -53.2048516, -29.0800653 ], [ -53.2047082, -29.0801931 ], [ -53.2045923, -29.0802564 ], [ -53.2043575, -29.0803343 ], [ -53.2041962, -29.0804602 ], [ -53.2041449, -29.080768 ], [ -53.2043166, -29.0812774 ], [ -53.2042216, -29.081580499999987 ], [ -53.2043166, -29.0818758 ], [ -53.2044609, -29.0821131 ], [ -53.20501320000001, -29.0822417 ], [ -53.205717, -29.0831025 ], [ -53.2050011, -29.0830015 ], [ -53.204047, -29.0826269 ], [ -53.2039529, -29.0823973 ], [ -53.2034571, -29.0819407 ], [ -53.2032192, -29.0818092 ], [ -53.2030082, -29.0817633 ], [ -53.2030267, -29.0818965 ], [ -53.2031849, -29.0824336 ], [ -53.20338850000001, -29.0830133 ], [ -53.2035357, -29.0833879 ], [ -53.2037016, -29.0838487 ], [ -53.2039407, -29.0845411 ], [ -53.2042514, -29.085353399999985 ], [ -53.204657, -29.0864102 ], [ -53.2048034, -29.0867892 ], [ -53.2048615, -29.0869924 ], [ -53.2049585, -29.0871544 ], [ -53.2063497, -29.0882261 ], [ -53.2070792, -29.0887736 ], [ -53.207201, -29.088859 ], [ -53.2074718, -29.0890932 ], [ -53.2076108, -29.089263699999989 ], [ -53.2082558, -29.0901989 ], [ -53.2082682, -29.0902268 ], [ -53.2102042, -29.0895754 ], [ -53.210382, -29.0894801 ], [ -53.2108517, -29.0892598 ], [ -53.2108391, -29.0892229 ] ] ] } },
{ "type": "Feature", "properties": { "name": "Centro", "code_muni": 4316451.0, "name_muni": "Salto do Jacuí" }, "geometry": { "type": "Polygon", "coordinates": [ [ [ -53.210382, -29.0894801 ], [ -53.21043, -29.0895538 ], [ -53.2104469, -29.089592 ], [ -53.2106176, -29.0901932 ], [ -53.2114015, -29.0900079 ], [ -53.2118927, -29.0898637 ], [ -53.2121314, -29.0898039 ], [ -53.2122856, -29.0897793 ], [ -53.2124173, -29.0897536 ], [ -53.2124211, -29.0904425 ], [ -53.2135252, -29.090432400000012 ], [ -53.2147727, -29.0905133 ], [ -53.2147284, -29.0908593 ], [ -53.2147094, -29.0910591 ], [ -53.2157914, -29.0914148 ], [ -53.2159434, -29.090775900000015 ], [ -53.216039, -29.0903939 ], [ -53.2170508, -29.0905955 ], [ -53.2172121, -29.0898738 ], [ -53.2172289, -29.0898227 ], [ -53.2179638, -29.0900067 ], [ -53.2179769, -29.089955299999989 ], [ -53.2181042, -29.0889389 ], [ -53.2165149, -29.088819399999988 ], [ -53.2155651, -29.0887496 ], [ -53.2146139, -29.088677100000012 ], [ -53.2136585, -29.088606 ], [ -53.2137388, -29.087882899999986 ], [ -53.2137711, -29.08757970000001 ], [ -53.2126041, -29.0874865 ], [ -53.2125168, -29.0885326 ], [ -53.211355, -29.0884619 ], [ -53.2111911, -29.0884413 ], [ -53.2108712, -29.0890471 ], [ -53.2108391, -29.0892229 ], [ -53.2108517, -29.0892598 ], [ -53.210382, -29.0894801 ] ] ] } }
]
}
