{
"type": "FeatureCollection",
"name": "bairros_bossoroca",
"crs": { "type": "name", "properties": { "name": "urn:ogc:def:crs:OGC:1.3:CRS84" } },
"features": [
{ "type": "Feature", "properties": { "name": "Bonfim", "code_muni": 4302501.0, "name_muni": "Bossoroca" }, "geometry": { "type": "Polygon", "coordinates": [ [ [ -54.9111338, -28.7342237 ], [ -54.913981, -28.7351703 ], [ -54.9155366, -28.7342296 ], [ -54.9155742, -28.7341355 ], [ -54.9156547, -28.7340179 ], [ -54.9157566, -28.7338391 ], [ -54.9157941, -28.7337404 ], [ -54.9158692, -28.7336463 ], [ -54.9159014, -28.7335522 ], [ -54.9159122, -28.7334487 ], [ -54.915939, -28.733354599999988 ], [ -54.9159926, -28.7332653 ], [ -54.9160409, -28.733063 ], [ -54.9150382, -28.7321413 ], [ -54.9153402, -28.7310892 ], [ -54.9154867, -28.730559899999989 ], [ -54.9162277, -28.7313858 ], [ -54.91690590000001, -28.7320995 ], [ -54.9176793, -28.7328527 ], [ -54.9175751, -28.7291117 ], [ -54.9229932, -28.7259975 ], [ -54.9228752, -28.7249626 ], [ -54.9157622, -28.7269398 ], [ -54.9155882, -28.7277745 ], [ -54.915119, -28.7286606 ], [ -54.914714, -28.7289896 ], [ -54.9126873, -28.7307522 ], [ -54.9109411, -28.7322283 ], [ -54.9107498, -28.7323523 ], [ -54.9111797, -28.7331034 ], [ -54.9110623, -28.7340369 ], [ -54.9110972, -28.7341059 ], [ -54.9111338, -28.7342237 ] ] ] } },
{ "type": "Feature", "properties": { "name": "Inhame", "code_muni": 4302501.0, "name_muni": "Bossoroca" }, "geometry": { "type": "Polygon", "coordinates": [ [ [ -54.9111378, -28.723302 ], [ -54.9113739, -28.7243887 ], [ -54.9122449, -28.7251655 ], [ -54.9114694, -28.7257906 ], [ -54.9125409, -28.7268623 ], [ -54.913563, -28.7278846 ], [ -54.9144556, -28.7287421 ], [ -54.914714, -28.7289896 ], [ -54.915119, -28.7286606 ], [ -54.9155882, -28.7277745 ], [ -54.9157622, -28.7269398 ], [ -54.9157724, -28.7261141 ], [ -54.9153835, -28.7249563 ], [ -54.9143498, -28.7232959 ], [ -54.9141144, -28.722595900000012 ], [ -54.9143498, -28.721833 ], [ -54.9149127, -28.7211688 ], [ -54.91654, -28.720208400000015 ], [ -54.9200402, -28.7179017 ], [ -54.9202584, -28.7177188 ], [ -54.9193025, -28.7167722 ], [ -54.9196565, -28.7158971 ], [ -54.918357, -28.7156772 ], [ -54.9180287, -28.7165144 ], [ -54.9175029, -28.717874 ], [ -54.9173708, -28.7182571 ], [ -54.9170877, -28.7192975 ], [ -54.9169152, -28.7195529 ], [ -54.9165107, -28.7198816 ], [ -54.9146206, -28.7211324 ], [ -54.9142351, -28.7215415 ], [ -54.9140435, -28.7219385 ], [ -54.9139249, -28.7224753 ], [ -54.9120739, -28.7230762 ], [ -54.9111378, -28.723302 ] ] ] } },
{ "type": "Feature", "properties": { "name": "Gaúcha", "code_muni": 4302501.0, "name_muni": "Bossoroca" }, "geometry": { "type": "Polygon", "coordinates": [ [ [ -54.8935984, -28.7282806 ], [ -54.8943969, -28.7269626 ], [ -54.8947768, -28.7263651 ], [ -54.8961979, -28.7270748 ], [ -54.8956963, -28.7249023 ], [ -54.8961052, -28.7242458 ], [ -54.8962768, -28.7237643 ], [ -54.8963358, -28.723381 ], [ -54.8961968, -28.7234734 ], [ -54.8955201, -28.723829200000011 ], [ -54.8945744, -28.7230943 ], [ -54.8935586, -28.7220883 ], [ -54.892665, -28.7230029 ], [ -54.8930883, -28.7234459 ], [ -54.8936259, -28.7239642 ], [ -54.8941456, -28.724472399999986 ], [ -54.8930705, -28.724965 ], [ -54.8916783, -28.7255951 ], [ -54.8905255, -28.7261255 ], [ -54.891142, -28.7269783 ], [ -54.8902595, -28.7274699 ], [ -54.8907128, -28.7282602 ], [ -54.8901549, -28.7285472 ], [ -54.8933406, -28.7341307 ], [ -54.8922351, -28.7343908 ], [ -54.8906227, -28.7347288 ], [ -54.8894175, -28.735152 ], [ -54.888579, -28.7355279 ], [ -54.8884545, -28.7356137 ], [ -54.8876595, -28.7361615 ], [ -54.886338, -28.73706 ], [ -54.8857263, -28.7373555 ], [ -54.8861124, -28.73765 ], [ -54.8857281, -28.7382981 ], [ -54.8852391, -28.7392388 ], [ -54.8851213, -28.7395242 ], [ -54.8851557, -28.7396547 ], [ -54.8853405, -28.7397794 ], [ -54.8855157, -28.7398273 ], [ -54.8857501, -28.7399523 ], [ -54.8864795, -28.7385808 ], [ -54.88712120000001, -28.7374137 ], [ -54.8875724, -28.7368621 ], [ -54.8880612, -28.7364708 ], [ -54.8884824, -28.7362774 ], [ -54.888761, -28.7361693 ], [ -54.8888691, -28.7362917 ], [ -54.8890455, -28.7363184 ], [ -54.8892724, -28.7362925 ], [ -54.8907292, -28.7358104 ], [ -54.8908496, -28.7357706 ], [ -54.8919154, -28.7356486 ], [ -54.8927981, -28.7354664 ], [ -54.8934482, -28.7352407 ], [ -54.8942966, -28.7347743 ], [ -54.8950021, -28.7341975 ], [ -54.8966855, -28.7326946 ], [ -54.8971793, -28.732361900000011 ], [ -54.8977151, -28.732111099999987 ], [ -54.897209, -28.7311136 ], [ -54.8972538, -28.7310372 ], [ -54.8976444, -28.7303203 ], [ -54.8966807, -28.7295821 ], [ -54.8960732, -28.7303206 ], [ -54.8935187, -28.7283403 ], [ -54.8935984, -28.7282806 ] ] ] } },
{ "type": "Feature", "properties": { "name": "Francisco Wesz Filho", "code_muni": 4302501.0, "name_muni": "Bossoroca" }, "geometry": { "type": "Polygon", "coordinates": [ [ [ -54.8977151, -28.732111099999987 ], [ -54.8983194, -28.7319473 ], [ -54.8989467, -28.7318687 ], [ -54.8994996, -28.7318554 ], [ -54.9000639, -28.731903799999987 ], [ -54.9011583, -28.7320359 ], [ -54.9027274, -28.7321814 ], [ -54.9044146, -28.7323836 ], [ -54.9060292, -28.7325647 ], [ -54.9060598, -28.732253 ], [ -54.9060959, -28.732028 ], [ -54.905072, -28.731035 ], [ -54.9040455, -28.7300389 ], [ -54.9035311, -28.7295162 ], [ -54.8987353, -28.729695 ], [ -54.8976444, -28.7303203 ], [ -54.8972538, -28.7310372 ], [ -54.897209, -28.7311136 ], [ -54.8977151, -28.732111099999987 ] ] ] } }
]
}
