{
"type": "FeatureCollection",
"name": "bairros_mostardas",
"crs": { "type": "name", "properties": { "name": "urn:ogc:def:crs:OGC:1.3:CRS84" } },
"features": [
{ "type": "Feature", "properties": { "code_muni": 4312500.0, "name_muni": "Mostardas", "code_state": 43.0, "abbrev_state": "RS", "name_state": "Rio Grande do Sul", "code_region": 4.0, "name_region": "Sul", "year": 2022.0 }, "geometry": { "type": "Polygon", "coordinates": [ [ [ -50.773201255999894, -31.117051392 ], [ -50.842132405, -31.190025528 ], [ -50.962253027, -31.183249406 ], [ -50.985618088, -31.206240521 ], [ -51.025953533999903, -31.181996549 ], [ -51.028367867, -31.179174299 ], [ -51.034301157999899, -31.17937726 ], [ -51.035393395, -31.178565105 ], [ -51.033662372, -31.1749223539999 ], [ -51.052402519999902, -31.164020762999904 ], [ -51.087447655999902, -31.160060756999904 ], [ -51.084635643, -31.156390008 ], [ -51.117195829, -31.150763976 ], [ -51.11956728, -31.142672407 ], [ -51.125247903999892, -31.133903822 ], [ -51.122717644, -31.129038127999895 ], [ -51.127215169, -31.123154152 ], [ -51.13383507399989, -31.123400295 ], [ -51.178994155999895, -31.134196338 ], [ -51.17902931, -31.128127583999987 ], [ -51.180839659999897, -31.125393893 ], [ -51.180130256, -31.103288783 ], [ -51.176891150999893, -31.079768041 ], [ -51.167779717, -31.062690871 ], [ -51.165500118, -31.061948534999903 ], [ -51.164360068, -31.069528874999911 ], [ -51.165941952, -31.066873745999906 ], [ -51.166433444999903, -31.068325025 ], [ -51.162691219999893, -31.075424512 ], [ -51.14912155, -31.087502925 ], [ -51.12465258, -31.098174458 ], [ -51.110760628, -31.100020243 ], [ -51.103615485, -31.0993804669999 ], [ -51.091205187, -31.093535980999889 ], [ -51.084824861999891, -31.0875806499999 ], [ -51.04852983699989, -31.06159242 ], [ -51.0375550219999, -31.058380891999896 ], [ -51.023703992, -31.051536331 ], [ -51.000273739, -31.047823106 ], [ -50.9949516779999, -31.048103178 ], [ -50.981047847, -31.039816216 ], [ -50.981768756999891, -31.041244602999896 ], [ -50.980558237, -31.041051357 ], [ -50.975396568, -31.034085626 ], [ -50.972393535, -31.032925523999893 ], [ -50.96446872300001, -31.016059863999899 ], [ -50.96015815, -31.013605073999901 ], [ -50.956985582, -31.009565323999901 ], [ -50.954296719, -31.000602871 ], [ -50.955709137, -30.999008293 ], [ -50.955979059, -30.993120661 ], [ -50.952513500999899, -30.982084788999899 ], [ -50.952165136, -30.954869904999985 ], [ -50.966454343, -30.908855543999891 ], [ -50.968087548, -30.8978204279999 ], [ -50.96676355999989, -30.896107458 ], [ -50.957703873, -30.899927664 ], [ -50.9415288289999, -30.90397863 ], [ -50.919638944, -30.906387316 ], [ -50.904586064999904, -30.90403724 ], [ -50.895123156, -30.899730287 ], [ -50.88394568, -30.892627838 ], [ -50.8834346209999, -30.890640703 ], [ -50.882341926, -30.891587851999905 ], [ -50.878072383999893, -30.885033221 ], [ -50.856929857, -30.865411891999909 ], [ -50.846340418999908, -30.858915606 ], [ -50.835792509, -30.856034742 ], [ -50.831461017, -30.853024854999891 ], [ -50.82806476199989, -30.852174759 ], [ -50.825600332, -30.853485334 ], [ -50.823403, -30.852182269000011 ], [ -50.822752315999892, -30.845465907999891 ], [ -50.819360517, -30.840563377 ], [ -50.816488867, -30.84119592 ], [ -50.790483474, -30.829396528 ], [ -50.775242262999903, -30.827328453999904 ], [ -50.765177375999897, -30.823142708 ], [ -50.762109046, -30.823159873 ], [ -50.759350751999889, -30.8216678319999 ], [ -50.759017269, -30.820048883 ], [ -50.753776734, -30.818937213 ], [ -50.749680086, -30.814259654999901 ], [ -50.744463805999899, -30.812286602 ], [ -50.74474056199989, -30.810777577 ], [ -50.741035118, -30.80784818 ], [ -50.74083007, -30.805377101 ], [ -50.7207657, -30.779748255 ], [ -50.7174725, -30.774090583 ], [ -50.717021374999895, -30.766669731 ], [ -50.715942111999901, -30.765433814999902 ], [ -50.715050253, -30.767200298 ], [ -50.713858581, -30.766228301 ], [ -50.71161605799989, -30.758919815 ], [ -50.709717596, -30.758854599 ], [ -50.701987433999903, -30.746327210999901 ], [ -50.700260742, -30.733212116999898 ], [ -50.698924373, -30.734169573 ], [ -50.697574261999897, -30.725735348999894 ], [ -50.690115939999899, -30.706924307999902 ], [ -50.683275285, -30.663600451999987 ], [ -50.679541506, -30.609172518 ], [ -50.686429991, -30.500800317 ], [ -50.334255798999891, -30.500802007999912 ], [ -50.348288825999902, -30.524645786999905 ], [ -50.37397999, -30.562891595999901 ], [ -50.453604792, -30.665151244999894 ], [ -50.477779542, -30.698944793999907 ], [ -50.506592698, -30.74352562 ], [ -50.558312448, -30.818197233 ], [ -50.599038779999901, -30.870270502 ], [ -50.667853944999891, -30.962904253 ], [ -50.703718828, -31.014751843999903 ], [ -50.757071069999903, -31.096507333 ], [ -50.773201255999894, -31.117051392 ] ] ] } }
]
}
