{
"type": "FeatureCollection",
"name": "bairros_xangrila",
"crs": { "type": "name", "properties": { "name": "urn:ogc:def:crs:OGC:1.3:CRS84" } },
"features": [
{ "type": "Feature", "properties": { "code_muni": 4323804.0, "name_muni": "Xangri-Lá", "code_state": 43.0, "abbrev_state": "RS", "name_state": "Rio Grande do Sul", "code_region": 4.0, "name_region": "Sul", "year": 2022.0 }, "geometry": { "type": "Polygon", "coordinates": [ [ [ -50.054953761889003, -29.761651076660193 ], [ -50.017611448, -29.772471186 ], [ -50.063659635, -29.860048102999901 ], [ -50.09602869, -29.852487004999897 ], [ -50.096463789, -29.845837431999893 ], [ -50.0994348629999, -29.847847054999892 ], [ -50.098225639, -29.850820917 ], [ -50.098740231, -29.855554943 ], [ -50.099782715999893, -29.855881245 ], [ -50.099898251, -29.850519748 ], [ -50.103536334, -29.8465127539999 ], [ -50.103773404, -29.844383321999899 ], [ -50.100874919, -29.842291237 ], [ -50.09876865, -29.836766000999901 ], [ -50.099825559999893, -29.83498694 ], [ -50.102525608, -29.8360793169999 ], [ -50.1129787, -29.832459158999903 ], [ -50.109735206, -29.830137276999892 ], [ -50.112387899999895, -29.828765442 ], [ -50.112123106, -29.826943811 ], [ -50.106040999999898, -29.823722939999985 ], [ -50.110870089999892, -29.819638975 ], [ -50.108235389999898, -29.819619175999907 ], [ -50.108268635999899, -29.81555995 ], [ -50.114004383999891, -29.810741994999898 ], [ -50.106655095, -29.801547766999892 ], [ -50.107604027, -29.796585566 ], [ -50.113255822, -29.793158159 ], [ -50.110309754999896, -29.7888510249999 ], [ -50.1104732636854, -29.786168743803792 ], [ -50.114846495461194, -29.788768897677894 ], [ -50.115943857699094, -29.7882337308722 ], [ -50.112565279380391, -29.78450918613359 ], [ -50.108965066323904, -29.783557778479103 ], [ -50.107035222388305, -29.785752502954892 ], [ -50.103791787202297, -29.785509245316007 ], [ -50.10396205458499, -29.788125506101597 ], [ -50.098887504529301, -29.7862860931859 ], [ -50.098805009647009, -29.790158893470096 ], [ -50.096638961589392, -29.7874766950004 ], [ -50.093383758126599, -29.789158921721391 ], [ -50.091267875875793, -29.787085401707504 ], [ -50.086035024829791, -29.785560361181105 ], [ -50.084284795570696, -29.7825593311393 ], [ -50.086946927717598, -29.779794637787305 ], [ -50.085111973984901, -29.771977690293802 ], [ -50.087298088365102, -29.769565272384995 ], [ -50.082187533314602, -29.767830723318401 ], [ -50.078068643314502, -29.769246120720691 ], [ -50.062608268927995, -29.767932529470407 ], [ -50.054953761889003, -29.761651076660193 ] ] ] } }
]
}
