{
"type": "FeatureCollection",
"name": "bairros_arvorezinha",
"crs": { "type": "name", "properties": { "name": "urn:ogc:def:crs:OGC:1.3:CRS84" } },
"features": [
{ "type": "Feature", "properties": { "code_muni": 4301404.0, "name_muni": "Arvorezinha", "code_state": 43.0, "abbrev_state": "RS", "name_state": "Rio Grande do Sul", "code_region": 4.0, "name_region": "Sul", "year": 2022.0 }, "geometry": { "type": "Polygon", "coordinates": [ [ [ -52.052541307, -28.828233823999899 ], [ -52.045847179, -28.841425876999899 ], [ -52.04342458, -28.844318578999896 ], [ -52.039087693999896, -28.845933294 ], [ -52.036065381, -28.845980438 ], [ -52.031166874, -28.843719973 ], [ -52.030758149, -28.842076934 ], [ -52.035570805, -28.835593355 ], [ -52.03451427200001, -28.834064463999901 ], [ -52.0277384299999, -28.838026289 ], [ -52.017383106, -28.841074736999904 ], [ -52.01695928, -28.841914553 ], [ -52.026309501, -28.850961266999896 ], [ -52.032746425, -28.854925625 ], [ -52.023423265, -28.863202886 ], [ -52.015020663, -28.865631145 ], [ -52.006696865, -28.865628349 ], [ -52.009688285, -28.877020984999898 ], [ -52.010037349, -28.873141964999895 ], [ -52.101528967211095, -28.879110998072399 ], [ -52.100961936404296, -28.8850880327597 ], [ -52.102771197495493, -28.886086763413601 ], [ -52.104310514439398, -28.883484430899394 ], [ -52.108592414303203, -28.885299161139592 ], [ -52.109212128591892, -28.8825428281807 ], [ -52.112696938653706, -28.883528431026502 ], [ -52.119613758624801, -28.882991629476596 ], [ -52.124747060946795, -28.884673259332299 ], [ -52.126245265272594, -28.886824865544703 ], [ -52.128240671033993, -28.886015263207099 ], [ -52.131657280898899, -28.888294469787894 ], [ -52.133695311781196, -28.8881715100569 ], [ -52.134926490338103, -28.890608876470385 ], [ -52.138449800511097, -28.888735571061503 ], [ -52.13984240453189, -28.890856377184999 ], [ -52.149059331144201, -28.892318831407607 ], [ -52.154177645922296, -28.888719071013892 ], [ -52.158677483914794, -28.889708248869894 ], [ -52.162577545175502, -28.887064941237803 ], [ -52.162639627338997, -28.885314440923704 ], [ -52.165988364887795, -28.886059510737095 ], [ -52.168739762967796, -28.891103052897108 ], [ -52.181966201156797, -28.900074678801101 ], [ -52.181697525381097, -28.905254559381895 ], [ -52.187013153228492, -28.907235699477003 ], [ -52.185710061966503, -28.908718503758497 ], [ -52.186437714067495, -28.912130713610701 ], [ -52.189183321994904, -28.913032716214992 ], [ -52.191091965005292, -28.916667126708504 ], [ -52.196653581063501, -28.919830735842893 ], [ -52.198760224646897, -28.924512899362284 ], [ -52.203615776165989, -28.926615555432992 ], [ -52.205943382886602, -28.926043553781501 ], [ -52.206026027978098, -28.927305936364707 ], [ -52.204150377709595, -28.927955359301396 ], [ -52.2045186037723, -28.9295987640463 ], [ -52.20811341415169, -28.930641567057197 ], [ -52.211206073081591, -28.934202277338294 ], [ -52.213283979081098, -28.933000523868397 ], [ -52.211673024429501, -28.937003985427594 ], [ -52.212572827027792, -28.939732543305904 ], [ -52.214308632039597, -28.939564792821592 ], [ -52.2151484844645, -28.941027247044104 ], [ -52.215086746786795, -28.943322953672997 ], [ -52.217250590533993, -28.944008255651294 ], [ -52.216480588310695, -28.947238964979402 ], [ -52.219431896832099, -28.948964869962598 ], [ -52.22116426433459, -28.948385718290801 ], [ -52.22397779745809, -28.952658130626691 ], [ -52.224729512128, -28.9513925769722 ], [ -52.2259422656293, -28.951706627878792 ], [ -52.228047671708296, -28.956502641726495 ], [ -52.230146477768201, -28.957919445817186 ], [ -52.230395078485991, -28.960473653191997 ], [ -52.227854071149295, -28.962108257911694 ], [ -52.227114069298999, -28.967170077970298 ], [ -52.229624526261198, -28.968725877018905 ], [ -52.228290510708092, -28.970056559510205 ], [ -52.231597044999894, -28.974018257999898 ], [ -52.239120727999897, -28.975532189 ], [ -52.239878034, -28.973774157 ], [ -52.2347516459999, -28.972069849 ], [ -52.234368236, -28.968724673999908 ], [ -52.236899748, -28.9684737339999 ], [ -52.240957, -28.9718038409999 ], [ -52.244546524, -28.969849152999906 ], [ -52.242383656999891, -28.966440175999903 ], [ -52.243942580999892, -28.962773999 ], [ -52.246213855, -28.962734161999901 ], [ -52.248769812, -28.96486012 ], [ -52.255220516999891, -28.959908852 ], [ -52.25840026, -28.959898621 ], [ -52.2598294699999, -28.961125812 ], [ -52.261214091999896, -28.96023447399989 ], [ -52.2574286, -28.951997897 ], [ -52.262830547, -28.947605424999896 ], [ -52.266570374, -28.947390240999901 ], [ -52.267651551, -28.945423317999904 ], [ -52.267213978, -28.939601449 ], [ -52.265529855, -28.938170806999885 ], [ -52.26235770999989, -28.938503345 ], [ -52.260750574, -28.932590592999905 ], [ -52.27046013599989, -28.932651598999893 ], [ -52.27318508, -28.931191913 ], [ -52.271854472, -28.928239656 ], [ -52.266044845, -28.925660064999892 ], [ -52.26558821, -28.922284224 ], [ -52.270836628, -28.917754978999891 ], [ -52.2803366589999, -28.91246712 ], [ -52.2811350489999, -28.905219577 ], [ -52.277832422, -28.901657688999904 ], [ -52.27819053, -28.899966449 ], [ -52.289230516, -28.895811567999896 ], [ -52.281017173, -28.893955316999904 ], [ -52.278723673999892, -28.886919969 ], [ -52.281406467999901, -28.886381408 ], [ -52.286180378, -28.888738762999896 ], [ -52.28963048899989, -28.886612289 ], [ -52.293176053, -28.888294421999909 ], [ -52.289693647999989, -28.878879040999898 ], [ -52.299422981, -28.875593308 ], [ -52.301278049, -28.873354377999902 ], [ -52.29958672, -28.868875183999901 ], [ -52.298328523999899, -28.86764156 ], [ -52.296063688999894, -28.868609716 ], [ -52.29493110100001, -28.867031266 ], [ -52.302470846999903, -28.862346468999892 ], [ -52.309301703, -28.863420909 ], [ -52.303289908999893, -28.857546189999901 ], [ -52.306049012999893, -28.853762521 ], [ -52.30107735, -28.853992261 ], [ -52.298278215, -28.851599947 ], [ -52.296615347999889, -28.852003822 ], [ -52.296419594, -28.847098758 ], [ -52.298364831, -28.84659471 ], [ -52.304490834, -28.85137779 ], [ -52.307530676999903, -28.849231211999903 ], [ -52.312682566, -28.848869076 ], [ -52.311127137, -28.845230609999899 ], [ -52.306671877, -28.844924902999896 ], [ -52.3050368, -28.842738566 ], [ -52.306149607999899, -28.841167648 ], [ -52.311173856, -28.841323535 ], [ -52.312139841, -28.838683606 ], [ -52.309581936, -28.82917379 ], [ -52.317124952, -28.829037125999903 ], [ -52.322084811, -28.8256332 ], [ -52.322009513, -28.822469675000011 ], [ -52.323447116, -28.821828137999901 ], [ -52.325996172, -28.823123546 ], [ -52.32954505, -28.821614175 ], [ -52.324133461, -28.817999334 ], [ -52.327316063, -28.813626864 ], [ -52.321170815999892, -28.8097286 ], [ -52.309965102, -28.811224228999901 ], [ -52.306238063, -28.809754998 ], [ -52.3039750189999, -28.807091710999895 ], [ -52.298474251, -28.806099717999899 ], [ -52.290007580999891, -28.809068743999898 ], [ -52.2835031, -28.813245660999893 ], [ -52.27861774, -28.813200605 ], [ -52.270375277, -28.807676721999901 ], [ -52.264888997, -28.810030115 ], [ -52.26151082, -28.815416022 ], [ -52.258567829, -28.816425357999901 ], [ -52.254896115, -28.823404793 ], [ -52.2441070799999, -28.828801548999895 ], [ -52.239345143, -28.824362871999902 ], [ -52.236260863, -28.816400991 ], [ -52.23092938699989, -28.812006915 ], [ -52.220818893999905, -28.809127402999902 ], [ -52.210387163, -28.810568096999909 ], [ -52.209207409, -28.812514356 ], [ -52.206523628, -28.8134384869999 ], [ -52.205279586999893, -28.819127240999894 ], [ -52.201981976999896, -28.822011320999898 ], [ -52.197686567999902, -28.819873986999902 ], [ -52.190534426999903, -28.822730618 ], [ -52.18620176, -28.821808342999905 ], [ -52.182264395999894, -28.823910297999898 ], [ -52.177798241999895, -28.820828341 ], [ -52.171221677999903, -28.823606907999899 ], [ -52.17047522, -28.819826387 ], [ -52.165696749999903, -28.813781216999903 ], [ -52.1560997139999, -28.811503721 ], [ -52.148559115999902, -28.812365687999893 ], [ -52.146081379, -28.809723993 ], [ -52.142890135, -28.813409030999903 ], [ -52.1406447479999, -28.808306159 ], [ -52.135781318999904, -28.807213530999903 ], [ -52.136809104, -28.8035755 ], [ -52.131818451, -28.804804541 ], [ -52.129602613, -28.808123003999984 ], [ -52.124993329999896, -28.810522448 ], [ -52.12134077799989, -28.806356761 ], [ -52.112732001, -28.81089374 ], [ -52.108178457, -28.811200743 ], [ -52.103346068999898, -28.807613374 ], [ -52.098498199999909, -28.809408717999897 ], [ -52.093116935999902, -28.809316602 ], [ -52.083192477999901, -28.806223888 ], [ -52.080171522999898, -28.80849638 ], [ -52.079076398, -28.806201483999903 ], [ -52.072449257999899, -28.806456128 ], [ -52.069257942, -28.805286668 ], [ -52.06333763, -28.809590049 ], [ -52.065577418, -28.81318679 ], [ -52.061254914, -28.814889975 ], [ -52.059339511, -28.817288789 ], [ -52.060838986, -28.818702089999892 ], [ -52.066785968, -28.819257305999901 ], [ -52.065861873, -28.823185732999907 ], [ -52.061624572, -28.826738292999902 ], [ -52.052541307, -28.828233823999899 ] ] ] } }
]
}
