{
"type": "FeatureCollection",
"name": "bairros_nonoai",
"crs": { "type": "name", "properties": { "name": "urn:ogc:def:crs:OGC:1.3:CRS84" } },
"features": [
{ "type": "Feature", "properties": { "code_muni": 4312708.0, "name_muni": "Nonoai", "code_state": 43.0, "abbrev_state": "RS", "name_state": "Rio Grande do Sul", "code_region": 4.0, "name_region": "Sul", "year": 2022.0 }, "geometry": { "type": "Polygon", "coordinates": [ [ [ -52.813484323, -27.4501418 ], [ -52.834232577, -27.44204775 ], [ -52.838605609999895, -27.438071581 ], [ -52.847303795999899, -27.443590281999896 ], [ -52.849825419, -27.443509151999908 ], [ -52.859737347, -27.4392025349999 ], [ -52.865234245, -27.43343182 ], [ -52.86835181, -27.4332081169999 ], [ -52.871173376999892, -27.430064679999898 ], [ -52.872116780999896, -27.425810557 ], [ -52.88575986, -27.417901118 ], [ -52.883482519, -27.414267207 ], [ -52.880093127, -27.415629641999899 ], [ -52.878589401999896, -27.412118265999901 ], [ -52.880186161, -27.410014193999896 ], [ -52.884289021, -27.410290706999898 ], [ -52.888612522, -27.392051778999896 ], [ -52.891767200999894, -27.386563512 ], [ -52.89018477, -27.384352812 ], [ -52.903874058, -27.384428512999893 ], [ -52.923594092, -27.399007046999895 ], [ -52.92840824, -27.399623419 ], [ -52.931587893, -27.39692991 ], [ -52.935932054, -27.396254758999891 ], [ -52.938385075, -27.402280432999895 ], [ -52.940927256, -27.401526436 ], [ -52.943229163, -27.403917994 ], [ -52.944952451999903, -27.402934835999893 ], [ -52.946877190999892, -27.403950995999899 ], [ -52.949912731, -27.400958198999906 ], [ -52.95068049799989, -27.401889794999899 ], [ -52.952686222999894, -27.400861741 ], [ -52.954778432999895, -27.403211835 ], [ -52.959314757, -27.403730316999898 ], [ -52.963082699, -27.407490536999894 ], [ -52.968185816, -27.407867667999895 ], [ -52.969061817, -27.411213781 ], [ -52.973456386, -27.4114654689999 ], [ -53.016657717, -27.4616883539999 ], [ -53.019377001, -27.459535538 ], [ -53.01768121, -27.456020619999901 ], [ -53.029377404999892, -27.458158184 ], [ -53.038183897999893, -27.451639212 ], [ -53.041920932, -27.451387931999896 ], [ -53.045512142999897, -27.448802031 ], [ -53.045243732, -27.446491935 ], [ -53.041926912, -27.445193222999901 ], [ -53.046522077, -27.441346359 ], [ -53.051065385999891, -27.443759622999895 ], [ -53.054400379999898, -27.443171387999904 ], [ -53.055074635, -27.445359696 ], [ -53.056877651, -27.445427857 ], [ -53.058934178999898, -27.441250249999896 ], [ -53.056085859999889, -27.438623137 ], [ -53.056483161, -27.437459062 ], [ -53.059164943, -27.437417633999907 ], [ -53.064474806, -27.442502144999892 ], [ -53.067149129, -27.438069573 ], [ -53.068495621, -27.440092673 ], [ -53.074711706999892, -27.443196734999987 ], [ -53.079635005999897, -27.4385424069999 ], [ -53.07691206, -27.43465502 ], [ -53.078330337, -27.433045546 ], [ -53.087101213, -27.441318486999894 ], [ -53.08854359, -27.440461647999904 ], [ -53.088335313999892, -27.436757839999895 ], [ -53.093151989, -27.435637829 ], [ -53.091604311, -27.440596233 ], [ -53.092466649999892, -27.444733828 ], [ -53.088018663, -27.446237923999892 ], [ -53.091243854, -27.452243541 ], [ -53.0994309229999, -27.451110979 ], [ -53.098251494999893, -27.453959368 ], [ -53.099352128, -27.457074265999903 ], [ -53.104623306999898, -27.447122551999893 ], [ -53.109005468, -27.444974107 ], [ -53.112633021, -27.447862303 ], [ -53.113440324999907, -27.445196403 ], [ -53.116302423, -27.4437455099999 ], [ -53.116905448, -27.441185673999897 ], [ -53.124020193, -27.447487676 ], [ -53.132227507, -27.444065765999895 ], [ -53.07577026, -27.373258688 ], [ -53.075085714, -27.378871478 ], [ -53.070687506999896, -27.377975075999892 ], [ -53.0667194769999, -27.380155821999896 ], [ -53.066658665, -27.382221865 ], [ -53.070517606, -27.387416447 ], [ -53.068886539999895, -27.391554711 ], [ -53.065822055999902, -27.392512406 ], [ -53.062867614, -27.388566349 ], [ -53.062564854, -27.383584992999904 ], [ -53.059473187, -27.383712182 ], [ -53.056483410999896, -27.381242949 ], [ -53.054280428, -27.382441737 ], [ -53.055548114, -27.384831694999903 ], [ -53.053341987999893, -27.390664147999896 ], [ -53.048293418, -27.3935426739999 ], [ -53.044029979999898, -27.393744537 ], [ -53.04345791, -27.388316442 ], [ -53.048289274, -27.385287714 ], [ -53.046786626, -27.382845555 ], [ -53.0409327, -27.381478057 ], [ -53.039838125999893, -27.384603577999901 ], [ -53.036151789, -27.383581044 ], [ -53.032967326999902, -27.385771636 ], [ -53.031545279999897, -27.383051044 ], [ -53.034448238, -27.378694641 ], [ -53.033153071999898, -27.376269115999897 ], [ -53.033696144, -27.372056077 ], [ -53.029476465, -27.371968151999987 ], [ -53.026653447999891, -27.374928137 ], [ -53.02141176, -27.373791497 ], [ -53.020292514999902, -27.377484278999905 ], [ -53.013377132, -27.374131084999899 ], [ -53.012359272, -27.379923429 ], [ -53.016578285, -27.382863368 ], [ -53.012579210999895, -27.385894169 ], [ -53.01162657, -27.383422149 ], [ -53.008366099999897, -27.384332071999896 ], [ -53.007929525999891, -27.382839155999903 ], [ -53.005353118999892, -27.383337875999896 ], [ -53.001713036999895, -27.381143494 ], [ -53.000227020999894, -27.3818060249999 ], [ -52.999258706, -27.385041295999898 ], [ -52.992866342999896, -27.387248523 ], [ -52.991564045, -27.384026692 ], [ -52.978660716, -27.38248276 ], [ -52.971441044, -27.378136291 ], [ -52.966664588, -27.367879025 ], [ -52.955974286, -27.371599349 ], [ -52.955937707, -27.345972819999901 ], [ -52.95010821599989, -27.336327054 ], [ -52.949588446, -27.328322762 ], [ -52.944987093999899, -27.323365690999907 ], [ -52.946526456999898, -27.320644931999897 ], [ -52.946230791999902, -27.317503364999894 ], [ -52.9510207, -27.308305441 ], [ -52.933755278, -27.312780217999897 ], [ -52.927643891999892, -27.317256444999892 ], [ -52.922926103, -27.31780581 ], [ -52.907936884, -27.311607599 ], [ -52.902692451, -27.313223273999892 ], [ -52.894752562, -27.318776114999903 ], [ -52.888363324, -27.320641158999909 ], [ -52.87716494499989, -27.327141556999898 ], [ -52.872330405999897, -27.327776691999905 ], [ -52.873017725, -27.336251728 ], [ -52.869227356999893, -27.340405313 ], [ -52.863342121999892, -27.338667454999893 ], [ -52.847591495999893, -27.340182513999906 ], [ -52.842554089, -27.337413078999898 ], [ -52.834963168999892, -27.335810589999898 ], [ -52.827262136999906, -27.327311047 ], [ -52.822682318, -27.317863787 ], [ -52.823857243, -27.316060863 ], [ -52.822224676, -27.313647779999897 ], [ -52.820444374, -27.312122243 ], [ -52.817239081, -27.313116620999892 ], [ -52.817799175999902, -27.311272451 ], [ -52.815391675999898, -27.310876698999895 ], [ -52.81207008, -27.306188807 ], [ -52.812348809999897, -27.304396408999899 ], [ -52.814631848, -27.304321033 ], [ -52.814866504999898, -27.302964088 ], [ -52.809811168, -27.297558514999903 ], [ -52.804888325, -27.295295865999901 ], [ -52.802987275, -27.296788331 ], [ -52.800324088000011, -27.294838105999901 ], [ -52.800367224999896, -27.29270443 ], [ -52.797934799, -27.293915249 ], [ -52.793613563, -27.290796543999903 ], [ -52.7946930539999, -27.289427969 ], [ -52.792912684, -27.286295922 ], [ -52.795259633999898, -27.285600592 ], [ -52.795195706999898, -27.283193487999895 ], [ -52.796494192, -27.282490004999897 ], [ -52.794329706, -27.282664472 ], [ -52.796004138999898, -27.28147426 ], [ -52.794835076, -27.279826439 ], [ -52.797050352, -27.277463306999902 ], [ -52.794638882, -27.275356332999898 ], [ -52.795985996999903, -27.273974705999901 ], [ -52.794148569, -27.272965402999901 ], [ -52.794612522, -27.269093821999906 ], [ -52.800044945, -27.265538326999899 ], [ -52.794393745, -27.26110075 ], [ -52.793414836999901, -27.258510699999896 ], [ -52.789559975, -27.256475115999898 ], [ -52.792561750999894, -27.2525027309999 ], [ -52.788949267, -27.250671349999902 ], [ -52.792339979, -27.249100768999895 ], [ -52.792139908, -27.246121291999899 ], [ -52.794086643, -27.245286249999896 ], [ -52.793706645, -27.244006152999894 ], [ -52.788301439999891, -27.241774005 ], [ -52.786567196, -27.239590646999908 ], [ -52.783412654999893, -27.239333184 ], [ -52.782089962, -27.236734656999893 ], [ -52.783661643999899, -27.235748510999898 ], [ -52.784832450999893, -27.230300360999902 ], [ -52.798747302, -27.223217781 ], [ -52.797827207999902, -27.220339505 ], [ -52.799332854999903, -27.216626593999898 ], [ -52.796065601, -27.214328243 ], [ -52.801427551, -27.208137119999904 ], [ -52.800968133, -27.203429508999896 ], [ -52.774762599, -27.20752205 ], [ -52.763559701, -27.21123327 ], [ -52.759294442999902, -27.214202203 ], [ -52.757727228, -27.217205357999898 ], [ -52.757593217, -27.222235979999894 ], [ -52.763116996, -27.238397936999892 ], [ -52.763567215, -27.247006198 ], [ -52.760828151999895, -27.253700425 ], [ -52.754880223, -27.25903476 ], [ -52.748782186, -27.25997261 ], [ -52.741425008, -27.256987889 ], [ -52.734015074999903, -27.242653359 ], [ -52.727012499, -27.23600134 ], [ -52.720615371, -27.235024616 ], [ -52.713781151, -27.237688616999904 ], [ -52.706064309999903, -27.257193183 ], [ -52.707260095, -27.272193200999894 ], [ -52.706086582999895, -27.275748198 ], [ -52.700077388, -27.282070183 ], [ -52.694958584999902, -27.284331973 ], [ -52.691521683, -27.284419683 ], [ -52.689786834, -27.290238029 ], [ -52.684682051, -27.294729706999895 ], [ -52.684901913, -27.295960736 ], [ -52.697193524999904, -27.299918755 ], [ -52.704923683999901, -27.298378995 ], [ -52.706600255, -27.299461958999899 ], [ -52.708909552, -27.308290892999896 ], [ -52.7134866009999, -27.313174053999902 ], [ -52.716212664, -27.31957404 ], [ -52.720466593, -27.320541534 ], [ -52.729016080999891, -27.317957661 ], [ -52.737955751999891, -27.318179413999896 ], [ -52.741631592, -27.320243693999899 ], [ -52.742804335, -27.322695951 ], [ -52.73656833, -27.331205527 ], [ -52.728520739, -27.336225268 ], [ -52.73410912299989, -27.355886241999901 ], [ -52.725416895, -27.363802662999895 ], [ -52.71406029, -27.369216223 ], [ -52.713179509, -27.371601957999896 ], [ -52.713516145, -27.374311111999905 ], [ -52.715537218, -27.375429647 ], [ -52.731452888, -27.374059277999894 ], [ -52.734583216, -27.375792173 ], [ -52.734226259, -27.379886379 ], [ -52.730909362, -27.383861661 ], [ -52.71603823200001, -27.38877321099989 ], [ -52.713212499999898, -27.393822708999892 ], [ -52.713890565, -27.396913976 ], [ -52.719384654999892, -27.398090599999897 ], [ -52.724803536, -27.396314844 ], [ -52.728970218, -27.392882546 ], [ -52.73275353, -27.393433081999898 ], [ -52.732677226, -27.400921633999896 ], [ -52.726007986, -27.407143722999905 ], [ -52.722563097, -27.415288093999902 ], [ -52.724466274999898, -27.418376991999903 ], [ -52.730581635, -27.421573753 ], [ -52.732078666999897, -27.424918721 ], [ -52.72601057899989, -27.432174914 ], [ -52.726745357, -27.436216992 ], [ -52.734619887, -27.4370129079999 ], [ -52.741984808, -27.432180966 ], [ -52.745015861999903, -27.432741555 ], [ -52.746246888, -27.43515099 ], [ -52.744683843, -27.446975305 ], [ -52.756265535999894, -27.446341957999898 ], [ -52.757352630999897, -27.447817922 ], [ -52.756846657, -27.451171832999901 ], [ -52.753506818999895, -27.4580501259999 ], [ -52.756343253999901, -27.459613020999896 ], [ -52.766427564, -27.4604615289999 ], [ -52.770065518, -27.458014123999902 ], [ -52.773079531999898, -27.453700543 ], [ -52.774781202, -27.453784995 ], [ -52.775219673, -27.456309932 ], [ -52.772039117, -27.459036716 ], [ -52.769094246999892, -27.466398005 ], [ -52.775533389, -27.466738989 ], [ -52.781159069999894, -27.462760374 ], [ -52.783166514999898, -27.465508346 ], [ -52.776307679999896, -27.479534347 ], [ -52.77646559, -27.481818597 ], [ -52.779581704999899, -27.482510951999892 ], [ -52.785286707, -27.480218421 ], [ -52.793678761, -27.473209062 ], [ -52.793993493, -27.478686169999897 ], [ -52.789932136999894, -27.482732128 ], [ -52.790296016, -27.485547819 ], [ -52.795548395, -27.488019696 ], [ -52.798200541999989, -27.491020272999901 ], [ -52.799974404, -27.49616707 ], [ -52.805432079999896, -27.497405982 ], [ -52.812558966, -27.503245434999897 ], [ -52.818482009, -27.502748138999891 ], [ -52.8224754949999, -27.496969218999904 ], [ -52.821767313, -27.486775082 ], [ -52.82477799, -27.482853755999901 ], [ -52.820564106999903, -27.476611025999894 ], [ -52.8143808519999, -27.472624380999896 ], [ -52.811129761, -27.466507776 ], [ -52.809350176, -27.456140191 ], [ -52.813484323, -27.4501418 ] ] ] } }
]
}
