{
"type": "FeatureCollection",
"name": "bairros_garruchos",
"crs": { "type": "name", "properties": { "name": "urn:ogc:def:crs:OGC:1.3:CRS84" } },
"features": [
{ "type": "Feature", "properties": { "code_muni": 4308656.0, "name_muni": "Garruchos", "code_state": 43.0, "abbrev_state": "RS", "name_state": "Rio Grande do Sul", "code_region": 4.0, "name_region": "Sul", "year": 2022.0 }, "geometry": { "type": "Polygon", "coordinates": [ [ [ -55.65301678, -28.182101573 ], [ -55.634230876999894, -28.177838153 ], [ -55.628059132, -28.172347752999897 ], [ -55.6223320409999, -28.161028198999905 ], [ -55.619682417, -28.153549133999906 ], [ -55.622364666999893, -28.138449576 ], [ -55.620784914, -28.130981388999903 ], [ -55.610730305999901, -28.117455428 ], [ -55.604331999999893, -28.115424251 ], [ -55.596271171, -28.115754631999895 ], [ -55.586944566999897, -28.119540008999895 ], [ -55.583406221, -28.125173091 ], [ -55.589096519, -28.141775686999896 ], [ -55.585339959, -28.147951513999903 ], [ -55.571228716, -28.15698636 ], [ -55.564164236, -28.163505422 ], [ -55.557546167999902, -28.164563831 ], [ -55.549333068, -28.155962885 ], [ -55.547595416, -28.136483215999899 ], [ -55.539829654999892, -28.122605054 ], [ -55.536342167, -28.118580479999896 ], [ -55.530581259, -28.115458729 ], [ -55.513242861, -28.114647761999908 ], [ -55.506705575, -28.102777197 ], [ -55.499406119, -28.081062797999895 ], [ -55.495518604, -28.076862094 ], [ -55.487878453, -28.076455062 ], [ -55.454537618, -28.095595993 ], [ -55.452460117, -28.097952608999908 ], [ -55.447922542, -28.097382194 ], [ -55.442556990999897, -28.094311131 ], [ -55.438435270999904, -28.086334936999908 ], [ -55.433658097, -28.087448682999895 ], [ -55.428718838999892, -28.092052684999899 ], [ -55.428343841, -28.098468513999897 ], [ -55.423381721999903, -28.100777380999901 ], [ -55.418143964, -28.090807265 ], [ -55.414866833, -28.087817811 ], [ -55.409977923, -28.088627779 ], [ -55.408837903999903, -28.089691455 ], [ -55.41195537, -28.097905547 ], [ -55.410763537, -28.10030413 ], [ -55.406890910999891, -28.099414625 ], [ -55.403419965999895, -28.09583865 ], [ -55.3997661719999, -28.095327429 ], [ -55.398677047, -28.096718908999893 ], [ -55.402958697, -28.105829856 ], [ -55.403210776, -28.113781092999897 ], [ -55.395225905, -28.118397021 ], [ -55.394570077, -28.122774863 ], [ -55.396644432, -28.129050218 ], [ -55.395559503, -28.129929182999902 ], [ -55.3904305, -28.129961443 ], [ -55.389629543999902, -28.115847371 ], [ -55.387377852, -28.113689536 ], [ -55.376470099999899, -28.1214113529999 ], [ -55.374171007, -28.12063325 ], [ -55.3691542669999, -28.1152061189999 ], [ -55.365327292000011, -28.124039905 ], [ -55.358504029999892, -28.120538527 ], [ -55.356552173, -28.121054064 ], [ -55.357507556, -28.130555708 ], [ -55.354982273, -28.133568806 ], [ -55.360941582999899, -28.145495605999901 ], [ -55.367665493999894, -28.150098489999891 ], [ -55.366569741, -28.153526972999892 ], [ -55.368560726999902, -28.161728885999899 ], [ -55.366202278999893, -28.164839764 ], [ -55.364054353, -28.1650497269999 ], [ -55.359005583999895, -28.161731971999895 ], [ -55.354512429999893, -28.162406206 ], [ -55.358665372, -28.1729262919999 ], [ -55.35733578, -28.174972139 ], [ -55.345421494999989, -28.17428763 ], [ -55.33849563, -28.184837328999894 ], [ -55.328533635, -28.185212223 ], [ -55.323079381, -28.182450136999897 ], [ -55.323220714999891, -28.176971453 ], [ -55.298829764999901, -28.171938699 ], [ -55.303603094, -28.178438921999895 ], [ -55.316470781, -28.189185677 ], [ -55.32585613, -28.188764005999897 ], [ -55.329650748999896, -28.194994844 ], [ -55.337300574, -28.190942508 ], [ -55.340468664999896, -28.191799296999896 ], [ -55.342778188, -28.199419239 ], [ -55.340749172, -28.204806338 ], [ -55.335667567, -28.206969886 ], [ -55.328114533, -28.203130519999888 ], [ -55.316413064999892, -28.203009887 ], [ -55.315740290999898, -28.204384105 ], [ -55.318111616, -28.208941798999899 ], [ -55.321878494, -28.207931083999895 ], [ -55.326527238, -28.209292644 ], [ -55.326672445, -28.212469707 ], [ -55.332570271, -28.220301274 ], [ -55.341925573, -28.239416779999896 ], [ -55.350471131999896, -28.246568281999895 ], [ -55.351437642, -28.254120035 ], [ -55.359445545, -28.262206392999904 ], [ -55.364443066, -28.261598143 ], [ -55.370197671, -28.272452565 ], [ -55.38090543, -28.287233559999901 ], [ -55.383723474, -28.304912197 ], [ -55.400273281, -28.299818504 ], [ -55.409773592, -28.294563922 ], [ -55.413163895, -28.289580445 ], [ -55.414274658999894, -28.282990269 ], [ -55.41837529, -28.276959104 ], [ -55.429376205, -28.269948238 ], [ -55.443571634, -28.248768438 ], [ -55.448334061, -28.253163093 ], [ -55.460726791999903, -28.251686115 ], [ -55.464025544, -28.256900566 ], [ -55.478790056, -28.265833696999898 ], [ -55.486225065, -28.272270288999898 ], [ -55.487533288999892, -28.275237705999892 ], [ -55.487236192999902, -28.281146497 ], [ -55.490182309, -28.285984266 ], [ -55.488175707, -28.291822372 ], [ -55.488444079, -28.299899196 ], [ -55.490259476999903, -28.305280626 ], [ -55.494778617, -28.310034322 ], [ -55.497870845, -28.316262301999895 ], [ -55.497952188999903, -28.320537626 ], [ -55.504025382, -28.327019581999899 ], [ -55.504162733, -28.33119684 ], [ -55.507301390999899, -28.333690943 ], [ -55.509223178, -28.333496490999902 ], [ -55.511000366, -28.336345665 ], [ -55.52533342000001, -28.3433519609999 ], [ -55.520612726, -28.347848628 ], [ -55.519758212999903, -28.351735575 ], [ -55.50938232, -28.362061284999989 ], [ -55.4999836389999, -28.3661290219999 ], [ -55.503459597, -28.392324266999896 ], [ -55.502687215, -28.399781794999988 ], [ -55.50691147, -28.403193061 ], [ -55.50854653399989, -28.399888463 ], [ -55.511753444, -28.399486652999908 ], [ -55.513522001999895, -28.394459229999896 ], [ -55.51803095, -28.393921023 ], [ -55.518990247, -28.391276983 ], [ -55.52755719, -28.388238456 ], [ -55.531067355999902, -28.390861285 ], [ -55.53624511999989, -28.38959055 ], [ -55.536852489, -28.386068071999897 ], [ -55.540004126, -28.383571471 ], [ -55.539762316, -28.382230918999895 ], [ -55.541996142999892, -28.381473134 ], [ -55.544735048999897, -28.375226401 ], [ -55.548409735999897, -28.374144556 ], [ -55.549324139, -28.371351978 ], [ -55.555127512, -28.367514988 ], [ -55.555257441, -28.365091271 ], [ -55.557058732, -28.366113586 ], [ -55.56313474, -28.361843738999905 ], [ -55.561236381, -28.359485649 ], [ -55.56367405799989, -28.357296208 ], [ -55.56276937, -28.354591147999898 ], [ -55.565952283999898, -28.355717497999901 ], [ -55.566453463999892, -28.353931831999905 ], [ -55.562670942999901, -28.349611582 ], [ -55.562764645, -28.347860362999896 ], [ -55.564313221, -28.345366251 ], [ -55.5655948369999, -28.345538293999905 ], [ -55.566546095, -28.342174133999904 ], [ -55.569996874, -28.341701448 ], [ -55.570643955, -28.340204575 ], [ -55.574416927, -28.342772775 ], [ -55.583078069999893, -28.3394321019999 ], [ -55.584935329, -28.341144442 ], [ -55.583479721999893, -28.342925009999888 ], [ -55.584049825, -28.344707320999898 ], [ -55.590257204, -28.350090295 ], [ -55.594025486, -28.359457321 ], [ -55.596223257, -28.360300367 ], [ -55.59396577, -28.362697559 ], [ -55.598739694999892, -28.364024641999908 ], [ -55.598035035999899, -28.365405935999899 ], [ -55.604220535, -28.367643657 ], [ -55.605539832, -28.370228052 ], [ -55.607253892, -28.370027435999898 ], [ -55.607926211999903, -28.367996047 ], [ -55.610248096, -28.371903709 ], [ -55.614187767, -28.371931103 ], [ -55.616983429, -28.369853774 ], [ -55.626047586, -28.369000843 ], [ -55.629295827999989, -28.366449673 ], [ -55.635014273, -28.365193147 ], [ -55.634234291, -28.373212389999896 ], [ -55.638711343, -28.377728772999902 ], [ -55.634206342, -28.380706600999904 ], [ -55.634457821, -28.38166885 ], [ -55.63649163, -28.382480711 ], [ -55.638992909, -28.381507954 ], [ -55.640239217, -28.384718923 ], [ -55.642626452999899, -28.382105624 ], [ -55.642286457999909, -28.380568911 ], [ -55.643641590999898, -28.380310814 ], [ -55.644230162, -28.381886924999897 ], [ -55.650187538999901, -28.378951642999898 ], [ -55.652301698, -28.3851388739999 ], [ -55.657078165, -28.382971763999905 ], [ -55.659854482, -28.383945643999894 ], [ -55.660820805, -28.385648783 ], [ -55.66006100899989, -28.389866371 ], [ -55.663492269, -28.389572851 ], [ -55.668035706, -28.386405963 ], [ -55.669029017999897, -28.388519166 ], [ -55.66776484, -28.393416836 ], [ -55.662587866, -28.39471958 ], [ -55.666531924, -28.39823202 ], [ -55.664735043, -28.400990969 ], [ -55.668092293, -28.401488470999904 ], [ -55.668935604, -28.398774538999898 ], [ -55.670785869, -28.39819166 ], [ -55.674610658999896, -28.403114398999893 ], [ -55.682723048999897, -28.409303001 ], [ -55.686567361, -28.414687000999901 ], [ -55.692175866999889, -28.416379500999906 ], [ -55.690737755, -28.413295651999899 ], [ -55.690601553, -28.395995795 ], [ -55.688768903, -28.388156122999899 ], [ -55.670780749999899, -28.345687360999896 ], [ -55.669150492999989, -28.340760535999891 ], [ -55.670421341999898, -28.334391723 ], [ -55.680202350999899, -28.322226258999894 ], [ -55.701773127, -28.311191906 ], [ -55.732909804, -28.285975314 ], [ -55.7430628239999, -28.281454659 ], [ -55.754677179999895, -28.279845454999901 ], [ -55.773178582, -28.274240075 ], [ -55.780039651, -28.265155114 ], [ -55.782558681, -28.256057437 ], [ -55.778453067, -28.247665587 ], [ -55.771246057, -28.241454537 ], [ -55.733863447, -28.229310112 ], [ -55.704732495, -28.22429793 ], [ -55.6925800449999, -28.218790285 ], [ -55.662083288, -28.189242522999987 ], [ -55.65301678, -28.182101573 ] ] ] } }
]
}
