{
"type": "FeatureCollection",
"name": "bairros_barra_funda",
"crs": { "type": "name", "properties": { "name": "urn:ogc:def:crs:OGC:1.3:CRS84" } },
"features": [
{ "type": "Feature", "properties": { "name": "Aparecida", "code_muni": 4301958.0, "name_muni": "Barra Funda" }, "geometry": { "type": "Polygon", "coordinates": [ [ [ -53.0457288, -27.924612 ], [ -53.0460533, -27.9248218 ], [ -53.0461543, -27.9248082 ], [ -53.0462921, -27.9255418 ], [ -53.0462921, -27.9257211 ], [ -53.0464329, -27.9257662 ], [ -53.046575, -27.9254486 ], [ -53.0467322, -27.925198 ], [ -53.0470779, -27.9253028 ], [ -53.0473197, -27.9253788 ], [ -53.0479188, -27.9252708 ], [ -53.0480905, -27.9251405 ], [ -53.0492494, -27.9244864 ], [ -53.0483976, -27.9236854 ], [ -53.048360801177033, -27.923627734289123 ], [ -53.048162044, -27.923466541 ], [ -53.048166808886435, -27.923323736808573 ], [ -53.0478407, -27.9228127 ], [ -53.0472346, -27.9229939 ], [ -53.0459124, -27.923548 ], [ -53.045439, -27.9237511 ], [ -53.0457288, -27.924612 ] ] ] } },
{ "type": "Feature", "properties": { "name": "Navegantes", "code_muni": 4301958.0, "name_muni": "Barra Funda" }, "geometry": { "type": "Polygon", "coordinates": [ [ [ -53.0432029, -27.9209302 ], [ -53.043505, -27.9210003 ], [ -53.043835, -27.9210089 ], [ -53.0440728, -27.9209421 ], [ -53.0442288, -27.9208658 ], [ -53.0442769, -27.9208422 ], [ -53.0450574, -27.9203712 ], [ -53.045169, -27.9202204 ], [ -53.0452157, -27.9200751 ], [ -53.0452216, -27.9198665 ], [ -53.0451937, -27.9195362 ], [ -53.0454626, -27.9194951 ], [ -53.045425, -27.9187936 ], [ -53.0453553, -27.9187841 ], [ -53.0452695, -27.9180968 ], [ -53.0451225, -27.9181158 ], [ -53.0451202, -27.9185243 ], [ -53.0450456, -27.9185096 ], [ -53.042885, -27.9180826 ], [ -53.0429947, -27.9190747 ], [ -53.0431866, -27.9208104 ], [ -53.0432029, -27.9209302 ] ] ] } },
{ "type": "Feature", "properties": { "name": "Primeiro de Maio", "code_muni": 4301958.0, "name_muni": "Barra Funda" }, "geometry": { "type": "Polygon", "coordinates": [ [ [ -53.0167067, -27.9286382 ], [ -53.0171501, -27.9284132 ], [ -53.0172434, -27.928359 ], [ -53.0181605, -27.9278805 ], [ -53.0184895, -27.9277117 ], [ -53.0199876, -27.9269231 ], [ -53.0244701, -27.9245647 ], [ -53.0243428, -27.9243594 ], [ -53.0240427, -27.9239258 ], [ -53.0239513, -27.9238523 ], [ -53.0238467, -27.9238713 ], [ -53.0238118, -27.9239116 ], [ -53.0237608, -27.924023 ], [ -53.0237206, -27.9240727 ], [ -53.0236938, -27.9241178 ], [ -53.023616, -27.9241841 ], [ -53.0235784, -27.9242292 ], [ -53.0235382, -27.9242647 ], [ -53.0235033, -27.9243074 ], [ -53.0234524, -27.9243951 ], [ -53.0233236, -27.9245159 ], [ -53.0231573, -27.9246226 ], [ -53.0229347, -27.9247363 ], [ -53.0228891, -27.9247719 ], [ -53.0224841, -27.9249212 ], [ -53.0224385, -27.9249591 ], [ -53.0223741, -27.9249804 ], [ -53.0221274, -27.9251179 ], [ -53.0220603, -27.9251368 ], [ -53.0220067, -27.9251392 ], [ -53.021945, -27.9251321 ], [ -53.0218886, -27.9251131 ], [ -53.021843, -27.9250871 ], [ -53.0217572, -27.9250136 ], [ -53.0216499, -27.924952 ], [ -53.021607, -27.924907 ], [ -53.0214595, -27.9248074 ], [ -53.0213495, -27.9247577 ], [ -53.0211564, -27.9246984 ], [ -53.0210116, -27.9246984 ], [ -53.0208935, -27.924712599999989 ], [ -53.0208265, -27.9247482 ], [ -53.0207246, -27.9248145 ], [ -53.02066820000001, -27.924824 ], [ -53.0205154, -27.9248359 ], [ -53.0204081, -27.9248145 ], [ -53.0203544, -27.9248169 ], [ -53.0202981, -27.9248477 ], [ -53.0202552, -27.9248856 ], [ -53.020172, -27.924975699999983 ], [ -53.020105, -27.9250634 ], [ -53.0199145, -27.9252127 ], [ -53.0198233, -27.9252577 ], [ -53.0197536, -27.9252672 ], [ -53.0194747, -27.9253809 ], [ -53.0192172, -27.9255018 ], [ -53.0191582, -27.9255445 ], [ -53.0188953, -27.925689 ], [ -53.0188551, -27.9257246 ], [ -53.0184661, -27.9258549 ], [ -53.0184152, -27.9258786 ], [ -53.0182355, -27.9260113 ], [ -53.0181952, -27.926054 ], [ -53.0181443, -27.9260943 ], [ -53.0180638, -27.9261701 ], [ -53.0180209, -27.926219899999989 ], [ -53.0179807, -27.926253 ], [ -53.0179431, -27.9262957 ], [ -53.0179109, -27.9263455 ], [ -53.0178707, -27.9263858 ], [ -53.0174469, -27.9267412 ], [ -53.0173852, -27.9267649 ], [ -53.0173369, -27.9268123 ], [ -53.0172457, -27.9268787 ], [ -53.0171116, -27.9269948 ], [ -53.0170768, -27.9270398 ], [ -53.0169883, -27.9271086 ], [ -53.0169561, -27.9271465 ], [ -53.0165913, -27.9274403 ], [ -53.0165403, -27.9274498 ], [ -53.0164974, -27.9274806 ], [ -53.0164196, -27.9275541 ], [ -53.0164143, -27.9276442 ], [ -53.01640350000001, -27.9276915 ], [ -53.01640350000001, -27.9278551 ], [ -53.0164116, -27.9279617 ], [ -53.0163928, -27.9280755 ], [ -53.0167067, -27.9286382 ] ] ] } },
{ "type": "Feature", "properties": { "name": "Pingo", "code_muni": 4301958.0, "name_muni": "Barra Funda" }, "geometry": { "type": "Polygon", "coordinates": [ [ [ -52.9653557, -27.928558 ], [ -52.964406331189082, -27.928350961055539 ], [ -52.964382801222989, -27.928370662613865 ], [ -52.9626625, -27.9300795 ], [ -52.9619103, -27.9307054 ], [ -52.960201, -27.9322106 ], [ -52.9597745, -27.9325882 ], [ -52.9594506, -27.9328749 ], [ -52.9584331, -27.9337521 ], [ -52.958238, -27.9339203 ], [ -52.957587, -27.9344815 ], [ -52.95626690000001, -27.9356344 ], [ -52.9556817, -27.9360066 ], [ -52.9552691, -27.9361937 ], [ -52.954906457261991, -27.936304292809861 ], [ -52.954819047999898, -27.936377463999985 ], [ -52.958784496929248, -27.936649562302676 ], [ -52.958953, -27.9366515 ], [ -52.9596048, -27.9366456 ], [ -52.9596748, -27.9359504 ], [ -52.9614558, -27.9332727 ], [ -52.963033, -27.9335452 ], [ -52.9630973, -27.9311944 ], [ -52.96505, -27.931166 ], [ -52.964991, -27.9298863 ], [ -52.96586, -27.9290806 ], [ -52.9667719, -27.9289099 ], [ -52.9679038, -27.9288009 ], [ -52.9678502, -27.9280947 ], [ -52.9668681, -27.9282489 ], [ -52.965798, -27.928455 ], [ -52.9653557, -27.928558 ] ] ] } }
]
}
