{
"type": "FeatureCollection",
"name": "bairros_sapucaia_do_sul",
"crs": { "type": "name", "properties": { "name": "urn:ogc:def:crs:OGC:1.3:CRS84" } },
"features": [
{ "type": "Feature", "properties": { "name": "Cristo Rei", "code_muni": 4320008.0, "name_muni": "Sapucaia do Sul" }, "geometry": { "type": "Polygon", "coordinates": [ [ [ -51.1585517, -29.7996643 ], [ -51.1609341, -29.7998986 ], [ -51.1608198, -29.7993128 ], [ -51.160786382584654, -29.799136629742012 ], [ -51.155852744456553, -29.799111556368992 ], [ -51.1585517, -29.7996643 ] ] ] } },
{ "type": "Feature", "properties": { "name": "São João Batista", "code_muni": 4320008.0, "name_muni": "Sapucaia do Sul" }, "geometry": { "type": "MultiPolygon", "coordinates": [ [ [ [ -51.1682923, -29.7947533 ], [ -51.168106659735358, -29.793633168518546 ], [ -51.164217776, -29.794225791 ], [ -51.164847248869513, -29.79631055944569 ], [ -51.1647399, -29.795642 ], [ -51.1649809, -29.7955818 ], [ -51.1682923, -29.7947533 ] ] ], [ [ [ -51.1608198, -29.7993128 ], [ -51.1609341, -29.7998986 ], [ -51.162093979559089, -29.799143244243464 ], [ -51.160786382584654, -29.799136629742012 ], [ -51.1608198, -29.7993128 ] ] ] ] } },
{ "type": "Feature", "properties": { "name": "Fazenda São Borja", "code_muni": 4320008.0, "name_muni": "Sapucaia do Sul" }, "geometry": { "type": "Polygon", "coordinates": [ [ [ -51.115466580979444, -29.803442699979339 ], [ -51.098816291265258, -29.805894512993511 ], [ -51.0989027, -29.8060559 ], [ -51.1060686, -29.8069943 ], [ -51.1133651, -29.804252 ], [ -51.115466580979444, -29.803442699979339 ] ] ] } },
{ "type": "Feature", "properties": { "name": "Duque de Caxias", "code_muni": 4320008.0, "name_muni": "Sapucaia do Sul" }, "geometry": { "type": "Polygon", "coordinates": [ [ [ -51.1400727, -29.7992175 ], [ -51.146076441597309, -29.799061327956927 ], [ -51.136731912, -29.799012642 ], [ -51.136704837159279, -29.799313075307854 ], [ -51.1400727, -29.7992175 ] ] ] } },
{ "type": "Feature", "properties": { "name": "Três Marias", "code_muni": 4320008.0, "name_muni": "Sapucaia do Sul" }, "geometry": { "type": "MultiPolygon", "coordinates": [ [ [ [ -51.11983, -29.8589703 ], [ -51.1196644, -29.8589984 ], [ -51.119662306623809, -29.858998892810789 ], [ -51.123185963, -29.858548318 ], [ -51.123813314776129, -29.859088063501272 ], [ -51.1237328, -29.8588456 ], [ -51.1236373, -29.8586791 ], [ -51.1235494, -29.8586046 ], [ -51.1234185, -29.8585317 ], [ -51.1232589, -29.8585125 ], [ -51.1230133, -29.858485099999989 ], [ -51.122294, -29.8585993 ], [ -51.1220581, -29.8586397 ], [ -51.1218716, -29.858673 ], [ -51.121674, -29.8587006 ], [ -51.11983, -29.8589703 ] ] ], [ [ [ -51.1132693, -29.863191900000011 ], [ -51.1125501, -29.8634622 ], [ -51.1124401, -29.8634987 ], [ -51.1111264, -29.8639343 ], [ -51.1100078, -29.8643879 ], [ -51.1093417, -29.86457510000001 ], [ -51.1089225, -29.8646525 ], [ -51.1083817, -29.8646862 ], [ -51.1072161, -29.8650984 ], [ -51.1063244, -29.8653747 ], [ -51.105577, -29.8655915 ], [ -51.1052668, -29.8656707 ], [ -51.1049776, -29.865755199999985 ], [ -51.104558, -29.865845 ], [ -51.1040841, -29.8660086 ], [ -51.103498, -29.8663516 ], [ -51.1027658, -29.8667854 ], [ -51.1025231, -29.8669657 ], [ -51.102059027867803, -29.867590872978063 ], [ -51.113285616, -29.863242215999897 ], [ -51.113459885443646, -29.863116702055667 ], [ -51.1132693, -29.863191900000011 ] ] ], [ [ [ -51.1013336, -29.8678254 ], [ -51.101280486013621, -29.86789239436764 ], [ -51.101396001044186, -29.867847656969204 ], [ -51.1013336, -29.8678254 ] ] ], [ [ [ -51.125523109964135, -29.860559050118027 ], [ -51.125600353, -29.860625502999905 ], [ -51.125686320091511, -29.860558744053517 ], [ -51.125523109964135, -29.860559050118027 ] ] ] ] } },
{ "type": "Feature", "properties": { "name": "Parque Primavera", "code_muni": 4320008.0, "name_muni": "Sapucaia do Sul" }, "geometry": { "type": "Polygon", "coordinates": [ [ [ -51.1338389, -29.8517621 ], [ -51.1334141, -29.8519853 ], [ -51.1331938, -29.8521318 ], [ -51.1331379, -29.8521581 ], [ -51.1329107, -29.8522296 ], [ -51.1325108, -29.8522303 ], [ -51.1322257, -29.8522101 ], [ -51.1320986, -29.852213 ], [ -51.1319052, -29.8522685 ], [ -51.1317733, -29.852334700000011 ], [ -51.1314687, -29.852508 ], [ -51.1312513, -29.8527533 ], [ -51.1310944, -29.8529485 ], [ -51.1309098, -29.8531757 ], [ -51.130632, -29.853531 ], [ -51.1303516, -29.8538562 ], [ -51.1302794, -29.8539374 ], [ -51.1302171, -29.8540061 ], [ -51.1299943, -29.8542595 ], [ -51.1298433, -29.8544711 ], [ -51.1298854, -29.8545824 ], [ -51.129896115237855, -29.854707842369933 ], [ -51.133909500710693, -29.852083345031875 ], [ -51.1338389, -29.8517621 ] ] ] } },
{ "type": "Feature", "properties": { "name": "Jardim Planalto", "code_muni": 4320008.0, "name_muni": "Sapucaia do Sul" }, "geometry": { "type": "MultiPolygon", "coordinates": [ [ [ [ -51.133909500710693, -29.852083345031875 ], [ -51.136785500264274, -29.850202465510485 ], [ -51.1365572, -29.8503017 ], [ -51.1359956, -29.850571399999986 ], [ -51.1354948, -29.850830899999988 ], [ -51.1354177, -29.850871 ], [ -51.1353205, -29.8509187 ], [ -51.1351025, -29.8510403 ], [ -51.1347994, -29.8512333 ], [ -51.13435290000001, -29.8514816 ], [ -51.134147, -29.851595 ], [ -51.1338389, -29.8517621 ], [ -51.133909500710693, -29.852083345031875 ] ] ], [ [ [ -51.1377881, -29.8498533 ], [ -51.1374084, -29.8499631 ], [ -51.1370118, -29.8501041 ], [ -51.136967475611399, -29.850123366489441 ], [ -51.137829919465851, -29.849967144612886 ], [ -51.1377881, -29.8498533 ] ] ] ] } },
{ "type": "Feature", "properties": { "name": "Santo Inácio", "code_muni": 4320008.0, "name_muni": "Sapucaia do Sul" }, "geometry": { "type": "Polygon", "coordinates": [ [ [ -51.1435939, -29.8485707 ], [ -51.14325680000001, -29.8485714 ], [ -51.1430989, -29.8485875 ], [ -51.1429434, -29.848622 ], [ -51.142646, -29.8487062 ], [ -51.1419423, -29.8489177 ], [ -51.1418536, -29.8489428 ], [ -51.1417444, -29.8489738 ], [ -51.1410138, -29.8492111 ], [ -51.1403835, -29.849400899999988 ], [ -51.1400473, -29.8494925 ], [ -51.1399324, -29.8495203 ], [ -51.139804, -29.8495379 ], [ -51.1383542, -29.8497309 ], [ -51.1379711, -29.8498149 ], [ -51.1377881, -29.8498533 ], [ -51.137829919465851, -29.849967144612886 ], [ -51.143650163057778, -29.848912713840047 ], [ -51.1435939, -29.8485707 ] ] ] } },
{ "type": "Feature", "properties": { "name": "Primavera", "code_muni": 4320008.0, "name_muni": "Sapucaia do Sul" }, "geometry": { "type": "Polygon", "coordinates": [ [ [ -51.1444607, -29.8485633 ], [ -51.1441701, -29.8485677 ], [ -51.1440611, -29.8485677 ], [ -51.1435939, -29.8485707 ], [ -51.143650163057778, -29.848912713840047 ], [ -51.145558003622739, -29.848567017185761 ], [ -51.1444607, -29.8485633 ] ] ] } },
{ "type": "Feature", "properties": { "name": "Tamandaré", "code_muni": 4320008.0, "name_muni": "Sapucaia do Sul" }, "geometry": { "type": "MultiPolygon", "coordinates": [ [ [ [ -51.165966, -29.8329608 ], [ -51.165653, -29.8329989 ], [ -51.1652525, -29.8332041 ], [ -51.1624774, -29.834014 ], [ -51.1622568, -29.8340407 ], [ -51.1619901, -29.834014 ], [ -51.1618367, -29.8339027 ], [ -51.1616423, -29.8340322 ], [ -51.1613633, -29.8342126 ], [ -51.1604911, -29.8347936 ], [ -51.1603163, -29.83490110000001 ], [ -51.15940951357333, -29.835500405443771 ], [ -51.165978044975148, -29.832965053286639 ], [ -51.165966, -29.8329608 ] ] ], [ [ [ -51.1558199, -29.8368474 ], [ -51.155412521632897, -29.83704296027393 ], [ -51.155980390823359, -29.836823813389358 ], [ -51.1558199, -29.8368474 ] ] ], [ [ [ -51.1537243, -29.8419285 ], [ -51.1535688, -29.842075799999989 ], [ -51.1532419, -29.8422957 ], [ -51.153110894322445, -29.842353711221726 ], [ -51.153634196, -29.8422315349999 ], [ -51.153740167118706, -29.841908392227772 ], [ -51.1537243, -29.8419285 ] ] ] ] } },
{ "type": "Feature", "properties": { "name": "Três Portos", "code_muni": 4320008.0, "name_muni": "Sapucaia do Sul" }, "geometry": { "type": "MultiPolygon", "coordinates": [ [ [ [ -51.1770353, -29.8299621 ], [ -51.1766582, -29.8300194 ], [ -51.176117, -29.830101600000013 ], [ -51.1760074, -29.830118 ], [ -51.1752126, -29.8302372 ], [ -51.1741922, -29.8303861 ], [ -51.1738196, -29.8304367 ], [ -51.1737232, -29.8304426 ], [ -51.1734499, -29.8304986 ], [ -51.17057470000001, -29.8312557 ], [ -51.1705671557079, -29.831258781595427 ], [ -51.17727896360293, -29.830193766725156 ], [ -51.1772784, -29.8301925 ], [ -51.1771916, -29.82993840000001 ], [ -51.1770353, -29.8299621 ] ] ], [ [ [ -51.165966, -29.8329608 ], [ -51.165978044975148, -29.832965053286639 ], [ -51.166001807957336, -29.832955880314977 ], [ -51.165966, -29.8329608 ] ] ] ] } },
{ "type": "Feature", "properties": { "name": "Área de Várzea do Rio dos Sinos", "code_muni": 4320008.0, "name_muni": "Sapucaia do Sul" }, "geometry": { "type": "Polygon", "coordinates": [ [ [ -51.1772784, -29.8301925 ], [ -51.17727896360293, -29.830193766725156 ], [ -51.180449140806566, -29.829690603616662 ], [ -51.1798976, -29.8296566 ], [ -51.1798173, -29.8296517 ], [ -51.1794327, -29.8296467 ], [ -51.1793561, -29.8296504 ], [ -51.1790277, -29.8296665 ], [ -51.1789655, -29.829675699999989 ], [ -51.1789029, -29.829685 ], [ -51.1787523, -29.8297073 ], [ -51.1771916, -29.82993840000001 ], [ -51.1772784, -29.8301925 ] ] ] } },
{ "type": "Feature", "properties": { "name": "Nova Sapucaia", "code_muni": 4320008.0, "name_muni": "Sapucaia do Sul" }, "geometry": { "type": "Polygon", "coordinates": [ [ [ -51.1441784, -29.8430647 ], [ -51.1442991, -29.8429838 ], [ -51.1443669, -29.8429414 ], [ -51.1444193, -29.8429064 ], [ -51.1447527, -29.8426842 ], [ -51.1452705, -29.842339 ], [ -51.1457824, -29.8420132 ], [ -51.1452114, -29.8407732 ], [ -51.1451643, -29.8405675 ], [ -51.1451479, -29.840349 ], [ -51.145142, -29.8402703 ], [ -51.1451165, -29.8397528 ], [ -51.1450526, -29.8389774 ], [ -51.1449849, -29.8381796 ], [ -51.144924, -29.8375745 ], [ -51.1448972, -29.8374455 ], [ -51.1447352, -29.8364503 ], [ -51.1446859, -29.8361764 ], [ -51.144437, -29.8349696 ], [ -51.1442203, -29.8338015 ], [ -51.14392990000001, -29.8323941 ], [ -51.1436916, -29.8325519 ], [ -51.1434265, -29.8326505 ], [ -51.1430411, -29.8327956 ], [ -51.1427961, -29.8328403 ], [ -51.1426618, -29.8329215 ], [ -51.1424783, -29.8330134 ], [ -51.1423337, -29.8330645 ], [ -51.1421567, -29.833118299999988 ], [ -51.1418891, -29.833218299999984 ], [ -51.1415912, -29.8333722 ], [ -51.1413614, -29.8335243 ], [ -51.1412689, -29.8334417 ], [ -51.1409631, -29.8331881 ], [ -51.1400298, -29.8332027 ], [ -51.1400418, -29.8335125 ], [ -51.1396766, -29.8339412 ], [ -51.1396475, -29.8339732 ], [ -51.1386245, -29.8341055 ], [ -51.1378598, -29.8341618 ], [ -51.1379269, -29.8345993 ], [ -51.138035, -29.835151 ], [ -51.1380585, -29.8353012 ], [ -51.138332, -29.8367433 ], [ -51.1384794, -29.8375402 ], [ -51.1386007, -29.8381829 ], [ -51.1388174, -29.8393643 ], [ -51.1388474, -29.8395081 ], [ -51.1389439, -29.8401107 ], [ -51.1384127, -29.840192 ], [ -51.1378791, -29.8402736 ], [ -51.1373963, -29.8403503 ], [ -51.1365191, -29.8404288 ], [ -51.1366904, -29.8418898 ], [ -51.1361908, -29.8417932 ], [ -51.1359239, -29.8417432 ], [ -51.1350998, -29.8415866 ], [ -51.1345906, -29.8414899 ], [ -51.1345406, -29.8414804 ], [ -51.1335371, -29.8412928 ], [ -51.1332508, -29.8412409 ], [ -51.1331169, -29.8412148 ], [ -51.1329726, -29.8411904 ], [ -51.1321744, -29.8410323 ], [ -51.1319939, -29.8410035 ], [ -51.1318879, -29.8409839 ], [ -51.1315574, -29.8409264 ], [ -51.1310128, -29.8408314 ], [ -51.1304524, -29.8407367 ], [ -51.1299039, -29.8406425 ], [ -51.1298051, -29.8406255 ], [ -51.1294363, -29.8405206 ], [ -51.1291462, -29.8404707 ], [ -51.1291169, -29.8405322 ], [ -51.1294745, -29.8419051 ], [ -51.1297249, -29.8428549 ], [ -51.1298583, -29.8434053 ], [ -51.1299403, -29.8436538 ], [ -51.1299798, -29.843708 ], [ -51.1300118, -29.8438952 ], [ -51.1301129, -29.84436 ], [ -51.1301206, -29.8443866 ], [ -51.1303481, -29.8452524 ], [ -51.1304914, -29.8457993 ], [ -51.1305556, -29.846027299999985 ], [ -51.1306507, -29.8463706 ], [ -51.1308016, -29.8469692 ], [ -51.130818, -29.8470315 ], [ -51.1309214, -29.8474241 ], [ -51.1310792, -29.8479177 ], [ -51.1312635, -29.8485525 ], [ -51.13128050000001, -29.8486189 ], [ -51.1314563, -29.8492969 ], [ -51.1317896, -29.8507007 ], [ -51.1326161, -29.850329 ], [ -51.1334257, -29.8499191 ], [ -51.1343193, -29.8494072 ], [ -51.1352221, -29.8488233 ], [ -51.1354483, -29.8486903 ], [ -51.1356953, -29.8485507 ], [ -51.1359714, -29.8483727 ], [ -51.1362465, -29.8481829 ], [ -51.1366296, -29.8479067 ], [ -51.1369932, -29.8476668 ], [ -51.1371343, -29.8475722 ], [ -51.1373382, -29.847442399999984 ], [ -51.1375953, -29.8472792 ], [ -51.1381041, -29.8469058 ], [ -51.1383511, -29.8467348 ], [ -51.1385586, -29.8466332 ], [ -51.1389036, -29.8465281 ], [ -51.139449, -29.8461926 ], [ -51.1400205, -29.8458086 ], [ -51.140252, -29.8456571 ], [ -51.1404254, -29.8455436 ], [ -51.1406041, -29.845426 ], [ -51.1411982, -29.8450534 ], [ -51.1417855, -29.8446613 ], [ -51.14226, -29.8443431 ], [ -51.1425979, -29.8441198 ], [ -51.1431283, -29.8437717 ], [ -51.1435058, -29.8435158 ], [ -51.1436331, -29.8434261 ], [ -51.1438593, -29.8432733 ], [ -51.144039, -29.8431552 ], [ -51.14410250000001, -29.8431174 ], [ -51.1441784, -29.8430647 ] ] ] } },
{ "type": "Feature", "properties": { "name": "Capão da Cruz", "code_muni": 4320008.0, "name_muni": "Sapucaia do Sul" }, "geometry": { "type": "Polygon", "coordinates": [ [ [ -51.1450581, -29.8320972 ], [ -51.1442203, -29.8318822 ], [ -51.1441601, -29.8320574 ], [ -51.144072, -29.8322147 ], [ -51.14392990000001, -29.8323941 ], [ -51.1442203, -29.8338015 ], [ -51.144437, -29.8349696 ], [ -51.1446859, -29.8361764 ], [ -51.1447352, -29.8364503 ], [ -51.1448972, -29.8374455 ], [ -51.144924, -29.8375745 ], [ -51.1449849, -29.8381796 ], [ -51.1450526, -29.8389774 ], [ -51.1451165, -29.8397528 ], [ -51.145142, -29.8402703 ], [ -51.1451479, -29.840349 ], [ -51.1451643, -29.8405675 ], [ -51.1452114, -29.8407732 ], [ -51.1457824, -29.8420132 ], [ -51.1452705, -29.842339 ], [ -51.1447527, -29.8426842 ], [ -51.1444193, -29.8429064 ], [ -51.1448916, -29.8433626 ], [ -51.14535930000001, -29.843459299999989 ], [ -51.146248, -29.843614 ], [ -51.1463653, -29.8436352 ], [ -51.1471762, -29.8437793 ], [ -51.1479211, -29.8439207 ], [ -51.148405, -29.8439899 ], [ -51.14870722613616, -29.844027704067688 ], [ -51.149707954999897, -29.843148143999898 ], [ -51.153110894322445, -29.842353711221726 ], [ -51.1532419, -29.8422957 ], [ -51.1535688, -29.842075799999989 ], [ -51.1537243, -29.8419285 ], [ -51.153740167118706, -29.841908392227772 ], [ -51.155324509, -29.837076925 ], [ -51.155412521632897, -29.83704296027393 ], [ -51.1558199, -29.8368474 ], [ -51.155980390823359, -29.836823813389358 ], [ -51.158835544433607, -29.835721927098074 ], [ -51.1587476, -29.8355231 ], [ -51.1582776, -29.834899599999989 ], [ -51.1578455, -29.8343534 ], [ -51.1577003, -29.8344868 ], [ -51.15762010000001, -29.8345164 ], [ -51.1575206, -29.8345166 ], [ -51.1574373, -29.8344748 ], [ -51.1567902, -29.834140900000012 ], [ -51.1561002, -29.833783599999986 ], [ -51.1560149, -29.8337394 ], [ -51.1558038, -29.8336301 ], [ -51.1554725, -29.8334592 ], [ -51.1552108, -29.8333229 ], [ -51.1551659, -29.8332997 ], [ -51.1543272, -29.8328333 ], [ -51.1541918, -29.8327646 ], [ -51.1540309, -29.8326809 ], [ -51.1539115, -29.8326157 ], [ -51.153658, -29.8324703 ], [ -51.1535467, -29.8324016 ], [ -51.1533616, -29.8322886 ], [ -51.1533295, -29.832269 ], [ -51.1532088, -29.8321655 ], [ -51.1529127, -29.8318257 ], [ -51.1526566, -29.831475 ], [ -51.1525972, -29.8313917 ], [ -51.1524402, -29.8311699 ], [ -51.1522534, -29.8309059 ], [ -51.1516043, -29.8312825 ], [ -51.150925, -29.8316505 ], [ -51.1508028, -29.8317164 ], [ -51.1506841, -29.8317414 ], [ -51.1504152, -29.831885700000011 ], [ -51.1502054, -29.8319965 ], [ -51.1497496, -29.8322517 ], [ -51.1494494, -29.832419 ], [ -51.1491854, -29.8325662 ], [ -51.1488825, -29.832731 ], [ -51.1485972, -29.8328632 ], [ -51.1482191, -29.8329838 ], [ -51.1478282, -29.8330932 ], [ -51.1473634, -29.8325189 ], [ -51.1458824, -29.8322468 ], [ -51.1450581, -29.8320972 ] ] ] } },
{ "type": "Feature", "properties": { "name": "Walderes", "code_muni": 4320008.0, "name_muni": "Sapucaia do Sul" }, "geometry": { "type": "Polygon", "coordinates": [ [ [ -51.1379711, -29.8498149 ], [ -51.1383542, -29.8497309 ], [ -51.139804, -29.8495379 ], [ -51.1399324, -29.8495203 ], [ -51.1400473, -29.8494925 ], [ -51.1403835, -29.849400899999988 ], [ -51.1410138, -29.8492111 ], [ -51.1417444, -29.8489738 ], [ -51.1418536, -29.8489428 ], [ -51.1419423, -29.8489177 ], [ -51.142646, -29.8487062 ], [ -51.1429434, -29.848622 ], [ -51.1430989, -29.8485875 ], [ -51.14325680000001, -29.8485714 ], [ -51.1435939, -29.8485707 ], [ -51.1440611, -29.8485677 ], [ -51.1441701, -29.8485677 ], [ -51.1444607, -29.8485633 ], [ -51.145558003622739, -29.848567017185761 ], [ -51.145773946, -29.8485278869999 ], [ -51.146378735, -29.846074170999895 ], [ -51.14870722613616, -29.844027704067688 ], [ -51.148405, -29.8439899 ], [ -51.1479211, -29.8439207 ], [ -51.1471762, -29.8437793 ], [ -51.1463653, -29.8436352 ], [ -51.146248, -29.843614 ], [ -51.14535930000001, -29.843459299999989 ], [ -51.1448916, -29.8433626 ], [ -51.1447283, -29.8433572 ], [ -51.1445955, -29.8433619 ], [ -51.1443836, -29.8433798 ], [ -51.1443341, -29.8434113 ], [ -51.143981, -29.8436482 ], [ -51.1437725, -29.84379 ], [ -51.1436375, -29.8438761 ], [ -51.1433663, -29.844055399999984 ], [ -51.1432947, -29.8441027 ], [ -51.1427623, -29.844475700000011 ], [ -51.1421104, -29.8449295 ], [ -51.1408964, -29.8457269 ], [ -51.140649, -29.8458989 ], [ -51.1399723, -29.846342 ], [ -51.1396166, -29.8465833 ], [ -51.1392325, -29.846886 ], [ -51.1370097, -29.8483639 ], [ -51.1365448, -29.8486333 ], [ -51.1363161, -29.848766199999989 ], [ -51.1361508, -29.8488772 ], [ -51.135614, -29.8492778 ], [ -51.135495, -29.8493609 ], [ -51.1350827, -29.8496169 ], [ -51.1348935, -29.8497308 ], [ -51.1346031, -29.8498905 ], [ -51.1341366, -29.8501581 ], [ -51.1335571, -29.8504716 ], [ -51.1330863, -29.8506921 ], [ -51.1325693, -29.850928500000013 ], [ -51.1321132, -29.8511293 ], [ -51.1319543, -29.8512015 ], [ -51.1322257, -29.8522101 ], [ -51.1325108, -29.8522303 ], [ -51.1329107, -29.8522296 ], [ -51.1331379, -29.8521581 ], [ -51.1331938, -29.8521318 ], [ -51.1334141, -29.8519853 ], [ -51.1338389, -29.8517621 ], [ -51.134147, -29.851595 ], [ -51.13435290000001, -29.8514816 ], [ -51.1347994, -29.8512333 ], [ -51.1351025, -29.8510403 ], [ -51.1353205, -29.8509187 ], [ -51.1354177, -29.850871 ], [ -51.1354948, -29.850830899999988 ], [ -51.1359956, -29.850571399999986 ], [ -51.1365572, -29.8503017 ], [ -51.136785500264274, -29.850202465510485 ], [ -51.136883065999896, -29.850138656 ], [ -51.136967475611399, -29.850123366489441 ], [ -51.1370118, -29.8501041 ], [ -51.1374084, -29.8499631 ], [ -51.1377881, -29.8498533 ], [ -51.1379711, -29.8498149 ] ] ] } },
{ "type": "Feature", "properties": { "name": "Boa Vista", "code_muni": 4320008.0, "name_muni": "Sapucaia do Sul" }, "geometry": { "type": "Polygon", "coordinates": [ [ [ -51.1086103, -29.8455203 ], [ -51.1094552, -29.8468045 ], [ -51.1107373, -29.8474373 ], [ -51.1123359, -29.8487587 ], [ -51.1146641, -29.8497637 ], [ -51.1162198, -29.8503406 ], [ -51.1169815, -29.850978 ], [ -51.1173946, -29.8517225 ], [ -51.11821, -29.8536766 ], [ -51.1215144, -29.8556306 ], [ -51.122086, -29.8573154 ], [ -51.1220471, -29.8576663 ], [ -51.1220238, -29.857916 ], [ -51.1217059, -29.8583791 ], [ -51.1216747, -29.8585896 ], [ -51.121674, -29.8587006 ], [ -51.1218716, -29.858673 ], [ -51.1220581, -29.8586397 ], [ -51.122294, -29.8585993 ], [ -51.1230133, -29.858485099999989 ], [ -51.1232589, -29.8585125 ], [ -51.1234185, -29.8585317 ], [ -51.1235494, -29.8586046 ], [ -51.1236373, -29.8586791 ], [ -51.1237328, -29.8588456 ], [ -51.123813314776129, -29.859088063501272 ], [ -51.125523109964135, -29.860559050118027 ], [ -51.125686320091511, -29.860558744053517 ], [ -51.129227888999893, -29.857808362999908 ], [ -51.12968424, -29.854846387999899 ], [ -51.129896115237855, -29.854707842369933 ], [ -51.1298854, -29.8545824 ], [ -51.1298433, -29.8544711 ], [ -51.1299943, -29.8542595 ], [ -51.1302171, -29.8540061 ], [ -51.1302794, -29.8539374 ], [ -51.1303516, -29.8538562 ], [ -51.130632, -29.853531 ], [ -51.1309098, -29.8531757 ], [ -51.1310944, -29.8529485 ], [ -51.1312513, -29.8527533 ], [ -51.1314687, -29.852508 ], [ -51.1317733, -29.852334700000011 ], [ -51.1319052, -29.8522685 ], [ -51.1320986, -29.852213 ], [ -51.1322257, -29.8522101 ], [ -51.1319543, -29.8512015 ], [ -51.1317896, -29.8507007 ], [ -51.1314563, -29.8492969 ], [ -51.13128050000001, -29.8486189 ], [ -51.1312635, -29.8485525 ], [ -51.1310792, -29.8479177 ], [ -51.1309214, -29.8474241 ], [ -51.130818, -29.8470315 ], [ -51.1308016, -29.8469692 ], [ -51.1306507, -29.8463706 ], [ -51.1305556, -29.846027299999985 ], [ -51.1304914, -29.8457993 ], [ -51.1303481, -29.8452524 ], [ -51.1287317, -29.8453093 ], [ -51.1283613, -29.8453321 ], [ -51.1278647, -29.8453832 ], [ -51.1273898, -29.845433799999984 ], [ -51.1270265, -29.8454966 ], [ -51.1262086, -29.845752499999985 ], [ -51.1260224, -29.8458169 ], [ -51.1256404, -29.8459464 ], [ -51.1246165, -29.8462851 ], [ -51.1242907, -29.8462918 ], [ -51.1239556, -29.846072599999989 ], [ -51.1236205, -29.845889 ], [ -51.1234618, -29.8454709 ], [ -51.1234265, -29.8451395 ], [ -51.1231512, -29.844885900000012 ], [ -51.1227521, -29.8446046 ], [ -51.1224695, -29.8443378 ], [ -51.1222284, -29.8439773 ], [ -51.1220205, -29.8436888 ], [ -51.121663, -29.8435807 ], [ -51.120973, -29.84366 ], [ -51.1209189, -29.843662 ], [ -51.1205158, -29.843696 ], [ -51.1202248, -29.843696 ], [ -51.1197229, -29.843721 ], [ -51.1184514, -29.8437615 ], [ -51.11799, -29.8436591 ], [ -51.1175126, -29.8433939 ], [ -51.1172095, -29.8428262 ], [ -51.117121, -29.8424586 ], [ -51.1171371, -29.8417281 ], [ -51.1168005, -29.8413244 ], [ -51.1086103, -29.8455203 ] ] ] } },
{ "type": "Feature", "properties": { "name": "Costa do Morro", "code_muni": 4320008.0, "name_muni": "Sapucaia do Sul" }, "geometry": { "type": "Polygon", "coordinates": [ [ [ -51.0980786, -29.8400067 ], [ -51.0978129, -29.8400647 ], [ -51.0969853, -29.8401694 ], [ -51.0960656, -29.840253 ], [ -51.0951497, -29.840395 ], [ -51.094121, -29.840509 ], [ -51.0914563, -29.8408004 ], [ -51.0886983, -29.8410999 ], [ -51.087432670490941, -29.841166003087714 ], [ -51.087119293999891, -29.843780942 ], [ -51.087802081965158, -29.845113657113352 ], [ -51.0878688, -29.8452039 ], [ -51.0881317, -29.8454877 ], [ -51.0882336, -29.8456645 ], [ -51.0888237, -29.8461438 ], [ -51.0889578, -29.8464834 ], [ -51.0889953, -29.846758 ], [ -51.0890088, -29.847186 ], [ -51.088966835702699, -29.847387017300594 ], [ -51.089656630352778, -29.848733300928803 ], [ -51.0897034, -29.8487494 ], [ -51.0899395, -29.8489448 ], [ -51.089983940298225, -29.849028298110749 ], [ -51.090361756371699, -29.849289565022136 ], [ -51.0904243, -29.8493176 ], [ -51.0905322, -29.8493659 ], [ -51.0909426, -29.8495124 ], [ -51.091361, -29.8495776 ], [ -51.0917419, -29.8495334 ], [ -51.0918358, -29.849431 ], [ -51.0920396, -29.849275099999989 ], [ -51.0922113, -29.8492682 ], [ -51.0924393, -29.8493217 ], [ -51.0927263, -29.8494799 ], [ -51.0928765, -29.8497474 ], [ -51.0933647, -29.850508099999985 ], [ -51.0935149, -29.8507361 ], [ -51.0936356, -29.8511758 ], [ -51.0936275, -29.8515224 ], [ -51.093617333115965, -29.851540755768138 ], [ -51.093963925, -29.851780409 ], [ -51.095377185, -29.854859427999887 ], [ -51.095388923770876, -29.855416148633051 ], [ -51.0954326, -29.8554631 ], [ -51.0958028, -29.8559237 ], [ -51.0959208, -29.8563238 ], [ -51.0959262, -29.8565611 ], [ -51.0957223, -29.8570403 ], [ -51.0955077, -29.8573706 ], [ -51.095435424130976, -29.857621400178058 ], [ -51.095450099501825, -29.858317349125162 ], [ -51.0954756, -29.8583662 ], [ -51.0957009, -29.8584918 ], [ -51.0959959, -29.8586081 ], [ -51.0962534, -29.8588128 ], [ -51.0963821, -29.8589617 ], [ -51.0964036, -29.859199 ], [ -51.0961622, -29.859399 ], [ -51.0956633, -29.859613 ], [ -51.095480231822535, -29.859746279191469 ], [ -51.095572510034543, -29.864122009078724 ], [ -51.095575722521687, -29.864162666379741 ], [ -51.09646914117247, -29.864913301301939 ], [ -51.0966933, -29.8648351 ], [ -51.0967818, -29.8648118 ], [ -51.096924, -29.864814200000016 ], [ -51.0969964, -29.8648816 ], [ -51.097031200000011, -29.865079299999987 ], [ -51.0971707, -29.8653212 ], [ -51.097298998535081, -29.865610517542905 ], [ -51.099377640385335, -29.867356851608065 ], [ -51.0998824, -29.8676961 ], [ -51.100089943470266, -29.867955258739858 ], [ -51.100414385, -29.868227819 ], [ -51.101280486013621, -29.86789239436764 ], [ -51.1013336, -29.8678254 ], [ -51.101396001044186, -29.867847656969204 ], [ -51.102059027867803, -29.867590872978063 ], [ -51.1025231, -29.8669657 ], [ -51.1027658, -29.8667854 ], [ -51.103498, -29.8663516 ], [ -51.1040841, -29.8660086 ], [ -51.104558, -29.865845 ], [ -51.1049776, -29.865755199999985 ], [ -51.1052668, -29.8656707 ], [ -51.1051879, -29.8653847 ], [ -51.1051161, -29.8648421 ], [ -51.1051362, -29.8645112 ], [ -51.1052039, -29.8642815 ], [ -51.1050996, -29.8639215 ], [ -51.104921, -29.8635732 ], [ -51.1045847, -29.8630624 ], [ -51.1045193, -29.8629391 ], [ -51.104292, -29.862701 ], [ -51.1041001, -29.8623139 ], [ -51.1038984, -29.861655 ], [ -51.1038706, -29.8615641 ], [ -51.1037457, -29.861156 ], [ -51.1036769, -29.8610562 ], [ -51.1035485, -29.86087 ], [ -51.10334, -29.8589644 ], [ -51.1059992, -29.8592887 ], [ -51.1061603, -29.859304 ], [ -51.1062497, -29.8592956 ], [ -51.1063197, -29.8593525 ], [ -51.1076528, -29.8595107 ], [ -51.11821, -29.8536766 ], [ -51.1173946, -29.8517225 ], [ -51.1169815, -29.850978 ], [ -51.1162198, -29.8503406 ], [ -51.1146641, -29.8497637 ], [ -51.1123359, -29.8487587 ], [ -51.1107373, -29.8474373 ], [ -51.1094552, -29.8468045 ], [ -51.1086103, -29.8455203 ], [ -51.1168005, -29.8413244 ], [ -51.1158227, -29.840451 ], [ -51.1166503, -29.8400111 ], [ -51.116617, -29.839969 ], [ -51.116511, -29.8398467 ], [ -51.1164211, -29.8397398 ], [ -51.1162688, -29.839513 ], [ -51.11618, -29.83936 ], [ -51.1159703, -29.8387816 ], [ -51.1154781, -29.8373331 ], [ -51.1153903, -29.8370318 ], [ -51.1153045, -29.8367881 ], [ -51.1151925, -29.8366014 ], [ -51.1150859, -29.8364757 ], [ -51.1149249, -29.8363786 ], [ -51.1147861, -29.8363373 ], [ -51.1145454, -29.8363495 ], [ -51.1143918, -29.8363897 ], [ -51.1142886, -29.836455399999988 ], [ -51.114142, -29.836614 ], [ -51.112769, -29.838332 ], [ -51.112471, -29.838729 ], [ -51.112095, -29.839168 ], [ -51.111582, -29.83983 ], [ -51.111368, -29.840082 ], [ -51.111206, -29.840244 ], [ -51.1108674, -29.8404368 ], [ -51.1106502, -29.8405113 ], [ -51.1105543, -29.8405427 ], [ -51.1104691, -29.8405491 ], [ -51.1102545, -29.8405229 ], [ -51.1100715, -29.8404572 ], [ -51.109983, -29.8403851 ], [ -51.1099072, -29.8403031 ], [ -51.1098435, -29.8401664 ], [ -51.1097724, -29.8399203 ], [ -51.109766, -29.839752 ], [ -51.109852, -29.839438 ], [ -51.110278, -29.838387 ], [ -51.1104718, -29.8379415 ], [ -51.1105147, -29.8377438 ], [ -51.1105147, -29.8376216 ], [ -51.1105107, -29.8374913 ], [ -51.1104611, -29.8373389 ], [ -51.1103806, -29.837211 ], [ -51.1102478, -29.8371191 ], [ -51.1100493, -29.8370365 ], [ -51.1092259, -29.836805 ], [ -51.1088115, -29.8366479 ], [ -51.1084561, -29.8364827 ], [ -51.108326, -29.8364071 ], [ -51.1081946, -29.8363024 ], [ -51.1080772, -29.8361645 ], [ -51.1075837, -29.83541880000001 ], [ -51.1073041, -29.8350751 ], [ -51.10708420000001, -29.8348796 ], [ -51.1069916, -29.8348075 ], [ -51.1068133, -29.8347272 ], [ -51.1058812, -29.834549200000016 ], [ -51.1057484, -29.8344852 ], [ -51.1056485, -29.8344335 ], [ -51.1054882, -29.8343026 ], [ -51.1050108, -29.8338256 ], [ -51.1048478, -29.8336908 ], [ -51.1047553, -29.8336883 ], [ -51.1046279, -29.8337104 ], [ -51.1037703, -29.8339067 ], [ -51.1029472, -29.8341995 ], [ -51.1025137, -29.8343323 ], [ -51.1021033, -29.8345062 ], [ -51.1018153, -29.8346691 ], [ -51.1014617, -29.8349727 ], [ -51.1012845, -29.8351692 ], [ -51.1011518, -29.8353482 ], [ -51.1011233, -29.8354092 ], [ -51.1011156, -29.8354921 ], [ -51.1011364, -29.8356027 ], [ -51.1013439, -29.836091 ], [ -51.1013694, -29.8362154 ], [ -51.1013945, -29.837382 ], [ -51.1013818, -29.8375373 ], [ -51.1012688, -29.837858700000016 ], [ -51.1011866, -29.837984 ], [ -51.1007977, -29.8384025 ], [ -51.1001292, -29.8390833 ], [ -51.0999173, -29.8392386 ], [ -51.0997081, -29.8393491 ], [ -51.0993688, -29.8394608 ], [ -51.0981645, -29.8399558 ], [ -51.0980786, -29.8400067 ] ] ] } },
{ "type": "Feature", "properties": { "name": "Passo Sapucaia", "code_muni": 4320008.0, "name_muni": "Sapucaia do Sul" }, "geometry": { "type": "Polygon", "coordinates": [ [ [ -51.1035485, -29.86087 ], [ -51.1036769, -29.8610562 ], [ -51.1037457, -29.861156 ], [ -51.1038706, -29.8615641 ], [ -51.1038984, -29.861655 ], [ -51.1041001, -29.8623139 ], [ -51.104292, -29.862701 ], [ -51.1045193, -29.8629391 ], [ -51.1045847, -29.8630624 ], [ -51.104921, -29.8635732 ], [ -51.1050996, -29.8639215 ], [ -51.1052039, -29.8642815 ], [ -51.1051362, -29.8645112 ], [ -51.1051161, -29.8648421 ], [ -51.1051879, -29.8653847 ], [ -51.1052668, -29.8656707 ], [ -51.105577, -29.8655915 ], [ -51.1063244, -29.8653747 ], [ -51.1072161, -29.8650984 ], [ -51.1083817, -29.8646862 ], [ -51.1089225, -29.8646525 ], [ -51.1093417, -29.86457510000001 ], [ -51.1100078, -29.8643879 ], [ -51.1111264, -29.8639343 ], [ -51.1124401, -29.8634987 ], [ -51.1125501, -29.8634622 ], [ -51.1132693, -29.863191900000011 ], [ -51.113459885443646, -29.863116702055667 ], [ -51.119072059, -29.859074359 ], [ -51.119662306623809, -29.858998892810789 ], [ -51.1196644, -29.8589984 ], [ -51.11983, -29.8589703 ], [ -51.121674, -29.8587006 ], [ -51.1216747, -29.8585896 ], [ -51.1217059, -29.8583791 ], [ -51.1220238, -29.857916 ], [ -51.1220471, -29.8576663 ], [ -51.122086, -29.8573154 ], [ -51.1215144, -29.8556306 ], [ -51.11821, -29.8536766 ], [ -51.1076528, -29.8595107 ], [ -51.1063197, -29.8593525 ], [ -51.1062497, -29.8592956 ], [ -51.1061603, -29.859304 ], [ -51.1059992, -29.8592887 ], [ -51.10334, -29.8589644 ], [ -51.1035485, -29.86087 ] ] ] } },
{ "type": "Feature", "properties": { "name": "Kurashiki", "code_muni": 4320008.0, "name_muni": "Sapucaia do Sul" }, "geometry": { "type": "Polygon", "coordinates": [ [ [ -51.1617931, -29.8192499 ], [ -51.1620228, -29.8191361 ], [ -51.1625536, -29.8188391 ], [ -51.1626395, -29.8187912 ], [ -51.1630057, -29.81859 ], [ -51.163922, -29.8180726 ], [ -51.1644204, -29.8177952 ], [ -51.1648572, -29.817607399999989 ], [ -51.1651651, -29.8175101 ], [ -51.1655818, -29.8174219 ], [ -51.1664329, -29.8172389 ], [ -51.1665285, -29.8172183 ], [ -51.1671376, -29.8170873 ], [ -51.1683256, -29.8168318 ], [ -51.1691361, -29.8166575 ], [ -51.169496, -29.8165801 ], [ -51.1694335, -29.816382199999978 ], [ -51.1688261, -29.8142106 ], [ -51.1687436, -29.8139141 ], [ -51.1686046, -29.8134297 ], [ -51.1685874, -29.8133525 ], [ -51.1685537, -29.8132051 ], [ -51.1678279, -29.8106225 ], [ -51.1663732, -29.8110221 ], [ -51.1661192, -29.8111193 ], [ -51.1658824, -29.8112276 ], [ -51.1656865, -29.8113584 ], [ -51.1655186, -29.811575 ], [ -51.1653356, -29.8119542 ], [ -51.1651052, -29.8122568 ], [ -51.1649222, -29.8124007 ], [ -51.1645961, -29.8126233 ], [ -51.1644016, -29.8127338 ], [ -51.164242, -29.8128071 ], [ -51.1641562, -29.8128432 ], [ -51.1638357, -29.8129363 ], [ -51.1635406, -29.8129712 ], [ -51.1630712, -29.812961899999987 ], [ -51.1627078, -29.8129188 ], [ -51.1620775, -29.8127932 ], [ -51.1620185, -29.812778 ], [ -51.1619407, -29.8135076 ], [ -51.161938, -29.8135891 ], [ -51.161876, -29.8142642 ], [ -51.1618361, -29.8147713 ], [ -51.1618173, -29.8149598 ], [ -51.1617392, -29.815701799999989 ], [ -51.1616753, -29.8163702 ], [ -51.1616154, -29.8169963 ], [ -51.1615773, -29.8173207 ], [ -51.1615597, -29.8175787 ], [ -51.1613931, -29.8194155 ], [ -51.1617931, -29.8192499 ] ] ] } },
{ "type": "Feature", "properties": { "name": "Silva", "code_muni": 4320008.0, "name_muni": "Sapucaia do Sul" }, "geometry": { "type": "Polygon", "coordinates": [ [ [ -51.1657284, -29.8260031 ], [ -51.1650467, -29.8255584 ], [ -51.1643279, -29.8251523 ], [ -51.164415, -29.825012699999984 ], [ -51.1636841, -29.8246101 ], [ -51.1629559, -29.8241971 ], [ -51.1623531, -29.8238696 ], [ -51.1622076, -29.8240575 ], [ -51.1620855, -29.8240645 ], [ -51.1614455, -29.8238082 ], [ -51.1606721, -29.8234939 ], [ -51.1598736, -29.8231655 ], [ -51.1598053, -29.8232918 ], [ -51.1590453, -29.8246718 ], [ -51.1587313, -29.8252527 ], [ -51.1580334, -29.8265962 ], [ -51.1578637, -29.8269033 ], [ -51.1575432, -29.8275246 ], [ -51.1573876, -29.8277654 ], [ -51.1571516, -29.8280423 ], [ -51.1573355, -29.8280932 ], [ -51.1580991, -29.8282913 ], [ -51.1589022, -29.8285235 ], [ -51.1595266, -29.8287806 ], [ -51.1600647, -29.8290537 ], [ -51.1602603, -29.829172 ], [ -51.1606891, -29.8294532 ], [ -51.160924, -29.8296431 ], [ -51.1611691, -29.8298432 ], [ -51.1615619, -29.8301855 ], [ -51.1620629, -29.830629100000014 ], [ -51.1621822, -29.8307347 ], [ -51.1626669, -29.8311928 ], [ -51.1628083, -29.8313089 ], [ -51.1628611, -29.8312574 ], [ -51.1640543, -29.8296316 ], [ -51.1649153, -29.8284868 ], [ -51.1657975, -29.8273069 ], [ -51.1658782, -29.8272163 ], [ -51.1659745, -29.8271393 ], [ -51.1660496, -29.8270975 ], [ -51.1664674, -29.8269739 ], [ -51.1659841, -29.825684 ], [ -51.1657284, -29.8260031 ] ] ] } },
{ "type": "Feature", "properties": { "name": "Getulio Vargas", "code_muni": 4320008.0, "name_muni": "Sapucaia do Sul" }, "geometry": { "type": "Polygon", "coordinates": [ [ [ -51.16553, -29.8313557 ], [ -51.1657542, -29.8312 ], [ -51.1660185, -29.8310081 ], [ -51.1661629, -29.8309032 ], [ -51.1670248, -29.8302056 ], [ -51.1673456, -29.8299523 ], [ -51.167699, -29.8297043 ], [ -51.1683783, -29.8292262 ], [ -51.1688457, -29.8288972 ], [ -51.1692437, -29.8285843 ], [ -51.1695328, -29.8283819 ], [ -51.1701778, -29.8280563 ], [ -51.170733, -29.8277701 ], [ -51.1709972, -29.827643299999988 ], [ -51.1712426, -29.8275583 ], [ -51.1719453, -29.8273745 ], [ -51.1724925, -29.8272698 ], [ -51.1717629, -29.8245764 ], [ -51.1718152, -29.8248114 ], [ -51.1718233, -29.8249441 ], [ -51.1718176, -29.8251372 ], [ -51.1717799, -29.825273 ], [ -51.1717294, -29.8253978 ], [ -51.1706554, -29.8257355 ], [ -51.168209, -29.8264577 ], [ -51.1673293, -29.8267137 ], [ -51.1672086, -29.82675320000001 ], [ -51.1664674, -29.8269739 ], [ -51.1660496, -29.8270975 ], [ -51.1659745, -29.8271393 ], [ -51.1658782, -29.8272163 ], [ -51.1657975, -29.8273069 ], [ -51.1649153, -29.8284868 ], [ -51.1640543, -29.8296316 ], [ -51.1628611, -29.8312574 ], [ -51.1628083, -29.8313089 ], [ -51.163034, -29.8315003 ], [ -51.1636246, -29.8318938 ], [ -51.163874, -29.8320348 ], [ -51.1640314, -29.8321095 ], [ -51.1643359, -29.8322527 ], [ -51.16533050000001, -29.8314942 ], [ -51.16553, -29.8313557 ] ] ] } },
{ "type": "Feature", "properties": { "name": "Primor", "code_muni": 4320008.0, "name_muni": "Sapucaia do Sul" }, "geometry": { "type": "Polygon", "coordinates": [ [ [ -51.156811, -29.8283425 ], [ -51.1565481, -29.8285124 ], [ -51.1551863, -29.8292487 ], [ -51.1541009, -29.82987 ], [ -51.1532312, -29.8303651 ], [ -51.1526866, -29.8306413 ], [ -51.1522534, -29.8309059 ], [ -51.1524402, -29.8311699 ], [ -51.1525972, -29.8313917 ], [ -51.1526566, -29.831475 ], [ -51.1529127, -29.8318257 ], [ -51.1532088, -29.8321655 ], [ -51.1533295, -29.832269 ], [ -51.1533616, -29.8322886 ], [ -51.1535467, -29.8324016 ], [ -51.153658, -29.8324703 ], [ -51.1539115, -29.8326157 ], [ -51.1540309, -29.8326809 ], [ -51.1541918, -29.8327646 ], [ -51.1543272, -29.8328333 ], [ -51.1551659, -29.8332997 ], [ -51.1552108, -29.8333229 ], [ -51.1554725, -29.8334592 ], [ -51.1558038, -29.8336301 ], [ -51.1560149, -29.8337394 ], [ -51.1561002, -29.833783599999986 ], [ -51.1567902, -29.834140900000012 ], [ -51.1574373, -29.8344748 ], [ -51.1575206, -29.8345166 ], [ -51.15762010000001, -29.8345164 ], [ -51.1577003, -29.8344868 ], [ -51.1578455, -29.8343534 ], [ -51.1582776, -29.834899599999989 ], [ -51.1587476, -29.8355231 ], [ -51.158835544433607, -29.835721927098074 ], [ -51.15940951357333, -29.835500405443771 ], [ -51.1603163, -29.83490110000001 ], [ -51.1604911, -29.8347936 ], [ -51.1613633, -29.8342126 ], [ -51.1616423, -29.8340322 ], [ -51.1618367, -29.8339027 ], [ -51.1619901, -29.834014 ], [ -51.1622568, -29.8340407 ], [ -51.1624774, -29.834014 ], [ -51.1652525, -29.8332041 ], [ -51.165653, -29.8329989 ], [ -51.1655383, -29.832957 ], [ -51.1649009, -29.8327185 ], [ -51.1643586, -29.8325286 ], [ -51.1642178, -29.8324793 ], [ -51.163566, -29.832163 ], [ -51.1635085, -29.832128 ], [ -51.1631172, -29.831889600000011 ], [ -51.1628831, -29.8317434 ], [ -51.1627552, -29.8316504 ], [ -51.1624153, -29.8313695 ], [ -51.1623967, -29.8313474 ], [ -51.1623712, -29.8313313 ], [ -51.1619752, -29.8309843 ], [ -51.1618577, -29.8308787 ], [ -51.1615853, -29.830633899999984 ], [ -51.1610227, -29.8301312 ], [ -51.1605817, -29.8297388 ], [ -51.1603393, -29.8295398 ], [ -51.1602882, -29.8294979 ], [ -51.1600637, -29.829344 ], [ -51.1598513, -29.8292116 ], [ -51.1597356, -29.8291466 ], [ -51.1595205, -29.8290323 ], [ -51.1592572, -29.8289202 ], [ -51.159009, -29.8288218 ], [ -51.15886, -29.8287662 ], [ -51.1585252, -29.8286544 ], [ -51.1579295, -29.8285049 ], [ -51.1569297, -29.8282454 ], [ -51.156811, -29.8283425 ] ] ] } },
{ "type": "Feature", "properties": { "name": "Santa Catarina", "code_muni": 4320008.0, "name_muni": "Sapucaia do Sul" }, "geometry": { "type": "Polygon", "coordinates": [ [ [ -51.1580911, -29.8203778 ], [ -51.1580495, -29.8203895 ], [ -51.1575761, -29.8204948 ], [ -51.1562968, -29.8207095 ], [ -51.1555879, -29.820808 ], [ -51.1559457, -29.8215669 ], [ -51.155963, -29.8217736 ], [ -51.1559039, -29.8224582 ], [ -51.1558508, -29.8233496 ], [ -51.155789, -29.8240586 ], [ -51.1557434, -29.8241909 ], [ -51.1550696, -29.8248913 ], [ -51.15456540000001, -29.8254371 ], [ -51.1541126, -29.8259217 ], [ -51.1535922, -29.8264732 ], [ -51.1531094, -29.8269752 ], [ -51.154808, -29.82744550000001 ], [ -51.1552991, -29.8275601 ], [ -51.1563288, -29.827828 ], [ -51.1564227, -29.8278574 ], [ -51.1570041, -29.8280064 ], [ -51.1571516, -29.8280423 ], [ -51.1573876, -29.8277654 ], [ -51.1575432, -29.8275246 ], [ -51.1578637, -29.8269033 ], [ -51.1580334, -29.8265962 ], [ -51.1587313, -29.8252527 ], [ -51.1590453, -29.8246718 ], [ -51.1598053, -29.8232918 ], [ -51.1598736, -29.8231655 ], [ -51.1607471, -29.8215013 ], [ -51.1614183, -29.8201932 ], [ -51.1613917, -29.8196422 ], [ -51.1613931, -29.8194155 ], [ -51.1608676, -29.8195656 ], [ -51.1607975, -29.8195818 ], [ -51.1599987, -29.8197962 ], [ -51.1596803, -29.8198857 ], [ -51.1594556, -29.8199474 ], [ -51.15943990000001, -29.8200428 ], [ -51.1580911, -29.8203778 ] ] ] } },
{ "type": "Feature", "properties": { "name": "Centro", "code_muni": 4320008.0, "name_muni": "Sapucaia do Sul" }, "geometry": { "type": "Polygon", "coordinates": [ [ [ -51.1456469, -29.8207836 ], [ -51.145958, -29.8210322 ], [ -51.147193, -29.8220161 ], [ -51.1466244, -29.822584 ], [ -51.1460335, -29.8231563 ], [ -51.1456287, -29.823634 ], [ -51.1452451, -29.8242857 ], [ -51.1447637, -29.8250836 ], [ -51.1445276, -29.8255527 ], [ -51.1444893, -29.8256207 ], [ -51.1444384, -29.8257089 ], [ -51.1441645, -29.8261833 ], [ -51.1437508, -29.8269337 ], [ -51.143292, -29.8277147 ], [ -51.143081, -29.8281256 ], [ -51.1430499, -29.8289219 ], [ -51.1440053, -29.8288377 ], [ -51.1441728, -29.8288223 ], [ -51.1451876, -29.8287148 ], [ -51.1452009, -29.829003300000018 ], [ -51.1458839, -29.8289698 ], [ -51.1462165, -29.8289287 ], [ -51.1466829, -29.8288082 ], [ -51.1477709, -29.8284573 ], [ -51.1483384, -29.8282755 ], [ -51.1495451, -29.8278932 ], [ -51.1502637, -29.8285812 ], [ -51.150494, -29.8287976 ], [ -51.1505934, -29.8289083 ], [ -51.1507014, -29.8290179 ], [ -51.1509452, -29.8292541 ], [ -51.1512233, -29.8295234 ], [ -51.1514406, -29.8298105 ], [ -51.1517108, -29.8301675 ], [ -51.1521556, -29.8307728 ], [ -51.1522534, -29.8309059 ], [ -51.1526866, -29.8306413 ], [ -51.1532312, -29.8303651 ], [ -51.1541009, -29.82987 ], [ -51.1551863, -29.8292487 ], [ -51.1565481, -29.8285124 ], [ -51.156811, -29.8283425 ], [ -51.1569297, -29.8282454 ], [ -51.1562223, -29.828064299999987 ], [ -51.1552412, -29.827813 ], [ -51.1544045, -29.8275873 ], [ -51.1535493, -29.827376100000013 ], [ -51.1531641, -29.8272779 ], [ -51.1530134, -29.8272334 ], [ -51.1528221, -29.8271632 ], [ -51.1527802, -29.8271465 ], [ -51.1531094, -29.8269752 ], [ -51.1535922, -29.8264732 ], [ -51.1541126, -29.8259217 ], [ -51.15456540000001, -29.8254371 ], [ -51.1550696, -29.8248913 ], [ -51.1557434, -29.8241909 ], [ -51.155789, -29.8240586 ], [ -51.1558508, -29.8233496 ], [ -51.1559039, -29.8224582 ], [ -51.155963, -29.8217736 ], [ -51.1559457, -29.8215669 ], [ -51.1555879, -29.820808 ], [ -51.1547818, -29.8209189 ], [ -51.1547859, -29.8202063 ], [ -51.1545312, -29.8201912 ], [ -51.1511442, -29.8199911 ], [ -51.151028, -29.8199846 ], [ -51.1501256, -29.8199398 ], [ -51.1491399, -29.81986650000001 ], [ -51.149046, -29.8198107 ], [ -51.1493095, -29.8195285 ], [ -51.1483258, -29.8192696 ], [ -51.1476045, -29.8191035 ], [ -51.1474834, -29.819098 ], [ -51.1474142, -29.8191408 ], [ -51.1473548, -29.8192239 ], [ -51.1469686, -29.8198022 ], [ -51.1464941, -29.8196687 ], [ -51.1462515, -29.8201947 ], [ -51.1459138, -29.8205449 ], [ -51.1456469, -29.8207836 ] ] ] } },
{ "type": "Feature", "properties": { "name": "Jardim", "code_muni": 4320008.0, "name_muni": "Sapucaia do Sul" }, "geometry": { "type": "Polygon", "coordinates": [ [ [ -51.1453602, -29.8205198 ], [ -51.1447373, -29.8197901 ], [ -51.1441202, -29.8203827 ], [ -51.1437476, -29.820741699999985 ], [ -51.143666, -29.8208118 ], [ -51.1435721, -29.820903 ], [ -51.1434422, -29.8210223 ], [ -51.14286760000001, -29.8215511 ], [ -51.142482, -29.8219041 ], [ -51.1424051, -29.8220309 ], [ -51.1423567, -29.822105 ], [ -51.1420932, -29.8224874 ], [ -51.1419278, -29.8226827 ], [ -51.1415059, -29.8230972 ], [ -51.1408948, -29.8236976 ], [ -51.1407337, -29.8238464 ], [ -51.1396623, -29.8248358 ], [ -51.14016, -29.8253431 ], [ -51.1405159, -29.8260399 ], [ -51.1399129, -29.8261236 ], [ -51.1404081, -29.8270371 ], [ -51.139641, -29.8270557 ], [ -51.1398228, -29.8274276 ], [ -51.1400083, -29.8278096 ], [ -51.1401219, -29.8282965 ], [ -51.1403113, -29.8290834 ], [ -51.1401828, -29.8290949 ], [ -51.1401939, -29.829168599999988 ], [ -51.140766, -29.8290952 ], [ -51.1423007, -29.8289921 ], [ -51.1430499, -29.8289219 ], [ -51.143081, -29.8281256 ], [ -51.143292, -29.8277147 ], [ -51.1437508, -29.8269337 ], [ -51.1441645, -29.8261833 ], [ -51.1444384, -29.8257089 ], [ -51.1444893, -29.8256207 ], [ -51.1445276, -29.8255527 ], [ -51.1447637, -29.8250836 ], [ -51.1452451, -29.8242857 ], [ -51.1456287, -29.823634 ], [ -51.1460335, -29.8231563 ], [ -51.1466244, -29.822584 ], [ -51.147193, -29.8220161 ], [ -51.145958, -29.8210322 ], [ -51.1456469, -29.8207836 ], [ -51.1453602, -29.8205198 ] ] ] } },
{ "type": "Feature", "properties": { "name": "Sete", "code_muni": 4320008.0, "name_muni": "Sapucaia do Sul" }, "geometry": { "type": "Polygon", "coordinates": [ [ [ -51.1404081, -29.8270371 ], [ -51.1399129, -29.8261236 ], [ -51.1405159, -29.8260399 ], [ -51.14016, -29.8253431 ], [ -51.1396623, -29.8248358 ], [ -51.1393521, -29.8245214 ], [ -51.1391818, -29.8246831 ], [ -51.1390711, -29.8246626 ], [ -51.1389816, -29.8245907 ], [ -51.1386708, -29.8243431 ], [ -51.138534, -29.824289 ], [ -51.1384235, -29.8243098 ], [ -51.1380922, -29.8244285 ], [ -51.1378834, -29.8244785 ], [ -51.1377441, -29.8244723 ], [ -51.1371176, -29.8243598 ], [ -51.1369423, -29.8243556 ], [ -51.1368031, -29.824364 ], [ -51.1366494, -29.8244306 ], [ -51.1363374, -29.824618 ], [ -51.136102, -29.824859 ], [ -51.1358397, -29.8250371 ], [ -51.1357108, -29.825067899999986 ], [ -51.1354724, -29.825237 ], [ -51.1353459, -29.825322 ], [ -51.1348658, -29.8254761 ], [ -51.1346425, -29.8255136 ], [ -51.134364, -29.8256094 ], [ -51.1342176, -29.8256677 ], [ -51.1341528, -29.825701 ], [ -51.1339823, -29.8256948 ], [ -51.1337303, -29.8255823 ], [ -51.1334782, -29.8255198 ], [ -51.1333606, -29.8254365 ], [ -51.1333438, -29.8251825 ], [ -51.1333318, -29.8250762 ], [ -51.1332477, -29.8249242 ], [ -51.1331013, -29.8248721 ], [ -51.1329164, -29.8248534 ], [ -51.1326092, -29.8246264 ], [ -51.1323115, -29.8244806 ], [ -51.1320258, -29.8244514 ], [ -51.1316153, -29.8244952 ], [ -51.1312883, -29.824479699999987 ], [ -51.1309344, -29.8243286 ], [ -51.1308432, -29.8241238 ], [ -51.1306769, -29.8238678 ], [ -51.1304408, -29.8236537 ], [ -51.1300331, -29.8233745 ], [ -51.130119, -29.8247055 ], [ -51.12984, -29.8290491 ], [ -51.1301832, -29.829041 ], [ -51.1303054, -29.8290238 ], [ -51.1311505, -29.828913 ], [ -51.1312976, -29.8288931 ], [ -51.131513, -29.828864 ], [ -51.1317947, -29.828864 ], [ -51.131927, -29.828864 ], [ -51.1319828, -29.8288713 ], [ -51.132079, -29.828884 ], [ -51.1323261, -29.8289504 ], [ -51.132615, -29.829028 ], [ -51.1330243, -29.8290356 ], [ -51.133304, -29.8289974 ], [ -51.1335294, -29.8289382 ], [ -51.134279, -29.828759 ], [ -51.134381, -29.828719 ], [ -51.1344864, -29.828648 ], [ -51.134672, -29.828523 ], [ -51.134823, -29.828471 ], [ -51.134985, -29.828453 ], [ -51.1357311, -29.8284829 ], [ -51.136181, -29.828501 ], [ -51.136406, -29.828559 ], [ -51.1364679, -29.8285758 ], [ -51.1365625, -29.8286269 ], [ -51.1366949, -29.8287314 ], [ -51.1369527, -29.8289222 ], [ -51.137238, -29.8291334 ], [ -51.137393, -29.8292069 ], [ -51.1375132, -29.8292327 ], [ -51.137851, -29.8292738 ], [ -51.1381588, -29.8292873 ], [ -51.138702, -29.8292665 ], [ -51.1391585, -29.8292682 ], [ -51.1398829, -29.829197 ], [ -51.1400011, -29.8291862 ], [ -51.1401939, -29.829168599999988 ], [ -51.1401828, -29.8290949 ], [ -51.1403113, -29.8290834 ], [ -51.1401219, -29.8282965 ], [ -51.1400083, -29.8278096 ], [ -51.1398228, -29.8274276 ], [ -51.139641, -29.8270557 ], [ -51.1404081, -29.8270371 ] ] ] } },
{ "type": "Feature", "properties": { "name": "Lomba da Palmeira", "code_muni": 4320008.0, "name_muni": "Sapucaia do Sul" }, "geometry": { "type": "Polygon", "coordinates": [ [ [ -51.1296845, -29.8232861 ], [ -51.1292607, -29.8232535 ], [ -51.128751, -29.8232209 ], [ -51.1281341, -29.8230999 ], [ -51.1278123, -29.8228905 ], [ -51.1275172, -29.8226113 ], [ -51.1272812, -29.8223367 ], [ -51.1269271, -29.8221226 ], [ -51.1264229, -29.8219643 ], [ -51.1251354, -29.821862 ], [ -51.1247707, -29.8217223 ], [ -51.1243093, -29.8215176 ], [ -51.123848, -29.8211825 ], [ -51.1230648, -29.821229 ], [ -51.1204523, -29.8219085 ], [ -51.1201412, -29.8219085 ], [ -51.1195672, -29.821834 ], [ -51.119138, -29.8218527 ], [ -51.1188698, -29.821950400000013 ], [ -51.1186874, -29.8221645 ], [ -51.1184889, -29.8223599 ], [ -51.1182314, -29.8225275 ], [ -51.1180437, -29.8229277 ], [ -51.1180544, -29.8233187 ], [ -51.1177057, -29.8238259 ], [ -51.1173249, -29.8243192 ], [ -51.1172819, -29.8257526 ], [ -51.1171103, -29.8265717 ], [ -51.1164665, -29.8271116 ], [ -51.1154795, -29.8281168 ], [ -51.1146856, -29.8299783 ], [ -51.1145139, -29.8313557 ], [ -51.1150074, -29.8329193 ], [ -51.1156941, -29.8337756 ], [ -51.1174536, -29.8341851 ], [ -51.1183977, -29.8343154 ], [ -51.1195994, -29.8346318 ], [ -51.1202002, -29.8352647 ], [ -51.1203075, -29.835972 ], [ -51.1201787, -29.836791 ], [ -51.1233497, -29.835371 ], [ -51.1236549, -29.8354454 ], [ -51.1244044, -29.8355938 ], [ -51.1251646, -29.8357006 ], [ -51.1268225, -29.8358219 ], [ -51.1278161, -29.8353804 ], [ -51.1278483, -29.8353868 ], [ -51.1278813, -29.8353852 ], [ -51.12793, -29.8353716 ], [ -51.1279515, -29.8353568 ], [ -51.1285768, -29.835269900000011 ], [ -51.1289675, -29.8352145 ], [ -51.1292293, -29.8351287 ], [ -51.1295071, -29.8349994 ], [ -51.1298552, -29.8348554 ], [ -51.1300064, -29.8347889 ], [ -51.1301022, -29.8347639 ], [ -51.1306769, -29.834743599999989 ], [ -51.131062300000011, -29.8347446 ], [ -51.1313443, -29.8347252 ], [ -51.1315423, -29.8346735 ], [ -51.1316456, -29.8346624 ], [ -51.1317925, -29.8346264 ], [ -51.1320416, -29.8345451 ], [ -51.1321829, -29.8344887 ], [ -51.1325559, -29.833928 ], [ -51.1326371, -29.83377680000001 ], [ -51.132698, -29.8336184 ], [ -51.1328765, -29.8326091 ], [ -51.132889, -29.8325653 ], [ -51.1330444, -29.8322003 ], [ -51.1333164, -29.8315469 ], [ -51.1333696, -29.831421399999989 ], [ -51.1335198, -29.8308831 ], [ -51.1336531, -29.830411 ], [ -51.1337484, -29.8299334 ], [ -51.1337702, -29.8298683 ], [ -51.1338626, -29.8297214 ], [ -51.1341707, -29.82939 ], [ -51.1342878, -29.8292083 ], [ -51.1343907, -29.8288801 ], [ -51.1344864, -29.828648 ], [ -51.134381, -29.828719 ], [ -51.134279, -29.828759 ], [ -51.1335294, -29.8289382 ], [ -51.133304, -29.8289974 ], [ -51.1330243, -29.8290356 ], [ -51.132615, -29.829028 ], [ -51.1323261, -29.8289504 ], [ -51.132079, -29.828884 ], [ -51.1319828, -29.8288713 ], [ -51.131927, -29.828864 ], [ -51.1317947, -29.828864 ], [ -51.131513, -29.828864 ], [ -51.1312976, -29.8288931 ], [ -51.1311505, -29.828913 ], [ -51.1303054, -29.8290238 ], [ -51.1301832, -29.829041 ], [ -51.12984, -29.8290491 ], [ -51.130119, -29.8247055 ], [ -51.1300331, -29.8233745 ], [ -51.1296845, -29.8232861 ] ] ] } },
{ "type": "Feature", "properties": { "name": "Ipiranga", "code_muni": 4320008.0, "name_muni": "Sapucaia do Sul" }, "geometry": { "type": "Polygon", "coordinates": [ [ [ -51.1166503, -29.8400111 ], [ -51.1158227, -29.840451 ], [ -51.1168005, -29.8413244 ], [ -51.1171371, -29.8417281 ], [ -51.117121, -29.8424586 ], [ -51.1172095, -29.8428262 ], [ -51.1175126, -29.8433939 ], [ -51.11799, -29.8436591 ], [ -51.1184514, -29.8437615 ], [ -51.1197229, -29.843721 ], [ -51.1202248, -29.843696 ], [ -51.1205158, -29.843696 ], [ -51.1209189, -29.843662 ], [ -51.120973, -29.84366 ], [ -51.121663, -29.8435807 ], [ -51.1220205, -29.8436888 ], [ -51.1222284, -29.8439773 ], [ -51.1224695, -29.8443378 ], [ -51.1227521, -29.8446046 ], [ -51.1231512, -29.844885900000012 ], [ -51.1234265, -29.8451395 ], [ -51.1234618, -29.8454709 ], [ -51.1236205, -29.845889 ], [ -51.1239556, -29.846072599999989 ], [ -51.1242907, -29.8462918 ], [ -51.1246165, -29.8462851 ], [ -51.1256404, -29.8459464 ], [ -51.1260224, -29.8458169 ], [ -51.1262086, -29.845752499999985 ], [ -51.1270265, -29.8454966 ], [ -51.1273898, -29.845433799999984 ], [ -51.1278647, -29.8453832 ], [ -51.1283613, -29.8453321 ], [ -51.1287317, -29.8453093 ], [ -51.1303481, -29.8452524 ], [ -51.1301206, -29.8443866 ], [ -51.1301129, -29.84436 ], [ -51.1300118, -29.8438952 ], [ -51.1299798, -29.843708 ], [ -51.1299403, -29.8436538 ], [ -51.1298583, -29.8434053 ], [ -51.1297249, -29.8428549 ], [ -51.1294745, -29.8419051 ], [ -51.1291169, -29.8405322 ], [ -51.1291462, -29.8404707 ], [ -51.1289763, -29.839879 ], [ -51.1287557, -29.838971600000015 ], [ -51.1287155, -29.8388926 ], [ -51.1286947, -29.8388443 ], [ -51.1284091, -29.8377484 ], [ -51.1283387, -29.8374895 ], [ -51.1282511, -29.8371328 ], [ -51.1281201, -29.8366491 ], [ -51.1279701, -29.836059 ], [ -51.1278161, -29.8353804 ], [ -51.1268225, -29.8358219 ], [ -51.1251646, -29.8357006 ], [ -51.1244044, -29.8355938 ], [ -51.1236549, -29.8354454 ], [ -51.1233497, -29.835371 ], [ -51.1201787, -29.836791 ], [ -51.1159703, -29.8387816 ], [ -51.11618, -29.83936 ], [ -51.1162688, -29.839513 ], [ -51.1164211, -29.8397398 ], [ -51.116511, -29.8398467 ], [ -51.116617, -29.839969 ], [ -51.1166503, -29.8400111 ] ] ] } },
{ "type": "Feature", "properties": { "name": "Pasqualini", "code_muni": 4320008.0, "name_muni": "Sapucaia do Sul" }, "geometry": { "type": "Polygon", "coordinates": [ [ [ -51.1343907, -29.8288801 ], [ -51.1342878, -29.8292083 ], [ -51.1341707, -29.82939 ], [ -51.1338626, -29.8297214 ], [ -51.1337702, -29.8298683 ], [ -51.1337484, -29.8299334 ], [ -51.1336531, -29.830411 ], [ -51.1335198, -29.8308831 ], [ -51.1333696, -29.831421399999989 ], [ -51.1333164, -29.8315469 ], [ -51.1330444, -29.8322003 ], [ -51.132889, -29.8325653 ], [ -51.1328765, -29.8326091 ], [ -51.132698, -29.8336184 ], [ -51.1326371, -29.83377680000001 ], [ -51.1325559, -29.833928 ], [ -51.1321829, -29.8344887 ], [ -51.1320416, -29.8345451 ], [ -51.1317925, -29.8346264 ], [ -51.1316456, -29.8346624 ], [ -51.1315423, -29.8346735 ], [ -51.1313443, -29.8347252 ], [ -51.131062300000011, -29.8347446 ], [ -51.1306769, -29.834743599999989 ], [ -51.1301022, -29.8347639 ], [ -51.1300064, -29.8347889 ], [ -51.1298552, -29.8348554 ], [ -51.1295071, -29.8349994 ], [ -51.1292293, -29.8351287 ], [ -51.1289675, -29.8352145 ], [ -51.1285768, -29.835269900000011 ], [ -51.1279515, -29.8353568 ], [ -51.12793, -29.8353716 ], [ -51.1278813, -29.8353852 ], [ -51.1278483, -29.8353868 ], [ -51.1278161, -29.8353804 ], [ -51.1279701, -29.836059 ], [ -51.1281201, -29.8366491 ], [ -51.1282511, -29.8371328 ], [ -51.1283387, -29.8374895 ], [ -51.1284091, -29.8377484 ], [ -51.1286947, -29.8388443 ], [ -51.1287155, -29.8388926 ], [ -51.1287557, -29.838971600000015 ], [ -51.1289763, -29.839879 ], [ -51.1291462, -29.8404707 ], [ -51.1294363, -29.8405206 ], [ -51.1298051, -29.8406255 ], [ -51.1299039, -29.8406425 ], [ -51.1304524, -29.8407367 ], [ -51.1310128, -29.8408314 ], [ -51.1315574, -29.8409264 ], [ -51.1318879, -29.8409839 ], [ -51.1319939, -29.8410035 ], [ -51.1321744, -29.8410323 ], [ -51.1329726, -29.8411904 ], [ -51.1331169, -29.8412148 ], [ -51.1332508, -29.8412409 ], [ -51.1335371, -29.8412928 ], [ -51.1345406, -29.8414804 ], [ -51.1345906, -29.8414899 ], [ -51.1350998, -29.8415866 ], [ -51.1359239, -29.8417432 ], [ -51.1361908, -29.8417932 ], [ -51.1366904, -29.8418898 ], [ -51.1365191, -29.8404288 ], [ -51.1373963, -29.8403503 ], [ -51.1378791, -29.8402736 ], [ -51.1384127, -29.840192 ], [ -51.1389439, -29.8401107 ], [ -51.1388474, -29.8395081 ], [ -51.1388174, -29.8393643 ], [ -51.1386007, -29.8381829 ], [ -51.1384794, -29.8375402 ], [ -51.138332, -29.8367433 ], [ -51.1380585, -29.8353012 ], [ -51.138035, -29.835151 ], [ -51.1379269, -29.8345993 ], [ -51.1378598, -29.8341618 ], [ -51.1376323, -29.8329713 ], [ -51.1375653, -29.83262 ], [ -51.1375695, -29.832593 ], [ -51.1375934, -29.832537299999988 ], [ -51.1371812, -29.8298247 ], [ -51.137238, -29.8291334 ], [ -51.1369527, -29.8289222 ], [ -51.1366949, -29.8287314 ], [ -51.1365625, -29.8286269 ], [ -51.1364679, -29.8285758 ], [ -51.136406, -29.828559 ], [ -51.136181, -29.828501 ], [ -51.1357311, -29.8284829 ], [ -51.134985, -29.828453 ], [ -51.134823, -29.828471 ], [ -51.134672, -29.828523 ], [ -51.1344864, -29.828648 ], [ -51.1343907, -29.8288801 ] ] ] } },
{ "type": "Feature", "properties": { "name": "Camboim", "code_muni": 4320008.0, "name_muni": "Sapucaia do Sul" }, "geometry": { "type": "Polygon", "coordinates": [ [ [ -51.1378598, -29.8341618 ], [ -51.1386245, -29.8341055 ], [ -51.1396475, -29.8339732 ], [ -51.1396766, -29.8339412 ], [ -51.1400418, -29.8335125 ], [ -51.1400298, -29.8332027 ], [ -51.1409631, -29.8331881 ], [ -51.1412689, -29.8334417 ], [ -51.1413614, -29.8335243 ], [ -51.1415912, -29.8333722 ], [ -51.1418891, -29.833218299999984 ], [ -51.1421567, -29.833118299999988 ], [ -51.1423337, -29.8330645 ], [ -51.1424783, -29.8330134 ], [ -51.1426618, -29.8329215 ], [ -51.1427961, -29.8328403 ], [ -51.1430411, -29.8327956 ], [ -51.1434265, -29.8326505 ], [ -51.1436916, -29.8325519 ], [ -51.14392990000001, -29.8323941 ], [ -51.144072, -29.8322147 ], [ -51.1441601, -29.8320574 ], [ -51.1442203, -29.8318822 ], [ -51.144306, -29.831633 ], [ -51.1444782, -29.831179 ], [ -51.144513, -29.8310824 ], [ -51.1446837, -29.8306725 ], [ -51.1450699, -29.8300396 ], [ -51.1451251, -29.8299199 ], [ -51.1451901, -29.829779 ], [ -51.1452342, -29.8296809 ], [ -51.1452466, -29.8295385 ], [ -51.1452305, -29.829354699999989 ], [ -51.1452009, -29.829003300000018 ], [ -51.1451876, -29.8287148 ], [ -51.1441728, -29.8288223 ], [ -51.1440053, -29.8288377 ], [ -51.1430499, -29.8289219 ], [ -51.1423007, -29.8289921 ], [ -51.140766, -29.8290952 ], [ -51.1401939, -29.829168599999988 ], [ -51.1400011, -29.8291862 ], [ -51.1398829, -29.829197 ], [ -51.1391585, -29.8292682 ], [ -51.138702, -29.8292665 ], [ -51.1381588, -29.8292873 ], [ -51.137851, -29.8292738 ], [ -51.1375132, -29.8292327 ], [ -51.137393, -29.8292069 ], [ -51.137238, -29.8291334 ], [ -51.1371812, -29.8298247 ], [ -51.1375934, -29.832537299999988 ], [ -51.1375695, -29.832593 ], [ -51.1375653, -29.83262 ], [ -51.1376323, -29.8329713 ], [ -51.1378598, -29.8341618 ] ] ] } },
{ "type": "Feature", "properties": { "name": "Paraiso", "code_muni": 4320008.0, "name_muni": "Sapucaia do Sul" }, "geometry": { "type": "Polygon", "coordinates": [ [ [ -51.1452305, -29.829354699999989 ], [ -51.1452466, -29.8295385 ], [ -51.1452342, -29.8296809 ], [ -51.1451901, -29.829779 ], [ -51.1451251, -29.8299199 ], [ -51.1450699, -29.8300396 ], [ -51.1446837, -29.8306725 ], [ -51.144513, -29.8310824 ], [ -51.1444782, -29.831179 ], [ -51.144306, -29.831633 ], [ -51.1442203, -29.8318822 ], [ -51.1450581, -29.8320972 ], [ -51.1458824, -29.8322468 ], [ -51.1473634, -29.8325189 ], [ -51.1478282, -29.8330932 ], [ -51.1482191, -29.8329838 ], [ -51.1485972, -29.8328632 ], [ -51.1488825, -29.832731 ], [ -51.1491854, -29.8325662 ], [ -51.1494494, -29.832419 ], [ -51.1497496, -29.8322517 ], [ -51.1502054, -29.8319965 ], [ -51.1504152, -29.831885700000011 ], [ -51.1506841, -29.8317414 ], [ -51.1508028, -29.8317164 ], [ -51.150925, -29.8316505 ], [ -51.1516043, -29.8312825 ], [ -51.1522534, -29.8309059 ], [ -51.1521556, -29.8307728 ], [ -51.1517108, -29.8301675 ], [ -51.1514406, -29.8298105 ], [ -51.1512233, -29.8295234 ], [ -51.1509452, -29.8292541 ], [ -51.1507014, -29.8290179 ], [ -51.1505934, -29.8289083 ], [ -51.150494, -29.8287976 ], [ -51.1502637, -29.8285812 ], [ -51.1495451, -29.8278932 ], [ -51.1483384, -29.8282755 ], [ -51.1477709, -29.8284573 ], [ -51.1466829, -29.8288082 ], [ -51.1462165, -29.8289287 ], [ -51.1458839, -29.8289698 ], [ -51.1452009, -29.829003300000018 ], [ -51.1452305, -29.829354699999989 ] ] ] } },
{ "type": "Feature", "properties": { "name": "Horto Florestal", "code_muni": 4320008.0, "name_muni": "Sapucaia do Sul" }, "geometry": { "type": "Polygon", "coordinates": [ [ [ -51.141969, -29.8106497 ], [ -51.1454558, -29.8108359 ], [ -51.1461103, -29.8108592 ], [ -51.1457455, -29.8083131 ], [ -51.1453486, -29.8072286 ], [ -51.1468828, -29.8065723 ], [ -51.1475802, -29.8076429 ], [ -51.1487228, -29.8080013 ], [ -51.1495972, -29.8088391 ], [ -51.1528909, -29.808113 ], [ -51.1546826, -29.8105985 ], [ -51.1544338, -29.8117728 ], [ -51.1546296, -29.8117895 ], [ -51.1549389, -29.8118014 ], [ -51.1551584, -29.8118186 ], [ -51.1554018, -29.8118763 ], [ -51.1559839, -29.8119501 ], [ -51.157326, -29.8120996 ], [ -51.1581576, -29.812209 ], [ -51.1600565, -29.8124139 ], [ -51.1592451, -29.807608 ], [ -51.1593419, -29.8075924 ], [ -51.1601049, -29.80741 ], [ -51.1602809, -29.8073927 ], [ -51.1608162, -29.8073822 ], [ -51.161251, -29.8072971 ], [ -51.1616336, -29.8070985 ], [ -51.1633325, -29.8061129 ], [ -51.164176, -29.8056011 ], [ -51.1644571, -29.8054365 ], [ -51.1649906, -29.8051364 ], [ -51.1661135, -29.8044288 ], [ -51.165998, -29.803841 ], [ -51.1658748, -29.8032562 ], [ -51.1656702, -29.8021103 ], [ -51.1655192, -29.8012647 ], [ -51.16521434438377, -29.799158976394935 ], [ -51.162093979559089, -29.799143244243464 ], [ -51.1609341, -29.7998986 ], [ -51.1585517, -29.7996643 ], [ -51.155852744456553, -29.799111556368992 ], [ -51.146076441597309, -29.799061327956927 ], [ -51.1400727, -29.7992175 ], [ -51.141969, -29.8106497 ] ] ] } },
{ "type": "Feature", "properties": { "name": "Vargas", "code_muni": 4320008.0, "name_muni": "Sapucaia do Sul" }, "geometry": { "type": "Polygon", "coordinates": [ [ [ -51.1132073, -29.8052223 ], [ -51.1132302, -29.8056253 ], [ -51.1135369, -29.806165 ], [ -51.11373, -29.8064102 ], [ -51.1142956, -29.8065855 ], [ -51.1145692, -29.8066925 ], [ -51.1147316, -29.806740200000011 ], [ -51.1149206, -29.8067996 ], [ -51.1160535, -29.8071739 ], [ -51.116897, -29.8074264 ], [ -51.1170888, -29.8074485 ], [ -51.1177289, -29.807293 ], [ -51.1183977, -29.8072658 ], [ -51.1185305, -29.8073903 ], [ -51.1189127, -29.808699500000014 ], [ -51.1180437, -29.8113433 ], [ -51.118151, -29.8122462 ], [ -51.1171639, -29.8126931 ], [ -51.1165309, -29.8132702 ], [ -51.1154688, -29.8137915 ], [ -51.115222, -29.8143407 ], [ -51.1152864, -29.8147224 ], [ -51.1152434, -29.8151878 ], [ -51.1149967, -29.8156812 ], [ -51.1146748, -29.8158767 ], [ -51.1144602, -29.8161094 ], [ -51.114471, -29.8164259 ], [ -51.1144388, -29.8167331 ], [ -51.11534, -29.8169844 ], [ -51.1161983, -29.8171892 ], [ -51.1170566, -29.8174778 ], [ -51.1178398, -29.8178687 ], [ -51.1190254, -29.8186367 ], [ -51.1196852, -29.8189438 ], [ -51.1200392, -29.8191067 ], [ -51.1206293, -29.8192929 ], [ -51.1213374, -29.8195163 ], [ -51.1220241, -29.8197676 ], [ -51.1225498, -29.8200003 ], [ -51.1230004, -29.820354 ], [ -51.123848, -29.8211825 ], [ -51.1243093, -29.8215176 ], [ -51.1247707, -29.8217223 ], [ -51.1251354, -29.821862 ], [ -51.1264229, -29.8219643 ], [ -51.1269271, -29.8221226 ], [ -51.1272812, -29.8223367 ], [ -51.1275172, -29.8226113 ], [ -51.1278123, -29.8228905 ], [ -51.1281341, -29.8230999 ], [ -51.128751, -29.8232209 ], [ -51.1292607, -29.8232535 ], [ -51.1296845, -29.8232861 ], [ -51.1300331, -29.8233745 ], [ -51.1304408, -29.8236537 ], [ -51.1306769, -29.8238678 ], [ -51.1308432, -29.8241238 ], [ -51.1309344, -29.8243286 ], [ -51.1312883, -29.824479699999987 ], [ -51.1316153, -29.8244952 ], [ -51.1320258, -29.8244514 ], [ -51.1323115, -29.8244806 ], [ -51.1326092, -29.8246264 ], [ -51.1329164, -29.8248534 ], [ -51.1331013, -29.8248721 ], [ -51.1332477, -29.8249242 ], [ -51.1333318, -29.8250762 ], [ -51.1333438, -29.8251825 ], [ -51.1333606, -29.8254365 ], [ -51.1334782, -29.8255198 ], [ -51.1337303, -29.8255823 ], [ -51.1339823, -29.8256948 ], [ -51.1341528, -29.825701 ], [ -51.1342176, -29.8256677 ], [ -51.134364, -29.8256094 ], [ -51.1346425, -29.8255136 ], [ -51.1348658, -29.8254761 ], [ -51.1353459, -29.825322 ], [ -51.1354724, -29.825237 ], [ -51.1357108, -29.825067899999986 ], [ -51.1358397, -29.8250371 ], [ -51.136102, -29.824859 ], [ -51.1363374, -29.824618 ], [ -51.1366494, -29.8244306 ], [ -51.1368031, -29.824364 ], [ -51.1369423, -29.8243556 ], [ -51.1371176, -29.8243598 ], [ -51.1377441, -29.8244723 ], [ -51.1378834, -29.8244785 ], [ -51.1380922, -29.8244285 ], [ -51.1384235, -29.8243098 ], [ -51.138534, -29.824289 ], [ -51.1386708, -29.8243431 ], [ -51.1389816, -29.8245907 ], [ -51.1390711, -29.8246626 ], [ -51.1391818, -29.8246831 ], [ -51.1393521, -29.8245214 ], [ -51.1396623, -29.8248358 ], [ -51.1407337, -29.8238464 ], [ -51.1408948, -29.8236976 ], [ -51.1415059, -29.8230972 ], [ -51.1419278, -29.8226827 ], [ -51.1420932, -29.8224874 ], [ -51.1423567, -29.822105 ], [ -51.1424051, -29.8220309 ], [ -51.142482, -29.8219041 ], [ -51.14286760000001, -29.8215511 ], [ -51.1434422, -29.8210223 ], [ -51.1435721, -29.820903 ], [ -51.143666, -29.8208118 ], [ -51.1437476, -29.820741699999985 ], [ -51.1441202, -29.8203827 ], [ -51.1447373, -29.8197901 ], [ -51.1444437, -29.8194285 ], [ -51.14403, -29.8189189 ], [ -51.1439397, -29.8188016 ], [ -51.1438468, -29.818685 ], [ -51.1437, -29.81855 ], [ -51.143316, -29.8182796 ], [ -51.1420582, -29.8173659 ], [ -51.1414012, -29.8168896 ], [ -51.1406874, -29.8164065 ], [ -51.1398064, -29.8157481 ], [ -51.1392432, -29.8152381 ], [ -51.13864250000001, -29.8145719 ], [ -51.1382442, -29.814072 ], [ -51.138006, -29.8137706 ], [ -51.1374414, -29.8131329 ], [ -51.1369264, -29.8126628 ], [ -51.1366689, -29.812486 ], [ -51.1362459, -29.812288 ], [ -51.1358665, -29.8120743 ], [ -51.1356593, -29.8119282 ], [ -51.1353631, -29.8116787 ], [ -51.1351471, -29.811382 ], [ -51.1350206, -29.8111668 ], [ -51.1349011, -29.8109237 ], [ -51.1347852, -29.8105596 ], [ -51.1347248, -29.810186299999987 ], [ -51.1347324, -29.8098643 ], [ -51.134781, -29.8095539 ], [ -51.1348831, -29.8092294 ], [ -51.1350355, -29.8089256 ], [ -51.1352538, -29.8085342 ], [ -51.1353143, -29.8083819 ], [ -51.1353387, -29.8082196 ], [ -51.1353999, -29.8075501 ], [ -51.1354988, -29.8064681 ], [ -51.1355149, -29.8062075 ], [ -51.1355157, -29.8060382 ], [ -51.1355036, -29.8058657 ], [ -51.1354609, -29.8055604 ], [ -51.1354016, -29.805118 ], [ -51.1353468, -29.8047988 ], [ -51.1353078, -29.8045716 ], [ -51.135269, -29.8040414 ], [ -51.1352621, -29.8035792 ], [ -51.1352688, -29.803194 ], [ -51.1352769, -29.8027786 ], [ -51.135305, -29.8024942 ], [ -51.1353192, -29.8024087 ], [ -51.1354276, -29.8020402 ], [ -51.1355156, -29.8018023 ], [ -51.1357439, -29.8012032 ], [ -51.1357854, -29.8010859 ], [ -51.1358841, -29.8007426 ], [ -51.135927640771932, -29.800426701776875 ], [ -51.115466580979444, -29.803442699979339 ], [ -51.1133651, -29.804252 ], [ -51.1132073, -29.8052223 ] ] ] } },
{ "type": "Feature", "properties": { "name": "Piratini", "code_muni": 4320008.0, "name_muni": "Sapucaia do Sul" }, "geometry": { "type": "Polygon", "coordinates": [ [ [ -51.149046, -29.8198107 ], [ -51.1491399, -29.81986650000001 ], [ -51.1501256, -29.8199398 ], [ -51.151028, -29.8199846 ], [ -51.1511442, -29.8199911 ], [ -51.1545312, -29.8201912 ], [ -51.1547859, -29.8202063 ], [ -51.1547818, -29.8209189 ], [ -51.1555879, -29.820808 ], [ -51.1562968, -29.8207095 ], [ -51.1575761, -29.8204948 ], [ -51.1580495, -29.8203895 ], [ -51.1580911, -29.8203778 ], [ -51.15943990000001, -29.8200428 ], [ -51.1594556, -29.8199474 ], [ -51.159465, -29.8197676 ], [ -51.1594933, -29.8193882 ], [ -51.1595073, -29.8192483 ], [ -51.1595432, -29.818889 ], [ -51.1595345, -29.8187979 ], [ -51.1594707, -29.8187217 ], [ -51.1592303, -29.8186146 ], [ -51.158897, -29.8184103 ], [ -51.1584644, -29.8180277 ], [ -51.1583594, -29.8179348 ], [ -51.1579938, -29.8176243 ], [ -51.1578103, -29.8175119 ], [ -51.157568, -29.8174193 ], [ -51.1573134, -29.817313 ], [ -51.1570117, -29.8171339 ], [ -51.1565903, -29.8168451 ], [ -51.1564839, -29.8167745 ], [ -51.1567327, -29.8153913 ], [ -51.1567573, -29.8152548 ], [ -51.1570015, -29.8138971 ], [ -51.1570275, -29.813752900000011 ], [ -51.1571533, -29.8130534 ], [ -51.1572559, -29.8124832 ], [ -51.1573048, -29.8122113 ], [ -51.157326, -29.8120996 ], [ -51.1559839, -29.8119501 ], [ -51.1554018, -29.8118763 ], [ -51.1551584, -29.8118186 ], [ -51.1549389, -29.8118014 ], [ -51.1546296, -29.8117895 ], [ -51.1544338, -29.8117728 ], [ -51.1542629, -29.811773 ], [ -51.1541013, -29.8117794 ], [ -51.1539229, -29.8117994 ], [ -51.153464, -29.8118885 ], [ -51.1531954, -29.8120087 ], [ -51.153018, -29.8120881 ], [ -51.1526534, -29.8123691 ], [ -51.1523756, -29.8125595 ], [ -51.1517491, -29.8129158 ], [ -51.151519, -29.8131445 ], [ -51.1514351, -29.8131997 ], [ -51.1509704, -29.8135054 ], [ -51.148852, -29.8151837 ], [ -51.1486981, -29.8152697 ], [ -51.1485821, -29.815382 ], [ -51.1484519, -29.8154974 ], [ -51.1485665, -29.8155891 ], [ -51.1486357, -29.8156459 ], [ -51.1490926, -29.8160211 ], [ -51.1494631, -29.816462 ], [ -51.1497299, -29.8168413 ], [ -51.1499453, -29.817228 ], [ -51.1500356, -29.8174387 ], [ -51.1501335, -29.817667 ], [ -51.1502027, -29.817828399999986 ], [ -51.1502972, -29.8180456 ], [ -51.1503106, -29.8181817 ], [ -51.1502936, -29.8182842 ], [ -51.1502271, -29.8185024 ], [ -51.1500666, -29.8187321 ], [ -51.1498757, -29.8189677 ], [ -51.1497789, -29.8190636 ], [ -51.1493095, -29.8195285 ], [ -51.149046, -29.8198107 ] ] ] } },
{ "type": "Feature", "properties": { "name": "COHAB", "code_muni": 4320008.0, "name_muni": "Sapucaia do Sul" }, "geometry": { "type": "Polygon", "coordinates": [ [ [ -51.1649906, -29.8051364 ], [ -51.1644571, -29.8054365 ], [ -51.164176, -29.8056011 ], [ -51.1633325, -29.8061129 ], [ -51.1616336, -29.8070985 ], [ -51.161251, -29.8072971 ], [ -51.1608162, -29.8073822 ], [ -51.1602809, -29.8073927 ], [ -51.1601049, -29.80741 ], [ -51.1593419, -29.8075924 ], [ -51.1592451, -29.807608 ], [ -51.1600565, -29.8124139 ], [ -51.1581576, -29.812209 ], [ -51.157326, -29.8120996 ], [ -51.1573048, -29.8122113 ], [ -51.1572559, -29.8124832 ], [ -51.1571533, -29.8130534 ], [ -51.1570275, -29.813752900000011 ], [ -51.1570015, -29.8138971 ], [ -51.1567573, -29.8152548 ], [ -51.1567327, -29.8153913 ], [ -51.1564839, -29.8167745 ], [ -51.1565903, -29.8168451 ], [ -51.1570117, -29.8171339 ], [ -51.1573134, -29.817313 ], [ -51.157568, -29.8174193 ], [ -51.1578103, -29.8175119 ], [ -51.1579938, -29.8176243 ], [ -51.1583594, -29.8179348 ], [ -51.1584644, -29.8180277 ], [ -51.158897, -29.8184103 ], [ -51.1592303, -29.8186146 ], [ -51.1594707, -29.8187217 ], [ -51.1595345, -29.8187979 ], [ -51.1595432, -29.818889 ], [ -51.1595073, -29.8192483 ], [ -51.1594933, -29.8193882 ], [ -51.159465, -29.8197676 ], [ -51.1594556, -29.8199474 ], [ -51.1596803, -29.8198857 ], [ -51.1599987, -29.8197962 ], [ -51.1607975, -29.8195818 ], [ -51.1608676, -29.8195656 ], [ -51.1613931, -29.8194155 ], [ -51.1615597, -29.8175787 ], [ -51.1615773, -29.8173207 ], [ -51.1616154, -29.8169963 ], [ -51.1616753, -29.8163702 ], [ -51.1617392, -29.815701799999989 ], [ -51.1618173, -29.8149598 ], [ -51.1618361, -29.8147713 ], [ -51.161876, -29.8142642 ], [ -51.161938, -29.8135891 ], [ -51.1619407, -29.8135076 ], [ -51.1620185, -29.812778 ], [ -51.1620775, -29.8127932 ], [ -51.1627078, -29.8129188 ], [ -51.1630712, -29.812961899999987 ], [ -51.1635406, -29.8129712 ], [ -51.1638357, -29.8129363 ], [ -51.1641562, -29.8128432 ], [ -51.164242, -29.8128071 ], [ -51.1644016, -29.8127338 ], [ -51.1645961, -29.8126233 ], [ -51.1649222, -29.8124007 ], [ -51.1651052, -29.8122568 ], [ -51.1653356, -29.8119542 ], [ -51.1655186, -29.811575 ], [ -51.1656865, -29.8113584 ], [ -51.1658824, -29.8112276 ], [ -51.1661192, -29.8111193 ], [ -51.1663732, -29.8110221 ], [ -51.1678279, -29.8106225 ], [ -51.1677406, -29.8103194 ], [ -51.1676274, -29.8099267 ], [ -51.1674761, -29.8093851 ], [ -51.1670915, -29.807951 ], [ -51.1670118, -29.8076417 ], [ -51.1668354, -29.8071097 ], [ -51.1667375, -29.8067006 ], [ -51.1665874, -29.8061321 ], [ -51.1665026, -29.805811 ], [ -51.1663157, -29.8052064 ], [ -51.1661204, -29.8044724 ], [ -51.1661135, -29.8044288 ], [ -51.1649906, -29.8051364 ] ] ] } },
{ "type": "Feature", "properties": { "name": "Zoológico", "code_muni": 4320008.0, "name_muni": "Sapucaia do Sul" }, "geometry": { "type": "Polygon", "coordinates": [ [ [ -51.1905314, -29.7988811 ], [ -51.190581865947145, -29.798786541455371 ], [ -51.19127056, -29.79374636099989 ], [ -51.188102807806573, -29.79323038979652 ], [ -51.187855876841638, -29.793312229606478 ], [ -51.186635006891933, -29.794469711897062 ], [ -51.1866179, -29.7945093 ], [ -51.1862746, -29.7948817 ], [ -51.18616015945431, -29.794919894959769 ], [ -51.186015184, -29.795057339 ], [ -51.185952951459072, -29.794989051076595 ], [ -51.1857167, -29.7950679 ], [ -51.1851158, -29.7948072 ], [ -51.1849442, -29.7942858 ], [ -51.1852017, -29.7936005 ], [ -51.1860171, -29.7930791 ], [ -51.1897507, -29.7914553 ], [ -51.1921797, -29.7908818 ], [ -51.1941538, -29.7906062 ], [ -51.19472701804726, -29.790500338517525 ], [ -51.195127153282229, -29.790354823110935 ], [ -51.195378886568484, -29.790200087024576 ], [ -51.196415262488166, -29.788921483369389 ], [ -51.196457523638529, -29.788793098967886 ], [ -51.195095299370784, -29.78782635229388 ], [ -51.194355039026398, -29.787716355882186 ], [ -51.19394701618063, -29.787697358137304 ], [ -51.1926689, -29.7878501 ], [ -51.1914673, -29.7881778 ], [ -51.1901369, -29.788125699999988 ], [ -51.1890641, -29.7879395 ], [ -51.1877337, -29.7874553 ], [ -51.187561599093023, -29.787455300195248 ], [ -51.186378620306328, -29.7883193685214 ], [ -51.1861029, -29.7888184 ], [ -51.1856737, -29.7889227 ], [ -51.185533681060498, -29.788936511284611 ], [ -51.185469204999897, -29.788983604 ], [ -51.185421734558567, -29.788947553431431 ], [ -51.1849184, -29.7889972 ], [ -51.1844035, -29.7887737 ], [ -51.1839142, -29.7883119 ], [ -51.1838026, -29.787716 ], [ -51.1842146, -29.786933799999989 ], [ -51.1857167, -29.7854068 ], [ -51.1866608, -29.784587399999985 ], [ -51.1872015, -29.7841032 ], [ -51.1877337, -29.7839765 ], [ -51.1882315, -29.7840063 ], [ -51.1887207, -29.7842745 ], [ -51.188737968313923, -29.784288034875743 ], [ -51.191494341, -29.784579500999886 ], [ -51.191385187797927, -29.782917915347138 ], [ -51.1913815, -29.7829113 ], [ -51.1910124, -29.782442 ], [ -51.1909781, -29.781995 ], [ -51.1912957, -29.7816225 ], [ -51.1918707, -29.7814884 ], [ -51.192627842061043, -29.781549454025285 ], [ -51.194365276, -29.781161058999889 ], [ -51.194373759174191, -29.780587599481219 ], [ -51.1943426, -29.78052 ], [ -51.1938105, -29.7801177 ], [ -51.1935015, -29.7793281 ], [ -51.1937847, -29.7784043 ], [ -51.1943426, -29.7774507 ], [ -51.19442199603187, -29.777326704979689 ], [ -51.194439534567202, -29.776141027554537 ], [ -51.194354466443386, -29.776091798667807 ], [ -51.167823376999905, -29.790628203 ], [ -51.168178052, -29.793622287999909 ], [ -51.168106659735358, -29.793633168518546 ], [ -51.1682923, -29.7947533 ], [ -51.1649809, -29.7955818 ], [ -51.1651084, -29.796308 ], [ -51.1651541, -29.7965892 ], [ -51.1652229, -29.7970123 ], [ -51.1654222, -29.7981724 ], [ -51.16543870012714, -29.798269320283151 ], [ -51.165708090999892, -29.799161458999897 ], [ -51.165590482568625, -29.799160867820856 ], [ -51.1656877, -29.7997319 ], [ -51.1659643, -29.8013612 ], [ -51.1660801, -29.8020454 ], [ -51.166305, -29.8032119 ], [ -51.1663797, -29.8036518 ], [ -51.1664652, -29.8037592 ], [ -51.1665462, -29.803772 ], [ -51.1668062, -29.803782 ], [ -51.1671338, -29.803908 ], [ -51.1675576, -29.8039519 ], [ -51.1677498, -29.8042141 ], [ -51.1695189, -29.8042664 ], [ -51.1697979, -29.8042248 ], [ -51.1705144, -29.8041774 ], [ -51.1706914, -29.8042373 ], [ -51.1710421, -29.8045533 ], [ -51.1718052, -29.8041387 ], [ -51.1718511, -29.8040371 ], [ -51.1720154, -29.8039275 ], [ -51.17206740000001, -29.8037128 ], [ -51.1730457, -29.8032554 ], [ -51.1741052, -29.8026622 ], [ -51.1747999, -29.802253700000012 ], [ -51.1752971, -29.8018453 ], [ -51.1756079, -29.8016154 ], [ -51.1761339, -29.8013981 ], [ -51.1767767, -29.801304399999985 ], [ -51.1771917, -29.801302400000012 ], [ -51.1780262, -29.801355 ], [ -51.1784738, -29.8014284 ], [ -51.1787476, -29.8014906 ], [ -51.1794381, -29.8017766 ], [ -51.1795236, -29.8017921 ], [ -51.1804094, -29.8005543 ], [ -51.1804989, -29.8003583 ], [ -51.1805327, -29.8002843 ], [ -51.1809435, -29.7993843 ], [ -51.1810152, -29.7988474 ], [ -51.1811389, -29.798723 ], [ -51.1837471, -29.7976441 ], [ -51.1839831, -29.7978198 ], [ -51.1848109, -29.798508099999985 ], [ -51.1850582, -29.7986623 ], [ -51.1853366, -29.7987998 ], [ -51.1858776, -29.7990271 ], [ -51.1864088, -29.7991928 ], [ -51.18680040000001, -29.799314899999988 ], [ -51.1872298, -29.7994176 ], [ -51.1876751, -29.7994677 ], [ -51.1880444, -29.7994588 ], [ -51.1883882, -29.799408 ], [ -51.1899117, -29.798989 ], [ -51.1905314, -29.7988811 ] ] ] } },
{ "type": "Feature", "properties": { "name": "Carioca", "code_muni": 4320008.0, "name_muni": "Sapucaia do Sul" }, "geometry": { "type": "Polygon", "coordinates": [ [ [ -51.1899117, -29.798989 ], [ -51.1883882, -29.799408 ], [ -51.1880444, -29.7994588 ], [ -51.1876751, -29.7994677 ], [ -51.1872298, -29.7994176 ], [ -51.18680040000001, -29.799314899999988 ], [ -51.1864088, -29.7991928 ], [ -51.1858776, -29.7990271 ], [ -51.1853366, -29.7987998 ], [ -51.1850582, -29.7986623 ], [ -51.1848109, -29.798508099999985 ], [ -51.1839831, -29.7978198 ], [ -51.1837471, -29.7976441 ], [ -51.1811389, -29.798723 ], [ -51.1810152, -29.7988474 ], [ -51.1809435, -29.7993843 ], [ -51.1805327, -29.8002843 ], [ -51.1804989, -29.8003583 ], [ -51.1804094, -29.8005543 ], [ -51.1795236, -29.8017921 ], [ -51.1793819, -29.8061639 ], [ -51.1784959, -29.8067341 ], [ -51.1779293, -29.8069959 ], [ -51.1772452, -29.807385799999988 ], [ -51.1769501, -29.807624400000016 ], [ -51.1767913, -29.807680199999986 ], [ -51.177862, -29.8082313 ], [ -51.1824474, -29.8101642 ], [ -51.1876041, -29.8124464 ], [ -51.194440402010322, -29.816393130503954 ], [ -51.196461525530935, -29.814425799857947 ], [ -51.197260900000011, -29.8129277 ], [ -51.1976024, -29.8117429 ], [ -51.19786663994185, -29.810739848005042 ], [ -51.190714212365641, -29.801979047649326 ], [ -51.190609, -29.8019053 ], [ -51.190509770291953, -29.801728604073563 ], [ -51.190227142, -29.801382378999989 ], [ -51.190244403013246, -29.801256067557908 ], [ -51.1901927, -29.801164 ], [ -51.1900511, -29.8002016 ], [ -51.1903086, -29.799298499999985 ], [ -51.1905314, -29.7988811 ], [ -51.1899117, -29.798989 ] ] ] } },
{ "type": "Feature", "properties": { "name": "Colonial", "code_muni": 4320008.0, "name_muni": "Sapucaia do Sul" }, "geometry": { "type": "Polygon", "coordinates": [ [ [ -51.1769501, -29.807624400000016 ], [ -51.1772452, -29.807385799999988 ], [ -51.1779293, -29.8069959 ], [ -51.1784959, -29.8067341 ], [ -51.1793819, -29.8061639 ], [ -51.1795236, -29.8017921 ], [ -51.1794381, -29.8017766 ], [ -51.1787476, -29.8014906 ], [ -51.1784738, -29.8014284 ], [ -51.1780262, -29.801355 ], [ -51.1771917, -29.801302400000012 ], [ -51.1767767, -29.801304399999985 ], [ -51.1761339, -29.8013981 ], [ -51.1756079, -29.8016154 ], [ -51.1752971, -29.8018453 ], [ -51.1747999, -29.802253700000012 ], [ -51.1741052, -29.8026622 ], [ -51.1730457, -29.8032554 ], [ -51.17206740000001, -29.8037128 ], [ -51.1720154, -29.8039275 ], [ -51.1718511, -29.8040371 ], [ -51.1718052, -29.8041387 ], [ -51.1710421, -29.8045533 ], [ -51.1706914, -29.8042373 ], [ -51.1705144, -29.8041774 ], [ -51.1697979, -29.8042248 ], [ -51.1695189, -29.8042664 ], [ -51.1677498, -29.8042141 ], [ -51.1675576, -29.8039519 ], [ -51.1671338, -29.803908 ], [ -51.1668062, -29.803782 ], [ -51.1665462, -29.803772 ], [ -51.1664652, -29.8037592 ], [ -51.1663797, -29.8036518 ], [ -51.1664358, -29.8039032 ], [ -51.1665749, -29.8046121 ], [ -51.1666614, -29.8049734 ], [ -51.1667696, -29.8054055 ], [ -51.1669158, -29.805949 ], [ -51.1669598, -29.8061176 ], [ -51.1671227, -29.8066607 ], [ -51.1672917, -29.8072635 ], [ -51.1674339, -29.8077872 ], [ -51.1675905, -29.8083646 ], [ -51.1677598, -29.8090828 ], [ -51.1679686, -29.8098104 ], [ -51.1681366, -29.810431 ], [ -51.1683376, -29.810459399999989 ], [ -51.1684877, -29.8106144 ], [ -51.1685854, -29.8108051 ], [ -51.1686505, -29.8110487 ], [ -51.1688133, -29.8112606 ], [ -51.1690493, -29.8113488 ], [ -51.16925280000001, -29.8112923 ], [ -51.1697045, -29.8110311 ], [ -51.1701724, -29.8109039 ], [ -51.1709253, -29.8107239 ], [ -51.1715154, -29.8106815 ], [ -51.1721909, -29.810745 ], [ -51.1725449, -29.8107274 ], [ -51.1731144, -29.8105448 ], [ -51.1733085, -29.8104815 ], [ -51.1734528, -29.8103797 ], [ -51.1736439, -29.810100400000014 ], [ -51.1738384, -29.8096407 ], [ -51.1742005, -29.8093526 ], [ -51.1743213, -29.8093235 ], [ -51.1743414, -29.8091141 ], [ -51.17458280000001, -29.8088988 ], [ -51.1750757, -29.8087795 ], [ -51.1755384, -29.8085089 ], [ -51.1762963, -29.8079881 ], [ -51.1767913, -29.807680199999986 ], [ -51.1769501, -29.807624400000016 ] ] ] } },
{ "type": "Feature", "properties": { "name": "Fortuna", "code_muni": 4320008.0, "name_muni": "Sapucaia do Sul" }, "geometry": { "type": "Polygon", "coordinates": [ [ [ -51.1780152, -29.8112095 ], [ -51.1786133, -29.8117476 ], [ -51.1796198, -29.8121549 ], [ -51.180753, -29.8124656 ], [ -51.1851351, -29.8155078 ], [ -51.1838247, -29.8176 ], [ -51.1844721, -29.8186991 ], [ -51.1849871, -29.8198161 ], [ -51.1851158, -29.8207096 ], [ -51.1849013, -29.821566 ], [ -51.1844721, -29.822534 ], [ -51.1843863, -29.8232042 ], [ -51.184403886765331, -29.823233021183569 ], [ -51.185545023760078, -29.824366232634226 ], [ -51.1855879, -29.8243956 ], [ -51.186162477069793, -29.824533479327155 ], [ -51.190323667501822, -29.824737945811869 ], [ -51.190784084745822, -29.824594142035615 ], [ -51.190884756878162, -29.824483265929054 ], [ -51.1914244, -29.8236138 ], [ -51.1915102, -29.8222734 ], [ -51.1913815, -29.81989050000001 ], [ -51.192154, -29.8184012 ], [ -51.1936131, -29.8170608 ], [ -51.194062835659139, -29.816760635814607 ], [ -51.194440402010322, -29.816393130503954 ], [ -51.1876041, -29.8124464 ], [ -51.1824474, -29.8101642 ], [ -51.177862, -29.8082313 ], [ -51.1767913, -29.807680199999986 ], [ -51.1762963, -29.8079881 ], [ -51.1755384, -29.8085089 ], [ -51.1750757, -29.8087795 ], [ -51.17458280000001, -29.8088988 ], [ -51.1780152, -29.8112095 ] ] ] } },
{ "type": "Feature", "properties": { "name": "São Jorge", "code_muni": 4320008.0, "name_muni": "Sapucaia do Sul" }, "geometry": { "type": "Polygon", "coordinates": [ [ [ -51.1743414, -29.8091141 ], [ -51.1743213, -29.8093235 ], [ -51.1742005, -29.8093526 ], [ -51.1738384, -29.8096407 ], [ -51.1736439, -29.810100400000014 ], [ -51.1734528, -29.8103797 ], [ -51.1733085, -29.8104815 ], [ -51.1731144, -29.8105448 ], [ -51.1725449, -29.8107274 ], [ -51.1721909, -29.810745 ], [ -51.1715154, -29.8106815 ], [ -51.1709253, -29.8107239 ], [ -51.1701724, -29.8109039 ], [ -51.1697045, -29.8110311 ], [ -51.16925280000001, -29.8112923 ], [ -51.1690493, -29.8113488 ], [ -51.1688133, -29.8112606 ], [ -51.1686505, -29.8110487 ], [ -51.1685854, -29.8108051 ], [ -51.1684877, -29.8106144 ], [ -51.1683376, -29.810459399999989 ], [ -51.1681366, -29.810431 ], [ -51.1684249, -29.8115072 ], [ -51.1691317, -29.8139137 ], [ -51.1694697, -29.8151366 ], [ -51.1696427, -29.8157429 ], [ -51.1697097, -29.8160605 ], [ -51.1697754, -29.816310699999988 ], [ -51.1698646, -29.8166446 ], [ -51.1699294, -29.8168591 ], [ -51.1700557, -29.8173044 ], [ -51.1701995, -29.8178125 ], [ -51.1702967, -29.8181617 ], [ -51.170318, -29.818239799999986 ], [ -51.170378, -29.818446 ], [ -51.1704081, -29.818546799999986 ], [ -51.1705211, -29.818911299999989 ], [ -51.1706624, -29.8193507 ], [ -51.1708014, -29.819884 ], [ -51.1709758, -29.8204823 ], [ -51.1796066, -29.8217335 ], [ -51.1798257, -29.8214059 ], [ -51.1801806, -29.8211192 ], [ -51.1812964, -29.8205235 ], [ -51.1815997, -29.8201755 ], [ -51.1817255, -29.8197788 ], [ -51.1818114, -29.8184384 ], [ -51.1817684, -29.817395899999987 ], [ -51.1821976, -29.8167629 ], [ -51.1828413, -29.8166512 ], [ -51.1834851, -29.8170235 ], [ -51.1838247, -29.8176 ], [ -51.1851351, -29.8155078 ], [ -51.180753, -29.8124656 ], [ -51.1796198, -29.8121549 ], [ -51.1786133, -29.8117476 ], [ -51.1780152, -29.8112095 ], [ -51.17458280000001, -29.8088988 ], [ -51.1743414, -29.8091141 ] ] ] } },
{ "type": "Feature", "properties": { "name": "Três Portos", "code_muni": 4320008.0, "name_muni": "Sapucaia do Sul" }, "geometry": { "type": "Polygon", "coordinates": [ [ [ -51.1738196, -29.8304367 ], [ -51.1741922, -29.8303861 ], [ -51.1752126, -29.8302372 ], [ -51.1760074, -29.830118 ], [ -51.176117, -29.830101600000013 ], [ -51.1766582, -29.8300194 ], [ -51.1770353, -29.8299621 ], [ -51.1771916, -29.82993840000001 ], [ -51.1787523, -29.8297073 ], [ -51.1789029, -29.829685 ], [ -51.1789655, -29.829675699999989 ], [ -51.1790277, -29.8296665 ], [ -51.1793561, -29.8296504 ], [ -51.1794327, -29.8296467 ], [ -51.1798173, -29.8296517 ], [ -51.1798976, -29.8296566 ], [ -51.180449140806566, -29.829690603616662 ], [ -51.181065225626952, -29.829592810664966 ], [ -51.1813997, -29.8282676 ], [ -51.1823693, -29.8268901 ], [ -51.182995891226177, -29.826056559656678 ], [ -51.181459684956963, -29.824094708193222 ], [ -51.1805668, -29.8237627 ], [ -51.1796227, -29.8228691 ], [ -51.1795253, -29.822197 ], [ -51.1796066, -29.8217335 ], [ -51.1709758, -29.8204823 ], [ -51.1710937, -29.8208997 ], [ -51.1712064, -29.8212802 ], [ -51.1713257, -29.8216863 ], [ -51.1714079, -29.8220487 ], [ -51.1719251, -29.8238886 ], [ -51.172035, -29.8242706 ], [ -51.1720612, -29.8243771 ], [ -51.17217, -29.8247564 ], [ -51.1724183, -29.8256956 ], [ -51.1725041, -29.8260313 ], [ -51.1727257, -29.8267501 ], [ -51.1728447, -29.8271847 ], [ -51.1724925, -29.8272698 ], [ -51.1719453, -29.8273745 ], [ -51.1712426, -29.8275583 ], [ -51.1709972, -29.827643299999988 ], [ -51.170733, -29.8277701 ], [ -51.1701778, -29.8280563 ], [ -51.1695328, -29.8283819 ], [ -51.1692437, -29.8285843 ], [ -51.1688457, -29.8288972 ], [ -51.1683783, -29.8292262 ], [ -51.167699, -29.8297043 ], [ -51.1673456, -29.8299523 ], [ -51.1670248, -29.8302056 ], [ -51.1661629, -29.8309032 ], [ -51.1660185, -29.8310081 ], [ -51.1657542, -29.8312 ], [ -51.16553, -29.8313557 ], [ -51.16533050000001, -29.8314942 ], [ -51.1643359, -29.8322527 ], [ -51.1645846, -29.8323479 ], [ -51.1648582, -29.8324428 ], [ -51.1653626, -29.8326197 ], [ -51.1659067, -29.8327972 ], [ -51.166175897901851, -29.832888678040867 ], [ -51.17027991, -29.831304353 ], [ -51.1705671557079, -29.831258781595427 ], [ -51.17057470000001, -29.8312557 ], [ -51.1734499, -29.8304986 ], [ -51.1737232, -29.8304426 ], [ -51.1738196, -29.8304367 ] ] ] } },
{ "type": "Feature", "properties": { "name": "São José", "code_muni": 4320008.0, "name_muni": "Sapucaia do Sul" }, "geometry": { "type": "Polygon", "coordinates": [ [ [ -51.14403, -29.8189189 ], [ -51.1444437, -29.8194285 ], [ -51.1447373, -29.8197901 ], [ -51.1453602, -29.8205198 ], [ -51.1456469, -29.8207836 ], [ -51.1459138, -29.8205449 ], [ -51.1462515, -29.8201947 ], [ -51.1464941, -29.8196687 ], [ -51.1469686, -29.8198022 ], [ -51.1473548, -29.8192239 ], [ -51.1474142, -29.8191408 ], [ -51.1474834, -29.819098 ], [ -51.1476045, -29.8191035 ], [ -51.1483258, -29.8192696 ], [ -51.1493095, -29.8195285 ], [ -51.1497789, -29.8190636 ], [ -51.1498757, -29.8189677 ], [ -51.1500666, -29.8187321 ], [ -51.1502271, -29.8185024 ], [ -51.1502936, -29.8182842 ], [ -51.1503106, -29.8181817 ], [ -51.1502972, -29.8180456 ], [ -51.1502027, -29.817828399999986 ], [ -51.1501335, -29.817667 ], [ -51.1500356, -29.8174387 ], [ -51.1499453, -29.817228 ], [ -51.1497299, -29.8168413 ], [ -51.1494631, -29.816462 ], [ -51.1490926, -29.8160211 ], [ -51.1486357, -29.8156459 ], [ -51.1485665, -29.8155891 ], [ -51.1484519, -29.8154974 ], [ -51.1479235, -29.8150529 ], [ -51.1476901, -29.8147852 ], [ -51.1476204, -29.8146828 ], [ -51.1475399, -29.8144664 ], [ -51.1475064, -29.8143198 ], [ -51.1474906, -29.8141466 ], [ -51.1474885, -29.8140812 ], [ -51.1475278, -29.8137997 ], [ -51.1475386, -29.8137224 ], [ -51.1464536, -29.8135262 ], [ -51.1454558, -29.8108359 ], [ -51.141969, -29.8106497 ], [ -51.1400727, -29.7992175 ], [ -51.136704837159279, -29.799313075307854 ], [ -51.136613594, -29.800325533 ], [ -51.135927640771932, -29.800426701776875 ], [ -51.1358841, -29.8007426 ], [ -51.1357854, -29.8010859 ], [ -51.1357439, -29.8012032 ], [ -51.1355156, -29.8018023 ], [ -51.1354276, -29.8020402 ], [ -51.1353192, -29.8024087 ], [ -51.135305, -29.8024942 ], [ -51.1352769, -29.8027786 ], [ -51.1352688, -29.803194 ], [ -51.1352621, -29.8035792 ], [ -51.135269, -29.8040414 ], [ -51.1353078, -29.8045716 ], [ -51.1353468, -29.8047988 ], [ -51.1354016, -29.805118 ], [ -51.1354609, -29.8055604 ], [ -51.1355036, -29.8058657 ], [ -51.1355157, -29.8060382 ], [ -51.1355149, -29.8062075 ], [ -51.1354988, -29.8064681 ], [ -51.1353999, -29.8075501 ], [ -51.1353387, -29.8082196 ], [ -51.1353143, -29.8083819 ], [ -51.1352538, -29.8085342 ], [ -51.1350355, -29.8089256 ], [ -51.1348831, -29.8092294 ], [ -51.134781, -29.8095539 ], [ -51.1347324, -29.8098643 ], [ -51.1347248, -29.810186299999987 ], [ -51.1347852, -29.8105596 ], [ -51.1349011, -29.8109237 ], [ -51.1350206, -29.8111668 ], [ -51.1351471, -29.811382 ], [ -51.1353631, -29.8116787 ], [ -51.1356593, -29.8119282 ], [ -51.1358665, -29.8120743 ], [ -51.1362459, -29.812288 ], [ -51.1366689, -29.812486 ], [ -51.1369264, -29.8126628 ], [ -51.1374414, -29.8131329 ], [ -51.138006, -29.8137706 ], [ -51.1382442, -29.814072 ], [ -51.13864250000001, -29.8145719 ], [ -51.1392432, -29.8152381 ], [ -51.1398064, -29.8157481 ], [ -51.1406874, -29.8164065 ], [ -51.1414012, -29.8168896 ], [ -51.1420582, -29.8173659 ], [ -51.143316, -29.8182796 ], [ -51.1437, -29.81855 ], [ -51.1438468, -29.818685 ], [ -51.1439397, -29.8188016 ], [ -51.14403, -29.8189189 ] ] ] } },
{ "type": "Feature", "properties": { "name": "Freitas", "code_muni": 4320008.0, "name_muni": "Sapucaia do Sul" }, "geometry": { "type": "Polygon", "coordinates": [ [ [ -51.1485821, -29.815382 ], [ -51.1486981, -29.8152697 ], [ -51.148852, -29.8151837 ], [ -51.1509704, -29.8135054 ], [ -51.1514351, -29.8131997 ], [ -51.151519, -29.8131445 ], [ -51.1517491, -29.8129158 ], [ -51.1523756, -29.8125595 ], [ -51.1526534, -29.8123691 ], [ -51.153018, -29.8120881 ], [ -51.1531954, -29.8120087 ], [ -51.153464, -29.8118885 ], [ -51.1539229, -29.8117994 ], [ -51.1541013, -29.8117794 ], [ -51.1542629, -29.811773 ], [ -51.1544338, -29.8117728 ], [ -51.1546826, -29.8105985 ], [ -51.1528909, -29.808113 ], [ -51.1495972, -29.8088391 ], [ -51.1487228, -29.8080013 ], [ -51.1475802, -29.8076429 ], [ -51.1468828, -29.8065723 ], [ -51.1453486, -29.8072286 ], [ -51.1457455, -29.8083131 ], [ -51.1461103, -29.8108592 ], [ -51.1454558, -29.8108359 ], [ -51.1464536, -29.8135262 ], [ -51.1475386, -29.8137224 ], [ -51.1475278, -29.8137997 ], [ -51.1474885, -29.8140812 ], [ -51.1474906, -29.8141466 ], [ -51.1475064, -29.8143198 ], [ -51.1475399, -29.8144664 ], [ -51.1476204, -29.8146828 ], [ -51.1476901, -29.8147852 ], [ -51.1479235, -29.8150529 ], [ -51.1484519, -29.8154974 ], [ -51.1485821, -29.815382 ] ] ] } }
]
}
