{
"type": "FeatureCollection",
"name": "bairros_rolante",
"crs": { "type": "name", "properties": { "name": "urn:ogc:def:crs:OGC:1.3:CRS84" } },
"features": [
{ "type": "Feature", "properties": { "code_muni": 4316006.0, "name_muni": "Rolante", "code_state": 43.0, "abbrev_state": "RS", "name_state": "Rio Grande do Sul", "code_region": 4.0, "name_region": "Sul", "year": 2022.0 }, "geometry": { "type": "Polygon", "coordinates": [ [ [ -50.554836115999898, -29.53912786 ], [ -50.461073969, -29.538624092 ], [ -50.432887567, -29.53725762599991 ], [ -50.431233049999896, -29.541230625 ], [ -50.433791852999896, -29.543433261 ], [ -50.433724304, -29.55027874 ], [ -50.434996989, -29.551427841 ], [ -50.434654639, -29.552748885 ], [ -50.432279676, -29.553243220999899 ], [ -50.432417845, -29.556046505 ], [ -50.435190425, -29.556702038 ], [ -50.436737912, -29.559953602 ], [ -50.440479206, -29.559869933999899 ], [ -50.440080821, -29.562296325 ], [ -50.442573226, -29.561823482 ], [ -50.447155812999902, -29.564156994 ], [ -50.449452479999891, -29.563954345999896 ], [ -50.454174387, -29.568803292 ], [ -50.456723595, -29.568786020999887 ], [ -50.456355145, -29.571050832 ], [ -50.459560654, -29.573284554999905 ], [ -50.459749484, -29.575801523999893 ], [ -50.462464494, -29.575608088 ], [ -50.465950944, -29.577699036999899 ], [ -50.467579029, -29.582339193999903 ], [ -50.472870880999899, -29.583228077999898 ], [ -50.4717275369999, -29.585625300999904 ], [ -50.472851307, -29.589443355999908 ], [ -50.478012475, -29.588445663999892 ], [ -50.479671647, -29.589931550999903 ], [ -50.477733258999891, -29.591772644999899 ], [ -50.478706195, -29.593507810999895 ], [ -50.482795982, -29.594647700999889 ], [ -50.481532892, -29.598902138 ], [ -50.482897304999902, -29.600278064999898 ], [ -50.475530192, -29.6028272729999 ], [ -50.473671826, -29.600891762999893 ], [ -50.469949337999893, -29.600704084 ], [ -50.466474401, -29.605500833 ], [ -50.466148554, -29.608634954 ], [ -50.468216475, -29.612222727999892 ], [ -50.472287838999897, -29.614173206 ], [ -50.468379974999898, -29.620353941 ], [ -50.481323718999896, -29.624275804 ], [ -50.483242485999895, -29.627441900000012 ], [ -50.48270741999989, -29.628748295 ], [ -50.488497599, -29.631937843999893 ], [ -50.484911962, -29.634769525 ], [ -50.481826645999902, -29.635471364 ], [ -50.486275685, -29.636967117 ], [ -50.484304801, -29.641234616 ], [ -50.485881333999899, -29.643050887000012 ], [ -50.481760632, -29.648827167 ], [ -50.479552616, -29.656314616 ], [ -50.480337843, -29.657501141999902 ], [ -50.4768494899999, -29.659403406 ], [ -50.471985833, -29.659051906999899 ], [ -50.469493491, -29.664800971 ], [ -50.464862044, -29.669082656999898 ], [ -50.462949936, -29.677047264 ], [ -50.4527848399999, -29.67883545 ], [ -50.450235748999901, -29.677878817 ], [ -50.449343719, -29.679372133999902 ], [ -50.451803885999894, -29.682481310999897 ], [ -50.448987261999903, -29.683786547999905 ], [ -50.44669412199989, -29.688115717999906 ], [ -50.444377819, -29.688713323999899 ], [ -50.447665811, -29.693077238999894 ], [ -50.461129465999903, -29.695615906999898 ], [ -50.474070651, -29.691349277 ], [ -50.481302147999898, -29.691506784999902 ], [ -50.491548313999893, -29.68765709 ], [ -50.490776984999989, -29.690238608999898 ], [ -50.492116967, -29.696532003999895 ], [ -50.490171271999898, -29.699652064 ], [ -50.492957784999895, -29.700255461 ], [ -50.502177828, -29.694376685 ], [ -50.507420200999896, -29.695430023 ], [ -50.509833788, -29.699469656 ], [ -50.510429078, -29.705170076999895 ], [ -50.516012525999891, -29.707632307 ], [ -50.519870329, -29.706699995 ], [ -50.519158354999902, -29.711675269 ], [ -50.52577139999989, -29.718663555 ], [ -50.529602564999891, -29.714102754 ], [ -50.5397804, -29.716592779999893 ], [ -50.548096733, -29.712430443999899 ], [ -50.55263009, -29.717168381 ], [ -50.554149584999898, -29.721814885 ], [ -50.557445576, -29.724501 ], [ -50.557100302, -29.727550702 ], [ -50.563155117999891, -29.728204478999892 ], [ -50.5656063449999, -29.731763188999896 ], [ -50.572121293999892, -29.733809716999911 ], [ -50.573195493, -29.7232211319999 ], [ -50.57107909, -29.721525399 ], [ -50.571024322, -29.716142259 ], [ -50.574492969999895, -29.7108870009999 ], [ -50.586280648, -29.713068705999895 ], [ -50.592310692, -29.708546645999903 ], [ -50.603619055, -29.706699921999906 ], [ -50.608432185, -29.697198947999901 ], [ -50.624189588, -29.692155069 ], [ -50.630166097, -29.687941588999905 ], [ -50.631909682999897, -29.6839497879999 ], [ -50.637257333, -29.684372256 ], [ -50.644762098999891, -29.681524082 ], [ -50.65422827, -29.682164440999891 ], [ -50.684109546999892, -29.676826734 ], [ -50.676148612, -29.664850785999899 ], [ -50.670167724999892, -29.665028806999896 ], [ -50.667021661, -29.660228011 ], [ -50.668100446, -29.652125697 ], [ -50.666994142, -29.648647109 ], [ -50.664025487999901, -29.646467419 ], [ -50.662764167, -29.642452474999985 ], [ -50.651388888, -29.632502202999891 ], [ -50.65121624599989, -29.627804583999897 ], [ -50.64697142499989, -29.626842274 ], [ -50.647043342, -29.623899294999894 ], [ -50.644390216, -29.621122140999905 ], [ -50.642980936, -29.6211786759999 ], [ -50.641629238, -29.617790543 ], [ -50.639038843, -29.616226888 ], [ -50.63915944, -29.612787311 ], [ -50.636572429999902, -29.608726259 ], [ -50.631743696999891, -29.605433095 ], [ -50.622965276999899, -29.604123328 ], [ -50.616350322, -29.599172322 ], [ -50.615286964999903, -29.596405994 ], [ -50.602936768999903, -29.589109956 ], [ -50.603029479, -29.581879477 ], [ -50.590059346, -29.566091231 ], [ -50.587578986, -29.560055093999896 ], [ -50.590051339999896, -29.55326729 ], [ -50.582751206999902, -29.551561454 ], [ -50.578427045999902, -29.553092745999901 ], [ -50.57249818199989, -29.552563646 ], [ -50.570478572999903, -29.549717486 ], [ -50.561248403, -29.546698404 ], [ -50.557533279, -29.540981071 ], [ -50.554836115999898, -29.53912786 ] ] ] } }
]
}
