{
"type": "FeatureCollection",
"name": "bairros_candiota",
"crs": { "type": "name", "properties": { "name": "urn:ogc:def:crs:OGC:1.3:CRS84" } },
"features": [
{ "type": "Feature", "properties": { "code_muni": 4304358.0, "name_muni": "Candiota", "code_state": 43.0, "abbrev_state": "RS", "name_state": "Rio Grande do Sul", "code_region": 4.0, "name_region": "Sul", "year": 2022.0 }, "geometry": { "type": "Polygon", "coordinates": [ [ [ -53.638280938, -31.352668729 ], [ -53.629819174, -31.358681929999893 ], [ -53.626300686, -31.362839417 ], [ -53.625737989, -31.364259171999898 ], [ -53.627966941999901, -31.36703449 ], [ -53.6285538079999, -31.370957652999891 ], [ -53.62605317, -31.375711515 ], [ -53.615502949, -31.385297260999891 ], [ -53.599372356999893, -31.38679103 ], [ -53.593904968999901, -31.385902601999899 ], [ -53.588227831, -31.382750411 ], [ -53.585705764999901, -31.383706415999892 ], [ -53.585707322, -31.386944226 ], [ -53.583240030999903, -31.389273945 ], [ -53.576792452999889, -31.388457356999911 ], [ -53.566178201999897, -31.393412971 ], [ -53.561324696, -31.391634159 ], [ -53.560012612, -31.400637769 ], [ -53.561484526, -31.404297278999898 ], [ -53.560933152, -31.407537691999895 ], [ -53.565965208, -31.415022485999895 ], [ -53.566862478, -31.423446468 ], [ -53.573023908, -31.442423936 ], [ -53.581955096999899, -31.4502484 ], [ -53.597140674999899, -31.454870526 ], [ -53.596644001999891, -31.456116272 ], [ -53.601538763999898, -31.460519269 ], [ -53.604781223, -31.470616904999904 ], [ -53.603785593999902, -31.474154627 ], [ -53.595994451, -31.479484763999892 ], [ -53.594206175, -31.484182426 ], [ -53.595058361, -31.488646735 ], [ -53.58788670900001, -31.492971817 ], [ -53.586676322, -31.504451550999896 ], [ -53.589196652999902, -31.508003148999908 ], [ -53.587944588, -31.51121432 ], [ -53.58529858, -31.512514397 ], [ -53.585373628, -31.515783946999893 ], [ -53.588456146999896, -31.5186772009999 ], [ -53.588224366, -31.523034324 ], [ -53.585055183, -31.525425781 ], [ -53.588812554, -31.53393268 ], [ -53.588517563, -31.536368597 ], [ -53.586131322, -31.537822836 ], [ -53.584588702, -31.534475487999906 ], [ -53.581878245, -31.533302337 ], [ -53.580377768999902, -31.534944245999988 ], [ -53.578156473, -31.534120743 ], [ -53.576275245, -31.535181442 ], [ -53.578975815, -31.540196663 ], [ -53.58222208, -31.542871443 ], [ -53.578676421999894, -31.545426542 ], [ -53.579383946999897, -31.548047908999905 ], [ -53.581257047999898, -31.548857625 ], [ -53.583798801999897, -31.548038004 ], [ -53.585745255999896, -31.554422367 ], [ -53.59156415199989, -31.554459123999905 ], [ -53.593156494, -31.556673787 ], [ -53.59828164399989, -31.55936675 ], [ -53.597918675, -31.563444773999905 ], [ -53.600673492999903, -31.566817388999901 ], [ -53.599381224999895, -31.572435606999896 ], [ -53.595478477, -31.573123166 ], [ -53.593819045, -31.57610219 ], [ -53.587305313999899, -31.580918046 ], [ -53.590824833999896, -31.586530866 ], [ -53.58875341999989, -31.591583692 ], [ -53.589467079, -31.592946904 ], [ -53.591562709999906, -31.594658148999901 ], [ -53.5945155369999, -31.594315825 ], [ -53.602630967, -31.590082703 ], [ -53.609705888999898, -31.596185803 ], [ -53.612660031, -31.602140802 ], [ -53.622768913, -31.604972249999904 ], [ -53.631017621, -31.602658700999907 ], [ -53.634486755999895, -31.60747743 ], [ -53.640780414999902, -31.603841818 ], [ -53.644717386, -31.604935971 ], [ -53.648818633, -31.599346708999985 ], [ -53.654263720999907, -31.60064131199989 ], [ -53.657999909999894, -31.595264502 ], [ -53.66331064, -31.596385201 ], [ -53.664746126999894, -31.59246043 ], [ -53.668765198999893, -31.591437368 ], [ -53.684132319999897, -31.593359386 ], [ -53.686216241999894, -31.596566163 ], [ -53.682290683, -31.599211567999909 ], [ -53.687366383, -31.609960846 ], [ -53.687367088, -31.618893853 ], [ -53.691978618, -31.622255496 ], [ -53.697304292999895, -31.621960692999895 ], [ -53.707464420999898, -31.629109121999893 ], [ -53.698655677, -31.647731996999902 ], [ -53.701792773, -31.650502673999902 ], [ -53.704472407, -31.650628853999898 ], [ -53.70769150599989, -31.646485888 ], [ -53.709492041, -31.647546081 ], [ -53.712320055, -31.646709241999893 ], [ -53.714425276999989, -31.647441774 ], [ -53.715396765, -31.645544616999896 ], [ -53.717587382, -31.646276385 ], [ -53.718042727, -31.645259186 ], [ -53.736191484, -31.651234959 ], [ -53.739532977999893, -31.650339055 ], [ -53.740126089999897, -31.652019536000012 ], [ -53.751943358999903, -31.647868312999901 ], [ -53.754571805999902, -31.650218244 ], [ -53.757444753999899, -31.650221932 ], [ -53.759156659, -31.645420934 ], [ -53.761257749, -31.644189323 ], [ -53.767570319999891, -31.645944281 ], [ -53.771867593, -31.650628208999901 ], [ -53.773012437, -31.654584930999899 ], [ -53.771580597, -31.657618054999904 ], [ -53.773264142999899, -31.66251728000001 ], [ -53.76845329199989, -31.670377401999904 ], [ -53.770152493, -31.673227654999902 ], [ -53.771295646999903, -31.683116821999899 ], [ -53.769109423, -31.688188558 ], [ -53.769285822, -31.691494195 ], [ -53.77487764099989, -31.694773429 ], [ -53.774926863, -31.6975413229999 ], [ -53.777223169, -31.700215759999907 ], [ -53.772818049, -31.707148690999908 ], [ -53.764360782, -31.710412498 ], [ -53.762610566, -31.714142938999906 ], [ -53.7626228889999, -31.721728474 ], [ -53.770262411, -31.727489093 ], [ -53.770373106, -31.729240693999891 ], [ -53.763137325999892, -31.738499413999893 ], [ -53.766236114, -31.741264805999904 ], [ -53.76901709, -31.741613483 ], [ -53.770501794, -31.747235609 ], [ -53.776087224, -31.748433285 ], [ -53.780325285999901, -31.751754967999901 ], [ -53.790128265, -31.751752552 ], [ -53.799323293, -31.761051928 ], [ -53.800322305, -31.769193599999891 ], [ -53.799338776, -31.77148636 ], [ -53.802612500999899, -31.777406705 ], [ -53.800057035999899, -31.7874916919999 ], [ -53.804495159999895, -31.794332778999898 ], [ -53.809077582, -31.797563833 ], [ -53.809088378999903, -31.805666029999902 ], [ -53.811846803, -31.806185991999897 ], [ -53.813263831, -31.804714463 ], [ -53.818780586999893, -31.8068931769999 ], [ -53.819981404, -31.808493852 ], [ -53.819549829, -31.811022013 ], [ -53.817413234, -31.812130941 ], [ -53.8180366939999, -31.814110479 ], [ -53.821849684, -31.816716791 ], [ -53.824863014999899, -31.816134774 ], [ -53.828173814, -31.818585087 ], [ -53.827844526, -31.820729226 ], [ -53.832522459, -31.824295944 ], [ -53.834145398, -31.827555525 ], [ -53.836168824, -31.828411289 ], [ -53.846164484, -31.824742442999892 ], [ -53.845626623, -31.828047044999884 ], [ -53.853186228, -31.833647414 ], [ -53.860122514, -31.834962898999901 ], [ -53.861480136, -31.8341473149999 ], [ -53.867254175, -31.836456773999895 ], [ -53.866116403, -31.8386668969999 ], [ -53.870083076, -31.8403385139999 ], [ -53.878991426, -31.848967995 ], [ -53.879246126999895, -31.850533831 ], [ -53.875745343999895, -31.855542883999902 ], [ -53.877396274, -31.8591698779999 ], [ -53.881230724, -31.859317811 ], [ -53.883281027999892, -31.861540036 ], [ -53.8859859679999, -31.8616967039999 ], [ -53.889564526999891, -31.853221672 ], [ -53.889122024999892, -31.850394921 ], [ -53.894188341, -31.849394586 ], [ -53.897092152, -31.851887851 ], [ -53.900102369, -31.850894619000012 ], [ -53.902777934, -31.853604016 ], [ -53.912689106, -31.852229751 ], [ -53.913867931, -31.855135891 ], [ -53.913094219, -31.849636620999899 ], [ -53.915990391, -31.847411091 ], [ -53.91584095, -31.846185868 ], [ -53.911637212999892, -31.842280417 ], [ -53.909736067, -31.843532508999896 ], [ -53.908049483999903, -31.842736902 ], [ -53.907901820999903, -31.841346606999906 ], [ -53.910378392, -31.839117202999905 ], [ -53.907955293, -31.838897272999901 ], [ -53.906948810999893, -31.837535725999903 ], [ -53.914927524999896, -31.829115574 ], [ -53.91596298, -31.826349213999901 ], [ -53.91768016, -31.826240305999896 ], [ -53.920177931, -31.82357747 ], [ -53.919878323, -31.82168788 ], [ -53.922162191, -31.820156571999984 ], [ -53.919084389, -31.819037226 ], [ -53.923632095999892, -31.817232885999893 ], [ -53.923600778, -31.812784115999904 ], [ -53.927784897, -31.805665436 ], [ -53.926161354, -31.804331963999989 ], [ -53.921191877999902, -31.805404801 ], [ -53.916510864, -31.803826509 ], [ -53.910516511, -31.809038117999901 ], [ -53.908044069, -31.809103185 ], [ -53.905797312999894, -31.807933158 ], [ -53.905129479, -31.800338398999905 ], [ -53.908017437999902, -31.79519728 ], [ -53.912877104, -31.790432624999895 ], [ -53.910824993999903, -31.788785329999893 ], [ -53.915503664, -31.782829099 ], [ -53.920033299, -31.782515474 ], [ -53.922168685, -31.776788242 ], [ -53.924070942, -31.775696347 ], [ -53.926377609, -31.765121684999908 ], [ -53.924171557, -31.761064758 ], [ -53.925542709, -31.759753370999892 ], [ -53.920244420999893, -31.757947359 ], [ -53.917196136, -31.760275803 ], [ -53.914240334999903, -31.760589497 ], [ -53.911921828999901, -31.754463428 ], [ -53.91349357099989, -31.753176657 ], [ -53.909065926, -31.751009123 ], [ -53.908487732, -31.745455988999893 ], [ -53.902007617, -31.742574252999891 ], [ -53.899835066, -31.735345089 ], [ -53.901557337, -31.732264787 ], [ -53.901365219, -31.727347712 ], [ -53.903272614999899, -31.72564827 ], [ -53.901566645999893, -31.723458154 ], [ -53.902364975, -31.721825502999895 ], [ -53.899966564, -31.7209912279999 ], [ -53.898060374, -31.714871506 ], [ -53.894867785, -31.711204657999904 ], [ -53.893684413999893, -31.698900492999897 ], [ -53.888993117, -31.693922727 ], [ -53.892193141, -31.680411953 ], [ -53.888645134999898, -31.670868077 ], [ -53.889632671999898, -31.665987135 ], [ -53.885865875, -31.665305617999902 ], [ -53.880853521999896, -31.662377186 ], [ -53.879112283, -31.656149058 ], [ -53.876947688, -31.653741709 ], [ -53.879051714, -31.649999164 ], [ -53.876175861, -31.648215216 ], [ -53.872174820999895, -31.648271698 ], [ -53.869030112, -31.640618856999911 ], [ -53.863909657, -31.639357197 ], [ -53.862455215999908, -31.637709727 ], [ -53.862943131999899, -31.632066347 ], [ -53.861583322999891, -31.629952698999904 ], [ -53.857337093, -31.628866682999988 ], [ -53.855558859, -31.629578062999894 ], [ -53.849274322, -31.625137202 ], [ -53.849275424, -31.622492013999885 ], [ -53.847287809, -31.620436089999895 ], [ -53.848397425, -31.6140593699999 ], [ -53.844089722, -31.6130738489999 ], [ -53.840246077, -31.607612765999896 ], [ -53.843676928, -31.602157065 ], [ -53.8396999019999, -31.596098753 ], [ -53.83755145899989, -31.588192901 ], [ -53.841528486999898, -31.583388186 ], [ -53.839648269999891, -31.581950053 ], [ -53.841620226, -31.576487132999905 ], [ -53.840341857999903, -31.565044306999908 ], [ -53.838531896999903, -31.56156709 ], [ -53.840262768999899, -31.557679454 ], [ -53.840096624, -31.55381649 ], [ -53.839122839, -31.551108723 ], [ -53.83355604, -31.551529088999896 ], [ -53.826964698, -31.546100932999899 ], [ -53.826629586, -31.543940470999907 ], [ -53.831646517, -31.541611298 ], [ -53.833581379, -31.539029935 ], [ -53.8326206, -31.536894824999898 ], [ -53.825824060999899, -31.534814124 ], [ -53.823824913, -31.531186714999908 ], [ -53.826059508, -31.527657993999984 ], [ -53.82815521, -31.527439864 ], [ -53.826628233999898, -31.523585852999894 ], [ -53.8230185359999, -31.522711493 ], [ -53.821886295, -31.515161137 ], [ -53.824366541, -31.512397577999899 ], [ -53.825064849999897, -31.495821834 ], [ -53.827454617999898, -31.4949989469999 ], [ -53.827915514, -31.490466669999904 ], [ -53.831531328, -31.488437717999897 ], [ -53.829048311, -31.480458104 ], [ -53.832523873, -31.47481505 ], [ -53.831183192, -31.473653456 ], [ -53.832626739, -31.470230865 ], [ -53.830146404999901, -31.467970161 ], [ -53.828672853999898, -31.468769981 ], [ -53.824896979, -31.467277651 ], [ -53.815817179, -31.466750835 ], [ -53.81388174499989, -31.464281359 ], [ -53.805705905, -31.46284693 ], [ -53.80253341, -31.456896795 ], [ -53.789310132, -31.450396517999899 ], [ -53.7903842549999, -31.443790996 ], [ -53.784575853, -31.442599877 ], [ -53.781210466999894, -31.438589756999892 ], [ -53.782153997, -31.4336047789999 ], [ -53.785139784, -31.43103761 ], [ -53.785302439, -31.424741734 ], [ -53.788182595, -31.425021606 ], [ -53.789940589, -31.423858344999893 ], [ -53.790326708999899, -31.421438281 ], [ -53.787713249, -31.420933424999895 ], [ -53.787142544999902, -31.418436023 ], [ -53.790118776, -31.413269439 ], [ -53.78965237499991, -31.411620001 ], [ -53.7920417139999, -31.411115228 ], [ -53.790626061, -31.408829311 ], [ -53.792574083, -31.405263657 ], [ -53.790709093, -31.39889771 ], [ -53.794055270999898, -31.388127193999896 ], [ -53.793445783, -31.386549686 ], [ -53.796425284999891, -31.385084347 ], [ -53.800933729, -31.373940272 ], [ -53.798206991, -31.366527753 ], [ -53.793308913, -31.36118698 ], [ -53.7929895239999, -31.356809507 ], [ -53.796280678999892, -31.352701171 ], [ -53.791944015, -31.349060422 ], [ -53.791158757999895, -31.343927282 ], [ -53.784641985, -31.3450069209999 ], [ -53.784590029, -31.342904483 ], [ -53.7776646149999, -31.336323159999896 ], [ -53.774782796, -31.316265030999901 ], [ -53.768041169999897, -31.314629586 ], [ -53.765250680999891, -31.312191152 ], [ -53.74875141, -31.320071506 ], [ -53.747884064999894, -31.323451072 ], [ -53.746369956, -31.325070627999899 ], [ -53.743598505, -31.325391614999894 ], [ -53.740468882999899, -31.329113825 ], [ -53.719030159999903, -31.326706590999901 ], [ -53.712402575999896, -31.329446345999898 ], [ -53.708308544, -31.327558431999901 ], [ -53.705858799999902, -31.327750361 ], [ -53.700467993, -31.329656257 ], [ -53.690423685, -31.335934058 ], [ -53.686245315999898, -31.337026946 ], [ -53.676768471999893, -31.331115779999894 ], [ -53.672780278999902, -31.330403991999987 ], [ -53.653181261, -31.335842441999901 ], [ -53.640782720999901, -31.343692796 ], [ -53.640228989, -31.349747529 ], [ -53.638280938, -31.352668729 ] ] ] } }
]
}
