{
"type": "FeatureCollection",
"name": "bairros_campestre_da_serra",
"crs": { "type": "name", "properties": { "name": "urn:ogc:def:crs:OGC:1.3:CRS84" } },
"features": [
{ "type": "Feature", "properties": { "code_muni": 4303673.0, "name_muni": "Campestre da Serra", "code_state": 43.0, "abbrev_state": "RS", "name_state": "Rio Grande do Sul", "code_region": 4.0, "name_region": "Sul", "year": 2022.0 }, "geometry": { "type": "Polygon", "coordinates": [ [ [ -51.148032308, -28.877415033 ], [ -51.152424928, -28.872925734 ], [ -51.160511169726604, -28.874043505396994 ], [ -51.163042177389997, -28.873072553726296 ], [ -51.166466788, -28.866747556 ], [ -51.17243868899989, -28.864029463999891 ], [ -51.176904207533596, -28.858745089564493 ], [ -51.175772908999896, -28.856748113 ], [ -51.172084903, -28.855146417 ], [ -51.166477809999897, -28.855493595999988 ], [ -51.163355662999898, -28.853789725 ], [ -51.158561277243791, -28.853910723017801 ], [ -51.15821138, -28.852473248 ], [ -51.161344975, -28.849487954 ], [ -51.157316264, -28.845181051999898 ], [ -51.158625768395893, -28.841560255710903 ], [ -51.166779533, -28.843568108999897 ], [ -51.170979351, -28.842108348999901 ], [ -51.170887594671903, -28.840869788736406 ], [ -51.167587481999902, -28.839931652 ], [ -51.164094892539495, -28.834546911509008 ], [ -51.170740359, -28.828887062 ], [ -51.169994049174797, -28.824175636501398 ], [ -51.173648200999892, -28.82252699 ], [ -51.1746002739999, -28.817920145999899 ], [ -51.180240169999905, -28.816232279 ], [ -51.184037931, -28.817598462 ], [ -51.183980121875202, -28.812064472534406 ], [ -51.18883399500001, -28.812269773 ], [ -51.192836867, -28.809142494999907 ], [ -51.200661291, -28.810911400999892 ], [ -51.203361771361898, -28.807570399727098 ], [ -51.20514200159549, -28.809640702930601 ], [ -51.210645155112502, -28.810061130357109 ], [ -51.213045598129597, -28.805636214020005 ], [ -51.217243605, -28.8036220229999 ], [ -51.2179066859999, -28.801712826 ], [ -51.212556014233201, -28.797416473624395 ], [ -51.208622877235996, -28.797295175372199 ], [ -51.206524033267499, -28.797769391164199 ], [ -51.204730355942594, -28.801779917544302 ], [ -51.201667712285889, -28.798805640487593 ], [ -51.200003566126398, -28.799285893749097 ], [ -51.199808171656592, -28.801523050657 ], [ -51.197858617844794, -28.801573545857 ], [ -51.197057280974001, -28.800434110689995 ], [ -51.198919017046791, -28.796662887649394 ], [ -51.196344585133403, -28.792465199711906 ], [ -51.191038198238097, -28.795077228594298 ], [ -51.19130521905219, -28.784948001230998 ], [ -51.189240404457294, -28.783834362524704 ], [ -51.188166832594696, -28.785029781500494 ], [ -51.1865776059444, -28.782116976861094 ], [ -51.188586985591002, -28.776900603148601 ], [ -51.186776842440395, -28.774039940291892 ], [ -51.190580722703203, -28.772104656862901 ], [ -51.187695909968198, -28.768534865761598 ], [ -51.184806706346301, -28.768394357378806 ], [ -51.186203008400589, -28.767191254350799 ], [ -51.185129162107302, -28.7645248882421 ], [ -51.187523293224103, -28.764854204764408 ], [ -51.187335857237194, -28.766444803566991 ], [ -51.190592523211599, -28.766867426437102 ], [ -51.190227805162891, -28.763483973601101 ], [ -51.193535515198796, -28.761486394463393 ], [ -51.192995436102301, -28.755368791201597 ], [ -51.197352019261103, -28.751513318016986 ], [ -51.196572911255799, -28.748943825852301 ], [ -51.198923407933094, -28.7417704887059 ], [ -51.197888256331503, -28.739932902511708 ], [ -51.199450314368789, -28.736979482167904 ], [ -51.200992338984491, -28.736875473033308 ], [ -51.201461340597994, -28.733084765431393 ], [ -51.199070228216293, -28.731749112503504 ], [ -51.199744503795891, -28.728318732063403 ], [ -51.205283607700295, -28.727150756131199 ], [ -51.206038840257996, -28.725394401345799 ], [ -51.203035473575, -28.721240622278405 ], [ -51.2076807575516, -28.715513807956203 ], [ -51.202407576739198, -28.710250232208892 ], [ -51.205153791, -28.707447714 ], [ -51.1990307102336, -28.705241327905206 ], [ -51.19858064431979, -28.703469605015403 ], [ -51.195192251735996, -28.702355143017709 ], [ -51.191998979191801, -28.697768312723511 ], [ -51.188597962808394, -28.698356417146492 ], [ -51.18696886, -28.702074028 ], [ -51.159590940237003, -28.699327900887297 ], [ -51.156211054996803, -28.696648362117912 ], [ -51.153023545491394, -28.686077301753205 ], [ -51.146283534002492, -28.679292283672893 ], [ -51.1461342438458, -28.674759790604885 ], [ -51.142689866999895, -28.670958911999897 ], [ -51.142667735, -28.66748783 ], [ -51.145818099984396, -28.660581616600002 ], [ -51.14482575953069, -28.65863206278819 ], [ -51.145991540019494, -28.652882196309587 ], [ -51.148821192236795, -28.652515282817397 ], [ -51.151486735054199, -28.647801940092904 ], [ -51.153766144, -28.650920853999896 ], [ -51.157023643515103, -28.6505550262189 ], [ -51.160899973412405, -28.646365845625098 ], [ -51.164398804, -28.645344065 ], [ -51.164688211140103, -28.644283467482705 ], [ -51.161770192322592, -28.641997187527195 ], [ -51.16653589, -28.640163270999903 ], [ -51.165856936, -28.637804493 ], [ -51.169056869238403, -28.637103544006397 ], [ -51.164989632, -28.634331868999897 ], [ -51.166878954, -28.632832709 ], [ -51.167269778244197, -28.628675236479801 ], [ -51.184906139, -28.626646724999894 ], [ -51.190503828, -28.629219142999901 ], [ -51.192976679, -28.627003933 ], [ -51.196506546, -28.627839531999907 ], [ -51.198094353588409, -28.626710314563699 ], [ -51.196064666089597, -28.622501100548295 ], [ -51.202748144908895, -28.620808962485093 ], [ -51.205252871491496, -28.621456618312404 ], [ -51.208232362726193, -28.619790276709608 ], [ -51.212963543429296, -28.623601566593791 ], [ -51.216957055122499, -28.619769419996199 ], [ -51.21724548151051, -28.608780127649005 ], [ -51.2211338863465, -28.605573682443694 ], [ -51.224497701, -28.605619654 ], [ -51.225397437587993, -28.603628519518896 ], [ -51.227410659260691, -28.602936954822102 ], [ -51.229855285577599, -28.603930392997299 ], [ -51.233481883779497, -28.603423245553596 ], [ -51.238641450391491, -28.600083976017391 ], [ -51.239121154792194, -28.601807399150502 ], [ -51.241531751735096, -28.602006086785902 ], [ -51.245361702888992, -28.596292445124693 ], [ -51.2495934202, -28.596391240081399 ], [ -51.255268367170402, -28.594540481226595 ], [ -51.258758299014396, -28.595603075871388 ], [ -51.259498163467796, -28.592832426197496 ], [ -51.261391733470802, -28.591800018899999 ], [ -51.258918541999897, -28.591455744 ], [ -51.255723386586801, -28.588591723522505 ], [ -51.254256542155197, -28.5889673479479 ], [ -51.25355180479751, -28.584811373436999 ], [ -51.246269518768699, -28.588609490660396 ], [ -51.241108854434991, -28.586812520170902 ], [ -51.239035532496402, -28.587956346224598 ], [ -51.238171213841099, -28.586109703826395 ], [ -51.231349284866901, -28.584377773349399 ], [ -51.227788275539503, -28.580689428300101 ], [ -51.222892162145399, -28.583976007192508 ], [ -51.217970252289291, -28.585104465141793 ], [ -51.216505891486996, -28.587684111232903 ], [ -51.214169665192493, -28.587971714329196 ], [ -51.21171227, -28.586257417 ], [ -51.210226923129298, -28.589364723218107 ], [ -51.200476958627, -28.585145080846203 ], [ -51.199088844, -28.589119317 ], [ -51.195092529, -28.58876716 ], [ -51.1925362429999, -28.590652538 ], [ -51.186556200370291, -28.591232496759904 ], [ -51.183508662999891, -28.59017518 ], [ -51.179634515933294, -28.5924273668751 ], [ -51.1738253724806, -28.573976859854699 ], [ -51.171248440999911, -28.5760213 ], [ -51.170268754040201, -28.573559176732292 ], [ -51.168898797307591, -28.574398933864099 ], [ -51.170431216857892, -28.578056542704594 ], [ -51.166262069686191, -28.580219054533895 ], [ -51.164092971526195, -28.584517732871301 ], [ -51.161702682435497, -28.580828290099998 ], [ -51.159887599536901, -28.583441965565189 ], [ -51.153338591630906, -28.582688928451002 ], [ -51.157767378999893, -28.573970078999903 ], [ -51.152233734698903, -28.576085583318598 ], [ -51.150760592122701, -28.575534527004706 ], [ -51.150890123288093, -28.572875844948296 ], [ -51.148180642999897, -28.572527508 ], [ -51.14796973499989, -28.570617039 ], [ -51.1535542939531, -28.567772536575099 ], [ -51.151997724524598, -28.561410141365105 ], [ -51.148081053353202, -28.559197134335502 ], [ -51.146454229733202, -28.555368280903405 ], [ -51.142795523170896, -28.555250824677103 ], [ -51.139100543, -28.558634170999895 ], [ -51.134891926636698, -28.568701209167902 ], [ -51.132332039536998, -28.567454197270298 ], [ -51.123438756, -28.556973515 ], [ -51.118801521359202, -28.556718478644605 ], [ -51.117802336, -28.555670138 ], [ -51.115175602752799, -28.557220198704599 ], [ -51.117024897631204, -28.559540839586898 ], [ -51.114334364228689, -28.560735706982005 ], [ -51.099105974898599, -28.577878269831398 ], [ -51.095209628800795, -28.583644590060004 ], [ -51.093645650436898, -28.589805304832499 ], [ -51.0899057021754, -28.593898848202301 ], [ -51.088843939, -28.597997355 ], [ -51.084190381241299, -28.603156920125993 ], [ -51.081593020183199, -28.603245878332988 ], [ -51.078751820837191, -28.605666037745095 ], [ -51.081571147978792, -28.6106878958654 ], [ -51.077627589533094, -28.616189848871695 ], [ -51.076768011901891, -28.624293500585896 ], [ -51.070406804, -28.621136642999907 ], [ -51.06382231899989, -28.622797819 ], [ -51.056377063, -28.619604027 ], [ -51.04897844, -28.61972886 ], [ -51.047118051675497, -28.622843373437089 ], [ -51.045320156477295, -28.623449233497801 ], [ -51.042297417835208, -28.6218634986819 ], [ -51.044625157, -28.619223523999896 ], [ -51.037017467703393, -28.619457556202594 ], [ -51.033117856122502, -28.622466988884607 ], [ -51.029379693942005, -28.622738386856096 ], [ -51.027927379572901, -28.624508941798503 ], [ -51.025417912595991, -28.623795304615502 ], [ -51.022266853085299, -28.629683905349395 ], [ -51.020676927991609, -28.638982556146399 ], [ -51.012126899145201, -28.640769832128107 ], [ -51.00951633113651, -28.643814905964799 ], [ -51.017462018903991, -28.654338691034404 ], [ -51.012113116, -28.654806461999989 ], [ -51.005036033999893, -28.658117289 ], [ -51.004353517716893, -28.662417846390003 ], [ -50.999979076845491, -28.664670683438693 ], [ -51.000744603997994, -28.666923520487494 ], [ -51.006737587991793, -28.667081000358902 ], [ -51.008338633350803, -28.668585808018587 ], [ -51.001658862140097, -28.676433554941905 ], [ -51.004245532, -28.677852173 ], [ -51.01236639978309, -28.67627607507049 ], [ -51.013232059587303, -28.677096817204998 ], [ -51.009543791810792, -28.680742379200201 ], [ -51.010182460177994, -28.683047709539402 ], [ -51.017597137454992, -28.682102830311198 ], [ -51.020622675306896, -28.682928980805684 ], [ -51.015362891780001, -28.688262043058103 ], [ -51.01247180099989, -28.696155750999903 ], [ -51.007402503004293, -28.692881452618302 ], [ -51.0036339221936, -28.693196412360994 ], [ -51.002492193126102, -28.69512116634451 ], [ -51.003682041043199, -28.701114150338292 ], [ -50.999633496016699, -28.706232246157796 ], [ -51.000179913710603, -28.708826762339999 ], [ -51.003020304265398, -28.709768308931793 ], [ -50.999445395059197, -28.719762391772992 ], [ -51.00765293974419, -28.7170546128736 ], [ -51.009555158, -28.717853533 ], [ -51.006956310035392, -28.720287324677596 ], [ -51.001918234999891, -28.721627354 ], [ -51.001361400160896, -28.7241521431874 ], [ -50.996905501678498, -28.726673270462502 ], [ -50.999001389310706, -28.7323870281278 ], [ -50.992520655159801, -28.743721204425604 ], [ -50.98630457468149, -28.739779833200405 ], [ -50.980443312058092, -28.740241691886702 ], [ -50.971466471245797, -28.743200645961895 ], [ -50.971604499675493, -28.744697412374993 ], [ -50.975750332, -28.745432251 ], [ -50.978270914021202, -28.748865546890304 ], [ -50.973624974657298, -28.755017673066192 ], [ -50.976166100403191, -28.755505947228098 ], [ -50.980350960655592, -28.760344079736797 ], [ -50.9785882202602, -28.761753756396793 ], [ -50.9757206149932, -28.760803396028297 ], [ -50.974250802860389, -28.762032613913203 ], [ -50.974198128019403, -28.768163448576093 ], [ -50.979061594208702, -28.772421910982693 ], [ -50.978409802518897, -28.781284528188202 ], [ -50.976900620418299, -28.782351891760811 ], [ -50.968454989999898, -28.781927052 ], [ -50.967271285249304, -28.781002083887305 ], [ -50.967392773184294, -28.777916208717205 ], [ -50.964879686, -28.7779600759999 ], [ -50.963641690137095, -28.780693978670488 ], [ -50.968051971945698, -28.789266099953199 ], [ -50.963301622, -28.788299477999903 ], [ -50.958395010963201, -28.790341657004593 ], [ -50.96238632721299, -28.793674340209794 ], [ -50.9767533529999, -28.814641197999904 ], [ -50.980489899, -28.816033137 ], [ -50.993638656, -28.815984125999901 ], [ -50.999790097811101, -28.819065741797697 ], [ -51.010984664124301, -28.831785043609003 ], [ -51.017650030534796, -28.8416206304071 ], [ -51.023220245999894, -28.839921868 ], [ -51.032408401999902, -28.832872343 ], [ -51.037070679, -28.832750944999901 ], [ -51.041972003, -28.835255076999911 ], [ -51.046963944, -28.84378694 ], [ -51.047916514, -28.851979663 ], [ -51.046955869018099, -28.860261724593897 ], [ -51.048239818999896, -28.862299317 ], [ -51.061459231999891, -28.864981503 ], [ -51.074248672, -28.861599736999896 ], [ -51.085137593, -28.853593942 ], [ -51.088236605, -28.843467667 ], [ -51.091317761, -28.841280936 ], [ -51.095613773, -28.84107739 ], [ -51.108173577999906, -28.847134573999895 ], [ -51.114448824, -28.853837793 ], [ -51.114997988, -28.857170317999902 ], [ -51.108414306, -28.866208933999896 ], [ -51.108647356999896, -28.868483877 ], [ -51.112506056, -28.872127752 ], [ -51.117401652, -28.874856824999899 ], [ -51.132971358, -28.879150647999897 ], [ -51.14329859, -28.883672276 ], [ -51.146279416, -28.882916526 ], [ -51.148032308, -28.877415033 ] ] ] } }
]
}
