{
"type": "FeatureCollection",
"name": "bairros_alpestre",
"crs": { "type": "name", "properties": { "name": "urn:ogc:def:crs:OGC:1.3:CRS84" } },
"features": [
{ "type": "Feature", "properties": { "name": "Águas Claras", "code_muni": 4300505.0, "name_muni": "Alpestre" }, "geometry": { "type": "Polygon", "coordinates": [ [ [ -53.0329068, -27.2492981 ], [ -53.0336344, -27.2486087 ], [ -53.0347851, -27.2475691 ], [ -53.0348649, -27.2474969 ], [ -53.0355296, -27.2480783 ], [ -53.0367485, -27.2470611 ], [ -53.037787, -27.2461944 ], [ -53.0374095, -27.2458485 ], [ -53.0370805, -27.2455236 ], [ -53.0367846, -27.2453108 ], [ -53.0362972, -27.2447891 ], [ -53.03602870000001, -27.2445398 ], [ -53.0347878, -27.2465985 ], [ -53.0339765, -27.2470529 ], [ -53.0339536, -27.2470731 ], [ -53.0322219, -27.2485924 ], [ -53.0329068, -27.2492981 ] ] ] } },
{ "type": "Feature", "properties": { "name": "Valdomiro Dorigon", "code_muni": 4300505.0, "name_muni": "Alpestre" }, "geometry": { "type": "Polygon", "coordinates": [ [ [ -53.0347878, -27.2465985 ], [ -53.03602870000001, -27.2445398 ], [ -53.0335669, -27.2429736 ], [ -53.032837, -27.2436583 ], [ -53.0283192, -27.2429286 ], [ -53.0279997, -27.2454044 ], [ -53.0297989, -27.2459022 ], [ -53.0328566, -27.2467368 ], [ -53.0339765, -27.2470529 ], [ -53.0347878, -27.2465985 ] ] ] } },
{ "type": "Feature", "properties": { "name": "Alpes", "code_muni": 4300505.0, "name_muni": "Alpestre" }, "geometry": { "type": "Polygon", "coordinates": [ [ [ -53.0339536, -27.2470731 ], [ -53.0339765, -27.2470529 ], [ -53.0328566, -27.2467368 ], [ -53.0297989, -27.2459022 ], [ -53.0279997, -27.2454044 ], [ -53.0277496, -27.2473425 ], [ -53.0313116, -27.2483488 ], [ -53.0322219, -27.2485924 ], [ -53.0339536, -27.2470731 ] ] ] } },
{ "type": "Feature", "properties": { "name": "Toniazzo", "code_muni": 4300505.0, "name_muni": "Alpestre" }, "geometry": { "type": "Polygon", "coordinates": [ [ [ -53.0312782, -27.2511261 ], [ -53.0313063, -27.2509289 ], [ -53.0321753, -27.2487113 ], [ -53.0322219, -27.2485924 ], [ -53.0313116, -27.2483488 ], [ -53.0277496, -27.2473425 ], [ -53.0276419, -27.2481769 ], [ -53.0260214, -27.2481132 ], [ -53.0266078, -27.2485325 ], [ -53.0273691, -27.2496695 ], [ -53.0275315, -27.2498229 ], [ -53.0282186, -27.2500591 ], [ -53.0291667, -27.2511514 ], [ -53.0294364, -27.250867 ], [ -53.0305376, -27.2511042 ], [ -53.0312782, -27.2511261 ] ] ] } },
{ "type": "Feature", "properties": { "name": "Sindicato", "code_muni": 4300505.0, "name_muni": "Alpestre" }, "geometry": { "type": "Polygon", "coordinates": [ [ [ -53.0294364, -27.250867 ], [ -53.0291667, -27.2511514 ], [ -53.02784110000001, -27.2524879 ], [ -53.0274751, -27.2532179 ], [ -53.0294987, -27.254544 ], [ -53.0301408, -27.254167 ], [ -53.0308449, -27.2537545 ], [ -53.0314028, -27.2531655 ], [ -53.031604, -27.2528555 ], [ -53.0310971, -27.2523977 ], [ -53.0312782, -27.2511261 ], [ -53.0305376, -27.2511042 ], [ -53.0294364, -27.250867 ] ] ] } },
{ "type": "Feature", "properties": { "name": "Industrial", "code_muni": 4300505.0, "name_muni": "Alpestre" }, "geometry": { "type": "Polygon", "coordinates": [ [ [ -53.0274751, -27.2532179 ], [ -53.0259925, -27.2561751 ], [ -53.028483, -27.2571824 ], [ -53.0285382, -27.2571952 ], [ -53.0292571, -27.2557359 ], [ -53.0294987, -27.254544 ], [ -53.0274751, -27.2532179 ] ] ] } },
{ "type": "Feature", "properties": { "name": "Colina", "code_muni": 4300505.0, "name_muni": "Alpestre" }, "geometry": { "type": "Polygon", "coordinates": [ [ [ -53.0333662, -27.2555595 ], [ -53.0321753, -27.2533789 ], [ -53.0314028, -27.2531655 ], [ -53.0308449, -27.2537545 ], [ -53.0301408, -27.254167 ], [ -53.0294987, -27.254544 ], [ -53.0292571, -27.2557359 ], [ -53.0285382, -27.2571952 ], [ -53.028483, -27.2571824 ], [ -53.0259925, -27.2561751 ], [ -53.0260921, -27.2567088 ], [ -53.0273849, -27.2589501 ], [ -53.0281842, -27.2591647 ], [ -53.0280444, -27.2603101 ], [ -53.0295865, -27.2610296 ], [ -53.0316806, -27.2564886 ], [ -53.0331824, -27.2574992 ], [ -53.0347802, -27.2561202 ], [ -53.0333662, -27.2555595 ] ] ] } },
{ "type": "Feature", "properties": { "name": "Centro", "code_muni": 4300505.0, "name_muni": "Alpestre" }, "geometry": { "type": "Polygon", "coordinates": [ [ [ -53.0373686, -27.2538861 ], [ -53.0382013, -27.2546436 ], [ -53.0426595, -27.2508135 ], [ -53.0428814, -27.2510076 ], [ -53.043725, -27.2503123 ], [ -53.0441304, -27.249978099999989 ], [ -53.044114, -27.2494834 ], [ -53.0412545, -27.2470687 ], [ -53.0414868, -27.2468608 ], [ -53.0390387, -27.243828 ], [ -53.03602870000001, -27.2445398 ], [ -53.0362972, -27.2447891 ], [ -53.0367846, -27.2453108 ], [ -53.0370805, -27.2455236 ], [ -53.0374095, -27.2458485 ], [ -53.037787, -27.2461944 ], [ -53.0367485, -27.2470611 ], [ -53.0355296, -27.2480783 ], [ -53.0348649, -27.2474969 ], [ -53.0347851, -27.2475691 ], [ -53.0336344, -27.2486087 ], [ -53.0329068, -27.2492981 ], [ -53.0322219, -27.2485924 ], [ -53.0321753, -27.2487113 ], [ -53.0313063, -27.2509289 ], [ -53.0312782, -27.2511261 ], [ -53.0310971, -27.2523977 ], [ -53.031604, -27.2528555 ], [ -53.0314028, -27.2531655 ], [ -53.0321753, -27.2533789 ], [ -53.0333662, -27.2555595 ], [ -53.0347802, -27.2561202 ], [ -53.0373686, -27.2538861 ] ] ] } },
{ "type": "Feature", "properties": { "name": "Vila Nova Brasilia", "code_muni": 4300505.0, "name_muni": "Alpestre" }, "geometry": { "type": "Polygon", "coordinates": [ [ [ -53.0457473, -27.252784 ], [ -53.0485207, -27.2532084 ], [ -53.0488962, -27.2531464 ], [ -53.0498572, -27.2522531 ], [ -53.0497706, -27.2522213 ], [ -53.0484349, -27.2517301 ], [ -53.0476517, -27.251525 ], [ -53.0480164, -27.2511387 ], [ -53.0459404, -27.2503137 ], [ -53.0460541, -27.2494966 ], [ -53.0459374, -27.2495011 ], [ -53.0453433, -27.2494497 ], [ -53.0449291, -27.2493745 ], [ -53.0444927, -27.2494084 ], [ -53.0441294, -27.2494986 ], [ -53.044114, -27.2494834 ], [ -53.0441304, -27.249978099999989 ], [ -53.043725, -27.2503123 ], [ -53.043977, -27.250471 ], [ -53.0451036, -27.2507572 ], [ -53.0460569, -27.2509455 ], [ -53.0460387, -27.2515115 ], [ -53.0457799, -27.2519169 ], [ -53.0454804, -27.2521537 ], [ -53.0452963, -27.2522418 ], [ -53.045091, -27.2522544 ], [ -53.0448858, -27.2521915 ], [ -53.0447867, -27.2521852 ], [ -53.0446663, -27.2522293 ], [ -53.0445233, -27.252359 ], [ -53.0444502, -27.2524927 ], [ -53.0444339, -27.2525831 ], [ -53.0444705, -27.2526373 ], [ -53.044629, -27.2526517 ], [ -53.04159520000001, -27.254992 ], [ -53.0448943, -27.2572715 ], [ -53.0461443, -27.2553497 ], [ -53.0454201, -27.2548585 ], [ -53.0463853, -27.2539095 ], [ -53.046117, -27.2537215 ], [ -53.0459463, -27.2535444 ], [ -53.045747, -27.2533095 ], [ -53.0456251, -27.2531107 ], [ -53.0455641, -27.2530204 ], [ -53.0454665, -27.252897499999985 ], [ -53.0452714, -27.2527276 ], [ -53.0457473, -27.252784 ] ] ] } }
]
}
