{
"type": "FeatureCollection",
"name": "bairros_sao_sepe",
"crs": { "type": "name", "properties": { "name": "urn:ogc:def:crs:OGC:1.3:CRS84" } },
"features": [
{ "type": "Feature", "properties": { "name": "Lili", "code_muni": 4319604.0, "name_muni": "São Sepé" }, "geometry": { "type": "Polygon", "coordinates": [ [ [ -53.5831692, -30.1587132 ], [ -53.583262, -30.1583333 ], [ -53.5832944, -30.15818 ], [ -53.5834092, -30.1576821 ], [ -53.5834873, -30.157401 ], [ -53.5836536, -30.1563666 ], [ -53.5838752, -30.1554206 ], [ -53.5838154, -30.1553841 ], [ -53.5836829, -30.1552708 ], [ -53.5832617, -30.1549518 ], [ -53.5801871, -30.1525136 ], [ -53.5791056, -30.1579952 ], [ -53.5831692, -30.1587132 ] ] ] } },
{ "type": "Feature", "properties": { "name": "Lôndero", "code_muni": 4319604.0, "name_muni": "São Sepé" }, "geometry": { "type": "Polygon", "coordinates": [ [ [ -53.5811297, -30.1632924 ], [ -53.5812773, -30.1630681 ], [ -53.5823849, -30.1613899 ], [ -53.5826118, -30.1611003 ], [ -53.5827064, -30.160723 ], [ -53.5828847, -30.160078699999989 ], [ -53.5829773, -30.1595716 ], [ -53.5829938, -30.1594882 ], [ -53.5831692, -30.1587132 ], [ -53.5791056, -30.1579952 ], [ -53.5772538, -30.15767 ], [ -53.5770071, -30.1585606 ], [ -53.5764642, -30.1611892 ], [ -53.5760772, -30.1616557 ], [ -53.5762111, -30.1617886 ], [ -53.5764234, -30.1619931 ], [ -53.5765012, -30.1620788 ], [ -53.5769608, -30.162534 ], [ -53.5777672, -30.1633556 ], [ -53.5780017, -30.1636303 ], [ -53.5780188, -30.1636987 ], [ -53.5780109, -30.1637358 ], [ -53.5781542, -30.163779899999987 ], [ -53.5784622, -30.1638608 ], [ -53.57879, -30.1639163 ], [ -53.5792144, -30.163913 ], [ -53.5795694, -30.1638791 ], [ -53.5798857, -30.1638165 ], [ -53.580308100000011, -30.1637133 ], [ -53.5806976, -30.1635826 ], [ -53.5809538, -30.1635373 ], [ -53.5810691, -30.163558 ], [ -53.5811297, -30.1632924 ] ] ] } },
{ "type": "Feature", "properties": { "name": "Walter", "code_muni": 4319604.0, "name_muni": "São Sepé" }, "geometry": { "type": "Polygon", "coordinates": [ [ [ -53.5809538, -30.1635373 ], [ -53.5806976, -30.1635826 ], [ -53.580308100000011, -30.1637133 ], [ -53.5798857, -30.1638165 ], [ -53.5795694, -30.1638791 ], [ -53.5792144, -30.163913 ], [ -53.57879, -30.1639163 ], [ -53.5784622, -30.1638608 ], [ -53.5781542, -30.163779899999987 ], [ -53.5780109, -30.1637358 ], [ -53.5774146, -30.1635238 ], [ -53.5771031, -30.1634487 ], [ -53.5767132, -30.1633279 ], [ -53.5762499, -30.1632704 ], [ -53.5750517, -30.163292 ], [ -53.5745847, -30.163308 ], [ -53.5743398, -30.163364899999987 ], [ -53.5740323, -30.1634935 ], [ -53.5739807, -30.1635341 ], [ -53.573949, -30.1635575 ], [ -53.5738573, -30.1636348 ], [ -53.5728864, -30.164185 ], [ -53.5727614, -30.1641857 ], [ -53.5729355, -30.1642632 ], [ -53.5730293, -30.164328099999988 ], [ -53.5730696, -30.1647594 ], [ -53.5733083, -30.1651166 ], [ -53.5739788, -30.1660697 ], [ -53.5741864, -30.165989 ], [ -53.574231, -30.1660836 ], [ -53.5744053, -30.1662227 ], [ -53.5744911, -30.1663155 ], [ -53.5746923, -30.166394300000011 ], [ -53.5753065, -30.1665311 ], [ -53.5755909, -30.1668813 ], [ -53.5759127, -30.1670575 ], [ -53.5760361, -30.167076099999989 ], [ -53.5767388, -30.1675491 ], [ -53.5772699, -30.1678367 ], [ -53.5774239, -30.1679126 ], [ -53.5777313, -30.1680639 ], [ -53.5779941, -30.1682216 ], [ -53.5782945, -30.168323700000013 ], [ -53.578772, -30.168620499999989 ], [ -53.5790724, -30.1688616 ], [ -53.5793728, -30.1689358 ], [ -53.5794908, -30.1688987 ], [ -53.5795873, -30.1688338 ], [ -53.5801774, -30.1682819 ], [ -53.5802901, -30.168230900000012 ], [ -53.5807514, -30.167948 ], [ -53.5808533, -30.1678691 ], [ -53.5819423, -30.165796 ], [ -53.5830367, -30.1642655 ], [ -53.5831593, -30.1641018 ], [ -53.5830071, -30.1640475 ], [ -53.5827188, -30.1639607 ], [ -53.5824632, -30.163893299999987 ], [ -53.5819198, -30.163777 ], [ -53.5815123, -30.1636672 ], [ -53.5811946, -30.1635925 ], [ -53.5810691, -30.163558 ], [ -53.5809538, -30.1635373 ] ] ] } },
{ "type": "Feature", "properties": { "name": "Santos", "code_muni": 4319604.0, "name_muni": "São Sepé" }, "geometry": { "type": "Polygon", "coordinates": [ [ [ -53.5929501, -30.1685092 ], [ -53.5945058, -30.1644974 ], [ -53.5918451, -30.1636254 ], [ -53.5913944, -30.1642562 ], [ -53.5907078, -30.1665752 ], [ -53.5878968, -30.1657589 ], [ -53.5878234, -30.1661917 ], [ -53.5870279, -30.1658811 ], [ -53.585708, -30.1653554 ], [ -53.5850751, -30.16504 ], [ -53.5845815, -30.1647882 ], [ -53.5840345, -30.1645064 ], [ -53.5831118, -30.1659073 ], [ -53.5820191, -30.1680443 ], [ -53.5821086, -30.1680129 ], [ -53.5824037, -30.167864500000011 ], [ -53.5829079, -30.167957299999987 ], [ -53.5833532, -30.1682912 ], [ -53.5835302, -30.1686947 ], [ -53.5838842, -30.1690147 ], [ -53.5840184, -30.169075 ], [ -53.5844421, -30.1691121 ], [ -53.5848606, -30.1693811 ], [ -53.5852522, -30.169664 ], [ -53.5855901, -30.1698217 ], [ -53.585893, -30.1700464 ], [ -53.5860255, -30.170144799999985 ], [ -53.5861588, -30.170243699999986 ], [ -53.5864806, -30.1703921 ], [ -53.5866523, -30.1704756 ], [ -53.5868401, -30.1705962 ], [ -53.5870278, -30.1707167 ], [ -53.587532, -30.1709625 ], [ -53.5885888, -30.1715515 ], [ -53.5894096, -30.1723399 ], [ -53.5896671, -30.1727249 ], [ -53.5901973, -30.1729661 ], [ -53.5929501, -30.1685092 ] ] ] } },
{ "type": "Feature", "properties": { "name": "Pontes", "code_muni": 4319604.0, "name_muni": "São Sepé" }, "geometry": { "type": "Polygon", "coordinates": [ [ [ -53.5896671, -30.1727249 ], [ -53.5894096, -30.1723399 ], [ -53.5885888, -30.1715515 ], [ -53.587532, -30.1709625 ], [ -53.5870278, -30.1707167 ], [ -53.5868401, -30.1705962 ], [ -53.5866523, -30.1704756 ], [ -53.5864806, -30.1703921 ], [ -53.5861588, -30.170243699999986 ], [ -53.5860255, -30.170144799999985 ], [ -53.585893, -30.1700464 ], [ -53.5855901, -30.1698217 ], [ -53.5852522, -30.169664 ], [ -53.5848606, -30.1693811 ], [ -53.5844421, -30.1691121 ], [ -53.5840184, -30.169075 ], [ -53.5838842, -30.1690147 ], [ -53.5835302, -30.1686947 ], [ -53.5833532, -30.1682912 ], [ -53.5829079, -30.167957299999987 ], [ -53.5824037, -30.167864500000011 ], [ -53.5821086, -30.1680129 ], [ -53.5820191, -30.1680443 ], [ -53.5802472, -30.1711851 ], [ -53.5793647, -30.1722159 ], [ -53.5796067, -30.17241820000001 ], [ -53.5797778, -30.1726182 ], [ -53.580274, -30.1731805 ], [ -53.5805394, -30.1734783 ], [ -53.5806548, -30.1736025 ], [ -53.5813331, -30.1743094 ], [ -53.5819486, -30.1750119 ], [ -53.5823333, -30.1754467 ], [ -53.5825535, -30.1756941 ], [ -53.5826784, -30.1758119 ], [ -53.5828043, -30.1759307 ], [ -53.5832727, -30.1763725 ], [ -53.5837263, -30.1769024 ], [ -53.5838169, -30.1770144 ], [ -53.5838768, -30.1770892 ], [ -53.5839747, -30.1771516 ], [ -53.5842702, -30.177549500000012 ], [ -53.5845935, -30.1779848 ], [ -53.5848899, -30.1783882 ], [ -53.5901973, -30.1729661 ], [ -53.5896671, -30.1727249 ] ] ] } },
{ "type": "Feature", "properties": { "name": "Rosa", "code_muni": 4319604.0, "name_muni": "São Sepé" }, "geometry": { "type": "Polygon", "coordinates": [ [ [ -53.5796034, -30.170192699999987 ], [ -53.5808533, -30.1678691 ], [ -53.5807514, -30.167948 ], [ -53.5802901, -30.168230900000012 ], [ -53.5801774, -30.1682819 ], [ -53.5795873, -30.1688338 ], [ -53.5794908, -30.1688987 ], [ -53.5793728, -30.1689358 ], [ -53.5790724, -30.1688616 ], [ -53.578772, -30.168620499999989 ], [ -53.5782945, -30.168323700000013 ], [ -53.5779941, -30.1682216 ], [ -53.5777313, -30.1680639 ], [ -53.5774239, -30.1679126 ], [ -53.5772699, -30.1678367 ], [ -53.5767388, -30.1675491 ], [ -53.5760361, -30.167076099999989 ], [ -53.5759127, -30.1670575 ], [ -53.5755909, -30.1668813 ], [ -53.5753065, -30.1665311 ], [ -53.5746923, -30.166394300000011 ], [ -53.5744911, -30.1663155 ], [ -53.5744053, -30.1662227 ], [ -53.574231, -30.1660836 ], [ -53.5741864, -30.165989 ], [ -53.5741451, -30.1661114 ], [ -53.5740598, -30.1667173 ], [ -53.5739442, -30.1674934 ], [ -53.5739372, -30.1675406 ], [ -53.5731264, -30.1674408 ], [ -53.5729752, -30.1681778 ], [ -53.5729626, -30.1682474 ], [ -53.5729483, -30.1683306 ], [ -53.5727719, -30.1692673 ], [ -53.5728201, -30.1693741 ], [ -53.5742766, -30.169766 ], [ -53.5754594, -30.1701996 ], [ -53.5758886, -30.170304 ], [ -53.5761219, -30.1704083 ], [ -53.5767683, -30.1708281 ], [ -53.5782839, -30.1715591 ], [ -53.5796034, -30.170192699999987 ] ] ] } },
{ "type": "Feature", "properties": { "name": "Silveira", "code_muni": 4319604.0, "name_muni": "São Sepé" }, "geometry": { "type": "Polygon", "coordinates": [ [ [ -53.5776508, -30.1722147 ], [ -53.5782839, -30.1715591 ], [ -53.5767683, -30.1708281 ], [ -53.5761219, -30.1704083 ], [ -53.5758886, -30.170304 ], [ -53.5754594, -30.1701996 ], [ -53.5742766, -30.169766 ], [ -53.5728201, -30.1693741 ], [ -53.5727719, -30.1692673 ], [ -53.5719182, -30.168992500000012 ], [ -53.5718151, -30.1696306 ], [ -53.5717836, -30.1698099 ], [ -53.5716231, -30.1706759 ], [ -53.571481, -30.1714806 ], [ -53.5732829, -30.1717102 ], [ -53.5741264, -30.1718296 ], [ -53.5750332, -30.1719518 ], [ -53.5769017, -30.172776 ], [ -53.5776508, -30.1722147 ] ] ] } },
{ "type": "Feature", "properties": { "name": "Isolanda", "code_muni": 4319604.0, "name_muni": "São Sepé" }, "geometry": { "type": "Polygon", "coordinates": [ [ [ -53.5670205, -30.1776543 ], [ -53.5706663, -30.1776499 ], [ -53.5716105, -30.176740899999984 ], [ -53.5769017, -30.172776 ], [ -53.5750332, -30.1719518 ], [ -53.5741264, -30.1718296 ], [ -53.5732829, -30.1717102 ], [ -53.571481, -30.1714806 ], [ -53.5716231, -30.1706759 ], [ -53.5707659, -30.1705412 ], [ -53.5698148, -30.1704172 ], [ -53.5688423, -30.1702921 ], [ -53.5688242, -30.1703947 ], [ -53.5686816, -30.1711521 ], [ -53.568545, -30.1719747 ], [ -53.5683904, -30.1727545 ], [ -53.5682504, -30.1735646 ], [ -53.56814, -30.1744071 ], [ -53.5680673, -30.174461599999987 ], [ -53.5680121, -30.174533 ], [ -53.5678473, -30.1754013 ], [ -53.5670205, -30.1776543 ] ] ] } },
{ "type": "Feature", "properties": { "name": "Bela Vista", "code_muni": 4319604.0, "name_muni": "São Sepé" }, "geometry": { "type": "Polygon", "coordinates": [ [ [ -53.5656559, -30.1755561 ], [ -53.565643, -30.1757863 ], [ -53.5655501, -30.1768493 ], [ -53.56549, -30.1775427 ], [ -53.5656694, -30.1775618 ], [ -53.5658598, -30.1775455 ], [ -53.56622990000001, -30.177578 ], [ -53.5670205, -30.1776543 ], [ -53.5678473, -30.1754013 ], [ -53.5680121, -30.174533 ], [ -53.5680673, -30.174461599999987 ], [ -53.56814, -30.1744071 ], [ -53.5682504, -30.1735646 ], [ -53.5683904, -30.1727545 ], [ -53.568545, -30.1719747 ], [ -53.5686816, -30.1711521 ], [ -53.5688242, -30.1703947 ], [ -53.5688423, -30.1702921 ], [ -53.5678712, -30.1701698 ], [ -53.5668542, -30.1700615 ], [ -53.5659419, -30.1699395 ], [ -53.5659292, -30.1700094 ], [ -53.5657745, -30.1707743 ], [ -53.5656068, -30.1715893 ], [ -53.5652273, -30.172394 ], [ -53.5651868, -30.17263220000001 ], [ -53.5652004, -30.172913299999983 ], [ -53.5652335, -30.173129600000014 ], [ -53.5652531, -30.1732441 ], [ -53.5654191, -30.1740589 ], [ -53.5654333, -30.1741161 ], [ -53.5655403, -30.1746822 ], [ -53.5656349, -30.1753447 ], [ -53.5656559, -30.1755561 ] ] ] } },
{ "type": "Feature", "properties": { "name": "Tatsch", "code_muni": 4319604.0, "name_muni": "São Sepé" }, "geometry": { "type": "Polygon", "coordinates": [ [ [ -53.5564184, -30.1773531 ], [ -53.56549, -30.1775427 ], [ -53.5655501, -30.1768493 ], [ -53.565643, -30.1757863 ], [ -53.5656559, -30.1755561 ], [ -53.5656349, -30.1753447 ], [ -53.5655403, -30.1746822 ], [ -53.5654333, -30.1741161 ], [ -53.5654191, -30.1740589 ], [ -53.5652531, -30.1732441 ], [ -53.5652335, -30.173129600000014 ], [ -53.5652004, -30.172913299999983 ], [ -53.5651868, -30.17263220000001 ], [ -53.5652273, -30.172394 ], [ -53.5656068, -30.1715893 ], [ -53.5657745, -30.1707743 ], [ -53.5659292, -30.1700094 ], [ -53.5659419, -30.1699395 ], [ -53.5649804, -30.1698328 ], [ -53.5644877, -30.1697646 ], [ -53.5639091, -30.1696858 ], [ -53.5637109, -30.169671 ], [ -53.5629373, -30.1695564 ], [ -53.5628236, -30.169542899999989 ], [ -53.5617829, -30.169719199999985 ], [ -53.5605577, -30.169709 ], [ -53.5587252, -30.1694873 ], [ -53.5581842, -30.1694873 ], [ -53.5573626, -30.1694873 ], [ -53.5569763, -30.1695805 ], [ -53.556751, -30.1696872 ], [ -53.5560966, -30.1697382 ], [ -53.5564184, -30.1773531 ] ] ] } },
{ "type": "Feature", "properties": { "name": "Cristo Rei", "code_muni": 4319604.0, "name_muni": "São Sepé" }, "geometry": { "type": "Polygon", "coordinates": [ [ [ -53.5559419, -30.1571319 ], [ -53.5548044, -30.1568297 ], [ -53.5534653, -30.1596726 ], [ -53.5541278, -30.1597724 ], [ -53.5547649, -30.1598813 ], [ -53.5561475, -30.160114400000012 ], [ -53.5573183, -30.1603451 ], [ -53.5575718, -30.1603926 ], [ -53.5577918, -30.1601051 ], [ -53.5585427, -30.1594766 ], [ -53.5593447, -30.1587832 ], [ -53.5593447, -30.1587391 ], [ -53.5594037, -30.158665 ], [ -53.5590389, -30.1584887 ], [ -53.5588774, -30.1584079 ], [ -53.5584033, -30.1581707 ], [ -53.5570323, -30.1575921 ], [ -53.5559419, -30.1571319 ] ] ] } },
{ "type": "Feature", "properties": { "name": "Cooperativa", "code_muni": 4319604.0, "name_muni": "São Sepé" }, "geometry": { "type": "Polygon", "coordinates": [ [ [ -53.5575718, -30.1603926 ], [ -53.5574484, -30.1617516 ], [ -53.5602355, -30.1621399 ], [ -53.5615649, -30.1623578 ], [ -53.5624987, -30.162510699999988 ], [ -53.5626684, -30.1617198 ], [ -53.5628486, -30.1607301 ], [ -53.5628741, -30.160667 ], [ -53.5622495, -30.1600193 ], [ -53.5620484, -30.1598685 ], [ -53.5612437, -30.1595021 ], [ -53.560954, -30.1593676 ], [ -53.5597095, -30.158813299999988 ], [ -53.5594037, -30.158665 ], [ -53.5593447, -30.1587391 ], [ -53.5593447, -30.1587832 ], [ -53.5585427, -30.1594766 ], [ -53.5577918, -30.1601051 ], [ -53.5575718, -30.1603926 ] ] ] } },
{ "type": "Feature", "properties": { "name": "Santo Antônio", "code_muni": 4319604.0, "name_muni": "São Sepé" }, "geometry": { "type": "Polygon", "coordinates": [ [ [ -53.5568691, -30.1645716 ], [ -53.5560966, -30.1697382 ], [ -53.556751, -30.1696872 ], [ -53.5569763, -30.1695805 ], [ -53.5573626, -30.1694873 ], [ -53.5581842, -30.1694873 ], [ -53.5587252, -30.1694873 ], [ -53.5605577, -30.169709 ], [ -53.5617829, -30.169719199999985 ], [ -53.5628236, -30.169542899999989 ], [ -53.5629373, -30.1695564 ], [ -53.5637109, -30.169671 ], [ -53.5639091, -30.1696858 ], [ -53.5640101, -30.169231100000012 ], [ -53.564113, -30.1687675 ], [ -53.5642954, -30.167942 ], [ -53.5644837, -30.1671162 ], [ -53.5646371, -30.1662779 ], [ -53.5648383, -30.1654419 ], [ -53.5650279, -30.1645531 ], [ -53.5651901, -30.163795 ], [ -53.565361, -30.162911 ], [ -53.565377, -30.1628099 ], [ -53.5649586, -30.162503 ], [ -53.5642424, -30.1619488 ], [ -53.5636416, -30.1615012 ], [ -53.5632044, -30.1610095 ], [ -53.5628741, -30.160667 ], [ -53.5628486, -30.1607301 ], [ -53.5626684, -30.1617198 ], [ -53.5624987, -30.162510699999988 ], [ -53.5615649, -30.1623578 ], [ -53.5602355, -30.1621399 ], [ -53.5574484, -30.1617516 ], [ -53.5568691, -30.1645716 ] ] ] } },
{ "type": "Feature", "properties": { "name": "São Francisco", "code_muni": 4319604.0, "name_muni": "São Sepé" }, "geometry": { "type": "Polygon", "coordinates": [ [ [ -53.5616112, -30.1536902 ], [ -53.5612142, -30.1561579 ], [ -53.5589826, -30.1552024 ], [ -53.5570323, -30.1575921 ], [ -53.5584033, -30.1581707 ], [ -53.5588774, -30.1584079 ], [ -53.5590389, -30.1584887 ], [ -53.5594037, -30.158665 ], [ -53.5597095, -30.158813299999988 ], [ -53.560954, -30.1593676 ], [ -53.5612437, -30.1595021 ], [ -53.5620484, -30.1598685 ], [ -53.5622495, -30.1600193 ], [ -53.5628741, -30.160667 ], [ -53.5632044, -30.1610095 ], [ -53.5636416, -30.1615012 ], [ -53.5642424, -30.1619488 ], [ -53.5649586, -30.162503 ], [ -53.565377, -30.1628099 ], [ -53.5653935, -30.1627598 ], [ -53.5655498, -30.1621143 ], [ -53.5657419, -30.1612784 ], [ -53.56592830000001, -30.1605052 ], [ -53.5660524, -30.1599562 ], [ -53.5664832, -30.1582316 ], [ -53.566592, -30.1582048 ], [ -53.5664013, -30.1580116 ], [ -53.5662407, -30.157790599999988 ], [ -53.5660583, -30.1575865 ], [ -53.5659564, -30.1572015 ], [ -53.5657632, -30.1568537 ], [ -53.5657311, -30.1567609 ], [ -53.5656023, -30.1563388 ], [ -53.5655969, -30.156065099999985 ], [ -53.565715, -30.1554482 ], [ -53.565715, -30.1550122 ], [ -53.5657686, -30.1545576 ], [ -53.5657525, -30.1542701 ], [ -53.5616112, -30.1536902 ] ] ] } },
{ "type": "Feature", "properties": { "name": "Kurtz", "code_muni": 4319604.0, "name_muni": "São Sepé" }, "geometry": { "type": "Polygon", "coordinates": [ [ [ -53.5758054, -30.1577628 ], [ -53.5705268, -30.155211699999988 ], [ -53.5690677, -30.1542376 ], [ -53.56774810000001, -30.1539314 ], [ -53.5667288, -30.15395 ], [ -53.5657525, -30.1542701 ], [ -53.5657686, -30.1545576 ], [ -53.565715, -30.1550122 ], [ -53.565715, -30.1554482 ], [ -53.5655969, -30.156065099999985 ], [ -53.5656023, -30.1563388 ], [ -53.5657311, -30.1567609 ], [ -53.5657632, -30.1568537 ], [ -53.5659564, -30.1572015 ], [ -53.5660583, -30.1575865 ], [ -53.5662407, -30.157790599999988 ], [ -53.5664013, -30.1580116 ], [ -53.566592, -30.1582048 ], [ -53.5667771, -30.158379699999987 ], [ -53.5668469, -30.1585188 ], [ -53.566922, -30.1587693 ], [ -53.5671365, -30.1591403 ], [ -53.5673297, -30.159363 ], [ -53.5675442, -30.1596877 ], [ -53.5675818, -30.1597804 ], [ -53.5677474, -30.1599693 ], [ -53.5677749, -30.1600007 ], [ -53.5679358, -30.1600587 ], [ -53.5681129, -30.1602071 ], [ -53.5683891, -30.1605596 ], [ -53.5685126, -30.160656 ], [ -53.5686654, -30.1607753 ], [ -53.5686868, -30.1608171 ], [ -53.5689256, -30.1610188 ], [ -53.5692555, -30.161389900000014 ], [ -53.5694582, -30.1615042 ], [ -53.5696873, -30.1616334 ], [ -53.569977, -30.161842100000012 ], [ -53.5701057, -30.1619905 ], [ -53.5701906, -30.1620669 ], [ -53.5703928, -30.1621865 ], [ -53.5704812, -30.1622155 ], [ -53.5711031, -30.1623241 ], [ -53.5713432, -30.1623779 ], [ -53.5716802, -30.1625378 ], [ -53.5720512, -30.1627944 ], [ -53.5722424, -30.162926700000011 ], [ -53.5723776, -30.1630202 ], [ -53.5724983, -30.1632474 ], [ -53.5726967, -30.1637425 ], [ -53.5727801, -30.1640845 ], [ -53.5727614, -30.1641857 ], [ -53.5728864, -30.164185 ], [ -53.5738573, -30.1636348 ], [ -53.573949, -30.1635575 ], [ -53.5739807, -30.1635341 ], [ -53.5740323, -30.1634935 ], [ -53.5743398, -30.163364899999987 ], [ -53.5745847, -30.163308 ], [ -53.5750517, -30.163292 ], [ -53.5762499, -30.1632704 ], [ -53.5767132, -30.1633279 ], [ -53.5771031, -30.1634487 ], [ -53.5774146, -30.1635238 ], [ -53.5780109, -30.1637358 ], [ -53.5780188, -30.1636987 ], [ -53.5780017, -30.1636303 ], [ -53.5777672, -30.1633556 ], [ -53.5769608, -30.162534 ], [ -53.5765012, -30.1620788 ], [ -53.5764234, -30.1619931 ], [ -53.5762111, -30.1617886 ], [ -53.5760772, -30.1616557 ], [ -53.5764642, -30.1611892 ], [ -53.5770071, -30.1585606 ], [ -53.5758054, -30.1577628 ] ] ] } },
{ "type": "Feature", "properties": { "name": "Medianeira", "code_muni": 4319604.0, "name_muni": "São Sepé" }, "geometry": { "type": "Polygon", "coordinates": [ [ [ -53.5726967, -30.1637425 ], [ -53.5724983, -30.1632474 ], [ -53.5723776, -30.1630202 ], [ -53.5722424, -30.162926700000011 ], [ -53.5720512, -30.1627944 ], [ -53.5716802, -30.1625378 ], [ -53.5713432, -30.1623779 ], [ -53.5711031, -30.1623241 ], [ -53.5704812, -30.1622155 ], [ -53.5703928, -30.1621865 ], [ -53.5701906, -30.1620669 ], [ -53.5701057, -30.1619905 ], [ -53.569977, -30.161842100000012 ], [ -53.5696873, -30.1616334 ], [ -53.5694582, -30.1615042 ], [ -53.5692555, -30.161389900000014 ], [ -53.5689256, -30.1610188 ], [ -53.5686868, -30.1608171 ], [ -53.5686654, -30.1607753 ], [ -53.5685126, -30.160656 ], [ -53.5683891, -30.1605596 ], [ -53.5681129, -30.1602071 ], [ -53.5679358, -30.1600587 ], [ -53.5677749, -30.1600007 ], [ -53.5677474, -30.1599693 ], [ -53.5675818, -30.1597804 ], [ -53.5675442, -30.1596877 ], [ -53.5673297, -30.159363 ], [ -53.5671365, -30.1591403 ], [ -53.566922, -30.1587693 ], [ -53.5668469, -30.1585188 ], [ -53.5667771, -30.158379699999987 ], [ -53.566592, -30.1582048 ], [ -53.5664832, -30.1582316 ], [ -53.5660524, -30.1599562 ], [ -53.56592830000001, -30.1605052 ], [ -53.5657419, -30.1612784 ], [ -53.5655498, -30.1621143 ], [ -53.5653935, -30.1627598 ], [ -53.565377, -30.1628099 ], [ -53.565361, -30.162911 ], [ -53.5654333, -30.162925 ], [ -53.566202, -30.163056 ], [ -53.5671766, -30.1632192 ], [ -53.5681328, -30.1633654 ], [ -53.5683017, -30.1633904 ], [ -53.5690692, -30.1634863 ], [ -53.5700545, -30.1636152 ], [ -53.570971, -30.1637457 ], [ -53.5719667, -30.163939 ], [ -53.572148, -30.1639714 ], [ -53.5727801, -30.1640845 ], [ -53.5726967, -30.1637425 ] ] ] } },
{ "type": "Feature", "properties": { "name": "Centro", "code_muni": 4319604.0, "name_muni": "São Sepé" }, "geometry": { "type": "Polygon", "coordinates": [ [ [ -53.5698148, -30.1704172 ], [ -53.5707659, -30.1705412 ], [ -53.5716231, -30.1706759 ], [ -53.5717836, -30.1698099 ], [ -53.5718151, -30.1696306 ], [ -53.5719182, -30.168992500000012 ], [ -53.5727719, -30.1692673 ], [ -53.5729483, -30.1683306 ], [ -53.5729626, -30.1682474 ], [ -53.5729752, -30.1681778 ], [ -53.5731264, -30.1674408 ], [ -53.5739372, -30.1675406 ], [ -53.5739442, -30.1674934 ], [ -53.5740598, -30.1667173 ], [ -53.5741451, -30.1661114 ], [ -53.5741864, -30.165989 ], [ -53.5739788, -30.1660697 ], [ -53.5733083, -30.1651166 ], [ -53.5730696, -30.1647594 ], [ -53.5730293, -30.164328099999988 ], [ -53.5729355, -30.1642632 ], [ -53.5727614, -30.1641857 ], [ -53.5727801, -30.1640845 ], [ -53.572148, -30.1639714 ], [ -53.5719667, -30.163939 ], [ -53.570971, -30.1637457 ], [ -53.5700545, -30.1636152 ], [ -53.5690692, -30.1634863 ], [ -53.5683017, -30.1633904 ], [ -53.5681328, -30.1633654 ], [ -53.5671766, -30.1632192 ], [ -53.566202, -30.163056 ], [ -53.5654333, -30.162925 ], [ -53.565361, -30.162911 ], [ -53.5651901, -30.163795 ], [ -53.5650279, -30.1645531 ], [ -53.5648383, -30.1654419 ], [ -53.5646371, -30.1662779 ], [ -53.5644837, -30.1671162 ], [ -53.5642954, -30.167942 ], [ -53.564113, -30.1687675 ], [ -53.5640101, -30.169231100000012 ], [ -53.5639091, -30.1696858 ], [ -53.5644877, -30.1697646 ], [ -53.5649804, -30.1698328 ], [ -53.5659419, -30.1699395 ], [ -53.5668542, -30.1700615 ], [ -53.5678712, -30.1701698 ], [ -53.5688423, -30.1702921 ], [ -53.5698148, -30.1704172 ] ] ] } }
]
}
