{
"type": "FeatureCollection",
"name": "bairros_esteio",
"crs": { "type": "name", "properties": { "name": "urn:ogc:def:crs:OGC:1.3:CRS84" } },
"features": [
{ "type": "Feature", "properties": { "name": "Industrial", "code_muni": 4307708.0, "name_muni": "Esteio" }, "geometry": { "type": "MultiPolygon", "coordinates": [ [ [ [ -51.2254406, -29.8620015 ], [ -51.208057, -29.8622995 ], [ -51.2067867, -29.8623049 ], [ -51.2064047, -29.8623294 ], [ -51.2007794, -29.8623894 ], [ -51.1987321, -29.8625345 ], [ -51.1984323, -29.8625558 ], [ -51.1980966, -29.862475 ], [ -51.1955186, -29.8623764 ], [ -51.1940396, -29.8622759 ], [ -51.1933104, -29.8622759 ], [ -51.1926016, -29.862323199999988 ], [ -51.1921995, -29.8623527 ], [ -51.1919405, -29.8624296 ], [ -51.1915928, -29.8626448 ], [ -51.1911814, -29.8629123 ], [ -51.189740941026322, -29.864145704758364 ], [ -51.193247285, -29.86259638 ], [ -51.231612921999989, -29.862311374999905 ], [ -51.231512694690572, -29.861917715612179 ], [ -51.2254406, -29.8620015 ] ] ], [ [ [ -51.1879394, -29.8648304 ], [ -51.1873605, -29.8650009 ], [ -51.1867311, -29.8652267 ], [ -51.1865091, -29.865297 ], [ -51.1863124, -29.865277 ], [ -51.1860541, -29.8653389 ], [ -51.1858785, -29.865415399999989 ], [ -51.1856527, -29.8655124 ], [ -51.1843685, -29.865772599999985 ], [ -51.1833045, -29.8660004 ], [ -51.1823095, -29.8662469 ], [ -51.182049950867636, -29.866301904035428 ], [ -51.185499218, -29.866019778 ], [ -51.188688798449682, -29.864610580446698 ], [ -51.1879394, -29.8648304 ] ] ] ] } },
{ "type": "Feature", "properties": { "name": "Brigadeira", "code_muni": 4307708.0, "name_muni": "Esteio" }, "geometry": { "type": "MultiPolygon", "coordinates": [ [ [ [ -51.1800403, -29.8664627 ], [ -51.1798181, -29.8663823 ], [ -51.1794479, -29.8662801 ], [ -51.1790987, -29.8662299 ], [ -51.1786559, -29.866261600000012 ], [ -51.1782376, -29.8663511 ], [ -51.1778783, -29.8664814 ], [ -51.1775528, -29.8665138 ], [ -51.1772863, -29.8664676 ], [ -51.177127967664006, -29.866405143490816 ], [ -51.177551246, -29.866669729000012 ], [ -51.180054725947528, -29.866465057685446 ], [ -51.1800403, -29.8664627 ] ] ], [ [ [ -51.1758439, -29.8655665 ], [ -51.1753766, -29.8652393 ], [ -51.1744503, -29.8645583 ], [ -51.1723165, -29.8629998 ], [ -51.1720969, -29.8628488 ], [ -51.1715616, -29.8624732 ], [ -51.170354, -29.8616317 ], [ -51.168911, -29.860607800000011 ], [ -51.1681068, -29.8600761 ], [ -51.1674306, -29.8595583 ], [ -51.1668968, -29.859229 ], [ -51.1665758, -29.8590599 ], [ -51.1663277, -29.8589506 ], [ -51.16579, -29.8588664 ], [ -51.165319, -29.8589135 ], [ -51.1647797, -29.8590168 ], [ -51.1643333, -29.8592128 ], [ -51.1638648, -29.8595035 ], [ -51.1632364, -29.8600254 ], [ -51.162336033865159, -29.860736605502453 ], [ -51.165675611, -29.859245379999891 ], [ -51.176360036657371, -29.865925113228549 ], [ -51.1758439, -29.8655665 ] ] ], [ [ [ -51.1577411, -29.862638 ], [ -51.1572115, -29.8629034 ], [ -51.1570763, -29.8629595 ], [ -51.1566988, -29.8631838 ], [ -51.1560641235437, -29.863536860961574 ], [ -51.158320824481876, -29.862529351233214 ], [ -51.1577411, -29.862638 ] ] ], [ [ [ -51.1551247, -29.8639313 ], [ -51.1547574, -29.8638818 ], [ -51.154116, -29.8638036 ], [ -51.1536191, -29.8637057 ], [ -51.1530348, -29.8637231 ], [ -51.1522427, -29.8638544 ], [ -51.1515152, -29.8640896 ], [ -51.1513021, -29.8641544 ], [ -51.1503784, -29.8644963 ], [ -51.150357304186095, -29.864509035369931 ], [ -51.155022201, -29.864002009999986 ], [ -51.155227767021692, -29.863910239452789 ], [ -51.1551247, -29.8639313 ] ] ], [ [ [ -51.1488549, -29.8643518 ], [ -51.1484919, -29.864295 ], [ -51.1479883, -29.8643134 ], [ -51.1478573, -29.8643579 ], [ -51.1476885, -29.8644395 ], [ -51.1476671, -29.8644958 ], [ -51.147513574669162, -29.864818035585138 ], [ -51.149476675638404, -29.864604731392699 ], [ -51.1488549, -29.8643518 ] ] ], [ [ [ -51.1466823, -29.864888 ], [ -51.146382, -29.864638 ], [ -51.1461704, -29.8645144 ], [ -51.1460172, -29.864511899999986 ], [ -51.1458994, -29.8645616 ], [ -51.1456807, -29.8647685 ], [ -51.145371873605548, -29.865050711561949 ], [ -51.146699635111233, -29.864906466796018 ], [ -51.1466823, -29.864888 ] ] ], [ [ [ -51.14416820000001, -29.8650446 ], [ -51.1436577, -29.8649056 ], [ -51.1431927, -29.864825 ], [ -51.1429071, -29.8647625 ], [ -51.1425502, -29.8649609 ], [ -51.142495410279402, -29.864980954490498 ], [ -51.143379098, -29.865267176 ], [ -51.144555317575531, -29.865139413377793 ], [ -51.14416820000001, -29.8650446 ] ] ], [ [ [ -51.1422074, -29.8648761 ], [ -51.1421545, -29.8647128 ], [ -51.142038, -29.864307 ], [ -51.1419903, -29.864256 ], [ -51.1419213, -29.8642356 ], [ -51.141808, -29.8642746 ], [ -51.1414508, -29.8644049 ], [ -51.141150084119758, -29.86454519633606 ], [ -51.142217955546762, -29.864891086892897 ], [ -51.1422074, -29.8648761 ] ] ], [ [ [ -51.1403925, -29.8642855 ], [ -51.1402327, -29.864092 ], [ -51.1400822, -29.8639657 ], [ -51.1399244, -29.863953 ], [ -51.1397666, -29.8639977 ], [ -51.139471815225583, -29.864165628351774 ], [ -51.139835790999904, -29.864119472999988 ], [ -51.140419173535605, -29.864308443232151 ], [ -51.1403925, -29.8642855 ] ] ], [ [ [ -51.1384496, -29.8640928 ], [ -51.138108, -29.8637809 ], [ -51.1376438, -29.8636166 ], [ -51.1370447, -29.8636527 ], [ -51.1367418, -29.8637306 ], [ -51.1364753, -29.8636934 ], [ -51.1359936, -29.8637913 ], [ -51.1355388, -29.86392570000001 ], [ -51.1351764, -29.8641243 ], [ -51.1350584, -29.8643866 ], [ -51.1348418, -29.8644779 ], [ -51.1346503, -29.864687 ], [ -51.1346154, -29.8647483 ], [ -51.1345522, -29.8647574 ], [ -51.1344452, -29.8647099 ], [ -51.134377, -29.8645979 ], [ -51.1343319, -29.8644045 ], [ -51.1342979, -29.8643201 ], [ -51.1341966, -29.8642695 ], [ -51.1338986, -29.8642954 ], [ -51.1337531, -29.864265400000011 ], [ -51.1336076, -29.864287599999987 ], [ -51.1334902, -29.864380300000011 ], [ -51.1334118, -29.8644975 ], [ -51.1333681, -29.864549600000011 ], [ -51.133289, -29.864580199999988 ], [ -51.1332053, -29.8645489 ], [ -51.1331705, -29.8644858 ], [ -51.13312160000001, -29.8644471 ], [ -51.1329891, -29.8644699 ], [ -51.1329175, -29.8645181 ], [ -51.1328424, -29.8645141 ], [ -51.1324309, -29.8643724 ], [ -51.1322237, -29.864319 ], [ -51.1320957, -29.8642273 ], [ -51.13209, -29.8641216 ], [ -51.1319367, -29.8639779 ], [ -51.1317292, -29.863892199999984 ], [ -51.1309391, -29.863440199999985 ], [ -51.1308518, -29.8634069 ], [ -51.1307215, -29.8634581 ], [ -51.1305698, -29.863481499999988 ], [ -51.1304785, -29.8634429 ], [ -51.1303979, -29.8633717 ], [ -51.1302851, -29.86334 ], [ -51.1301616, -29.8633363 ], [ -51.1300716, -29.8633765 ], [ -51.130003, -29.86344 ], [ -51.129941, -29.8635809 ], [ -51.129893, -29.863863 ], [ -51.1298316, -29.863993899999986 ], [ -51.1297726, -29.8641273 ], [ -51.129763085344422, -29.864177652862455 ], [ -51.13239064, -29.865063376 ], [ -51.138626627107818, -29.864272801656966 ], [ -51.1384496, -29.8640928 ] ] ], [ [ [ -51.1293026, -29.8663949 ], [ -51.1292872, -29.8663097 ], [ -51.129376609650912, -29.866146823890308 ], [ -51.129385694449695, -29.866039344900269 ], [ -51.1293559, -29.8658869 ], [ -51.1291897, -29.8657829 ], [ -51.1290026, -29.8658822 ], [ -51.1288957, -29.8660835 ], [ -51.1286166, -29.8662154 ], [ -51.1286123, -29.8665536 ], [ -51.1284518, -29.8667686 ], [ -51.1283981, -29.866980399999989 ], [ -51.1278839, -29.8669975 ], [ -51.127566, -29.8671852 ], [ -51.1273017, -29.867265 ], [ -51.1268879, -29.8673648 ], [ -51.1267458, -29.8674632 ], [ -51.126658, -29.867508399999984 ], [ -51.126473, -29.8674375 ], [ -51.1263899, -29.867474399999988 ], [ -51.126379, -29.8675815 ], [ -51.1261958, -29.8676754 ], [ -51.1260278, -29.8677002 ], [ -51.1258382, -29.8676467 ], [ -51.125288, -29.8672841 ], [ -51.125145, -29.867074 ], [ -51.12511, -29.8668906 ], [ -51.1250406, -29.866792299999986 ], [ -51.1249155, -29.866815 ], [ -51.1248224, -29.8669326 ], [ -51.1246268, -29.867095 ], [ -51.124528399693084, -29.867159453837889 ], [ -51.126209197, -29.868003315999893 ], [ -51.129296998, -29.867088671 ], [ -51.129354229229236, -29.866411597647598 ], [ -51.1293026, -29.8663949 ] ] ], [ [ [ -51.1242503, -29.8669231 ], [ -51.1244274, -29.8667616 ], [ -51.124474, -29.8666442 ], [ -51.1244042, -29.8665513 ], [ -51.1242636, -29.866567 ], [ -51.1238685, -29.8666973 ], [ -51.12376123059191, -29.866774276544259 ], [ -51.124201159029859, -29.866995155023314 ], [ -51.1242503, -29.8669231 ] ] ], [ [ [ -51.1235814, -29.8665236 ], [ -51.1233375, -29.866452099999989 ], [ -51.1232496, -29.8663979 ], [ -51.123186, -29.8663148 ], [ -51.1231723, -29.8662066 ], [ -51.1230816, -29.8661352 ], [ -51.1225712, -29.8661493 ], [ -51.122506064990645, -29.866144071788064 ], [ -51.123633052478041, -29.866709920646375 ], [ -51.1235814, -29.8665236 ] ] ] ] } },
{ "type": "Feature", "properties": { "name": "Três Marias", "code_muni": 4307708.0, "name_muni": "Esteio" }, "geometry": { "type": "Polygon", "coordinates": [ [ [ -51.1194176, -29.8590565 ], [ -51.119022, -29.8591752 ], [ -51.118845005011018, -29.859263862489797 ], [ -51.118767242452513, -29.859328764314945 ], [ -51.1187095, -29.859395 ], [ -51.1186489, -29.8595093 ], [ -51.1183387, -29.859951599999984 ], [ -51.1181617, -29.8601033 ], [ -51.1178492, -29.860276 ], [ -51.11728777955107, -29.860563521970288 ], [ -51.116441874515736, -29.861269491952033 ], [ -51.1163854, -29.8613396 ], [ -51.1161822, -29.8615705 ], [ -51.1158758, -29.861806 ], [ -51.115570498488033, -29.86199670324558 ], [ -51.115239721, -29.862272751 ], [ -51.115001875401411, -29.862352882397989 ], [ -51.114829, -29.8624614 ], [ -51.1143221, -29.8627614 ], [ -51.1140747, -29.86286650000001 ], [ -51.1137734, -29.862993 ], [ -51.1132693, -29.863191900000011 ], [ -51.1125501, -29.8634622 ], [ -51.1124401, -29.8634987 ], [ -51.1111264, -29.8639343 ], [ -51.1100078, -29.8643879 ], [ -51.1093417, -29.86457510000001 ], [ -51.1089225, -29.8646525 ], [ -51.1083817, -29.8646862 ], [ -51.1072161, -29.8650984 ], [ -51.1063244, -29.8653747 ], [ -51.105577, -29.8655915 ], [ -51.1052668, -29.8656707 ], [ -51.1049776, -29.865755199999985 ], [ -51.10497402258747, -29.865755965620327 ], [ -51.101261333, -29.868700562999901 ], [ -51.102323997094786, -29.869562783742829 ], [ -51.1023513, -29.8695654 ], [ -51.1025323, -29.8697002 ], [ -51.1027261, -29.8698722 ], [ -51.1028409, -29.8698236 ], [ -51.1031062, -29.869764 ], [ -51.103391, -29.8696888 ], [ -51.1036938, -29.869708 ], [ -51.1038073, -29.869789 ], [ -51.1038594, -29.8699765 ], [ -51.1038319, -29.870382399999986 ], [ -51.10371849850273, -29.870694213796728 ], [ -51.105165972148875, -29.871868580056905 ], [ -51.1053433, -29.8718442 ], [ -51.1057143, -29.8718907 ], [ -51.106003615730039, -29.872124520191754 ], [ -51.106960521516683, -29.871326800607896 ], [ -51.1069419, -29.8712241 ], [ -51.1069152, -29.8710992 ], [ -51.1069734, -29.8708865 ], [ -51.1069901, -29.8706057 ], [ -51.1070787, -29.8704432 ], [ -51.1072299, -29.8703384 ], [ -51.1073866, -29.8703807 ], [ -51.1073825, -29.8705382 ], [ -51.1073811, -29.8707244 ], [ -51.1072653, -29.8708854 ], [ -51.1072532, -29.8710062 ], [ -51.107343086859601, -29.87100787146872 ], [ -51.107559898474818, -29.870827123061545 ], [ -51.1077181, -29.8706627 ], [ -51.1078778, -29.8704707 ], [ -51.1079756, -29.8703684 ], [ -51.1083595, -29.8703987 ], [ -51.10854925747249, -29.870485529725265 ], [ -51.109176340949979, -29.870441035753657 ], [ -51.1092099, -29.8703243 ], [ -51.1093005, -29.8701931 ], [ -51.1094556, -29.8702294 ], [ -51.109540089870691, -29.870415224993081 ], [ -51.110351939066732, -29.870357614437197 ], [ -51.1104294, -29.870241 ], [ -51.1106394, -29.8700683 ], [ -51.1108268, -29.8700977 ], [ -51.1109151, -29.8700025 ], [ -51.111011, -29.8700056 ], [ -51.1109463, -29.8702037 ], [ -51.110930951233009, -29.870316523404544 ], [ -51.111887372, -29.870248643 ], [ -51.111910534626418, -29.870238254303576 ], [ -51.111959, -29.8701101 ], [ -51.1119702, -29.8697591 ], [ -51.1120322, -29.8695459 ], [ -51.1121192, -29.8694552 ], [ -51.1125827, -29.8693591 ], [ -51.1130601, -29.8692224 ], [ -51.1134334, -29.8692655 ], [ -51.1135393, -29.8692109 ], [ -51.1135178, -29.8689875 ], [ -51.11347270000001, -29.8686835 ], [ -51.1135507, -29.8684285 ], [ -51.1136886, -29.8682194 ], [ -51.1139559, -29.8680509 ], [ -51.1142196, -29.8680813 ], [ -51.1143439, -29.8681782 ], [ -51.1145448, -29.8681661 ], [ -51.1147553, -29.8680473 ], [ -51.1151284, -29.8679348 ], [ -51.1155343, -29.8677434 ], [ -51.1157184, -29.8675876 ], [ -51.1158606, -29.8674158 ], [ -51.1160248, -29.867298 ], [ -51.1161596, -29.8673262 ], [ -51.1162154, -29.8674456 ], [ -51.1162346, -29.8676001 ], [ -51.1163487, -29.8677751 ], [ -51.1166675, -29.8678278 ], [ -51.116919, -29.8677746 ], [ -51.1172148, -29.8676461 ], [ -51.1173248, -29.867596 ], [ -51.117368086110915, -29.86779030801528 ], [ -51.119403184976541, -29.866877390278376 ], [ -51.1194438, -29.8665075 ], [ -51.1194806, -29.8664161 ], [ -51.119614, -29.8662335 ], [ -51.1196902, -29.8660587 ], [ -51.1196343, -29.865879 ], [ -51.1195025, -29.8656991 ], [ -51.1196532, -29.865576 ], [ -51.119817, -29.8655509 ], [ -51.1198872, -29.8656108 ], [ -51.11988, -29.8657117 ], [ -51.1199483, -29.8657782 ], [ -51.1201161, -29.865783 ], [ -51.1202619, -29.8657547 ], [ -51.1205006, -29.865591 ], [ -51.1206937, -29.8655957 ], [ -51.1208438, -29.8657515 ], [ -51.1209836, -29.8656877 ], [ -51.1210368, -29.8654863 ], [ -51.1211207, -29.865304399999985 ], [ -51.121361, -29.8652416 ], [ -51.1216207, -29.8653295 ], [ -51.1216432, -29.8653323 ], [ -51.1221813, -29.865559 ], [ -51.122412, -29.865778400000014 ], [ -51.1227811, -29.8659938 ], [ -51.122982, -29.8659944 ], [ -51.1230465, -29.866114 ], [ -51.123064, -29.8661143 ], [ -51.1231352, -29.8660885 ], [ -51.1232626, -29.8660289 ], [ -51.1233772, -29.8659452 ], [ -51.1234175, -29.8658545 ], [ -51.1234483, -29.8657353 ], [ -51.1235181, -29.8653625 ], [ -51.1235516, -29.8652177 ], [ -51.124084, -29.864064 ], [ -51.1242664, -29.8636703 ], [ -51.1248523, -29.8629306 ], [ -51.1249271, -29.8628119 ], [ -51.1249778, -29.8626935 ], [ -51.1250585, -29.862483 ], [ -51.1250839, -29.8623686 ], [ -51.1251739, -29.8617305 ], [ -51.1252603, -29.8614595 ], [ -51.1253666, -29.8612215 ], [ -51.1254657, -29.8610168 ], [ -51.1256225, -29.8607111 ], [ -51.1257631, -29.8605586 ], [ -51.125686320091511, -29.860558744053517 ], [ -51.125600353, -29.860625502999905 ], [ -51.125523109964135, -29.860559050118027 ], [ -51.1254965, -29.8605591 ], [ -51.1252009, -29.8605346 ], [ -51.1247353, -29.8604131 ], [ -51.1244353, -29.8602764 ], [ -51.1241579, -29.8601042 ], [ -51.1240839, -29.8600357 ], [ -51.1240096, -29.8599044 ], [ -51.1239465, -29.8597078 ], [ -51.1239256, -29.8595965 ], [ -51.1238204, -29.8591094 ], [ -51.123813314776129, -29.859088063501272 ], [ -51.123185963, -29.858548318 ], [ -51.119662306623809, -29.858998892810789 ], [ -51.1194176, -29.8590565 ] ] ] } },
{ "type": "Feature", "properties": { "name": "Parque Primavera", "code_muni": 4307708.0, "name_muni": "Esteio" }, "geometry": { "type": "MultiPolygon", "coordinates": [ [ [ [ -51.1250585, -29.862483 ], [ -51.1249778, -29.8626935 ], [ -51.1249271, -29.8628119 ], [ -51.1248523, -29.8629306 ], [ -51.1242664, -29.8636703 ], [ -51.124084, -29.864064 ], [ -51.1235516, -29.8652177 ], [ -51.1235181, -29.8653625 ], [ -51.1234483, -29.8657353 ], [ -51.1234175, -29.8658545 ], [ -51.1233772, -29.8659452 ], [ -51.1232626, -29.8660289 ], [ -51.1231352, -29.8660885 ], [ -51.123064, -29.8661143 ], [ -51.1230816, -29.8661352 ], [ -51.1231723, -29.8662066 ], [ -51.123186, -29.8663148 ], [ -51.1232496, -29.8663979 ], [ -51.1233375, -29.866452099999989 ], [ -51.1235814, -29.8665236 ], [ -51.123633052478041, -29.866709920646375 ], [ -51.12376123059191, -29.866774276544259 ], [ -51.1238685, -29.8666973 ], [ -51.1242636, -29.866567 ], [ -51.1244042, -29.8665513 ], [ -51.124474, -29.8666442 ], [ -51.1244274, -29.8667616 ], [ -51.1242503, -29.8669231 ], [ -51.124201159029859, -29.866995155023314 ], [ -51.124528399693084, -29.867159453837889 ], [ -51.1246268, -29.867095 ], [ -51.1248224, -29.8669326 ], [ -51.1249155, -29.866815 ], [ -51.1250406, -29.866792299999986 ], [ -51.12511, -29.8668906 ], [ -51.125145, -29.867074 ], [ -51.125288, -29.8672841 ], [ -51.1258382, -29.8676467 ], [ -51.1260278, -29.8677002 ], [ -51.1261958, -29.8676754 ], [ -51.126379, -29.8675815 ], [ -51.1263899, -29.867474399999988 ], [ -51.126473, -29.8674375 ], [ -51.126658, -29.867508399999984 ], [ -51.1267458, -29.8674632 ], [ -51.1268879, -29.8673648 ], [ -51.1273017, -29.867265 ], [ -51.127566, -29.8671852 ], [ -51.1278839, -29.8669975 ], [ -51.1283981, -29.866980399999989 ], [ -51.1284518, -29.8667686 ], [ -51.1286123, -29.8665536 ], [ -51.1286166, -29.8662154 ], [ -51.1288957, -29.8660835 ], [ -51.1290026, -29.8658822 ], [ -51.1291897, -29.8657829 ], [ -51.1293559, -29.8658869 ], [ -51.129385694449695, -29.866039344900269 ], [ -51.129549149, -29.864105534 ], [ -51.129763085344422, -29.864177652862455 ], [ -51.1297726, -29.8641273 ], [ -51.1298316, -29.863993899999986 ], [ -51.129893, -29.863863 ], [ -51.129941, -29.8635809 ], [ -51.130003, -29.86344 ], [ -51.1300716, -29.8633765 ], [ -51.1301616, -29.8633363 ], [ -51.1302851, -29.86334 ], [ -51.1303979, -29.8633717 ], [ -51.1304785, -29.8634429 ], [ -51.1305698, -29.863481499999988 ], [ -51.1307215, -29.8634581 ], [ -51.1308518, -29.8634069 ], [ -51.1309391, -29.863440199999985 ], [ -51.1317292, -29.863892199999984 ], [ -51.1319367, -29.8639779 ], [ -51.13209, -29.8641216 ], [ -51.1320957, -29.8642273 ], [ -51.1322237, -29.864319 ], [ -51.1324309, -29.8643724 ], [ -51.1328424, -29.8645141 ], [ -51.1329175, -29.8645181 ], [ -51.1329891, -29.8644699 ], [ -51.13312160000001, -29.8644471 ], [ -51.1331705, -29.8644858 ], [ -51.1332053, -29.8645489 ], [ -51.133289, -29.864580199999988 ], [ -51.1333681, -29.864549600000011 ], [ -51.1334118, -29.8644975 ], [ -51.1334902, -29.864380300000011 ], [ -51.1336076, -29.864287599999987 ], [ -51.1337531, -29.864265400000011 ], [ -51.1338986, -29.8642954 ], [ -51.1341966, -29.8642695 ], [ -51.1342979, -29.8643201 ], [ -51.1343319, -29.8644045 ], [ -51.134377, -29.8645979 ], [ -51.1344452, -29.8647099 ], [ -51.1345522, -29.8647574 ], [ -51.1346154, -29.8647483 ], [ -51.1346503, -29.864687 ], [ -51.1348418, -29.8644779 ], [ -51.1350584, -29.8643866 ], [ -51.1351764, -29.8641243 ], [ -51.1355388, -29.86392570000001 ], [ -51.1359936, -29.8637913 ], [ -51.1364753, -29.8636934 ], [ -51.1363737, -29.8631387 ], [ -51.1363123, -29.8628649 ], [ -51.1360125, -29.8614391 ], [ -51.1359208, -29.8610029 ], [ -51.1359114, -29.860896 ], [ -51.1358518, -29.8606391 ], [ -51.1357529, -29.8602052 ], [ -51.135691, -29.859911 ], [ -51.1355339, -29.8591667 ], [ -51.1354999, -29.8590884 ], [ -51.1353373, -29.8584932 ], [ -51.1353026, -29.8583376 ], [ -51.1352133, -29.857969300000015 ], [ -51.13519920000001, -29.8578922 ], [ -51.1351103, -29.8574645 ], [ -51.1350032, -29.8570415 ], [ -51.1349629, -29.8568803 ], [ -51.134616, -29.8552051 ], [ -51.1341312, -29.8530921 ], [ -51.133855454377276, -29.851837425374207 ], [ -51.131713261, -29.852953544999892 ], [ -51.129891439143158, -29.854653099770506 ], [ -51.1299086, -29.854854 ], [ -51.1299321, -29.8553344 ], [ -51.129904, -29.8559704 ], [ -51.1298553, -29.8565825 ], [ -51.1298548, -29.8566738 ], [ -51.1298281, -29.8568837 ], [ -51.1297782, -29.8571144 ], [ -51.1296748, -29.8574065 ], [ -51.1295652, -29.8576853 ], [ -51.1294435, -29.8578788 ], [ -51.1292717, -29.8581565 ], [ -51.1291883, -29.8582647 ], [ -51.1288824, -29.8585741 ], [ -51.1287227, -29.8587191 ], [ -51.1283589, -29.8589576 ], [ -51.1280909, -29.8591275 ], [ -51.1276965, -29.8593456 ], [ -51.1273408, -29.8594733 ], [ -51.1270692, -29.8595256 ], [ -51.1269484, -29.859591 ], [ -51.1263675, -29.8601323 ], [ -51.1259357, -29.860485 ], [ -51.1257631, -29.8605586 ], [ -51.1256225, -29.8607111 ], [ -51.1254657, -29.8610168 ], [ -51.1253666, -29.8612215 ], [ -51.1252603, -29.8614595 ], [ -51.1251739, -29.8617305 ], [ -51.1250839, -29.8623686 ], [ -51.1250585, -29.862483 ] ] ], [ [ [ -51.1292872, -29.8663097 ], [ -51.1293026, -29.8663949 ], [ -51.129354229229236, -29.866411597647598 ], [ -51.129376609650912, -29.866146823890308 ], [ -51.1292872, -29.8663097 ] ] ] ] } },
{ "type": "Feature", "properties": { "name": "Jardim Planalto", "code_muni": 4307708.0, "name_muni": "Esteio" }, "geometry": { "type": "Polygon", "coordinates": [ [ [ -51.1341312, -29.8530921 ], [ -51.134616, -29.8552051 ], [ -51.1349629, -29.8568803 ], [ -51.1350032, -29.8570415 ], [ -51.1351103, -29.8574645 ], [ -51.13519920000001, -29.8578922 ], [ -51.1352133, -29.857969300000015 ], [ -51.1353026, -29.8583376 ], [ -51.1353373, -29.8584932 ], [ -51.1354999, -29.8590884 ], [ -51.1355339, -29.8591667 ], [ -51.135691, -29.859911 ], [ -51.1357529, -29.8602052 ], [ -51.1358518, -29.8606391 ], [ -51.1359114, -29.860896 ], [ -51.1359208, -29.8610029 ], [ -51.1360125, -29.8614391 ], [ -51.1363123, -29.8628649 ], [ -51.1363737, -29.8631387 ], [ -51.1364753, -29.8636934 ], [ -51.1367418, -29.8637306 ], [ -51.1370447, -29.8636527 ], [ -51.1376438, -29.8636166 ], [ -51.138108, -29.8637809 ], [ -51.1384496, -29.8640928 ], [ -51.138626627107818, -29.864272801656966 ], [ -51.139471815225583, -29.864165628351774 ], [ -51.1397666, -29.8639977 ], [ -51.1399244, -29.863953 ], [ -51.1400822, -29.8639657 ], [ -51.1402327, -29.864092 ], [ -51.1403925, -29.8642855 ], [ -51.140419173535605, -29.864308443232151 ], [ -51.140931419051142, -29.864474367922895 ], [ -51.1409792, -29.8638349 ], [ -51.1413923, -29.8606738 ], [ -51.1412421, -29.8606017 ], [ -51.1411455, -29.8605156 ], [ -51.1412689, -29.8596433 ], [ -51.1412555, -29.8592106 ], [ -51.1395872, -29.8553491 ], [ -51.13985, -29.85497 ], [ -51.1396998, -29.8549165 ], [ -51.1385536, -29.8522735 ], [ -51.1384507, -29.8520824 ], [ -51.138387, -29.8518819 ], [ -51.1383471, -29.8516979 ], [ -51.1380027, -29.8504375 ], [ -51.1377881, -29.8498533 ], [ -51.137507786050421, -29.849934360101525 ], [ -51.133855454377276, -29.851837425374207 ], [ -51.1341312, -29.8530921 ] ] ] } },
{ "type": "Feature", "properties": { "name": "Santo Inácio", "code_muni": 4307708.0, "name_muni": "Esteio" }, "geometry": { "type": "Polygon", "coordinates": [ [ [ -51.1414508, -29.8644049 ], [ -51.141808, -29.8642746 ], [ -51.1419213, -29.8642356 ], [ -51.1419903, -29.864256 ], [ -51.142038, -29.864307 ], [ -51.1421545, -29.8647128 ], [ -51.1422074, -29.8648761 ], [ -51.142217955546762, -29.864891086892897 ], [ -51.142495410279402, -29.864980954490498 ], [ -51.1425502, -29.8649609 ], [ -51.1429071, -29.8647625 ], [ -51.1431927, -29.864825 ], [ -51.1436577, -29.8649056 ], [ -51.14416820000001, -29.8650446 ], [ -51.144555317575531, -29.865139413377793 ], [ -51.145371873605548, -29.865050711561949 ], [ -51.1456807, -29.8647685 ], [ -51.1458994, -29.8645616 ], [ -51.1460172, -29.864511899999986 ], [ -51.1461704, -29.8645144 ], [ -51.146382, -29.864638 ], [ -51.1466823, -29.864888 ], [ -51.146699635111233, -29.864906466796018 ], [ -51.147513574669162, -29.864818035585138 ], [ -51.1476671, -29.8644958 ], [ -51.147033, -29.8619159 ], [ -51.1466494, -29.8603807 ], [ -51.1451541, -29.8533404 ], [ -51.1451363, -29.8532497 ], [ -51.1451672, -29.853186 ], [ -51.1452114, -29.853158 ], [ -51.1452498, -29.8531493 ], [ -51.1452762, -29.8531374 ], [ -51.1453049, -29.8531272 ], [ -51.1459119, -29.8533076 ], [ -51.1458206, -29.8531607 ], [ -51.1455683, -29.852815 ], [ -51.1453493, -29.8524792 ], [ -51.145242, -29.852325 ], [ -51.1451284, -29.8522009 ], [ -51.1450057, -29.8520902 ], [ -51.1448818, -29.8519723 ], [ -51.1441847, -29.8510739 ], [ -51.1440699, -29.8508497 ], [ -51.144044, -29.8507917 ], [ -51.1440163, -29.8507391 ], [ -51.1439867, -29.8506613 ], [ -51.143925, -29.8503566 ], [ -51.1438208, -29.8498417 ], [ -51.1437417, -29.8494087 ], [ -51.1436954, -29.8491877 ], [ -51.143616405487734, -29.848707507433144 ], [ -51.141107051824278, -29.849180811952159 ], [ -51.1410138, -29.8492111 ], [ -51.1403835, -29.849400899999988 ], [ -51.1400473, -29.8494925 ], [ -51.1399324, -29.8495203 ], [ -51.139804, -29.8495379 ], [ -51.1383542, -29.8497309 ], [ -51.1379711, -29.8498149 ], [ -51.1377881, -29.8498533 ], [ -51.1380027, -29.8504375 ], [ -51.1383471, -29.8516979 ], [ -51.138387, -29.8518819 ], [ -51.1384507, -29.8520824 ], [ -51.1385536, -29.8522735 ], [ -51.1396998, -29.8549165 ], [ -51.13985, -29.85497 ], [ -51.1395872, -29.8553491 ], [ -51.1412555, -29.8592106 ], [ -51.1412689, -29.8596433 ], [ -51.1411455, -29.8605156 ], [ -51.1412421, -29.8606017 ], [ -51.1413923, -29.8606738 ], [ -51.1409792, -29.8638349 ], [ -51.140931419051142, -29.864474367922895 ], [ -51.141150084119758, -29.86454519633606 ], [ -51.1414508, -29.8644049 ] ] ] } },
{ "type": "Feature", "properties": { "name": "Olímpica", "code_muni": 4307708.0, "name_muni": "Esteio" }, "geometry": { "type": "Polygon", "coordinates": [ [ [ -51.1452498, -29.8531493 ], [ -51.1452114, -29.853158 ], [ -51.1451672, -29.853186 ], [ -51.1451363, -29.8532497 ], [ -51.1451541, -29.8533404 ], [ -51.1466494, -29.8603807 ], [ -51.147033, -29.8619159 ], [ -51.1476671, -29.8644958 ], [ -51.1476885, -29.8644395 ], [ -51.1478573, -29.8643579 ], [ -51.1479883, -29.8643134 ], [ -51.1484919, -29.864295 ], [ -51.1488549, -29.8643518 ], [ -51.149476675638404, -29.864604731392699 ], [ -51.150357304186095, -29.864509035369931 ], [ -51.1503784, -29.8644963 ], [ -51.1513021, -29.8641544 ], [ -51.1510482, -29.8637512 ], [ -51.1510926, -29.8636364 ], [ -51.1515378, -29.8630458 ], [ -51.1516693, -29.8630198 ], [ -51.1519508, -29.8626486 ], [ -51.152307, -29.8621923 ], [ -51.1523627, -29.8621231 ], [ -51.1526254, -29.8617724 ], [ -51.1529013, -29.8613872 ], [ -51.1530304, -29.8612108 ], [ -51.153043, -29.8611936 ], [ -51.1531457, -29.8610533 ], [ -51.1533258, -29.860811 ], [ -51.1536187, -29.8604171 ], [ -51.1538553, -29.8600988 ], [ -51.1539121, -29.8600207 ], [ -51.1541448, -29.859701 ], [ -51.1543596, -29.8594056 ], [ -51.1544225, -29.8593216 ], [ -51.1545678, -29.8591357 ], [ -51.1547016, -29.8589496 ], [ -51.1548575, -29.8587419 ], [ -51.1553331, -29.8581082 ], [ -51.15545310000001, -29.857947700000011 ], [ -51.1558161, -29.8574728 ], [ -51.1561479, -29.8570572 ], [ -51.1565297, -29.8565123 ], [ -51.156831, -29.8561106 ], [ -51.1569187, -29.8559937 ], [ -51.1573216, -29.855406199999987 ], [ -51.1574124, -29.8553092 ], [ -51.1576611, -29.854987 ], [ -51.1579013, -29.8546757 ], [ -51.1579036, -29.8546062 ], [ -51.1579113, -29.8545774 ], [ -51.1579191, -29.8545492 ], [ -51.1579361, -29.8545074 ], [ -51.1579831, -29.8543779 ], [ -51.157684, -29.8544314 ], [ -51.1574118, -29.8544582 ], [ -51.1560851, -29.854414 ], [ -51.1554926, -29.8543943 ], [ -51.1549799, -29.8543801 ], [ -51.1545791, -29.8543679 ], [ -51.1542216, -29.8543521 ], [ -51.1538819, -29.8543321 ], [ -51.1529046, -29.8543081 ], [ -51.152813, -29.8543102 ], [ -51.152463, -29.8542934 ], [ -51.151818, -29.854271899999986 ], [ -51.1514072, -29.854275 ], [ -51.1504365, -29.854225900000014 ], [ -51.1494379, -29.854192599999987 ], [ -51.1491174, -29.8541819 ], [ -51.1489037, -29.8541628 ], [ -51.148701, -29.8541273 ], [ -51.1484588, -29.8540738 ], [ -51.1481303, -29.8539672 ], [ -51.1476791, -29.853833 ], [ -51.1474283, -29.8537621 ], [ -51.1473381, -29.8537364 ], [ -51.1470991, -29.8536606 ], [ -51.1459119, -29.8533076 ], [ -51.1453049, -29.8531272 ], [ -51.1452762, -29.8531374 ], [ -51.1452498, -29.8531493 ] ] ] } },
{ "type": "Feature", "properties": { "name": "São José", "code_muni": 4307708.0, "name_muni": "Esteio" }, "geometry": { "type": "Polygon", "coordinates": [ [ [ -51.1587274, -29.8535179 ], [ -51.1582969, -29.8541046 ], [ -51.1579831, -29.8543779 ], [ -51.1579361, -29.8545074 ], [ -51.1579191, -29.8545492 ], [ -51.1579113, -29.8545774 ], [ -51.1579036, -29.8546062 ], [ -51.1579013, -29.8546757 ], [ -51.1576611, -29.854987 ], [ -51.1574124, -29.8553092 ], [ -51.1573216, -29.855406199999987 ], [ -51.1569187, -29.8559937 ], [ -51.156831, -29.8561106 ], [ -51.1565297, -29.8565123 ], [ -51.1561479, -29.8570572 ], [ -51.1558161, -29.8574728 ], [ -51.15545310000001, -29.857947700000011 ], [ -51.1553331, -29.8581082 ], [ -51.1548575, -29.8587419 ], [ -51.1547016, -29.8589496 ], [ -51.1545678, -29.8591357 ], [ -51.1544225, -29.8593216 ], [ -51.1543596, -29.8594056 ], [ -51.1541448, -29.859701 ], [ -51.1539121, -29.8600207 ], [ -51.1538553, -29.8600988 ], [ -51.1536187, -29.8604171 ], [ -51.1533258, -29.860811 ], [ -51.1531457, -29.8610533 ], [ -51.153043, -29.8611936 ], [ -51.1530304, -29.8612108 ], [ -51.1529013, -29.8613872 ], [ -51.1526254, -29.8617724 ], [ -51.1523627, -29.8621231 ], [ -51.152307, -29.8621923 ], [ -51.1519508, -29.8626486 ], [ -51.1516693, -29.8630198 ], [ -51.1515378, -29.8630458 ], [ -51.1510926, -29.8636364 ], [ -51.1510482, -29.8637512 ], [ -51.1513021, -29.8641544 ], [ -51.1515152, -29.8640896 ], [ -51.1522427, -29.8638544 ], [ -51.1530348, -29.8637231 ], [ -51.1536191, -29.8637057 ], [ -51.154116, -29.8638036 ], [ -51.1547574, -29.8638818 ], [ -51.1551247, -29.8639313 ], [ -51.155227767021692, -29.863910239452789 ], [ -51.1560641235437, -29.863536860961574 ], [ -51.1566988, -29.8631838 ], [ -51.1570763, -29.8629595 ], [ -51.1572115, -29.8629034 ], [ -51.1577411, -29.862638 ], [ -51.158320824481876, -29.862529351233214 ], [ -51.162336033865159, -29.860736605502453 ], [ -51.1632364, -29.8600254 ], [ -51.1638648, -29.8595035 ], [ -51.1643333, -29.8592128 ], [ -51.1647797, -29.8590168 ], [ -51.165319, -29.8589135 ], [ -51.16579, -29.8588664 ], [ -51.1663277, -29.8589506 ], [ -51.1661226, -29.8588028 ], [ -51.1657586, -29.8584799 ], [ -51.1655817, -29.8583215 ], [ -51.1653578, -29.8582208 ], [ -51.1651065, -29.858158199999977 ], [ -51.1649939, -29.858158 ], [ -51.1648129, -29.8581881 ], [ -51.1645, -29.8582867 ], [ -51.1640933, -29.8584158 ], [ -51.1638156, -29.8584558 ], [ -51.1633351, -29.8584508 ], [ -51.1631189, -29.8584378 ], [ -51.1627718, -29.8584292 ], [ -51.1626178, -29.8584134 ], [ -51.1625096, -29.8583134 ], [ -51.1623947, -29.8582676 ], [ -51.162258, -29.858261 ], [ -51.1621526, -29.8581877 ], [ -51.1620799, -29.8580929 ], [ -51.1620158, -29.8579289 ], [ -51.1619759, -29.8578113 ], [ -51.1618977, -29.8577155 ], [ -51.1617529, -29.8575893 ], [ -51.1615725, -29.8573579 ], [ -51.1613832, -29.8570416 ], [ -51.1612414, -29.8568546 ], [ -51.1610287, -29.8566379 ], [ -51.1610341, -29.8565867 ], [ -51.1611709, -29.8563169 ], [ -51.1611441, -29.8561028 ], [ -51.1609134, -29.8557144 ], [ -51.1608356, -29.8554282 ], [ -51.1606103, -29.8552165 ], [ -51.1605486, -29.8551328 ], [ -51.1604118, -29.854856 ], [ -51.1603126, -29.8547211 ], [ -51.1602429, -29.8546443 ], [ -51.159988, -29.854523300000011 ], [ -51.159693, -29.8543256 ], [ -51.1594609, -29.85421 ], [ -51.1593622, -29.8539919 ], [ -51.1593294, -29.8538655 ], [ -51.1592263, -29.8537181 ], [ -51.1590641, -29.853570799999989 ], [ -51.158964, -29.8535205 ], [ -51.1587952, -29.8534273 ], [ -51.1587274, -29.8535179 ] ] ] } },
{ "type": "Feature", "properties": { "name": "Liberdade", "code_muni": 4307708.0, "name_muni": "Esteio" }, "geometry": { "type": "Polygon", "coordinates": [ [ [ -51.1653578, -29.8582208 ], [ -51.1655817, -29.8583215 ], [ -51.1657586, -29.8584799 ], [ -51.1661226, -29.8588028 ], [ -51.1663277, -29.8589506 ], [ -51.1665758, -29.8590599 ], [ -51.1668968, -29.859229 ], [ -51.1674306, -29.8595583 ], [ -51.1681068, -29.8600761 ], [ -51.168911, -29.860607800000011 ], [ -51.170354, -29.8616317 ], [ -51.1715616, -29.8624732 ], [ -51.1720969, -29.8628488 ], [ -51.1722588, -29.8626925 ], [ -51.1721237, -29.8625468 ], [ -51.1718172, -29.8619373 ], [ -51.1717407, -29.861747899999987 ], [ -51.1717428, -29.8617415 ], [ -51.1717452, -29.8617089 ], [ -51.1717345, -29.8616776 ], [ -51.171712, -29.8616515 ], [ -51.1717017, -29.8616442 ], [ -51.1715906, -29.8615344 ], [ -51.1715323, -29.861436 ], [ -51.1713898, -29.8611577 ], [ -51.1712807, -29.860952899999987 ], [ -51.17111580000001, -29.860637599999986 ], [ -51.1709762, -29.8603619 ], [ -51.1708304, -29.8600792 ], [ -51.1705697, -29.8595593 ], [ -51.1704757, -29.8593736 ], [ -51.1702685, -29.858964400000016 ], [ -51.1702173, -29.8588632 ], [ -51.1699964, -29.8584287 ], [ -51.1699546, -29.8583497 ], [ -51.1694349, -29.857318400000011 ], [ -51.1690845, -29.8566572 ], [ -51.169011, -29.8565634 ], [ -51.1684316, -29.855437499999987 ], [ -51.1678715, -29.8542376 ], [ -51.1678502, -29.8541831 ], [ -51.1678315, -29.854171 ], [ -51.1674398, -29.8533784 ], [ -51.1671723, -29.8528503 ], [ -51.1670132, -29.852536 ], [ -51.1666212, -29.851762 ], [ -51.1664813, -29.8514857 ], [ -51.1663487, -29.8512239 ], [ -51.1659277, -29.8503924 ], [ -51.1642751, -29.8505592 ], [ -51.1631789, -29.8506663 ], [ -51.1629183, -29.8506936 ], [ -51.1620721, -29.8507873 ], [ -51.1614811, -29.8508389 ], [ -51.1613418, -29.8508511 ], [ -51.1603813, -29.8509414 ], [ -51.1602849, -29.8509505 ], [ -51.160248, -29.8510002 ], [ -51.1600793, -29.8512242 ], [ -51.1590438, -29.8526222 ], [ -51.1590084, -29.8526856 ], [ -51.1589829, -29.8527554 ], [ -51.1589655, -29.8528257 ], [ -51.1589541, -29.852899 ], [ -51.1589966, -29.8529862 ], [ -51.1590278, -29.8530217 ], [ -51.159062, -29.8530485 ], [ -51.1590915, -29.8530694 ], [ -51.1589393, -29.8532474 ], [ -51.1587952, -29.8534273 ], [ -51.158964, -29.8535205 ], [ -51.1590641, -29.853570799999989 ], [ -51.1592263, -29.8537181 ], [ -51.1593294, -29.8538655 ], [ -51.1593622, -29.8539919 ], [ -51.1594609, -29.85421 ], [ -51.159693, -29.8543256 ], [ -51.159988, -29.854523300000011 ], [ -51.1602429, -29.8546443 ], [ -51.1603126, -29.8547211 ], [ -51.1604118, -29.854856 ], [ -51.1605486, -29.8551328 ], [ -51.1606103, -29.8552165 ], [ -51.1608356, -29.8554282 ], [ -51.1609134, -29.8557144 ], [ -51.1611441, -29.8561028 ], [ -51.1611709, -29.8563169 ], [ -51.1610341, -29.8565867 ], [ -51.1610287, -29.8566379 ], [ -51.1612414, -29.8568546 ], [ -51.1613832, -29.8570416 ], [ -51.1615725, -29.8573579 ], [ -51.1617529, -29.8575893 ], [ -51.1618977, -29.8577155 ], [ -51.1619759, -29.8578113 ], [ -51.1620158, -29.8579289 ], [ -51.1620799, -29.8580929 ], [ -51.1621526, -29.8581877 ], [ -51.162258, -29.858261 ], [ -51.1623947, -29.8582676 ], [ -51.1625096, -29.8583134 ], [ -51.1626178, -29.8584134 ], [ -51.1627718, -29.8584292 ], [ -51.1631189, -29.8584378 ], [ -51.1633351, -29.8584508 ], [ -51.1638156, -29.8584558 ], [ -51.1640933, -29.8584158 ], [ -51.1645, -29.8582867 ], [ -51.1648129, -29.8581881 ], [ -51.1649939, -29.858158 ], [ -51.1651065, -29.858158199999977 ], [ -51.1653578, -29.8582208 ] ] ] } },
{ "type": "Feature", "properties": { "name": "Primavera", "code_muni": 4307708.0, "name_muni": "Esteio" }, "geometry": { "type": "Polygon", "coordinates": [ [ [ -51.1470991, -29.8536606 ], [ -51.1473381, -29.8537364 ], [ -51.1474283, -29.8537621 ], [ -51.1476791, -29.853833 ], [ -51.1481303, -29.8539672 ], [ -51.1484588, -29.8540738 ], [ -51.148701, -29.8541273 ], [ -51.1489037, -29.8541628 ], [ -51.1491174, -29.8541819 ], [ -51.1494379, -29.854192599999987 ], [ -51.1504365, -29.854225900000014 ], [ -51.1514072, -29.854275 ], [ -51.151818, -29.854271899999986 ], [ -51.152463, -29.8542934 ], [ -51.152813, -29.8543102 ], [ -51.1529046, -29.8543081 ], [ -51.1538819, -29.8543321 ], [ -51.1542216, -29.8543521 ], [ -51.1545791, -29.8543679 ], [ -51.1549799, -29.8543801 ], [ -51.1554926, -29.8543943 ], [ -51.1560851, -29.854414 ], [ -51.1574118, -29.8544582 ], [ -51.157684, -29.8544314 ], [ -51.1579831, -29.8543779 ], [ -51.1582969, -29.8541046 ], [ -51.1587274, -29.8535179 ], [ -51.1587952, -29.8534273 ], [ -51.1589393, -29.8532474 ], [ -51.1590915, -29.8530694 ], [ -51.159062, -29.8530485 ], [ -51.1590278, -29.8530217 ], [ -51.1589966, -29.8529862 ], [ -51.1589541, -29.852899 ], [ -51.1589655, -29.8528257 ], [ -51.1589829, -29.8527554 ], [ -51.1590084, -29.8526856 ], [ -51.1590438, -29.8526222 ], [ -51.1600793, -29.8512242 ], [ -51.160248, -29.8510002 ], [ -51.1602849, -29.8509505 ], [ -51.1601905, -29.8508428 ], [ -51.1588817, -29.8493508 ], [ -51.1588548, -29.8493206 ], [ -51.158763, -29.8492308 ], [ -51.1586716, -29.8491242 ], [ -51.1583706, -29.8487733 ], [ -51.1583277, -29.8487232 ], [ -51.1580103, -29.8483533 ], [ -51.157908, -29.8482341 ], [ -51.1573584, -29.8476124 ], [ -51.1570706, -29.8473001 ], [ -51.1569883, -29.8472107 ], [ -51.1569067, -29.8471222 ], [ -51.1546038, -29.8445859 ], [ -51.1542753, -29.844236500000012 ], [ -51.1542114, -29.8442355 ], [ -51.1527963, -29.844213 ], [ -51.1527112, -29.8442116 ], [ -51.1526086, -29.8442092 ], [ -51.1523612, -29.8442035 ], [ -51.1519964, -29.8441965 ], [ -51.1515324, -29.8441802 ], [ -51.1507963, -29.8441548 ], [ -51.1503187, -29.8441482 ], [ -51.1497574, -29.8441404 ], [ -51.1494769, -29.844128 ], [ -51.1488522, -29.844416 ], [ -51.148437, -29.844574099999988 ], [ -51.148116, -29.8446655 ], [ -51.1479723, -29.8447244 ], [ -51.1478795, -29.8447972 ], [ -51.1478164, -29.8448595 ], [ -51.1477619, -29.8449382 ], [ -51.1475561, -29.8453349 ], [ -51.1474385, -29.8455762 ], [ -51.1473282, -29.845734099999987 ], [ -51.1472519, -29.8457938 ], [ -51.147158, -29.8458442 ], [ -51.1467985, -29.846014100000012 ], [ -51.1466861, -29.84608 ], [ -51.1466154, -29.8461269 ], [ -51.146543, -29.8461858 ], [ -51.1464735, -29.8462587 ], [ -51.1464308, -29.8463266 ], [ -51.1463964, -29.8464033 ], [ -51.1463896, -29.8464873 ], [ -51.1464099, -29.8465953 ], [ -51.146607, -29.8473087 ], [ -51.1466176, -29.8474561 ], [ -51.1466264, -29.8476105 ], [ -51.1466093, -29.847786400000011 ], [ -51.1465663, -29.8479454 ], [ -51.1465366, -29.8480243 ], [ -51.1465065, -29.8480854 ], [ -51.1464578, -29.8481663 ], [ -51.1464088, -29.8482237 ], [ -51.1459053, -29.84856 ], [ -51.1456416, -29.8485673 ], [ -51.1444607, -29.8485633 ], [ -51.144373941547904, -29.848564613684296 ], [ -51.143616405487734, -29.848707507433144 ], [ -51.1436954, -29.8491877 ], [ -51.1437417, -29.8494087 ], [ -51.1438208, -29.8498417 ], [ -51.143925, -29.8503566 ], [ -51.1439867, -29.8506613 ], [ -51.1440163, -29.8507391 ], [ -51.144044, -29.8507917 ], [ -51.1440699, -29.8508497 ], [ -51.1441847, -29.8510739 ], [ -51.1448818, -29.8519723 ], [ -51.1450057, -29.8520902 ], [ -51.1451284, -29.8522009 ], [ -51.145242, -29.852325 ], [ -51.1453493, -29.8524792 ], [ -51.1455683, -29.852815 ], [ -51.1458206, -29.8531607 ], [ -51.1459119, -29.8533076 ], [ -51.1470991, -29.8536606 ] ] ] } },
{ "type": "Feature", "properties": { "name": "Tamandaré", "code_muni": 4307708.0, "name_muni": "Esteio" }, "geometry": { "type": "Polygon", "coordinates": [ [ [ -51.1530171, -29.8439452 ], [ -51.1540528, -29.8436538 ], [ -51.1544467, -29.8435361 ], [ -51.15488890000001, -29.843404 ], [ -51.1549976, -29.8433708 ], [ -51.1566144, -29.8428777 ], [ -51.1566604, -29.8428636 ], [ -51.1567193, -29.842845600000011 ], [ -51.1567554, -29.8428346 ], [ -51.1576146, -29.8425742 ], [ -51.1584611, -29.842313 ], [ -51.1586887, -29.8422428 ], [ -51.1588189, -29.8422023 ], [ -51.1596388, -29.8419469 ], [ -51.1607889, -29.8415914 ], [ -51.1614599, -29.8414184 ], [ -51.1619617, -29.8413217 ], [ -51.1627227, -29.8412011 ], [ -51.162872, -29.8411782 ], [ -51.1632715, -29.841113 ], [ -51.1636775, -29.8410506 ], [ -51.1644289, -29.840958 ], [ -51.1648811, -29.84092 ], [ -51.1655856, -29.8408885 ], [ -51.1656873, -29.8408806 ], [ -51.1661845, -29.8408392 ], [ -51.1663207, -29.84081 ], [ -51.1668447, -29.84068 ], [ -51.1672216, -29.8405999 ], [ -51.168064, -29.8404186 ], [ -51.1687849, -29.840292 ], [ -51.1700545, -29.840120099999989 ], [ -51.1707026, -29.8400323 ], [ -51.1709079, -29.840004 ], [ -51.1713439, -29.839944 ], [ -51.1716036, -29.8399082 ], [ -51.1717271, -29.8398803 ], [ -51.1718432, -29.839854 ], [ -51.1680749, -29.8343154 ], [ -51.1675975, -29.8337826 ], [ -51.1670798, -29.8334196 ], [ -51.1666131, -29.8331893 ], [ -51.165978044975148, -29.832965053286639 ], [ -51.15940951357333, -29.835500405443771 ], [ -51.1589099, -29.8358306 ], [ -51.1586145, -29.8360137 ], [ -51.1582685, -29.8362066 ], [ -51.1580546, -29.8363073 ], [ -51.1578763, -29.8363778 ], [ -51.1575496, -29.8365019 ], [ -51.1572044, -29.8366018 ], [ -51.156884, -29.8366774 ], [ -51.1565354, -29.8367451 ], [ -51.156105, -29.836805500000011 ], [ -51.155980390823359, -29.836823813389358 ], [ -51.155412521632897, -29.83704296027393 ], [ -51.1553814, -29.8370579 ], [ -51.1551778, -29.8379339 ], [ -51.1550844, -29.8383177 ], [ -51.1550859, -29.8388772 ], [ -51.1550826, -29.8393494 ], [ -51.1550376, -29.83963880000001 ], [ -51.1547963, -29.840152799999988 ], [ -51.1545356, -29.8406381 ], [ -51.154421, -29.8408648 ], [ -51.1541223, -29.8413923 ], [ -51.1539473, -29.8416459 ], [ -51.153740167118706, -29.841908392227772 ], [ -51.153634196, -29.8422315349999 ], [ -51.153110894322445, -29.842353711221726 ], [ -51.1530102, -29.8423983 ], [ -51.1525478, -29.8425363 ], [ -51.1524714, -29.8425554 ], [ -51.1521915, -29.8426404 ], [ -51.1519708, -29.8426922 ], [ -51.1519029, -29.842713599999989 ], [ -51.1506317, -29.8429946 ], [ -51.149941, -29.8431161 ], [ -51.1498034, -29.8431334 ], [ -51.1497574, -29.8441404 ], [ -51.1503187, -29.8441482 ], [ -51.1507963, -29.8441548 ], [ -51.1515324, -29.8441802 ], [ -51.1519964, -29.8441965 ], [ -51.152272, -29.8441325 ], [ -51.1523954, -29.8441075 ], [ -51.1526026, -29.8440587 ], [ -51.1527215, -29.8440332 ], [ -51.1530171, -29.8439452 ] ] ] } },
{ "type": "Feature", "properties": { "name": "Centro", "code_muni": 4307708.0, "name_muni": "Esteio" }, "geometry": { "type": "Polygon", "coordinates": [ [ [ -51.1774318, -29.8526309 ], [ -51.1783695, -29.8528034 ], [ -51.1784867, -29.8528221 ], [ -51.1793542, -29.8530016 ], [ -51.1795563, -29.8530317 ], [ -51.1792342, -29.8512467 ], [ -51.1789714, -29.850329 ], [ -51.1787608, -29.849887 ], [ -51.1783531, -29.8492426 ], [ -51.177928, -29.8487412 ], [ -51.1769637, -29.8478537 ], [ -51.1753826, -29.84639970000001 ], [ -51.1750956, -29.8460193 ], [ -51.1747456, -29.845511 ], [ -51.1739141, -29.8441779 ], [ -51.1736723, -29.8436676 ], [ -51.173564, -29.8434392 ], [ -51.1727889, -29.8413698 ], [ -51.1725073, -29.84083 ], [ -51.1718432, -29.839854 ], [ -51.1717271, -29.8398803 ], [ -51.1716036, -29.8399082 ], [ -51.1713439, -29.839944 ], [ -51.1709079, -29.840004 ], [ -51.1707026, -29.8400323 ], [ -51.1700545, -29.840120099999989 ], [ -51.1687849, -29.840292 ], [ -51.168064, -29.8404186 ], [ -51.1672216, -29.8405999 ], [ -51.1668447, -29.84068 ], [ -51.1663207, -29.84081 ], [ -51.1661845, -29.8408392 ], [ -51.1656873, -29.8408806 ], [ -51.1655856, -29.8408885 ], [ -51.1648811, -29.84092 ], [ -51.1644289, -29.840958 ], [ -51.1636775, -29.8410506 ], [ -51.1632715, -29.841113 ], [ -51.162872, -29.8411782 ], [ -51.1627227, -29.8412011 ], [ -51.1619617, -29.8413217 ], [ -51.1614599, -29.8414184 ], [ -51.1607889, -29.8415914 ], [ -51.1596388, -29.8419469 ], [ -51.1588189, -29.8422023 ], [ -51.1586887, -29.8422428 ], [ -51.1584611, -29.842313 ], [ -51.1576146, -29.8425742 ], [ -51.1567554, -29.8428346 ], [ -51.1567193, -29.842845600000011 ], [ -51.1566604, -29.8428636 ], [ -51.1566144, -29.8428777 ], [ -51.1549976, -29.8433708 ], [ -51.15488890000001, -29.843404 ], [ -51.1544467, -29.8435361 ], [ -51.1540528, -29.8436538 ], [ -51.1530171, -29.8439452 ], [ -51.1527215, -29.8440332 ], [ -51.1526026, -29.8440587 ], [ -51.1523954, -29.8441075 ], [ -51.152272, -29.8441325 ], [ -51.1519964, -29.8441965 ], [ -51.1523612, -29.8442035 ], [ -51.1526086, -29.8442092 ], [ -51.1527112, -29.8442116 ], [ -51.1527963, -29.844213 ], [ -51.1542114, -29.8442355 ], [ -51.1542753, -29.844236500000012 ], [ -51.1546038, -29.8445859 ], [ -51.1569067, -29.8471222 ], [ -51.1569883, -29.8472107 ], [ -51.1570706, -29.8473001 ], [ -51.1573584, -29.8476124 ], [ -51.157908, -29.8482341 ], [ -51.1580103, -29.8483533 ], [ -51.1583277, -29.8487232 ], [ -51.1583706, -29.8487733 ], [ -51.1586716, -29.8491242 ], [ -51.158763, -29.8492308 ], [ -51.1588548, -29.8493206 ], [ -51.1588817, -29.8493508 ], [ -51.1601905, -29.8508428 ], [ -51.1602849, -29.8509505 ], [ -51.1603813, -29.8509414 ], [ -51.1613418, -29.8508511 ], [ -51.1614811, -29.8508389 ], [ -51.1620721, -29.8507873 ], [ -51.1629183, -29.8506936 ], [ -51.1631789, -29.8506663 ], [ -51.1642751, -29.8505592 ], [ -51.1659277, -29.8503924 ], [ -51.1663487, -29.8512239 ], [ -51.1664813, -29.8514857 ], [ -51.1666212, -29.851762 ], [ -51.1670132, -29.852536 ], [ -51.1671723, -29.8528503 ], [ -51.1674398, -29.8533784 ], [ -51.1678315, -29.854171 ], [ -51.1678502, -29.8541831 ], [ -51.1713177, -29.8536021 ], [ -51.175571, -29.8529258 ], [ -51.1761446, -29.8528111 ], [ -51.1761914, -29.8528014 ], [ -51.1768954, -29.852689100000013 ], [ -51.1771408, -29.8526518 ], [ -51.1773258, -29.85261 ], [ -51.1774318, -29.8526309 ] ] ] } },
{ "type": "Feature", "properties": { "name": "São Sebastião", "code_muni": 4307708.0, "name_muni": "Esteio" }, "geometry": { "type": "Polygon", "coordinates": [ [ [ -51.1713898, -29.8611577 ], [ -51.1715323, -29.861436 ], [ -51.1715906, -29.8615344 ], [ -51.1717017, -29.8616442 ], [ -51.171712, -29.8616515 ], [ -51.1717345, -29.8616776 ], [ -51.1717452, -29.8617089 ], [ -51.1717428, -29.8617415 ], [ -51.1717407, -29.861747899999987 ], [ -51.1718172, -29.8619373 ], [ -51.1721237, -29.8625468 ], [ -51.1722588, -29.8626925 ], [ -51.1720969, -29.8628488 ], [ -51.1723165, -29.8629998 ], [ -51.1744503, -29.8645583 ], [ -51.1753766, -29.8652393 ], [ -51.1758439, -29.8655665 ], [ -51.176360036657371, -29.865925113228549 ], [ -51.177127967664006, -29.866405143490816 ], [ -51.1772863, -29.8664676 ], [ -51.1775528, -29.8665138 ], [ -51.1778783, -29.8664814 ], [ -51.1782376, -29.8663511 ], [ -51.1786559, -29.866261600000012 ], [ -51.1790987, -29.8662299 ], [ -51.1794479, -29.8662801 ], [ -51.1798181, -29.8663823 ], [ -51.1799879, -29.865969 ], [ -51.1801489, -29.8654968 ], [ -51.1801918, -29.8650689 ], [ -51.1801609, -29.8646316 ], [ -51.1798807, -29.8626742 ], [ -51.1799048, -29.8622927 ], [ -51.1803014, -29.8595405 ], [ -51.1804131, -29.8587652 ], [ -51.1804345, -29.8582371 ], [ -51.1796017, -29.8532834 ], [ -51.1795563, -29.8530317 ], [ -51.1793542, -29.8530016 ], [ -51.1784867, -29.8528221 ], [ -51.1783695, -29.8528034 ], [ -51.1774318, -29.8526309 ], [ -51.1773258, -29.85261 ], [ -51.1771408, -29.8526518 ], [ -51.1768954, -29.852689100000013 ], [ -51.1761914, -29.8528014 ], [ -51.1761446, -29.8528111 ], [ -51.175571, -29.8529258 ], [ -51.1713177, -29.8536021 ], [ -51.1678502, -29.8541831 ], [ -51.1678715, -29.8542376 ], [ -51.1684316, -29.855437499999987 ], [ -51.169011, -29.8565634 ], [ -51.1690845, -29.8566572 ], [ -51.1694349, -29.857318400000011 ], [ -51.1699546, -29.8583497 ], [ -51.1699964, -29.8584287 ], [ -51.1702173, -29.8588632 ], [ -51.1702685, -29.858964400000016 ], [ -51.1704757, -29.8593736 ], [ -51.1705697, -29.8595593 ], [ -51.1708304, -29.8600792 ], [ -51.1709762, -29.8603619 ], [ -51.17111580000001, -29.860637599999986 ], [ -51.1712807, -29.860952899999987 ], [ -51.1713898, -29.8611577 ] ] ] } },
{ "type": "Feature", "properties": { "name": "Industrial", "code_muni": 4307708.0, "name_muni": "Esteio" }, "geometry": { "type": "Polygon", "coordinates": [ [ [ -51.1799048, -29.8622927 ], [ -51.1798807, -29.8626742 ], [ -51.1801609, -29.8646316 ], [ -51.1801918, -29.8650689 ], [ -51.1801489, -29.8654968 ], [ -51.1799879, -29.865969 ], [ -51.1798181, -29.8663823 ], [ -51.1800403, -29.8664627 ], [ -51.180054725947528, -29.866465057685446 ], [ -51.182049950867636, -29.866301904035428 ], [ -51.1823095, -29.8662469 ], [ -51.1833045, -29.8660004 ], [ -51.1843685, -29.865772599999985 ], [ -51.1856527, -29.8655124 ], [ -51.1858785, -29.865415399999989 ], [ -51.1860541, -29.8653389 ], [ -51.1863124, -29.865277 ], [ -51.1865091, -29.865297 ], [ -51.1867311, -29.8652267 ], [ -51.1873605, -29.8650009 ], [ -51.1879394, -29.8648304 ], [ -51.188688798449682, -29.864610580446698 ], [ -51.189740941026322, -29.864145704758364 ], [ -51.1911814, -29.8629123 ], [ -51.1915928, -29.8626448 ], [ -51.1919405, -29.8624296 ], [ -51.1921995, -29.8623527 ], [ -51.1926016, -29.862323199999988 ], [ -51.1933104, -29.8622759 ], [ -51.1940396, -29.8622759 ], [ -51.1955186, -29.8623764 ], [ -51.1980966, -29.862475 ], [ -51.1984323, -29.8625558 ], [ -51.1987321, -29.8625345 ], [ -51.2007794, -29.8623894 ], [ -51.2064047, -29.8623294 ], [ -51.2067867, -29.8623049 ], [ -51.2065443, -29.8622265 ], [ -51.203527, -29.8597433 ], [ -51.2002404, -29.8569959 ], [ -51.1988455, -29.855804 ], [ -51.1975871, -29.8544583 ], [ -51.19754360000001, -29.8544137 ], [ -51.1942879, -29.851071 ], [ -51.1942324, -29.851014 ], [ -51.19423050000001, -29.8510664 ], [ -51.194001, -29.8512908 ], [ -51.1933088, -29.8519449 ], [ -51.1914642, -29.8531523 ], [ -51.1893875, -29.8545241 ], [ -51.1872645, -29.8558925 ], [ -51.185286, -29.8572055 ], [ -51.1826772, -29.8588857 ], [ -51.1814425, -29.8594777 ], [ -51.1806689, -29.859579 ], [ -51.1803773, -29.8595565 ], [ -51.1803014, -29.8595405 ], [ -51.1799048, -29.8622927 ] ] ] } },
{ "type": "Feature", "properties": { "name": "Novo Esteio", "code_muni": 4307708.0, "name_muni": "Esteio" }, "geometry": { "type": "Polygon", "coordinates": [ [ [ -51.1826772, -29.8588857 ], [ -51.185286, -29.8572055 ], [ -51.1872645, -29.8558925 ], [ -51.1893875, -29.8545241 ], [ -51.1914642, -29.8531523 ], [ -51.1933088, -29.8519449 ], [ -51.194001, -29.8512908 ], [ -51.19423050000001, -29.8510664 ], [ -51.1942324, -29.851014 ], [ -51.1924384, -29.8491721 ], [ -51.1921363, -29.8488693 ], [ -51.1904856, -29.847214099999988 ], [ -51.1866017, -29.8431288 ], [ -51.185443, -29.8419656 ], [ -51.1852133, -29.8417093 ], [ -51.1851208, -29.841739799999985 ], [ -51.1847734, -29.8418605 ], [ -51.1836709, -29.8422262 ], [ -51.1833962, -29.8423173 ], [ -51.1828681, -29.8424924 ], [ -51.1826411, -29.8425677 ], [ -51.1823252, -29.8426723 ], [ -51.1819057, -29.8428116 ], [ -51.1811339, -29.8430676 ], [ -51.179627, -29.8435674 ], [ -51.1788902, -29.8438123 ], [ -51.1782533, -29.844023 ], [ -51.1777464, -29.8441911 ], [ -51.1775835, -29.8442451 ], [ -51.1774331, -29.8442873 ], [ -51.1771917, -29.8434125 ], [ -51.1768335, -29.8434331 ], [ -51.1765395, -29.8431935 ], [ -51.1738313, -29.8436482 ], [ -51.1736723, -29.8436676 ], [ -51.1739141, -29.8441779 ], [ -51.1747456, -29.845511 ], [ -51.1750956, -29.8460193 ], [ -51.1753826, -29.84639970000001 ], [ -51.1769637, -29.8478537 ], [ -51.177928, -29.8487412 ], [ -51.1783531, -29.8492426 ], [ -51.1787608, -29.849887 ], [ -51.1789714, -29.850329 ], [ -51.1792342, -29.8512467 ], [ -51.1795563, -29.8530317 ], [ -51.1796017, -29.8532834 ], [ -51.1804345, -29.8582371 ], [ -51.1804131, -29.8587652 ], [ -51.1803014, -29.8595405 ], [ -51.1803773, -29.8595565 ], [ -51.1806689, -29.859579 ], [ -51.1814425, -29.8594777 ], [ -51.1826772, -29.8588857 ] ] ] } },
{ "type": "Feature", "properties": { "name": "Três Portos", "code_muni": 4307708.0, "name_muni": "Esteio" }, "geometry": { "type": "Polygon", "coordinates": [ [ [ -51.17057470000001, -29.8312557 ], [ -51.1700596, -29.8314661 ], [ -51.1670024, -29.8326275 ], [ -51.1662666, -29.8329195 ], [ -51.166001807957336, -29.832955880314977 ], [ -51.165978044975148, -29.832965053286639 ], [ -51.1666131, -29.8331893 ], [ -51.1670798, -29.8334196 ], [ -51.1675975, -29.8337826 ], [ -51.1680749, -29.8343154 ], [ -51.1718432, -29.839854 ], [ -51.1725073, -29.84083 ], [ -51.1727889, -29.8413698 ], [ -51.173564, -29.8434392 ], [ -51.1736723, -29.8436676 ], [ -51.1738313, -29.8436482 ], [ -51.1765395, -29.8431935 ], [ -51.1768335, -29.8434331 ], [ -51.1771917, -29.8434125 ], [ -51.1774331, -29.8442873 ], [ -51.1775835, -29.8442451 ], [ -51.1777464, -29.8441911 ], [ -51.1782533, -29.844023 ], [ -51.1788902, -29.8438123 ], [ -51.179627, -29.8435674 ], [ -51.1811339, -29.8430676 ], [ -51.1819057, -29.8428116 ], [ -51.1823252, -29.8426723 ], [ -51.1826411, -29.8425677 ], [ -51.1828681, -29.8424924 ], [ -51.1833962, -29.8423173 ], [ -51.1836709, -29.8422262 ], [ -51.1847734, -29.8418605 ], [ -51.1851208, -29.841739799999985 ], [ -51.1852133, -29.8417093 ], [ -51.1843487, -29.8407371 ], [ -51.1827393, -29.838568699999986 ], [ -51.1821871, -29.837791 ], [ -51.1804465, -29.8353396 ], [ -51.1798318, -29.8344738 ], [ -51.1794274, -29.833898899999987 ], [ -51.1783494, -29.8322703 ], [ -51.1782828, -29.8321666 ], [ -51.1778723, -29.8315273 ], [ -51.1772784, -29.8301925 ], [ -51.177199582197659, -29.829961767296851 ], [ -51.170697847745167, -29.831223274152283 ], [ -51.17057470000001, -29.8312557 ] ] ] } },
{ "type": "Feature", "properties": { "name": "Área de Várzea do Rio dos Sinos", "code_muni": 4307708.0, "name_muni": "Esteio" }, "geometry": { "type": "Polygon", "coordinates": [ [ [ -51.1772784, -29.8301925 ], [ -51.1778723, -29.8315273 ], [ -51.1782828, -29.8321666 ], [ -51.1783494, -29.8322703 ], [ -51.1794274, -29.833898899999987 ], [ -51.1798318, -29.8344738 ], [ -51.1804465, -29.8353396 ], [ -51.1821871, -29.837791 ], [ -51.1827393, -29.838568699999986 ], [ -51.1843487, -29.8407371 ], [ -51.1852133, -29.8417093 ], [ -51.185443, -29.8419656 ], [ -51.1866017, -29.8431288 ], [ -51.1904856, -29.847214099999988 ], [ -51.1921363, -29.8488693 ], [ -51.1924384, -29.8491721 ], [ -51.1942324, -29.851014 ], [ -51.1942879, -29.851071 ], [ -51.19754360000001, -29.8544137 ], [ -51.1975871, -29.8544583 ], [ -51.1988455, -29.855804 ], [ -51.2002404, -29.8569959 ], [ -51.203527, -29.8597433 ], [ -51.2065443, -29.8622265 ], [ -51.2067867, -29.8623049 ], [ -51.208057, -29.8622995 ], [ -51.2254406, -29.8620015 ], [ -51.231512694690572, -29.861917715612179 ], [ -51.231494656391448, -29.861846866855963 ], [ -51.2308105, -29.8609774 ], [ -51.23036230000001, -29.8598097 ], [ -51.2299624, -29.8574888 ], [ -51.2300053, -29.8549951 ], [ -51.2309494, -29.852613 ], [ -51.2312069, -29.8509008 ], [ -51.2304774, -29.8492631 ], [ -51.2291899, -29.84769970000001 ], [ -51.2285462, -29.8460619 ], [ -51.228366719538087, -29.84466101967039 ], [ -51.228349007, -29.844624196 ], [ -51.225873831999898, -29.842948512 ], [ -51.221073573858625, -29.84213717070125 ], [ -51.220006, -29.8421534 ], [ -51.219105776920429, -29.841804518679449 ], [ -51.216706582, -29.841398897 ], [ -51.214105594810803, -29.842533861079144 ], [ -51.2140408, -29.8426001 ], [ -51.2129679, -29.8433818 ], [ -51.211658234819716, -29.843601718331428 ], [ -51.211053751999906, -29.84386546199989 ], [ -51.205323743, -29.84021295 ], [ -51.205260451193197, -29.839875766363381 ], [ -51.2048569, -29.8394732 ], [ -51.2046423, -29.8379097 ], [ -51.204520003624658, -29.836282503991523 ], [ -51.202688789, -29.835709741 ], [ -51.196444376443964, -29.840739898127037 ], [ -51.1960163, -29.8412228 ], [ -51.195757897084242, -29.841292839507346 ], [ -51.195432366, -29.841555043 ], [ -51.19523946832556, -29.841388306568017 ], [ -51.1945143, -29.8412228 ], [ -51.1939135, -29.8402922 ], [ -51.1938277, -29.8389148 ], [ -51.1947718, -29.8371652 ], [ -51.1964026, -29.8359367 ], [ -51.1975613, -29.8355272 ], [ -51.198107024809865, -29.83526209619161 ], [ -51.199228647477298, -29.834429689878274 ], [ -51.199221852145314, -29.834410531305142 ], [ -51.194706421, -29.831684552 ], [ -51.19290776, -29.832826528999878 ], [ -51.192675884240053, -29.833551319023091 ], [ -51.1925831, -29.8343359 ], [ -51.1917248, -29.8367184 ], [ -51.19148916225371, -29.837260567814745 ], [ -51.19097158999989, -29.838878216 ], [ -51.190740273497511, -29.838983609088487 ], [ -51.1907378, -29.8389893 ], [ -51.1903515, -29.839436 ], [ -51.1897078, -29.8398827 ], [ -51.1887207, -29.8399943 ], [ -51.188576750275722, -29.839969329402713 ], [ -51.188050615, -29.840209033 ], [ -51.187898329013599, -29.839851643086703 ], [ -51.1876479, -29.8398082 ], [ -51.1868754, -29.8393615 ], [ -51.1864033, -29.8383564 ], [ -51.1867466, -29.8368301 ], [ -51.1890641, -29.8340753 ], [ -51.1894503, -29.8329957 ], [ -51.1901369, -29.8325117 ], [ -51.190600616014493, -29.83202904185093 ], [ -51.18655087507603, -29.833135281612311 ], [ -51.1860171, -29.8333308 ], [ -51.185732903076691, -29.833358703347734 ], [ -51.18442378, -29.833716266 ], [ -51.184010685803166, -29.833527782649693 ], [ -51.1837426, -29.8335541 ], [ -51.1824551, -29.8332935 ], [ -51.1813393, -29.8321394 ], [ -51.1809531, -29.8303152 ], [ -51.1810175, -29.8297819 ], [ -51.1804945, -29.8296934 ], [ -51.1798976, -29.8296566 ], [ -51.1798173, -29.8296517 ], [ -51.1794327, -29.8296467 ], [ -51.1793561, -29.8296504 ], [ -51.1790277, -29.8296665 ], [ -51.1789655, -29.829675699999989 ], [ -51.1789029, -29.829685 ], [ -51.1787523, -29.8297073 ], [ -51.177733435581139, -29.829858170132031 ], [ -51.177199582197659, -29.829961767296851 ], [ -51.1772784, -29.8301925 ] ] ] } },
{ "type": "Feature", "properties": { "name": "Capão da Cruz", "code_muni": 4307708.0, "name_muni": "Esteio" }, "geometry": { "type": "MultiPolygon", "coordinates": [ [ [ [ -51.1491525, -29.8440834 ], [ -51.1494769, -29.844128 ], [ -51.1497574, -29.8441404 ], [ -51.1498034, -29.8431334 ], [ -51.149941, -29.8431161 ], [ -51.1506317, -29.8429946 ], [ -51.1519029, -29.842713599999989 ], [ -51.1519708, -29.8426922 ], [ -51.1521915, -29.8426404 ], [ -51.1524714, -29.8425554 ], [ -51.1525478, -29.8425363 ], [ -51.1530102, -29.8423983 ], [ -51.153110894322445, -29.842353711221726 ], [ -51.149707954999897, -29.843148143999898 ], [ -51.14870722613616, -29.844027704067688 ], [ -51.1491525, -29.8440834 ] ] ], [ [ [ -51.1539473, -29.8416459 ], [ -51.1541223, -29.8413923 ], [ -51.154421, -29.8408648 ], [ -51.1545356, -29.8406381 ], [ -51.1547963, -29.840152799999988 ], [ -51.1550376, -29.83963880000001 ], [ -51.1550826, -29.8393494 ], [ -51.1550859, -29.8388772 ], [ -51.1550844, -29.8383177 ], [ -51.1551778, -29.8379339 ], [ -51.1553814, -29.8370579 ], [ -51.155412521632897, -29.83704296027393 ], [ -51.155324509, -29.837076925 ], [ -51.153740167118706, -29.841908392227772 ], [ -51.1539473, -29.8416459 ] ] ], [ [ [ -51.156105, -29.836805500000011 ], [ -51.1565354, -29.8367451 ], [ -51.156884, -29.8366774 ], [ -51.1572044, -29.8366018 ], [ -51.1575496, -29.8365019 ], [ -51.1578763, -29.8363778 ], [ -51.1580546, -29.8363073 ], [ -51.1582685, -29.8362066 ], [ -51.1586145, -29.8360137 ], [ -51.1589099, -29.8358306 ], [ -51.1588469, -29.8357476 ], [ -51.158835544433607, -29.835721927098074 ], [ -51.155980390823359, -29.836823813389358 ], [ -51.156105, -29.836805500000011 ] ] ] ] } },
{ "type": "Feature", "properties": { "name": "Walderes", "code_muni": 4307708.0, "name_muni": "Esteio" }, "geometry": { "type": "MultiPolygon", "coordinates": [ [ [ [ -51.1379711, -29.8498149 ], [ -51.1383542, -29.8497309 ], [ -51.139804, -29.8495379 ], [ -51.1399324, -29.8495203 ], [ -51.1400473, -29.8494925 ], [ -51.1403835, -29.849400899999988 ], [ -51.1410138, -29.8492111 ], [ -51.141107051824278, -29.849180811952159 ], [ -51.137732625, -29.849817201 ], [ -51.137507786050421, -29.849934360101525 ], [ -51.1377881, -29.8498533 ], [ -51.1379711, -29.8498149 ] ] ], [ [ [ -51.1444607, -29.8485633 ], [ -51.1456416, -29.8485673 ], [ -51.1459053, -29.84856 ], [ -51.1464088, -29.8482237 ], [ -51.1464578, -29.8481663 ], [ -51.1465065, -29.8480854 ], [ -51.1465366, -29.8480243 ], [ -51.1465663, -29.8479454 ], [ -51.1466093, -29.847786400000011 ], [ -51.1466264, -29.8476105 ], [ -51.1466176, -29.8474561 ], [ -51.146607, -29.8473087 ], [ -51.1464099, -29.8465953 ], [ -51.1463896, -29.8464873 ], [ -51.1463964, -29.8464033 ], [ -51.1464308, -29.8463266 ], [ -51.1464735, -29.8462587 ], [ -51.146543, -29.8461858 ], [ -51.1466154, -29.8461269 ], [ -51.1466861, -29.84608 ], [ -51.1467985, -29.846014100000012 ], [ -51.147158, -29.8458442 ], [ -51.1472519, -29.8457938 ], [ -51.1473282, -29.845734099999987 ], [ -51.1474385, -29.8455762 ], [ -51.1475561, -29.8453349 ], [ -51.1477619, -29.8449382 ], [ -51.1478164, -29.8448595 ], [ -51.1478795, -29.8447972 ], [ -51.1479723, -29.8447244 ], [ -51.148116, -29.8446655 ], [ -51.148437, -29.844574099999988 ], [ -51.1488522, -29.844416 ], [ -51.1494769, -29.844128 ], [ -51.1491525, -29.8440834 ], [ -51.14870722613616, -29.844027704067688 ], [ -51.146378735, -29.846074170999895 ], [ -51.146217458, -29.848216852 ], [ -51.144373941547904, -29.848564613684296 ], [ -51.1444607, -29.8485633 ] ] ] ] } },
{ "type": "Feature", "properties": { "name": "Boa Vista", "code_muni": 4307708.0, "name_muni": "Esteio" }, "geometry": { "type": "MultiPolygon", "coordinates": [ [ [ [ -51.1238204, -29.8591094 ], [ -51.1239256, -29.8595965 ], [ -51.1239465, -29.8597078 ], [ -51.1240096, -29.8599044 ], [ -51.1240839, -29.8600357 ], [ -51.1241579, -29.8601042 ], [ -51.1244353, -29.8602764 ], [ -51.1247353, -29.8604131 ], [ -51.1252009, -29.8605346 ], [ -51.1254965, -29.8605591 ], [ -51.125523109964135, -29.860559050118027 ], [ -51.123813314776129, -29.859088063501272 ], [ -51.1238204, -29.8591094 ] ] ], [ [ [ -51.1257631, -29.8605586 ], [ -51.1259357, -29.860485 ], [ -51.1263675, -29.8601323 ], [ -51.1269484, -29.859591 ], [ -51.1270692, -29.8595256 ], [ -51.1273408, -29.8594733 ], [ -51.1276965, -29.8593456 ], [ -51.1280909, -29.8591275 ], [ -51.1283589, -29.8589576 ], [ -51.1287227, -29.8587191 ], [ -51.1288824, -29.8585741 ], [ -51.1291883, -29.8582647 ], [ -51.1292717, -29.8581565 ], [ -51.1294435, -29.8578788 ], [ -51.1295652, -29.8576853 ], [ -51.1296748, -29.8574065 ], [ -51.1297782, -29.8571144 ], [ -51.1298281, -29.8568837 ], [ -51.1298548, -29.8566738 ], [ -51.1298553, -29.8565825 ], [ -51.129904, -29.8559704 ], [ -51.1299321, -29.8553344 ], [ -51.1299086, -29.854854 ], [ -51.129891439143158, -29.854653099770506 ], [ -51.12968424, -29.854846387999899 ], [ -51.129227888999893, -29.857808362999908 ], [ -51.125686320091511, -29.860558744053517 ], [ -51.1257631, -29.8605586 ] ] ] ] } },
{ "type": "Feature", "properties": { "name": "Costa do Morro", "code_muni": 4307708.0, "name_muni": "Esteio" }, "geometry": { "type": "Polygon", "coordinates": [ [ [ -51.1049776, -29.865755199999985 ], [ -51.1052668, -29.8656707 ], [ -51.10525708209304, -29.86563547421871 ], [ -51.105029144999897, -29.86571224499988 ], [ -51.10497402258747, -29.865755965620327 ], [ -51.1049776, -29.865755199999985 ] ] ] } },
{ "type": "Feature", "properties": { "name": "Passo Sapucaia", "code_muni": 4307708.0, "name_muni": "Esteio" }, "geometry": { "type": "MultiPolygon", "coordinates": [ [ [ [ -51.1052668, -29.8656707 ], [ -51.105577, -29.8655915 ], [ -51.1063244, -29.8653747 ], [ -51.1072161, -29.8650984 ], [ -51.1083817, -29.8646862 ], [ -51.1089225, -29.8646525 ], [ -51.1093417, -29.86457510000001 ], [ -51.1100078, -29.8643879 ], [ -51.1111264, -29.8639343 ], [ -51.1124401, -29.8634987 ], [ -51.1125501, -29.8634622 ], [ -51.1132693, -29.863191900000011 ], [ -51.1137734, -29.862993 ], [ -51.1140747, -29.86286650000001 ], [ -51.1143221, -29.8627614 ], [ -51.114829, -29.8624614 ], [ -51.115001875401411, -29.862352882397989 ], [ -51.10525708209304, -29.86563547421871 ], [ -51.1052668, -29.8656707 ] ] ], [ [ [ -51.1158758, -29.861806 ], [ -51.1161822, -29.8615705 ], [ -51.1163854, -29.8613396 ], [ -51.116441874515736, -29.861269491952033 ], [ -51.115570498488033, -29.86199670324558 ], [ -51.1158758, -29.861806 ] ] ], [ [ [ -51.1178492, -29.860276 ], [ -51.1181617, -29.8601033 ], [ -51.1183387, -29.859951599999984 ], [ -51.1186489, -29.8595093 ], [ -51.1187095, -29.859395 ], [ -51.118767242452513, -29.859328764314945 ], [ -51.11728777955107, -29.860563521970288 ], [ -51.1178492, -29.860276 ] ] ], [ [ [ -51.119022, -29.8591752 ], [ -51.1194176, -29.8590565 ], [ -51.119662306623809, -29.858998892810789 ], [ -51.119072059, -29.859074359 ], [ -51.118845005011018, -29.859263862489797 ], [ -51.119022, -29.8591752 ] ] ] ] } },
{ "type": "Feature", "properties": { "name": "Primor", "code_muni": 4307708.0, "name_muni": "Esteio" }, "geometry": { "type": "Polygon", "coordinates": [ [ [ -51.1588469, -29.8357476 ], [ -51.1589099, -29.8358306 ], [ -51.15940951357333, -29.835500405443771 ], [ -51.158835544433607, -29.835721927098074 ], [ -51.1588469, -29.8357476 ] ] ] } },
{ "type": "Feature", "properties": { "name": "Três Portos", "code_muni": 4307708.0, "name_muni": "Esteio" }, "geometry": { "type": "MultiPolygon", "coordinates": [ [ [ [ -51.1787523, -29.8297073 ], [ -51.1789029, -29.829685 ], [ -51.1789655, -29.829675699999989 ], [ -51.1790277, -29.8296665 ], [ -51.1793561, -29.8296504 ], [ -51.1794327, -29.8296467 ], [ -51.1798173, -29.8296517 ], [ -51.1798976, -29.8296566 ], [ -51.1804945, -29.8296934 ], [ -51.1810175, -29.8297819 ], [ -51.181069705148403, -29.829575062726029 ], [ -51.179307848, -29.829552632999903 ], [ -51.177733435581139, -29.829858170132031 ], [ -51.1787523, -29.8297073 ] ] ], [ [ [ -51.1662666, -29.8329195 ], [ -51.1670024, -29.8326275 ], [ -51.1700596, -29.8314661 ], [ -51.17057470000001, -29.8312557 ], [ -51.170697847745167, -29.831223274152283 ], [ -51.17027991, -29.831304353 ], [ -51.166175897901851, -29.832888678040867 ], [ -51.1662666, -29.8329195 ] ] ] ] } }
]
}
