{
"type": "FeatureCollection",
"name": "bairros_itaara",
"crs": { "type": "name", "properties": { "name": "urn:ogc:def:crs:OGC:1.3:CRS84" } },
"features": [
{ "type": "Feature", "properties": { "code_muni": 4310538.0, "name_muni": "Itaara", "code_state": 43.0, "abbrev_state": "RS", "name_state": "Rio Grande do Sul", "code_region": 4.0, "name_region": "Sul", "year": 2022.0 }, "geometry": { "type": "Polygon", "coordinates": [ [ [ -53.767202961, -29.6577561789999 ], [ -53.777966803, -29.657253205 ], [ -53.779345312, -29.655540532 ], [ -53.776279831999894, -29.654104595999989 ], [ -53.77470486, -29.650799182 ], [ -53.783448413, -29.642741362 ], [ -53.801158797, -29.645921195 ], [ -53.802082137, -29.643787198 ], [ -53.806131451999896, -29.641680354999899 ], [ -53.81590553, -29.625022604 ], [ -53.819893377, -29.621477221 ], [ -53.822921661999906, -29.621534524 ], [ -53.829112215999892, -29.617515447 ], [ -53.831296118999894, -29.608090771 ], [ -53.830422105, -29.605991253 ], [ -53.832746509999893, -29.600649857 ], [ -53.834880509999891, -29.601150516 ], [ -53.837774265, -29.597813415 ], [ -53.838337979999899, -29.593872597 ], [ -53.849844421999897, -29.594525737 ], [ -53.8560648489999, -29.592266418 ], [ -53.852833535999892, -29.586888744 ], [ -53.841892709, -29.585460686 ], [ -53.840835567999903, -29.575729682 ], [ -53.833587135, -29.575917467 ], [ -53.839862904, -29.570793720000012 ], [ -53.841971938, -29.565074767999892 ], [ -53.833586853, -29.559094050999892 ], [ -53.827323631, -29.557687713 ], [ -53.817299159, -29.548991034 ], [ -53.815447756, -29.541249754 ], [ -53.808785004, -29.543442506 ], [ -53.799140049, -29.53945156 ], [ -53.795021144, -29.536073901 ], [ -53.794658657, -29.534217597999898 ], [ -53.789811173, -29.53214227 ], [ -53.789306790999895, -29.527127263 ], [ -53.782475347999892, -29.527331876999895 ], [ -53.780504455, -29.528567302999903 ], [ -53.778987964, -29.526702731999904 ], [ -53.776370539, -29.527336181999903 ], [ -53.775109707, -29.525588373999891 ], [ -53.773047913, -29.526392304 ], [ -53.771573546999903, -29.521003879 ], [ -53.768754444, -29.518287109 ], [ -53.764842326999897, -29.521297074 ], [ -53.764348873999893, -29.518796311999903 ], [ -53.758774059, -29.516919743 ], [ -53.756064287999891, -29.507939192 ], [ -53.753286558999903, -29.506342652999894 ], [ -53.749192083, -29.508019331999893 ], [ -53.749635564999892, -29.505926249 ], [ -53.748253330999901, -29.503933468999893 ], [ -53.742080804999894, -29.500689193 ], [ -53.7382386949999, -29.491672684 ], [ -53.734213344999901, -29.493072981 ], [ -53.729022702999892, -29.48978134 ], [ -53.726494406, -29.491638232 ], [ -53.723320668, -29.490386682999905 ], [ -53.71804154599991, -29.490923212 ], [ -53.714489035, -29.485419655999987 ], [ -53.710331233, -29.485504493999905 ], [ -53.70613365, -29.483292204999898 ], [ -53.703450599, -29.480131384999897 ], [ -53.698816166, -29.480376288999903 ], [ -53.69611205, -29.478502660999901 ], [ -53.696037712, -29.469895841 ], [ -53.692376497999902, -29.461759819999905 ], [ -53.689660946999894, -29.463165406 ], [ -53.687191255, -29.467071415 ], [ -53.688916934, -29.473534958999892 ], [ -53.68728526, -29.486157815 ], [ -53.688452786, -29.488767803 ], [ -53.695672236999897, -29.49318887 ], [ -53.69906965, -29.499274462 ], [ -53.708606964999895, -29.509712049 ], [ -53.716909679, -29.513401776 ], [ -53.721617861, -29.518023558 ], [ -53.716575975, -29.521744237 ], [ -53.711290543, -29.5297295949999 ], [ -53.7108115509999, -29.533836076999904 ], [ -53.706505518, -29.539195371999899 ], [ -53.706609962999892, -29.543756001 ], [ -53.708563956, -29.5457671 ], [ -53.707729023, -29.547317689 ], [ -53.701443726, -29.549493025999901 ], [ -53.703161302999902, -29.551026928999903 ], [ -53.704217039, -29.553793484 ], [ -53.70258892399989, -29.554809282999905 ], [ -53.704247720999902, -29.556367398 ], [ -53.700676191999889, -29.556104992 ], [ -53.701455145, -29.557893911 ], [ -53.697428629999891, -29.559323735 ], [ -53.696872959, -29.561569732 ], [ -53.700692938, -29.565476595 ], [ -53.705122215, -29.567562355 ], [ -53.707416403, -29.566808717999901 ], [ -53.705959352, -29.570697385 ], [ -53.7072641, -29.575605266 ], [ -53.703340490999892, -29.577278169 ], [ -53.701921317999989, -29.581166868 ], [ -53.704912846999903, -29.584200263999897 ], [ -53.700304484, -29.584844903 ], [ -53.699239645, -29.586122646 ], [ -53.706694104, -29.593200446 ], [ -53.710597806, -29.591466060999895 ], [ -53.714649264999892, -29.599533728 ], [ -53.713587264, -29.602373207 ], [ -53.701732891999896, -29.607332362 ], [ -53.707017997, -29.613993857 ], [ -53.712309381, -29.615051924999896 ], [ -53.715849440999889, -29.617664073999908 ], [ -53.715892826999891, -29.621604271 ], [ -53.710534654, -29.631236239 ], [ -53.711814507, -29.632584037999901 ], [ -53.712211226, -29.637967086999897 ], [ -53.711161859999891, -29.639829534999901 ], [ -53.715223383, -29.644645836999892 ], [ -53.718410408999901, -29.644670684999905 ], [ -53.723921643, -29.641863978999904 ], [ -53.733765434, -29.644295535 ], [ -53.738598399999894, -29.648420724999895 ], [ -53.743417956, -29.649029162 ], [ -53.747463846999892, -29.646800515999903 ], [ -53.757590281, -29.655413227999894 ], [ -53.763701844, -29.655379154999903 ], [ -53.767202961, -29.6577561789999 ] ] ] } }
]
}
