{
"type": "FeatureCollection",
"name": "bairros_tiradentes_do_sul",
"crs": { "type": "name", "properties": { "name": "urn:ogc:def:crs:OGC:1.3:CRS84" } },
"features": [
{ "type": "Feature", "properties": { "code_muni": 4321477.0, "name_muni": "Tiradentes do Sul", "code_state": 43.0, "abbrev_state": "RS", "name_state": "Rio Grande do Sul", "code_region": 4.0, "name_region": "Sul", "year": 2022.0 }, "geometry": { "type": "Polygon", "coordinates": [ [ [ -54.143550621, -27.402477631999904 ], [ -54.149166226, -27.402293162 ], [ -54.16348944899989, -27.405206604999901 ], [ -54.164158688, -27.403396227 ], [ -54.16247272, -27.401714549 ], [ -54.153401523999889, -27.400167468999896 ], [ -54.15228183499989, -27.3951374489999 ], [ -54.154448283, -27.394676274999899 ], [ -54.164381767999899, -27.398095401 ], [ -54.166869966, -27.396585323 ], [ -54.170274076999902, -27.391141317999907 ], [ -54.174156523, -27.395396994 ], [ -54.170699859, -27.397786521999898 ], [ -54.168510352999903, -27.402299597 ], [ -54.169756596999903, -27.410502069 ], [ -54.171798634, -27.411874868 ], [ -54.184471281999897, -27.41233497 ], [ -54.195191980999901, -27.405786291 ], [ -54.187450683999892, -27.401191706 ], [ -54.183240053, -27.394233332999899 ], [ -54.183941467, -27.393360318 ], [ -54.199432642, -27.395882835999902 ], [ -54.204237437, -27.400670471 ], [ -54.206931555, -27.40195747 ], [ -54.210505121, -27.401764419999903 ], [ -54.214833727, -27.405685476 ], [ -54.216558305, -27.405162097 ], [ -54.217809911, -27.402478704 ], [ -54.217132092, -27.393366753 ], [ -54.212850676, -27.390531065999895 ], [ -54.217423899, -27.385004534 ], [ -54.214436166, -27.381578109 ], [ -54.213029653, -27.375134293 ], [ -54.214092867, -27.365306731 ], [ -54.213311496, -27.351244418 ], [ -54.20862630300001, -27.335955926999898 ], [ -54.19333962799989, -27.308460199 ], [ -54.192282050999893, -27.300768275999893 ], [ -54.194197695, -27.2923262149999 ], [ -54.189043751, -27.271616883 ], [ -54.186557396999895, -27.264909315999905 ], [ -54.174188624, -27.254911066999988 ], [ -54.169491166999897, -27.253633915 ], [ -54.165485664, -27.254078273999902 ], [ -54.162089383, -27.256091217999895 ], [ -54.156550769, -27.265948675999905 ], [ -54.155365791, -27.2764842 ], [ -54.160174819, -27.287565706999892 ], [ -54.158776899, -27.294288892999891 ], [ -54.154895052, -27.296858520999898 ], [ -54.132764199, -27.301495352 ], [ -54.111456771, -27.302504165999895 ], [ -54.110661415, -27.304948254999903 ], [ -54.115477588, -27.304290078 ], [ -54.113742811, -27.307072875 ], [ -54.111641727999903, -27.308351544999901 ], [ -54.107792213, -27.307980046 ], [ -54.106207538, -27.311630796 ], [ -54.103075562999898, -27.3116051649999 ], [ -54.099350331, -27.313613120999904 ], [ -54.095139903, -27.313138649999896 ], [ -54.096220488, -27.317291919 ], [ -54.091324809, -27.320389726 ], [ -54.08761928, -27.326254451999901 ], [ -54.0861861449999, -27.325824871999895 ], [ -54.08608465, -27.320005898 ], [ -54.082560734, -27.317679687 ], [ -54.079019155, -27.318735803 ], [ -54.078752547, -27.324642529 ], [ -54.067511862999901, -27.328456774 ], [ -54.071982719999902, -27.332493029 ], [ -54.073076472, -27.336178086 ], [ -54.068977113, -27.336755936 ], [ -54.064648480999892, -27.341096103 ], [ -54.066637263, -27.347807616999908 ], [ -54.059717471999903, -27.345967937 ], [ -54.057745698, -27.349754557 ], [ -54.058776332, -27.353146446 ], [ -54.053780678, -27.355553493999899 ], [ -54.054697001, -27.3588813809999 ], [ -54.046325377, -27.36201772 ], [ -54.043920023999895, -27.365250175 ], [ -54.039504533, -27.36711686 ], [ -54.038764882, -27.370771089 ], [ -54.035973243999891, -27.371730238999895 ], [ -54.035813629, -27.375178541 ], [ -54.030339636999891, -27.378664194999896 ], [ -54.033337971, -27.381907815 ], [ -54.030147913, -27.383684559999903 ], [ -54.027764157, -27.396185761 ], [ -54.023406004, -27.403773428 ], [ -54.008170999, -27.416002383 ], [ -54.013774902, -27.420368869 ], [ -54.020704603, -27.438313987999901 ], [ -54.023609392, -27.442512585 ], [ -54.023139505999893, -27.4447191319999 ], [ -54.025471653999894, -27.447343923999899 ], [ -54.025331834, -27.450776832 ], [ -54.031320122, -27.453597542999901 ], [ -54.038289122, -27.451545624999902 ], [ -54.044125072, -27.456632220999893 ], [ -54.045694638, -27.453501678 ], [ -54.044417085, -27.449787111 ], [ -54.047556216, -27.448945427999892 ], [ -54.059615648, -27.452932942 ], [ -54.067957544, -27.460125119999901 ], [ -54.070121846999896, -27.456204064 ], [ -54.066251199, -27.442900786999889 ], [ -54.070786797, -27.4417821709999 ], [ -54.079823136, -27.447256205 ], [ -54.082869033, -27.4472454799999 ], [ -54.087110767, -27.444742268 ], [ -54.094340482, -27.447591897999899 ], [ -54.097254462, -27.441324214 ], [ -54.101836176999896, -27.437359184999899 ], [ -54.103527508, -27.429581422999892 ], [ -54.106307425, -27.4287416559999 ], [ -54.107920464, -27.431062543999897 ], [ -54.108293693, -27.436416458999897 ], [ -54.113173562999989, -27.436250221 ], [ -54.112432601, -27.441013590999898 ], [ -54.117220236, -27.441013590999898 ], [ -54.12376248, -27.435925655999895 ], [ -54.124839268, -27.4311337309999 ], [ -54.118886899, -27.427588049999894 ], [ -54.115053788, -27.423143614 ], [ -54.116979995999898, -27.417598794 ], [ -54.124294439, -27.420674721 ], [ -54.131325741999902, -27.426331080999901 ], [ -54.134141052, -27.427064669999897 ], [ -54.135610374999892, -27.423840738 ], [ -54.134804392, -27.419843534999899 ], [ -54.136642655999893, -27.411435142999903 ], [ -54.140462897, -27.412005712999907 ], [ -54.14218962, -27.415770183999896 ], [ -54.148285703999903, -27.420334738999902 ], [ -54.151374501, -27.4191485549999 ], [ -54.15270011, -27.417273827 ], [ -54.151916113, -27.41427083 ], [ -54.140714934, -27.406711857999905 ], [ -54.141079584, -27.40408209 ], [ -54.143550621, -27.402477631999904 ] ] ] } }
]
}
