{
"type": "FeatureCollection",
"name": "bairros_amaral_ferrador",
"crs": { "type": "name", "properties": { "name": "urn:ogc:def:crs:OGC:1.3:CRS84" } },
"features": [
{ "type": "Feature", "properties": { "code_muni": 4300638.0, "name_muni": "Amaral Ferrador", "code_state": 43.0, "abbrev_state": "RS", "name_state": "Rio Grande do Sul", "code_region": 4.0, "name_region": "Sul", "year": 2022.0 }, "geometry": { "type": "Polygon", "coordinates": [ [ [ -52.2518517829999, -30.884321303999986 ], [ -52.267020327999894, -30.882399912 ], [ -52.276151782999889, -30.88531261 ], [ -52.275175367, -30.896677877999903 ], [ -52.281669886, -30.902956967 ], [ -52.283957735999891, -30.907145355 ], [ -52.28862294, -30.910127533 ], [ -52.290650625999895, -30.9095081849999 ], [ -52.299263996, -30.896417482999905 ], [ -52.31027712799991, -30.888279259999894 ], [ -52.31413581399989, -30.887161949 ], [ -52.324493159, -30.8957097639999 ], [ -52.33582937900001, -30.900912545 ], [ -52.340837951, -30.900761015999894 ], [ -52.347883693, -30.897891054999899 ], [ -52.351355514, -30.897699244 ], [ -52.356892576999897, -30.903301687 ], [ -52.367332491, -30.909542277999908 ], [ -52.380580080999898, -30.904631305 ], [ -52.395454392, -30.906891589999898 ], [ -52.404005928999901, -30.905081806999895 ], [ -52.414407006, -30.917903798999902 ], [ -52.424247400999903, -30.920830587 ], [ -52.426883613, -30.915132388 ], [ -52.426021829, -30.910955569999896 ], [ -52.422326755, -30.905180125999898 ], [ -52.427525755, -30.894050408999902 ], [ -52.427227791999897, -30.890150081999899 ], [ -52.42851071, -30.887783382 ], [ -52.425334369, -30.884021328 ], [ -52.42573169, -30.869584503999903 ], [ -52.418712553, -30.862706502 ], [ -52.418199995999899, -30.85966022 ], [ -52.419693208, -30.856407558999901 ], [ -52.418753734999903, -30.854463499 ], [ -52.422599294, -30.849489065999897 ], [ -52.4279061619999, -30.845660424999899 ], [ -52.426909674999891, -30.841055357999895 ], [ -52.429385784, -30.838971531 ], [ -52.431496503999895, -30.839227967999904 ], [ -52.431810380999899, -30.836255755 ], [ -52.434812584, -30.836072913999896 ], [ -52.433154079, -30.8306996479999 ], [ -52.43660457, -30.827033023999903 ], [ -52.438557359999891, -30.827086328999897 ], [ -52.438962649, -30.824326216 ], [ -52.44065154, -30.822983889999904 ], [ -52.438672342, -30.816493068999893 ], [ -52.447727525999909, -30.808189575 ], [ -52.447326693, -30.801466145999903 ], [ -52.448041181999891, -30.800639605999894 ], [ -52.453574841, -30.802966617 ], [ -52.455539369999897, -30.801667951 ], [ -52.45683322, -30.797148044 ], [ -52.452823711, -30.789121754999901 ], [ -52.453822271, -30.779218006999905 ], [ -52.4524186209999, -30.777488683999891 ], [ -52.446145660999896, -30.776139398999899 ], [ -52.449508330999905, -30.764044554999902 ], [ -52.443352935, -30.759730423999901 ], [ -52.445161033, -30.755508969999898 ], [ -52.440286366999892, -30.750902516999901 ], [ -52.440077795, -30.747448688 ], [ -52.442254721, -30.745222048999906 ], [ -52.43869848, -30.733827907 ], [ -52.439998698999901, -30.730127969 ], [ -52.439390137, -30.727067935 ], [ -52.437467656, -30.725260976999905 ], [ -52.437889046, -30.715576697 ], [ -52.439466583999895, -30.714090493999898 ], [ -52.433567598, -30.705820856999896 ], [ -52.430276039, -30.697753849 ], [ -52.432081516, -30.696814291 ], [ -52.431323568, -30.688171821 ], [ -52.435003546, -30.683928841 ], [ -52.442916958, -30.659289891999894 ], [ -52.448006273, -30.655421396000012 ], [ -52.423471811999903, -30.657029991999895 ], [ -52.421565739, -30.654313058 ], [ -52.413482816999895, -30.655110204 ], [ -52.398048172, -30.662894088 ], [ -52.391009769999989, -30.662819785999904 ], [ -52.391686464, -30.665373141 ], [ -52.381603653999903, -30.6790794039999 ], [ -52.37773441, -30.679593 ], [ -52.376701782999895, -30.681114119 ], [ -52.375431746999894, -30.687149524999899 ], [ -52.37180347, -30.687588392 ], [ -52.365778441, -30.686053595 ], [ -52.364007467, -30.689933514 ], [ -52.362489898, -30.69054297 ], [ -52.357364085, -30.68811368 ], [ -52.355016389999903, -30.689170676999893 ], [ -52.352682199, -30.687892979 ], [ -52.348234051, -30.69411319599989 ], [ -52.346222229, -30.691620215999901 ], [ -52.345877754, -30.694007464 ], [ -52.343456841, -30.695790180999904 ], [ -52.336006563999895, -30.692142698999898 ], [ -52.3367122289999, -30.698227296 ], [ -52.342181653, -30.704494519 ], [ -52.34117861499989, -30.71100818 ], [ -52.336329884999898, -30.713539050999898 ], [ -52.3246694649999, -30.714590562999899 ], [ -52.317709390999902, -30.721347696999896 ], [ -52.317450607999902, -30.723081234999892 ], [ -52.31508081, -30.723961824 ], [ -52.317553879999892, -30.728199775999894 ], [ -52.31574706, -30.730014857999898 ], [ -52.316074769999894, -30.73248273 ], [ -52.311616307999891, -30.735003616 ], [ -52.311121344999897, -30.738303064 ], [ -52.308897596, -30.737476752 ], [ -52.306086847999893, -30.739364144 ], [ -52.304520414, -30.7446121689999 ], [ -52.300571712999989, -30.745622766999897 ], [ -52.293981701, -30.751507855999908 ], [ -52.294849738, -30.754063269 ], [ -52.293578081, -30.753981409999895 ], [ -52.292217459, -30.758714922 ], [ -52.291062863, -30.758919315 ], [ -52.293108124, -30.760895053 ], [ -52.291842624, -30.764477244 ], [ -52.288620314999896, -30.766771434 ], [ -52.286723512, -30.765723935 ], [ -52.283926219, -30.771479591999903 ], [ -52.281594419, -30.771860505999904 ], [ -52.2818005459999, -30.772942679 ], [ -52.274717135999893, -30.778089746 ], [ -52.275060735, -30.785485809 ], [ -52.268409289, -30.7888538139999 ], [ -52.268629237, -30.790343766 ], [ -52.270272491, -30.790493424 ], [ -52.268521362999891, -30.790775573 ], [ -52.268829323, -30.793626871999901 ], [ -52.270327183999896, -30.794160823 ], [ -52.269091312999898, -30.795992285 ], [ -52.267351211999902, -30.796159229 ], [ -52.266242438999896, -30.798984146999889 ], [ -52.262600162999902, -30.799734593 ], [ -52.25757917499989, -30.796878063999898 ], [ -52.259516593999891, -30.794065508 ], [ -52.256095354, -30.792779028 ], [ -52.257976382, -30.785941013999899 ], [ -52.256915157, -30.783887632999903 ], [ -52.254038541999897, -30.783303757999906 ], [ -52.252260777999894, -30.781256875999894 ], [ -52.251416174, -30.775143171 ], [ -52.252918404, -30.773751341 ], [ -52.24558538, -30.770210444999989 ], [ -52.245397655, -30.768871055 ], [ -52.248468842, -30.767157034 ], [ -52.244071125999895, -30.761524735 ], [ -52.244229269999899, -30.759639713999903 ], [ -52.240370276, -30.756587407 ], [ -52.232376205, -30.757448186 ], [ -52.229613512999897, -30.755839609 ], [ -52.227680557, -30.757522111999904 ], [ -52.225442160999904, -30.755579732999902 ], [ -52.219080522, -30.754576369999896 ], [ -52.210649121999893, -30.755585816 ], [ -52.208761201999899, -30.7575824699999 ], [ -52.208003791999893, -30.763112562999897 ], [ -52.213232489999903, -30.770105853 ], [ -52.21363000199991, -30.778896486 ], [ -52.212821974, -30.777787888 ], [ -52.208225163999899, -30.777096835 ], [ -52.199119614, -30.771221904999901 ], [ -52.19598152, -30.763425716 ], [ -52.194471547, -30.764569810999902 ], [ -52.192754204, -30.763560259 ], [ -52.189601248, -30.764186325 ], [ -52.177683714999901, -30.773839813999896 ], [ -52.185408015, -30.780054130999901 ], [ -52.182845149999899, -30.787730107999899 ], [ -52.183520610999899, -30.798077954 ], [ -52.181852028, -30.801071809 ], [ -52.183820031, -30.806177695 ], [ -52.179055857, -30.810035199 ], [ -52.176277787999894, -30.821676559 ], [ -52.178957583999903, -30.828256745 ], [ -52.177433365, -30.830515603 ], [ -52.178854348, -30.837620866999895 ], [ -52.170004721999895, -30.840718329 ], [ -52.168945522999898, -30.845280572 ], [ -52.1640662249999, -30.851514231 ], [ -52.163994703, -30.854309755 ], [ -52.155495383, -30.86292816 ], [ -52.154071417999901, -30.862409823 ], [ -52.145127000999906, -30.865174852999903 ], [ -52.140891288, -30.864401364999907 ], [ -52.138991566, -30.865913835 ], [ -52.138860726, -30.867853184 ], [ -52.136457779999894, -30.868880028 ], [ -52.136434025, -30.871681285 ], [ -52.126347284, -30.875169526 ], [ -52.12459028699989, -30.8831234479999 ], [ -52.122654378999989, -30.884719156 ], [ -52.118773613, -30.884680524 ], [ -52.115890753, -30.888062889 ], [ -52.116448024, -30.896059224999902 ], [ -52.115296644999901, -30.898123256 ], [ -52.112264965, -30.899214664999896 ], [ -52.108627051, -30.905531309 ], [ -52.106680661, -30.903490994 ], [ -52.1050746129999, -30.903865246999892 ], [ -52.09864227, -30.910632842 ], [ -52.102138442, -30.918695910999901 ], [ -52.102041931, -30.925783636999892 ], [ -52.106833463, -30.928726237 ], [ -52.114281870999896, -30.917918476 ], [ -52.127723371999899, -30.912897331999893 ], [ -52.128874943, -30.901466674999899 ], [ -52.130548007, -30.899508871 ], [ -52.135764034, -30.899764730999898 ], [ -52.150273630999898, -30.905541775999989 ], [ -52.1632925709999, -30.903993202 ], [ -52.169027059, -30.906322944999904 ], [ -52.174823869, -30.911902047 ], [ -52.177300696, -30.912427105999893 ], [ -52.180078523, -30.911311772 ], [ -52.182143889, -30.902275301 ], [ -52.18348962399989, -30.901191632999897 ], [ -52.187241254999904, -30.901560714 ], [ -52.2009264, -30.906973326 ], [ -52.206496199, -30.906575614 ], [ -52.209014882, -30.904719808 ], [ -52.210997226000011, -30.898162602 ], [ -52.213365392, -30.895430184 ], [ -52.228667125, -30.891464524999893 ], [ -52.239393207, -30.8811118839999 ], [ -52.2518517829999, -30.884321303999986 ] ] ] } }
]
}
