{
"type": "FeatureCollection",
"name": "bairros_palmitinho",
"crs": { "type": "name", "properties": { "name": "urn:ogc:def:crs:OGC:1.3:CRS84" } },
"features": [
{ "type": "Feature", "properties": { "code_muni": 4313805.0, "name_muni": "Palmitinho", "code_state": 43.0, "abbrev_state": "RS", "name_state": "Rio Grande do Sul", "code_region": 4.0, "name_region": "Sul", "year": 2022.0 }, "geometry": { "type": "Polygon", "coordinates": [ [ [ -53.563090105999891, -27.391501118 ], [ -53.572021645999904, -27.391119769999897 ], [ -53.5791428369999, -27.388513976 ], [ -53.5824776279999, -27.385907452 ], [ -53.585251735, -27.380223736999891 ], [ -53.587051832, -27.379570846 ], [ -53.589635170999898, -27.381727702 ], [ -53.590179717999895, -27.392672419 ], [ -53.596385493, -27.391846090999902 ], [ -53.603501642, -27.388758023 ], [ -53.6047761149999, -27.386197148 ], [ -53.600062398, -27.380392274 ], [ -53.599239817, -27.373081849999902 ], [ -53.602139318, -27.369741734999895 ], [ -53.60758027, -27.369202691999899 ], [ -53.611681378999897, -27.370981156 ], [ -53.615608408, -27.386900696999898 ], [ -53.617678263, -27.391694743 ], [ -53.619102687, -27.392117923999898 ], [ -53.622419729999898, -27.388600991 ], [ -53.624464616, -27.383290324 ], [ -53.626543007999892, -27.370966548999892 ], [ -53.62577956, -27.362968201999902 ], [ -53.627875270999901, -27.355107771 ], [ -53.629867982, -27.3544473379999 ], [ -53.637726046999902, -27.361336719999898 ], [ -53.648291882, -27.358232116999897 ], [ -53.648724934, -27.354382265 ], [ -53.637820682, -27.348291456 ], [ -53.636731386, -27.34618625 ], [ -53.642341868, -27.341789562 ], [ -53.652244896999896, -27.339454230999898 ], [ -53.656319356, -27.336870351999895 ], [ -53.652685859, -27.3343348239999 ], [ -53.638831109, -27.331166256 ], [ -53.63850166, -27.328930406 ], [ -53.64360945, -27.328327418999905 ], [ -53.662004966, -27.316777402 ], [ -53.663487878, -27.3099600319999 ], [ -53.66255668, -27.302970681 ], [ -53.656582476, -27.298714604999901 ], [ -53.6473699699999, -27.299723953999891 ], [ -53.645294437, -27.293865326999896 ], [ -53.646138613999895, -27.291272849999899 ], [ -53.648599954, -27.289462488 ], [ -53.662379492, -27.286982563 ], [ -53.665087152, -27.285025549999901 ], [ -53.656160117, -27.281746351 ], [ -53.646322821999902, -27.281437932 ], [ -53.643582211, -27.26853661 ], [ -53.645717571, -27.266297691 ], [ -53.651939292999899, -27.264741262 ], [ -53.651774178, -27.263149709999901 ], [ -53.64444608, -27.260827978999899 ], [ -53.63962321, -27.261216732 ], [ -53.639747843, -27.264295837 ], [ -53.636281589, -27.265980839 ], [ -53.636604927999898, -27.269951493 ], [ -53.631708578, -27.275809513 ], [ -53.617311738, -27.281581554999892 ], [ -53.6133778, -27.285062543 ], [ -53.610629016, -27.282058510999899 ], [ -53.607430076999897, -27.281013867 ], [ -53.605267124, -27.277648024 ], [ -53.59984575499989, -27.276318875 ], [ -53.600501124999894, -27.275176105 ], [ -53.594397231, -27.2740439479999 ], [ -53.592716971, -27.269427321 ], [ -53.581430683999898, -27.2672228019999 ], [ -53.584506825999902, -27.262489417 ], [ -53.561415602999901, -27.245129812999902 ], [ -53.56026159, -27.250418834 ], [ -53.554391805, -27.25275849 ], [ -53.553678894, -27.255503446 ], [ -53.559120612, -27.256500405999901 ], [ -53.560206883, -27.258090946 ], [ -53.554863424, -27.262000784999891 ], [ -53.556560125, -27.268836260999898 ], [ -53.547183479, -27.271312523999899 ], [ -53.548257104999898, -27.279470160999896 ], [ -53.542523076, -27.282408094999898 ], [ -53.544288740999896, -27.287449602 ], [ -53.54717059, -27.286860325 ], [ -53.549538801, -27.295903053 ], [ -53.5480243599999, -27.297590639 ], [ -53.546665791, -27.297482511999899 ], [ -53.546569223999903, -27.296125574 ], [ -53.544490217, -27.296886285 ], [ -53.546515024, -27.301083588 ], [ -53.541674516999898, -27.303556769999894 ], [ -53.54259020699989, -27.306980963999894 ], [ -53.5451835329999, -27.306276388999908 ], [ -53.546724734999891, -27.307401963 ], [ -53.542132637, -27.309417735999894 ], [ -53.542769264, -27.310866964999896 ], [ -53.540782621999909, -27.3133277109999 ], [ -53.541861061, -27.318206077999893 ], [ -53.544858366, -27.321754235 ], [ -53.540381022, -27.325341907999903 ], [ -53.539995738, -27.332300459999892 ], [ -53.537714873, -27.337177776 ], [ -53.530253957999903, -27.341144484 ], [ -53.528086820999903, -27.341074659 ], [ -53.526871848, -27.344824941 ], [ -53.521940174999898, -27.347908085 ], [ -53.517960797999905, -27.354099855999895 ], [ -53.515952026, -27.3626045 ], [ -53.512396822, -27.365762627 ], [ -53.512362126, -27.369741566999895 ], [ -53.512995047999901, -27.374396492999896 ], [ -53.518986901999895, -27.376996967 ], [ -53.524278221, -27.376539958 ], [ -53.52550467, -27.380316236999896 ], [ -53.529215439, -27.381534905 ], [ -53.531304217999903, -27.383729124 ], [ -53.53113279, -27.386703043999894 ], [ -53.537040014999903, -27.392708206 ], [ -53.538727353, -27.392817728 ], [ -53.542708287, -27.389692576999895 ], [ -53.544766186999901, -27.393746004 ], [ -53.548432405, -27.396500336 ], [ -53.552916450999902, -27.390598629 ], [ -53.556731935999892, -27.389660582 ], [ -53.563090105999891, -27.391501118 ] ] ] } }
]
}
