{
"type": "FeatureCollection",
"name": "bairros_sao_miguel_das_missoes",
"crs": { "type": "name", "properties": { "name": "urn:ogc:def:crs:OGC:1.3:CRS84" } },
"features": [
{ "type": "Feature", "properties": { "code_muni": 4319158.0, "name_muni": "São Miguel das Missões", "code_state": 43.0, "abbrev_state": "RS", "name_state": "Rio Grande do Sul", "code_region": 4.0, "name_region": "Sul", "year": 2022.0 }, "geometry": { "type": "Polygon", "coordinates": [ [ [ -54.61769838, -28.739853594999893 ], [ -54.627838981, -28.738810687999901 ], [ -54.628344851, -28.741060193999893 ], [ -54.625655439, -28.743520246999896 ], [ -54.628238311, -28.748147145 ], [ -54.640760601, -28.743429208999899 ], [ -54.64170189, -28.741930735 ], [ -54.640140099, -28.734683592 ], [ -54.64182943, -28.733004546 ], [ -54.645368779, -28.733059354999988 ], [ -54.6460546879999, -28.735526851 ], [ -54.652834546, -28.740461998999887 ], [ -54.65673535, -28.73944857 ], [ -54.660070241, -28.734475204 ], [ -54.655681606, -28.730200275999898 ], [ -54.656157213, -28.727207501999903 ], [ -54.657723023, -28.724769174999899 ], [ -54.659419485999898, -28.724173231 ], [ -54.661105369, -28.725332804999908 ], [ -54.665196618, -28.721043042 ], [ -54.665165008, -28.716248381 ], [ -54.67164378199989, -28.715580741999901 ], [ -54.668244968999893, -28.708368178999894 ], [ -54.6767259699999, -28.703044818 ], [ -54.671348506999891, -28.703274608 ], [ -54.674058342, -28.698148134 ], [ -54.678415332, -28.699356118 ], [ -54.680962209, -28.695365344999985 ], [ -54.67685153, -28.692020602 ], [ -54.678903664, -28.686063643999905 ], [ -54.676224452, -28.6836103209999 ], [ -54.672472494, -28.690994925 ], [ -54.670997876999898, -28.690339997 ], [ -54.67180605, -28.679887102999906 ], [ -54.681057795999898, -28.674872222 ], [ -54.692105316, -28.679996882 ], [ -54.693672132, -28.676478238 ], [ -54.692752863, -28.672203606 ], [ -54.690566181, -28.674335949 ], [ -54.688251066, -28.673111662999894 ], [ -54.686569574, -28.663140472999896 ], [ -54.683828038999891, -28.661738719 ], [ -54.679794097999903, -28.663752988999896 ], [ -54.677722961, -28.662391955 ], [ -54.677224582, -28.659976426999904 ], [ -54.6839209, -28.657290178 ], [ -54.68414361, -28.656142298 ], [ -54.682183225, -28.647064751999896 ], [ -54.674703694, -28.642033371 ], [ -54.677189551, -28.634460121 ], [ -54.684019029999895, -28.631265244 ], [ -54.69286196, -28.624680824999896 ], [ -54.6977843499999, -28.624289263 ], [ -54.698972322, -28.61991806 ], [ -54.701122277, -28.619375534 ], [ -54.716648151999898, -28.6317336299999 ], [ -54.715153571, -28.636800417 ], [ -54.724017654, -28.636492602 ], [ -54.726430377, -28.634869184 ], [ -54.726487339999899, -28.633190703 ], [ -54.72195579, -28.631858843 ], [ -54.721613003999892, -28.6285431109999 ], [ -54.726021541, -28.621679641999901 ], [ -54.727110638999903, -28.617082271999902 ], [ -54.732021276999895, -28.610935004999895 ], [ -54.733268729, -28.605340645999899 ], [ -54.736471807, -28.601934447 ], [ -54.726545703999896, -28.596355242 ], [ -54.727092991999896, -28.590311745999898 ], [ -54.729388862999897, -28.586578539999902 ], [ -54.722676238, -28.5869600249999 ], [ -54.719192407, -28.581107582999895 ], [ -54.716500929999903, -28.583520008999987 ], [ -54.712736565999897, -28.581928412 ], [ -54.71105677899989, -28.584013309999904 ], [ -54.705124161, -28.583312543 ], [ -54.706834327, -28.579792976 ], [ -54.700105726999901, -28.576318989 ], [ -54.697752007, -28.573733518 ], [ -54.696601475, -28.568672358 ], [ -54.693850623999893, -28.566115919 ], [ -54.689606689999898, -28.567475595 ], [ -54.687836867, -28.56235163 ], [ -54.682638789, -28.559016051999901 ], [ -54.681834288999895, -28.548516886 ], [ -54.684800766, -28.543134408999901 ], [ -54.683112509999901, -28.541364554 ], [ -54.685045585, -28.538014645 ], [ -54.680620214, -28.5232253409999 ], [ -54.677261648, -28.518844486 ], [ -54.675038104999899, -28.518119301999903 ], [ -54.671367451, -28.508916326 ], [ -54.67240167499989, -28.504961088 ], [ -54.671425367, -28.496766102 ], [ -54.668090327999892, -28.492193592 ], [ -54.668504524, -28.487092828999899 ], [ -54.671072887, -28.4833456819999 ], [ -54.672419696, -28.474762945 ], [ -54.671197608999897, -28.469958068 ], [ -54.673094863, -28.4665723909999 ], [ -54.67045251, -28.461597675 ], [ -54.671222991, -28.454905320999988 ], [ -54.669636936, -28.443326119999895 ], [ -54.666523744999893, -28.439169275 ], [ -54.656930138, -28.446475634 ], [ -54.651596974, -28.454978159999904 ], [ -54.64719709, -28.454905320999988 ], [ -54.643648328, -28.4583083979999 ], [ -54.633999371999892, -28.458940180999896 ], [ -54.630616478, -28.460276835999899 ], [ -54.625733443999906, -28.465751844 ], [ -54.617830378999891, -28.468240356 ], [ -54.613547471999908, -28.473482122999904 ], [ -54.600525267, -28.475774282 ], [ -54.586871419, -28.481579596 ], [ -54.581989543, -28.472202432 ], [ -54.57447526499989, -28.464908753 ], [ -54.569746075, -28.453568898 ], [ -54.575216423, -28.411470481 ], [ -54.561527022, -28.411757689 ], [ -54.551619324999891, -28.406044263999906 ], [ -54.537436027999902, -28.403985985 ], [ -54.532279168999899, -28.410459430999889 ], [ -54.531732738, -28.415072279 ], [ -54.526942694999903, -28.4170606 ], [ -54.521431547, -28.422934079 ], [ -54.517358181, -28.43136168 ], [ -54.513991085, -28.431229164999902 ], [ -54.509326663, -28.428547038 ], [ -54.508137344, -28.431076095 ], [ -54.497528584, -28.434116301 ], [ -54.497515760999896, -28.435521217 ], [ -54.500143368999893, -28.436840663999899 ], [ -54.497560719, -28.442948715999897 ], [ -54.498434796, -28.445389823 ], [ -54.493877826999899, -28.448308203 ], [ -54.488725619, -28.448832086 ], [ -54.48230334, -28.451384119999897 ], [ -54.484613902, -28.455225083 ], [ -54.491924539, -28.45398527 ], [ -54.492486525999894, -28.454964026 ], [ -54.488742511999902, -28.457834175 ], [ -54.480074609, -28.457034024999892 ], [ -54.48185459, -28.459818515999899 ], [ -54.486250656, -28.461274510999903 ], [ -54.4780749889999, -28.467134079999898 ], [ -54.478022216999896, -28.472424385999894 ], [ -54.473243246, -28.475405114999905 ], [ -54.47036274, -28.479146972999988 ], [ -54.467708611, -28.486101939 ], [ -54.463809399999903, -28.488160325 ], [ -54.462633046, -28.490498191 ], [ -54.458459177999899, -28.491197738 ], [ -54.457549126999901, -28.493162277999904 ], [ -54.451558803999909, -28.4930721449999 ], [ -54.448210424, -28.498384723 ], [ -54.442724856, -28.499016447999988 ], [ -54.444847624, -28.50101681 ], [ -54.44408206, -28.502789924999899 ], [ -54.441644459, -28.501191424999906 ], [ -54.434777714999896, -28.506192923 ], [ -54.430754658, -28.512924107999901 ], [ -54.428066826, -28.514042982 ], [ -54.42809536, -28.516811262 ], [ -54.424924769, -28.519971255 ], [ -54.420397774, -28.520431062999904 ], [ -54.417583252, -28.527541632 ], [ -54.416425493, -28.537455436 ], [ -54.411173945, -28.545401505 ], [ -54.406061103, -28.550657078 ], [ -54.396285604, -28.555858311 ], [ -54.397371060999902, -28.562204472 ], [ -54.393586735, -28.5664871339999 ], [ -54.401485185, -28.567192269 ], [ -54.407336007, -28.56448703 ], [ -54.409274749, -28.561203883 ], [ -54.418570809, -28.562606344999903 ], [ -54.423536188999897, -28.560676551 ], [ -54.433735784, -28.563492524 ], [ -54.446982405999989, -28.581594344999893 ], [ -54.440869807999896, -28.585695691 ], [ -54.433983543, -28.584577693999986 ], [ -54.424605874999898, -28.588042657 ], [ -54.421156584999899, -28.591806350999889 ], [ -54.420434440999898, -28.598510376 ], [ -54.418155613, -28.599449245 ], [ -54.419435257, -28.603426526 ], [ -54.418737842, -28.609793757 ], [ -54.424874686999907, -28.611805843 ], [ -54.427776105, -28.614386373999903 ], [ -54.425271525, -28.623380258999898 ], [ -54.430879079, -28.626049211 ], [ -54.431795029999897, -28.628326387 ], [ -54.430917263, -28.63148817 ], [ -54.439176569, -28.638754130999896 ], [ -54.439176744, -28.642968539 ], [ -54.441690762, -28.644125573999901 ], [ -54.4390829499999, -28.653307299999895 ], [ -54.437861358, -28.654685760999907 ], [ -54.434120650999901, -28.654385415 ], [ -54.43433778, -28.656079007 ], [ -54.431378327999894, -28.658286404 ], [ -54.428229049, -28.657277765999893 ], [ -54.426170187, -28.660275425999899 ], [ -54.424195853999898, -28.660783016 ], [ -54.422296632, -28.656339122 ], [ -54.419210963999895, -28.6550243299999 ], [ -54.416510742, -28.65586551 ], [ -54.412519555999893, -28.653270377 ], [ -54.410816855, -28.658960470999897 ], [ -54.41416415, -28.658741321 ], [ -54.415896963, -28.660890251999902 ], [ -54.415992420999899, -28.663884674 ], [ -54.409819394999893, -28.667883554999896 ], [ -54.406215442, -28.666111966 ], [ -54.403183208, -28.662042144999905 ], [ -54.402602578, -28.658736435 ], [ -54.401247586, -28.658285830999905 ], [ -54.397077807, -28.660684106 ], [ -54.398062293999899, -28.666776443999904 ], [ -54.396857318999899, -28.667524649 ], [ -54.391294138, -28.665782266 ], [ -54.386267836999899, -28.659656936 ], [ -54.382252136, -28.661191678 ], [ -54.378741573, -28.659198994 ], [ -54.375022765, -28.661221938 ], [ -54.373422112, -28.666723539 ], [ -54.364361092, -28.661371592 ], [ -54.358214295, -28.661141669 ], [ -54.356731281, -28.658508244 ], [ -54.353890878, -28.657078375999987 ], [ -54.352441448, -28.660155292999892 ], [ -54.3546162, -28.663176736 ], [ -54.350052885, -28.666327608999897 ], [ -54.353313413, -28.668206691 ], [ -54.353899763, -28.671600403 ], [ -54.364359933999893, -28.684102462999892 ], [ -54.365773267, -28.684189780999894 ], [ -54.375537560999902, -28.693640452 ], [ -54.382411956999903, -28.6968525089999 ], [ -54.390127551, -28.703748517999902 ], [ -54.402808509999907, -28.709751422999901 ], [ -54.405101637, -28.717672079999893 ], [ -54.413017789, -28.732359952 ], [ -54.41126709000001, -28.735662298 ], [ -54.410904532, -28.730819051 ], [ -54.407344322, -28.729597272 ], [ -54.404141455999891, -28.725125799 ], [ -54.401751056, -28.724757388999905 ], [ -54.397612301, -28.726492525000012 ], [ -54.398844644, -28.728442963 ], [ -54.403018046999897, -28.729372168999898 ], [ -54.403655122, -28.731618556999905 ], [ -54.399600237, -28.733563223 ], [ -54.399340924999898, -28.738150173999898 ], [ -54.394937623, -28.746581987 ], [ -54.403543317, -28.74922821 ], [ -54.401337769, -28.753135099 ], [ -54.392932250999898, -28.753666208 ], [ -54.391576024, -28.755899046 ], [ -54.393598359999899, -28.764431949 ], [ -54.389903848, -28.768981961999895 ], [ -54.389991095, -28.782688068 ], [ -54.391221914, -28.783686834 ], [ -54.395080809, -28.782348334999892 ], [ -54.399404378, -28.784234676 ], [ -54.394701192999889, -28.786890739999908 ], [ -54.394009226, -28.789923061 ], [ -54.379526104999989, -28.785952657999911 ], [ -54.375946880999898, -28.787732841 ], [ -54.374570128999899, -28.792690104 ], [ -54.370428574, -28.787517014999896 ], [ -54.364023769, -28.784369228999907 ], [ -54.358440102, -28.785713777999906 ], [ -54.361742084999896, -28.789515170999895 ], [ -54.359974883999897, -28.7916730809999 ], [ -54.361682394999896, -28.797396943 ], [ -54.356660803, -28.801227648 ], [ -54.360635997, -28.805062172 ], [ -54.360061292, -28.808774006 ], [ -54.358338886, -28.810071256999901 ], [ -54.359990863999897, -28.81363177 ], [ -54.357775956999895, -28.823500096 ], [ -54.356123528, -28.825254689 ], [ -54.361045284999896, -28.836815794999897 ], [ -54.3576136739999, -28.842511448 ], [ -54.356116497999899, -28.85105393 ], [ -54.360439439999894, -28.853410041 ], [ -54.36071444, -28.859853397999895 ], [ -54.362299685, -28.861191694999899 ], [ -54.363148770999899, -28.865533424 ], [ -54.358878897999894, -28.870159907 ], [ -54.359496298, -28.876768698 ], [ -54.357531385, -28.885872208 ], [ -54.359077655, -28.888061959 ], [ -54.35450113, -28.891911181999898 ], [ -54.354209569, -28.893860533 ], [ -54.351280777999897, -28.894321147 ], [ -54.346709464, -28.89851356 ], [ -54.340792270999891, -28.905385249999895 ], [ -54.340964066, -28.908630527 ], [ -54.331050022999896, -28.919298207999905 ], [ -54.33245482, -28.9275442439999 ], [ -54.330907629, -28.931084795999908 ], [ -54.340624796, -28.929215496 ], [ -54.343812297999897, -28.929769515000011 ], [ -54.357098694999898, -28.961070041 ], [ -54.356882776, -28.965118022 ], [ -54.351101233999898, -28.972918579999899 ], [ -54.364248169999897, -28.985264221 ], [ -54.377721681, -29.004478989999892 ], [ -54.380524908, -28.997025904999902 ], [ -54.383511129999903, -28.9967514749999 ], [ -54.389293987, -28.987742437 ], [ -54.392035552, -28.974105967 ], [ -54.395313054, -28.968077058999903 ], [ -54.399411820999902, -28.964164184 ], [ -54.398446722, -28.961630888999899 ], [ -54.401892847999896, -28.944901581999893 ], [ -54.407553524, -28.937700568 ], [ -54.413336263, -28.935722394 ], [ -54.410381964999893, -28.922208059999896 ], [ -54.419218871999895, -28.922735772 ], [ -54.419704411999902, -28.920990630999896 ], [ -54.422282722, -28.921092885999904 ], [ -54.424450312, -28.916793771999906 ], [ -54.424017539, -28.914595619999904 ], [ -54.427826806, -28.912942936 ], [ -54.427710857, -28.91055682 ], [ -54.431786963, -28.906593755 ], [ -54.43116886099989, -28.905343500999901 ], [ -54.434353895, -28.903035578999905 ], [ -54.435237463, -28.897144123 ], [ -54.437530109, -28.896099379 ], [ -54.437701745, -28.897344827 ], [ -54.439462974, -28.897425383 ], [ -54.440297380999901, -28.894556247 ], [ -54.442727625, -28.896188508 ], [ -54.444768638, -28.894932621999892 ], [ -54.44318157, -28.891024595 ], [ -54.445687128, -28.887841189 ], [ -54.449963497999896, -28.892164662 ], [ -54.4521554889999, -28.887958469999905 ], [ -54.457393999, -28.886285174 ], [ -54.46020781499989, -28.880417366999904 ], [ -54.456979538, -28.878808273999905 ], [ -54.458066684999892, -28.876796026 ], [ -54.459440481999891, -28.876009989 ], [ -54.461187230999897, -28.877378856 ], [ -54.462481375, -28.875334113999905 ], [ -54.464351032, -28.876765485 ], [ -54.465524560999903, -28.876279474999905 ], [ -54.465962517, -28.879162111 ], [ -54.468074061, -28.878342776 ], [ -54.469365344000011, -28.87933265 ], [ -54.470311148, -28.877853678 ], [ -54.476881782, -28.882089585 ], [ -54.480037852999892, -28.881369391 ], [ -54.482048307, -28.882616495999986 ], [ -54.486461818, -28.8793610889999 ], [ -54.479557676999903, -28.87628546 ], [ -54.478063501999891, -28.872958186999895 ], [ -54.481025165999895, -28.874080407999898 ], [ -54.483821824999893, -28.871174324999988 ], [ -54.486726012, -28.872077305999891 ], [ -54.487829904, -28.875568788 ], [ -54.489018801, -28.874030694999892 ], [ -54.494593032999902, -28.874363248 ], [ -54.491990334, -28.868787546 ], [ -54.49565627, -28.866137513999899 ], [ -54.497196988, -28.866017833999894 ], [ -54.496212801999903, -28.868141594 ], [ -54.499678946999893, -28.868452834 ], [ -54.49903376, -28.871471147 ], [ -54.504491365, -28.868086355999893 ], [ -54.510071776, -28.874150153999903 ], [ -54.516489678, -28.868444777 ], [ -54.523769729, -28.870689781 ], [ -54.5229878929999, -28.869488143999895 ], [ -54.524630294, -28.86713299 ], [ -54.528782669999899, -28.866416928 ], [ -54.529425519, -28.859824816999897 ], [ -54.526622093, -28.859574483 ], [ -54.525791356, -28.858063699 ], [ -54.528309427, -28.857519060999905 ], [ -54.531837020999902, -28.858770220999883 ], [ -54.538226553, -28.854215323999892 ], [ -54.538390847999899, -28.857369833999897 ], [ -54.54184944699989, -28.859274601 ], [ -54.541180949, -28.856249643999892 ], [ -54.546753985999892, -28.854218747999901 ], [ -54.541368801, -28.849690677 ], [ -54.5390585, -28.849461284 ], [ -54.538577075, -28.847374602999889 ], [ -54.540198083999897, -28.845300256 ], [ -54.544021841999893, -28.844958262999988 ], [ -54.545456282000011, -28.849339901 ], [ -54.547076773, -28.848309037 ], [ -54.547700334999902, -28.844980771999904 ], [ -54.545636681, -28.842622137 ], [ -54.553007087, -28.84263672 ], [ -54.557053149999902, -28.847700157 ], [ -54.559166169, -28.846684205 ], [ -54.560745923999903, -28.842840071999898 ], [ -54.565183563999895, -28.843015454999904 ], [ -54.56511759099989, -28.837565572 ], [ -54.568359067999893, -28.835366469999901 ], [ -54.570603413999898, -28.836997928999892 ], [ -54.573569694, -28.836596497 ], [ -54.574596705, -28.838875394 ], [ -54.576843659, -28.838069678999894 ], [ -54.577745135, -28.836882306999897 ], [ -54.574268194999902, -28.832591342999894 ], [ -54.572224153, -28.825067276 ], [ -54.576094591999897, -28.820608545 ], [ -54.574752363, -28.816926914 ], [ -54.578704559, -28.813069692999903 ], [ -54.585367595, -28.812330002999911 ], [ -54.588110244999896, -28.8183829009999 ], [ -54.589920686, -28.8167699259999 ], [ -54.5912382879999, -28.8089869 ], [ -54.595733461, -28.805749768999892 ], [ -54.594585848, -28.803531721 ], [ -54.59112773, -28.802285578999896 ], [ -54.586562456, -28.806357431 ], [ -54.580914742999894, -28.806499141 ], [ -54.5785481079999, -28.804963772999901 ], [ -54.576572739, -28.800802985 ], [ -54.578742578999901, -28.79863104 ], [ -54.580435425, -28.798752792999892 ], [ -54.583972353, -28.803338950999905 ], [ -54.586855489999891, -28.802711125 ], [ -54.590108162999989, -28.799862122 ], [ -54.593429849, -28.793494918 ], [ -54.591884869, -28.791613315999903 ], [ -54.586291246, -28.793224751 ], [ -54.582179762999893, -28.790627851999904 ], [ -54.582851255, -28.789265282999988 ], [ -54.592036834999902, -28.784427229 ], [ -54.594683435, -28.784448985 ], [ -54.596392739999899, -28.786600504 ], [ -54.597946608, -28.786627919 ], [ -54.602933564999901, -28.781664196 ], [ -54.60718937099989, -28.782626767 ], [ -54.609233205, -28.7873173149999 ], [ -54.611525207999897, -28.787112073999907 ], [ -54.613739306999896, -28.7842735209999 ], [ -54.611737847, -28.779673073 ], [ -54.607727214, -28.779650574 ], [ -54.604733461, -28.777837879999897 ], [ -54.612163188, -28.774817109 ], [ -54.619315979, -28.777169121999989 ], [ -54.614387818999894, -28.770151464 ], [ -54.621058079, -28.768365215 ], [ -54.627080686999896, -28.769448053 ], [ -54.623674315999892, -28.762829665000012 ], [ -54.616440087999891, -28.759885469 ], [ -54.617321895, -28.753304117 ], [ -54.610111447999891, -28.746026898 ], [ -54.613402857, -28.744954576999898 ], [ -54.61769838, -28.739853594999893 ] ] ] } }
]
}
