{
"type": "FeatureCollection",
"name": "bairros_joia",
"crs": { "type": "name", "properties": { "name": "urn:ogc:def:crs:OGC:1.3:CRS84" } },
"features": [
{ "type": "Feature", "properties": { "code_muni": 4311155.0, "name_muni": "Jóia", "code_state": 43.0, "abbrev_state": "RS", "name_state": "Rio Grande do Sul", "code_region": 4.0, "name_region": "Sul", "year": 2022.0 }, "geometry": { "type": "Polygon", "coordinates": [ [ [ -53.968774988, -28.656256943999892 ], [ -53.97004636, -28.657024066 ], [ -53.968096701, -28.659831391999901 ], [ -53.968645234999897, -28.6630649589999 ], [ -53.971253986, -28.664877170999905 ], [ -53.978631322, -28.664642567999987 ], [ -53.980936065, -28.669153016999907 ], [ -53.980011133999895, -28.670905653 ], [ -53.967916597999896, -28.678615837999907 ], [ -53.965598277, -28.681693407 ], [ -53.965157932, -28.68427345 ], [ -53.96802962, -28.686405476999902 ], [ -53.976855612, -28.687426774999892 ], [ -53.973766912, -28.695083167 ], [ -53.972601292, -28.696031731999902 ], [ -53.969296329, -28.695563600999897 ], [ -53.967834358999902, -28.697269854 ], [ -53.973061674, -28.699904046 ], [ -53.974494042999893, -28.703009440999903 ], [ -53.972231157999893, -28.707952566 ], [ -53.968298242999893, -28.711719249999891 ], [ -53.967515074999895, -28.715469631 ], [ -53.969953016, -28.716332241 ], [ -53.969985187, -28.717895069 ], [ -53.961969473, -28.715943328 ], [ -53.962726452, -28.719418462 ], [ -53.968062947, -28.721918935 ], [ -53.966113137, -28.724123473 ], [ -53.95863507699989, -28.722451823 ], [ -53.960209805, -28.727669451999898 ], [ -53.957145400999892, -28.732749941999899 ], [ -53.959327199, -28.734942152 ], [ -53.964252063999893, -28.735214495 ], [ -53.965987068999894, -28.737005906 ], [ -53.967941165999903, -28.742176548 ], [ -53.963790119, -28.744803852999986 ], [ -53.966191689, -28.746327451999903 ], [ -53.971473879, -28.742272882999892 ], [ -53.973417142999899, -28.743063021999909 ], [ -53.980587118999892, -28.741844181 ], [ -53.9814236, -28.744273545999892 ], [ -53.978907576, -28.746619140999908 ], [ -53.975667404, -28.754297396 ], [ -53.978601274, -28.758748099999892 ], [ -53.983034142999898, -28.761103709999901 ], [ -53.984584334, -28.7646986509999 ], [ -53.9833816, -28.766798133 ], [ -53.981002213, -28.7653898259999 ], [ -53.980418258, -28.762126839 ], [ -53.976808964999989, -28.762834262 ], [ -53.973176042, -28.7646976149999 ], [ -53.967508805, -28.77126379 ], [ -53.963491424, -28.772876491 ], [ -53.959190344, -28.772861346 ], [ -53.957253831999893, -28.774716281999893 ], [ -53.961524955999892, -28.779825447 ], [ -53.96817836, -28.778588842 ], [ -53.969816264, -28.777178722 ], [ -53.973968782999989, -28.778482991 ], [ -53.976034941, -28.7750031059999 ], [ -53.985836665, -28.7780748929999 ], [ -53.983945386999899, -28.784251331 ], [ -53.977879641, -28.788265162999892 ], [ -53.980131907, -28.792131721 ], [ -53.979035906999989, -28.7963346569999 ], [ -53.977059015, -28.800271772 ], [ -53.975311285, -28.800218765999904 ], [ -53.975171896999903, -28.797414063 ], [ -53.968896883, -28.795849819 ], [ -53.965514786, -28.790171132999898 ], [ -53.963248017999902, -28.793217421999902 ], [ -53.965522097, -28.797385129 ], [ -53.964458674999889, -28.798612338999909 ], [ -53.955435843, -28.799730262 ], [ -53.953271142999903, -28.795120106 ], [ -53.95426011, -28.803408252999898 ], [ -53.952572763, -28.807929117 ], [ -53.94644204, -28.814692463 ], [ -53.941555781, -28.814658456 ], [ -53.941383547, -28.81286887700001 ], [ -53.943782094, -28.809989 ], [ -53.942590869, -28.807970446999896 ], [ -53.939475079, -28.807843062 ], [ -53.935888467, -28.810796473 ], [ -53.932213874999903, -28.808559284 ], [ -53.93018584299989, -28.809442471999901 ], [ -53.927850868, -28.807464256999893 ], [ -53.925181253999909, -28.81723485 ], [ -53.922604921999891, -28.819164918 ], [ -53.918565562, -28.820006455999891 ], [ -53.910299525, -28.818959311999901 ], [ -53.908943818999902, -28.817337816 ], [ -53.915453795, -28.815141529999895 ], [ -53.918989843, -28.81245072 ], [ -53.916386562, -28.811641192 ], [ -53.907220271, -28.813416944 ], [ -53.906542395, -28.811891682 ], [ -53.908979772, -28.811362628 ], [ -53.907939337999899, -28.810746123999891 ], [ -53.906103518, -28.811536581999988 ], [ -53.903555658, -28.815223102999894 ], [ -53.898112716, -28.817547744 ], [ -53.901861327999896, -28.820967749 ], [ -53.901353878999892, -28.824828023 ], [ -53.906099717, -28.822587289999898 ], [ -53.917247746, -28.834801311 ], [ -53.923731503999903, -28.831205854 ], [ -53.925169314, -28.832294466999901 ], [ -53.92422042, -28.836866169 ], [ -53.925976467999902, -28.837337266 ], [ -53.925341123999893, -28.840512126 ], [ -53.928827356999903, -28.843243979 ], [ -53.933104232999895, -28.84963693 ], [ -53.929873674, -28.852773181 ], [ -53.935413447, -28.854216945 ], [ -53.935908146, -28.858949012 ], [ -53.939447607, -28.860442678 ], [ -53.94115865, -28.859782854999892 ], [ -53.942066775999891, -28.861669484999904 ], [ -53.93702775700001, -28.867516582999901 ], [ -53.938685689999893, -28.869621360999911 ], [ -53.937612416, -28.874044474 ], [ -53.939594057, -28.875923599 ], [ -53.942151628, -28.875815839 ], [ -53.944975023, -28.872099971 ], [ -53.948178047999903, -28.875012163999894 ], [ -53.949614747999902, -28.8750327989999 ], [ -53.950860196, -28.872840138999909 ], [ -53.952079610999895, -28.874953978 ], [ -53.955094494, -28.874901647999902 ], [ -53.953559387, -28.877389144999896 ], [ -53.95428634, -28.878665055999896 ], [ -53.952285468999897, -28.880052521 ], [ -53.953216122, -28.881438488999905 ], [ -53.957297609, -28.881628548 ], [ -53.959125387, -28.887216158999898 ], [ -53.952909565, -28.898364069999985 ], [ -53.962002786, -28.899379834999898 ], [ -53.964307033, -28.902585335 ], [ -53.967825395, -28.900279367999907 ], [ -53.972395354999904, -28.903782994 ], [ -53.974404149, -28.902534629999899 ], [ -53.976228198999898, -28.905327766 ], [ -53.97975726899989, -28.904027378 ], [ -53.979948753, -28.898014219999908 ], [ -53.986546932, -28.900098799 ], [ -53.987587417, -28.8994810199999 ], [ -53.988740144, -28.900886458999899 ], [ -53.991201952, -28.900513940999897 ], [ -53.996200781, -28.903976863 ], [ -54.003601327, -28.901631827 ], [ -54.008612424, -28.903627367 ], [ -54.014582171, -28.901319685 ], [ -54.016601535999897, -28.893852861 ], [ -54.021147543, -28.894765231999909 ], [ -54.021415616, -28.900002797999907 ], [ -54.023749187999989, -28.903992134 ], [ -54.029014747, -28.904443116 ], [ -54.031752251999897, -28.907415595 ], [ -54.040714997, -28.909215737 ], [ -54.04229285799989, -28.911748938 ], [ -54.045005074999892, -28.910344501999905 ], [ -54.048176828, -28.911787554999904 ], [ -54.053213738999901, -28.907224245 ], [ -54.062919832, -28.905289381999985 ], [ -54.065023724, -28.905326451999912 ], [ -54.068689768, -28.908408992 ], [ -54.0762132199999, -28.906463202999905 ], [ -54.080600997, -28.907025651 ], [ -54.095265336, -28.90494015 ], [ -54.104956509, -28.900416338 ], [ -54.118328638, -28.887671166 ], [ -54.126342333, -28.886090563 ], [ -54.134866117999898, -28.882605009 ], [ -54.1449010279999, -28.892849005999896 ], [ -54.149234881, -28.894962673 ], [ -54.166320044, -28.896971911 ], [ -54.186038605, -28.894134941999898 ], [ -54.191583485, -28.895251822 ], [ -54.200713183999902, -28.901009351999985 ], [ -54.215813533999892, -28.920262581 ], [ -54.226661497, -28.925715667 ], [ -54.233091241, -28.925332216 ], [ -54.261728863, -28.912284144 ], [ -54.266222813, -28.911612692999892 ], [ -54.270661208, -28.912984623999908 ], [ -54.279565384, -28.920578916 ], [ -54.291992625, -28.927993957 ], [ -54.307307103, -28.928956096 ], [ -54.313250557999901, -28.93106356 ], [ -54.316719554, -28.928659821999901 ], [ -54.330907629, -28.931084795999908 ], [ -54.33245482, -28.9275442439999 ], [ -54.331492903, -28.918149437 ], [ -54.340964066, -28.908630527 ], [ -54.340792270999891, -28.905385249999895 ], [ -54.346709464, -28.89851356 ], [ -54.351280777999897, -28.894321147 ], [ -54.354209569, -28.893860533 ], [ -54.35440169, -28.892032872999891 ], [ -54.359134371, -28.887784774 ], [ -54.357531385, -28.885872208 ], [ -54.359496298, -28.876768698 ], [ -54.358878897999894, -28.870159907 ], [ -54.363148770999899, -28.865533424 ], [ -54.362299685, -28.861191694999899 ], [ -54.36071444, -28.859853397999895 ], [ -54.360439439999894, -28.853410041 ], [ -54.356116497999899, -28.85105393 ], [ -54.3576136739999, -28.842511448 ], [ -54.361045284999896, -28.836815794999897 ], [ -54.356123528, -28.825254689 ], [ -54.357775956999895, -28.823500096 ], [ -54.359990863999897, -28.81363177 ], [ -54.358338886, -28.810071256999901 ], [ -54.360061292, -28.808774006 ], [ -54.360635997, -28.805062172 ], [ -54.356660803, -28.801227648 ], [ -54.361682394999896, -28.797396943 ], [ -54.359974883999897, -28.7916730809999 ], [ -54.361742084999896, -28.789515170999895 ], [ -54.358440102, -28.785713777999906 ], [ -54.364023769, -28.784369228999907 ], [ -54.370428574, -28.787517014999896 ], [ -54.374570128999899, -28.792690104 ], [ -54.375581187, -28.792224075 ], [ -54.374858758, -28.789869714 ], [ -54.377528353999892, -28.786486419 ], [ -54.380290253999902, -28.78595537 ], [ -54.393759296, -28.790082546999901 ], [ -54.394701192999889, -28.786890739999908 ], [ -54.399377215, -28.784330441999892 ], [ -54.398771199999899, -28.78314283 ], [ -54.394945543999896, -28.7823284249999 ], [ -54.390492504999898, -28.783450211999899 ], [ -54.389423278, -28.775188189999895 ], [ -54.390001008999903, -28.768625238 ], [ -54.393598359999899, -28.764431949 ], [ -54.392085105, -28.754448972 ], [ -54.401337769, -28.753135099 ], [ -54.403474926999891, -28.749950763 ], [ -54.40152059, -28.747930310999905 ], [ -54.394937623, -28.746581987 ], [ -54.399340924999898, -28.738150173999898 ], [ -54.399600237, -28.733563223 ], [ -54.403655122, -28.731618556999905 ], [ -54.403018046999897, -28.729372168999898 ], [ -54.398844644, -28.728442963 ], [ -54.397612301, -28.726492525000012 ], [ -54.403788339, -28.724963411 ], [ -54.407344322, -28.729597272 ], [ -54.410904532, -28.730819051 ], [ -54.41126709000001, -28.735662298 ], [ -54.4130268, -28.732521128 ], [ -54.405101637, -28.717672079999893 ], [ -54.402670738, -28.709632681999899 ], [ -54.390127551, -28.703748517999902 ], [ -54.382411956999903, -28.6968525089999 ], [ -54.378343991999891, -28.694828774 ], [ -54.380044681999898, -28.6982644019999 ], [ -54.378994663, -28.701667052999909 ], [ -54.371890653, -28.700873989999902 ], [ -54.369569538, -28.702072877 ], [ -54.36934546, -28.705448266999987 ], [ -54.367013, -28.70747569 ], [ -54.363984913, -28.706988001 ], [ -54.36065453, -28.708537177 ], [ -54.35724844899989, -28.706142271 ], [ -54.3548246679999, -28.707041832999906 ], [ -54.350297987, -28.705601601999899 ], [ -54.343411187, -28.712115576 ], [ -54.343894691999893, -28.714635905 ], [ -54.338560463, -28.716845890999902 ], [ -54.335968061, -28.720426922999902 ], [ -54.333495032, -28.721007153999889 ], [ -54.330386045999894, -28.726377638 ], [ -54.327227175, -28.7266275929999 ], [ -54.321684005, -28.723259153999894 ], [ -54.314864096999891, -28.704640468 ], [ -54.313382708999903, -28.694715759 ], [ -54.309477425, -28.6902147599999 ], [ -54.311834112, -28.686489628999897 ], [ -54.316548296999891, -28.685437981999897 ], [ -54.320131070999892, -28.682107526 ], [ -54.322748608, -28.686004279 ], [ -54.328297643, -28.683953184000011 ], [ -54.329973375999899, -28.680524639999899 ], [ -54.333534514, -28.680323286 ], [ -54.336198904, -28.678388627999908 ], [ -54.338337657999901, -28.674211671 ], [ -54.331573798, -28.672828866 ], [ -54.321512367, -28.665693651 ], [ -54.318821560999908, -28.666287305 ], [ -54.314486265, -28.663106816 ], [ -54.30905503, -28.666412362999903 ], [ -54.303556739, -28.66555798 ], [ -54.300573303, -28.663038561 ], [ -54.288043138, -28.664901484 ], [ -54.284208620999898, -28.664131585 ], [ -54.2857980859999, -28.663101641 ], [ -54.285362251, -28.661606229 ], [ -54.282665703, -28.661383954 ], [ -54.281293835, -28.676684011 ], [ -54.280159947999898, -28.676382089999887 ], [ -54.27624602, -28.672817613999896 ], [ -54.272779850999896, -28.666615384999893 ], [ -54.270466294, -28.664996953999896 ], [ -54.26504154, -28.665131443999908 ], [ -54.258955226999895, -28.6630217169999 ], [ -54.258082527999896, -28.659883883 ], [ -54.252941173, -28.658536803999905 ], [ -54.248716741, -28.653783447 ], [ -54.244513215, -28.652363674 ], [ -54.242397265, -28.647323770999893 ], [ -54.23584906, -28.649749083999989 ], [ -54.229240757, -28.649341582 ], [ -54.218312915999896, -28.656401442999893 ], [ -54.212780747999908, -28.655095780999901 ], [ -54.206944215, -28.65551648 ], [ -54.197052982999892, -28.660057354999903 ], [ -54.192672866, -28.651299370999901 ], [ -54.191833152, -28.644361008 ], [ -54.188902957, -28.642669989999899 ], [ -54.183298742, -28.642299148999896 ], [ -54.177275983, -28.634365455 ], [ -54.178335446999903, -28.631255833999905 ], [ -54.177007682999893, -28.628528276999905 ], [ -54.178109795, -28.627606882 ], [ -54.17673382, -28.624278556 ], [ -54.177658848, -28.622602108 ], [ -54.175766982, -28.618583991 ], [ -54.169784891999903, -28.616240338 ], [ -54.167986642999892, -28.618087938 ], [ -54.164904221, -28.617303326999895 ], [ -54.162421611999896, -28.611567377 ], [ -54.159084606, -28.608053224999892 ], [ -54.155518387, -28.608167093 ], [ -54.153577228, -28.606603178999904 ], [ -54.151541354, -28.608983711999901 ], [ -54.148687957999989, -28.605724246 ], [ -54.152579609999989, -28.603543043999899 ], [ -54.154658756999901, -28.599305874 ], [ -54.15228783, -28.596146619 ], [ -54.153043628, -28.594848790999905 ], [ -54.158710014, -28.595501828999893 ], [ -54.164457630999898, -28.592890436999895 ], [ -54.157489459, -28.588524458999895 ], [ -54.153591537, -28.589687607 ], [ -54.154202152, -28.585771208 ], [ -54.15724572300001, -28.585255646999901 ], [ -54.157276915, -28.581881607 ], [ -54.154712318999891, -28.580565813 ], [ -54.153999757, -28.577514311 ], [ -54.151457023, -28.577180077 ], [ -54.152022389, -28.572863993999903 ], [ -54.149074791, -28.5710946529999 ], [ -54.151578131999891, -28.5693085149999 ], [ -54.150159402, -28.566783929999893 ], [ -54.153172143999903, -28.562954937 ], [ -54.146476891, -28.565280743999896 ], [ -54.138045624, -28.56647363 ], [ -54.136080529, -28.565666026 ], [ -54.138150356, -28.561349099 ], [ -54.141587578, -28.5596101699999 ], [ -54.144990862, -28.562750370999904 ], [ -54.147119247, -28.562793711 ], [ -54.152897290999896, -28.558033298999899 ], [ -54.151774151, -28.556137763999988 ], [ -54.145686048, -28.560410804999908 ], [ -54.143879468, -28.5574369889999 ], [ -54.1406567, -28.555864337999907 ], [ -54.138736658, -28.551191414999892 ], [ -54.135662152999892, -28.55529502 ], [ -54.132971142, -28.556698 ], [ -54.128931032, -28.55476112 ], [ -54.126228311, -28.555355044 ], [ -54.131803298, -28.562712533 ], [ -54.129318387999895, -28.565531366 ], [ -54.122369077, -28.557191885999902 ], [ -54.119711031999891, -28.561162683 ], [ -54.114768566, -28.557773254 ], [ -54.110103487999893, -28.557021167999899 ], [ -54.108930566, -28.558937602999897 ], [ -54.110899226, -28.561069486 ], [ -54.110419801, -28.562804419 ], [ -54.106326844, -28.560786790999906 ], [ -54.102483504, -28.560734989 ], [ -54.100802395, -28.566217944 ], [ -54.098216389999905, -28.562096966 ], [ -54.091911023, -28.564023629 ], [ -54.089840217, -28.569397178 ], [ -54.091429703, -28.571333046999907 ], [ -54.107630768999989, -28.569736447 ], [ -54.107203061, -28.577200502 ], [ -54.094585428, -28.577317659 ], [ -54.097375249, -28.5807772329999 ], [ -54.097000715999989, -28.583665055 ], [ -54.091404586, -28.583269209 ], [ -54.087747785, -28.585968073999904 ], [ -54.088912864999898, -28.577620128 ], [ -54.084951159999903, -28.573669779999896 ], [ -54.08360034, -28.5685189669999 ], [ -54.076116511, -28.571292718999896 ], [ -54.076866555, -28.572640678 ], [ -54.080693069999903, -28.573311913999902 ], [ -54.079989202, -28.575474395 ], [ -54.075546155, -28.575655488999903 ], [ -54.07351906, -28.580566029999897 ], [ -54.069199047, -28.581301338999896 ], [ -54.068572732999897, -28.583317462 ], [ -54.072224054999893, -28.587443280999896 ], [ -54.063433866, -28.588032627 ], [ -54.061060455, -28.584619944999897 ], [ -54.058170064, -28.584427359 ], [ -54.059342252, -28.589032577 ], [ -54.051902094999903, -28.591565763999906 ], [ -54.051051565, -28.5884597159999 ], [ -54.048937608, -28.586644178 ], [ -54.046971992999893, -28.588446075 ], [ -54.047803942, -28.592753910999903 ], [ -54.044444035, -28.591602496 ], [ -54.036277025999901, -28.59249291 ], [ -54.036536004, -28.594722956999899 ], [ -54.043152651, -28.601960817 ], [ -54.042971996999896, -28.603331823 ], [ -54.033283143999896, -28.600327741999902 ], [ -54.033160871999897, -28.596432864 ], [ -54.029953507999899, -28.595595191 ], [ -54.028660101, -28.598673156 ], [ -54.031787302999895, -28.601714362999896 ], [ -54.026689457, -28.603987334 ], [ -54.028161855, -28.607056988 ], [ -54.024407486, -28.606652010999902 ], [ -54.020399852, -28.611587076 ], [ -54.009868496, -28.612349773999895 ], [ -54.009864234, -28.621085209999897 ], [ -54.000964602999893, -28.622385731 ], [ -54.001028311, -28.626982837 ], [ -54.00732677, -28.633746701 ], [ -53.998199938, -28.635134121 ], [ -53.999848944999897, -28.639631087999895 ], [ -53.998491848, -28.640983737999893 ], [ -53.995472360999898, -28.635549684999894 ], [ -53.982179313, -28.638529784 ], [ -53.982760056, -28.645995548 ], [ -53.98709487699989, -28.653327804 ], [ -53.985930767999903, -28.655951620999893 ], [ -53.984347788, -28.656581329999891 ], [ -53.979947118, -28.649239232999903 ], [ -53.975753015, -28.646797465 ], [ -53.970299309, -28.652601511999908 ], [ -53.959835502, -28.654077737 ], [ -53.958561324, -28.655504498 ], [ -53.959780544999909, -28.658839000999897 ], [ -53.968774988, -28.656256943999892 ] ] ] } }
]
}
