{
"type": "FeatureCollection",
"name": "bairros_quarai",
"crs": { "type": "name", "properties": { "name": "urn:ogc:def:crs:OGC:1.3:CRS84" } },
"features": [
{ "type": "Feature", "properties": { "name": "Vasco Alves", "code_muni": 4315305.0, "name_muni": "Quaraí" }, "geometry": { "type": "MultiPolygon", "coordinates": [ [ [ [ -55.6802958, -30.2245557 ], [ -55.680744598666308, -30.223929316888515 ], [ -55.677762925201122, -30.225549988727472 ], [ -55.6802958, -30.2245557 ] ] ], [ [ [ -55.6833698, -30.2234174 ], [ -55.6840177, -30.2238421 ], [ -55.6846433, -30.2242522 ], [ -55.6857412, -30.2251249 ], [ -55.6866634, -30.2258838 ], [ -55.6874978, -30.2263771 ], [ -55.6892104, -30.2266806 ], [ -55.689375305968596, -30.226579402827632 ], [ -55.687489033, -30.2262047 ], [ -55.682741197, -30.222844012999904 ], [ -55.682226623189315, -30.223123728136837 ], [ -55.6833698, -30.2234174 ] ] ], [ [ [ -55.692586, -30.2272931 ], [ -55.6934262, -30.2281604 ], [ -55.695095, -30.2279707 ], [ -55.695713849381335, -30.22815361447061 ], [ -55.695061364, -30.227708735 ], [ -55.692575264664079, -30.227214994840047 ], [ -55.692586, -30.2272931 ] ] ], [ [ [ -55.7030435, -30.229678099999987 ], [ -55.7036342, -30.2298457 ], [ -55.7038741, -30.2300337 ], [ -55.7041442, -30.2299438 ], [ -55.7041902, -30.2298945 ], [ -55.7043308, -30.2297436 ], [ -55.7044976, -30.229502 ], [ -55.704673827366953, -30.229343141182774 ], [ -55.702748589405417, -30.229618379493925 ], [ -55.7030435, -30.229678099999987 ] ] ], [ [ [ -55.7089502, -30.228736099999988 ], [ -55.7094525, -30.2290179 ], [ -55.7098641, -30.2288204 ], [ -55.710093343361585, -30.22856819164954 ], [ -55.708942134270629, -30.228732825267691 ], [ -55.7089502, -30.228736099999988 ] ] ], [ [ [ -55.7301078, -30.2315637 ], [ -55.7315849, -30.2314531 ], [ -55.7324915, -30.231037 ], [ -55.7328356, -30.2306466 ], [ -55.7332401, -30.2304071 ], [ -55.7335015, -30.2304284 ], [ -55.7339249, -30.2303185 ], [ -55.7341851, -30.2301564 ], [ -55.7344054, -30.2298185 ], [ -55.7345198, -30.2296179 ], [ -55.734764, -30.229370799999987 ], [ -55.735069386085478, -30.229225323461041 ], [ -55.72927809979889, -30.231414332189914 ], [ -55.7301078, -30.2315637 ] ] ], [ [ [ -55.7406531, -30.2315356 ], [ -55.7407706, -30.2315724 ], [ -55.74080548417114, -30.231492305289247 ], [ -55.740637095588696, -30.231512548596946 ], [ -55.7406531, -30.2315356 ] ] ], [ [ [ -55.7454649, -30.2310441 ], [ -55.7462616, -30.2304968 ], [ -55.7471556, -30.2298299 ], [ -55.7474411, -30.2293556 ], [ -55.7475289, -30.2285399 ], [ -55.7485609, -30.2275913 ], [ -55.7499003, -30.2262063 ], [ -55.7503081, -30.2254666 ], [ -55.750324714526855, -30.225398589736617 ], [ -55.745119175329506, -30.230969405662179 ], [ -55.7454649, -30.2310441 ] ] ], [ [ [ -55.7545552, -30.2203438 ], [ -55.7547968, -30.2195659 ], [ -55.754665, -30.2189587 ], [ -55.7549285, -30.218086 ], [ -55.75484070000001, -30.2172701 ], [ -55.75486260000001, -30.2169381 ], [ -55.7543925, -30.2167258 ], [ -55.75416, -30.21665350000001 ], [ -55.7539734, -30.2162265 ], [ -55.7539734, -30.2159135 ], [ -55.7542149, -30.215534 ], [ -55.7544564, -30.2152589 ], [ -55.7544894, -30.2149268 ], [ -55.7542149, -30.2146707 ], [ -55.7535781, -30.2144999 ], [ -55.7532268, -30.2141584 ], [ -55.7528755, -30.2137599 ], [ -55.7529743, -30.2129914 ], [ -55.7530709, -30.212682099999988 ], [ -55.7531609, -30.2123937 ], [ -55.7531695, -30.2123833 ], [ -55.7534903, -30.2119952 ], [ -55.7536989, -30.2112742 ], [ -55.7537099, -30.2109991 ], [ -55.7537208, -30.2106955 ], [ -55.7533366, -30.2102306 ], [ -55.7532597, -30.209879499999985 ], [ -55.7532925, -30.2095925 ], [ -55.7532701, -30.2094711 ], [ -55.753139, -30.2093862 ], [ -55.753034163805324, -30.209285502216392 ], [ -55.752167046, -30.210989600999898 ], [ -55.75170387299989, -30.215040632999898 ], [ -55.754272777232273, -30.22066210508893 ], [ -55.7545552, -30.2203438 ] ] ], [ [ [ -55.7534198, -30.2085331 ], [ -55.7536779, -30.2084094 ], [ -55.7536866, -30.2083944 ], [ -55.7537838, -30.2082262 ], [ -55.7537977, -30.2080674 ], [ -55.7540063, -30.2076499 ], [ -55.7544235, -30.2073273 ], [ -55.7545758, -30.2071236 ], [ -55.7545938, -30.2068711 ], [ -55.7545724, -30.2066387 ], [ -55.754453457211177, -30.206496123954686 ], [ -55.753416901770336, -30.208533310832561 ], [ -55.7534198, -30.2085331 ] ] ], [ [ [ -55.7547511, -30.2061986 ], [ -55.7550603, -30.2060939 ], [ -55.7553457, -30.2059421 ], [ -55.7558449, -30.2060112 ], [ -55.7560558, -30.2059957 ], [ -55.7561252, -30.2059136 ], [ -55.7560331, -30.2057917 ], [ -55.7560044, -30.2056954 ], [ -55.7559287, -30.2055506 ], [ -55.7558178, -30.2054297 ], [ -55.7558676, -30.2050294 ], [ -55.7558924, -30.2048705 ], [ -55.7560373, -30.204803500000011 ], [ -55.7563504, -30.2047817 ], [ -55.7564984, -30.204737099999985 ], [ -55.7565739, -30.204636 ], [ -55.7566201, -30.2045077 ], [ -55.7566203, -30.2043382 ], [ -55.7564453, -30.2042361 ], [ -55.7563667, -30.2040445 ], [ -55.7563202, -30.2035788 ], [ -55.7562783, -30.2033367 ], [ -55.7562139, -30.2031182 ], [ -55.7563537, -30.2030589 ], [ -55.7566487, -30.2029989 ], [ -55.7567377, -30.2029093 ], [ -55.7567168, -30.202718 ], [ -55.7567584, -30.2024585 ], [ -55.7568289, -30.2022001 ], [ -55.7569535, -30.2020549 ], [ -55.7572087, -30.2020104 ], [ -55.7574002, -30.2019434 ], [ -55.757694, -30.2019199 ], [ -55.7577588, -30.2018604 ], [ -55.7577654, -30.2017361 ], [ -55.7576622, -30.2015775 ], [ -55.7575041, -30.2014745 ], [ -55.7574829, -30.2014009 ], [ -55.7575878, -30.2013273 ], [ -55.7577458, -30.2011057 ], [ -55.7579411, -30.2010251 ], [ -55.7579915, -30.2008374 ], [ -55.7580619, -30.2006154 ], [ -55.7581233, -30.2004958 ], [ -55.7582482, -30.2003517 ], [ -55.7583797, -30.2002735 ], [ -55.7586173, -30.200363 ], [ -55.7588828, -30.2003072 ], [ -55.758889, -30.2001902 ], [ -55.7588234, -30.2000533 ], [ -55.7586767, -30.1999606 ], [ -55.7586283, -30.1998411 ], [ -55.7587698, -30.1996975 ], [ -55.7589061, -30.1996299 ], [ -55.7590046, -30.1994586 ], [ -55.7589467, -30.1991864 ], [ -55.7588576, -30.1990828 ], [ -55.7588719, -30.1988942 ], [ -55.7587491, -30.198740499999985 ], [ -55.7590016, -30.198247 ], [ -55.759276, -30.1979814 ], [ -55.7597481, -30.1975354 ], [ -55.7601104, -30.1969661 ], [ -55.7600885, -30.1963777 ], [ -55.760319, -30.1960172 ], [ -55.7605605, -30.1958084 ], [ -55.7607951, -30.195502300000012 ], [ -55.7615157, -30.1946887 ], [ -55.761867, -30.1940434 ], [ -55.761867, -30.1930186 ], [ -55.7616694, -30.1924493 ], [ -55.7619909, -30.19129 ], [ -55.7620651, -30.1909751 ], [ -55.7621964, -30.1904185 ], [ -55.7622741, -30.1902562 ], [ -55.7627135, -30.1899452 ], [ -55.766769168172743, -30.173036330452138 ], [ -55.760153948, -30.195291294 ], [ -55.754489157753568, -30.206425958740667 ], [ -55.7547511, -30.2061986 ] ] ], [ [ [ -55.7676684, -30.1702552 ], [ -55.7677445, -30.1701016 ], [ -55.7680598, -30.1699008 ], [ -55.7688275, -30.1698242 ], [ -55.770101, -30.1701469 ], [ -55.7711988, -30.170127900000011 ], [ -55.7719454, -30.170033 ], [ -55.772648, -30.1703557 ], [ -55.7731091, -30.1705076 ], [ -55.773702, -30.1704506 ], [ -55.7742509, -30.1701279 ], [ -55.774454958365901, -30.170016190494284 ], [ -55.77218038, -30.168709403 ], [ -55.768099276, -30.168560623 ], [ -55.767571883149913, -30.17033529622292 ], [ -55.7676684, -30.1702552 ] ] ], [ [ [ -55.803393, -30.1712009 ], [ -55.803539532249189, -30.171048967472736 ], [ -55.803252070854853, -30.171094545704616 ], [ -55.803393, -30.1712009 ] ] ], [ [ [ -55.8147621, -30.1682296 ], [ -55.8153523, -30.1671861 ], [ -55.815499156986604, -30.166528909454669 ], [ -55.814888442, -30.166810907 ], [ -55.813896189092624, -30.168550444942728 ], [ -55.8147621, -30.1682296 ] ] ], [ [ [ -55.8254113, -30.1628762 ], [ -55.8258944, -30.163161 ], [ -55.8264433, -30.163104 ], [ -55.8267288, -30.1628572 ], [ -55.8266849, -30.1626104 ], [ -55.8266849, -30.1622118 ], [ -55.8269484, -30.1615283 ], [ -55.8270659, -30.1613241 ], [ -55.8269548, -30.1608104 ], [ -55.8267895, -30.160368 ], [ -55.8268427, -30.1599255 ], [ -55.8270142, -30.1593071 ], [ -55.8275632, -30.1579402 ], [ -55.8276949, -30.1575605 ], [ -55.8272338, -30.1571618 ], [ -55.8254772, -30.1570858 ], [ -55.8249722, -30.156915 ], [ -55.824972199968258, -30.156721418352369 ], [ -55.823917121, -30.157548221 ], [ -55.82584265, -30.159277356 ], [ -55.825202740160485, -30.162826118749958 ], [ -55.8254113, -30.1628762 ] ] ], [ [ [ -55.8270142, -30.15551 ], [ -55.8278925, -30.1552822 ], [ -55.8282658, -30.1545987 ], [ -55.828285746795409, -30.154529700194555 ], [ -55.827938044999897, -30.154397151 ], [ -55.826387141056841, -30.155612580640188 ], [ -55.8270142, -30.15551 ] ] ], [ [ [ -55.8308128, -30.1530229 ], [ -55.8311641, -30.1534785 ], [ -55.8314715, -30.1536494 ], [ -55.8317789, -30.1534216 ], [ -55.8320644, -30.152814 ], [ -55.8319766, -30.1521875 ], [ -55.8317789, -30.151504 ], [ -55.831733727456132, -30.151139306969817 ], [ -55.830851897999892, -30.151742089999985 ], [ -55.830628185617357, -30.152990939450785 ], [ -55.8308128, -30.1530229 ] ] ], [ [ [ -55.8354678, -30.149985 ], [ -55.8361265, -30.1495863 ], [ -55.8362802, -30.149206599999985 ], [ -55.83639, -30.1487699 ], [ -55.836468275366968, -30.147959708187084 ], [ -55.835913047, -30.147944983999899 ], [ -55.834870045980978, -30.14982354631568 ], [ -55.8354678, -30.149985 ] ] ], [ [ [ -55.844781, -30.1436007 ], [ -55.8452526, -30.1432632 ], [ -55.84575907577392, -30.142703232102559 ], [ -55.844547379852543, -30.1436303534323 ], [ -55.844781, -30.1436007 ] ] ], [ [ [ -55.855608, -30.1393747 ], [ -55.8563805, -30.1390964 ], [ -55.8578611, -30.1381314 ], [ -55.8580971, -30.137797400000011 ], [ -55.85849923523611, -30.137176008576507 ], [ -55.856963482, -30.137025260999987 ], [ -55.855034842770834, -30.139628576137035 ], [ -55.855608, -30.1393747 ] ] ], [ [ [ -55.8734876, -30.1339282 ], [ -55.8738738, -30.1338354 ], [ -55.8741787, -30.1337924 ], [ -55.8750057, -30.13339 ], [ -55.875231, -30.1330281 ], [ -55.8751452, -30.132657 ], [ -55.8745766, -30.1319889 ], [ -55.8744586, -30.1317755 ], [ -55.87448, -30.1314693 ], [ -55.874759, -30.1313208 ], [ -55.8749521, -30.1311074 ], [ -55.8748341, -30.1305506 ], [ -55.8751667, -30.1303558 ], [ -55.8750808, -30.1300124 ], [ -55.8743191, -30.1290752 ], [ -55.874598, -30.1273307 ], [ -55.8742976, -30.126811 ], [ -55.873611, -30.1267368 ], [ -55.8731389, -30.1263471 ], [ -55.873096, -30.1255119 ], [ -55.8732677, -30.1250479 ], [ -55.8727098, -30.1240086 ], [ -55.8726883, -30.1234703 ], [ -55.8734393, -30.1231548 ], [ -55.8741689, -30.122895 ], [ -55.8741045, -30.122431 ], [ -55.8738041, -30.1219856 ], [ -55.8750487, -30.120073799999989 ], [ -55.874877, -30.118737500000012 ], [ -55.874269758652396, -30.117461845110022 ], [ -55.874268145, -30.117603612999986 ], [ -55.8723303, -30.118907349 ], [ -55.873098087999892, -30.122361280999893 ], [ -55.870841901999896, -30.124951054 ], [ -55.873519627999897, -30.131657759999904 ], [ -55.873370231870432, -30.133919741129873 ], [ -55.8734876, -30.1339282 ] ] ], [ [ [ -55.875392, -30.116139 ], [ -55.8761216, -30.1144684 ], [ -55.8759499, -30.1135404 ], [ -55.8762503, -30.1116471 ], [ -55.8772873, -30.1102701 ], [ -55.8783243, -30.1094176 ], [ -55.8782267, -30.1089906 ], [ -55.8770228, -30.1083059 ], [ -55.8769719, -30.1070696 ], [ -55.8763361, -30.1057813 ], [ -55.8767653, -30.1050759 ], [ -55.8772364, -30.1050598 ], [ -55.8775631, -30.1047191 ], [ -55.877235, -30.1037379 ], [ -55.877211749022969, -30.103421815074565 ], [ -55.875523395, -30.10384883699988 ], [ -55.876022336999903, -30.106091814 ], [ -55.87476622, -30.107601386999903 ], [ -55.876685573, -30.110766512999902 ], [ -55.874321226999896, -30.112941233 ], [ -55.874278504113349, -30.116693548442662 ], [ -55.875392, -30.116139 ] ] ], [ [ [ -55.8781273, -30.1024153 ], [ -55.8786173, -30.1024673 ], [ -55.8790063, -30.1020822 ], [ -55.879015, -30.1012111 ], [ -55.8793787, -30.099867899999985 ], [ -55.8805469, -30.0990599 ], [ -55.8801985, -30.0982816 ], [ -55.8791256, -30.0979103 ], [ -55.8783746, -30.098110399999989 ], [ -55.8776236, -30.097836 ], [ -55.8766955, -30.0968204 ], [ -55.876929, -30.0964511 ], [ -55.8773133, -30.0958565 ], [ -55.877409, -30.09523690000001 ], [ -55.8769799, -30.0942344 ], [ -55.876409314110624, -30.092577062611696 ], [ -55.874966441, -30.098257235999899 ], [ -55.878568893, -30.099078781999893 ], [ -55.878823468999897, -30.10041438 ], [ -55.877932208808758, -30.102291338193982 ], [ -55.8781273, -30.1024153 ] ] ], [ [ [ -55.8774011, -30.090751499999985 ], [ -55.8781386, -30.0894816 ], [ -55.8794181, -30.0888021 ], [ -55.8798552, -30.08680810000001 ], [ -55.8797694, -30.0861025 ], [ -55.879461, -30.0823222 ], [ -55.8783102, -30.0803095 ], [ -55.8771944, -30.0788241 ], [ -55.8750916, -30.0781928 ], [ -55.874912, -30.0775317 ], [ -55.8760357, -30.0753704 ], [ -55.8761995, -30.0742822 ], [ -55.8765213, -30.0706055 ], [ -55.876059112490978, -30.069305417815258 ], [ -55.874480601, -30.068765683999985 ], [ -55.875147899, -30.075107881999894 ], [ -55.87305228, -30.078840732999911 ], [ -55.877062469999899, -30.082504561999897 ], [ -55.877617319, -30.087821131999899 ], [ -55.876471525847215, -30.092332142345537 ], [ -55.8774011, -30.090751499999985 ] ] ], [ [ [ -55.9324911, -30.088314 ], [ -55.9336925, -30.0879406 ], [ -55.9346152, -30.0870866 ], [ -55.9359455, -30.0864367 ], [ -55.9370332, -30.0853223 ], [ -55.937043660561351, -30.085311267637113 ], [ -55.929900861730175, -30.089714758523488 ], [ -55.9324911, -30.088314 ] ] ], [ [ [ -55.9384132, -30.0845429 ], [ -55.938580802447326, -30.084461951627091 ], [ -55.938429668, -30.084456718 ], [ -55.938155124736213, -30.08462599117297 ], [ -55.9384132, -30.0845429 ] ] ], [ [ [ -55.9901727, -30.0937574 ], [ -55.9904624, -30.0935531 ], [ -55.9912634, -30.093037 ], [ -55.9914351, -30.0927121 ], [ -55.9915853, -30.0924707 ], [ -55.9923363, -30.0921458 ], [ -55.9929907, -30.091718799999988 ], [ -55.994334272863348, -30.09029552650966 ], [ -55.989030237908963, -30.094352819060855 ], [ -55.9901727, -30.0937574 ] ] ], [ [ [ -55.997057, -30.0879592 ], [ -55.9979367, -30.0862882 ], [ -55.9984946, -30.0855641 ], [ -55.998806017113552, -30.085053554306189 ], [ -55.99775083, -30.085583405 ], [ -55.995657839101334, -30.089030686729362 ], [ -55.997057, -30.0879592 ] ] ], [ [ [ -56.0040522, -30.0825934 ], [ -56.00488306600387, -30.082313099295877 ], [ -56.004214135, -30.082337717 ], [ -56.003768413688633, -30.082561561677686 ], [ -56.0040522, -30.0825934 ] ] ], [ [ [ -56.0130644, -30.085267 ], [ -56.013633, -30.0847379 ], [ -56.014122284948151, -30.084390999699522 ], [ -56.01280048647574, -30.085021081124161 ], [ -56.0130644, -30.085267 ] ] ], [ [ [ -56.0222697, -30.079993900000016 ], [ -56.022345235281549, -30.079363445819684 ], [ -56.020964514610064, -30.080755337548599 ], [ -56.0222697, -30.079993900000016 ] ] ], [ [ [ -56.0252524, -30.0767445 ], [ -56.0260892, -30.0757046 ], [ -56.026059956887664, -30.075618427181031 ], [ -56.02492884205018, -30.076758804707126 ], [ -56.0252524, -30.0767445 ] ] ], [ [ [ -56.0309386, -30.070301 ], [ -56.0317111, -30.0694468 ], [ -56.0329045, -30.0688907 ], [ -56.0333722, -30.06854 ], [ -56.0336001, -30.0680833 ], [ -56.0331026, -30.0672751 ], [ -56.0328938, -30.0667512 ], [ -56.033063, -30.0662713 ], [ -56.0336852, -30.0653799 ], [ -56.0335994, -30.0646649 ], [ -56.0334814, -30.0641078 ], [ -56.0337603, -30.0634764 ], [ -56.0342217, -30.062715 ], [ -56.0350665, -30.0620706 ], [ -56.0353962, -30.0615545 ], [ -56.0379282, -30.058991700000011 ], [ -56.041329, -30.0550638 ], [ -56.0417959, -30.0544559 ], [ -56.0423173, -30.053777 ], [ -56.042689, -30.0529215 ], [ -56.0428833, -30.0519344 ], [ -56.0430032, -30.0515252 ], [ -56.0428988, -30.0514471 ], [ -56.0423442, -30.0509491 ], [ -56.042021635480076, -30.050659466392162 ], [ -56.038856704999901, -30.057730564999911 ], [ -56.03222790800001, -30.063762510999897 ], [ -56.030275559312422, -30.070817218329868 ], [ -56.0309386, -30.070301 ] ] ] ] } },
{ "type": "Feature", "properties": { "name": "Inhanduí", "code_muni": 4315305.0, "name_muni": "Quaraí" }, "geometry": { "type": "MultiPolygon", "coordinates": [ [ [ [ -56.0423442, -30.0509491 ], [ -56.0428988, -30.0514471 ], [ -56.0430032, -30.0515252 ], [ -56.0431114, -30.051217900000012 ], [ -56.044195601885541, -30.049781984253524 ], [ -56.043226025, -30.047968379999901 ], [ -56.042021635480076, -30.050659466392162 ], [ -56.0423442, -30.0509491 ] ] ], [ [ [ -56.0632688, -30.0627681 ], [ -56.0637933, -30.0631048 ], [ -56.064425445123831, -30.063435942927097 ], [ -56.063199028358717, -30.062671462339786 ], [ -56.0632688, -30.0627681 ] ] ], [ [ [ -56.0981051, -30.0825049 ], [ -56.0984942, -30.0824902 ], [ -56.0990864, -30.082095 ], [ -56.0990525, -30.0819193 ], [ -56.0990018, -30.081524 ], [ -56.099027315153165, -30.081398739317784 ], [ -56.097832239643878, -30.082416366086353 ], [ -56.0981051, -30.0825049 ] ] ], [ [ [ -56.09975300629182, -30.080929075769642 ], [ -56.099634102, -30.080882039000013 ], [ -56.099429375698548, -30.081056371479605 ], [ -56.09975300629182, -30.080929075769642 ] ] ], [ [ [ -56.1136367, -30.0838518 ], [ -56.1139244, -30.083881 ], [ -56.1140259, -30.0835736 ], [ -56.1144658, -30.0833979 ], [ -56.1153625, -30.0835882 ], [ -56.1155824, -30.083559 ], [ -56.115887, -30.083251499999989 ], [ -56.1161746, -30.0829441 ], [ -56.1166274, -30.0827545 ], [ -56.1166991, -30.0827245 ], [ -56.116919, -30.082417 ], [ -56.1172405, -30.0817289 ], [ -56.1176296, -30.0814508 ], [ -56.1181879, -30.0814508 ], [ -56.1184587, -30.0812751 ], [ -56.1189662, -30.0808505 ], [ -56.119398524919561, -30.080581312862652 ], [ -56.11684095, -30.081172482999897 ], [ -56.114190677999893, -30.083482197 ], [ -56.113525871769298, -30.083563964930345 ], [ -56.1136367, -30.0838518 ] ] ], [ [ [ -56.1502443, -30.0561841 ], [ -56.150682067547763, -30.055631141712613 ], [ -56.150267888, -30.055011696 ], [ -56.127202070359807, -30.074950554641738 ], [ -56.1502443, -30.0561841 ] ] ] ] } }
]
}
