{
"type": "FeatureCollection",
"name": "bairros_vitoria_das_missoes",
"crs": { "type": "name", "properties": { "name": "urn:ogc:def:crs:OGC:1.3:CRS84" } },
"features": [
{ "type": "Feature", "properties": { "code_muni": 4323754.0, "name_muni": "Vitória das Missões", "code_state": 43.0, "abbrev_state": "RS", "name_state": "Rio Grande do Sul", "code_region": 4.0, "name_region": "Sul", "year": 2022.0 }, "geometry": { "type": "Polygon", "coordinates": [ [ [ -54.447971255, -28.340071839 ], [ -54.433064976, -28.335867387 ], [ -54.434472146, -28.320519122 ], [ -54.432867111, -28.31874757 ], [ -54.42365297, -28.336404936999898 ], [ -54.419042477999895, -28.338021678 ], [ -54.415175141, -28.335653206 ], [ -54.410305225999899, -28.327372083999904 ], [ -54.403887773999891, -28.32194577 ], [ -54.400144317999896, -28.315923023 ], [ -54.394553093999903, -28.314131962 ], [ -54.389421849, -28.316524296999901 ], [ -54.388845822, -28.317947085 ], [ -54.391747274999901, -28.324759381 ], [ -54.398143605, -28.330384837999908 ], [ -54.395405722, -28.346702082 ], [ -54.394043599, -28.348500719999898 ], [ -54.390092729999893, -28.348903678999903 ], [ -54.382513305, -28.338632474999901 ], [ -54.377618706, -28.335672087 ], [ -54.372518269999901, -28.336774298 ], [ -54.369120773, -28.34923628 ], [ -54.369827514, -28.350317023999903 ], [ -54.371633883, -28.350910124999896 ], [ -54.375221473999893, -28.348138113999894 ], [ -54.37893515, -28.347743428999898 ], [ -54.382855828999901, -28.353782201999891 ], [ -54.389777114, -28.358059118 ], [ -54.381184252, -28.364289793 ], [ -54.376771358, -28.361718746 ], [ -54.37284486, -28.354365784 ], [ -54.371042798, -28.353573056 ], [ -54.366385647, -28.355711492 ], [ -54.375946846, -28.371189854 ], [ -54.374555662, -28.37331862 ], [ -54.370082915, -28.374728510999898 ], [ -54.374008022999902, -28.378613061999904 ], [ -54.37464833699989, -28.38140214 ], [ -54.372941861999891, -28.393774736 ], [ -54.377384852, -28.397865284 ], [ -54.376089421999893, -28.399456922999892 ], [ -54.370646711999903, -28.401023802999902 ], [ -54.369800654, -28.403053580999899 ], [ -54.370332597, -28.408707778999904 ], [ -54.373899865999896, -28.416114966 ], [ -54.37189398399989, -28.420092393999891 ], [ -54.372737759999893, -28.424961615 ], [ -54.370041514, -28.4280169429999 ], [ -54.373294554, -28.430345925 ], [ -54.372771887999896, -28.432080676999902 ], [ -54.374803469, -28.436213048 ], [ -54.377547627, -28.438009162 ], [ -54.389464185999898, -28.439837933 ], [ -54.396192755, -28.444837096 ], [ -54.398395494999903, -28.447773061 ], [ -54.398106955999907, -28.451718776999904 ], [ -54.402103597, -28.454068863 ], [ -54.402263178999895, -28.457173003 ], [ -54.410448531, -28.460286055 ], [ -54.41824622099989, -28.46098427 ], [ -54.42468004900001, -28.463157797 ], [ -54.429477925, -28.473188712 ], [ -54.442308222999898, -28.477751860999895 ], [ -54.463320312, -28.488652823999896 ], [ -54.467708611, -28.486101939 ], [ -54.468468533, -28.48195692 ], [ -54.473243246, -28.475405114999905 ], [ -54.478022216999896, -28.472424385999894 ], [ -54.4780749889999, -28.467134079999898 ], [ -54.486250656, -28.461274510999903 ], [ -54.48185459, -28.459818515999899 ], [ -54.480074609, -28.457034024999892 ], [ -54.488742511999902, -28.457834175 ], [ -54.492486525999894, -28.454964026 ], [ -54.491924539, -28.45398527 ], [ -54.484613902, -28.455225083 ], [ -54.48230334, -28.451384119999897 ], [ -54.496905593, -28.447156686 ], [ -54.498434796, -28.445389823 ], [ -54.497560719, -28.442948715999897 ], [ -54.500143368999893, -28.436840663999899 ], [ -54.497515760999896, -28.435521217 ], [ -54.497528584, -28.434116301 ], [ -54.508137344, -28.431076095 ], [ -54.509326663, -28.428547038 ], [ -54.513991085, -28.431229164999902 ], [ -54.517358181, -28.43136168 ], [ -54.519784305, -28.427557403 ], [ -54.519641656, -28.425101008 ], [ -54.526942694999903, -28.4170606 ], [ -54.531732738, -28.415072279 ], [ -54.532279168999899, -28.410459430999889 ], [ -54.541824210999899, -28.399383149999899 ], [ -54.537861446, -28.389812877999894 ], [ -54.540275059, -28.38668409699989 ], [ -54.547132631, -28.385877155999907 ], [ -54.549446212, -28.383007575 ], [ -54.545286561999902, -28.379833764 ], [ -54.544996023999893, -28.375888283999892 ], [ -54.548145459999901, -28.374101741999894 ], [ -54.55110871999991, -28.375199618999904 ], [ -54.554175229, -28.372791591999903 ], [ -54.554252294, -28.368382660999906 ], [ -54.552053034, -28.363620249 ], [ -54.550732715, -28.363936004 ], [ -54.547940517, -28.36187416 ], [ -54.548582218999989, -28.361023313 ], [ -54.544580465, -28.359739663 ], [ -54.545035598, -28.358696252999898 ], [ -54.542254899999897, -28.359175966999896 ], [ -54.539594193, -28.353475860999907 ], [ -54.543878133, -28.350811596 ], [ -54.543076694, -28.34014287 ], [ -54.547027920999895, -28.335968313 ], [ -54.547754286, -28.333302441999898 ], [ -54.545150098, -28.330864673 ], [ -54.549101128, -28.32847509 ], [ -54.548182706, -28.327353076 ], [ -54.550799218999899, -28.324400857999898 ], [ -54.54739776, -28.322449955 ], [ -54.54723196, -28.321112292 ], [ -54.550079785, -28.318692735999903 ], [ -54.552565229, -28.319579706 ], [ -54.555655833999893, -28.315939778 ], [ -54.561228668, -28.314933708 ], [ -54.561175384, -28.312435298 ], [ -54.55852009599991, -28.312766408999895 ], [ -54.551110256, -28.308626085999904 ], [ -54.551060107999895, -28.307356372 ], [ -54.545529944, -28.305715011 ], [ -54.547615445, -28.304789664999891 ], [ -54.548167344, -28.302085088 ], [ -54.550973212, -28.302200538 ], [ -54.553305947, -28.29974361 ], [ -54.555388437, -28.299516492 ], [ -54.554754317999894, -28.296023197 ], [ -54.549733907, -28.293066049999901 ], [ -54.551484159, -28.290334110999897 ], [ -54.549893982, -28.290557039 ], [ -54.549377508, -28.288893486999907 ], [ -54.551867881, -28.2870234009999 ], [ -54.552310564, -28.2839213399999 ], [ -54.555072587, -28.281986345999897 ], [ -54.557390869, -28.281994405 ], [ -54.557411510999891, -28.284802057 ], [ -54.560180666999898, -28.287847405 ], [ -54.565213402, -28.287510308 ], [ -54.564067678999898, -28.291257099999903 ], [ -54.569657218, -28.298071213999897 ], [ -54.573018829, -28.29855902 ], [ -54.570948227, -28.294174504999905 ], [ -54.569382014, -28.280123122 ], [ -54.566898623, -28.276015319999889 ], [ -54.557314275, -28.277363098 ], [ -54.543874484999897, -28.270440602999905 ], [ -54.54097539899989, -28.271365248999903 ], [ -54.532838002999902, -28.277739563 ], [ -54.532996205, -28.283514629 ], [ -54.541141890999896, -28.294018852 ], [ -54.540205732999901, -28.301225673 ], [ -54.536308131999895, -28.303664631999904 ], [ -54.526240347999895, -28.304934552 ], [ -54.521664556, -28.314116839999897 ], [ -54.517074776, -28.318459957999899 ], [ -54.508236209, -28.317170373 ], [ -54.507798389, -28.316230896 ], [ -54.507742612, -28.313289583 ], [ -54.509943553, -28.309350928 ], [ -54.517599778, -28.301372785999902 ], [ -54.520402584, -28.28841219899989 ], [ -54.519435244, -28.281493358 ], [ -54.513238199999897, -28.276270742 ], [ -54.509499682999902, -28.27545190099989 ], [ -54.505949346, -28.276481098 ], [ -54.502821105999899, -28.27993587 ], [ -54.506581517, -28.289666035 ], [ -54.504556309, -28.303140503999892 ], [ -54.500729027, -28.312509728 ], [ -54.496108144999901, -28.317130174999892 ], [ -54.489887575, -28.316103257 ], [ -54.487290537, -28.314317860999896 ], [ -54.488041689999896, -28.308664017 ], [ -54.491966513, -28.298788586999901 ], [ -54.489857706999892, -28.291776188 ], [ -54.484594697, -28.289582494999898 ], [ -54.474332179, -28.289072620999903 ], [ -54.464040097, -28.292770464999908 ], [ -54.461938265, -28.294713052 ], [ -54.458745098999898, -28.302260835 ], [ -54.458110645, -28.314086856 ], [ -54.461783404, -28.315040854999893 ], [ -54.468616384, -28.310238032 ], [ -54.472770952, -28.310173178 ], [ -54.47648929199989, -28.312661454 ], [ -54.484388104999901, -28.328145232999905 ], [ -54.482358157, -28.329365125 ], [ -54.477375707, -28.324614851 ], [ -54.466164966, -28.318584673 ], [ -54.460073805, -28.323647446999903 ], [ -54.46382053299989, -28.333808292999894 ], [ -54.462509363, -28.336708249 ], [ -54.447971255, -28.340071839 ] ] ] } }
]
}
