{
"type": "FeatureCollection",
"name": "bairros_bozano",
"crs": { "type": "name", "properties": { "name": "urn:ogc:def:crs:OGC:1.3:CRS84" } },
"features": [
{ "type": "Feature", "properties": { "code_muni": 4302584.0, "name_muni": "Bozano", "code_state": 43.0, "abbrev_state": "RS", "name_state": "Rio Grande do Sul", "code_region": 4.0, "name_region": "Sul", "year": 2022.0 }, "geometry": { "type": "Polygon", "coordinates": [ [ [ -53.766967942, -28.290492082 ], [ -53.762402995999899, -28.289066862 ], [ -53.761099207, -28.287244299 ], [ -53.763756169, -28.282573759999906 ], [ -53.763442024, -28.280686305 ], [ -53.754642976, -28.274995046999909 ], [ -53.7524159929999, -28.276792794999899 ], [ -53.754865684, -28.280988223999906 ], [ -53.751903663999897, -28.281603125999904 ], [ -53.750498943, -28.284220138 ], [ -53.750747214999897, -28.294632838 ], [ -53.7372175369999, -28.296678901 ], [ -53.725273714, -28.291396642999892 ], [ -53.719691296, -28.297257584 ], [ -53.719280543, -28.301212409 ], [ -53.720765760999903, -28.304100524 ], [ -53.728162698999903, -28.304687287 ], [ -53.73218839, -28.308469144999901 ], [ -53.730566224, -28.312860677999907 ], [ -53.725619595, -28.314495159999986 ], [ -53.715344558, -28.307004999 ], [ -53.708317213, -28.304560914999989 ], [ -53.712155477, -28.300128945 ], [ -53.712448381999899, -28.2966193779999 ], [ -53.710497352999901, -28.299496645 ], [ -53.709753987999903, -28.298444962 ], [ -53.707688689999891, -28.299721905 ], [ -53.704371524, -28.298178027999899 ], [ -53.700722619, -28.299284347 ], [ -53.701209998, -28.293649602 ], [ -53.696192427, -28.292412179999896 ], [ -53.693387999, -28.288097798 ], [ -53.692407198999895, -28.290629102 ], [ -53.684881162999901, -28.294199319 ], [ -53.69059814, -28.294621558999903 ], [ -53.691727102999891, -28.297750284999893 ], [ -53.689428190999891, -28.300098192999908 ], [ -53.685953396999892, -28.299933745 ], [ -53.683821291999898, -28.302181215 ], [ -53.672985143999902, -28.302430982 ], [ -53.670954004, -28.299021883 ], [ -53.668447313999891, -28.300501857 ], [ -53.66628989, -28.305453611 ], [ -53.669162109, -28.3050782249999 ], [ -53.669513891999898, -28.307557792999891 ], [ -53.667444636, -28.3094203439999 ], [ -53.662469844, -28.308546217 ], [ -53.659534447999896, -28.310516425999904 ], [ -53.66056212, -28.313742324 ], [ -53.663883284, -28.31603146 ], [ -53.662219418999889, -28.324351808 ], [ -53.660391717, -28.3190321169999 ], [ -53.658859358, -28.320777124 ], [ -53.660146445999899, -28.326996775999902 ], [ -53.667411316, -28.3331731449999 ], [ -53.6658922989999, -28.334883601999895 ], [ -53.668473826, -28.337414447 ], [ -53.666854341, -28.343236310999888 ], [ -53.667533304, -28.345988129 ], [ -53.671548232, -28.347088856 ], [ -53.671827228, -28.352255732999893 ], [ -53.676271758, -28.35543888 ], [ -53.678798317, -28.366137425 ], [ -53.676379987, -28.376605772999895 ], [ -53.678213078999903, -28.383105510999901 ], [ -53.680186608, -28.3842830319999 ], [ -53.684054559999893, -28.393328102999906 ], [ -53.687772513, -28.393900458 ], [ -53.689352554, -28.397545325999889 ], [ -53.6922081129999, -28.3944037639999 ], [ -53.696186554999898, -28.395031994 ], [ -53.700039982, -28.398374563999901 ], [ -53.701658016999893, -28.403382861999898 ], [ -53.704424001999897, -28.4041392029999 ], [ -53.705395172999893, -28.402490729 ], [ -53.708733184, -28.401578104999896 ], [ -53.709893364, -28.403308390999904 ], [ -53.714232459, -28.403818793 ], [ -53.719448379, -28.408609678999898 ], [ -53.722604522, -28.409442308999896 ], [ -53.730220224999989, -28.418619954999894 ], [ -53.733967226999901, -28.419230254999903 ], [ -53.735073284, -28.422471151 ], [ -53.740414442, -28.421901779999896 ], [ -53.742985406999892, -28.425912888 ], [ -53.745731775, -28.424289042999902 ], [ -53.748526094999903, -28.419938448 ], [ -53.752575898, -28.423802979999898 ], [ -53.759184795, -28.437136708 ], [ -53.762241753, -28.440487038999908 ], [ -53.764737052, -28.4410323399999 ], [ -53.765123124999903, -28.438956924 ], [ -53.767996862, -28.439982089999898 ], [ -53.769951222, -28.439113969999894 ], [ -53.771574038, -28.442335609999894 ], [ -53.774692070999897, -28.442312706999896 ], [ -53.775212288, -28.438896939999907 ], [ -53.77744224, -28.436034811999896 ], [ -53.773067694, -28.435409411 ], [ -53.771660724, -28.433670939 ], [ -53.774847118, -28.429935359999892 ], [ -53.778957010999903, -28.430131832 ], [ -53.780760359999903, -28.433230303999903 ], [ -53.784041123, -28.431782874 ], [ -53.781178917, -28.429523781999901 ], [ -53.781676116, -28.426604375 ], [ -53.7851225859999, -28.4247940079999 ], [ -53.788478771, -28.424709584 ], [ -53.787935386999898, -28.421913216999897 ], [ -53.791149291, -28.419752086999907 ], [ -53.792816729, -28.421216817 ], [ -53.795028238, -28.420049072 ], [ -53.799214022999891, -28.420905126 ], [ -53.796977695, -28.422790528999908 ], [ -53.7984271669999, -28.425421374999896 ], [ -53.800667854, -28.426184255 ], [ -53.800083131, -28.424039251999901 ], [ -53.802061578, -28.418218139 ], [ -53.806417317999895, -28.418179941999892 ], [ -53.808392297, -28.415650152 ], [ -53.811121041, -28.415029773999894 ], [ -53.813349259999896, -28.411382663 ], [ -53.813220798, -28.407110243 ], [ -53.809460875, -28.40616087 ], [ -53.812690644, -28.400088092 ], [ -53.815185699, -28.398151472999903 ], [ -53.818950166, -28.400869427 ], [ -53.823401652, -28.400413046 ], [ -53.827380992, -28.402064675 ], [ -53.830109158, -28.399963582999895 ], [ -53.828429647, -28.3934344319999 ], [ -53.835967157, -28.388358396999902 ], [ -53.838306447, -28.388837963999904 ], [ -53.838160570999896, -28.386802786 ], [ -53.835687316, -28.386336852999893 ], [ -53.834524469, -28.383796462 ], [ -53.826393751, -28.380441031 ], [ -53.825858152, -28.379135264999899 ], [ -53.829343524, -28.376351262 ], [ -53.829517796999902, -28.371584933 ], [ -53.819700621, -28.368864721 ], [ -53.8224273719999, -28.2851964 ], [ -53.81109451, -28.284750319999901 ], [ -53.813023617999896, -28.293597173 ], [ -53.815279926999892, -28.296896855999893 ], [ -53.812173727, -28.300911578999905 ], [ -53.80837859, -28.298171221 ], [ -53.806789989, -28.291585089 ], [ -53.804758614, -28.288829613 ], [ -53.800426468, -28.289873766 ], [ -53.79595234899989, -28.295350699 ], [ -53.790032217, -28.296253801 ], [ -53.788770364, -28.292879932999895 ], [ -53.789680834, -28.286750052999892 ], [ -53.786876333999892, -28.2846018659999 ], [ -53.77586530299989, -28.287852515999898 ], [ -53.768800669, -28.2820209499999 ], [ -53.76635933099989, -28.281408932 ], [ -53.76549332, -28.283262788999906 ], [ -53.768696623, -28.288379106 ], [ -53.766967942, -28.290492082 ] ] ] } }
]
}
