{
"type": "FeatureCollection",
"name": "bairros_tapera",
"crs": { "type": "name", "properties": { "name": "urn:ogc:def:crs:OGC:1.3:CRS84" } },
"features": [
{ "type": "Feature", "properties": { "code_muni": 4321006.0, "name_muni": "Tapera", "code_state": 43.0, "abbrev_state": "RS", "name_state": "Rio Grande do Sul", "code_region": 4.0, "name_region": "Sul", "year": 2022.0 }, "geometry": { "type": "Polygon", "coordinates": [ [ [ -52.761953451999901, -28.6281644919999 ], [ -52.764668426, -28.633167436999898 ], [ -52.762026175, -28.639395362999895 ], [ -52.759068342, -28.639992612 ], [ -52.752467957, -28.638449754 ], [ -52.751547197, -28.640197794 ], [ -52.753688892, -28.642281664999896 ], [ -52.762733757, -28.643683517999897 ], [ -52.762873254999896, -28.65114572100001 ], [ -52.764352561, -28.653226086 ], [ -52.77005037, -28.645861200999899 ], [ -52.771217395, -28.645867278 ], [ -52.7751327, -28.653810246 ], [ -52.781735731, -28.657092335 ], [ -52.778327197, -28.664147277 ], [ -52.778741576, -28.671025536999903 ], [ -52.772206016, -28.67812423 ], [ -52.7737207179999, -28.679847561 ], [ -52.777388195, -28.680348047999889 ], [ -52.782634338, -28.678740741999899 ], [ -52.782571415999897, -28.68108491 ], [ -52.776665153, -28.688415902 ], [ -52.7746708069999, -28.695969732 ], [ -52.777932974, -28.699342645999899 ], [ -52.780755455, -28.700934259 ], [ -52.7839112139999, -28.70017416 ], [ -52.791753185999902, -28.687905454 ], [ -52.800870247, -28.690269907999895 ], [ -52.802974764999902, -28.693723996 ], [ -52.805375005, -28.693948189 ], [ -52.808316839, -28.687916947 ], [ -52.807228186, -28.679780599 ], [ -52.814458941999902, -28.678251766999892 ], [ -52.81946153, -28.678594093999905 ], [ -52.82264584699989, -28.682696039999897 ], [ -52.821096834999892, -28.687981027 ], [ -52.813965362, -28.697354548 ], [ -52.811702209, -28.704372525999897 ], [ -52.805900363, -28.702568541999891 ], [ -52.805371683, -28.703521979999898 ], [ -52.807244302, -28.705800234 ], [ -52.815347964, -28.709526109 ], [ -52.821505449, -28.707773732 ], [ -52.824441040999901, -28.715437046 ], [ -52.832457989, -28.724876418 ], [ -52.837401380999907, -28.724297399999987 ], [ -52.838181279, -28.720696315999906 ], [ -52.845670738, -28.71735653 ], [ -52.848558398, -28.718739813 ], [ -52.851861814999893, -28.723486260999891 ], [ -52.853637510999903, -28.7236998 ], [ -52.859957774, -28.717432571 ], [ -52.857910881999892, -28.711382452999899 ], [ -52.859687892, -28.710796591 ], [ -52.8630626, -28.712950519999904 ], [ -52.864675981999895, -28.709698183999894 ], [ -52.874171712, -28.706270753 ], [ -52.879733761, -28.709093826 ], [ -52.8838807019999, -28.717401997 ], [ -52.882024354, -28.720733756 ], [ -52.882924717, -28.723659745 ], [ -52.8886765, -28.729072387 ], [ -52.896029327999898, -28.731331218 ], [ -52.904386916999989, -28.731020266 ], [ -52.907731235, -28.732996029999985 ], [ -52.909662120999897, -28.731697132 ], [ -52.915163776, -28.732557851 ], [ -52.918999329, -28.73497033 ], [ -52.921678255, -28.729601165 ], [ -52.92979726, -28.728989576999886 ], [ -52.929219759, -28.726473930999909 ], [ -52.928413281, -28.728017561999899 ], [ -52.927275637, -28.727504856999904 ], [ -52.922876651, -28.718209047999899 ], [ -52.930770605, -28.716060136999893 ], [ -52.924302951999891, -28.711602053 ], [ -52.924127567, -28.706996986 ], [ -52.930425118, -28.702954115 ], [ -52.933103192, -28.706494468 ], [ -52.936563162, -28.700157949999898 ], [ -52.942489694, -28.699388543999891 ], [ -52.936454708, -28.6902481 ], [ -52.937952211, -28.6848282509999 ], [ -52.935671092999897, -28.683659134 ], [ -52.935938878999892, -28.681691557 ], [ -52.932748219, -28.677724143 ], [ -52.928037399999894, -28.674338893 ], [ -52.928174268, -28.672798617 ], [ -52.930670971, -28.6712613609999 ], [ -52.938216041, -28.672820617999907 ], [ -52.942316448, -28.670227941 ], [ -52.938789922, -28.667540936 ], [ -52.940540557, -28.663286685999886 ], [ -52.935986737999897, -28.664668309 ], [ -52.934209568, -28.663514763 ], [ -52.937568422, -28.662406916 ], [ -52.939409207, -28.660185839999897 ], [ -52.931478695, -28.659831181 ], [ -52.930007890999903, -28.657552683999899 ], [ -52.929934298, -28.653226788 ], [ -52.925596566, -28.653491072999891 ], [ -52.921830542, -28.65115643 ], [ -52.927216226, -28.648718884999898 ], [ -52.925940398, -28.64364203 ], [ -52.928346468, -28.642501253 ], [ -52.931534598, -28.643273670999989 ], [ -52.933914145, -28.640448276 ], [ -52.931307386, -28.639683917 ], [ -52.930049261, -28.640816446 ], [ -52.928497837, -28.639568808 ], [ -52.929141967, -28.637464236 ], [ -52.9331498, -28.636325725999892 ], [ -52.932004846, -28.632867904 ], [ -52.935653343999896, -28.629682111 ], [ -52.93366206199989, -28.627819389999985 ], [ -52.93630046, -28.619229748999896 ], [ -52.926576958999895, -28.620900116 ], [ -52.927184704, -28.618932682 ], [ -52.926070275, -28.617699962 ], [ -52.921613086, -28.618050031999896 ], [ -52.919556299, -28.613923466 ], [ -52.924569715, -28.61272901 ], [ -52.925839375, -28.614645106999898 ], [ -52.92749924, -28.612373417999898 ], [ -52.926741262, -28.610650869 ], [ -52.922160369, -28.610193415 ], [ -52.918207934, -28.606533484 ], [ -52.917883697, -28.605269577999895 ], [ -52.920593853, -28.604704406999897 ], [ -52.921052588, -28.603017592 ], [ -52.918705782, -28.599906077 ], [ -52.915619001, -28.598718388999906 ], [ -52.916775013999896, -28.595751013 ], [ -52.910764610999898, -28.596747175 ], [ -52.90917655, -28.599548375 ], [ -52.907232861999901, -28.598370697999901 ], [ -52.900074462, -28.5995064479999 ], [ -52.894157112999899, -28.594978924 ], [ -52.887374149, -28.598625173 ], [ -52.880224114, -28.598274025 ], [ -52.871374351999989, -28.600270312 ], [ -52.863600268, -28.597856997 ], [ -52.845825784999896, -28.603852635 ], [ -52.841823112, -28.606440271999894 ], [ -52.837775557, -28.61225091099989 ], [ -52.781314202, -28.624531853999901 ], [ -52.775166391, -28.628986411 ], [ -52.769416659999891, -28.62925551 ], [ -52.764245939, -28.626714870999898 ], [ -52.761953451999901, -28.6281644919999 ] ] ] } }
]
}
