{
"type": "FeatureCollection",
"name": "bairros_chapada",
"crs": { "type": "name", "properties": { "name": "urn:ogc:def:crs:OGC:1.3:CRS84" } },
"features": [
{ "type": "Feature", "properties": { "code_muni": 4305306.0, "name_muni": "Chapada", "code_state": 43.0, "abbrev_state": "RS", "name_state": "Rio Grande do Sul", "code_region": 4.0, "name_region": "Sul", "year": 2022.0 }, "geometry": { "type": "Polygon", "coordinates": [ [ [ -53.005495709999899, -28.0543916039999 ], [ -53.009005914999896, -28.065608914999899 ], [ -53.000404935999903, -28.058756888999888 ], [ -52.994516635, -28.057609507999906 ], [ -52.992080844, -28.060829942999902 ], [ -52.998494137, -28.060777614999896 ], [ -53.00056774, -28.069857053 ], [ -52.992905747, -28.072950924999908 ], [ -52.989263670999897, -28.068589604 ], [ -52.984135771, -28.06886304499989 ], [ -52.984064235999902, -28.069978635 ], [ -52.98722706, -28.07096654 ], [ -52.987879248, -28.073781950999901 ], [ -52.986165432, -28.076115231 ], [ -52.982493857, -28.077601184999903 ], [ -52.989809184, -28.080636346999899 ], [ -53.00054435, -28.076121424 ], [ -53.006463711, -28.075999276999902 ], [ -53.006082552, -28.078059134999901 ], [ -53.000956666, -28.080270406999897 ], [ -53.003787766999892, -28.083184598999903 ], [ -53.005084855, -28.088613105 ], [ -53.007397241, -28.089324607 ], [ -53.014999842999899, -28.085797328 ], [ -53.017364646, -28.086786940999989 ], [ -53.017524487999893, -28.089458841 ], [ -53.011731267, -28.091061199 ], [ -53.010247246999903, -28.093216879 ], [ -53.012168736, -28.097181810999896 ], [ -53.021034963, -28.102802509999908 ], [ -53.023143849999897, -28.105464836 ], [ -53.008805539, -28.102388972 ], [ -53.008258396, -28.109874831999907 ], [ -53.01023939, -28.113699461999897 ], [ -53.009276902, -28.121194948 ], [ -53.007768258999903, -28.120445074999989 ], [ -53.007090509, -28.114466193999892 ], [ -53.001592554, -28.106552108999907 ], [ -52.997893667, -28.112748138 ], [ -52.999670556999895, -28.114404154999892 ], [ -52.999197329, -28.118017925999897 ], [ -52.994048004, -28.117829571 ], [ -52.994691579999895, -28.120631342 ], [ -52.990126077999896, -28.121451346999898 ], [ -52.992661675, -28.126440623999894 ], [ -52.990297865999899, -28.130924675999907 ], [ -52.988144432999903, -28.131089254 ], [ -52.985517635999898, -28.128337761999905 ], [ -52.985953542999894, -28.125608003 ], [ -52.984691145999903, -28.124120739 ], [ -52.981082430999891, -28.130836646 ], [ -52.977698023, -28.131461085999899 ], [ -52.975198846999902, -28.125593007 ], [ -52.971904622999901, -28.124460358 ], [ -52.97406635, -28.127261858999905 ], [ -52.971359155999899, -28.135428768999901 ], [ -52.977763329, -28.132302489 ], [ -52.978836703999903, -28.133326445 ], [ -52.975227742, -28.138604859999894 ], [ -52.979446157, -28.142595491999906 ], [ -52.977300570999894, -28.144908255 ], [ -52.979675331, -28.14806134 ], [ -52.977439177999891, -28.151215243 ], [ -52.974974678, -28.151605558 ], [ -52.974617791999897, -28.155830009999899 ], [ -52.976727423999897, -28.158826871 ], [ -52.975270071999901, -28.16196128 ], [ -52.977784485, -28.1642727239999 ], [ -52.982270136999894, -28.164562365999895 ], [ -52.983666107, -28.166290647 ], [ -52.982945588999897, -28.1690471379999 ], [ -52.978159048999899, -28.173612165999899 ], [ -52.968628973, -28.171867032 ], [ -52.967081473999897, -28.17607255 ], [ -52.963378261999893, -28.177707439999896 ], [ -52.961322396999904, -28.180741508 ], [ -52.9552236339999, -28.182376024999897 ], [ -52.954912814999901, -28.183863285 ], [ -52.963786501999891, -28.186910893999901 ], [ -52.974371773, -28.1815237819999 ], [ -52.9794216129999, -28.18832398 ], [ -52.981510812, -28.188612021 ], [ -52.985303803, -28.186108429999898 ], [ -53.00193754, -28.201621547999896 ], [ -53.006586652, -28.2025838019999 ], [ -53.008311201, -28.204783400999897 ], [ -53.018202553, -28.208844541 ], [ -53.019350537, -28.213087110999901 ], [ -53.022547017, -28.216017085 ], [ -53.024236343, -28.226294225999904 ], [ -53.027228615, -28.227194343999905 ], [ -53.035189206, -28.224876858999899 ], [ -53.037495453, -28.228661875999904 ], [ -53.038380097, -28.236017062 ], [ -53.042365477, -28.237797229 ], [ -53.047339284, -28.245435370999903 ], [ -53.049445114, -28.245486117999988 ], [ -53.052311607999989, -28.242715302 ], [ -53.054673707999903, -28.242818269999898 ], [ -53.056330231999901, -28.241235404 ], [ -53.058664555, -28.241365179 ], [ -53.0603655789999, -28.243764282 ], [ -53.061235704, -28.241912487 ], [ -53.063571043, -28.242044892 ], [ -53.065492914999894, -28.249281606 ], [ -53.0730145429999, -28.259636723 ], [ -53.073253713, -28.261912964 ], [ -53.078444222, -28.264526743 ], [ -53.078624111, -28.266481367 ], [ -53.080666785999902, -28.268121010999899 ], [ -53.084890136, -28.260399763999903 ], [ -53.089203837, -28.264034950999889 ], [ -53.094241263, -28.261426578999899 ], [ -53.097423169, -28.26153424599989 ], [ -53.100619055, -28.257791934999897 ], [ -53.103639689, -28.258160956 ], [ -53.104973049, -28.256532969 ], [ -53.112675243999902, -28.254710964 ], [ -53.114176347999901, -28.253602781 ], [ -53.113804667999901, -28.251103777 ], [ -53.115831145999891, -28.252019173 ], [ -53.120642085999989, -28.251031533999896 ], [ -53.122306043, -28.255281119 ], [ -53.128091454, -28.25277282 ], [ -53.129643366, -28.248772989 ], [ -53.132492465, -28.250926788 ], [ -53.134914646, -28.246520071 ], [ -53.136814508, -28.245833714 ], [ -53.136314212999892, -28.243299663 ], [ -53.138697653, -28.244561647 ], [ -53.144091933, -28.244337468 ], [ -53.140694039, -28.242249935 ], [ -53.143034445, -28.240485325999899 ], [ -53.145819184999901, -28.240363798 ], [ -53.149295394, -28.236052711999903 ], [ -53.148472830999893, -28.233781060999899 ], [ -53.154101588999893, -28.23049649199989 ], [ -53.153756721, -28.227976086 ], [ -53.158108550999891, -28.222730892999898 ], [ -53.157830277999899, -28.220023227999896 ], [ -53.158769161, -28.218645801 ], [ -53.163991033999892, -28.2174940099999 ], [ -53.166178277, -28.212113487999893 ], [ -53.168333887, -28.210787611999898 ], [ -53.167822934999897, -28.207842146 ], [ -53.173696635999903, -28.208871157 ], [ -53.175605552, -28.206487094 ], [ -53.180601969, -28.206479204999894 ], [ -53.182945732999897, -28.204349377 ], [ -53.184685202, -28.198083415999989 ], [ -53.184968552, -28.193493341 ], [ -53.183224634999895, -28.190845549 ], [ -53.184642128, -28.184297941 ], [ -53.186208937999901, -28.182215745999894 ], [ -53.18900679, -28.181633222 ], [ -53.194285989, -28.170099669 ], [ -53.201792435, -28.164790291 ], [ -53.196873218, -28.159354972 ], [ -53.213709971999897, -28.152085357 ], [ -53.223352613, -28.146421559 ], [ -53.239885232999896, -28.161061194999899 ], [ -53.246118082999899, -28.162442774999899 ], [ -53.250259214, -28.159653021999901 ], [ -53.255555815, -28.164355841 ], [ -53.257727084, -28.158096606 ], [ -53.248478749999897, -28.146046435 ], [ -53.249160595, -28.142286655 ], [ -53.254604371, -28.139426280999896 ], [ -53.265168632, -28.1302337559999 ], [ -53.269154301999897, -28.125644255999898 ], [ -53.270309504999901, -28.119641016999903 ], [ -53.273333147, -28.113788434999897 ], [ -53.276321063999902, -28.111237152999902 ], [ -53.280118050999903, -28.109121358 ], [ -53.287784681999909, -28.110153027 ], [ -53.2981551459999, -28.093729277 ], [ -53.297143495999897, -28.088449146999899 ], [ -53.299900932, -28.086409564999901 ], [ -53.301719209999902, -28.080899338999899 ], [ -53.295302257999893, -28.079966027 ], [ -53.288849986999899, -28.077306097 ], [ -53.284156458, -28.079495086999902 ], [ -53.276183913999894, -28.078439972 ], [ -53.270237032, -28.080113861 ], [ -53.267486767, -28.079238400999895 ], [ -53.262634797, -28.082054715 ], [ -53.260529291999894, -28.078847385999893 ], [ -53.254394171999898, -28.07680113 ], [ -53.2515291509999, -28.073430729999892 ], [ -53.247271069, -28.071592892 ], [ -53.24412912, -28.071793086 ], [ -53.242922689999894, -28.073658739999896 ], [ -53.241576054999911, -28.072014508999889 ], [ -53.238486521, -28.071558880999905 ], [ -53.235160209999897, -28.076097072 ], [ -53.232327220999892, -28.076321272 ], [ -53.227173114, -28.079590299999897 ], [ -53.224227847, -28.075743372 ], [ -53.219131757999897, -28.077009292999904 ], [ -53.216795606999895, -28.076195633999895 ], [ -53.215507863, -28.077278271999901 ], [ -53.213788716999893, -28.0744478129999 ], [ -53.209611808, -28.0746665469999 ], [ -53.20882269, -28.070034050999897 ], [ -53.202837388, -28.069802723999896 ], [ -53.200187647999904, -28.063564981999903 ], [ -53.197746404, -28.065865164999899 ], [ -53.193776466, -28.066198323 ], [ -53.193047680999904, -28.064481458999989 ], [ -53.194265088999892, -28.061518204 ], [ -53.189947214, -28.056584234 ], [ -53.188746347999903, -28.056929948999901 ], [ -53.187642728, -28.053675109 ], [ -53.189733216, -28.049444793 ], [ -53.192391769, -28.047436565999892 ], [ -53.191030779, -28.045136684999893 ], [ -53.19520797900001, -28.0415880649999 ], [ -53.200950373999902, -28.043372072999905 ], [ -53.201588614999899, -28.0406832809999 ], [ -53.204345326, -28.0403410559999 ], [ -53.204961634999989, -28.041727871 ], [ -53.207594549, -28.042042652 ], [ -53.208911503, -28.038865974 ], [ -53.210663538999896, -28.038213751999901 ], [ -53.21366829, -28.039832592 ], [ -53.218944079, -28.039361 ], [ -53.222343059, -28.034690941999898 ], [ -53.229268600999909, -28.035293914 ], [ -53.235243139, -28.031893975999896 ], [ -53.238865825999895, -28.024778546999983 ], [ -53.241794924, -28.024284926999897 ], [ -53.241656139, -28.0210168569999 ], [ -53.2448794969999, -28.011414047 ], [ -53.243953779, -28.008420467 ], [ -53.238037942999895, -28.002981992999899 ], [ -53.192630392, -27.993785409999894 ], [ -53.192799575, -27.987177818 ], [ -53.189743319999891, -27.983299727 ], [ -53.189353880999903, -27.980324289999896 ], [ -53.184589832, -27.976371948 ], [ -53.184893160999891, -27.973746188999893 ], [ -53.179885113, -27.967710589 ], [ -53.177130794999989, -27.961137886999897 ], [ -53.17038114199989, -27.957989778 ], [ -53.169637931999901, -27.956303372 ], [ -53.166133688999899, -27.958306993999898 ], [ -53.156270196, -27.943327938 ], [ -53.153362112, -27.943181056 ], [ -53.15168247, -27.941484282 ], [ -53.150030404999903, -27.942761705 ], [ -53.146564175, -27.939292502999905 ], [ -53.143413381, -27.938112557 ], [ -53.14207643399989, -27.938854062 ], [ -53.142525387, -27.940933996999895 ], [ -53.140653158, -27.942027665999898 ], [ -53.139651363, -27.938422061 ], [ -53.137967505999903, -27.937676140999891 ], [ -53.13509791300001, -27.937821469 ], [ -53.132833611, -27.939912337 ], [ -53.130268258999891, -27.938474105999902 ], [ -53.123672896, -27.9395872589999 ], [ -53.119980883, -27.9377644969999 ], [ -53.118286091999892, -27.933877305999893 ], [ -53.11565473, -27.93646903 ], [ -53.111730609999903, -27.935599208999989 ], [ -53.108873881, -27.929595696 ], [ -53.107098505, -27.931249873 ], [ -53.104636087, -27.9307015219999 ], [ -53.103375336999903, -27.933761189999899 ], [ -53.099400176, -27.931227722999889 ], [ -53.091988726999901, -27.931162822 ], [ -53.090414715, -27.931668558999903 ], [ -53.090004184, -27.934100287 ], [ -53.088451866, -27.933951968 ], [ -53.084770309, -27.929291473 ], [ -53.086299628999896, -27.925883665 ], [ -53.0783120259999, -27.920841568 ], [ -53.076627119, -27.924962874999899 ], [ -53.0736386459999, -27.923231126 ], [ -53.07210875, -27.923690032 ], [ -53.070619861999901, -27.9277864119999 ], [ -53.067463473, -27.928929962 ], [ -53.067130216999892, -27.932834705999888 ], [ -53.070138458, -27.942719092999901 ], [ -53.065070277, -27.940907228999905 ], [ -53.058125763, -27.941303713 ], [ -53.057273968999901, -27.944305003999897 ], [ -53.037989079999896, -27.950782595 ], [ -53.03444329, -27.953781386999907 ], [ -53.032347552, -27.961823167 ], [ -53.033311931, -27.964432927 ], [ -53.035353154999903, -27.964274909 ], [ -53.039968101999889, -27.9607485 ], [ -53.046988408999908, -27.960448095999904 ], [ -53.056184625, -27.955703984 ], [ -53.058578509, -27.956341160999987 ], [ -53.049150126, -27.968678512999897 ], [ -53.043688142, -27.978694101 ], [ -53.043279364999897, -27.982627091 ], [ -53.031396496, -27.990899211999899 ], [ -53.031053249, -28.0039295559999 ], [ -53.022008994, -28.003872744 ], [ -53.020172757999894, -28.021626709 ], [ -53.0223083939999, -28.025659819999898 ], [ -53.021973009, -28.031824588999893 ], [ -53.020970872, -28.036026633999899 ], [ -53.016494649, -28.037584006 ], [ -53.026099216, -28.043551503999904 ], [ -53.019148701999896, -28.045224531 ], [ -53.009596681999895, -28.043992889 ], [ -53.008320705999893, -28.04800083 ], [ -53.0115239309999, -28.050548677999902 ], [ -53.007024865999895, -28.051777423 ], [ -53.005495709999899, -28.0543916039999 ] ] ] } }
]
}
