{
"type": "FeatureCollection",
"name": "bairros_sertao_santana",
"crs": { "type": "name", "properties": { "name": "urn:ogc:def:crs:OGC:1.3:CRS84" } },
"features": [
{ "type": "Feature", "properties": { "code_muni": 4320552.0, "name_muni": "Sertão Santana", "code_state": 43.0, "abbrev_state": "RS", "name_state": "Rio Grande do Sul", "code_region": 4.0, "name_region": "Sul", "year": 2022.0 }, "geometry": { "type": "Polygon", "coordinates": [ [ [ -51.650566413, -30.398889058 ], [ -51.536361579, -30.400115242 ], [ -51.535724581999901, -30.449348826999909 ], [ -51.531867302, -30.454111827 ], [ -51.524226697999893, -30.454683525 ], [ -51.52740906199989, -30.456681746999902 ], [ -51.529941386, -30.45584475 ], [ -51.531889033, -30.456575572 ], [ -51.5334003729999, -30.4604871569999 ], [ -51.524539021999892, -30.51003723 ], [ -51.535746677, -30.506917868 ], [ -51.53635674, -30.515114878 ], [ -51.539692219, -30.515323474999903 ], [ -51.546827239, -30.521547036999895 ], [ -51.555117475, -30.518585958999893 ], [ -51.563194138, -30.510795861 ], [ -51.574146035, -30.515013832 ], [ -51.582368212999903, -30.525233664 ], [ -51.585310972999899, -30.526792253999893 ], [ -51.589226771, -30.526381564 ], [ -51.590989508999897, -30.529553177 ], [ -51.599693736999903, -30.528961164999899 ], [ -51.604312841, -30.524281335 ], [ -51.612495947999896, -30.525293385999898 ], [ -51.61325672, -30.532069561999901 ], [ -51.620293666, -30.53383687 ], [ -51.620509603999892, -30.539735847 ], [ -51.623313626, -30.543132691 ], [ -51.627063404, -30.543647281999899 ], [ -51.62784801, -30.542737007 ], [ -51.631880409, -30.54327978 ], [ -51.633477566999893, -30.541864001 ], [ -51.636738871, -30.541898568 ], [ -51.641435982, -30.5399579639999 ], [ -51.642172815, -30.536041511 ], [ -51.646151945, -30.533084329 ], [ -51.648587382, -30.52578848 ], [ -51.652524028999899, -30.520921230999907 ], [ -51.659571348, -30.518350439999899 ], [ -51.658708044, -30.513689352 ], [ -51.661370185, -30.5132814799999 ], [ -51.664798221, -30.516556221 ], [ -51.666627032999891, -30.516593376999896 ], [ -51.672022124, -30.509997991 ], [ -51.676117951, -30.510630396999904 ], [ -51.679009099, -30.509000345999912 ], [ -51.688824622, -30.51490841 ], [ -51.688650126, -30.518188353 ], [ -51.691112324999899, -30.521535626999892 ], [ -51.693774463999901, -30.522768703999898 ], [ -51.695063647, -30.526855456 ], [ -51.698154807, -30.528486606999902 ], [ -51.700813743, -30.528380841999905 ], [ -51.702294047999899, -30.525177973 ], [ -51.705315821999903, -30.52435422699989 ], [ -51.710241173999989, -30.528388273 ], [ -51.712694308, -30.525752654 ], [ -51.715497823, -30.528336698 ], [ -51.720055692999892, -30.524823954999896 ], [ -51.722200164, -30.527919315 ], [ -51.723809243999902, -30.527658048 ], [ -51.724516084, -30.525936701 ], [ -51.733028170999894, -30.528211923999894 ], [ -51.739098062, -30.52741558 ], [ -51.739959768999896, -30.529173349000011 ], [ -51.741522846999892, -30.527766399 ], [ -51.743670486, -30.531880155999904 ], [ -51.749388048999897, -30.5352549569999 ], [ -51.752010304999899, -30.531378597999897 ], [ -51.751921212, -30.5259489379999 ], [ -51.754118165, -30.523453941999893 ], [ -51.757078996, -30.522643677 ], [ -51.75486125, -30.513674465 ], [ -51.756710109, -30.510802407 ], [ -51.755846955, -30.508576075999898 ], [ -51.7588619919999, -30.505428208999902 ], [ -51.756046442, -30.5037082549999 ], [ -51.755083428, -30.505223771 ], [ -51.752539396, -30.4999234329999 ], [ -51.749260094, -30.497114226999908 ], [ -51.749265194, -30.4892278959999 ], [ -51.751442385, -30.48236666 ], [ -51.748107053, -30.48039459599989 ], [ -51.74713786, -30.482357293 ], [ -51.74361762, -30.482369262999988 ], [ -51.738946219, -30.478800482999901 ], [ -51.736404338999897, -30.478551329 ], [ -51.734149868, -30.475783844 ], [ -51.730766023999898, -30.478909252999987 ], [ -51.731238706999903, -30.476755791999903 ], [ -51.726500170999898, -30.475035585999901 ], [ -51.725777659999892, -30.471369204999988 ], [ -51.723053670999903, -30.472525162 ], [ -51.720667858, -30.4755932969999 ], [ -51.718003375, -30.4737225699999 ], [ -51.712572929, -30.472695660999896 ], [ -51.714172966, -30.470756236999911 ], [ -51.714210170999891, -30.45897086 ], [ -51.717698950999903, -30.447930587 ], [ -51.715669246999902, -30.445879166999902 ], [ -51.704160413, -30.443140667 ], [ -51.700229072, -30.439857268 ], [ -51.686275652999896, -30.439443669999893 ], [ -51.680507889999902, -30.437684397999899 ], [ -51.691855834, -30.421625459 ], [ -51.687162322999896, -30.420694914 ], [ -51.687597395999902, -30.418735606 ], [ -51.680395178, -30.413246273 ], [ -51.68182677, -30.412331322999897 ], [ -51.68215119, -30.407647104 ], [ -51.68102536299989, -30.398634861999902 ], [ -51.678791112999896, -30.397002625 ], [ -51.674524624999897, -30.398269200999898 ], [ -51.67541283, -30.39454417 ], [ -51.6730205329999, -30.394007647 ], [ -51.672627915, -30.388637200999902 ], [ -51.67809127999989, -30.387871693 ], [ -51.680915925, -30.383683436999895 ], [ -51.650436584, -30.38392527 ], [ -51.650566413, -30.398889058 ] ] ] } }
]
}
