{
"type": "FeatureCollection",
"name": "bairros_parobe",
"crs": { "type": "name", "properties": { "name": "urn:ogc:def:crs:OGC:1.3:CRS84" } },
"features": [
{ "type": "Feature", "properties": { "name": "Imperatriz", "code_muni": 4314050.0, "name_muni": "Parobé" }, "geometry": { "type": "Polygon", "coordinates": [ [ [ -50.9059938, -29.6313788 ], [ -50.905991811539316, -29.631386240554146 ], [ -50.905993835801247, -29.631378806075311 ], [ -50.9059938, -29.6313788 ] ] ] } },
{ "type": "Feature", "properties": { "name": "Invernada", "code_muni": 4314050.0, "name_muni": "Parobé" }, "geometry": { "type": "MultiPolygon", "coordinates": [ [ [ [ -50.8210818, -29.6027494 ], [ -50.821332351885239, -29.602434525522863 ], [ -50.820097793575769, -29.602551217025297 ], [ -50.8210818, -29.6027494 ] ] ], [ [ [ -50.8226733, -29.6025054 ], [ -50.823840965982164, -29.602921728095307 ], [ -50.824020043, -29.602180442 ], [ -50.822180600688625, -29.602354341507695 ], [ -50.8226733, -29.6025054 ] ] ], [ [ [ -50.8233852, -29.6042573 ], [ -50.826074559718727, -29.603835287490856 ], [ -50.823572773, -29.604031887 ], [ -50.823607396666915, -29.603888567104288 ], [ -50.8233852, -29.6042573 ] ] ], [ [ [ -50.833655, -29.6015806 ], [ -50.8374798, -29.599317 ], [ -50.836843490072432, -29.597374506573065 ], [ -50.831029437, -29.5981131459999 ], [ -50.831387099203127, -29.60261469056622 ], [ -50.833655, -29.6015806 ] ] ], [ [ [ -50.815796461059129, -29.598476356914023 ], [ -50.815783281112068, -29.59851224926685 ], [ -50.8160599, -29.5986945 ], [ -50.816431, -29.5989786 ], [ -50.8192125, -29.6005651 ], [ -50.819637025112698, -29.600719517335566 ], [ -50.815830944514424, -29.598449268211116 ], [ -50.815796461059129, -29.598476356914023 ] ] ] ] } },
{ "type": "Feature", "properties": { "name": "Casa de Pedra", "code_muni": 4314050.0, "name_muni": "Parobé" }, "geometry": { "type": "MultiPolygon", "coordinates": [ [ [ [ -50.805834260279276, -29.616513586039375 ], [ -50.805792819150589, -29.616528268530793 ], [ -50.805810223282656, -29.616574046550394 ], [ -50.805834260279276, -29.616513586039375 ] ] ], [ [ [ -50.8078628, -29.616183 ], [ -50.8090215, -29.6157353 ], [ -50.80944172423181, -29.615235404146969 ], [ -50.807038720857641, -29.616086841034353 ], [ -50.8078628, -29.616183 ] ] ], [ [ [ -50.8098369, -29.6147653 ], [ -50.8098798, -29.6142056 ], [ -50.810309, -29.613161 ], [ -50.8105664, -29.6124148 ], [ -50.810425594964109, -29.611968000998274 ], [ -50.809680664290674, -29.614951159875805 ], [ -50.8098369, -29.6147653 ] ] ], [ [ [ -50.8111465, -29.6090318 ], [ -50.811027588314651, -29.608818168170149 ], [ -50.811137576836877, -29.609041060683861 ], [ -50.8111465, -29.6090318 ] ] ], [ [ [ -50.8122774, -29.6058286 ], [ -50.8132392, -29.6053097 ], [ -50.813274117642862, -29.605168799624913 ], [ -50.811686436748012, -29.605793225578967 ], [ -50.8122774, -29.6058286 ] ] ], [ [ [ -50.815830944514424, -29.598449268211116 ], [ -50.8158108169999, -29.598437261999898 ], [ -50.815796461059129, -29.598476356914023 ], [ -50.815830944514424, -29.598449268211116 ] ] ] ] } },
{ "type": "Feature", "properties": { "name": "Santa Maria", "code_muni": 4314050.0, "name_muni": "Parobé" }, "geometry": { "type": "MultiPolygon", "coordinates": [ [ [ [ -50.80249, -29.645678600000011 ], [ -50.8021351, -29.6451053 ], [ -50.8019286, -29.6446602 ], [ -50.8015884, -29.6443006 ], [ -50.801253244899712, -29.644122192137488 ], [ -50.802440696083444, -29.645708781767485 ], [ -50.80249, -29.645678600000011 ] ] ], [ [ [ -50.8014388, -29.6428383 ], [ -50.8016835, -29.6424683 ], [ -50.8021203, -29.6420102 ], [ -50.8024389, -29.6416575 ], [ -50.8026752, -29.6413012 ], [ -50.802683849215029, -29.641269661388183 ], [ -50.801160583061126, -29.643007442787347 ], [ -50.8014388, -29.6428383 ] ] ], [ [ [ -50.8029869, -29.6401646 ], [ -50.8031111, -29.6392666 ], [ -50.8033135, -29.6388457 ], [ -50.8036757, -29.6379105 ], [ -50.8037639, -29.6375835 ], [ -50.8036941, -29.6372012 ], [ -50.8035498, -29.6370065 ], [ -50.803393531237653, -29.636722223031711 ], [ -50.802719082280454, -29.641141186860537 ], [ -50.8029869, -29.6401646 ] ] ], [ [ [ -50.8035386, -29.6358257 ], [ -50.803541326344991, -29.635753821696003 ], [ -50.803526335593986, -29.635852046819462 ], [ -50.8035386, -29.6358257 ] ] ], [ [ [ -50.8056629, -29.6324825 ], [ -50.8059365, -29.632296 ], [ -50.8060652, -29.6320442 ], [ -50.8061189, -29.631895 ], [ -50.8061086, -29.631663100000011 ], [ -50.8064622, -29.6307246 ], [ -50.8066446, -29.6304122 ], [ -50.8073263, -29.6298072 ], [ -50.8081466, -29.6286589 ], [ -50.8082554, -29.6281659 ], [ -50.8089781, -29.6269196 ], [ -50.809143441913655, -29.626108029340948 ], [ -50.803882831811514, -29.634676030212127 ], [ -50.8056629, -29.6324825 ] ] ], [ [ [ -50.8104372, -29.6260056 ], [ -50.8105016, -29.6262854 ], [ -50.8105981, -29.6262901 ], [ -50.810781, -29.6262596 ], [ -50.8110005, -29.6261409 ], [ -50.8110889, -29.6259714 ], [ -50.8110541, -29.625795799999985 ], [ -50.8106748, -29.6253167 ], [ -50.8103465, -29.6250434 ], [ -50.8097951, -29.6248178 ], [ -50.809253072394114, -29.624594235589441 ], [ -50.810993305999894, -29.625977995999989 ], [ -50.810407026006416, -29.6259367001621 ], [ -50.8104372, -29.6260056 ] ] ], [ [ [ -50.8084041, -29.6231238 ], [ -50.808034, -29.6222611 ], [ -50.807937534337519, -29.622169175924974 ], [ -50.80859345130817, -29.623894199026918 ], [ -50.8084041, -29.6231238 ] ] ], [ [ [ -50.8070152, -29.6183842 ], [ -50.8069557, -29.6181526 ], [ -50.8068162, -29.6178029 ], [ -50.8066558, -29.6176054 ], [ -50.806152509076639, -29.617474350654401 ], [ -50.806928836490783, -29.619516238954581 ], [ -50.8070152, -29.6183842 ] ] ] ] } },
{ "type": "Feature", "properties": { "name": "Ronda", "code_muni": 4314050.0, "name_muni": "Parobé" }, "geometry": { "type": "MultiPolygon", "coordinates": [ [ [ [ -50.8017373, -29.6592939 ], [ -50.8021549, -29.6589382 ], [ -50.8024389, -29.6583393 ], [ -50.8025565, -29.6579398 ], [ -50.8025061, -29.6573431 ], [ -50.8023411, -29.6568381 ], [ -50.80230624071887, -29.656623278498451 ], [ -50.802295487, -29.656632953999988 ], [ -50.801215253347372, -29.659993463802589 ], [ -50.8017373, -29.6592939 ] ] ], [ [ [ -50.8034374, -29.6558848 ], [ -50.8036853, -29.6558428 ], [ -50.8040652, -29.6557871 ], [ -50.8045738, -29.6555405 ], [ -50.8055265, -29.654748500000011 ], [ -50.8066333, -29.6536882 ], [ -50.8069158, -29.6532354 ], [ -50.8070968, -29.6525898 ], [ -50.8072692, -29.6522238 ], [ -50.8072809, -29.651788499999984 ], [ -50.8071512, -29.651363699999987 ], [ -50.8069087, -29.650941 ], [ -50.8065368, -29.6504973 ], [ -50.8059711, -29.6500144 ], [ -50.80488, -29.6485649 ], [ -50.8038424, -29.6474285 ], [ -50.8026785, -29.6459832 ], [ -50.80249, -29.645678600000011 ], [ -50.802440696083444, -29.645708781767485 ], [ -50.80726829, -29.652158454 ], [ -50.802880561947475, -29.656106537367545 ], [ -50.8034374, -29.6558848 ] ] ] ] } },
{ "type": "Feature", "properties": { "name": "Cruzeiro do Sul", "code_muni": 4314050.0, "name_muni": "Parobé" }, "geometry": { "type": "MultiPolygon", "coordinates": [ [ [ [ -50.8104643, -29.685049500000016 ], [ -50.8101482, -29.6845187 ], [ -50.8092381, -29.6836412 ], [ -50.8089459, -29.6835322 ], [ -50.808720092255065, -29.683577692498972 ], [ -50.808954236, -29.683551117999986 ], [ -50.810503781954317, -29.685157634884103 ], [ -50.8104643, -29.685049500000016 ] ] ], [ [ [ -50.806125037661978, -29.683766346762976 ], [ -50.806178798, -29.683866092999907 ], [ -50.806289459925935, -29.683853535506497 ], [ -50.806125037661978, -29.683766346762976 ] ] ], [ [ [ -50.80532, -29.6821041 ], [ -50.8047182, -29.6811137 ], [ -50.8044795, -29.6801832 ], [ -50.804424, -29.6798138 ], [ -50.8040035, -29.6794247 ], [ -50.8033855, -29.6785823 ], [ -50.8031899, -29.6783916 ], [ -50.8029378, -29.678331 ], [ -50.8027383, -29.6783298 ], [ -50.8024766, -29.6784361 ], [ -50.802219956349376, -29.67856830493611 ], [ -50.803298997999896, -29.678522641 ], [ -50.805459212372149, -29.68253096496974 ], [ -50.80532, -29.6821041 ] ] ], [ [ [ -50.799605254120991, -29.678623515634616 ], [ -50.799641519, -29.678677385999894 ], [ -50.799717282864989, -29.678674181520613 ], [ -50.799605254120991, -29.678623515634616 ] ] ], [ [ [ -50.7971617, -29.6749223 ], [ -50.7968819, -29.6743561 ], [ -50.7964361, -29.6737494 ], [ -50.796288895920668, -29.673496333282976 ], [ -50.796304861999893, -29.673720601999896 ], [ -50.797153873813819, -29.674981909014125 ], [ -50.7971617, -29.6749223 ] ] ], [ [ [ -50.7962656, -29.673150700000011 ], [ -50.7964226, -29.6729382 ], [ -50.7965595, -29.6726541 ], [ -50.7966636, -29.6721247 ], [ -50.7965387, -29.6717277 ], [ -50.7961792, -29.671314 ], [ -50.7963916, -29.6706644 ], [ -50.7964495, -29.6701172 ], [ -50.7964499, -29.6698729 ], [ -50.796656, -29.669383 ], [ -50.7964724, -29.6690661 ], [ -50.795942672777187, -29.668632847833283 ], [ -50.796264454953715, -29.673153019564811 ], [ -50.7962656, -29.673150700000011 ] ] ], [ [ [ -50.7990448, -29.6674328 ], [ -50.8002716, -29.6670701 ], [ -50.8012713, -29.6665631 ], [ -50.8016718, -29.666515400000016 ], [ -50.8019561, -29.6663476 ], [ -50.8020519, -29.6661809 ], [ -50.8020902, -29.665802299999989 ], [ -50.80225320000001, -29.6652661 ], [ -50.802221, -29.6648817 ], [ -50.8018108, -29.6640924 ], [ -50.801565, -29.663415 ], [ -50.801104100000011, -29.6610942 ], [ -50.8010303, -29.6608041 ], [ -50.80103019279013, -29.660569146872682 ], [ -50.80099697, -29.660672495 ], [ -50.801749813999891, -29.666222122 ], [ -50.797811161202979, -29.667586902881272 ], [ -50.7990448, -29.6674328 ] ] ] ] } }
]
}
