{
"type": "FeatureCollection",
"name": "bairros_cristal",
"crs": { "type": "name", "properties": { "name": "urn:ogc:def:crs:OGC:1.3:CRS84" } },
"features": [
{ "type": "Feature", "properties": { "name": "Centro", "code_muni": 4306056.0, "name_muni": "Cristal" }, "geometry": { "type": "Polygon", "coordinates": [ [ [ -52.0530416, -31.0008884 ], [ -52.0525783, -30.9998768 ], [ -52.0519144, -30.998295 ], [ -52.0516857, -30.997759 ], [ -52.0514028, -30.9971379 ], [ -52.0512486, -30.9969057 ], [ -52.0496138, -30.9960359 ], [ -52.0496003, -30.996064799999985 ], [ -52.0495722, -30.9961849 ], [ -52.0494568, -30.9967931 ], [ -52.049304, -30.9974702 ], [ -52.0491674, -30.9976021 ], [ -52.0489774, -30.9974213 ], [ -52.0486737, -30.9971437 ], [ -52.048455, -30.9974253 ], [ -52.0475719, -30.998057599999989 ], [ -52.046098, -30.9991428 ], [ -52.045748, -30.999371 ], [ -52.0451881, -30.9997808 ], [ -52.0450459, -30.999910700000012 ], [ -52.0449581, -31.000064199999986 ], [ -52.0448716, -31.0006119 ], [ -52.0447388, -31.0006901 ], [ -52.0445725, -31.0008395 ], [ -52.0443673, -31.0010488 ], [ -52.0441675, -31.001258 ], [ -52.0435037, -31.0023627 ], [ -52.043049, -31.0031892 ], [ -52.0426333, -31.0038605 ], [ -52.0435587, -31.0040927 ], [ -52.044488, -31.0043364 ], [ -52.0455086, -31.0045893 ], [ -52.0463669, -31.0048042 ], [ -52.0465091, -31.0048686 ], [ -52.0476624, -31.0054313 ], [ -52.0485851, -31.0059054 ], [ -52.0489137, -31.006016899999988 ], [ -52.0493281, -31.0049238 ], [ -52.0500764, -31.0048904 ], [ -52.0503849, -31.004856 ], [ -52.0510126, -31.0048376 ], [ -52.0518289, -31.0047343 ], [ -52.0517519, -31.0039847 ], [ -52.051744, -31.0038985 ], [ -52.0516859, -31.003264600000012 ], [ -52.051952, -31.0032472 ], [ -52.0525508, -31.0031926 ], [ -52.0528767, -31.0031271 ], [ -52.0526433, -31.0010901 ], [ -52.0530577, -31.0009189 ], [ -52.0530416, -31.0008884 ] ] ] } },
{ "type": "Feature", "properties": { "name": "Panorama", "code_muni": 4306056.0, "name_muni": "Cristal" }, "geometry": { "type": "Polygon", "coordinates": [ [ [ -52.0562911, -30.9957148 ], [ -52.0555589, -30.9945467 ], [ -52.0553175, -30.9944571 ], [ -52.0551834, -30.993965 ], [ -52.0566505, -30.9939489 ], [ -52.0565647, -30.9914887 ], [ -52.0517421, -30.9915761 ], [ -52.0516656, -30.9915565 ], [ -52.0511037, -30.992705 ], [ -52.0507698, -30.9933488 ], [ -52.0504466, -30.9939708 ], [ -52.050059, -30.9945663 ], [ -52.050004, -30.9947175 ], [ -52.0499289, -30.9953411 ], [ -52.0497559, -30.9957481 ], [ -52.0496138, -30.9960359 ], [ -52.0512486, -30.9969057 ], [ -52.0514028, -30.9971379 ], [ -52.0514256, -30.9970138 ], [ -52.0539871, -30.9983243 ], [ -52.0552236, -30.9987956 ], [ -52.0549554, -30.9969241 ], [ -52.057187, -30.9968965 ], [ -52.0562911, -30.9957148 ] ] ] } },
{ "type": "Feature", "properties": { "name": "Crespo", "code_muni": 4306056.0, "name_muni": "Cristal" }, "geometry": { "type": "Polygon", "coordinates": [ [ [ -52.0544243, -31.0048329 ], [ -52.0565701, -31.001504 ], [ -52.0613551, -31.003416800000011 ], [ -52.0621276, -31.000897 ], [ -52.0585871, -30.9998026 ], [ -52.0581257, -30.998276 ], [ -52.057187, -30.9968965 ], [ -52.0549554, -30.9969241 ], [ -52.0552236, -30.9987956 ], [ -52.0539871, -30.9983243 ], [ -52.0514256, -30.9970138 ], [ -52.0514028, -30.9971379 ], [ -52.0516857, -30.997759 ], [ -52.0519144, -30.998295 ], [ -52.0525783, -30.9998768 ], [ -52.0530416, -31.0008884 ], [ -52.0530577, -31.0009189 ], [ -52.0526433, -31.0010901 ], [ -52.0528767, -31.0031271 ], [ -52.0529813, -31.003959300000012 ], [ -52.0539361, -31.0042812 ], [ -52.0544243, -31.0048329 ] ] ] } },
{ "type": "Feature", "properties": { "name": "Beira Rio", "code_muni": 4306056.0, "name_muni": "Cristal" }, "geometry": { "type": "Polygon", "coordinates": [ [ [ -52.0544243, -31.0048329 ], [ -52.0539361, -31.0042812 ], [ -52.0529813, -31.003959300000012 ], [ -52.0528767, -31.0031271 ], [ -52.0525508, -31.0031926 ], [ -52.051952, -31.0032472 ], [ -52.0516859, -31.003264600000012 ], [ -52.051744, -31.0038985 ], [ -52.0517519, -31.0039847 ], [ -52.0518289, -31.0047343 ], [ -52.0510126, -31.0048376 ], [ -52.0503849, -31.004856 ], [ -52.0500764, -31.0048904 ], [ -52.0493281, -31.0049238 ], [ -52.0489137, -31.006016899999988 ], [ -52.0485851, -31.0059054 ], [ -52.0476624, -31.0054313 ], [ -52.0465091, -31.0048686 ], [ -52.0461349, -31.0054514 ], [ -52.0457326, -31.006018099999988 ], [ -52.042713, -31.0101804 ], [ -52.0474027, -31.011207 ], [ -52.0543255, -31.0101551 ], [ -52.0552019, -31.0099597 ], [ -52.0544243, -31.0048329 ] ] ] } },
{ "type": "Feature", "properties": { "name": "Areal", "code_muni": 4306056.0, "name_muni": "Cristal" }, "geometry": { "type": "Polygon", "coordinates": [ [ [ -52.0457326, -31.006018099999988 ], [ -52.0461349, -31.0054514 ], [ -52.0465091, -31.0048686 ], [ -52.0463669, -31.0048042 ], [ -52.0455086, -31.0045893 ], [ -52.044488, -31.0043364 ], [ -52.0435587, -31.0040927 ], [ -52.0426333, -31.0038605 ], [ -52.043049, -31.0031892 ], [ -52.0435037, -31.0023627 ], [ -52.042695, -31.0020109 ], [ -52.0416548, -31.0014768 ], [ -52.0402582, -31.003131700000012 ], [ -52.040053, -31.0033122 ], [ -52.0390928, -31.0045065 ], [ -52.0422015, -31.0056353 ], [ -52.0427942, -31.0066353 ], [ -52.0407342, -31.0091995 ], [ -52.0418452, -31.0098461 ], [ -52.042713, -31.0101804 ], [ -52.0457326, -31.006018099999988 ] ] ] } },
{ "type": "Feature", "properties": { "name": "Longaray", "code_muni": 4306056.0, "name_muni": "Cristal" }, "geometry": { "type": "Polygon", "coordinates": [ [ [ -52.0489774, -30.9974213 ], [ -52.0491674, -30.9976021 ], [ -52.049304, -30.9974702 ], [ -52.0494568, -30.9967931 ], [ -52.0495722, -30.9961849 ], [ -52.0496003, -30.996064799999985 ], [ -52.0496138, -30.9960359 ], [ -52.0475954, -30.9950089 ], [ -52.0474586, -30.9950707 ], [ -52.0472172, -30.9949123 ], [ -52.0468055, -30.9947226 ], [ -52.0454831, -30.9940938 ], [ -52.0451546, -30.9939283 ], [ -52.0445699, -30.9935713 ], [ -52.0437008, -30.9931166 ], [ -52.0431979, -30.9928384 ], [ -52.04299, -30.9927666 ], [ -52.0425438, -30.9925478 ], [ -52.0414893, -30.9919842 ], [ -52.0413639, -30.9920612 ], [ -52.0422994, -30.99269760000001 ], [ -52.0448394, -30.9944169 ], [ -52.0453062, -30.9947399 ], [ -52.0453616, -30.9950636 ], [ -52.0453101, -30.9952538 ], [ -52.0448622, -30.9957964 ], [ -52.0431422, -30.9978461 ], [ -52.0429873, -30.9980358 ], [ -52.0429605, -30.9981372 ], [ -52.0429468, -30.9981539 ], [ -52.0406055, -31.0009993 ], [ -52.0416548, -31.0014768 ], [ -52.042695, -31.0020109 ], [ -52.0435037, -31.0023627 ], [ -52.0441675, -31.001258 ], [ -52.0443673, -31.0010488 ], [ -52.0445725, -31.0008395 ], [ -52.0447388, -31.0006901 ], [ -52.0448716, -31.0006119 ], [ -52.0449581, -31.000064199999986 ], [ -52.0450459, -30.999910700000012 ], [ -52.0451881, -30.9997808 ], [ -52.045748, -30.999371 ], [ -52.046098, -30.9991428 ], [ -52.0475719, -30.998057599999989 ], [ -52.048455, -30.9974253 ], [ -52.0486737, -30.9971437 ], [ -52.0489774, -30.9974213 ] ] ] } }
]
}
