{
"type": "FeatureCollection",
"name": "bairros_ametista_do_sul",
"crs": { "type": "name", "properties": { "name": "urn:ogc:def:crs:OGC:1.3:CRS84" } },
"features": [
{ "type": "Feature", "properties": { "code_muni": 4300646.0, "name_muni": "Ametista do Sul", "code_state": 43.0, "abbrev_state": "RS", "name_state": "Rio Grande do Sul", "code_region": 4.0, "name_region": "Sul", "year": 2022.0 }, "geometry": { "type": "Polygon", "coordinates": [ [ [ -53.168524782, -27.350090905999895 ], [ -53.161356809, -27.3494524709999 ], [ -53.156199753, -27.355133576999897 ], [ -53.151119915, -27.352606769 ], [ -53.146265383, -27.355391746999899 ], [ -53.144876773, -27.352216751 ], [ -53.134996096999892, -27.360292779 ], [ -53.131817143, -27.354729657999897 ], [ -53.125984682, -27.362271558 ], [ -53.122040015, -27.364648972999898 ], [ -53.113255846, -27.376469785 ], [ -53.114897590999902, -27.377103754 ], [ -53.115834026, -27.3843116359999 ], [ -53.118652379, -27.385113637 ], [ -53.119121185, -27.388851573 ], [ -53.120913588999898, -27.389894303999895 ], [ -53.118823861999893, -27.391795083 ], [ -53.121112659999895, -27.397067718999896 ], [ -53.124840774999896, -27.396020022999899 ], [ -53.1413279779999, -27.403837882999898 ], [ -53.142838851, -27.40564834 ], [ -53.146977348999897, -27.401075141 ], [ -53.150294506, -27.40350747 ], [ -53.157027082, -27.404274740999895 ], [ -53.16381532899991, -27.407061572 ], [ -53.167330809, -27.405232703 ], [ -53.170820057999897, -27.40527695 ], [ -53.173569993999891, -27.403165430999898 ], [ -53.175721775999897, -27.404114845 ], [ -53.177457279, -27.402840083999898 ], [ -53.182842991, -27.405331879 ], [ -53.1830154949999, -27.409086849999895 ], [ -53.189189826, -27.408739633 ], [ -53.194556628, -27.413207794999902 ], [ -53.199360913, -27.413289711999898 ], [ -53.204439874999892, -27.412004153999899 ], [ -53.22113562, -27.402171947999893 ], [ -53.221322194, -27.399888376 ], [ -53.21982473, -27.398265229999897 ], [ -53.210363223999892, -27.399042317999896 ], [ -53.204003298, -27.397622994999896 ], [ -53.206940244999899, -27.392919074 ], [ -53.216715902, -27.384404302 ], [ -53.219175466, -27.384096386999897 ], [ -53.233755626999901, -27.397014414999887 ], [ -53.2366074299999, -27.397599149 ], [ -53.238562526, -27.396260201 ], [ -53.239214332, -27.39343557 ], [ -53.235861435999901, -27.384959223 ], [ -53.23613630099991, -27.381429932999897 ], [ -53.245902317999892, -27.369136328 ], [ -53.248578881999897, -27.368464 ], [ -53.255853617999897, -27.372419953 ], [ -53.267004003, -27.374030809 ], [ -53.265688939, -27.369238942 ], [ -53.252230042999891, -27.360580366 ], [ -53.248552258, -27.352564931 ], [ -53.24903138, -27.349162184 ], [ -53.251240773999903, -27.347894010999909 ], [ -53.263418578, -27.350206152999899 ], [ -53.265764992, -27.349167269 ], [ -53.265872566, -27.346020662999901 ], [ -53.261660836, -27.343795681999893 ], [ -53.257040639, -27.343290201999899 ], [ -53.255915138, -27.3421832719999 ], [ -53.257624601, -27.339676446999896 ], [ -53.25213608, -27.337578852 ], [ -53.249926828999897, -27.326713165999905 ], [ -53.245934416, -27.32839452 ], [ -53.24601545, -27.321248429 ], [ -53.228397519999895, -27.3217406529999 ], [ -53.227956949, -27.306014229 ], [ -53.222766615999902, -27.305922838 ], [ -53.224061219, -27.308999116999896 ], [ -53.219872471, -27.309993511 ], [ -53.211412541, -27.310128081 ], [ -53.204170406999893, -27.312895067999904 ], [ -53.202305305, -27.311856419 ], [ -53.201316786999897, -27.316994839 ], [ -53.206911207, -27.318299532 ], [ -53.211679699999891, -27.317231885 ], [ -53.214789009, -27.321626062 ], [ -53.214424809, -27.324701223999988 ], [ -53.213035009, -27.325621981 ], [ -53.200037659, -27.323071088999903 ], [ -53.198215710999889, -27.320421113999906 ], [ -53.198106653, -27.316056455 ], [ -53.194143794, -27.315105092 ], [ -53.195399056, -27.322471435999905 ], [ -53.18735899, -27.323040361 ], [ -53.185539601999892, -27.326581629 ], [ -53.183289435999896, -27.327252519 ], [ -53.182793476, -27.333429269 ], [ -53.187053356, -27.336959948999898 ], [ -53.180898457999895, -27.338966136 ], [ -53.180057808999898, -27.340867977 ], [ -53.175766235, -27.338762691999897 ], [ -53.172135344, -27.340244621999897 ], [ -53.173024532999889, -27.343392944999898 ], [ -53.181810572, -27.353195108 ], [ -53.169832153999891, -27.354217225999896 ], [ -53.167650672, -27.352507735 ], [ -53.168524782, -27.350090905999895 ] ] ] } }
]
}
