{
"type": "FeatureCollection",
"name": "bairros_bento_goncalves",
"crs": { "type": "name", "properties": { "name": "urn:ogc:def:crs:OGC:1.3:CRS84" } },
"features": [
{ "type": "Feature", "properties": { "code_muni": 4302105.0, "name_muni": "Bento Gonçalves", "code_state": 43.0, "abbrev_state": "RS", "name_state": "Rio Grande do Sul", "code_region": 4.0, "name_region": "Sul", "year": 2022.0 }, "geometry": { "type": "Polygon", "coordinates": [ [ [ -51.502018494135697, -29.197728633332304 ], [ -51.522992589002996, -29.198969232447396 ], [ -51.523232886113796, -29.1967505736663 ], [ -51.55611492233519, -29.196690818971799 ], [ -51.654081955638098, -29.198145320333396 ], [ -51.654162496, -29.194467511 ], [ -51.660371572, -29.192707914 ], [ -51.662156535, -29.189497522999904 ], [ -51.665310976999891, -29.188375026999896 ], [ -51.616651949, -29.187239721999987 ], [ -51.616772719, -29.167261661999902 ], [ -51.588439757999893, -29.16753126 ], [ -51.588774744, -29.1582484649999 ], [ -51.603835542999903, -29.158219022 ], [ -51.604087271, -29.144986936999896 ], [ -51.614782123999902, -29.144798857999895 ], [ -51.61504337, -29.125300207 ], [ -51.626183748999892, -29.125088395 ], [ -51.62696761, -29.109886037 ], [ -51.6376783219999, -29.109695363999901 ], [ -51.637656525, -29.099091447 ], [ -51.649196706999902, -29.099017214 ], [ -51.64933601, -29.093755165999902 ], [ -51.672404145, -29.093673450999987 ], [ -51.672276402, -29.088666090999894 ], [ -51.681712649, -29.088989906999892 ], [ -51.680277453, -29.074200188 ], [ -51.677884083, -29.071340027 ], [ -51.675314232999895, -29.070949074999906 ], [ -51.667329305, -29.073340828 ], [ -51.652065851, -29.085673315 ], [ -51.64785297, -29.08738561 ], [ -51.637509833, -29.088870326999903 ], [ -51.635198665, -29.087978657999894 ], [ -51.634157548, -29.085807483999893 ], [ -51.633660912, -29.073073906999987 ], [ -51.640689837, -29.062315065999901 ], [ -51.649402827999893, -29.060638771999894 ], [ -51.676220139, -29.064976589 ], [ -51.678240501999895, -29.063683582999893 ], [ -51.679102079, -29.060286816 ], [ -51.67830489499989, -29.057995268999893 ], [ -51.664742716, -29.043821769 ], [ -51.657105444, -29.020329389 ], [ -51.651763151, -29.014216306 ], [ -51.642318377, -29.013114592 ], [ -51.633920331, -29.01427755 ], [ -51.632121517, -29.015514744 ], [ -51.629322842, -29.020728952999903 ], [ -51.628893827, -29.024595087000012 ], [ -51.634814242999902, -29.041865049 ], [ -51.633425702999901, -29.043875570999905 ], [ -51.63123989, -29.044306843999902 ], [ -51.623547024999901, -29.040943274 ], [ -51.619725327, -29.040850118 ], [ -51.617124359999899, -29.04254395 ], [ -51.61100385, -29.057897119 ], [ -51.602652357, -29.064657118 ], [ -51.601288517999897, -29.061669675 ], [ -51.603777814, -29.0494202369999 ], [ -51.601472144, -29.046085509 ], [ -51.594830005999903, -29.04471953 ], [ -51.580138868999896, -29.04827039 ], [ -51.572862712999893, -29.047784421999904 ], [ -51.56608312, -29.045619573 ], [ -51.564365736999896, -29.043855860999894 ], [ -51.564542951, -29.033892971999897 ], [ -51.563021809, -29.028026168999904 ], [ -51.554601939999898, -29.016204586 ], [ -51.54479443799989, -29.0159743 ], [ -51.536608398999896, -29.018346542 ], [ -51.533758980999892, -29.021459857 ], [ -51.535728010999897, -29.025714993999902 ], [ -51.543906643999897, -29.035938141 ], [ -51.556577129999894, -29.044828966999912 ], [ -51.555787381999899, -29.051784588 ], [ -51.54899353, -29.056277349 ], [ -51.539501749, -29.05599029 ], [ -51.534863674, -29.058011695999898 ], [ -51.528255917, -29.070482012999904 ], [ -51.519824532, -29.079230012 ], [ -51.51038987, -29.081945533 ], [ -51.503977851999899, -29.081786993 ], [ -51.500613207, -29.084987681 ], [ -51.496138941, -29.084214594999899 ], [ -51.493262151, -29.08560668 ], [ -51.493313241999893, -29.087944658 ], [ -51.497099859999892, -29.087028556999901 ], [ -51.497897194, -29.09582283799989 ], [ -51.500916141999895, -29.097141511 ], [ -51.501439359, -29.102824949 ], [ -51.497459493999891, -29.106461203 ], [ -51.498518234, -29.111026185999908 ], [ -51.503009022, -29.1130377379999 ], [ -51.502106227999903, -29.1142773199999 ], [ -51.51138545, -29.1139297409999 ], [ -51.511358889, -29.122073117999907 ], [ -51.486602262, -29.122201638 ], [ -51.479420564, -29.127532295 ], [ -51.476517972000011, -29.131461346 ], [ -51.473554855, -29.132276861 ], [ -51.473807442999899, -29.133788888 ], [ -51.47683979, -29.135209086 ], [ -51.4751439, -29.139378876 ], [ -51.478732685, -29.141441753 ], [ -51.480538840999891, -29.145353498 ], [ -51.478221948999902, -29.146766231 ], [ -51.474081148, -29.145331299 ], [ -51.47390139, -29.149393785 ], [ -51.467342598999899, -29.154578972 ], [ -51.468607603999899, -29.156606484 ], [ -51.467085918, -29.161926440999899 ], [ -51.468209467999891, -29.163647809999901 ], [ -51.466526535, -29.165669475999891 ], [ -51.461174168999896, -29.162904012 ], [ -51.458737038, -29.165593235 ], [ -51.45815178, -29.168717893999904 ], [ -51.423284673, -29.165037970999897 ], [ -51.423151945, -29.156165256999898 ], [ -51.388457, -29.156012389999894 ], [ -51.388248879999892, -29.175759555 ], [ -51.390940348, -29.175822803999889 ], [ -51.390736048, -29.197088509 ], [ -51.453785083, -29.197526395 ], [ -51.484764043, -29.19941384299991 ], [ -51.484956036, -29.198332643999898 ], [ -51.502018494135697, -29.197728633332304 ] ] ] } }
]
}
