{
"type": "FeatureCollection",
"name": "bairros_carlos_barbosa",
"crs": { "type": "name", "properties": { "name": "urn:ogc:def:crs:OGC:1.3:CRS84" } },
"features": [
{ "type": "Feature", "properties": { "name": "Bela Vista", "code_muni": 4304804.0, "name_muni": "Carlos Barbosa" }, "geometry": { "type": "Polygon", "coordinates": [ [ [ -51.4859878, -29.2907629 ], [ -51.485808, -29.2910039 ], [ -51.4855452, -29.2914624 ], [ -51.4853735, -29.2918542 ], [ -51.4852005, -29.2923361 ], [ -51.4851576, -29.2926472 ], [ -51.4850181, -29.2943829 ], [ -51.4910692, -29.2944131 ], [ -51.4925035, -29.2944248 ], [ -51.49398750000001, -29.2944178 ], [ -51.4957196, -29.2943992 ], [ -51.4957188, -29.2942904 ], [ -51.4957181, -29.29367 ], [ -51.4957497, -29.2930998 ], [ -51.495765, -29.2930779 ], [ -51.4957889, -29.2930618 ], [ -51.4965946, -29.292556 ], [ -51.4963987, -29.2923922 ], [ -51.496262, -29.2922355 ], [ -51.4960876, -29.2919712 ], [ -51.4952895, -29.2904037 ], [ -51.4947645, -29.289400600000011 ], [ -51.4934822, -29.2894392 ], [ -51.4925498, -29.2894352 ], [ -51.4924479, -29.2903992 ], [ -51.4921124, -29.2903889 ], [ -51.4897945, -29.2903798 ], [ -51.4890488, -29.2903751 ], [ -51.4882975, -29.2903705 ], [ -51.4863566, -29.2903407 ], [ -51.4859878, -29.2907629 ] ] ] } },
{ "type": "Feature", "properties": { "name": "Aurora", "code_muni": 4304804.0, "name_muni": "Carlos Barbosa" }, "geometry": { "type": "Polygon", "coordinates": [ [ [ -51.4849591, -29.2950309 ], [ -51.4849216, -29.2954145 ], [ -51.4848572, -29.2957934 ], [ -51.4847311, -29.29617 ], [ -51.484574, -29.29645 ], [ -51.4844039, -29.3025113 ], [ -51.4964222, -29.3033188 ], [ -51.4964598, -29.3033206 ], [ -51.4966797, -29.3029826 ], [ -51.4969915, -29.3027657 ], [ -51.4976782, -29.3019471 ], [ -51.4978807, -29.3015891 ], [ -51.4979189, -29.3014084 ], [ -51.497815, -29.3008289 ], [ -51.4976337, -29.299793 ], [ -51.4975962, -29.2995488 ], [ -51.4976219, -29.2993536 ], [ -51.4977031, -29.2989253 ], [ -51.4978438, -29.298422 ], [ -51.4981163, -29.2973302 ], [ -51.4981431, -29.297220599999989 ], [ -51.4984813, -29.2958484 ], [ -51.4985111, -29.2957323 ], [ -51.4986424, -29.2952429 ], [ -51.4987054, -29.2949232 ], [ -51.4987467, -29.2945646 ], [ -51.4987363, -29.2937451 ], [ -51.4988087, -29.2927583 ], [ -51.4987215, -29.2927419 ], [ -51.4986245, -29.292731 ], [ -51.4975346, -29.2927118 ], [ -51.4971793, -29.292708 ], [ -51.4969634, -29.2926718 ], [ -51.4965946, -29.292556 ], [ -51.4957889, -29.2930618 ], [ -51.495765, -29.2930779 ], [ -51.4957497, -29.2930998 ], [ -51.4957181, -29.29367 ], [ -51.4957188, -29.2942904 ], [ -51.4957196, -29.2943992 ], [ -51.49398750000001, -29.2944178 ], [ -51.4925035, -29.2944248 ], [ -51.4910692, -29.2944131 ], [ -51.4850181, -29.2943829 ], [ -51.4849591, -29.2950309 ] ] ] } },
{ "type": "Feature", "properties": { "name": "Triângulo", "code_muni": 4304804.0, "name_muni": "Carlos Barbosa" }, "geometry": { "type": "Polygon", "coordinates": [ [ [ -51.4869507, -29.2769017 ], [ -51.4871994, -29.2771481 ], [ -51.48729620000001, -29.2772725 ], [ -51.4873966, -29.277403 ], [ -51.487465, -29.2774898 ], [ -51.4875052, -29.2775603 ], [ -51.4875689, -29.2776984 ], [ -51.4876115, -29.2778369 ], [ -51.4876239, -29.2779452 ], [ -51.4876112, -29.2781049 ], [ -51.4875676, -29.2782569 ], [ -51.4874241, -29.2786968 ], [ -51.4873731, -29.2789003 ], [ -51.48731810000001, -29.279236 ], [ -51.4873094, -29.2794811 ], [ -51.4873208, -29.2796232 ], [ -51.4873309, -29.2796607 ], [ -51.4873483, -29.2797455 ], [ -51.4874113, -29.2798853 ], [ -51.4875817, -29.2800461 ], [ -51.4878023, -29.2802163 ], [ -51.4884198, -29.2806824 ], [ -51.4885538, -29.2807729 ], [ -51.4891481, -29.2811188 ], [ -51.4895444, -29.2812907 ], [ -51.4901935, -29.2814533 ], [ -51.4908305, -29.2814755 ], [ -51.4909618, -29.2815151 ], [ -51.4915748, -29.2815773 ], [ -51.4914393, -29.2819703 ], [ -51.4913696, -29.2823353 ], [ -51.4913562, -29.282871 ], [ -51.4914662, -29.2833389 ], [ -51.4917049, -29.2841297 ], [ -51.4918202, -29.2844525 ], [ -51.4918631, -29.2847286 ], [ -51.4918524, -29.2850233 ], [ -51.4917907, -29.2853719 ], [ -51.4916673, -29.2857392 ], [ -51.4914769, -29.2860597 ], [ -51.4911711, -29.2864316 ], [ -51.4906856, -29.2867966 ], [ -51.4900339, -29.2871873 ], [ -51.4894866, -29.2874674 ], [ -51.4891038, -29.2877247 ], [ -51.4889026, -29.287869799999989 ], [ -51.4887149, -29.287999 ], [ -51.4885291, -29.2881558 ], [ -51.4883655, -29.2882926 ], [ -51.4880222, -29.2885885 ], [ -51.4866892, -29.2900015 ], [ -51.4863566, -29.2903407 ], [ -51.4882975, -29.2903705 ], [ -51.4890488, -29.2903751 ], [ -51.4897945, -29.2903798 ], [ -51.4921124, -29.2903889 ], [ -51.4924479, -29.2903992 ], [ -51.4925498, -29.2894352 ], [ -51.4934822, -29.2894392 ], [ -51.4947645, -29.289400600000011 ], [ -51.4946291, -29.28910320000001 ], [ -51.4948649, -29.2890901 ], [ -51.4949175, -29.2890845 ], [ -51.4949685, -29.289088 ], [ -51.4949966, -29.2891055 ], [ -51.495012, -29.2891365 ], [ -51.4950261, -29.2892968 ], [ -51.4950744, -29.2894851 ], [ -51.4951757, -29.2896617 ], [ -51.49524670000001, -29.289743 ], [ -51.4952809, -29.2897623 ], [ -51.4953051, -29.2897675 ], [ -51.4954613, -29.2897675 ], [ -51.4959052, -29.2897792 ], [ -51.4972002, -29.289773 ], [ -51.4977959, -29.2897805 ], [ -51.4981033, -29.2897863 ], [ -51.4992727, -29.2897699 ], [ -51.499714, -29.289761699999985 ], [ -51.500347, -29.289775699999989 ], [ -51.5004583, -29.2897956 ], [ -51.5009116, -29.2899114 ], [ -51.5009183, -29.2896822 ], [ -51.500925, -29.2894927 ], [ -51.5009236, -29.2891137 ], [ -51.5008928, -29.2888587 ], [ -51.5008881, -29.2886371 ], [ -51.5009344, -29.2884394 ], [ -51.5009927, -29.2882628 ], [ -51.5012455, -29.2874721 ], [ -51.5013944, -29.2871849 ], [ -51.501731, -29.2866012 ], [ -51.5019308, -29.2862024 ], [ -51.50200430000001, -29.286074699999986 ], [ -51.5021438, -29.285824399999989 ], [ -51.5026148, -29.2851111 ], [ -51.502651, -29.2850128 ], [ -51.502659, -29.284945 ], [ -51.5026711, -29.2847964 ], [ -51.5026617, -29.284115599999989 ], [ -51.5026429, -29.2834571 ], [ -51.5026423, -29.2827845 ], [ -51.50265430000001, -29.282144200000012 ], [ -51.5026394, -29.2819614 ], [ -51.5025544, -29.279839 ], [ -51.4986383, -29.2781919 ], [ -51.493860088674623, -29.27635211256046 ], [ -51.490620879999895, -29.276447969999907 ], [ -51.490632170361707, -29.276059250520358 ], [ -51.4862293, -29.2764026 ], [ -51.4869507, -29.2769017 ] ] ] } },
{ "type": "Feature", "properties": { "name": "Navegantes", "code_muni": 4304804.0, "name_muni": "Carlos Barbosa" }, "geometry": { "type": "Polygon", "coordinates": [ [ [ -51.5168882, -29.2900389 ], [ -51.5168658, -29.289099 ], [ -51.5168453, -29.2882399 ], [ -51.5158796, -29.288176799999988 ], [ -51.5156329, -29.286558 ], [ -51.5093887, -29.282852299999984 ], [ -51.5071249, -29.2802508 ], [ -51.5025544, -29.279839 ], [ -51.5026394, -29.2819614 ], [ -51.50265430000001, -29.282144200000012 ], [ -51.5026423, -29.2827845 ], [ -51.5026429, -29.2834571 ], [ -51.5026617, -29.284115599999989 ], [ -51.5026711, -29.2847964 ], [ -51.502659, -29.284945 ], [ -51.502651, -29.2850128 ], [ -51.5026148, -29.2851111 ], [ -51.5021438, -29.285824399999989 ], [ -51.50200430000001, -29.286074699999986 ], [ -51.5019308, -29.2862024 ], [ -51.501731, -29.2866012 ], [ -51.5013944, -29.2871849 ], [ -51.5012455, -29.2874721 ], [ -51.5009927, -29.2882628 ], [ -51.5009344, -29.2884394 ], [ -51.5008881, -29.2886371 ], [ -51.5008928, -29.2888587 ], [ -51.5009236, -29.2891137 ], [ -51.500925, -29.2894927 ], [ -51.5009183, -29.2896822 ], [ -51.5009116, -29.2899114 ], [ -51.5023249, -29.2899185 ], [ -51.5038928, -29.289936 ], [ -51.504764, -29.2899421 ], [ -51.505596, -29.2899067 ], [ -51.5066855, -29.2898081 ], [ -51.5075585, -29.2898081 ], [ -51.5084227, -29.289808099999988 ], [ -51.5089517, -29.2898081 ], [ -51.5094798, -29.2897494 ], [ -51.5094127, -29.2905597 ], [ -51.5106412, -29.2905618 ], [ -51.5117976, -29.2905574 ], [ -51.5126599, -29.290562699999985 ], [ -51.512995, -29.2905846 ], [ -51.5141846, -29.2905924 ], [ -51.5164783, -29.2906075 ], [ -51.5172187, -29.2906124 ], [ -51.5183473, -29.2906284 ], [ -51.5183044, -29.2900389 ], [ -51.5168882, -29.2900389 ] ] ] } },
{ "type": "Feature", "properties": { "name": "Vila Nova", "code_muni": 4304804.0, "name_muni": "Carlos Barbosa" }, "geometry": { "type": "Polygon", "coordinates": [ [ [ -51.5024941, -29.290482199999989 ], [ -51.5025424, -29.2906769 ], [ -51.5026567, -29.291027499999988 ], [ -51.5026704, -29.2910793 ], [ -51.5026107, -29.2913384 ], [ -51.5025383, -29.29146 ], [ -51.5023747, -29.29157 ], [ -51.5021802, -29.2916483 ], [ -51.5019022, -29.2917368 ], [ -51.5030788, -29.291764100000012 ], [ -51.5041316, -29.2917747 ], [ -51.5048801, -29.2917775 ], [ -51.5048864, -29.2923675 ], [ -51.5048895, -29.2926602 ], [ -51.505736, -29.2926772 ], [ -51.5067113, -29.2926976 ], [ -51.5067431, -29.2926974 ], [ -51.5072936, -29.2926914 ], [ -51.5075213, -29.292681 ], [ -51.5078655, -29.2926893 ], [ -51.5083844, -29.2927074 ], [ -51.5094785, -29.292718 ], [ -51.5105446, -29.2927205 ], [ -51.5121965, -29.2927305 ], [ -51.5141206, -29.2927422 ], [ -51.5150109, -29.2927476 ], [ -51.5192362, -29.2928179 ], [ -51.5183473, -29.2906284 ], [ -51.5172187, -29.2906124 ], [ -51.5164783, -29.2906075 ], [ -51.5141846, -29.2905924 ], [ -51.512995, -29.2905846 ], [ -51.5126599, -29.290562699999985 ], [ -51.5117976, -29.2905574 ], [ -51.5106412, -29.2905618 ], [ -51.5094127, -29.2905597 ], [ -51.5094798, -29.2897494 ], [ -51.5089517, -29.2898081 ], [ -51.5084227, -29.289808099999988 ], [ -51.5075585, -29.2898081 ], [ -51.5066855, -29.2898081 ], [ -51.505596, -29.2899067 ], [ -51.504764, -29.2899421 ], [ -51.5038928, -29.289936 ], [ -51.5023249, -29.2899185 ], [ -51.5024941, -29.290482199999989 ] ] ] } },
{ "type": "Feature", "properties": { "name": "Vitória", "code_muni": 4304804.0, "name_muni": "Carlos Barbosa" }, "geometry": { "type": "Polygon", "coordinates": [ [ [ -51.5192362, -29.2928179 ], [ -51.5150109, -29.2927476 ], [ -51.5141206, -29.2927422 ], [ -51.5121965, -29.2927305 ], [ -51.5105446, -29.2927205 ], [ -51.5094785, -29.292718 ], [ -51.5083844, -29.2927074 ], [ -51.5078655, -29.2926893 ], [ -51.5075213, -29.292681 ], [ -51.5072936, -29.2926914 ], [ -51.5067431, -29.2926974 ], [ -51.5067113, -29.2926976 ], [ -51.505736, -29.2926772 ], [ -51.5048895, -29.2926602 ], [ -51.5049954, -29.293611 ], [ -51.5050281, -29.2949077 ], [ -51.5059545, -29.2949131 ], [ -51.5069022, -29.2948987 ], [ -51.507954, -29.2948792 ], [ -51.5180502, -29.2947545 ], [ -51.5192362, -29.2928179 ] ] ] } },
{ "type": "Feature", "properties": { "name": "Aparecida", "code_muni": 4304804.0, "name_muni": "Carlos Barbosa" }, "geometry": { "type": "Polygon", "coordinates": [ [ [ -51.5145721, -29.3028926 ], [ -51.5144581, -29.3024283 ], [ -51.5144473, -29.3021768 ], [ -51.5144539, -29.3021293 ], [ -51.5144768, -29.301964 ], [ -51.5145198, -29.3017418 ], [ -51.5145814, -29.3015429 ], [ -51.5146109, -29.3014576 ], [ -51.5146847, -29.301302 ], [ -51.5146968, -29.3011383 ], [ -51.5146096, -29.3008716 ], [ -51.5145198, -29.3007627 ], [ -51.5144205, -29.300681 ], [ -51.5142556, -29.3006829 ], [ -51.5140367, -29.3006843 ], [ -51.5132816, -29.3006694 ], [ -51.5125284, -29.3006827 ], [ -51.5117652, -29.3006655 ], [ -51.5097865, -29.3006645 ], [ -51.5089093, -29.3006648 ], [ -51.5084969, -29.3006566 ], [ -51.5065684, -29.3007194 ], [ -51.5059811, -29.3008165 ], [ -51.5049095, -29.30075690000001 ], [ -51.5044857, -29.3007522 ], [ -51.5040136, -29.3007709 ], [ -51.5038634, -29.3007382 ], [ -51.5036703, -29.3006727 ], [ -51.5033645, -29.3005931 ], [ -51.503166, -29.300580400000015 ], [ -51.5020394, -29.3005395 ], [ -51.5017967, -29.300519599999987 ], [ -51.5015861, -29.3004857 ], [ -51.501389, -29.3004085 ], [ -51.5012079, -29.3003021 ], [ -51.5010269, -29.3002108 ], [ -51.5006715, -29.3001337 ], [ -51.5003376, -29.300088 ], [ -51.50019, -29.3000759 ], [ -51.5000398, -29.3000635 ], [ -51.4997408, -29.3000378 ], [ -51.4995611, -29.3010997 ], [ -51.4994833, -29.301452900000012 ], [ -51.4994256, -29.3016587 ], [ -51.499384, -29.3019031 ], [ -51.4993398, -29.3020762 ], [ -51.4992902, -29.3021944 ], [ -51.499199, -29.3023335 ], [ -51.4990702, -29.3024587 ], [ -51.4990059, -29.3025417 ], [ -51.498853, -29.3027031 ], [ -51.4990188, -29.3028641 ], [ -51.4992495, -29.3029763 ], [ -51.4995075, -29.303019 ], [ -51.500072, -29.3030247 ], [ -51.50076, -29.3030329 ], [ -51.5017337, -29.3030212 ], [ -51.502016, -29.3030294 ], [ -51.5027757, -29.3030481 ], [ -51.5027234, -29.3035416 ], [ -51.5027341, -29.3036457 ], [ -51.5027569, -29.3037206 ], [ -51.5028709, -29.303898300000011 ], [ -51.5030734, -29.304234 ], [ -51.5031445, -29.304352100000013 ], [ -51.5031821, -29.3044386 ], [ -51.5031847, -29.3045532 ], [ -51.5031686, -29.3051894 ], [ -51.5031807, -29.3056666 ], [ -51.5040028, -29.3056759 ], [ -51.5048289, -29.3056806 ], [ -51.5056014, -29.30569 ], [ -51.5063927, -29.3057017 ], [ -51.5071895, -29.3057072 ], [ -51.5079974, -29.3057412 ], [ -51.5086744, -29.3057233 ], [ -51.5145721, -29.3028926 ] ] ] } },
{ "type": "Feature", "properties": { "name": "Ponte Sêca", "code_muni": 4304804.0, "name_muni": "Carlos Barbosa" }, "geometry": { "type": "Polygon", "coordinates": [ [ [ -51.487199, -29.3126725 ], [ -51.4875126, -29.3132047 ], [ -51.4927322, -29.3280688 ], [ -51.4972799, -29.322144299999987 ], [ -51.4964618, -29.3216473 ], [ -51.4963639, -29.321562 ], [ -51.4961426, -29.3212837 ], [ -51.49591860000001, -29.3207902 ], [ -51.4957148, -29.3203365 ], [ -51.495515, -29.320029 ], [ -51.4938506, -29.3180499 ], [ -51.4940545, -29.3180351 ], [ -51.4942084, -29.318028 ], [ -51.4945249, -29.3180215 ], [ -51.49496220000001, -29.3180581 ], [ -51.4950889, -29.3180642 ], [ -51.4953191, -29.3180564 ], [ -51.4955069, -29.3179873 ], [ -51.4956544, -29.3178132 ], [ -51.4957295, -29.3177325 ], [ -51.4957993, -29.3176354 ], [ -51.4959991, -29.3172998 ], [ -51.496101, -29.3171922 ], [ -51.49619890000001, -29.3171034 ], [ -51.4963236, -29.317021499999985 ], [ -51.4967043, -29.3168813 ], [ -51.4969095, -29.3167996 ], [ -51.497452, -29.316583699999988 ], [ -51.4976407, -29.31654450000001 ], [ -51.4978426, -29.3165025 ], [ -51.4989388, -29.3164719 ], [ -51.4991105, -29.316087199999988 ], [ -51.4992392, -29.3158662 ], [ -51.4992982, -29.3157305 ], [ -51.4993465, -29.3156276 ], [ -51.499376, -29.3153961 ], [ -51.4993545, -29.3151716 ], [ -51.4992473, -29.314926 ], [ -51.4989506, -29.3144285 ], [ -51.498798, -29.3141999 ], [ -51.4983729, -29.3136397 ], [ -51.4982039, -29.3134058 ], [ -51.4980456, -29.3130901 ], [ -51.497892, -29.3128338 ], [ -51.4977371, -29.3125755 ], [ -51.4976674, -29.312468 ], [ -51.4976245, -29.3123978 ], [ -51.4974153, -29.3120552 ], [ -51.4972597, -29.3117324 ], [ -51.4971176, -29.3113302 ], [ -51.4971712, -29.3113196 ], [ -51.4977318, -29.3111629 ], [ -51.4978679, -29.3111021 ], [ -51.4986652, -29.3108612 ], [ -51.4987624, -29.3108308 ], [ -51.4995638, -29.3105993 ], [ -51.4996707, -29.3105546 ], [ -51.501106, -29.3101432 ], [ -51.5011302, -29.3100988 ], [ -51.5012444, -29.3091227 ], [ -51.5085948, -29.306263 ], [ -51.5086744, -29.3057233 ], [ -51.5079974, -29.3057412 ], [ -51.5071895, -29.3057072 ], [ -51.5063927, -29.3057017 ], [ -51.5056014, -29.30569 ], [ -51.5048289, -29.3056806 ], [ -51.5040028, -29.3056759 ], [ -51.5031807, -29.3056666 ], [ -51.5031686, -29.3051894 ], [ -51.5031847, -29.3045532 ], [ -51.5031821, -29.3044386 ], [ -51.5031445, -29.304352100000013 ], [ -51.5030734, -29.304234 ], [ -51.5028709, -29.303898300000011 ], [ -51.5027569, -29.3037206 ], [ -51.5027341, -29.3036457 ], [ -51.5027234, -29.3035416 ], [ -51.5027757, -29.3030481 ], [ -51.502016, -29.3030294 ], [ -51.5017337, -29.3030212 ], [ -51.50076, -29.3030329 ], [ -51.500072, -29.3030247 ], [ -51.4995075, -29.303019 ], [ -51.4992495, -29.3029763 ], [ -51.4990188, -29.3028641 ], [ -51.498853, -29.3027031 ], [ -51.4986395, -29.3026059 ], [ -51.4978874, -29.3031861 ], [ -51.4978217, -29.3032528 ], [ -51.4977787, -29.3033042 ], [ -51.4977358, -29.3033861 ], [ -51.4965489, -29.3033241 ], [ -51.4964598, -29.3033206 ], [ -51.4964222, -29.3033188 ], [ -51.4844039, -29.3025113 ], [ -51.4859124, -29.3062879 ], [ -51.4871089, -29.3093749 ], [ -51.487129, -29.3094503 ], [ -51.4871726, -29.3096696 ], [ -51.4871833, -29.309807 ], [ -51.487186, -29.309907 ], [ -51.4871666, -29.3100339 ], [ -51.4871371, -29.3101853 ], [ -51.4866422, -29.311253 ], [ -51.4866261, -29.311329 ], [ -51.4866328, -29.3113957 ], [ -51.4866478, -29.3116392 ], [ -51.487077, -29.3124707 ], [ -51.487199, -29.3126725 ] ] ] } },
{ "type": "Feature", "properties": { "name": "Fátima", "code_muni": 4304804.0, "name_muni": "Carlos Barbosa" }, "geometry": { "type": "Polygon", "coordinates": [ [ [ -51.4972597, -29.3117324 ], [ -51.4974153, -29.3120552 ], [ -51.4976245, -29.3123978 ], [ -51.4976674, -29.312468 ], [ -51.4977371, -29.3125755 ], [ -51.497892, -29.3128338 ], [ -51.4980456, -29.3130901 ], [ -51.4982039, -29.3134058 ], [ -51.4983729, -29.3136397 ], [ -51.498798, -29.3141999 ], [ -51.4989506, -29.3144285 ], [ -51.4992473, -29.314926 ], [ -51.4993545, -29.3151716 ], [ -51.499376, -29.3153961 ], [ -51.4993465, -29.3156276 ], [ -51.4992982, -29.3157305 ], [ -51.4992392, -29.3158662 ], [ -51.4991105, -29.316087199999988 ], [ -51.4989388, -29.3164719 ], [ -51.5008325, -29.31561360000001 ], [ -51.5020086, -29.3107671 ], [ -51.5018791, -29.3106689 ], [ -51.5015345, -29.3103923 ], [ -51.5014359, -29.3102777 ], [ -51.501389, -29.310204 ], [ -51.5013286, -29.3101572 ], [ -51.5012455, -29.3101187 ], [ -51.5011302, -29.3100988 ], [ -51.501106, -29.3101432 ], [ -51.4996707, -29.3105546 ], [ -51.4995638, -29.3105993 ], [ -51.4987624, -29.3108308 ], [ -51.4986652, -29.3108612 ], [ -51.4978679, -29.3111021 ], [ -51.4977318, -29.3111629 ], [ -51.4971712, -29.3113196 ], [ -51.4971176, -29.3113302 ], [ -51.4972597, -29.3117324 ] ] ] } },
{ "type": "Feature", "properties": { "name": "São Paulo", "code_muni": 4304804.0, "name_muni": "Carlos Barbosa" }, "geometry": { "type": "Polygon", "coordinates": [ [ [ -51.495515, -29.320029 ], [ -51.4957148, -29.3203365 ], [ -51.49591860000001, -29.3207902 ], [ -51.4961426, -29.3212837 ], [ -51.4963639, -29.321562 ], [ -51.4964618, -29.3216473 ], [ -51.4972799, -29.322144299999987 ], [ -51.4974354, -29.3221811 ], [ -51.4975273, -29.3221951 ], [ -51.4976071, -29.322194499999984 ], [ -51.4976882, -29.3221513 ], [ -51.4977707, -29.3220718 ], [ -51.4991559, -29.3220815 ], [ -51.500013, -29.3221392 ], [ -51.5011188, -29.3220826 ], [ -51.5012159, -29.3220761 ], [ -51.5012112, -29.3219814 ], [ -51.5011722, -29.3212246 ], [ -51.5012303, -29.3209794 ], [ -51.5012402, -29.320776599999984 ], [ -51.5011555, -29.3207703 ], [ -51.5010898, -29.3207644 ], [ -51.5008325, -29.31561360000001 ], [ -51.4989388, -29.3164719 ], [ -51.4978426, -29.3165025 ], [ -51.4976407, -29.31654450000001 ], [ -51.497452, -29.316583699999988 ], [ -51.4969095, -29.3167996 ], [ -51.4967043, -29.3168813 ], [ -51.4963236, -29.317021499999985 ], [ -51.49619890000001, -29.3171034 ], [ -51.496101, -29.3171922 ], [ -51.4959991, -29.3172998 ], [ -51.4957993, -29.3176354 ], [ -51.4957295, -29.3177325 ], [ -51.4956544, -29.3178132 ], [ -51.4955069, -29.3179873 ], [ -51.4953191, -29.3180564 ], [ -51.4950889, -29.3180642 ], [ -51.49496220000001, -29.3180581 ], [ -51.4945249, -29.3180215 ], [ -51.4942084, -29.318028 ], [ -51.4940545, -29.3180351 ], [ -51.4938506, -29.3180499 ], [ -51.495515, -29.320029 ] ] ] } },
{ "type": "Feature", "properties": { "name": "Santa Clara", "code_muni": 4304804.0, "name_muni": "Carlos Barbosa" }, "geometry": { "type": "Polygon", "coordinates": [ [ [ -51.4823413, -29.3191076 ], [ -51.4829207, -29.3175734 ], [ -51.4838648, -29.3172554 ], [ -51.4847017, -29.3166941 ], [ -51.4875126, -29.3132047 ], [ -51.487199, -29.3126725 ], [ -51.487077, -29.3124707 ], [ -51.4866478, -29.3116392 ], [ -51.4819336, -29.3145986 ], [ -51.480968, -29.3161702 ], [ -51.4808178, -29.3179476 ], [ -51.4799595, -29.3193134 ], [ -51.4780712, -29.3239531 ], [ -51.4773611, -29.3246542 ], [ -51.4793479, -29.3247705 ], [ -51.4823413, -29.3191076 ] ] ] } },
{ "type": "Feature", "properties": { "name": "Torino", "code_muni": 4304804.0, "name_muni": "Carlos Barbosa" }, "geometry": { "type": "Polygon", "coordinates": [ [ [ -51.4768159, -29.32791730000001 ], [ -51.4766484, -29.3280131 ], [ -51.4764873, -29.3281168 ], [ -51.476333, -29.3282281 ], [ -51.4761859, -29.3283466 ], [ -51.4760466, -29.328472 ], [ -51.4759153, -29.328604 ], [ -51.4757927, -29.328742 ], [ -51.4756789, -29.3288857 ], [ -51.4755744, -29.3290346 ], [ -51.4754794, -29.3291884 ], [ -51.4753943, -29.3293465 ], [ -51.4753194, -29.3295084 ], [ -51.4752547, -29.3296736 ], [ -51.4752007, -29.329841800000011 ], [ -51.4751573, -29.3300122 ], [ -51.4751247, -29.3301845 ], [ -51.4751031, -29.3303581 ], [ -51.4750925, -29.3305325 ], [ -51.4750929, -29.3307071 ], [ -51.4751044, -29.3308814 ], [ -51.4751269, -29.3310549 ], [ -51.4751603, -29.3312271 ], [ -51.4752045, -29.3313974 ], [ -51.4752594, -29.3315653 ], [ -51.4753248, -29.3317303 ], [ -51.4754006, -29.331892 ], [ -51.4754864, -29.3320497 ], [ -51.4755821, -29.3322031 ], [ -51.4756874, -29.3323516 ], [ -51.4758019, -29.3324949 ], [ -51.4759252, -29.3326325 ], [ -51.4760571, -29.332763899999986 ], [ -51.476197, -29.3328888 ], [ -51.4763447, -29.3330068 ], [ -51.4764996, -29.3331175 ], [ -51.4766612, -29.3332206 ], [ -51.4768291, -29.3333158 ], [ -51.4770028, -29.3334028 ], [ -51.4771817, -29.3334813 ], [ -51.4773653, -29.3335511 ], [ -51.477553, -29.3336119 ], [ -51.4777443, -29.3336637 ], [ -51.4779385, -29.3337062 ], [ -51.4781352, -29.3337393 ], [ -51.4783336, -29.3337629 ], [ -51.4785332, -29.333777 ], [ -51.4784896, -29.3355515 ], [ -51.479938, -29.3355609 ], [ -51.4799131, -29.3336075 ], [ -51.4801005, -29.333546 ], [ -51.4802838, -29.3334755 ], [ -51.4804623, -29.3333963 ], [ -51.4806355, -29.3333087 ], [ -51.480803, -29.3332129 ], [ -51.4809641, -29.3331092 ], [ -51.4811184, -29.3329979 ], [ -51.4812655, -29.3328793 ], [ -51.4814048, -29.3327539 ], [ -51.481536, -29.332622 ], [ -51.4816587, -29.332484 ], [ -51.4817725, -29.3323403 ], [ -51.481877, -29.3321914 ], [ -51.481972, -29.3320376 ], [ -51.4820571, -29.3318795 ], [ -51.482132, -29.3317176 ], [ -51.4821966, -29.3315524 ], [ -51.4822507, -29.3313842 ], [ -51.4822941, -29.3312138 ], [ -51.4823267, -29.3310415 ], [ -51.4823483, -29.3308679 ], [ -51.4823589, -29.3306935 ], [ -51.48235840000001, -29.330518900000012 ], [ -51.482347, -29.3303446 ], [ -51.4823245, -29.3301711 ], [ -51.4822911, -29.3299989 ], [ -51.4822469, -29.3298286 ], [ -51.482192, -29.3296607 ], [ -51.4821266, -29.3294957 ], [ -51.4820508, -29.329334 ], [ -51.4819649, -29.3291763 ], [ -51.4818692, -29.3290229 ], [ -51.481764, -29.3288743 ], [ -51.4816495, -29.3287311 ], [ -51.4815262, -29.3285935 ], [ -51.4813943, -29.3284621 ], [ -51.4812543, -29.3283372 ], [ -51.4811067, -29.3282192 ], [ -51.4809518, -29.3281085 ], [ -51.4807902, -29.3280054 ], [ -51.4806223, -29.3279102 ], [ -51.4804486, -29.3278232 ], [ -51.4802697, -29.3277447 ], [ -51.4800861, -29.3276749 ], [ -51.4798984, -29.327614 ], [ -51.4797071, -29.3275622 ], [ -51.4795129, -29.3275197 ], [ -51.4793162, -29.3274866 ], [ -51.4791178, -29.327463 ], [ -51.4789181, -29.3274489 ], [ -51.4787179, -29.327444499999984 ], [ -51.4782644, -29.3262729 ], [ -51.4789295, -29.325562 ], [ -51.4793479, -29.3247705 ], [ -51.4773611, -29.3246542 ], [ -51.4766121, -29.3253936 ], [ -51.4765048, -29.3269838 ], [ -51.4769891, -29.3278296 ], [ -51.4768159, -29.32791730000001 ] ] ] } },
{ "type": "Feature", "properties": { "name": "Imigrantes", "code_muni": 4304804.0, "name_muni": "Carlos Barbosa" }, "geometry": { "type": "Polygon", "coordinates": [ [ [ -51.5412721, -29.289249399999989 ], [ -51.54126, -29.2880517 ], [ -51.5168453, -29.2882399 ], [ -51.5168658, -29.289099 ], [ -51.5168882, -29.2900389 ], [ -51.5183044, -29.2900389 ], [ -51.539247, -29.2898798 ], [ -51.5392363, -29.2910775 ], [ -51.5422404, -29.2910495 ], [ -51.54459, -29.2927618 ], [ -51.5461646, -29.293651 ], [ -51.5461758, -29.2928449 ], [ -51.5461755572504, -29.292816627852307 ], [ -51.545654513004401, -29.29281233465198 ], [ -51.545714529196154, -29.289193059607953 ], [ -51.5412721, -29.289249399999989 ] ] ] } },
{ "type": "Feature", "properties": { "name": "Alfândega", "code_muni": 4304804.0, "name_muni": "Carlos Barbosa" }, "geometry": { "type": "Polygon", "coordinates": [ [ [ -51.5213109, -29.2757405 ], [ -51.5211468, -29.2757488 ], [ -51.5176253, -29.2775155 ], [ -51.5354168, -29.2774199 ], [ -51.535402663377155, -29.275115775330729 ], [ -51.521908342613919, -29.275518794948972 ], [ -51.5213109, -29.2757405 ] ] ] } },
{ "type": "Feature", "properties": { "name": "Rota do Sol", "code_muni": 4304804.0, "name_muni": "Carlos Barbosa" }, "geometry": { "type": "Polygon", "coordinates": [ [ [ -51.5163195, -29.2762922 ], [ -51.5171027, -29.2771345 ], [ -51.5176253, -29.2775155 ], [ -51.5211468, -29.2757488 ], [ -51.5213109, -29.2757405 ], [ -51.521908342613919, -29.275518794948972 ], [ -51.515983197518089, -29.275695323230835 ], [ -51.5163195, -29.2762922 ] ] ] } },
{ "type": "Feature", "properties": { "name": "São Miguel", "code_muni": 4304804.0, "name_muni": "Carlos Barbosa" }, "geometry": { "type": "Polygon", "coordinates": [ [ [ -51.490737618067776, -29.27242865189729 ], [ -51.4910914688991, -29.260244056739399 ], [ -51.490197591365039, -29.260121996504996 ], [ -51.4898595, -29.272435699999988 ], [ -51.490737618067776, -29.27242865189729 ] ] ] } }
]
}
