{
"type": "FeatureCollection",
"name": "bairros_paraiso_do_sul",
"crs": { "type": "name", "properties": { "name": "urn:ogc:def:crs:OGC:1.3:CRS84" } },
"features": [
{ "type": "Feature", "properties": { "code_muni": 4314027.0, "name_muni": "Paraíso do Sul", "code_state": 43.0, "abbrev_state": "RS", "name_state": "Rio Grande do Sul", "code_region": 4.0, "name_region": "Sul", "year": 2022.0 }, "geometry": { "type": "Polygon", "coordinates": [ [ [ -53.169307251, -29.76849657 ], [ -53.176006602, -29.763475073999892 ], [ -53.182843073999898, -29.765044707 ], [ -53.185386901999898, -29.766943047 ], [ -53.190171318, -29.764250831 ], [ -53.197778673, -29.764878123999893 ], [ -53.202913543, -29.76187815 ], [ -53.206817766, -29.761233166999897 ], [ -53.208973801, -29.758838402 ], [ -53.20709332, -29.752498994 ], [ -53.209531763, -29.750321504999896 ], [ -53.20929661, -29.745506548 ], [ -53.213219287, -29.740689306 ], [ -53.216903315, -29.739397708 ], [ -53.220831507999897, -29.730577673 ], [ -53.209946349999896, -29.719587007 ], [ -53.209664119, -29.713131741 ], [ -53.208184371, -29.710735959000012 ], [ -53.213302440999897, -29.701537115 ], [ -53.204131491999902, -29.693260627 ], [ -53.203859171, -29.669470659 ], [ -53.187561504, -29.669662243999891 ], [ -53.186833655, -29.631960806999899 ], [ -53.154095438, -29.632578797 ], [ -53.153920588999895, -29.626439798 ], [ -53.150693835, -29.626549082999901 ], [ -53.15052926, -29.612560963 ], [ -53.145064756999894, -29.612648557999901 ], [ -53.145248055, -29.608177122 ], [ -53.136671435, -29.608219937999888 ], [ -53.136526223, -29.559071496999895 ], [ -53.105690409, -29.558970346 ], [ -53.101349811, -29.557962275 ], [ -53.099298575, -29.5591039779999 ], [ -53.0932495919999, -29.558167044 ], [ -53.087895224, -29.559178634 ], [ -53.083061492999903, -29.558061036 ], [ -53.072886464, -29.55946355 ], [ -53.068823521, -29.564555441 ], [ -53.058128272, -29.569588548999899 ], [ -53.054815112999989, -29.576184587999901 ], [ -53.055935598, -29.578563925 ], [ -53.055026928, -29.583463324000011 ], [ -53.058157686, -29.586994452999903 ], [ -53.061252284, -29.604840582 ], [ -53.059956188999891, -29.607746576999904 ], [ -53.055517032, -29.610621845 ], [ -53.054259918, -29.616934372999896 ], [ -53.044362756999902, -29.6338104979999 ], [ -53.048638135, -29.636879502999903 ], [ -53.049204709, -29.642979773 ], [ -53.04727589, -29.648396338999891 ], [ -53.054794993, -29.652110794999899 ], [ -53.055731776, -29.654510337 ], [ -53.052572203, -29.656009530999889 ], [ -53.046576253, -29.655502193 ], [ -53.043128302999889, -29.657436715 ], [ -53.046332612, -29.660132559000012 ], [ -53.044148624999899, -29.661297906 ], [ -53.047125042999902, -29.665615322999898 ], [ -53.043650968, -29.666052701 ], [ -53.045417813, -29.667295688 ], [ -53.041620876, -29.667080343 ], [ -53.041078034999899, -29.673146432999911 ], [ -53.050686489, -29.697483867999885 ], [ -53.059827621, -29.708659046 ], [ -53.06255901, -29.716335235 ], [ -53.0662544159999, -29.718842955999904 ], [ -53.066042050999989, -29.723249003 ], [ -53.0684774489999, -29.727809916 ], [ -53.065247641, -29.733907729 ], [ -53.066602551, -29.739631027 ], [ -53.063724841999893, -29.741269616 ], [ -53.064532535, -29.742572507999988 ], [ -53.063621014, -29.744433353 ], [ -53.061487907, -29.744804331 ], [ -53.060129783, -29.74964784 ], [ -53.057314119, -29.748038363 ], [ -53.057762716, -29.751585796 ], [ -53.056186556999897, -29.753075609999904 ], [ -53.060357814, -29.758341817 ], [ -53.059730988999902, -29.760472563999894 ], [ -53.056497372, -29.762940157999896 ], [ -53.055672566999903, -29.768638054999908 ], [ -53.064225905999898, -29.776913078 ], [ -53.065341626, -29.780043928999898 ], [ -53.064628075, -29.783489293999907 ], [ -53.066432821, -29.787831068999893 ], [ -53.0696621, -29.789137470999904 ], [ -53.069934771, -29.790408597999896 ], [ -53.076010590999893, -29.789459823 ], [ -53.07850645, -29.793619538000012 ], [ -53.0849156089999, -29.795037903 ], [ -53.08613424899989, -29.796723277999899 ], [ -53.090038146, -29.797836296999893 ], [ -53.090790764, -29.799481436999898 ], [ -53.089105762, -29.80039536 ], [ -53.087655464, -29.805762586 ], [ -53.090844441999892, -29.809558810999899 ], [ -53.091058683, -29.811606173 ], [ -53.089800833, -29.811937595999986 ], [ -53.093751546999989, -29.816417348999895 ], [ -53.093471423, -29.818684125999901 ], [ -53.094750269, -29.818556681 ], [ -53.09704527, -29.821398557999899 ], [ -53.098366659, -29.830711494 ], [ -53.103414175999902, -29.838213145999905 ], [ -53.09933455, -29.842656927 ], [ -53.101741014, -29.843409398999899 ], [ -53.099976389999895, -29.845744556999904 ], [ -53.103201621, -29.846020877999901 ], [ -53.105227641999896, -29.844072628999989 ], [ -53.107424073999901, -29.846574483 ], [ -53.105984465999903, -29.848446453 ], [ -53.109499973, -29.85218363 ], [ -53.1120174449999, -29.845904834 ], [ -53.120056942, -29.835041567 ], [ -53.145366925, -29.820779516999899 ], [ -53.158175563, -29.815787312999898 ], [ -53.161317442, -29.812885579 ], [ -53.165132238, -29.800117343 ], [ -53.163868885999889, -29.794730546 ], [ -53.165887077, -29.787823626 ], [ -53.164513868, -29.784716498 ], [ -53.16103541199989, -29.782585697999895 ], [ -53.161136844999895, -29.780159225 ], [ -53.164165098, -29.776307936 ], [ -53.171785813, -29.772544406999899 ], [ -53.174547968, -29.769727487999891 ], [ -53.169307251, -29.76849657 ] ] ] } }
]
}
