{
"type": "FeatureCollection",
"name": "bairros_nova_alvorada",
"crs": { "type": "name", "properties": { "name": "urn:ogc:def:crs:OGC:1.3:CRS84" } },
"features": [
{ "type": "Feature", "properties": { "code_muni": 4312757.0, "name_muni": "Nova Alvorada", "code_state": 43.0, "abbrev_state": "RS", "name_state": "Rio Grande do Sul", "code_region": 4.0, "name_region": "Sul", "year": 2022.0 }, "geometry": { "type": "Polygon", "coordinates": [ [ [ -52.162632494, -28.659361644999908 ], [ -52.159957235, -28.654906303 ], [ -52.155954907, -28.651705622 ], [ -52.147572306, -28.66689955 ], [ -52.139847789, -28.671288472 ], [ -52.133538103, -28.673002105 ], [ -52.124931787, -28.671688065999898 ], [ -52.121087918999891, -28.668003284 ], [ -52.1207664309999, -28.671283064 ], [ -52.111771051999895, -28.671767728 ], [ -52.107396182999899, -28.667480745 ], [ -52.102284416, -28.664863636 ], [ -52.098953886999894, -28.672682444 ], [ -52.096098223, -28.675306838 ], [ -52.092936143, -28.676425369999901 ], [ -52.088676821999989, -28.672456143 ], [ -52.085443360999903, -28.673510023999896 ], [ -52.084450940999893, -28.676838793999899 ], [ -52.087238465, -28.685370255 ], [ -52.090560921, -28.685771143999897 ], [ -52.0902952389999, -28.6910219879999 ], [ -52.086756252, -28.691692675 ], [ -52.079145659999902, -28.686048479999986 ], [ -52.077631993999901, -28.686590196999898 ], [ -52.076986605999892, -28.691244798 ], [ -52.078442337999903, -28.698795822 ], [ -52.080509788, -28.700491416 ], [ -52.087358193999904, -28.699186158 ], [ -52.096614606999907, -28.701571053 ], [ -52.098104502, -28.703306023 ], [ -52.095261902999901, -28.708728672999889 ], [ -52.091200360999892, -28.711244205 ], [ -52.084619608, -28.709495713 ], [ -52.080999876, -28.7101572239999 ], [ -52.081630254999901, -28.711988855999902 ], [ -52.08525632, -28.714421665 ], [ -52.085437188, -28.71786114 ], [ -52.079695441999895, -28.722459344999905 ], [ -52.076672903, -28.729145307999893 ], [ -52.085074753, -28.730837584 ], [ -52.079637186999904, -28.733820976999901 ], [ -52.078751506999893, -28.736511682999907 ], [ -52.079757961, -28.740652606 ], [ -52.078454585, -28.741435066 ], [ -52.081551655999895, -28.745421657999898 ], [ -52.088200356999899, -28.743150777 ], [ -52.088887305, -28.745517407 ], [ -52.108156975, -28.740940088999906 ], [ -52.123227169, -28.7411771169999 ], [ -52.129140622, -28.743154171 ], [ -52.136734944, -28.74210805 ], [ -52.139445807, -28.745594667 ], [ -52.144789809, -28.748073755999897 ], [ -52.148399597, -28.748224259 ], [ -52.149197184999899, -28.749562942999894 ], [ -52.153402683, -28.747925553999892 ], [ -52.156944026, -28.752789732999908 ], [ -52.161180978999901, -28.752104159999899 ], [ -52.162087701, -28.753712156999903 ], [ -52.164892688999892, -28.752173531 ], [ -52.167964033, -28.754904098999898 ], [ -52.171479452, -28.752728211 ], [ -52.174317443999897, -28.753343855 ], [ -52.177034255, -28.752036502 ], [ -52.181587034, -28.752083376 ], [ -52.1838338539999, -28.753608228 ], [ -52.186782791, -28.7524309779999 ], [ -52.18481394, -28.748983183999897 ], [ -52.181498303, -28.747926564 ], [ -52.178631987999907, -28.744759772 ], [ -52.178596065, -28.743348523999902 ], [ -52.188836775, -28.744189644 ], [ -52.194060409, -28.742002632 ], [ -52.198085995, -28.7421375119999 ], [ -52.19946404, -28.743455689 ], [ -52.197673124999902, -28.746385974 ], [ -52.20255503, -28.750278261999895 ], [ -52.206452016999897, -28.749269223999899 ], [ -52.210739893, -28.756017293999896 ], [ -52.224673717, -28.761450819999897 ], [ -52.225790236, -28.762886181999892 ], [ -52.226678551, -28.759043448999908 ], [ -52.229813018999906, -28.756135777999905 ], [ -52.238707976999898, -28.757388519999903 ], [ -52.241897746999904, -28.7535404509999 ], [ -52.247514506, -28.749846453 ], [ -52.246503291, -28.741116924 ], [ -52.24793937, -28.736906764 ], [ -52.253585874999892, -28.737388418 ], [ -52.256177453, -28.735212750999899 ], [ -52.257568074999902, -28.7302576979999 ], [ -52.258015987, -28.720841595 ], [ -52.254229678999899, -28.716948273 ], [ -52.251583347, -28.710750425 ], [ -52.246077526, -28.706094084 ], [ -52.246106783999899, -28.699308373 ], [ -52.250867241, -28.690932161 ], [ -52.255799368999902, -28.686787803 ], [ -52.258747182, -28.686446933999903 ], [ -52.256962606999899, -28.680522681999904 ], [ -52.252881683999895, -28.679545491999892 ], [ -52.252227288, -28.672428888999899 ], [ -52.249474587999899, -28.669802650999905 ], [ -52.250335069999892, -28.662843618999908 ], [ -52.246441418, -28.6622763999999 ], [ -52.243464014, -28.659651650999901 ], [ -52.240872902, -28.662512708999898 ], [ -52.241391248999896, -28.665352776 ], [ -52.235691575, -28.671147382 ], [ -52.228803149, -28.668069907 ], [ -52.228839744, -28.671003836999898 ], [ -52.227158288999902, -28.672788634 ], [ -52.224413937999905, -28.668671839 ], [ -52.217774259, -28.669060921 ], [ -52.217584288, -28.671398318999888 ], [ -52.210478387, -28.669948857 ], [ -52.203211486, -28.673568152 ], [ -52.192023798, -28.669754305 ], [ -52.19225024, -28.664192668999899 ], [ -52.194452548, -28.662130214999898 ], [ -52.194490588999891, -28.660567491999895 ], [ -52.193245477999902, -28.6605094 ], [ -52.195208919, -28.654946544 ], [ -52.189269151, -28.656857191 ], [ -52.185704153999893, -28.656602033999885 ], [ -52.183179838999891, -28.659417736 ], [ -52.176213233999903, -28.660689814 ], [ -52.167950447999893, -28.658417971999899 ], [ -52.162632494, -28.659361644999908 ] ] ] } }
]
}
