{
"type": "FeatureCollection",
"name": "bairros_alto_alegre",
"crs": { "type": "name", "properties": { "name": "urn:ogc:def:crs:OGC:1.3:CRS84" } },
"features": [
{ "type": "Feature", "properties": { "code_muni": 4300554.0, "name_muni": "Alto Alegre", "code_state": 43.0, "abbrev_state": "RS", "name_state": "Rio Grande do Sul", "code_region": 4.0, "name_region": "Sul", "year": 2022.0 }, "geometry": { "type": "Polygon", "coordinates": [ [ [ -53.001950045999891, -28.8495258 ], [ -53.004298439, -28.847416709999909 ], [ -53.016517397, -28.847043651 ], [ -53.018595266, -28.841422102 ], [ -53.022801059, -28.838329514999895 ], [ -53.026433745, -28.837989907999898 ], [ -53.031488516, -28.840331950999893 ], [ -53.0338140429999, -28.838004263 ], [ -53.03892802099989, -28.839045749 ], [ -53.040852926, -28.835951456 ], [ -53.048071522, -28.836979183 ], [ -53.049841648, -28.835237705999901 ], [ -53.053087949, -28.837387217999893 ], [ -53.05678819, -28.836131341999899 ], [ -53.060866968, -28.829694392 ], [ -53.058280103, -28.819338211999902 ], [ -53.055243362999903, -28.813664731 ], [ -53.059592548999895, -28.810801129 ], [ -53.063871049999889, -28.7985635319999 ], [ -53.058160791, -28.797849337999903 ], [ -53.056054307, -28.796364476 ], [ -53.050329836999893, -28.790325122 ], [ -53.045314382, -28.78798383 ], [ -53.042634773, -28.781591659 ], [ -53.037607874999892, -28.776860073 ], [ -53.03529678199989, -28.775276251 ], [ -53.032631059, -28.775729757 ], [ -53.031432015, -28.769839838999903 ], [ -53.038075863, -28.766251220999898 ], [ -53.03743234, -28.764300891999898 ], [ -53.032744378, -28.763905266999902 ], [ -53.027830286, -28.761534546999894 ], [ -53.021376271999891, -28.767708969999898 ], [ -53.018352821999891, -28.763651777 ], [ -53.014085478, -28.763681534999908 ], [ -53.007617292, -28.771654709 ], [ -53.001111659999893, -28.773749736999907 ], [ -52.997163529, -28.771939582999895 ], [ -52.997293573, -28.77027949 ], [ -53.010964077, -28.760601309 ], [ -53.011485202999893, -28.758521899 ], [ -53.0101255659999, -28.7571634839999 ], [ -53.004256512, -28.7567116079999 ], [ -53.00038918, -28.753903733 ], [ -52.991396021, -28.752319009 ], [ -52.985955998999898, -28.748496768999907 ], [ -52.98368604, -28.748506993 ], [ -52.97488935, -28.751704661 ], [ -52.968913098, -28.761427598999905 ], [ -52.963110329, -28.762781154 ], [ -52.956094121, -28.761007322999898 ], [ -52.952264187, -28.754013081 ], [ -52.952991711, -28.749459800999897 ], [ -52.960903238999897, -28.746953748999907 ], [ -52.962839717999891, -28.744165054 ], [ -52.961641444999891, -28.742731158 ], [ -52.956027538999891, -28.741287075999896 ], [ -52.953282457999897, -28.739242254 ], [ -52.952791646, -28.741217932 ], [ -52.932972714, -28.746364206 ], [ -52.934291587, -28.748498046999892 ], [ -52.932694662999893, -28.752443462 ], [ -52.934945806, -28.755803515 ], [ -52.931286182, -28.766408758999908 ], [ -52.932332218999896, -28.774378085 ], [ -52.931333039, -28.77627927 ], [ -52.928085860999893, -28.775277963999901 ], [ -52.927389784, -28.778426437999897 ], [ -52.930438681999895, -28.785381422999901 ], [ -52.938349538, -28.785343659 ], [ -52.938767502, -28.788211939999897 ], [ -52.938184147999898, -28.789455016 ], [ -52.930511611999989, -28.789229600999899 ], [ -52.927547357, -28.787027528999904 ], [ -52.924821842, -28.788349805999896 ], [ -52.926785966, -28.790438790999897 ], [ -52.930702365999892, -28.791665812 ], [ -52.931720812, -28.795531162 ], [ -52.93460309999989, -28.796496829 ], [ -52.931527731999893, -28.806046019999904 ], [ -52.924574427, -28.805863046999896 ], [ -52.925535996, -28.811911702 ], [ -52.926781159, -28.813288538999895 ], [ -52.946060283999898, -28.812822492 ], [ -52.94615799, -28.8148170599999 ], [ -52.966292791999891, -28.813419423 ], [ -52.967707283, -28.814464625 ], [ -52.964237461, -28.82216994 ], [ -52.960847799, -28.822554302999905 ], [ -52.961625550999891, -28.824680472999898 ], [ -52.960044562, -28.828069867999904 ], [ -52.9566697939999, -28.82859962 ], [ -52.955824477, -28.831764978 ], [ -52.95035137, -28.828892348 ], [ -52.947921038999894, -28.829936597 ], [ -52.945012775, -28.834135801999899 ], [ -52.944724038999901, -28.840792452 ], [ -52.940254017, -28.84220799 ], [ -52.939047617, -28.848858132 ], [ -52.940538263, -28.855230166 ], [ -52.939625335999892, -28.858687769 ], [ -52.941298328999899, -28.859943126 ], [ -52.942591565, -28.867563280999899 ], [ -52.947108144, -28.8752072509999 ], [ -52.951212827999896, -28.872743946 ], [ -52.956823025999896, -28.873230313 ], [ -52.960553327999889, -28.872109502999894 ], [ -52.962192936999898, -28.869660552 ], [ -52.964510331, -28.869746190999891 ], [ -52.961232284999909, -28.862079603 ], [ -52.961216424, -28.859760931 ], [ -52.965036427, -28.854969106999899 ], [ -52.964977554, -28.853683827999902 ], [ -52.961997653, -28.852045969999899 ], [ -52.962170826, -28.846705038 ], [ -52.96687155099989, -28.845507765 ], [ -52.968615566, -28.851370602 ], [ -52.974247439999893, -28.856884749999907 ], [ -52.977819086999894, -28.856559806 ], [ -52.983380313999895, -28.853352293999897 ], [ -52.985566884, -28.859862907 ], [ -53.001888054999903, -28.851513711999896 ], [ -53.001950045999891, -28.8495258 ] ] ] } }
]
}
