{
"type": "FeatureCollection",
"name": "bairros_santa_rosa",
"crs": { "type": "name", "properties": { "name": "urn:ogc:def:crs:OGC:1.3:CRS84" } },
"features": [
{ "type": "Feature", "properties": { "name": "Timbaúva", "code_muni": 4317202.0, "name_muni": "Santa Rosa" }, "geometry": { "type": "Polygon", "coordinates": [ [ [ -54.4657834, -27.853463 ], [ -54.4663148, -27.8535765 ], [ -54.4667951, -27.8538853 ], [ -54.4673879, -27.8539925 ], [ -54.4674355, -27.8540011 ], [ -54.4678285, -27.8543614 ], [ -54.4683039, -27.8550762 ], [ -54.4685985, -27.8553402 ], [ -54.4687497, -27.8554819 ], [ -54.4696333, -27.8555968 ], [ -54.4699389, -27.855674 ], [ -54.470623, -27.8556354 ], [ -54.470977, -27.8555165 ], [ -54.471842, -27.8553162 ], [ -54.4723453, -27.8553739 ], [ -54.4730137, -27.8555881 ], [ -54.4733407, -27.8557287 ], [ -54.4736853, -27.8558537 ], [ -54.4741716, -27.8558416 ], [ -54.4744879, -27.8557933 ], [ -54.4747251, -27.8556911 ], [ -54.4749122, -27.8555462 ], [ -54.4752603, -27.8552489 ], [ -54.4754126, -27.8552302 ], [ -54.4755431, -27.8552396 ], [ -54.4757077, -27.855294 ], [ -54.4759834, -27.8553938 ], [ -54.4762821, -27.8555207 ], [ -54.4765456, -27.8557622 ], [ -54.4766176, -27.8559861 ], [ -54.4765074, -27.8562853 ], [ -54.4765351, -27.8564753 ], [ -54.4768013, -27.856629300000012 ], [ -54.47699, -27.8566662 ], [ -54.4771523, -27.8567743 ], [ -54.4776218, -27.8572038 ], [ -54.4778497, -27.8575159 ], [ -54.47811870000001, -27.8576858 ], [ -54.4782824, -27.8577803 ], [ -54.4787133, -27.8579043 ], [ -54.4793523, -27.8580228 ], [ -54.4799017, -27.8580553 ], [ -54.4805503, -27.8580723 ], [ -54.48114910000001, -27.8580714 ], [ -54.4817615, -27.8580568 ], [ -54.4822897, -27.8580227 ], [ -54.4825391, -27.858033299999988 ], [ -54.4827329, -27.8581077 ], [ -54.4825448, -27.8580209 ], [ -54.4825434, -27.857991 ], [ -54.4825399, -27.8579192 ], [ -54.4825413, -27.8577991 ], [ -54.4825883, -27.8569352 ], [ -54.4826087, -27.856442 ], [ -54.4826583, -27.8552759 ], [ -54.48264420000001, -27.8551591 ], [ -54.4825785, -27.8550856 ], [ -54.4824015, -27.8548295 ], [ -54.4824363, -27.8527343 ], [ -54.4824404, -27.85256 ], [ -54.4824578, -27.8506017 ], [ -54.4825486, -27.8417302 ], [ -54.4825041, -27.8417195 ], [ -54.4804429, -27.8412357 ], [ -54.4801068, -27.8411495 ], [ -54.4799546, -27.8411105 ], [ -54.4796146, -27.8410233 ], [ -54.4785163, -27.8407618 ], [ -54.478232, -27.8406901 ], [ -54.4764215, -27.8402928 ], [ -54.4757469, -27.840123199999987 ], [ -54.474839, -27.8398742 ], [ -54.4729239, -27.839411699999989 ], [ -54.4725465, -27.8393201 ], [ -54.4718699, -27.8391559 ], [ -54.4715118, -27.8390812 ], [ -54.471214, -27.839037 ], [ -54.4708559, -27.8390074 ], [ -54.4704978, -27.8389777 ], [ -54.470074, -27.8389812 ], [ -54.4694906, -27.8390168 ], [ -54.469046, -27.8390753 ], [ -54.4674334, -27.8393749 ], [ -54.4672705, -27.8394005 ], [ -54.4670073, -27.8394465 ], [ -54.4670015, -27.8396358 ], [ -54.466964, -27.8396856 ], [ -54.4664041, -27.8397664 ], [ -54.4659292, -27.8398516 ], [ -54.46581470000001, -27.8399062 ], [ -54.4657637, -27.8399489 ], [ -54.4657329, -27.8400129 ], [ -54.4657289, -27.840294 ], [ -54.4657395, -27.8414093 ], [ -54.465705, -27.8424541 ], [ -54.4656404, -27.8444142 ], [ -54.4655981, -27.8462246 ], [ -54.465598, -27.8468815 ], [ -54.4655931, -27.84703 ], [ -54.465571, -27.8482747 ], [ -54.4655724, -27.848884 ], [ -54.4655872, -27.8496076 ], [ -54.4655808, -27.8501433 ], [ -54.4655322, -27.8513874 ], [ -54.4655313, -27.8516953 ], [ -54.4655467, -27.8520241 ], [ -54.4655544, -27.852567 ], [ -54.4655247, -27.8529249 ], [ -54.4654924, -27.8533135 ], [ -54.4657834, -27.853463 ] ] ] } },
{ "type": "Feature", "properties": { "name": "Timbaúva", "code_muni": 4317202.0, "name_muni": "Santa Rosa" }, "geometry": { "type": "Polygon", "coordinates": [ [ [ -54.4926811, -27.8507043 ], [ -54.491811, -27.8499138 ], [ -54.49161320000001, -27.8497235 ], [ -54.4899988, -27.8481044 ], [ -54.4898887, -27.847996 ], [ -54.489799, -27.8479076 ], [ -54.4897172, -27.8478213 ], [ -54.489581, -27.8476776 ], [ -54.48914580000001, -27.8471919 ], [ -54.4887522, -27.846698 ], [ -54.4883921, -27.8460488 ], [ -54.4876461, -27.8444631 ], [ -54.4874815, -27.8441134 ], [ -54.487271, -27.8436761 ], [ -54.486885, -27.8428657 ], [ -54.4865871, -27.8421072 ], [ -54.4862907, -27.842161699999984 ], [ -54.4858708, -27.8421322 ], [ -54.4856079, -27.8421279 ], [ -54.4849168, -27.8420965 ], [ -54.484216, -27.8420455 ], [ -54.483697, -27.8419785 ], [ -54.4831683, -27.8418753 ], [ -54.4825486, -27.8417302 ], [ -54.4824578, -27.8506017 ], [ -54.4824404, -27.85256 ], [ -54.4824363, -27.8527343 ], [ -54.4824015, -27.8548295 ], [ -54.4825785, -27.8550856 ], [ -54.48264420000001, -27.8551591 ], [ -54.4826583, -27.8552759 ], [ -54.4826087, -27.856442 ], [ -54.4825883, -27.8569352 ], [ -54.4825413, -27.8577991 ], [ -54.4825399, -27.8579192 ], [ -54.4825434, -27.857991 ], [ -54.4825448, -27.8580209 ], [ -54.4827329, -27.8581077 ], [ -54.4829661, -27.8582562 ], [ -54.4830535, -27.8584004 ], [ -54.483122, -27.8586145 ], [ -54.4834434, -27.8595264 ], [ -54.4835758, -27.859748499999988 ], [ -54.4840569, -27.8602488 ], [ -54.4845372, -27.8608194 ], [ -54.4846311, -27.8609351 ], [ -54.4847765, -27.8610433 ], [ -54.4851184, -27.8612225 ], [ -54.4853391, -27.8613282 ], [ -54.4854545, -27.8615109 ], [ -54.48575, -27.8619697 ], [ -54.4860111, -27.8623512 ], [ -54.4861386, -27.8629601 ], [ -54.4862721, -27.8630285 ], [ -54.4863705, -27.863142 ], [ -54.4866896, -27.8636399 ], [ -54.4868073, -27.863919 ], [ -54.4868178, -27.8641387 ], [ -54.486905, -27.8643338 ], [ -54.4870597, -27.8647928 ], [ -54.4872521, -27.8650201 ], [ -54.4874184, -27.8653391 ], [ -54.4875648, -27.865660399999989 ], [ -54.4877228, -27.8660732 ], [ -54.4877652, -27.8662636 ], [ -54.4878279, -27.866543 ], [ -54.4880012, -27.867265299999989 ], [ -54.4880674, -27.8678121 ], [ -54.4882363, -27.868047 ], [ -54.4883057, -27.8682916 ], [ -54.4883515, -27.8684952 ], [ -54.4884104, -27.8687504 ], [ -54.4884832, -27.8689975 ], [ -54.4886079, -27.8693843 ], [ -54.4884497, -27.8697993 ], [ -54.488506, -27.8701407 ], [ -54.4886562, -27.8705129 ], [ -54.488793, -27.870818799999988 ], [ -54.4888414, -27.8709577 ], [ -54.4891346, -27.8707447 ], [ -54.4896582, -27.8705 ], [ -54.4895316, -27.8702254 ], [ -54.4902603, -27.8691046 ], [ -54.4903958, -27.8688959 ], [ -54.4909698, -27.8680767 ], [ -54.4913922, -27.8676724 ], [ -54.4924115, -27.8670855 ], [ -54.4928996, -27.8667725 ], [ -54.4930217, -27.8666824 ], [ -54.4933073, -27.8664489 ], [ -54.4934173, -27.8663102 ], [ -54.493917, -27.8656386 ], [ -54.4945948, -27.8647274 ], [ -54.4956724, -27.8632211 ], [ -54.4957235, -27.8629324 ], [ -54.4960707, -27.8626395 ], [ -54.4969699, -27.8615532 ], [ -54.497108, -27.8613567 ], [ -54.497341, -27.8611397 ], [ -54.497131, -27.8606282 ], [ -54.4960198, -27.8578695 ], [ -54.4956449, -27.8569388 ], [ -54.49560060000001, -27.8568333 ], [ -54.495201, -27.8558812 ], [ -54.4951151, -27.8556453 ], [ -54.4947751, -27.8547595 ], [ -54.4946732, -27.854494 ], [ -54.4945898, -27.8542804 ], [ -54.4945465, -27.8541696 ], [ -54.4945023, -27.854063799999984 ], [ -54.4937835, -27.8523442 ], [ -54.4935595, -27.8519262 ], [ -54.4933178, -27.8515348 ], [ -54.4926811, -27.8507043 ] ] ] } },
{ "type": "Feature", "properties": { "name": "Sulina", "code_muni": 4317202.0, "name_muni": "Santa Rosa" }, "geometry": { "type": "Polygon", "coordinates": [ [ [ -54.499193, -27.8776482 ], [ -54.4992342, -27.877317 ], [ -54.5000036, -27.8764829 ], [ -54.5001029, -27.8763482 ], [ -54.5003161, -27.8759736 ], [ -54.5004835, -27.8755718 ], [ -54.5005763, -27.8752541 ], [ -54.5006538, -27.8747999 ], [ -54.5006518, -27.874435 ], [ -54.5006514, -27.8743709 ], [ -54.5005961, -27.873637 ], [ -54.5005815, -27.8734756 ], [ -54.5005347, -27.8732339 ], [ -54.5002826, -27.8720958 ], [ -54.5001002, -27.8711522 ], [ -54.5000567, -27.8709328 ], [ -54.5000011, -27.8706425 ], [ -54.4999397, -27.8703289 ], [ -54.4999163, -27.8702083 ], [ -54.499873, -27.8699835 ], [ -54.4998344, -27.869758 ], [ -54.4996201, -27.8687621 ], [ -54.4994183, -27.8675697 ], [ -54.4992282, -27.8664573 ], [ -54.4988803, -27.8652028 ], [ -54.498802, -27.8649398 ], [ -54.4984641, -27.8639533 ], [ -54.4983432, -27.8636271 ], [ -54.4982278, -27.863348 ], [ -54.4981231, -27.8630949 ], [ -54.4977637, -27.8621417 ], [ -54.4975321, -27.861674699999988 ], [ -54.497341, -27.8611397 ], [ -54.497108, -27.8613567 ], [ -54.4969699, -27.8615532 ], [ -54.4960707, -27.8626395 ], [ -54.4957235, -27.8629324 ], [ -54.4956724, -27.8632211 ], [ -54.4945948, -27.8647274 ], [ -54.493917, -27.8656386 ], [ -54.4934173, -27.8663102 ], [ -54.4933073, -27.8664489 ], [ -54.4930217, -27.8666824 ], [ -54.4928996, -27.8667725 ], [ -54.4924115, -27.8670855 ], [ -54.4913922, -27.8676724 ], [ -54.4909698, -27.8680767 ], [ -54.4903958, -27.8688959 ], [ -54.4902603, -27.8691046 ], [ -54.4895316, -27.8702254 ], [ -54.4896582, -27.8705 ], [ -54.4891346, -27.8707447 ], [ -54.4888414, -27.8709577 ], [ -54.4887563, -27.8709957 ], [ -54.4886587, -27.8710431 ], [ -54.4885577, -27.8710738 ], [ -54.4883863, -27.8710932 ], [ -54.4874413, -27.8710726 ], [ -54.487356, -27.872741 ], [ -54.4872975, -27.8741812 ], [ -54.4872892, -27.8744871 ], [ -54.4872693, -27.8752454 ], [ -54.4872251, -27.8759712 ], [ -54.4871828, -27.8765723 ], [ -54.48733, -27.8766314 ], [ -54.4872245, -27.876749 ], [ -54.4874557, -27.8769315 ], [ -54.4878268, -27.8772397 ], [ -54.4883269, -27.8776213 ], [ -54.4884094, -27.877689 ], [ -54.4891005, -27.8782189 ], [ -54.4894086, -27.8784079 ], [ -54.4896111, -27.8784697 ], [ -54.489856, -27.8785043 ], [ -54.4905059, -27.8785535 ], [ -54.4910964, -27.878589899999987 ], [ -54.4911894, -27.8787318 ], [ -54.4914215, -27.878606 ], [ -54.4918433, -27.8786407 ], [ -54.4920073, -27.8786476 ], [ -54.4922383, -27.8786597 ], [ -54.4931338, -27.8787466 ], [ -54.4933544, -27.8787731 ], [ -54.4937278, -27.8788178 ], [ -54.4938979, -27.8788381 ], [ -54.4940731, -27.8788727 ], [ -54.4943822, -27.8789339 ], [ -54.4946513, -27.8790199 ], [ -54.4947725, -27.8791061 ], [ -54.4949009, -27.8792183 ], [ -54.4949859, -27.8793552 ], [ -54.4950514, -27.8795521 ], [ -54.495232, -27.8807004 ], [ -54.4953203, -27.881314 ], [ -54.4958562, -27.8807627 ], [ -54.4959059, -27.8807118 ], [ -54.4960844, -27.8805293 ], [ -54.498958, -27.8775907 ], [ -54.499193, -27.8776482 ] ] ] } },
{ "type": "Feature", "properties": { "name": "Auxiliadora", "code_muni": 4317202.0, "name_muni": "Santa Rosa" }, "geometry": { "type": "Polygon", "coordinates": [ [ [ -54.5007025, -27.8832159 ], [ -54.500855, -27.8830361 ], [ -54.5014217, -27.8824389 ], [ -54.5013854, -27.8821627 ], [ -54.5018721, -27.8814499 ], [ -54.5021264, -27.8809362 ], [ -54.5024678, -27.8806729 ], [ -54.5029909, -27.8804096 ], [ -54.5036665, -27.8796454 ], [ -54.5039136, -27.8792923 ], [ -54.504221200000011, -27.8790157 ], [ -54.5041239, -27.8790013 ], [ -54.50354990000001, -27.8787445 ], [ -54.5032957, -27.8787766 ], [ -54.5028234, -27.8793931 ], [ -54.50262, -27.8795729 ], [ -54.5014867, -27.8796628 ], [ -54.50103630000001, -27.8796499 ], [ -54.5002418, -27.8793877 ], [ -54.4999133, -27.8793365 ], [ -54.4998057, -27.8792205 ], [ -54.4997732, -27.8790185 ], [ -54.4997587, -27.8786455 ], [ -54.4995494, -27.8783955 ], [ -54.499491, -27.8781349 ], [ -54.499393, -27.8779365 ], [ -54.499193, -27.8776482 ], [ -54.498958, -27.8775907 ], [ -54.4960844, -27.8805293 ], [ -54.4959059, -27.8807118 ], [ -54.4958562, -27.8807627 ], [ -54.4953203, -27.881314 ], [ -54.4954008, -27.8816648 ], [ -54.4953901, -27.882124799999989 ], [ -54.4953165, -27.8823134 ], [ -54.4952899, -27.8823749 ], [ -54.4952041, -27.8826185 ], [ -54.4949546, -27.8834726 ], [ -54.4945569, -27.8849502 ], [ -54.5001698, -27.8856099 ], [ -54.5025926, -27.8839696 ], [ -54.5019454, -27.8838436 ], [ -54.5013713, -27.8836824 ], [ -54.5006758, -27.8834513 ], [ -54.5006445, -27.8832928 ], [ -54.5007025, -27.8832159 ] ] ] } },
{ "type": "Feature", "properties": { "name": "Planalto", "code_muni": 4317202.0, "name_muni": "Santa Rosa" }, "geometry": { "type": "Polygon", "coordinates": [ [ [ -54.4686625, -27.8830702 ], [ -54.4686508, -27.8831197 ], [ -54.4686424, -27.883185699999988 ], [ -54.46858, -27.8839112 ], [ -54.4685371, -27.884828699999989 ], [ -54.4685143, -27.8852543 ], [ -54.4684834, -27.8864133 ], [ -54.4686716, -27.8894988 ], [ -54.4687354, -27.8906894 ], [ -54.4690588, -27.8931605 ], [ -54.4697588, -27.8938344 ], [ -54.470005, -27.8940714 ], [ -54.4709705, -27.8949586 ], [ -54.4717983, -27.8942136 ], [ -54.4726107, -27.8934905 ], [ -54.4733091, -27.8929852 ], [ -54.4734405, -27.8928941 ], [ -54.4738318, -27.8925909 ], [ -54.4742613, -27.8922689 ], [ -54.4743176, -27.8922272 ], [ -54.4744179, -27.8921867 ], [ -54.4745754, -27.8921627 ], [ -54.4747447, -27.8921658 ], [ -54.4748402, -27.892193 ], [ -54.4752645, -27.8923438 ], [ -54.4754244, -27.8923509 ], [ -54.4756073, -27.8923256 ], [ -54.475903, -27.8922475 ], [ -54.4759631, -27.892212 ], [ -54.4759987, -27.8921669 ], [ -54.4760899, -27.8920235 ], [ -54.4763832, -27.8915675 ], [ -54.4765006, -27.8913873 ], [ -54.4766096, -27.891446 ], [ -54.4767241, -27.8915162 ], [ -54.4780695, -27.8923621 ], [ -54.4785597, -27.8926542 ], [ -54.4790221, -27.8929261 ], [ -54.479494, -27.8931905 ], [ -54.4809276, -27.8940447 ], [ -54.4813376, -27.8936995 ], [ -54.4819079, -27.8931516 ], [ -54.4823599, -27.892713 ], [ -54.4828286, -27.8922365 ], [ -54.4833017, -27.8917548 ], [ -54.4850781, -27.8897881 ], [ -54.4855151, -27.8893699 ], [ -54.4857941, -27.8890805 ], [ -54.4861388, -27.8887796 ], [ -54.4862585, -27.8886767 ], [ -54.4868921, -27.8881406 ], [ -54.4872242, -27.8878707 ], [ -54.4881843, -27.8871627 ], [ -54.4891687, -27.8865025 ], [ -54.4911339, -27.8851706 ], [ -54.4914061, -27.8849763 ], [ -54.4916783, -27.8847819 ], [ -54.4919044, -27.884619 ], [ -54.4927344, -27.8838324 ], [ -54.4934351, -27.8831752 ], [ -54.4936747, -27.8829249 ], [ -54.4937971, -27.8828069 ], [ -54.49451, -27.8821133 ], [ -54.4953203, -27.881314 ], [ -54.495232, -27.8807004 ], [ -54.4950514, -27.8795521 ], [ -54.4949859, -27.8793552 ], [ -54.4949009, -27.8792183 ], [ -54.4947725, -27.8791061 ], [ -54.4946513, -27.8790199 ], [ -54.4943822, -27.8789339 ], [ -54.4940731, -27.8788727 ], [ -54.4938979, -27.8788381 ], [ -54.4937278, -27.8788178 ], [ -54.4933544, -27.8787731 ], [ -54.4931338, -27.8787466 ], [ -54.4922383, -27.8786597 ], [ -54.4920073, -27.8786476 ], [ -54.4918433, -27.8786407 ], [ -54.4914215, -27.878606 ], [ -54.4911894, -27.8787318 ], [ -54.4908964, -27.8788874 ], [ -54.4906035, -27.879043 ], [ -54.4902656, -27.879148 ], [ -54.4899923, -27.8792115 ], [ -54.4897463, -27.879308 ], [ -54.48958, -27.8794961 ], [ -54.4894096, -27.8797062 ], [ -54.4892154, -27.8798496 ], [ -54.4889331, -27.8799549 ], [ -54.4887436, -27.8799091 ], [ -54.4885401, -27.8798317 ], [ -54.4884106, -27.8797449 ], [ -54.488163, -27.8795836 ], [ -54.4874618, -27.8791539 ], [ -54.4872783, -27.878956 ], [ -54.4871894, -27.8789074 ], [ -54.4868087, -27.8788062 ], [ -54.4867071, -27.8786161 ], [ -54.4866929, -27.8784641 ], [ -54.4866033, -27.878247 ], [ -54.4864885, -27.8781298 ], [ -54.4863442, -27.8779439 ], [ -54.4862284, -27.8777758 ], [ -54.4861249, -27.877619299999985 ], [ -54.4859896, -27.8774516 ], [ -54.4857567, -27.8772589 ], [ -54.4852772, -27.876878 ], [ -54.4851635, -27.8767497 ], [ -54.4851183, -27.8765268 ], [ -54.484971, -27.8764035 ], [ -54.4848439, -27.8762971 ], [ -54.484551, -27.87614 ], [ -54.4843445, -27.8760752 ], [ -54.484106, -27.8760077 ], [ -54.4838692, -27.8759831 ], [ -54.4834915, -27.8759959 ], [ -54.482518, -27.8759446 ], [ -54.482201, -27.8760457 ], [ -54.4819439, -27.8760878 ], [ -54.4816542, -27.8760995 ], [ -54.4813876, -27.8760636 ], [ -54.4810806, -27.8759964 ], [ -54.4809617, -27.875997 ], [ -54.4807467, -27.8760297 ], [ -54.4805024, -27.8760205 ], [ -54.480234, -27.876073 ], [ -54.4799558, -27.8761166 ], [ -54.4796736, -27.8762621 ], [ -54.4790408, -27.8766338 ], [ -54.4788566, -27.8767757 ], [ -54.4786112, -27.8770144 ], [ -54.4784623, -27.8771671 ], [ -54.4784673, -27.8772826 ], [ -54.478608, -27.8774378 ], [ -54.4788291, -27.8776824 ], [ -54.4789416, -27.8779145 ], [ -54.478979, -27.878134 ], [ -54.479086, -27.878475 ], [ -54.4791633, -27.8786916 ], [ -54.4791912, -27.8789805 ], [ -54.4791859, -27.8791429 ], [ -54.4790532, -27.8793833 ], [ -54.4789397, -27.8795314 ], [ -54.4788025, -27.879988 ], [ -54.4786424, -27.8804872 ], [ -54.4786384, -27.8806523 ], [ -54.4786847, -27.8808337 ], [ -54.4787614, -27.8809343 ], [ -54.4789565, -27.881131499999988 ], [ -54.47926540000001, -27.8814599 ], [ -54.4794266, -27.8816068 ], [ -54.4794394, -27.8817505 ], [ -54.4793941, -27.8819064 ], [ -54.4793449, -27.8820609 ], [ -54.4792434, -27.8822152 ], [ -54.4791614, -27.8823808 ], [ -54.478999, -27.8824456 ], [ -54.4788017, -27.8825339 ], [ -54.4786715, -27.8825309 ], [ -54.4785041, -27.8826025 ], [ -54.47835580000001, -27.8826659 ], [ -54.4780626, -27.8827406 ], [ -54.477743, -27.8828018 ], [ -54.4775558, -27.8827789 ], [ -54.4773711, -27.8827469 ], [ -54.477259, -27.8827696 ], [ -54.4771669, -27.8828286 ], [ -54.4770835, -27.8829547 ], [ -54.4769909, -27.883122 ], [ -54.4768441, -27.8832123 ], [ -54.4765701, -27.883419 ], [ -54.4764663, -27.8835618 ], [ -54.4764216, -27.8836514 ], [ -54.4764346, -27.8837974 ], [ -54.476534, -27.8839723 ], [ -54.4766764, -27.8840826 ], [ -54.4768215, -27.8842487 ], [ -54.4772181, -27.8844451 ], [ -54.4773363, -27.8845586 ], [ -54.4773406, -27.8847158 ], [ -54.4773015, -27.8848628 ], [ -54.4772051, -27.8849613 ], [ -54.4769587, -27.8852159 ], [ -54.4766463, -27.8855076 ], [ -54.4765285, -27.8856478 ], [ -54.4764519, -27.8858055 ], [ -54.4762799, -27.8858558 ], [ -54.4761972, -27.8858376 ], [ -54.4761394, -27.885762 ], [ -54.4761202, -27.8856964 ], [ -54.476139, -27.885601 ], [ -54.4761613, -27.885448 ], [ -54.4761175, -27.8853098 ], [ -54.4757893, -27.885113 ], [ -54.4755369, -27.8848884 ], [ -54.4753657, -27.8848451 ], [ -54.4750151, -27.8846866 ], [ -54.4744765, -27.8843233 ], [ -54.473799, -27.8839552 ], [ -54.4734099, -27.883903799999985 ], [ -54.4731852, -27.8839236 ], [ -54.4729258, -27.8839939 ], [ -54.4726651, -27.8841144 ], [ -54.4725155, -27.8841457 ], [ -54.4723487, -27.8840772 ], [ -54.4721136, -27.8841026 ], [ -54.4719349, -27.8841054 ], [ -54.4717587, -27.8841678 ], [ -54.4715978, -27.8842837 ], [ -54.4714458, -27.884531599999985 ], [ -54.4712819, -27.8845829 ], [ -54.4710329, -27.884434 ], [ -54.4700137, -27.8837583 ], [ -54.469732, -27.8835354 ], [ -54.4693297, -27.8833078 ], [ -54.4689676, -27.8829901 ], [ -54.4686867, -27.883002 ], [ -54.4686625, -27.8830702 ] ] ] } },
{ "type": "Feature", "properties": { "name": "Industrial", "code_muni": 4317202.0, "name_muni": "Santa Rosa" }, "geometry": { "type": "Polygon", "coordinates": [ [ [ -54.4604884, -27.897266 ], [ -54.4609412, -27.898276 ], [ -54.4612117, -27.8990056 ], [ -54.4612468, -27.8990848 ], [ -54.4615699, -27.8996543 ], [ -54.4620493, -27.9003213 ], [ -54.4622098, -27.9005138 ], [ -54.4632324, -27.9014726 ], [ -54.4640136, -27.9022205 ], [ -54.4651901, -27.9034324 ], [ -54.4661076, -27.9043379 ], [ -54.4678813, -27.9060882 ], [ -54.4687182, -27.9066696 ], [ -54.4696421, -27.9056236 ], [ -54.4706282, -27.9047637 ], [ -54.4718171, -27.903746 ], [ -54.4728051, -27.902876 ], [ -54.4729765, -27.9027271 ], [ -54.4732396, -27.902479 ], [ -54.4733858, -27.902345 ], [ -54.4734732, -27.9022601 ], [ -54.4738778, -27.9018668 ], [ -54.4744238, -27.9013685 ], [ -54.474789, -27.9010056 ], [ -54.4764677, -27.8991822 ], [ -54.476806, -27.8987665 ], [ -54.4784439, -27.8966404 ], [ -54.4796129, -27.8953478 ], [ -54.4809276, -27.8940447 ], [ -54.479494, -27.8931905 ], [ -54.4790221, -27.8929261 ], [ -54.4785597, -27.8926542 ], [ -54.4780695, -27.8923621 ], [ -54.4767241, -27.8915162 ], [ -54.4766096, -27.891446 ], [ -54.4765006, -27.8913873 ], [ -54.4763832, -27.8915675 ], [ -54.4760899, -27.8920235 ], [ -54.4759987, -27.8921669 ], [ -54.4759631, -27.892212 ], [ -54.475903, -27.8922475 ], [ -54.4756073, -27.8923256 ], [ -54.4754244, -27.8923509 ], [ -54.4752645, -27.8923438 ], [ -54.4748402, -27.892193 ], [ -54.4747447, -27.8921658 ], [ -54.4745754, -27.8921627 ], [ -54.4744179, -27.8921867 ], [ -54.4743176, -27.8922272 ], [ -54.4742613, -27.8922689 ], [ -54.4738318, -27.8925909 ], [ -54.4734405, -27.8928941 ], [ -54.4733091, -27.8929852 ], [ -54.4726107, -27.8934905 ], [ -54.4717983, -27.8942136 ], [ -54.4709705, -27.8949586 ], [ -54.470005, -27.8940714 ], [ -54.4697588, -27.8938344 ], [ -54.4690588, -27.8931605 ], [ -54.4687354, -27.8906894 ], [ -54.4682701, -27.8906033 ], [ -54.467821, -27.8904598 ], [ -54.4673588, -27.8904806 ], [ -54.466755, -27.8905354 ], [ -54.4665445, -27.890463 ], [ -54.4664193, -27.890282 ], [ -54.4662909, -27.8901019 ], [ -54.4660966, -27.8900509 ], [ -54.4658234, -27.8901038 ], [ -54.4654619, -27.8902044 ], [ -54.4652112, -27.890177199999989 ], [ -54.4638712, -27.8904191 ], [ -54.4637656, -27.8905451 ], [ -54.4637059, -27.890776 ], [ -54.4636053, -27.8908902 ], [ -54.4631177, -27.8911763 ], [ -54.46269490000001, -27.8913298 ], [ -54.4626081, -27.8915057 ], [ -54.4626074, -27.8917373 ], [ -54.463047, -27.8921882 ], [ -54.4631106, -27.8928134 ], [ -54.4630195, -27.8932102 ], [ -54.4628932, -27.8932965 ], [ -54.4627224, -27.8932709 ], [ -54.46243410000001, -27.8932599 ], [ -54.4621888, -27.8933411 ], [ -54.4620653, -27.8934303 ], [ -54.4619524, -27.8935269 ], [ -54.4618842, -27.8937576 ], [ -54.4618092, -27.8942729 ], [ -54.461646, -27.8947403 ], [ -54.4615393, -27.895033699999988 ], [ -54.4615163, -27.8952972 ], [ -54.4615623, -27.8955365 ], [ -54.4613856, -27.895903600000011 ], [ -54.4610597, -27.8962666 ], [ -54.46057350000001, -27.8967614 ], [ -54.4604524, -27.8968461 ], [ -54.4604884, -27.897266 ] ] ] } },
{ "type": "Feature", "properties": { "name": "São Francisco", "code_muni": 4317202.0, "name_muni": "Santa Rosa" }, "geometry": { "type": "Polygon", "coordinates": [ [ [ -54.4650839, -27.8796335 ], [ -54.4650834, -27.879924 ], [ -54.4652112, -27.890177199999989 ], [ -54.4654619, -27.8902044 ], [ -54.4658234, -27.8901038 ], [ -54.4660966, -27.8900509 ], [ -54.4662909, -27.8901019 ], [ -54.4664193, -27.890282 ], [ -54.4665445, -27.890463 ], [ -54.466755, -27.8905354 ], [ -54.4673588, -27.8904806 ], [ -54.467821, -27.8904598 ], [ -54.4682701, -27.8906033 ], [ -54.4687354, -27.8906894 ], [ -54.4686716, -27.8894988 ], [ -54.4684834, -27.8864133 ], [ -54.4685143, -27.8852543 ], [ -54.4685371, -27.884828699999989 ], [ -54.46858, -27.8839112 ], [ -54.4686424, -27.883185699999988 ], [ -54.4686508, -27.8831197 ], [ -54.4686625, -27.8830702 ], [ -54.4686867, -27.883002 ], [ -54.4689676, -27.8829901 ], [ -54.4693297, -27.8833078 ], [ -54.469732, -27.8835354 ], [ -54.4700137, -27.8837583 ], [ -54.4710329, -27.884434 ], [ -54.4712819, -27.8845829 ], [ -54.4714458, -27.884531599999985 ], [ -54.4715978, -27.8842837 ], [ -54.4717587, -27.8841678 ], [ -54.4719349, -27.8841054 ], [ -54.4721136, -27.8841026 ], [ -54.4723487, -27.8840772 ], [ -54.4725155, -27.8841457 ], [ -54.4726651, -27.8841144 ], [ -54.4729258, -27.8839939 ], [ -54.4731852, -27.8839236 ], [ -54.4734099, -27.883903799999985 ], [ -54.473799, -27.8839552 ], [ -54.4744765, -27.8843233 ], [ -54.4750151, -27.8846866 ], [ -54.4753657, -27.8848451 ], [ -54.4755369, -27.8848884 ], [ -54.4757893, -27.885113 ], [ -54.4761175, -27.8853098 ], [ -54.4761613, -27.885448 ], [ -54.476139, -27.885601 ], [ -54.4761202, -27.8856964 ], [ -54.4761394, -27.885762 ], [ -54.4761972, -27.8858376 ], [ -54.4762799, -27.8858558 ], [ -54.4764519, -27.8858055 ], [ -54.4765285, -27.8856478 ], [ -54.4766463, -27.8855076 ], [ -54.4769587, -27.8852159 ], [ -54.4772051, -27.8849613 ], [ -54.4773015, -27.8848628 ], [ -54.4773406, -27.8847158 ], [ -54.4773363, -27.8845586 ], [ -54.4772181, -27.8844451 ], [ -54.4768215, -27.8842487 ], [ -54.4766764, -27.8840826 ], [ -54.476534, -27.8839723 ], [ -54.4764346, -27.8837974 ], [ -54.4764216, -27.8836514 ], [ -54.4764663, -27.8835618 ], [ -54.4765701, -27.883419 ], [ -54.4768441, -27.8832123 ], [ -54.4769909, -27.883122 ], [ -54.4770835, -27.8829547 ], [ -54.4771669, -27.8828286 ], [ -54.477259, -27.8827696 ], [ -54.4773711, -27.8827469 ], [ -54.4775558, -27.8827789 ], [ -54.477743, -27.8828018 ], [ -54.4780626, -27.8827406 ], [ -54.47835580000001, -27.8826659 ], [ -54.4785041, -27.8826025 ], [ -54.4786715, -27.8825309 ], [ -54.4788017, -27.8825339 ], [ -54.478999, -27.8824456 ], [ -54.4791614, -27.8823808 ], [ -54.4792434, -27.8822152 ], [ -54.4793449, -27.8820609 ], [ -54.4793941, -27.8819064 ], [ -54.4794394, -27.8817505 ], [ -54.4794266, -27.8816068 ], [ -54.47926540000001, -27.8814599 ], [ -54.4789565, -27.881131499999988 ], [ -54.4787614, -27.8809343 ], [ -54.4786847, -27.8808337 ], [ -54.4786384, -27.8806523 ], [ -54.4786424, -27.8804872 ], [ -54.4788025, -27.879988 ], [ -54.4789397, -27.8795314 ], [ -54.4790532, -27.8793833 ], [ -54.4791859, -27.8791429 ], [ -54.4791912, -27.8789805 ], [ -54.4791633, -27.8786916 ], [ -54.479086, -27.878475 ], [ -54.478979, -27.878134 ], [ -54.4789416, -27.8779145 ], [ -54.4788291, -27.8776824 ], [ -54.478608, -27.8774378 ], [ -54.47844, -27.8775245 ], [ -54.4779847, -27.877582 ], [ -54.4776806, -27.8775773 ], [ -54.476935, -27.8773118 ], [ -54.4767141, -27.8771939 ], [ -54.4762384, -27.87717 ], [ -54.47585, -27.877216 ], [ -54.475312, -27.8772121 ], [ -54.4744457, -27.877044 ], [ -54.4737219, -27.8767202 ], [ -54.473013, -27.876188599999988 ], [ -54.472728, -27.8760558 ], [ -54.4716989, -27.8756727 ], [ -54.4711158, -27.8754934 ], [ -54.4706176, -27.8753043 ], [ -54.47012560000001, -27.8749753 ], [ -54.4699376, -27.8747724 ], [ -54.4692412, -27.8744432 ], [ -54.4688412, -27.8743727 ], [ -54.4684125, -27.8740104 ], [ -54.4684212, -27.8738098 ], [ -54.4680871, -27.87336 ], [ -54.4676234, -27.8730822 ], [ -54.4672148, -27.8728129 ], [ -54.4668101, -27.8724629 ], [ -54.4664098, -27.8721832 ], [ -54.4654793, -27.8716163 ], [ -54.465289, -27.8714539 ], [ -54.4651072, -27.8782598 ], [ -54.4650931, -27.8789632 ], [ -54.4650839, -27.8796335 ] ] ] } },
{ "type": "Feature", "properties": { "name": "Figueira", "code_muni": 4317202.0, "name_muni": "Santa Rosa" }, "geometry": { "type": "Polygon", "coordinates": [ [ [ -54.4647638, -27.8710413 ], [ -54.4640483, -27.8706101 ], [ -54.463284, -27.870035 ], [ -54.4615743, -27.8693426 ], [ -54.4608186, -27.8690783 ], [ -54.4602602, -27.8688841 ], [ -54.4473839, -27.868937399999989 ], [ -54.4294726, -27.8793969 ], [ -54.4296613, -27.8795125 ], [ -54.4298559, -27.8796266 ], [ -54.43080830000001, -27.8801235 ], [ -54.4315964, -27.8804794 ], [ -54.4321688, -27.8807203 ], [ -54.4337824, -27.8812951 ], [ -54.4345155, -27.8815528 ], [ -54.4345782, -27.8815748 ], [ -54.4442065, -27.8846 ], [ -54.4473271, -27.8855048 ], [ -54.4519358, -27.8869604 ], [ -54.4535961, -27.8876029 ], [ -54.45448420000001, -27.8880498 ], [ -54.4549323, -27.888301 ], [ -54.4550486, -27.8883758 ], [ -54.4551802, -27.8884604 ], [ -54.4557228, -27.8888536 ], [ -54.4562701, -27.8893392 ], [ -54.4568962, -27.8899408 ], [ -54.4575159, -27.8907384 ], [ -54.4579924, -27.8914502 ], [ -54.4582167, -27.8918276 ], [ -54.4584076, -27.8922326 ], [ -54.4585735, -27.8926213 ], [ -54.4593194, -27.8943638 ], [ -54.4597129, -27.8953966 ], [ -54.4599507, -27.8959788 ], [ -54.4601835, -27.8965963 ], [ -54.4604524, -27.8968461 ], [ -54.46057350000001, -27.8967614 ], [ -54.4610597, -27.8962666 ], [ -54.4613856, -27.895903600000011 ], [ -54.4615623, -27.8955365 ], [ -54.4615163, -27.8952972 ], [ -54.4615393, -27.895033699999988 ], [ -54.461646, -27.8947403 ], [ -54.4618092, -27.8942729 ], [ -54.4618842, -27.8937576 ], [ -54.4619524, -27.8935269 ], [ -54.4620653, -27.8934303 ], [ -54.4621888, -27.8933411 ], [ -54.46243410000001, -27.8932599 ], [ -54.4627224, -27.8932709 ], [ -54.4628932, -27.8932965 ], [ -54.4630195, -27.8932102 ], [ -54.4631106, -27.8928134 ], [ -54.463047, -27.8921882 ], [ -54.4626074, -27.8917373 ], [ -54.4626081, -27.8915057 ], [ -54.46269490000001, -27.8913298 ], [ -54.4631177, -27.8911763 ], [ -54.4636053, -27.8908902 ], [ -54.4637059, -27.890776 ], [ -54.4637656, -27.8905451 ], [ -54.4638712, -27.8904191 ], [ -54.4652112, -27.890177199999989 ], [ -54.4650834, -27.879924 ], [ -54.4650839, -27.8796335 ], [ -54.4650931, -27.8789632 ], [ -54.4651072, -27.8782598 ], [ -54.465289, -27.8714539 ], [ -54.4647638, -27.8710413 ] ] ] } },
{ "type": "Feature", "properties": { "name": "Cruzeiro", "code_muni": 4317202.0, "name_muni": "Santa Rosa" }, "geometry": { "type": "Polygon", "coordinates": [ [ [ -54.4347782, -27.8416546 ], [ -54.4348817, -27.8419116 ], [ -54.4351283, -27.8425642 ], [ -54.4355479, -27.8438499 ], [ -54.4358544, -27.8447805 ], [ -54.4359375, -27.8450554 ], [ -54.436003, -27.8453474 ], [ -54.436061, -27.8457186 ], [ -54.4360912, -27.846254 ], [ -54.4359282, -27.8473396 ], [ -54.4358517, -27.8478335 ], [ -54.4357106, -27.8481922 ], [ -54.4353742, -27.848807199999989 ], [ -54.4349491, -27.8496526 ], [ -54.434453, -27.8506403 ], [ -54.4343501, -27.8508439 ], [ -54.4335397, -27.8524557 ], [ -54.4330813, -27.8533801 ], [ -54.4326322, -27.8542043 ], [ -54.432016, -27.8550369 ], [ -54.4314006, -27.8556632 ], [ -54.4308288, -27.856106 ], [ -54.4301256, -27.8564933 ], [ -54.4300347, -27.8565433 ], [ -54.4295033, -27.856765 ], [ -54.428927, -27.8569378 ], [ -54.4287331, -27.8569794 ], [ -54.4233567, -27.858134 ], [ -54.4222572, -27.8583932 ], [ -54.4216754, -27.8586147 ], [ -54.4211683, -27.8588444 ], [ -54.4204096, -27.8593482 ], [ -54.4201782, -27.8595313 ], [ -54.4197813, -27.8598776 ], [ -54.4191436, -27.8606002 ], [ -54.4187292, -27.8612662 ], [ -54.4183751, -27.862074 ], [ -54.4182511, -27.8625198 ], [ -54.4181773, -27.8629691 ], [ -54.4181461, -27.8637464 ], [ -54.4182363, -27.8645223 ], [ -54.4184241, -27.8651785 ], [ -54.418813, -27.8660304 ], [ -54.4188928, -27.8661643 ], [ -54.4197404, -27.8677204 ], [ -54.4202124, -27.8686132 ], [ -54.4205605, -27.8693701 ], [ -54.4214629, -27.8710792 ], [ -54.4221718, -27.8724217 ], [ -54.4225371, -27.8730582 ], [ -54.4231834, -27.8742934 ], [ -54.4237517, -27.8751135 ], [ -54.4246672, -27.876123 ], [ -54.4257047, -27.8770245 ], [ -54.4269794, -27.8778495 ], [ -54.4276896, -27.8783043 ], [ -54.4281687, -27.8786038 ], [ -54.4290913, -27.879162199999989 ], [ -54.4293414, -27.8793149 ], [ -54.4294726, -27.8793969 ], [ -54.4473839, -27.868937399999989 ], [ -54.447848, -27.8645414 ], [ -54.447961, -27.8638405 ], [ -54.4480599, -27.8631753 ], [ -54.4481688, -27.8625074 ], [ -54.4482828, -27.861812 ], [ -54.4484996, -27.8604298 ], [ -54.4485096, -27.8603515 ], [ -54.4474502, -27.860219 ], [ -54.4474552, -27.8601558 ], [ -54.4474577, -27.8601395 ], [ -54.4475209, -27.8594928 ], [ -54.4475665, -27.8588846 ], [ -54.4475728, -27.8588197 ], [ -54.4475778, -27.8587135 ], [ -54.4476777, -27.8577783 ], [ -54.447759, -27.8567659 ], [ -54.4478681, -27.8558395 ], [ -54.4479608, -27.8550085 ], [ -54.4480026, -27.854477 ], [ -54.4480385, -27.8539912 ], [ -54.4480556, -27.8537645 ], [ -54.4489736, -27.841979 ], [ -54.4444003, -27.8425722 ], [ -54.4434246, -27.8426987 ], [ -54.441876, -27.8428973 ], [ -54.4409509, -27.843019 ], [ -54.439839, -27.8431333 ], [ -54.439444, -27.8431464 ], [ -54.4392467, -27.8431462 ], [ -54.4387647, -27.8431193 ], [ -54.438219, -27.843034 ], [ -54.4377056, -27.8429031 ], [ -54.4373425, -27.8427831 ], [ -54.436977, -27.8426585 ], [ -54.4365967, -27.8424949 ], [ -54.4358895, -27.8421013 ], [ -54.4347782, -27.8416546 ] ] ] } }
]
}
