{
"type": "FeatureCollection",
"name": "bairros_sao_borja",
"crs": { "type": "name", "properties": { "name": "urn:ogc:def:crs:OGC:1.3:CRS84" } },
"features": [
{ "type": "Feature", "properties": { "name": "Centro", "code_muni": 4318002.0, "name_muni": "São Borja" }, "geometry": { "type": "Polygon", "coordinates": [ [ [ -56.0071796, -28.6498434 ], [ -56.0070961, -28.6498219 ], [ -56.0070537, -28.6498165 ], [ -56.0069262, -28.649796899999988 ], [ -56.0057105, -28.6495956 ], [ -56.0041584, -28.6493732 ], [ -56.0033245, -28.6492328 ], [ -56.0026292, -28.6496827 ], [ -56.002083, -28.6500233 ], [ -56.0018477, -28.6501633 ], [ -56.0014612, -28.6503921 ], [ -56.0008558, -28.6507745 ], [ -56.0007017, -28.6515428 ], [ -56.0004761, -28.652875 ], [ -56.0001884, -28.6542055 ], [ -55.999936, -28.655547 ], [ -55.9997004, -28.6568021 ], [ -55.9994499, -28.6581133 ], [ -55.9993094, -28.6588015 ], [ -55.9991072, -28.6599576 ], [ -55.9990644, -28.6602772 ], [ -55.9988352, -28.6616719 ], [ -55.9986521, -28.6626944 ], [ -55.9984377, -28.6640609 ], [ -55.9982462, -28.6651712 ], [ -55.9991204, -28.6653252 ], [ -56.0002638, -28.6655118 ], [ -56.0008092, -28.665602 ], [ -56.0026191, -28.665916899999988 ], [ -56.0023718, -28.667256 ], [ -56.0021008, -28.6686373 ], [ -56.0035735, -28.6688195 ], [ -56.0051698, -28.6690851 ], [ -56.0054575, -28.6682151 ], [ -56.0055642, -28.667782699999989 ], [ -56.0057527, -28.666421 ], [ -56.0068572, -28.6665878 ], [ -56.007735, -28.6667297 ], [ -56.009325, -28.6669837 ], [ -56.0096123, -28.6654958 ], [ -56.0098295, -28.6643286 ], [ -56.0101302, -28.662737 ], [ -56.0103512, -28.6615275 ], [ -56.00876130000001, -28.661365 ], [ -56.0087801, -28.661273 ], [ -56.0089716, -28.660336799999985 ], [ -56.0089936, -28.6602495 ], [ -56.0090144, -28.6601308 ], [ -56.009113, -28.6595892 ], [ -56.009396, -28.6582956 ], [ -56.0094116, -28.6582177 ], [ -56.0094885, -28.6577729 ], [ -56.0095098, -28.6576622 ], [ -56.0095218, -28.6575867 ], [ -56.0096354, -28.6571373 ], [ -56.0096596, -28.6570101 ], [ -56.0096756, -28.6569264 ], [ -56.0098874, -28.6558296 ], [ -56.0099132, -28.6557249 ], [ -56.0099374, -28.6555981 ], [ -56.010169, -28.6545024 ], [ -56.0101924, -28.6543827 ], [ -56.0102122, -28.6542831 ], [ -56.0103693, -28.6534939 ], [ -56.0104459, -28.6529579 ], [ -56.0104574, -28.6528543 ], [ -56.0106599, -28.6517748 ], [ -56.0106763, -28.651659 ], [ -56.0109027, -28.6505445 ], [ -56.0109202, -28.6504505 ], [ -56.0103938, -28.6503388 ], [ -56.0099034, -28.650246 ], [ -56.0095689, -28.6501951 ], [ -56.009231, -28.6501435 ], [ -56.0088728, -28.6501419 ], [ -56.0088459, -28.6501358 ], [ -56.0087902, -28.6501268 ], [ -56.0085603, -28.6500899 ], [ -56.0083477, -28.6500381 ], [ -56.0080865, -28.6499893 ], [ -56.0071796, -28.6498434 ] ] ] } },
{ "type": "Feature", "properties": { "name": "Várzea", "code_muni": 4318002.0, "name_muni": "São Borja" }, "geometry": { "type": "Polygon", "coordinates": [ [ [ -56.0288694, -28.6358014 ], [ -56.0282789, -28.6355846 ], [ -56.0277621, -28.6354071 ], [ -56.0262944, -28.6348997 ], [ -56.0246877, -28.6343456 ], [ -56.0245941, -28.6343157 ], [ -56.0232827, -28.6338413 ], [ -56.023239, -28.6338256 ], [ -56.0219679, -28.6333738 ], [ -56.0207801, -28.632978 ], [ -56.0205497, -28.6328925 ], [ -56.0203959, -28.6328543 ], [ -56.0190417, -28.6323748 ], [ -56.0186631, -28.6328128 ], [ -56.0178487, -28.6339464 ], [ -56.0170581, -28.6352065 ], [ -56.016743, -28.6357317 ], [ -56.0162871, -28.6364805 ], [ -56.0155736, -28.6376493 ], [ -56.0151571, -28.638352 ], [ -56.0147596, -28.6389628 ], [ -56.014026, -28.640187 ], [ -56.0139643, -28.6402835 ], [ -56.0132106, -28.641457 ], [ -56.0128056, -28.6419301 ], [ -56.0125454, -28.642262 ], [ -56.0123053, -28.6425469 ], [ -56.0119352, -28.6428482 ], [ -56.0117018, -28.6430365 ], [ -56.0114439, -28.6432234 ], [ -56.0108237, -28.6436467 ], [ -56.010738, -28.6439298 ], [ -56.0104852, -28.6443197 ], [ -56.0091799, -28.6453045 ], [ -56.0079905, -28.6462266 ], [ -56.0069892, -28.6469628 ], [ -56.0058287, -28.6477566 ], [ -56.00503470000001, -28.6482415 ], [ -56.0040039, -28.6488671 ], [ -56.0033245, -28.6492328 ], [ -56.0041584, -28.6493732 ], [ -56.0057105, -28.6495956 ], [ -56.0069262, -28.649796899999988 ], [ -56.0070537, -28.6498165 ], [ -56.0070961, -28.6498219 ], [ -56.0071796, -28.6498434 ], [ -56.0080865, -28.6499893 ], [ -56.0083477, -28.6500381 ], [ -56.0085603, -28.6500899 ], [ -56.0087902, -28.6501268 ], [ -56.0088459, -28.6501358 ], [ -56.0088728, -28.6501419 ], [ -56.009231, -28.6501435 ], [ -56.0095689, -28.6501951 ], [ -56.0099034, -28.650246 ], [ -56.0103938, -28.6503388 ], [ -56.0109202, -28.6504505 ], [ -56.0110008, -28.6503894 ], [ -56.0134847, -28.6524259 ], [ -56.014199, -28.6529497 ], [ -56.0144681, -28.6531118 ], [ -56.0149186, -28.6533515 ], [ -56.0159907, -28.653999 ], [ -56.0164082, -28.6542511 ], [ -56.0192952, -28.6560272 ], [ -56.0199653, -28.656426 ], [ -56.0208586, -28.6569627 ], [ -56.0217767, -28.6575005 ], [ -56.0221423, -28.6568357 ], [ -56.0223931, -28.656357899999989 ], [ -56.0228469, -28.6554994 ], [ -56.0230914, -28.6550672 ], [ -56.023205, -28.6548585 ], [ -56.023525, -28.6541855 ], [ -56.0242157, -28.6528956 ], [ -56.0246051, -28.652167 ], [ -56.024793, -28.6517111 ], [ -56.02526910000001, -28.6504618 ], [ -56.0257321, -28.6492052 ], [ -56.0262814, -28.6474942 ], [ -56.0302392, -28.6362992 ], [ -56.0288694, -28.6358014 ] ] ] } },
{ "type": "Feature", "properties": { "name": "Maria do Carmo", "code_muni": 4318002.0, "name_muni": "São Borja" }, "geometry": { "type": "Polygon", "coordinates": [ [ [ -56.01978960000001, -28.6620405 ], [ -56.0200877, -28.6613517 ], [ -56.0203431, -28.6607517 ], [ -56.0206703, -28.659985299999988 ], [ -56.0212091, -28.6587972 ], [ -56.0217767, -28.6575005 ], [ -56.0208586, -28.6569627 ], [ -56.0199653, -28.656426 ], [ -56.0192952, -28.6560272 ], [ -56.0164082, -28.6542511 ], [ -56.0159907, -28.653999 ], [ -56.0149186, -28.6533515 ], [ -56.0144681, -28.6531118 ], [ -56.014199, -28.6529497 ], [ -56.0134847, -28.6524259 ], [ -56.0110008, -28.6503894 ], [ -56.0109202, -28.6504505 ], [ -56.0109027, -28.6505445 ], [ -56.0106763, -28.651659 ], [ -56.0106599, -28.6517748 ], [ -56.0104574, -28.6528543 ], [ -56.0104459, -28.6529579 ], [ -56.0103693, -28.6534939 ], [ -56.0102122, -28.6542831 ], [ -56.0101924, -28.6543827 ], [ -56.010169, -28.6545024 ], [ -56.0099374, -28.6555981 ], [ -56.0099132, -28.6557249 ], [ -56.0098874, -28.6558296 ], [ -56.0096756, -28.6569264 ], [ -56.0096596, -28.6570101 ], [ -56.0096354, -28.6571373 ], [ -56.0095218, -28.6575867 ], [ -56.0095098, -28.6576622 ], [ -56.0094885, -28.6577729 ], [ -56.0094116, -28.6582177 ], [ -56.009396, -28.6582956 ], [ -56.009113, -28.6595892 ], [ -56.0090144, -28.6601308 ], [ -56.0089936, -28.6602495 ], [ -56.0089716, -28.660336799999985 ], [ -56.0087801, -28.661273 ], [ -56.00876130000001, -28.661365 ], [ -56.0103512, -28.6615275 ], [ -56.0111266, -28.6616098 ], [ -56.0119268, -28.6617744 ], [ -56.0119862, -28.6618001 ], [ -56.0128788, -28.66205 ], [ -56.0133541, -28.662427 ], [ -56.0140838, -28.6625942 ], [ -56.01478370000001, -28.6627657 ], [ -56.0156514, -28.6630268 ], [ -56.0167628, -28.6633824 ], [ -56.0175225, -28.663586699999989 ], [ -56.0189814, -28.6640663 ], [ -56.01978960000001, -28.6620405 ] ] ] } },
{ "type": "Feature", "properties": { "name": "Doutor Florencio Aquino Guimarães", "code_muni": 4318002.0, "name_muni": "São Borja" }, "geometry": { "type": "Polygon", "coordinates": [ [ [ -56.0080446, -28.6737031 ], [ -56.0079367, -28.6743208 ], [ -56.007818, -28.6750088 ], [ -56.0077992, -28.6751 ], [ -56.0086515, -28.6752515 ], [ -56.0108765, -28.6756688 ], [ -56.0130772, -28.6760653 ], [ -56.0144483, -28.676319199999988 ], [ -56.014576, -28.6763386 ], [ -56.0146903, -28.676351 ], [ -56.0147934, -28.6763385 ], [ -56.0148797, -28.676297699999989 ], [ -56.0149542, -28.6762433 ], [ -56.0150109, -28.6761536 ], [ -56.0150761, -28.6759613 ], [ -56.0155111, -28.6745199 ], [ -56.0162755, -28.6721742 ], [ -56.0170616, -28.6697904 ], [ -56.0180916, -28.66662 ], [ -56.0184237, -28.6657565 ], [ -56.0187982, -28.6645868 ], [ -56.0189814, -28.6640663 ], [ -56.0175225, -28.663586699999989 ], [ -56.0167628, -28.6633824 ], [ -56.0156514, -28.6630268 ], [ -56.01478370000001, -28.6627657 ], [ -56.0140838, -28.6625942 ], [ -56.0133541, -28.662427 ], [ -56.0128788, -28.66205 ], [ -56.0119862, -28.6618001 ], [ -56.0119268, -28.6617744 ], [ -56.0111266, -28.6616098 ], [ -56.0103512, -28.6615275 ], [ -56.0101302, -28.662737 ], [ -56.0098295, -28.6643286 ], [ -56.0096123, -28.6654958 ], [ -56.009325, -28.6669837 ], [ -56.0090521, -28.668324 ], [ -56.0088217, -28.6696715 ], [ -56.0086918, -28.6703651 ], [ -56.0085715, -28.671021 ], [ -56.0082874, -28.6724017 ], [ -56.0081694, -28.6730583 ], [ -56.0080446, -28.6737031 ] ] ] } },
{ "type": "Feature", "properties": { "name": "Paraboi", "code_muni": 4318002.0, "name_muni": "São Borja" }, "geometry": { "type": "Polygon", "coordinates": [ [ [ -56.0011634, -28.673836 ], [ -56.0024214, -28.6740968 ], [ -56.0024929, -28.674116099999985 ], [ -56.0026175, -28.674142 ], [ -56.0031591, -28.6742585 ], [ -56.0035104, -28.6742902 ], [ -56.007708, -28.675062100000012 ], [ -56.0077992, -28.6751 ], [ -56.007818, -28.6750088 ], [ -56.0079367, -28.6743208 ], [ -56.0080446, -28.6737031 ], [ -56.0081694, -28.6730583 ], [ -56.0082874, -28.6724017 ], [ -56.0085715, -28.671021 ], [ -56.0086918, -28.6703651 ], [ -56.0088217, -28.6696715 ], [ -56.0090521, -28.668324 ], [ -56.009325, -28.6669837 ], [ -56.007735, -28.6667297 ], [ -56.0068572, -28.6665878 ], [ -56.0057527, -28.666421 ], [ -56.0055642, -28.667782699999989 ], [ -56.0054575, -28.6682151 ], [ -56.0051698, -28.6690851 ], [ -56.0035735, -28.6688195 ], [ -56.0021008, -28.6686373 ], [ -56.0008232, -28.6683456 ], [ -56.0004368, -28.6682671 ], [ -56.0003145, -28.6689623 ], [ -56.0002275, -28.6696494 ], [ -56.0000627, -28.6709516 ], [ -55.9998961, -28.6723205 ], [ -55.9997271, -28.6735089 ], [ -55.9997097, -28.6735942 ], [ -56.0011634, -28.673836 ] ] ] } },
{ "type": "Feature", "properties": { "name": "Bettin", "code_muni": 4318002.0, "name_muni": "São Borja" }, "geometry": { "type": "Polygon", "coordinates": [ [ [ -55.9882636, -28.6643885 ], [ -55.9880132, -28.6643589 ], [ -55.9879338, -28.6643346 ], [ -55.9877953, -28.664293 ], [ -55.9878003, -28.6644152 ], [ -55.987798, -28.6645425 ], [ -55.9870175, -28.6706896 ], [ -55.9870094, -28.6709014 ], [ -55.9870523, -28.6710497 ], [ -55.9871757, -28.6711956 ], [ -55.987283, -28.671278 ], [ -55.9874707, -28.6713556 ], [ -55.9967324, -28.6730335 ], [ -55.9997097, -28.6735942 ], [ -55.9997271, -28.6735089 ], [ -55.9998961, -28.6723205 ], [ -56.0000627, -28.6709516 ], [ -56.0002275, -28.6696494 ], [ -56.0003145, -28.6689623 ], [ -56.0004368, -28.6682671 ], [ -56.0008232, -28.6683456 ], [ -56.0021008, -28.6686373 ], [ -56.0023718, -28.667256 ], [ -56.0026191, -28.665916899999988 ], [ -56.0008092, -28.665602 ], [ -56.0002638, -28.6655118 ], [ -55.9991204, -28.6653252 ], [ -55.9982462, -28.6651712 ], [ -55.9984377, -28.6640609 ], [ -55.9979185, -28.6639938 ], [ -55.9969658, -28.6638457 ], [ -55.996483, -28.663751499999986 ], [ -55.9959662, -28.6637865 ], [ -55.995449, -28.663817 ], [ -55.9938211, -28.6639238 ], [ -55.992284, -28.6641255 ], [ -55.9909067, -28.6642743 ], [ -55.9889166, -28.6643729 ], [ -55.9882636, -28.6643885 ] ] ] } },
{ "type": "Feature", "properties": { "name": "Pirahy", "code_muni": 4318002.0, "name_muni": "São Borja" }, "geometry": { "type": "Polygon", "coordinates": [ [ [ -55.9965132, -28.658367 ], [ -55.9950939, -28.6581507 ], [ -55.9935768, -28.657889 ], [ -55.9916155, -28.6575973 ], [ -55.9906332, -28.6574562 ], [ -55.9905293, -28.657439899999986 ], [ -55.98892, -28.6571776 ], [ -55.9887126, -28.657146 ], [ -55.9884283, -28.6593282 ], [ -55.9884337, -28.6594466 ], [ -55.9884135, -28.6596235 ], [ -55.9882951, -28.6606057 ], [ -55.9881678, -28.6615853 ], [ -55.9880025, -28.6628992 ], [ -55.98799, -28.6630122 ], [ -55.9878964, -28.6638593 ], [ -55.9877953, -28.664293 ], [ -55.9879338, -28.6643346 ], [ -55.9880132, -28.6643589 ], [ -55.9882636, -28.6643885 ], [ -55.9889166, -28.6643729 ], [ -55.9909067, -28.6642743 ], [ -55.992284, -28.6641255 ], [ -55.9938211, -28.6639238 ], [ -55.995449, -28.663817 ], [ -55.9959662, -28.6637865 ], [ -55.996483, -28.663751499999986 ], [ -55.9969658, -28.6638457 ], [ -55.9979185, -28.6639938 ], [ -55.9984377, -28.6640609 ], [ -55.9986521, -28.6626944 ], [ -55.9988352, -28.6616719 ], [ -55.9990644, -28.6602772 ], [ -55.9991072, -28.6599576 ], [ -55.9993094, -28.6588015 ], [ -55.9978906, -28.6585803 ], [ -55.9973466, -28.6584977 ], [ -55.9965132, -28.658367 ] ] ] } },
{ "type": "Feature", "properties": { "name": "Tiro", "code_muni": 4318002.0, "name_muni": "São Borja" }, "geometry": { "type": "Polygon", "coordinates": [ [ [ -55.9946939, -28.647746699999988 ], [ -55.994647, -28.647902 ], [ -55.9909174, -28.6473159 ], [ -55.9897667, -28.647137 ], [ -55.9895924, -28.6471417 ], [ -55.9897131, -28.6484823 ], [ -55.9897211, -28.6487612 ], [ -55.9895307, -28.6502182 ], [ -55.9892786, -28.6523366 ], [ -55.989072, -28.654069 ], [ -55.9888065, -28.656189699999985 ], [ -55.9887126, -28.657146 ], [ -55.98892, -28.6571776 ], [ -55.9905293, -28.657439899999986 ], [ -55.9906332, -28.6574562 ], [ -55.9916155, -28.6575973 ], [ -55.9935768, -28.657889 ], [ -55.9950939, -28.6581507 ], [ -55.9965132, -28.658367 ], [ -55.9973466, -28.6584977 ], [ -55.9978906, -28.6585803 ], [ -55.9993094, -28.6588015 ], [ -55.9994499, -28.6581133 ], [ -55.9997004, -28.6568021 ], [ -55.999936, -28.655547 ], [ -56.0001884, -28.6542055 ], [ -56.0004761, -28.652875 ], [ -56.0007017, -28.6515428 ], [ -56.0008558, -28.6507745 ], [ -56.0014612, -28.6503921 ], [ -56.001384, -28.6503082 ], [ -56.0012774, -28.65026180000001 ], [ -56.0009623, -28.6502323 ], [ -56.0012093, -28.648940299999985 ], [ -56.0013366, -28.6482707 ], [ -56.0013539, -28.6481621 ], [ -56.0014496, -28.6477102 ], [ -56.0015676, -28.6469616 ], [ -56.0016677, -28.6462955 ], [ -56.0018139, -28.6456435 ], [ -56.0019439, -28.6446878 ], [ -56.002003, -28.6442453 ], [ -56.0020714, -28.643402 ], [ -56.002095, -28.642688499999988 ], [ -56.0020923, -28.6418501 ], [ -56.0020392, -28.6415658 ], [ -56.0022084, -28.640901 ], [ -56.0023275, -28.6404712 ], [ -56.00235030000001, -28.6404094 ], [ -56.0023872, -28.6403565 ], [ -56.0026865, -28.640046 ], [ -56.002886, -28.6398541 ], [ -56.0031116, -28.6396344 ], [ -56.003442, -28.6392677 ], [ -56.00351950000001, -28.6391944 ], [ -56.0044076, -28.6382743 ], [ -56.0039083, -28.6378743 ], [ -56.0034181, -28.6374808 ], [ -56.0029654, -28.637133 ], [ -56.0025251, -28.6367622 ], [ -56.0022038, -28.6364937 ], [ -56.0017058, -28.6361052 ], [ -56.0012751, -28.6365842 ], [ -56.0008771, -28.6370196 ], [ -56.0003266, -28.6376116 ], [ -55.9998102, -28.6381754 ], [ -55.9990163, -28.6389346 ], [ -55.9989553, -28.6389967 ], [ -55.9972139, -28.6409244 ], [ -55.9968571, -28.6412792 ], [ -55.995934, -28.642241 ], [ -55.9956041, -28.6425909 ], [ -55.9948636, -28.6433764 ], [ -55.994812, -28.6434708 ], [ -55.9947597, -28.6435661 ], [ -55.9945465, -28.6442184 ], [ -55.994472, -28.6444545 ], [ -55.9944891, -28.6447035 ], [ -55.9945241, -28.645211499999988 ], [ -55.9945465, -28.6457694 ], [ -55.9945495, -28.6463367 ], [ -55.9945518, -28.6467675 ], [ -55.9945506, -28.6471795 ], [ -55.9945799, -28.64729 ], [ -55.9946939, -28.647746699999988 ] ] ] } },
{ "type": "Feature", "properties": { "name": "Itachere", "code_muni": 4318002.0, "name_muni": "São Borja" }, "geometry": { "type": "Polygon", "coordinates": [ [ [ -56.0031195, -28.6346272 ], [ -56.0025482, -28.6352374 ], [ -56.0017058, -28.6361052 ], [ -56.0022038, -28.6364937 ], [ -56.0025251, -28.6367622 ], [ -56.0029654, -28.637133 ], [ -56.0034181, -28.6374808 ], [ -56.0039083, -28.6378743 ], [ -56.0044076, -28.6382743 ], [ -56.00351950000001, -28.6391944 ], [ -56.003442, -28.6392677 ], [ -56.0031116, -28.6396344 ], [ -56.002886, -28.6398541 ], [ -56.0026865, -28.640046 ], [ -56.0023872, -28.6403565 ], [ -56.00235030000001, -28.6404094 ], [ -56.0023275, -28.6404712 ], [ -56.0022084, -28.640901 ], [ -56.0020392, -28.6415658 ], [ -56.0020923, -28.6418501 ], [ -56.002095, -28.642688499999988 ], [ -56.0020714, -28.643402 ], [ -56.002003, -28.6442453 ], [ -56.0019439, -28.6446878 ], [ -56.0018139, -28.6456435 ], [ -56.0016677, -28.6462955 ], [ -56.0015676, -28.6469616 ], [ -56.0014496, -28.6477102 ], [ -56.0013539, -28.6481621 ], [ -56.0013366, -28.6482707 ], [ -56.0012093, -28.648940299999985 ], [ -56.0009623, -28.6502323 ], [ -56.0012774, -28.65026180000001 ], [ -56.001384, -28.6503082 ], [ -56.0014612, -28.6503921 ], [ -56.0018477, -28.6501633 ], [ -56.002083, -28.6500233 ], [ -56.0026292, -28.6496827 ], [ -56.0033245, -28.6492328 ], [ -56.0040039, -28.6488671 ], [ -56.00503470000001, -28.6482415 ], [ -56.0058287, -28.6477566 ], [ -56.0069892, -28.6469628 ], [ -56.0079905, -28.6462266 ], [ -56.0091799, -28.6453045 ], [ -56.0104852, -28.6443197 ], [ -56.010738, -28.6439298 ], [ -56.0108237, -28.6436467 ], [ -56.0114439, -28.6432234 ], [ -56.0117018, -28.6430365 ], [ -56.0119352, -28.6428482 ], [ -56.0123053, -28.6425469 ], [ -56.0125454, -28.642262 ], [ -56.0128056, -28.6419301 ], [ -56.0132106, -28.641457 ], [ -56.0139643, -28.6402835 ], [ -56.014026, -28.640187 ], [ -56.0147596, -28.6389628 ], [ -56.0151571, -28.638352 ], [ -56.0155736, -28.6376493 ], [ -56.0162871, -28.6364805 ], [ -56.016743, -28.6357317 ], [ -56.0170581, -28.6352065 ], [ -56.0178487, -28.6339464 ], [ -56.0186631, -28.6328128 ], [ -56.0190417, -28.6323748 ], [ -56.008816, -28.6286933 ], [ -56.0058913, -28.6317474 ], [ -56.0050156, -28.6326608 ], [ -56.0046058, -28.6330926 ], [ -56.003395, -28.6343621 ], [ -56.0031925, -28.6345537 ], [ -56.0031195, -28.6346272 ] ] ] } },
{ "type": "Feature", "properties": { "name": "Passo", "code_muni": 4318002.0, "name_muni": "São Borja" }, "geometry": { "type": "Polygon", "coordinates": [ [ [ -56.0097993, -28.6277139 ], [ -56.009669700000011, -28.6278031 ], [ -56.008816, -28.6286933 ], [ -56.0190417, -28.6323748 ], [ -56.0203959, -28.6328543 ], [ -56.0205497, -28.6328925 ], [ -56.0207801, -28.632978 ], [ -56.0219679, -28.6333738 ], [ -56.023239, -28.6338256 ], [ -56.0232827, -28.6338413 ], [ -56.0245941, -28.6343157 ], [ -56.0246877, -28.6343456 ], [ -56.0262944, -28.6348997 ], [ -56.0277621, -28.6354071 ], [ -56.0282789, -28.6355846 ], [ -56.0288694, -28.6358014 ], [ -56.0302392, -28.6362992 ], [ -56.0316977, -28.6368207 ], [ -56.0321748, -28.6369833 ], [ -56.0322475, -28.6370249 ], [ -56.0323045, -28.6370578 ], [ -56.0323401, -28.6371026 ], [ -56.0323454, -28.6372485 ], [ -56.0323521, -28.6372806 ], [ -56.0323723, -28.6373038 ], [ -56.0324755, -28.637348 ], [ -56.0331034, -28.6375728 ], [ -56.0332981, -28.6370357 ], [ -56.0337002, -28.6360262 ], [ -56.0348547, -28.6364122 ], [ -56.035021, -28.6364558 ], [ -56.035202, -28.6364511 ], [ -56.0353844, -28.6364181 ], [ -56.0355918, -28.6363973 ], [ -56.0358022, -28.6363855 ], [ -56.0360394, -28.6363734 ], [ -56.0361566, -28.6363687 ], [ -56.0362705, -28.6363808 ], [ -56.0363991, -28.6364105 ], [ -56.0365213, -28.6364541 ], [ -56.0369131, -28.6365837 ], [ -56.037434, -28.6367727 ], [ -56.0384265, -28.6371638 ], [ -56.0393991, -28.6375329 ], [ -56.0401869, -28.6378659 ], [ -56.0409869, -28.6381602 ], [ -56.0411236, -28.6382043 ], [ -56.0412812, -28.6382114 ], [ -56.0415012, -28.638206 ], [ -56.0417962, -28.6382084 ], [ -56.0425271, -28.6381472 ], [ -56.043927, -28.6380997 ], [ -56.0452726, -28.6380678 ], [ -56.0469672, -28.6380005 ], [ -56.0470321, -28.6378694 ], [ -56.0474999, -28.6369404 ], [ -56.0458852, -28.634829 ], [ -56.0463477, -28.6336664 ], [ -56.0466692, -28.6328581 ], [ -56.047075, -28.631838 ], [ -56.0470991, -28.631765 ], [ -56.0470944, -28.63172 ], [ -56.050115284105729, -28.625675492090974 ], [ -56.047542702218195, -28.624201157632669 ], [ -56.046887875374729, -28.623987695615302 ], [ -56.037387257, -28.621898167 ], [ -56.030447636702455, -28.618746403196734 ], [ -56.0289082, -28.6182604 ], [ -56.0268831, -28.6176035 ], [ -56.0256403, -28.6171545 ], [ -56.0249801, -28.616916 ], [ -56.0229805, -28.6160424 ], [ -56.0209394, -28.6150017 ], [ -56.0099267, -28.6276642 ], [ -56.0097993, -28.6277139 ] ] ] } }
]
}
