{
"type": "FeatureCollection",
"name": "bairros_capao_do_leao",
"crs": { "type": "name", "properties": { "name": "urn:ogc:def:crs:OGC:1.3:CRS84" } },
"features": [
{ "type": "Feature", "properties": { "name": "Jardim América", "code_muni": 4304663.0, "name_muni": "Capão do Leão" }, "geometry": { "type": "Polygon", "coordinates": [ [ [ -52.4101169, -31.7531037 ], [ -52.4099453, -31.7535051 ], [ -52.4096556, -31.7537496 ], [ -52.4093552, -31.7538408 ], [ -52.409073556360269, -31.753782037478736 ], [ -52.404353224, -31.756884817 ], [ -52.404199476209705, -31.757474044720873 ], [ -52.4042053, -31.7575273 ], [ -52.4039908, -31.7583848 ], [ -52.403827346579426, -31.7589001762245 ], [ -52.403557732, -31.759933407999892 ], [ -52.403485311349911, -31.759978611123632 ], [ -52.4034758, -31.7600086 ], [ -52.4031432, -31.760701 ], [ -52.4026664, -31.7608152 ], [ -52.401845, -31.761012 ], [ -52.401816059572312, -31.761020492280206 ], [ -52.400575167999889, -31.761794978999887 ], [ -52.398226742210312, -31.766289781216408 ], [ -52.3990878, -31.7664822 ], [ -52.4004874, -31.76679 ], [ -52.4125264, -31.7694376 ], [ -52.4140999, -31.7698188 ], [ -52.4150589, -31.769899399999989 ], [ -52.4139476, -31.7729257 ], [ -52.4116945, -31.7831772 ], [ -52.4072528, -31.7889956 ], [ -52.4053645, -31.79408410000001 ], [ -52.4047208, -31.8001571 ], [ -52.4082575, -31.8000699 ], [ -52.42244740000001, -31.7998973 ], [ -52.4216619, -31.8055781 ], [ -52.4263287, -31.8059562 ], [ -52.4276805, -31.7964367 ], [ -52.4111152, -31.7965462 ], [ -52.4123383, -31.7929169 ], [ -52.4145055, -31.7893968 ], [ -52.4179173, -31.7851836 ], [ -52.419827, -31.7737284 ], [ -52.420724, -31.7698223 ], [ -52.4233937, -31.7697128 ], [ -52.4285006, -31.769500600000011 ], [ -52.4318299, -31.769388 ], [ -52.4383905, -31.769088 ], [ -52.4392837, -31.7689755 ], [ -52.4449953, -31.767935 ], [ -52.4502659, -31.7669627 ], [ -52.4547369, -31.7661271 ], [ -52.4522925, -31.7489343 ], [ -52.438345, -31.7501021 ], [ -52.4301911, -31.7453213 ], [ -52.4181975, -31.74293 ], [ -52.4178095, -31.7432959 ], [ -52.417268576380998, -31.743407431036577 ], [ -52.416260953733619, -31.744067931198483 ], [ -52.4162967, -31.7442083 ], [ -52.4163826, -31.7447083 ], [ -52.4163182, -31.7451207 ], [ -52.4162109, -31.745695499999986 ], [ -52.4162002, -31.7461243 ], [ -52.41636110000001, -31.7465969 ], [ -52.4161894, -31.7469911 ], [ -52.4160285, -31.747593200000011 ], [ -52.4155779, -31.7478943 ], [ -52.415576209430604, -31.747895654526076 ], [ -52.415575433, -31.747901439 ], [ -52.412835234999903, -31.751309132999907 ], [ -52.410138098128805, -31.75308223848689 ], [ -52.4101169, -31.7531037 ] ] ] } },
{ "type": "Feature", "properties": { "name": "Parque Fragata", "code_muni": 4304663.0, "name_muni": "Capão do Leão" }, "geometry": { "type": "Polygon", "coordinates": [ [ [ -52.4547369, -31.7661271 ], [ -52.4597821, -31.7651842 ], [ -52.4611388, -31.7649125 ], [ -52.4634466, -31.764707 ], [ -52.4702164, -31.7640866 ], [ -52.4713667, -31.7640022 ], [ -52.4717714, -31.7640003 ], [ -52.4716143, -31.7635761 ], [ -52.471065, -31.7629249 ], [ -52.4699402, -31.7624251 ], [ -52.4688459, -31.7621697 ], [ -52.4681378, -31.7616771 ], [ -52.4679876, -31.7609656 ], [ -52.4683738, -31.7605642 ], [ -52.4698544, -31.7602176 ], [ -52.4703264, -31.7596885 ], [ -52.4701548, -31.7584478 ], [ -52.4710135, -31.7572542 ], [ -52.4715729, -31.7563602 ], [ -52.4717624, -31.7563167 ], [ -52.4727815, -31.7564788 ], [ -52.473481, -31.756497400000011 ], [ -52.4738845, -31.7564071 ], [ -52.474111, -31.7561362 ], [ -52.4743688, -31.7557331 ], [ -52.4745044, -31.7555786 ], [ -52.4745875, -31.7555602 ], [ -52.4746719, -31.7555657 ], [ -52.474713, -31.7554299 ], [ -52.4747519, -31.7551688 ], [ -52.4748125, -31.7546499 ], [ -52.4749412, -31.7535323 ], [ -52.4749305, -31.753286 ], [ -52.474791, -31.7530488 ], [ -52.4745926, -31.7529393 ], [ -52.4731924, -31.7525516 ], [ -52.4729562, -31.7523692 ], [ -52.4728867, -31.7522597 ], [ -52.4728097, -31.7521164 ], [ -52.4722915, -31.750131199999988 ], [ -52.4729219, -31.7500048 ], [ -52.4739899, -31.7497908 ], [ -52.4761094, -31.7493659 ], [ -52.4767671, -31.7492341 ], [ -52.47743, -31.7491092 ], [ -52.478005, -31.7490008 ], [ -52.4785195, -31.7489007 ], [ -52.4786825, -31.7488601 ], [ -52.4794709, -31.7486839 ], [ -52.4815687, -31.7482604 ], [ -52.479718, -31.739037199999988 ], [ -52.4786425, -31.7333137 ], [ -52.4522925, -31.7489343 ], [ -52.4547369, -31.7661271 ] ] ] } },
{ "type": "Feature", "properties": { "name": "Centro", "code_muni": 4304663.0, "name_muni": "Capão do Leão" }, "geometry": { "type": "Polygon", "coordinates": [ [ [ -52.4721531, -31.7650311 ], [ -52.4724594, -31.7656329 ], [ -52.4740071, -31.7663874 ], [ -52.4750265, -31.7665895 ], [ -52.4755653, -31.7670745 ], [ -52.4762186, -31.7677993 ], [ -52.4765833, -31.768656799999988 ], [ -52.4762829, -31.7694229 ], [ -52.4759109, -31.7700733 ], [ -52.4787819, -31.7692955 ], [ -52.4846828, -31.7710741 ], [ -52.486914400000011, -31.7697607 ], [ -52.490058, -31.7684198 ], [ -52.4911309, -31.7684016 ], [ -52.4915815, -31.768657 ], [ -52.4919677, -31.7692225 ], [ -52.4922037, -31.769934 ], [ -52.4914098, -31.7708096 ], [ -52.4909377, -31.7719224 ], [ -52.4907875, -31.7728163 ], [ -52.4909806, -31.7736372 ], [ -52.4916673, -31.7745675 ], [ -52.4929118, -31.7751512 ], [ -52.4934912, -31.7754613 ], [ -52.4940276, -31.7764646 ], [ -52.4939418, -31.7773949 ], [ -52.4921608, -31.7796568 ], [ -52.4921394, -31.7803682 ], [ -52.4925041, -31.7811525 ], [ -52.4930835, -31.7813714 ], [ -52.4941778, -31.7818092 ], [ -52.4949289, -31.7824658 ], [ -52.4946928, -31.7832866 ], [ -52.4941564, -31.7838521 ], [ -52.4942637, -31.7846911 ], [ -52.4946928, -31.7850377 ], [ -52.4955511, -31.7852383 ], [ -52.4966884, -31.7852383 ], [ -52.4972463, -31.7854936 ], [ -52.49789, -31.7862232 ], [ -52.49919890000001, -31.7883025 ], [ -52.4997354, -31.7888679 ], [ -52.5008726, -31.7892692 ], [ -52.5015378, -31.7891415 ], [ -52.5024176, -31.7890868 ], [ -52.5031042, -31.789561 ], [ -52.5031901, -31.7901993 ], [ -52.5026965, -31.7911842 ], [ -52.5028579, -31.7918316 ], [ -52.503285, -31.7918982 ], [ -52.5037801, -31.7918408 ], [ -52.5041771, -31.7914851 ], [ -52.5051105, -31.7903361 ], [ -52.5052392, -31.7900443 ], [ -52.5053894, -31.7899029 ], [ -52.5054575, -31.7897597 ], [ -52.5059474, -31.789579199999984 ], [ -52.5064087, -31.7895884 ], [ -52.5068915, -31.7896613 ], [ -52.5075138, -31.7901264 ], [ -52.5082541, -31.790363499999987 ], [ -52.5087154, -31.7903453 ], [ -52.5091124, -31.7901902 ], [ -52.5085866, -31.788598799999988 ], [ -52.508533, -31.7880334 ], [ -52.5083237, -31.7876778 ], [ -52.5079161, -31.7869345 ], [ -52.5077613, -31.7865746 ], [ -52.5075084, -31.7859861 ], [ -52.5072777, -31.784609 ], [ -52.5071222, -31.7838658 ], [ -52.507208, -31.783683399999987 ], [ -52.5072885, -31.7835329 ], [ -52.5073206, -31.7834326 ], [ -52.5072295, -31.7832958 ], [ -52.5070041, -31.7830632 ], [ -52.5063228, -31.779374 ], [ -52.5059313, -31.7769252 ], [ -52.5055021, -31.774531 ], [ -52.5053734, -31.7737785 ], [ -52.5052875, -31.7734137 ], [ -52.505191, -31.772743299999984 ], [ -52.5051158, -31.772471900000014 ], [ -52.5050139, -31.7719543 ], [ -52.5048315, -31.7709395 ], [ -52.5046089, -31.769642 ], [ -52.5044516, -31.7687882 ], [ -52.5053443, -31.7693415 ], [ -52.5062046, -31.7699068 ], [ -52.5081018, -31.7710654 ], [ -52.5100536, -31.7722648 ], [ -52.5119452, -31.7734527 ], [ -52.5138045, -31.7746451 ], [ -52.5140768, -31.7748093 ], [ -52.5144858, -31.7750249 ], [ -52.514937, -31.775238 ], [ -52.51538020000001, -31.7754466 ], [ -52.5158274, -31.7756183 ], [ -52.5163115, -31.7757539 ], [ -52.5168155, -31.775876 ], [ -52.5183587, -31.776211400000012 ], [ -52.5198758, -31.776553 ], [ -52.5227963, -31.7772072 ], [ -52.5242948, -31.777548099999986 ], [ -52.5249781, -31.777741 ], [ -52.5257116, -31.7779672 ], [ -52.5264502, -31.7782366 ], [ -52.5271186, -31.7785204 ], [ -52.5271159, -31.778182 ], [ -52.5278342, -31.777021 ], [ -52.5225449, -31.7756437 ], [ -52.5173521, -31.7728345 ], [ -52.5119877, -31.771156199999989 ], [ -52.5078249, -31.7678725 ], [ -52.5016451, -31.763713 ], [ -52.4968386, -31.7601371 ], [ -52.4894572, -31.7560138 ], [ -52.4866677, -31.7532769 ], [ -52.4815687, -31.7482604 ], [ -52.4794709, -31.7486839 ], [ -52.4786825, -31.7488601 ], [ -52.4785195, -31.7489007 ], [ -52.478005, -31.7490008 ], [ -52.47743, -31.7491092 ], [ -52.4767671, -31.7492341 ], [ -52.4761094, -31.7493659 ], [ -52.4739899, -31.7497908 ], [ -52.4729219, -31.7500048 ], [ -52.4722915, -31.750131199999988 ], [ -52.4728097, -31.7521164 ], [ -52.4728867, -31.7522597 ], [ -52.4729562, -31.7523692 ], [ -52.4731924, -31.7525516 ], [ -52.4745926, -31.7529393 ], [ -52.474791, -31.7530488 ], [ -52.4749305, -31.753286 ], [ -52.4749412, -31.7535323 ], [ -52.4748125, -31.7546499 ], [ -52.4747519, -31.7551688 ], [ -52.474713, -31.7554299 ], [ -52.4746719, -31.7555657 ], [ -52.4745875, -31.7555602 ], [ -52.4745044, -31.7555786 ], [ -52.4743688, -31.7557331 ], [ -52.474111, -31.7561362 ], [ -52.4738845, -31.7564071 ], [ -52.473481, -31.756497400000011 ], [ -52.4727815, -31.7564788 ], [ -52.4717624, -31.7563167 ], [ -52.4715729, -31.7563602 ], [ -52.4710135, -31.7572542 ], [ -52.4701548, -31.7584478 ], [ -52.4703264, -31.7596885 ], [ -52.4698544, -31.7602176 ], [ -52.4683738, -31.7605642 ], [ -52.4679876, -31.7609656 ], [ -52.4681378, -31.7616771 ], [ -52.4688459, -31.7621697 ], [ -52.4699402, -31.7624251 ], [ -52.471065, -31.7629249 ], [ -52.4716143, -31.7635761 ], [ -52.4717714, -31.7640003 ], [ -52.4721531, -31.7650311 ] ] ] } },
{ "type": "Feature", "properties": { "name": "Cerro do Estado", "code_muni": 4304663.0, "name_muni": "Capão do Leão" }, "geometry": { "type": "Polygon", "coordinates": [ [ [ -52.5046089, -31.769642 ], [ -52.5048315, -31.7709395 ], [ -52.5050139, -31.7719543 ], [ -52.5051158, -31.772471900000014 ], [ -52.505191, -31.772743299999984 ], [ -52.5052875, -31.7734137 ], [ -52.5053734, -31.7737785 ], [ -52.5055021, -31.774531 ], [ -52.5059313, -31.7769252 ], [ -52.5063228, -31.779374 ], [ -52.5070041, -31.7830632 ], [ -52.5072295, -31.7832958 ], [ -52.5073206, -31.7834326 ], [ -52.5072885, -31.7835329 ], [ -52.507208, -31.783683399999987 ], [ -52.5071222, -31.7838658 ], [ -52.5072777, -31.784609 ], [ -52.5075084, -31.7859861 ], [ -52.5077613, -31.7865746 ], [ -52.5079161, -31.7869345 ], [ -52.5083237, -31.7876778 ], [ -52.508533, -31.7880334 ], [ -52.5085866, -31.788598799999988 ], [ -52.5091124, -31.7901902 ], [ -52.5094879, -31.7900717 ], [ -52.5102282, -31.7894516 ], [ -52.5107002, -31.7889956 ], [ -52.5109255, -31.7887858 ], [ -52.5112903, -31.7883846 ], [ -52.5118482, -31.7882204 ], [ -52.5148094, -31.7903088 ], [ -52.5195623, -31.790199299999987 ], [ -52.5221157, -31.791207 ], [ -52.5227326, -31.7897433 ], [ -52.5239074, -31.7864649 ], [ -52.5241327, -31.7858129 ], [ -52.5242937, -31.785366 ], [ -52.524358, -31.7847185 ], [ -52.5245351, -31.7839296 ], [ -52.5267372, -31.7797982 ], [ -52.5268471, -31.779593 ], [ -52.5270268, -31.7792247 ], [ -52.5270885, -31.7790001 ], [ -52.5271186, -31.7785204 ], [ -52.5264502, -31.7782366 ], [ -52.5257116, -31.7779672 ], [ -52.5249781, -31.777741 ], [ -52.5242948, -31.777548099999986 ], [ -52.5227963, -31.7772072 ], [ -52.5198758, -31.776553 ], [ -52.5183587, -31.776211400000012 ], [ -52.5168155, -31.775876 ], [ -52.5163115, -31.7757539 ], [ -52.5158274, -31.7756183 ], [ -52.51538020000001, -31.7754466 ], [ -52.514937, -31.775238 ], [ -52.5144858, -31.7750249 ], [ -52.5140768, -31.7748093 ], [ -52.5138045, -31.7746451 ], [ -52.5119452, -31.7734527 ], [ -52.5100536, -31.7722648 ], [ -52.5081018, -31.7710654 ], [ -52.5062046, -31.7699068 ], [ -52.5053443, -31.7693415 ], [ -52.5044516, -31.7687882 ], [ -52.5046089, -31.769642 ] ] ] } }
]
}
