{
"type": "FeatureCollection",
"name": "bairros_uniao_da_serra",
"crs": { "type": "name", "properties": { "name": "urn:ogc:def:crs:OGC:1.3:CRS84" } },
"features": [
{ "type": "Feature", "properties": { "code_muni": 4322350.0, "name_muni": "União da Serra", "code_state": 43.0, "abbrev_state": "RS", "name_state": "Rio Grande do Sul", "code_region": 4.0, "name_region": "Sul", "year": 2022.0 }, "geometry": { "type": "Polygon", "coordinates": [ [ [ -52.060177578, -28.794843274999899 ], [ -52.066660984, -28.796566109 ], [ -52.071139514, -28.788623194 ], [ -52.074751155999891, -28.78523272 ], [ -52.074408325, -28.782317115 ], [ -52.068358159, -28.773633011 ], [ -52.068692179, -28.770957074 ], [ -52.074406806, -28.764277287 ], [ -52.078599408999899, -28.762771988999905 ], [ -52.079485157, -28.760036202 ], [ -52.071187129, -28.754135398 ], [ -52.068521357, -28.747363978 ], [ -52.072333363, -28.742910211 ], [ -52.079757961, -28.740652606 ], [ -52.078751506999893, -28.736511682999907 ], [ -52.079637186999904, -28.733820976999901 ], [ -52.085074753, -28.730837584 ], [ -52.076672903, -28.729145307999893 ], [ -52.079695441999895, -28.722459344999905 ], [ -52.085437188, -28.71786114 ], [ -52.08525632, -28.714421665 ], [ -52.081630254999901, -28.711988855999902 ], [ -51.986063451999904, -28.706886488 ], [ -51.986923160999901, -28.721466263 ], [ -51.991604241999902, -28.729833965 ], [ -51.991879851, -28.735497924 ], [ -51.989978482, -28.738498498999899 ], [ -51.992496469999899, -28.747101902999905 ], [ -51.989449388, -28.749283595999895 ], [ -51.987694786, -28.753530117 ], [ -51.985541212, -28.753480911999908 ], [ -51.985190022, -28.763448717 ], [ -51.958921963, -28.761325609 ], [ -51.956141891999891, -28.821948989 ], [ -52.009694162, -28.825050903 ], [ -52.010042133999903, -28.827820555999899 ], [ -52.015180312, -28.825489755 ], [ -52.015776316, -28.830587414 ], [ -52.018391057, -28.83412636 ], [ -52.015753371999892, -28.835847343999898 ], [ -52.010319211, -28.836256207 ], [ -52.01695928, -28.841914553 ], [ -52.0277384299999, -28.838026289 ], [ -52.03451427200001, -28.834064463999901 ], [ -52.035570805, -28.835593355 ], [ -52.030758149, -28.842076934 ], [ -52.031166874, -28.843719973 ], [ -52.036065381, -28.845980438 ], [ -52.039087693999896, -28.845933294 ], [ -52.04342458, -28.844318578999896 ], [ -52.045847179, -28.841425876999899 ], [ -52.0518509569999, -28.828601791 ], [ -52.054617483, -28.827128171 ], [ -52.061624572, -28.826738292999902 ], [ -52.066810984, -28.8216190539999 ], [ -52.066785968, -28.819257305999901 ], [ -52.060838986, -28.818702089999892 ], [ -52.059339511, -28.817288789 ], [ -52.061254914, -28.814889975 ], [ -52.065577418, -28.81318679 ], [ -52.060968628999902, -28.805786668999893 ], [ -52.060177578, -28.794843274999899 ] ] ] } }
]
}
