{
"type": "FeatureCollection",
"name": "bairros_travesseiro",
"crs": { "type": "name", "properties": { "name": "urn:ogc:def:crs:OGC:1.3:CRS84" } },
"features": [
{ "type": "Feature", "properties": { "code_muni": 4321626.0, "name_muni": "Travesseiro", "code_state": 43.0, "abbrev_state": "RS", "name_state": "Rio Grande do Sul", "code_region": 4.0, "name_region": "Sul", "year": 2022.0 }, "geometry": { "type": "Polygon", "coordinates": [ [ [ -52.063330596, -29.330529499 ], [ -52.068814104999895, -29.32966273300001 ], [ -52.071958703999904, -29.331326142 ], [ -52.077637443999897, -29.327939272 ], [ -52.082606858, -29.329423886 ], [ -52.083178443, -29.333006037 ], [ -52.084397275999891, -29.333564149 ], [ -52.089983068, -29.332290708 ], [ -52.091081986999903, -29.321623453 ], [ -52.097588549, -29.322788667999912 ], [ -52.10077225, -29.319623077 ], [ -52.091623938999895, -29.310076874999904 ], [ -52.087802492, -29.302506406 ], [ -52.088484174, -29.301480641999895 ], [ -52.096570341, -29.302687718999898 ], [ -52.105469443999901, -29.300566526 ], [ -52.104632701999897, -29.296223021999896 ], [ -52.106335424999891, -29.291149931999904 ], [ -52.11121595, -29.291928755999898 ], [ -52.118940762, -29.287328977999902 ], [ -52.11797074, -29.282323934 ], [ -52.120348288999899, -29.277962794 ], [ -52.126305462999895, -29.274937473 ], [ -52.130939763, -29.27832182 ], [ -52.136311383, -29.276579555 ], [ -52.140975986999905, -29.258852307 ], [ -52.154333257, -29.258543243 ], [ -52.158147254, -29.257171752 ], [ -52.158001832, -29.243695994999893 ], [ -52.151472844, -29.235939217 ], [ -52.151672592, -29.228002035 ], [ -52.153603394999891, -29.222810991999896 ], [ -52.158115719, -29.221683151 ], [ -52.166948684, -29.226617549 ], [ -52.16940743299989, -29.220415939 ], [ -52.168145534, -29.218729141 ], [ -52.163394693, -29.218142699999898 ], [ -52.158676339, -29.213880726 ], [ -52.157342039999889, -29.215102057 ], [ -52.155582265, -29.213551767 ], [ -52.150213661999892, -29.213030177 ], [ -52.148032402999895, -29.2101813519999 ], [ -52.141976878, -29.207424886999895 ], [ -52.139127656, -29.20822279 ], [ -52.140349442999899, -29.216546423 ], [ -52.121203759, -29.217012831 ], [ -52.12091869599989, -29.227975061999899 ], [ -52.122644193, -29.231619199 ], [ -52.113438311, -29.2316685609999 ], [ -52.112236594, -29.270630347 ], [ -52.072818632, -29.270460315 ], [ -52.073932275999901, -29.265568054 ], [ -52.072056573999902, -29.264566035 ], [ -52.074294876, -29.264450371 ], [ -52.07078338, -29.263757579999904 ], [ -52.066794027, -29.264728165 ], [ -52.065141952, -29.262839079999896 ], [ -52.065026845, -29.259061034999895 ], [ -52.057544892999893, -29.250409506 ], [ -52.042033047, -29.251431604999897 ], [ -52.042164407, -29.262953798 ], [ -52.036627314, -29.262997981999909 ], [ -52.037013515999902, -29.328675871 ], [ -52.033506766999899, -29.328761366 ], [ -52.033518297999905, -29.341142079999905 ], [ -52.036692159, -29.340930845999896 ], [ -52.036637325999898, -29.353941011 ], [ -52.063662916999895, -29.354055 ], [ -52.062004115, -29.349941526999892 ], [ -52.062696619, -29.348543076999903 ], [ -52.069059609, -29.344222296999906 ], [ -52.063924061, -29.340759322999894 ], [ -52.060394974, -29.335566534 ], [ -52.063330596, -29.330529499 ] ] ] } }
]
}
