{
"type": "FeatureCollection",
"name": "bairros_relvado",
"crs": { "type": "name", "properties": { "name": "urn:ogc:def:crs:OGC:1.3:CRS84" } },
"features": [
{ "type": "Feature", "properties": { "code_muni": 4315453.0, "name_muni": "Relvado", "code_state": 43.0, "abbrev_state": "RS", "name_state": "Rio Grande do Sul", "code_region": 4.0, "name_region": "Sul", "year": 2022.0 }, "geometry": { "type": "Polygon", "coordinates": [ [ [ -51.991913326, -29.134557212999901 ], [ -51.993203031999897, -29.1480256319999 ], [ -51.98450926999989, -29.145381554 ], [ -51.980602478, -29.152203499999903 ], [ -51.986139094, -29.153304162 ], [ -51.987519854, -29.157615333 ], [ -51.990989462, -29.158929172999898 ], [ -51.992068209, -29.161023364999899 ], [ -51.998127137, -29.160137225 ], [ -52.001547059, -29.161744984999896 ], [ -52.002521355999896, -29.167281085 ], [ -52.004764805, -29.167379447 ], [ -52.007420181, -29.162652287999904 ], [ -52.010656587, -29.16328572 ], [ -52.01209297, -29.165409425 ], [ -52.017709255999897, -29.167541765999907 ], [ -52.018266218, -29.162972989 ], [ -52.019779243, -29.16138718 ], [ -52.023809748, -29.164335082 ], [ -52.027660305, -29.163603866999903 ], [ -52.029659933999895, -29.161773626999906 ], [ -52.030800847, -29.163532362999895 ], [ -52.03601273, -29.164091959 ], [ -52.04164449599989, -29.160305313 ], [ -52.044999828999899, -29.164578918 ], [ -52.046617282999897, -29.162333467999893 ], [ -52.051324985999898, -29.1634071 ], [ -52.05287218, -29.161563218 ], [ -52.056892028999989, -29.161290506999897 ], [ -52.059081546999906, -29.163567421 ], [ -52.059401921999893, -29.161723951999893 ], [ -52.063371785999905, -29.161092067999988 ], [ -52.063653164, -29.162313116999901 ], [ -52.070454132, -29.160714110999894 ], [ -52.07052527, -29.1672877899999 ], [ -52.080795168, -29.168533873999895 ], [ -52.086528733, -29.170593144999906 ], [ -52.088724078, -29.154470712 ], [ -52.121988527, -29.148436799999988 ], [ -52.129273999, -29.139031291 ], [ -52.137620563, -29.134829086 ], [ -52.137239178999899, -29.132184227 ], [ -52.1421597249999, -29.119022575 ], [ -52.141083911, -29.112101906 ], [ -52.143531932, -29.108267637000012 ], [ -52.150244175999894, -29.106216049999897 ], [ -52.147724905, -29.09801959 ], [ -52.151262978, -29.094494139999899 ], [ -52.150298773, -29.090790319 ], [ -52.151607626000093, -29.087750311313499 ], [ -52.146621036602198, -29.085147428798102 ], [ -52.136805708261697, -29.088204612625194 ], [ -52.133296148128196, -29.086583139193301 ], [ -52.1324144955828, -29.084858127962793 ], [ -52.130883291161702, -29.085883330923004 ], [ -52.127748282109494, -29.084444801769294 ], [ -52.125108824488393, -29.087167790881399 ], [ -52.126165377539095, -29.089136315315404 ], [ -52.123814670751997, -29.092962951364392 ], [ -52.119806259177999, -29.095311733146097 ], [ -52.10927922878259, -29.097528239545898 ], [ -52.106629321131294, -29.095209432850698 ], [ -52.103539815, -29.100032343 ], [ -52.093972684586994, -29.104847110678204 ], [ -52.093575033438903, -29.107004216906503 ], [ -52.091977782999891, -29.106393587 ], [ -52.089808003353397, -29.108244221714397 ], [ -52.089287637409996, -29.0869329098953 ], [ -52.078091070232794, -29.090280333044301 ], [ -52.078129461392102, -29.092808215255697 ], [ -52.05734117055249, -29.092734163949299 ], [ -52.058261200300194, -29.0587678632082 ], [ -52.052967866191501, -29.060946258920598 ], [ -52.048534138, -29.057488437 ], [ -52.043387845, -29.058359454 ], [ -52.043162204999902, -29.05954493 ], [ -52.046559617, -29.062168326999895 ], [ -52.04543301199989, -29.068288637999984 ], [ -52.046825425, -29.069306847 ], [ -52.044864649, -29.070281931 ], [ -52.041475964999989, -29.06844755 ], [ -52.039614333, -29.072839315 ], [ -52.033453457, -29.077683696 ], [ -52.029423728, -29.077672196 ], [ -52.029594008999894, -29.0801539019999 ], [ -52.026086415999899, -29.084326609999898 ], [ -52.022725180999899, -29.091776888 ], [ -52.019888442, -29.090165211999906 ], [ -52.017580551, -29.090817495 ], [ -52.021459783999902, -29.0996455169999 ], [ -52.020063314, -29.100699033999895 ], [ -52.016147358999902, -29.100478543999902 ], [ -52.013023974, -29.1044673389999 ], [ -52.008885764999903, -29.106836984 ], [ -52.01257507, -29.111413507 ], [ -52.006626894999989, -29.117478490999893 ], [ -52.005193108999897, -29.113459881 ], [ -51.999627005, -29.115215534999908 ], [ -51.999203313, -29.117406971 ], [ -52.004805925, -29.126050189999898 ], [ -51.999158593999894, -29.12874561 ], [ -51.994967988, -29.1332177039999 ], [ -51.991913326, -29.134557212999901 ] ] ] } }
]
}
