{
"type": "FeatureCollection",
"name": "bairros_sao_jeronimo",
"crs": { "type": "name", "properties": { "name": "urn:ogc:def:crs:OGC:1.3:CRS84" } },
"features": [
{ "type": "Feature", "properties": { "name": "São Thomas", "code_muni": 4318408.0, "name_muni": "São Jerônimo" }, "geometry": { "type": "Polygon", "coordinates": [ [ [ -51.7264707, -29.9696825 ], [ -51.7263708, -29.9695446 ], [ -51.726247, -29.9693835 ], [ -51.7261484, -29.9692353 ], [ -51.7260105, -29.9690062 ], [ -51.7259053, -29.9688254 ], [ -51.7258581, -29.9687375 ], [ -51.7258038, -29.9686364 ], [ -51.7257516, -29.9685444 ], [ -51.7257087, -29.9684381 ], [ -51.7256384, -29.968266 ], [ -51.7255911, -29.9681318 ], [ -51.7254884, -29.9678676 ], [ -51.7254132, -29.967665 ], [ -51.7253284, -29.9673974 ], [ -51.7252863, -29.9672223 ], [ -51.7252633, -29.9670899 ], [ -51.725237, -29.966936 ], [ -51.7252185, -29.9667711 ], [ -51.7252064, -29.966575 ], [ -51.72516610000001, -29.9658762 ], [ -51.7251572, -29.9657564 ], [ -51.7251227, -29.9650985 ], [ -51.7251026, -29.9648195 ], [ -51.7250857, -29.9646032 ], [ -51.7250652, -29.9643388 ], [ -51.725023, -29.9637973 ], [ -51.7250125, -29.9636384 ], [ -51.7250087, -29.9635817 ], [ -51.7250055, -29.9635331 ], [ -51.7249927, -29.9632558 ], [ -51.72495150000001, -29.9628759 ], [ -51.7249212, -29.962513300000012 ], [ -51.7248994, -29.962181099999988 ], [ -51.7246595, -29.9622127 ], [ -51.7234614, -29.9624165 ], [ -51.7233973, -29.9623003 ], [ -51.7221955, -29.9623639 ], [ -51.7221081, -29.9623778 ], [ -51.7217077, -29.9625267 ], [ -51.7199191, -29.9632007 ], [ -51.7186424, -29.9636283 ], [ -51.717606, -29.9639954 ], [ -51.7175818, -29.9640307 ], [ -51.7174287, -29.9642725 ], [ -51.7173747, -29.9643645 ], [ -51.7173302, -29.964448 ], [ -51.7173165, -29.9644975 ], [ -51.7173108, -29.9645417 ], [ -51.7173023, -29.9646318 ], [ -51.7173023, -29.9646823 ], [ -51.717312, -29.9648125 ], [ -51.7173195, -29.9649433 ], [ -51.7173424, -29.9653711 ], [ -51.7173447, -29.9654634 ], [ -51.7173563, -29.966013799999988 ], [ -51.7173527, -29.966119499999987 ], [ -51.7173827, -29.9662154 ], [ -51.7176604, -29.9666695 ], [ -51.717799, -29.9669581 ], [ -51.7179952, -29.9672902 ], [ -51.7182688, -29.9676813 ], [ -51.7183536, -29.9677877 ], [ -51.718433, -29.9678904 ], [ -51.7187499, -29.9680648 ], [ -51.7190699, -29.9682388 ], [ -51.7192254, -29.9683217 ], [ -51.7195232, -29.9684834 ], [ -51.7202776, -29.968886 ], [ -51.7217694, -29.96968 ], [ -51.722019, -29.9697542 ], [ -51.722401, -29.9698405 ], [ -51.7226393, -29.9698892 ], [ -51.7228798, -29.9699434 ], [ -51.7230316, -29.9699748 ], [ -51.7231991, -29.9700016 ], [ -51.7235463, -29.9700393 ], [ -51.7238032, -29.9700599 ], [ -51.7240007, -29.9700677 ], [ -51.7243035, -29.9700545 ], [ -51.7256997, -29.9699705 ], [ -51.7262306, -29.969943099999988 ], [ -51.7263225, -29.969938 ], [ -51.7266203, -29.9699323 ], [ -51.7264707, -29.9696825 ] ] ] } },
{ "type": "Feature", "properties": { "name": "Vila Garcia", "code_muni": 4318408.0, "name_muni": "São Jerônimo" }, "geometry": { "type": "Polygon", "coordinates": [ [ [ -51.7165464, -30.042994 ], [ -51.7163453, -30.0428012 ], [ -51.7153864, -30.0420652 ], [ -51.714746022533276, -30.041611477100751 ], [ -51.718103170946627, -30.044891501268506 ], [ -51.7165464, -30.042994 ] ] ] } },
{ "type": "Feature", "properties": { "name": "Otília", "code_muni": 4318408.0, "name_muni": "São Jerônimo" }, "geometry": { "type": "MultiPolygon", "coordinates": [ [ [ [ -51.6370457, -29.976605 ], [ -51.6370243, -29.9764517 ], [ -51.637153, -29.9762612 ], [ -51.6375554, -29.9758848 ], [ -51.6376841, -29.9754991 ], [ -51.637668, -29.9751273 ], [ -51.6378075, -29.974737 ], [ -51.6376573, -29.9744535 ], [ -51.6375232, -29.974318799999988 ], [ -51.6375125, -29.9741004 ], [ -51.6375715, -29.9738727 ], [ -51.6375715, -29.9736868 ], [ -51.6373676, -29.973449799999987 ], [ -51.6370457, -29.9732128 ], [ -51.637007218183093, -29.973117837777515 ], [ -51.636897701999899, -29.976460836999898 ], [ -51.63730967887097, -29.977002580865392 ], [ -51.6373059, -29.9769721 ], [ -51.6372415, -29.9768931 ], [ -51.6372248, -29.9767839 ], [ -51.6372314, -29.9767235 ], [ -51.6370457, -29.976605 ] ] ], [ [ [ -51.6370779, -29.9725436 ], [ -51.6371119, -29.9721764 ], [ -51.6374852, -29.971898799999988 ], [ -51.637671, -29.9716002 ], [ -51.6383693, -29.9710612 ], [ -51.6387296, -29.970933300000013 ], [ -51.6390855, -29.9709876 ], [ -51.6391996, -29.9709565 ], [ -51.6394458, -29.9706987 ], [ -51.6395331, -29.9705261 ], [ -51.6395085, -29.9702683 ], [ -51.6395689, -29.9699503 ], [ -51.6396764, -29.9697467 ], [ -51.6396115, -29.9695276 ], [ -51.639614763442076, -29.969298936607572 ], [ -51.637041269999891, -29.972078368 ], [ -51.637020080145604, -29.97272521380722 ], [ -51.6370779, -29.9725436 ] ] ], [ [ [ -51.639933688702115, -29.969010751455684 ], [ -51.639883541, -29.969008639 ], [ -51.639836071981669, -29.969059908852838 ], [ -51.639933688702115, -29.969010751455684 ] ] ], [ [ [ -51.6407524, -29.9691933 ], [ -51.6409265, -29.9692825 ], [ -51.6410705, -29.969270099999985 ], [ -51.641509881726996, -29.969077138290928 ], [ -51.640608508802451, -29.969039176166035 ], [ -51.6407524, -29.9691933 ] ] ], [ [ [ -51.6418604, -29.9690634 ], [ -51.642087963965011, -29.968741518649608 ], [ -51.641701845877982, -29.969068337623529 ], [ -51.6418604, -29.9690634 ] ] ], [ [ [ -51.6424965, -29.9684703 ], [ -51.6427243, -29.9683469 ], [ -51.642970655482401, -29.967994376620776 ], [ -51.642291299090346, -29.968569409950653 ], [ -51.6424965, -29.9684703 ] ] ], [ [ [ -51.6438986, -29.9675352 ], [ -51.6449294, -29.966918400000012 ], [ -51.645176, -29.966637899999984 ], [ -51.6455445, -29.9659531 ], [ -51.6457914, -29.9656597 ], [ -51.645822775474286, -29.96564729943811 ], [ -51.645730989999898, -29.965657819999898 ], [ -51.643059151567172, -29.967919469396477 ], [ -51.6438986, -29.9675352 ] ] ], [ [ [ -51.6470068, -29.9656542 ], [ -51.6474721, -29.965731 ], [ -51.6477671, -29.9657297 ], [ -51.6479366, -29.9657516 ], [ -51.6480694, -29.9657178 ], [ -51.6482185, -29.965603699999988 ], [ -51.6483243, -29.965463 ], [ -51.648381325824957, -29.965354008732316 ], [ -51.646606769329523, -29.965557434425495 ], [ -51.6470068, -29.9656542 ] ] ], [ [ [ -51.6493806, -29.9633209 ], [ -51.6495638, -29.9631735 ], [ -51.6496391, -29.9631052 ], [ -51.6496749, -29.9630138 ], [ -51.6496761, -29.9628135 ], [ -51.6496733, -29.962722 ], [ -51.649492094313352, -29.962735879092438 ], [ -51.649278238241124, -29.963379478729607 ], [ -51.6493806, -29.9633209 ] ] ] ] } },
{ "type": "Feature", "properties": { "name": "São Miguel", "code_muni": 4318408.0, "name_muni": "São Jerônimo" }, "geometry": { "type": "MultiPolygon", "coordinates": [ [ [ [ -51.6447651, -29.9845089 ], [ -51.6445935, -29.9839792 ], [ -51.6443843, -29.98364 ], [ -51.6436386, -29.9829663 ], [ -51.6432685, -29.9824645 ], [ -51.642952, -29.981939400000012 ], [ -51.64278951330072, -29.9818245096242 ], [ -51.644732690130205, -29.984649529047097 ], [ -51.6447651, -29.9845089 ] ] ], [ [ [ -51.6423351, -29.9809311 ], [ -51.6422224, -29.9807964 ], [ -51.642025647024127, -29.980713936635652 ], [ -51.64229729741659, -29.981108888220998 ], [ -51.6423351, -29.9809311 ] ] ], [ [ [ -51.6417679, -29.98016860000001 ], [ -51.6416431, -29.9797834 ], [ -51.6412783, -29.9794488 ], [ -51.6408277, -29.9791654 ], [ -51.6406345, -29.9790167 ], [ -51.6404414, -29.9789888 ], [ -51.6402698, -29.9791143 ], [ -51.6399962, -29.9790817 ], [ -51.6397762, -29.978812199999986 ], [ -51.6393739, -29.9784405 ], [ -51.6390842, -29.9783057 ], [ -51.6388375, -29.9781385 ], [ -51.6388106, -29.9779479 ], [ -51.6387516, -29.9776552 ], [ -51.6384512, -29.9773485 ], [ -51.6380757, -29.9771626 ], [ -51.6373515, -29.9768002 ], [ -51.6372314, -29.9767235 ], [ -51.6372248, -29.9767839 ], [ -51.6372415, -29.9768931 ], [ -51.6373059, -29.9769721 ], [ -51.63730967887097, -29.977002580865392 ], [ -51.639136124999894, -29.979404244 ], [ -51.641233744, -29.979562569999874 ], [ -51.641823260636322, -29.980419685301634 ], [ -51.6417679, -29.98016860000001 ] ] ] ] } },
{ "type": "Feature", "properties": { "name": "Parque Santa Fé", "code_muni": 4318408.0, "name_muni": "São Jerônimo" }, "geometry": { "type": "MultiPolygon", "coordinates": [ [ [ [ -51.6496733, -29.962722 ], [ -51.6496709, -29.9626419 ], [ -51.6496757, -29.9625455 ], [ -51.6497053, -29.9624505 ], [ -51.6497825, -29.9623772 ], [ -51.649806597251697, -29.962352128334846 ], [ -51.649574395999892, -29.962488189999888 ], [ -51.649492094313352, -29.962735879092438 ], [ -51.6496733, -29.962722 ] ] ], [ [ [ -51.6504829, -29.96196 ], [ -51.6509382, -29.9619694 ], [ -51.6514213, -29.9619857 ], [ -51.6517345, -29.9619706 ], [ -51.6520657, -29.961924400000012 ], [ -51.6522332, -29.9618686 ], [ -51.6523962, -29.9617546 ], [ -51.6525309, -29.9616243 ], [ -51.6526074, -29.9615368 ], [ -51.6526259, -29.9614549 ], [ -51.652583, -29.9613635 ], [ -51.6525669, -29.9612761 ], [ -51.6525796, -29.961116799999989 ], [ -51.6526409, -29.9609535 ], [ -51.652717, -29.960800200000012 ], [ -51.6527707, -29.9606429 ], [ -51.6528063, -29.9604683 ], [ -51.6528238, -29.9603246 ], [ -51.6528145, -29.9601809 ], [ -51.652804443311027, -29.960144701437542 ], [ -51.652649153, -29.960686429 ], [ -51.650472259126786, -29.961962069879327 ], [ -51.6504829, -29.96196 ] ] ], [ [ [ -51.6536146, -29.9575312 ], [ -51.6538417, -29.957403 ], [ -51.6540241, -29.9573137 ], [ -51.6541976, -29.9572456 ], [ -51.6543218, -29.9571814 ], [ -51.6543816, -29.9570792 ], [ -51.6544642, -29.9569673 ], [ -51.6544746, -29.9568604 ], [ -51.6544582, -29.956769 ], [ -51.654414, -29.956647 ], [ -51.6543295, -29.9565365 ], [ -51.6542862, -29.9563892 ], [ -51.6542306, -29.9562316 ], [ -51.6541953, -29.9560568 ], [ -51.6541681, -29.9558406 ], [ -51.6541713, -29.9557087 ], [ -51.6541505, -29.9555185 ], [ -51.654139163609536, -29.955488309995562 ], [ -51.653529692106027, -29.957614605607311 ], [ -51.6536146, -29.9575312 ] ] ], [ [ [ -51.6540849, -29.9553438 ], [ -51.6539745, -29.9551693 ], [ -51.6538999, -29.9550336 ], [ -51.6538314, -29.9548865 ], [ -51.6537212, -29.9547313 ], [ -51.6536278, -29.9546265 ], [ -51.6535679, -29.9545606 ], [ -51.6534788, -29.954522299999987 ], [ -51.6533614, -29.9544976 ], [ -51.6532403, -29.9544569 ], [ -51.6530684, -29.9544114 ], [ -51.6528934, -29.9543585 ], [ -51.652864146602525, -29.954337102745225 ], [ -51.654125227862039, -29.95545119760169 ], [ -51.6540849, -29.9553438 ] ] ], [ [ [ -51.6524477, -29.953933499999987 ], [ -51.6524205, -29.9538273 ], [ -51.65224, -29.9536939 ], [ -51.6520369, -29.9536047 ], [ -51.652032772554492, -29.953602609682246 ], [ -51.65249683639329, -29.954012597633337 ], [ -51.6524477, -29.953933499999987 ] ] ], [ [ [ -51.651905, -29.953537900000011 ], [ -51.6517378, -29.9534437 ], [ -51.6516211, -29.9534663 ], [ -51.6514863, -29.9534673 ], [ -51.651421283041259, -29.953478486833255 ], [ -51.651983817173374, -29.953577816533222 ], [ -51.651905, -29.953537900000011 ] ] ], [ [ [ -51.6441534, -29.9520763 ], [ -51.6428163, -29.9516727 ], [ -51.6417822, -29.9515645 ], [ -51.639694361562391, -29.951407206592922 ], [ -51.644712305523903, -29.952293645188949 ], [ -51.6441534, -29.9520763 ] ] ], [ [ [ -51.6294368, -29.9495149 ], [ -51.629168001263295, -29.949411923654885 ], [ -51.629399319999891, -29.949587898999898 ], [ -51.629903802584742, -29.949677069949438 ], [ -51.6294368, -29.9495149 ] ] ], [ [ [ -51.6284116, -29.9487757 ], [ -51.627876298757585, -29.947883290330143 ], [ -51.627883406, -29.948434651 ], [ -51.628518714480052, -29.948917974250907 ], [ -51.6284116, -29.9487757 ] ] ] ] } },
{ "type": "Feature", "properties": { "name": "Quininho", "code_muni": 4318408.0, "name_muni": "São Jerônimo" }, "geometry": { "type": "Polygon", "coordinates": [ [ [ -51.70991630000001, -29.9651549 ], [ -51.7099908, -29.9657863 ], [ -51.7100828, -29.966565 ], [ -51.7106538, -29.9709279 ], [ -51.7106618, -29.9709893 ], [ -51.710675, -29.9710825 ], [ -51.7102464, -29.971192 ], [ -51.7104274, -29.9717564 ], [ -51.7105447, -29.9728388 ], [ -51.7105573, -29.9729864 ], [ -51.7105689, -29.9731283 ], [ -51.7105795, -29.9732586 ], [ -51.7109909, -29.9732786 ], [ -51.7117016, -29.9732828 ], [ -51.7117362, -29.9727711 ], [ -51.7118276, -29.9713046 ], [ -51.7118386, -29.9712008 ], [ -51.7118893, -29.9710635 ], [ -51.7119832, -29.9709655 ], [ -51.7121568, -29.9708828 ], [ -51.7123557, -29.9707882 ], [ -51.71320930000001, -29.9703964 ], [ -51.7134634, -29.9702798 ], [ -51.7137042, -29.9701646 ], [ -51.7139553, -29.9700135 ], [ -51.7140867, -29.9698923 ], [ -51.7142342, -29.9697305 ], [ -51.7145364, -29.9692935 ], [ -51.714733, -29.9690209 ], [ -51.714985, -29.9687151 ], [ -51.7152228, -29.968440400000013 ], [ -51.715278, -29.968371 ], [ -51.7157123, -29.967898 ], [ -51.7167083, -29.9668242 ], [ -51.7172759, -29.9662147 ], [ -51.7173527, -29.966119499999987 ], [ -51.7173563, -29.966013799999988 ], [ -51.7173447, -29.9654634 ], [ -51.7173424, -29.9653711 ], [ -51.7173195, -29.9649433 ], [ -51.717312, -29.9648125 ], [ -51.7173023, -29.9646823 ], [ -51.7173023, -29.9646318 ], [ -51.7173108, -29.9645417 ], [ -51.7173165, -29.9644975 ], [ -51.7173302, -29.964448 ], [ -51.7173747, -29.9643645 ], [ -51.7174287, -29.9642725 ], [ -51.7175818, -29.9640307 ], [ -51.717606, -29.9639954 ], [ -51.7178558, -29.96354560000001 ], [ -51.7178781, -29.9635043 ], [ -51.7178927, -29.9634658 ], [ -51.7178954, -29.963430099999986 ], [ -51.7178821, -29.9633741 ], [ -51.7176533, -29.9626164 ], [ -51.7176463, -29.9625911 ], [ -51.7176309, -29.9625505 ], [ -51.7163307, -29.9629835 ], [ -51.7158737, -29.9630749 ], [ -51.7151558, -29.9631985 ], [ -51.7138646, -29.9634093 ], [ -51.7139528, -29.9640596 ], [ -51.7135433, -29.964115700000011 ], [ -51.7131092, -29.9641589 ], [ -51.7131776, -29.964552799999986 ], [ -51.7131601, -29.9645725 ], [ -51.713132, -29.964576 ], [ -51.7123892, -29.9645736 ], [ -51.7102045, -29.9644921 ], [ -51.7098144, -29.9644908 ], [ -51.70991630000001, -29.9651549 ] ] ] } },
{ "type": "Feature", "properties": { "name": "Fátima", "code_muni": 4318408.0, "name_muni": "São Jerônimo" }, "geometry": { "type": "Polygon", "coordinates": [ [ [ -51.7199082, -29.9755795 ], [ -51.7226711, -29.9756021 ], [ -51.72268, -29.9734009 ], [ -51.7229013, -29.9733722 ], [ -51.7232106, -29.9733305 ], [ -51.7236615, -29.9732366 ], [ -51.7266428, -29.9724482 ], [ -51.7269225, -29.972372 ], [ -51.7272853, -29.972278 ], [ -51.7275464, -29.9721988 ], [ -51.7279188, -29.9721092 ], [ -51.7281106, -29.972056 ], [ -51.7280091, -29.9719071 ], [ -51.7279832, -29.9718801 ], [ -51.7279403, -29.9718328 ], [ -51.7278615, -29.97172 ], [ -51.7278164, -29.9716514 ], [ -51.727308, -29.9709078 ], [ -51.7267088, -29.970053899999986 ], [ -51.7266203, -29.9699323 ], [ -51.7263225, -29.969938 ], [ -51.7262306, -29.969943099999988 ], [ -51.7256997, -29.9699705 ], [ -51.7243035, -29.9700545 ], [ -51.7240007, -29.9700677 ], [ -51.7238032, -29.9700599 ], [ -51.7235463, -29.9700393 ], [ -51.7231991, -29.9700016 ], [ -51.7230316, -29.9699748 ], [ -51.7228798, -29.9699434 ], [ -51.7226393, -29.9698892 ], [ -51.722401, -29.9698405 ], [ -51.722019, -29.9697542 ], [ -51.7217694, -29.96968 ], [ -51.7202776, -29.968886 ], [ -51.7195232, -29.9684834 ], [ -51.7192254, -29.9683217 ], [ -51.7190699, -29.9682388 ], [ -51.7187499, -29.9680648 ], [ -51.718433, -29.9678904 ], [ -51.7183536, -29.9677877 ], [ -51.7182688, -29.9676813 ], [ -51.7179952, -29.9672902 ], [ -51.717799, -29.9669581 ], [ -51.7176604, -29.9666695 ], [ -51.7173827, -29.9662154 ], [ -51.7173527, -29.966119499999987 ], [ -51.7172759, -29.9662147 ], [ -51.7167083, -29.9668242 ], [ -51.7157123, -29.967898 ], [ -51.715278, -29.968371 ], [ -51.7152228, -29.968440400000013 ], [ -51.714985, -29.9687151 ], [ -51.714733, -29.9690209 ], [ -51.7145364, -29.9692935 ], [ -51.7142342, -29.9697305 ], [ -51.7140867, -29.9698923 ], [ -51.7139553, -29.9700135 ], [ -51.7137042, -29.9701646 ], [ -51.7134634, -29.9702798 ], [ -51.71320930000001, -29.9703964 ], [ -51.7123557, -29.9707882 ], [ -51.7121568, -29.9708828 ], [ -51.7119832, -29.9709655 ], [ -51.7118893, -29.9710635 ], [ -51.7118386, -29.9712008 ], [ -51.7118276, -29.9713046 ], [ -51.7117362, -29.9727711 ], [ -51.7117016, -29.9732828 ], [ -51.7126802, -29.9733024 ], [ -51.7139076, -29.97331890000001 ], [ -51.7142467, -29.9733234 ], [ -51.7146979, -29.9733295 ], [ -51.7154394, -29.9733394 ], [ -51.7158626, -29.9733451 ], [ -51.715959, -29.9733471 ], [ -51.7161994, -29.9733521 ], [ -51.7166802, -29.9733586 ], [ -51.7171382, -29.9733583 ], [ -51.7176198, -29.9733595 ], [ -51.7198838, -29.9733876 ], [ -51.7199082, -29.9755795 ] ] ] } },
{ "type": "Feature", "properties": { "name": "Cidade Alta", "code_muni": 4318408.0, "name_muni": "São Jerônimo" }, "geometry": { "type": "Polygon", "coordinates": [ [ [ -51.7375121, -29.969172 ], [ -51.7374728, -29.9691274 ], [ -51.7374026, -29.9690128 ], [ -51.7373132, -29.9688355 ], [ -51.7372249, -29.9687385 ], [ -51.736948, -29.9685617 ], [ -51.736572, -29.9684215 ], [ -51.7358956, -29.9679555 ], [ -51.7354439, -29.9676146 ], [ -51.7351698, -29.9673937 ], [ -51.7350496, -29.967258 ], [ -51.7348042, -29.9669375 ], [ -51.7346167, -29.9666927 ], [ -51.7344129, -29.9664558 ], [ -51.7341687, -29.9661443 ], [ -51.7339021, -29.9657966 ], [ -51.733501, -29.9652774 ], [ -51.7330852, -29.9650022 ], [ -51.732939, -29.9648605 ], [ -51.7328061, -29.964793 ], [ -51.7326386, -29.964749 ], [ -51.7320887, -29.9646584 ], [ -51.7316579, -29.964545 ], [ -51.7313149, -29.964397 ], [ -51.73103720000001, -29.9641987 ], [ -51.7305102, -29.9638114 ], [ -51.7303707, -29.9637149 ], [ -51.7300704, -29.9634861 ], [ -51.7295913, -29.9631291 ], [ -51.7292351, -29.9629167 ], [ -51.7288928, -29.9628048 ], [ -51.7285098, -29.9626496 ], [ -51.728191, -29.9625155 ], [ -51.7279319, -29.9623827 ], [ -51.727808, -29.9622839 ], [ -51.7276836, -29.962153 ], [ -51.7275157, -29.9619774 ], [ -51.7274136, -29.961870699999988 ], [ -51.72737690000001, -29.9618394 ], [ -51.7273458, -29.9618232 ], [ -51.7273136, -29.9618135 ], [ -51.7272838, -29.9618111 ], [ -51.7272506, -29.9618161 ], [ -51.7272028, -29.9618301 ], [ -51.7266049, -29.9619792 ], [ -51.7268392, -29.9626582 ], [ -51.7267938, -29.9626744 ], [ -51.7249927, -29.9632558 ], [ -51.7250055, -29.9635331 ], [ -51.7250087, -29.9635817 ], [ -51.7250125, -29.9636384 ], [ -51.725023, -29.9637973 ], [ -51.7250652, -29.9643388 ], [ -51.7250857, -29.9646032 ], [ -51.7251026, -29.9648195 ], [ -51.7251227, -29.9650985 ], [ -51.7251572, -29.9657564 ], [ -51.72516610000001, -29.9658762 ], [ -51.7252064, -29.966575 ], [ -51.7252185, -29.9667711 ], [ -51.725237, -29.966936 ], [ -51.7252633, -29.9670899 ], [ -51.7252863, -29.9672223 ], [ -51.7253284, -29.9673974 ], [ -51.7254132, -29.967665 ], [ -51.7254884, -29.9678676 ], [ -51.7255911, -29.9681318 ], [ -51.7256384, -29.968266 ], [ -51.7257087, -29.9684381 ], [ -51.7257516, -29.9685444 ], [ -51.7258038, -29.9686364 ], [ -51.7258581, -29.9687375 ], [ -51.7259053, -29.9688254 ], [ -51.7260105, -29.9690062 ], [ -51.7261484, -29.9692353 ], [ -51.726247, -29.9693835 ], [ -51.7263708, -29.9695446 ], [ -51.7264707, -29.9696825 ], [ -51.7266203, -29.9699323 ], [ -51.7267088, -29.970053899999986 ], [ -51.727308, -29.9709078 ], [ -51.7278164, -29.9716514 ], [ -51.7278615, -29.97172 ], [ -51.7279403, -29.9718328 ], [ -51.7279832, -29.9718801 ], [ -51.7280091, -29.9719071 ], [ -51.7281106, -29.972056 ], [ -51.7282886, -29.9720078 ], [ -51.7287625, -29.9718584 ], [ -51.7299525, -29.9715645 ], [ -51.7307449, -29.9713526 ], [ -51.7314341, -29.9711679 ], [ -51.731831, -29.971064 ], [ -51.7327316, -29.9707983 ], [ -51.7331621, -29.9706557 ], [ -51.7334977, -29.9705137 ], [ -51.7341631, -29.9702479 ], [ -51.7352507, -29.9697085 ], [ -51.7358119, -29.9694359 ], [ -51.7362199, -29.9693052 ], [ -51.73652, -29.9692521 ], [ -51.7368739, -29.9692157 ], [ -51.7372609, -29.9692328 ], [ -51.7375443, -29.9692585 ], [ -51.7375121, -29.969172 ] ] ] } },
{ "type": "Feature", "properties": { "name": "Princesa Isabel", "code_muni": 4318408.0, "name_muni": "São Jerônimo" }, "geometry": { "type": "Polygon", "coordinates": [ [ [ -51.7280141, -29.9617807 ], [ -51.72791860000001, -29.9618181 ], [ -51.7278403, -29.9618486 ], [ -51.7275854, -29.9619499 ], [ -51.7275157, -29.9619774 ], [ -51.7276836, -29.962153 ], [ -51.727808, -29.9622839 ], [ -51.7279319, -29.9623827 ], [ -51.728191, -29.9625155 ], [ -51.7285098, -29.9626496 ], [ -51.7288928, -29.9628048 ], [ -51.7292351, -29.9629167 ], [ -51.7295913, -29.9631291 ], [ -51.7300704, -29.9634861 ], [ -51.7303707, -29.9637149 ], [ -51.7305102, -29.9638114 ], [ -51.73103720000001, -29.9641987 ], [ -51.7313149, -29.964397 ], [ -51.7316579, -29.964545 ], [ -51.7320887, -29.9646584 ], [ -51.7326386, -29.964749 ], [ -51.7328061, -29.964793 ], [ -51.732939, -29.9648605 ], [ -51.7330852, -29.9650022 ], [ -51.733501, -29.9652774 ], [ -51.7339021, -29.9657966 ], [ -51.7341687, -29.9661443 ], [ -51.7344129, -29.9664558 ], [ -51.7346167, -29.9666927 ], [ -51.7348042, -29.9669375 ], [ -51.7350496, -29.967258 ], [ -51.7351698, -29.9673937 ], [ -51.7354439, -29.9676146 ], [ -51.7358956, -29.9679555 ], [ -51.736572, -29.9684215 ], [ -51.736948, -29.9685617 ], [ -51.7372249, -29.9687385 ], [ -51.7373132, -29.9688355 ], [ -51.7374026, -29.9690128 ], [ -51.7374728, -29.9691274 ], [ -51.7375121, -29.969172 ], [ -51.7375443, -29.9692585 ], [ -51.7389945, -29.9695815 ], [ -51.7393465, -29.9696285 ], [ -51.7395594, -29.9696302 ], [ -51.739861, -29.9696084 ], [ -51.7434206, -29.9690939 ], [ -51.7438152, -29.9690221 ], [ -51.7437402, -29.968852 ], [ -51.743718, -29.9686995 ], [ -51.7437552, -29.9684746 ], [ -51.7437494, -29.9683054 ], [ -51.7435616, -29.9671157 ], [ -51.7434733, -29.9669445 ], [ -51.743376, -29.9667225 ], [ -51.7516995, -29.9601586 ], [ -51.7491031, -29.9598983 ], [ -51.7462063, -29.9588944 ], [ -51.744865810295266, -29.958267276300504 ], [ -51.742247469999896, -29.957494428 ], [ -51.740061793029113, -29.956349454624547 ], [ -51.7397432, -29.9562363 ], [ -51.7323401, -29.95987 ], [ -51.7280141, -29.9617807 ] ] ] } },
{ "type": "Feature", "properties": { "name": "Centro", "code_muni": 4318408.0, "name_muni": "São Jerônimo" }, "geometry": { "type": "Polygon", "coordinates": [ [ [ -51.7267938, -29.9626744 ], [ -51.7268392, -29.9626582 ], [ -51.7266049, -29.9619792 ], [ -51.7272028, -29.9618301 ], [ -51.7272506, -29.9618161 ], [ -51.7272838, -29.9618111 ], [ -51.7273136, -29.9618135 ], [ -51.7273458, -29.9618232 ], [ -51.72737690000001, -29.9618394 ], [ -51.7274136, -29.961870699999988 ], [ -51.7275157, -29.9619774 ], [ -51.7275854, -29.9619499 ], [ -51.7278403, -29.9618486 ], [ -51.72791860000001, -29.9618181 ], [ -51.7280141, -29.9617807 ], [ -51.7323401, -29.95987 ], [ -51.7397432, -29.9562363 ], [ -51.737147, -29.9550869 ], [ -51.7319985, -29.9521419 ], [ -51.7283664, -29.9499762 ], [ -51.7273498, -29.94937 ], [ -51.7259301, -29.9490696 ], [ -51.7222344, -29.94933 ], [ -51.7214527, -29.9532646 ], [ -51.7214081, -29.9534913 ], [ -51.7213512, -29.953649599999988 ], [ -51.7213373, -29.9537186 ], [ -51.7213432, -29.9538579 ], [ -51.7215782, -29.9549834 ], [ -51.7218162, -29.9561565 ], [ -51.7219271, -29.956636 ], [ -51.7220672, -29.9572834 ], [ -51.7213515, -29.9574309 ], [ -51.7204812, -29.9576105 ], [ -51.7197808, -29.9577691 ], [ -51.7191586, -29.9578902 ], [ -51.7189038, -29.957945899999984 ], [ -51.7189832, -29.9581579 ], [ -51.7191312, -29.9585089 ], [ -51.7192563, -29.9588312 ], [ -51.7186428, -29.958998 ], [ -51.7190033, -29.9601452 ], [ -51.7192293, -29.9609332 ], [ -51.7195109, -29.9618377 ], [ -51.7197235, -29.9625524 ], [ -51.7199191, -29.9632007 ], [ -51.7217077, -29.9625267 ], [ -51.7221081, -29.9623778 ], [ -51.7221955, -29.9623639 ], [ -51.7233973, -29.9623003 ], [ -51.7234614, -29.9624165 ], [ -51.7246595, -29.9622127 ], [ -51.7248994, -29.962181099999988 ], [ -51.7249212, -29.962513300000012 ], [ -51.72495150000001, -29.9628759 ], [ -51.7249927, -29.9632558 ], [ -51.7267938, -29.9626744 ] ] ] } },
{ "type": "Feature", "properties": { "name": "Bela Vista", "code_muni": 4318408.0, "name_muni": "São Jerônimo" }, "geometry": { "type": "Polygon", "coordinates": [ [ [ -51.7123892, -29.9645736 ], [ -51.713132, -29.964576 ], [ -51.7131601, -29.9645725 ], [ -51.7131776, -29.964552799999986 ], [ -51.7131092, -29.9641589 ], [ -51.7135433, -29.964115700000011 ], [ -51.7139528, -29.9640596 ], [ -51.7138646, -29.9634093 ], [ -51.7151558, -29.9631985 ], [ -51.7158737, -29.9630749 ], [ -51.7163307, -29.9629835 ], [ -51.7176309, -29.9625505 ], [ -51.7176463, -29.9625911 ], [ -51.7176533, -29.9626164 ], [ -51.7178821, -29.9633741 ], [ -51.7178954, -29.963430099999986 ], [ -51.7178927, -29.9634658 ], [ -51.7178781, -29.9635043 ], [ -51.7178558, -29.96354560000001 ], [ -51.717606, -29.9639954 ], [ -51.7186424, -29.9636283 ], [ -51.7199191, -29.9632007 ], [ -51.7197235, -29.9625524 ], [ -51.7195109, -29.9618377 ], [ -51.7192293, -29.9609332 ], [ -51.7190033, -29.9601452 ], [ -51.7186428, -29.958998 ], [ -51.7192563, -29.9588312 ], [ -51.7191312, -29.9585089 ], [ -51.7189832, -29.9581579 ], [ -51.7189038, -29.957945899999984 ], [ -51.7183025, -29.9580591 ], [ -51.7173907, -29.9582522 ], [ -51.716457, -29.9584549 ], [ -51.7161979, -29.9575331 ], [ -51.7154068, -29.9577257 ], [ -51.7143001, -29.9579882 ], [ -51.7129979, -29.9582554 ], [ -51.7116329, -29.9585466 ], [ -51.711934, -29.95957 ], [ -51.7122016, -29.9606139 ], [ -51.7116188, -29.9607566 ], [ -51.7115079, -29.9607837 ], [ -51.7114221, -29.9608047 ], [ -51.7106333, -29.9610081 ], [ -51.7105809, -29.9610216 ], [ -51.7103285, -29.9610867 ], [ -51.710232, -29.9611116 ], [ -51.7101112, -29.9611421 ], [ -51.7088864, -29.9614587 ], [ -51.7083004, -29.9615981 ], [ -51.7079535, -29.9616273 ], [ -51.7076151, -29.961653 ], [ -51.7074679, -29.9616585 ], [ -51.7072571, -29.9616554 ], [ -51.7070126, -29.961638 ], [ -51.7072531, -29.9617181 ], [ -51.7075068, -29.9617698 ], [ -51.7081793, -29.961881400000014 ], [ -51.708001, -29.9625217 ], [ -51.7096059, -29.9627834 ], [ -51.7096446, -29.9630763 ], [ -51.7097544, -29.964031299999984 ], [ -51.7098144, -29.9644908 ], [ -51.7102045, -29.9644921 ], [ -51.7123892, -29.9645736 ] ] ] } },
{ "type": "Feature", "properties": { "name": "Cidade Baixa", "code_muni": 4318408.0, "name_muni": "São Jerônimo" }, "geometry": { "type": "Polygon", "coordinates": [ [ [ -51.7099819, -29.9495474 ], [ -51.7098503, -29.9505476 ], [ -51.7098562, -29.9515543 ], [ -51.7097566, -29.9519542 ], [ -51.7098377, -29.9521298 ], [ -51.7098867, -29.952224 ], [ -51.7101457, -29.9532514 ], [ -51.710403, -29.9542057 ], [ -51.7106402, -29.955074 ], [ -51.7110046, -29.9563658 ], [ -51.7113617, -29.957535 ], [ -51.7116329, -29.9585466 ], [ -51.7129979, -29.9582554 ], [ -51.7143001, -29.9579882 ], [ -51.7154068, -29.9577257 ], [ -51.7161979, -29.9575331 ], [ -51.716457, -29.9584549 ], [ -51.7173907, -29.9582522 ], [ -51.7183025, -29.9580591 ], [ -51.7189038, -29.957945899999984 ], [ -51.7191586, -29.9578902 ], [ -51.7197808, -29.9577691 ], [ -51.7204812, -29.9576105 ], [ -51.7213515, -29.9574309 ], [ -51.7220672, -29.9572834 ], [ -51.7219271, -29.956636 ], [ -51.7218162, -29.9561565 ], [ -51.7215782, -29.9549834 ], [ -51.7213432, -29.9538579 ], [ -51.7213373, -29.9537186 ], [ -51.7213512, -29.953649599999988 ], [ -51.7214081, -29.9534913 ], [ -51.7214527, -29.9532646 ], [ -51.7222344, -29.94933 ], [ -51.718538700000011, -29.9495903 ], [ -51.717349357853649, -29.949443615133205 ], [ -51.710023689406981, -29.949394235969329 ], [ -51.7099819, -29.9495474 ] ] ] } },
{ "type": "Feature", "properties": { "name": "Bandeira Branca", "code_muni": 4318408.0, "name_muni": "São Jerônimo" }, "geometry": { "type": "Polygon", "coordinates": [ [ [ -51.7397905, -29.9918315 ], [ -51.7412818, -29.9888533 ], [ -51.7421454, -29.9878915 ], [ -51.7421919, -29.9877807 ], [ -51.742315, -29.9873898 ], [ -51.7427628, -29.9859681 ], [ -51.7427734, -29.985914199999989 ], [ -51.7427675, -29.98578 ], [ -51.7427629, -29.9856759 ], [ -51.7427553, -29.9856375 ], [ -51.7427436, -29.9855941 ], [ -51.7426723, -29.9853931 ], [ -51.7426531, -29.9853529 ], [ -51.7424747, -29.9850508 ], [ -51.7417208, -29.9841366 ], [ -51.7411983, -29.9837111 ], [ -51.7400863, -29.9828054 ], [ -51.7388459, -29.9818616 ], [ -51.7385498, -29.9817118 ], [ -51.7379378, -29.9813949 ], [ -51.7371177, -29.9809718 ], [ -51.7366903, -29.9807583 ], [ -51.7365237, -29.9804821 ], [ -51.7363693, -29.9803245 ], [ -51.7362422, -29.9804154 ], [ -51.7346592, -29.9814699 ], [ -51.7362685, -29.9838513 ], [ -51.7372223, -29.985213 ], [ -51.7381902, -29.9867575 ], [ -51.7385052, -29.9874361 ], [ -51.738769, -29.9882875 ], [ -51.7389872, -29.9892993 ], [ -51.7391561, -29.990095 ], [ -51.7394193, -29.9910876 ], [ -51.7396241, -29.9920684 ], [ -51.7397905, -29.9918315 ] ] ] } },
{ "type": "Feature", "properties": { "name": "Passo D'Areia", "code_muni": 4318408.0, "name_muni": "São Jerônimo" }, "geometry": { "type": "Polygon", "coordinates": [ [ [ -51.7434206, -29.9690939 ], [ -51.739861, -29.9696084 ], [ -51.7395594, -29.9696302 ], [ -51.7393465, -29.9696285 ], [ -51.7389945, -29.9695815 ], [ -51.7375443, -29.9692585 ], [ -51.7372609, -29.9692328 ], [ -51.7368739, -29.9692157 ], [ -51.73652, -29.9692521 ], [ -51.7362199, -29.9693052 ], [ -51.7358119, -29.9694359 ], [ -51.7352507, -29.9697085 ], [ -51.7341631, -29.9702479 ], [ -51.7334977, -29.9705137 ], [ -51.7331621, -29.9706557 ], [ -51.7327316, -29.9707983 ], [ -51.731831, -29.971064 ], [ -51.7314341, -29.9711679 ], [ -51.7307449, -29.9713526 ], [ -51.7299525, -29.9715645 ], [ -51.7287625, -29.9718584 ], [ -51.7282886, -29.9720078 ], [ -51.7281106, -29.972056 ], [ -51.7282018, -29.9722039 ], [ -51.7282223, -29.9722336 ], [ -51.7282589, -29.9722777 ], [ -51.7283183, -29.972367 ], [ -51.7299403, -29.97470830000001 ], [ -51.7311328, -29.9764316 ], [ -51.73223, -29.9780171 ], [ -51.7329749, -29.9790957 ], [ -51.7340232, -29.9805534 ], [ -51.7346592, -29.9814699 ], [ -51.7362422, -29.9804154 ], [ -51.7363693, -29.9803245 ], [ -51.7365237, -29.9804821 ], [ -51.7366903, -29.9807583 ], [ -51.7371177, -29.9809718 ], [ -51.7379378, -29.9813949 ], [ -51.7385498, -29.9817118 ], [ -51.7396684, -29.9776591 ], [ -51.7399148, -29.9767277 ], [ -51.7401181, -29.9756772 ], [ -51.7461902, -29.9714051 ], [ -51.7460266, -29.9711053 ], [ -51.7458094, -29.9708335 ], [ -51.7456444, -29.9707417 ], [ -51.7454902, -29.9706871 ], [ -51.7452246, -29.9705128 ], [ -51.7451012, -29.9703688 ], [ -51.7448866, -29.9701179 ], [ -51.7443984, -29.9696717 ], [ -51.7441946, -29.96953 ], [ -51.7440498, -29.969365 ], [ -51.743964, -29.9691838 ], [ -51.7438152, -29.9690221 ], [ -51.7434206, -29.9690939 ] ] ] } },
{ "type": "Feature", "properties": { "name": "Padre Reus", "code_muni": 4318408.0, "name_muni": "São Jerônimo" }, "geometry": { "type": "Polygon", "coordinates": [ [ [ -51.69574870000001, -29.9573002 ], [ -51.6947508, -29.958662 ], [ -51.6942787, -29.9588386 ], [ -51.6924977, -29.9592941 ], [ -51.6916609, -29.9597682 ], [ -51.6915429, -29.9606419 ], [ -51.6919184, -29.9612461 ], [ -51.6927767, -29.9620362 ], [ -51.6935921, -29.9622964 ], [ -51.6940749, -29.9626868 ], [ -51.6947293, -29.9628448 ], [ -51.6950297, -29.9642855 ], [ -51.6952443, -29.9655961 ], [ -51.6965211, -29.9659586 ], [ -51.6969717, -29.9664047 ], [ -51.6989887, -29.9664791 ], [ -51.6992247, -29.9612647 ], [ -51.6996182, -29.9611269 ], [ -51.6994153, -29.9606917 ], [ -51.6995211, -29.9605986 ], [ -51.699518, -29.9604971 ], [ -51.6995125, -29.9603425 ], [ -51.6995058, -29.9601096 ], [ -51.6992554, -29.9601214 ], [ -51.6990321, -29.9600708 ], [ -51.6990288, -29.9597344 ], [ -51.6990673, -29.959527 ], [ -51.6991071, -29.9593079 ], [ -51.6991279, -29.9591446 ], [ -51.6992017, -29.9590108 ], [ -51.69934, -29.9589308 ], [ -51.6993783, -29.958876 ], [ -51.6993571, -29.9588248 ], [ -51.6992946, -29.9587787 ], [ -51.6992074, -29.9587704 ], [ -51.6989959, -29.9587577 ], [ -51.6989396, -29.958687299999987 ], [ -51.6985081, -29.958454299999989 ], [ -51.6980586, -29.958222 ], [ -51.6978, -29.9581323 ], [ -51.6970675, -29.9576023 ], [ -51.6969042, -29.9576232 ], [ -51.6967759, -29.9576916 ], [ -51.6965982, -29.9577301 ], [ -51.6964452, -29.957713 ], [ -51.6963169, -29.9577429 ], [ -51.6961787, -29.957837 ], [ -51.6960504, -29.957892600000012 ], [ -51.6959517, -29.9579054 ], [ -51.6958617, -29.9578622 ], [ -51.6957964, -29.9572477 ], [ -51.69574870000001, -29.9573002 ] ] ] } },
{ "type": "Feature", "properties": { "name": "São Francisco", "code_muni": 4318408.0, "name_muni": "São Jerônimo" }, "geometry": { "type": "Polygon", "coordinates": [ [ [ -51.7098562, -29.9515543 ], [ -51.7098503, -29.9505476 ], [ -51.7099819, -29.9495474 ], [ -51.710023689406981, -29.949394235969329 ], [ -51.705136059, -29.949361064 ], [ -51.699792170346193, -29.94876560257666 ], [ -51.6992074, -29.9520154 ], [ -51.6991604, -29.9525631 ], [ -51.6992034, -29.9533588 ], [ -51.698881, -29.953991 ], [ -51.6989029, -29.9544372 ], [ -51.6986455, -29.9547718 ], [ -51.6975082, -29.95538530000001 ], [ -51.6973151, -29.9555712 ], [ -51.6967572, -29.9558873 ], [ -51.6957272, -29.9565974 ], [ -51.6957964, -29.9572477 ], [ -51.6958617, -29.9578622 ], [ -51.6959517, -29.9579054 ], [ -51.6960504, -29.957892600000012 ], [ -51.6961787, -29.957837 ], [ -51.6963169, -29.9577429 ], [ -51.6964452, -29.957713 ], [ -51.6965982, -29.9577301 ], [ -51.6967759, -29.9576916 ], [ -51.6969042, -29.9576232 ], [ -51.6970675, -29.9576023 ], [ -51.6978, -29.9581323 ], [ -51.6980586, -29.958222 ], [ -51.6985081, -29.958454299999989 ], [ -51.6989396, -29.958687299999987 ], [ -51.6989959, -29.9587577 ], [ -51.6992074, -29.9587704 ], [ -51.6992946, -29.9587787 ], [ -51.6993571, -29.9588248 ], [ -51.6993783, -29.958876 ], [ -51.69934, -29.9589308 ], [ -51.6992017, -29.9590108 ], [ -51.6991279, -29.9591446 ], [ -51.6991071, -29.9593079 ], [ -51.6990673, -29.959527 ], [ -51.6990288, -29.9597344 ], [ -51.6990321, -29.9600708 ], [ -51.6992554, -29.9601214 ], [ -51.6995058, -29.9601096 ], [ -51.6995125, -29.9603425 ], [ -51.699518, -29.9604971 ], [ -51.6995211, -29.9605986 ], [ -51.6994153, -29.9606917 ], [ -51.6996182, -29.9611269 ], [ -51.703678, -29.9617637 ], [ -51.7054044, -29.9620439 ], [ -51.706636, -29.9622753 ], [ -51.708001, -29.9625217 ], [ -51.7081793, -29.961881400000014 ], [ -51.7075068, -29.9617698 ], [ -51.7072531, -29.9617181 ], [ -51.7070126, -29.961638 ], [ -51.7072571, -29.9616554 ], [ -51.7074679, -29.9616585 ], [ -51.7076151, -29.961653 ], [ -51.7079535, -29.9616273 ], [ -51.7083004, -29.9615981 ], [ -51.7088864, -29.9614587 ], [ -51.7101112, -29.9611421 ], [ -51.710232, -29.9611116 ], [ -51.7103285, -29.9610867 ], [ -51.7105809, -29.9610216 ], [ -51.7106333, -29.9610081 ], [ -51.7114221, -29.9608047 ], [ -51.7115079, -29.9607837 ], [ -51.7116188, -29.9607566 ], [ -51.7122016, -29.9606139 ], [ -51.711934, -29.95957 ], [ -51.7116329, -29.9585466 ], [ -51.7113617, -29.957535 ], [ -51.7110046, -29.9563658 ], [ -51.7106402, -29.955074 ], [ -51.710403, -29.9542057 ], [ -51.7101457, -29.9532514 ], [ -51.7098867, -29.952224 ], [ -51.7098377, -29.9521298 ], [ -51.7097566, -29.9519542 ], [ -51.7098562, -29.9515543 ] ] ] } }
]
}
