{
"type": "FeatureCollection",
"name": "bairros_charqueadas",
"crs": { "type": "name", "properties": { "name": "urn:ogc:def:crs:OGC:1.3:CRS84" } },
"features": [
{ "type": "Feature", "properties": { "code_muni": 4305355.0, "name_muni": "Charqueadas", "code_state": 43.0, "abbrev_state": "RS", "name_state": "Rio Grande do Sul", "code_region": 4.0, "name_region": "Sul", "year": 2022.0 }, "geometry": { "type": "Polygon", "coordinates": [ [ [ -51.532332604, -29.927273554999903 ], [ -51.516683223, -29.928983162 ], [ -51.507025988999906, -29.927494383999896 ], [ -51.503976091, -29.9281604 ], [ -51.496206587999893, -29.931955319999911 ], [ -51.483491011999902, -29.942030431 ], [ -51.47593877899989, -29.942864128999904 ], [ -51.462228185999898, -29.949010504999901 ], [ -51.460831245, -29.952370227999904 ], [ -51.450823585, -29.962224648 ], [ -51.445765906, -29.975271219 ], [ -51.439512501, -29.980885209999901 ], [ -51.434792159, -29.983176081 ], [ -51.436333729999902, -29.986168784 ], [ -51.442587348, -29.991014726999893 ], [ -51.443086896, -29.997091124 ], [ -51.445047676999891, -29.998080063 ], [ -51.446466315, -30.001766096 ], [ -51.447108594, -30.010733055999907 ], [ -51.449840073, -30.009844366 ], [ -51.4559021809999, -30.012038639 ], [ -51.45674507199989, -30.0171459869999 ], [ -51.465687247999902, -30.022622215 ], [ -51.478477584, -30.023715987999903 ], [ -51.481004536999897, -30.02866341 ], [ -51.480440937, -30.029985657999902 ], [ -51.489897158, -30.035590645 ], [ -51.489931022, -30.034669542 ], [ -51.496007618, -30.037642884 ], [ -51.504653808999898, -30.037572815 ], [ -51.507914797999902, -30.038831923 ], [ -51.518744537, -30.037341947999884 ], [ -51.525627438999905, -30.038413825 ], [ -51.528724761, -30.03969552199991 ], [ -51.528983398, -30.043040054999899 ], [ -51.531950808, -30.045554457 ], [ -51.536593548, -30.048531738 ], [ -51.540565941999894, -30.048003176 ], [ -51.5410580019999, -30.049357357 ], [ -51.548227859999891, -30.043959533 ], [ -51.571558465, -30.034784037 ], [ -51.574470178, -30.029744316999906 ], [ -51.573898605999901, -30.022521475 ], [ -51.576864615, -30.02108678 ], [ -51.584422726, -30.022000951999885 ], [ -51.588685233, -30.020778102 ], [ -51.588710266, -30.010968315 ], [ -51.5940160869999, -30.010721971 ], [ -51.596984592, -30.011608467 ], [ -51.597112033, -30.01337368 ], [ -51.600233145999901, -30.013199206 ], [ -51.599761290999894, -30.015229435 ], [ -51.601968316999894, -30.019567652 ], [ -51.611295989, -30.020252978 ], [ -51.611745244, -30.024070641 ], [ -51.603058533, -30.029378870999899 ], [ -51.602944749, -30.032203717 ], [ -51.605429295, -30.033905481999987 ], [ -51.605045294, -30.037150192999899 ], [ -51.607493239999897, -30.040155872999893 ], [ -51.609407857999898, -30.040357147999899 ], [ -51.613492253999901, -30.043924505999893 ], [ -51.61411219, -30.048249547999895 ], [ -51.61929628, -30.049493917999904 ], [ -51.623553791999903, -30.048614038 ], [ -51.625477535, -30.050922012999909 ], [ -51.625577918, -30.053194651 ], [ -51.620521741999902, -30.061105282 ], [ -51.630259828, -30.063356812999896 ], [ -51.636838141999895, -30.053702346 ], [ -51.640835627999891, -30.0538257649999 ], [ -51.648220260999892, -30.050611784 ], [ -51.65401794, -30.051266692 ], [ -51.661184697999893, -30.047690393 ], [ -51.664053545999892, -30.039592303999896 ], [ -51.665254497, -30.030320745 ], [ -51.682771206, -30.018167621 ], [ -51.681694402999895, -30.010686678 ], [ -51.670446419, -30.002895155 ], [ -51.6555656849999, -29.997838133999895 ], [ -51.653880638, -29.996091991999908 ], [ -51.654604886, -29.993488296 ], [ -51.650557857, -29.991232884999889 ], [ -51.646716125, -29.985066891 ], [ -51.644792748, -29.984736838999897 ], [ -51.641233744, -29.979562569999885 ], [ -51.639136124999894, -29.979404244 ], [ -51.63695332, -29.976585441999905 ], [ -51.637041269999891, -29.972078368 ], [ -51.639333205, -29.970829943 ], [ -51.639580548, -29.969193280999896 ], [ -51.641682843, -29.969084422 ], [ -51.645730989999898, -29.965657819999898 ], [ -51.64824843, -29.9656628339999 ], [ -51.649574395999892, -29.962488189999888 ], [ -51.652649153, -29.960686429 ], [ -51.65440430199989, -29.956801807 ], [ -51.653563931, -29.954580732000011 ], [ -51.629399319999891, -29.949587898999898 ], [ -51.627883406, -29.948434651 ], [ -51.627854646999907, -29.946203539999896 ], [ -51.602713338999898, -29.944215523 ], [ -51.584538879, -29.940188228999901 ], [ -51.565726793, -29.93862668 ], [ -51.544320195999902, -29.929804681999901 ], [ -51.532332604, -29.927273554999903 ] ] ] } }
]
}
