{
"type": "FeatureCollection",
"name": "bairros_capitao",
"crs": { "type": "name", "properties": { "name": "urn:ogc:def:crs:OGC:1.3:CRS84" } },
"features": [
{ "type": "Feature", "properties": { "code_muni": 4304697.0, "name_muni": "Capitão", "code_state": 43.0, "abbrev_state": "RS", "name_state": "Rio Grande do Sul", "code_region": 4.0, "name_region": "Sul", "year": 2022.0 }, "geometry": { "type": "Polygon", "coordinates": [ [ [ -51.973894663, -29.303351243 ], [ -51.976792265, -29.301123267 ], [ -51.987247752, -29.300937548 ], [ -52.004278535, -29.310201255 ], [ -52.007907723999892, -29.315069803 ], [ -52.009381172, -29.315328069 ], [ -52.008637856, -29.316757335 ], [ -52.013517470999901, -29.31748027 ], [ -52.014134585, -29.318682672 ], [ -52.022059051, -29.317796432 ], [ -52.018104107999903, -29.321324699999899 ], [ -52.015181663, -29.329210874 ], [ -52.037013515999902, -29.328675871 ], [ -52.0366541, -29.267627033999901 ], [ -52.029832986, -29.266999078 ], [ -52.022271848999893, -29.26092849 ], [ -52.016309276, -29.259883242999894 ], [ -52.013507236999899, -29.257116965 ], [ -52.01423885, -29.254986682 ], [ -52.009171202999902, -29.254348551 ], [ -52.004032478999896, -29.249319557 ], [ -51.999001708, -29.247914075 ], [ -51.998127352, -29.243253438999908 ], [ -51.994611697, -29.242360203 ], [ -51.994173832999898, -29.240334259 ], [ -51.995748076, -29.239271046999903 ], [ -51.993587805999901, -29.233827195999908 ], [ -51.976568641, -29.234161667 ], [ -51.976353065, -29.235131565 ], [ -51.96737517, -29.235641246999908 ], [ -51.966009293999903, -29.23801685 ], [ -51.964580519, -29.238005042999909 ], [ -51.964764255, -29.246862721999904 ], [ -51.946915901999901, -29.2469723889999 ], [ -51.946544729, -29.271726432 ], [ -51.9300794709999, -29.283006792 ], [ -51.927073275999902, -29.287631078999908 ], [ -51.919370941, -29.291592425 ], [ -51.920370116999891, -29.303846533 ], [ -51.939709639999897, -29.304004550999899 ], [ -51.939725208, -29.3053819739999 ], [ -51.943921819, -29.305411448 ], [ -51.94412568, -29.313523469 ], [ -51.948676159999906, -29.319707332999911 ], [ -51.947291091, -29.321209343 ], [ -51.955080037, -29.328911918999896 ], [ -51.962513244, -29.328461854999894 ], [ -51.964977529999892, -29.329748552999892 ], [ -51.965625249, -29.323419916 ], [ -51.969108477, -29.320671644 ], [ -51.968222830999899, -29.317355434999985 ], [ -51.974466132, -29.308088561 ], [ -51.973894663, -29.303351243 ] ] ] } }
]
}
