{
"type": "FeatureCollection",
"name": "bairros_novo_cabrais",
"crs": { "type": "name", "properties": { "name": "urn:ogc:def:crs:OGC:1.3:CRS84" } },
"features": [
{ "type": "Feature", "properties": { "code_muni": 4313391.0, "name_muni": "Novo Cabrais", "code_state": 43.0, "abbrev_state": "RS", "name_state": "Rio Grande do Sul", "code_region": 4.0, "name_region": "Sul", "year": 2022.0 }, "geometry": { "type": "Polygon", "coordinates": [ [ [ -52.970150997, -29.811705323000012 ], [ -52.97590850599989, -29.812370670999901 ], [ -52.981937344, -29.816180609999893 ], [ -52.985794072, -29.814652418000012 ], [ -52.990325524, -29.810619754999905 ], [ -52.999214881999897, -29.808549491 ], [ -53.003797345999892, -29.811289374 ], [ -53.010625513, -29.812609857 ], [ -53.016837873999989, -29.818521389999894 ], [ -53.02547341, -29.819275428 ], [ -53.029835063, -29.817362682999899 ], [ -53.032621762, -29.822240697 ], [ -53.031872138, -29.825090221 ], [ -53.039674277999907, -29.824018680999988 ], [ -53.048381663, -29.820203718999892 ], [ -53.058225694, -29.823415221999898 ], [ -53.06741264, -29.806304182 ], [ -53.073745411999894, -29.799467748 ], [ -53.0767903, -29.797924861999899 ], [ -53.07850645, -29.793619538000012 ], [ -53.076010590999893, -29.789459823 ], [ -53.069934771, -29.790408597999896 ], [ -53.0696621, -29.789137470999904 ], [ -53.066432821, -29.787831068999893 ], [ -53.064628075, -29.783489293999907 ], [ -53.065341626, -29.780043928999898 ], [ -53.064225905999898, -29.776913078 ], [ -53.055672566999903, -29.768638054999908 ], [ -53.056497372, -29.762940157999896 ], [ -53.059730988999902, -29.760472563999894 ], [ -53.060357814, -29.758341817 ], [ -53.056186556999897, -29.753075609999904 ], [ -53.057762716, -29.751585796 ], [ -53.057314119, -29.748038363 ], [ -53.060129783, -29.74964784 ], [ -53.061487907, -29.744804331 ], [ -53.063621014, -29.744433353 ], [ -53.064532535, -29.742572507999988 ], [ -53.063724841999893, -29.741269616 ], [ -53.066602551, -29.739631027 ], [ -53.065247641, -29.733907729 ], [ -53.0684774489999, -29.727809916 ], [ -53.066042050999989, -29.723249003 ], [ -53.0662544159999, -29.718842955999904 ], [ -53.06255901, -29.716335235 ], [ -53.059827621, -29.708659046 ], [ -53.050686489, -29.697483867999885 ], [ -53.044803535, -29.684723192 ], [ -53.044591743, -29.679696185999905 ], [ -53.040187505999903, -29.674011708 ], [ -53.041021757, -29.669402125000012 ], [ -53.036658858, -29.657424402999901 ], [ -53.032754391, -29.659087421 ], [ -53.013699211, -29.656783355 ], [ -53.016232513, -29.659462817 ], [ -53.016435215999891, -29.661974595999894 ], [ -53.010179182999892, -29.661609797 ], [ -53.007769922, -29.66277464900001 ], [ -53.008784291, -29.66970809 ], [ -53.011459617999897, -29.670276944 ], [ -53.015426475, -29.675753772999897 ], [ -53.015588645, -29.678497961999906 ], [ -53.016885638, -29.678302017 ], [ -53.015396084, -29.683562059999897 ], [ -53.020965323, -29.689858023999903 ], [ -53.014719834999894, -29.69082293 ], [ -53.007493182, -29.698506014 ], [ -52.998907195999898, -29.700715966 ], [ -52.987758776, -29.699721054999909 ], [ -52.985492294, -29.701052449 ], [ -52.976069299, -29.700766793 ], [ -52.975884586999904, -29.698916988999908 ], [ -52.97332111, -29.699217185 ], [ -52.968690367, -29.70610369699989 ], [ -52.964748726, -29.708817408 ], [ -52.960958371999894, -29.708518269 ], [ -52.954578907, -29.711101224999897 ], [ -52.935714307, -29.722748524999897 ], [ -52.929710353, -29.719202537999905 ], [ -52.92603916, -29.720121763 ], [ -52.927207154, -29.7282786019999 ], [ -52.930039522, -29.7286542259999 ], [ -52.932189171999894, -29.730738191999901 ], [ -52.928477264, -29.733846452000012 ], [ -52.930108436, -29.738329327 ], [ -52.929430414, -29.743572899 ], [ -52.932081308, -29.745115177999892 ], [ -52.926411480999903, -29.749995419 ], [ -52.927404958999901, -29.755052263 ], [ -52.925288849, -29.753663071999895 ], [ -52.924095774, -29.754624887 ], [ -52.926441140999891, -29.756719556999897 ], [ -52.926606117999903, -29.758217398999889 ], [ -52.925113279, -29.758876406999899 ], [ -52.927177481999891, -29.759809644 ], [ -52.926274487999898, -29.760907331999903 ], [ -52.927459297, -29.761794638 ], [ -52.924546335999892, -29.762682965 ], [ -52.924118876, -29.764173285 ], [ -52.922459953, -29.763432731999988 ], [ -52.921762015, -29.766134098 ], [ -52.92401984899989, -29.766666648999902 ], [ -52.925501691, -29.770343722999893 ], [ -52.927486937, -29.771139204999898 ], [ -52.925664362, -29.774286097999902 ], [ -52.926978619, -29.775073431 ], [ -52.925062183, -29.776252182999901 ], [ -52.927863849999902, -29.77856703 ], [ -52.925655097999901, -29.778835057 ], [ -52.92696778, -29.782684832 ], [ -52.925023766, -29.783526891999902 ], [ -52.926713289, -29.78433983 ], [ -52.923736348, -29.785829271999905 ], [ -52.924535407, -29.789544088999893 ], [ -52.921331713, -29.792581344 ], [ -52.921908902, -29.798462880999988 ], [ -52.917185275, -29.800444857999903 ], [ -52.917466006, -29.805402086 ], [ -52.914313847, -29.808101307 ], [ -52.912355309, -29.806788068999893 ], [ -52.910750771, -29.813095467 ], [ -52.907344668999897, -29.814942695999907 ], [ -52.908399292, -29.817475322 ], [ -52.906354125999897, -29.821544656999905 ], [ -52.904616201, -29.822377278 ], [ -52.906622447, -29.825789170999908 ], [ -52.90511491, -29.827311057 ], [ -52.907578969, -29.828121639 ], [ -52.908485169, -29.829852023999901 ], [ -52.901966585, -29.835052382 ], [ -52.900614559, -29.83917337 ], [ -52.901506383, -29.840418384 ], [ -52.899267697, -29.843567699999905 ], [ -52.899660145, -29.846093965 ], [ -52.905396383, -29.839646059 ], [ -52.910829438999897, -29.838374893 ], [ -52.918239538, -29.834536263 ], [ -52.919323303999896, -29.832385648 ], [ -52.92230198, -29.832703142999897 ], [ -52.923790196, -29.831422648999901 ], [ -52.927248120999899, -29.833271994 ], [ -52.93278348, -29.830688272 ], [ -52.937435173, -29.830526413 ], [ -52.948270396999895, -29.833017061 ], [ -52.964161277999906, -29.834069913999908 ], [ -52.972023094999891, -29.829030238 ], [ -52.969515047999899, -29.823984483999897 ], [ -52.970150997, -29.811705323000012 ] ] ] } }
]
}
