{
"type": "FeatureCollection",
"name": "bairros_presidente_lucena",
"crs": { "type": "name", "properties": { "name": "urn:ogc:def:crs:OGC:1.3:CRS84" } },
"features": [
{ "type": "Feature", "properties": { "code_muni": 4315149.0, "name_muni": "Presidente Lucena", "code_state": 43.0, "abbrev_state": "RS", "name_state": "Rio Grande do Sul", "code_region": 4.0, "name_region": "Sul", "year": 2022.0 }, "geometry": { "type": "Polygon", "coordinates": [ [ [ -51.146433224, -29.505839036999895 ], [ -51.112468989, -29.510743127999898 ], [ -51.116373519, -29.54405975299991 ], [ -51.14085879999989, -29.540396977999901 ], [ -51.140339414, -29.534250551 ], [ -51.150959042999894, -29.532120791999894 ], [ -51.15807195, -29.540053658 ], [ -51.163825706999901, -29.53930194 ], [ -51.165760714, -29.542887344999905 ], [ -51.170746283, -29.541263347 ], [ -51.177622025999895, -29.542247927999899 ], [ -51.184467981999902, -29.547957706 ], [ -51.186665507, -29.547465062 ], [ -51.187755163, -29.548664698 ], [ -51.191536712999891, -29.547247062999904 ], [ -51.193438795, -29.549002067999901 ], [ -51.196243537, -29.547337373999898 ], [ -51.202507942, -29.551614892 ], [ -51.201079857, -29.555868357999891 ], [ -51.204322913999903, -29.555305529 ], [ -51.205298926999895, -29.557228155 ], [ -51.207547975, -29.55666243799989 ], [ -51.21192805, -29.558321626999888 ], [ -51.218310460999902, -29.556696723999906 ], [ -51.224136845, -29.547117853 ], [ -51.222805300999902, -29.5442959649999 ], [ -51.220159462, -29.543339182 ], [ -51.222021877, -29.5391559299999 ], [ -51.227239348, -29.538015818 ], [ -51.232014807, -29.540421985 ], [ -51.231663587, -29.530025394999893 ], [ -51.23314636, -29.528020854 ], [ -51.236829029, -29.526961574 ], [ -51.234654441, -29.525112556999897 ], [ -51.233364289, -29.520824505999894 ], [ -51.227938944, -29.518300754999903 ], [ -51.227338593, -29.51669636 ], [ -51.225499769999892, -29.516880982999989 ], [ -51.22610766199989, -29.520721169 ], [ -51.224648596999899, -29.521920662999896 ], [ -51.221273833999902, -29.518935152 ], [ -51.21965159, -29.52070915 ], [ -51.215334694, -29.513723915 ], [ -51.210206545999895, -29.514137294 ], [ -51.208223814999897, -29.509247344999888 ], [ -51.205746244, -29.509219408 ], [ -51.203304774999893, -29.5111388629999 ], [ -51.199956696999898, -29.510915429 ], [ -51.199175098, -29.508842743999896 ], [ -51.201055168, -29.504598499999897 ], [ -51.196800212, -29.499193401999896 ], [ -51.194149495, -29.498612632999908 ], [ -51.18982979, -29.500437704 ], [ -51.186621586999898, -29.499173158 ], [ -51.18701655, -29.497869183 ], [ -51.185523465, -29.496750480999903 ], [ -51.17798648, -29.494722184 ], [ -51.176543801, -29.492286430999989 ], [ -51.174664779, -29.492160914 ], [ -51.164214586999897, -29.498930596 ], [ -51.151355627, -29.497098982 ], [ -51.144379369, -29.497531935 ], [ -51.146433224, -29.505839036999895 ] ] ] } }
]
}
