{
"type": "FeatureCollection",
"name": "bairros_pinto_bandeira",
"crs": { "type": "name", "properties": { "name": "urn:ogc:def:crs:OGC:1.3:CRS84" } },
"features": [
{ "type": "Feature", "properties": { "code_muni": 4314548.0, "name_muni": "Pinto Bandeira", "code_state": 43.0, "abbrev_state": "RS", "name_state": "Rio Grande do Sul", "code_region": 4.0, "name_region": "Sul", "year": 2022.0 }, "geometry": { "type": "Polygon", "coordinates": [ [ [ -51.462567978, -29.162906742 ], [ -51.465778648, -29.166115068 ], [ -51.468137731, -29.1639043509999 ], [ -51.467085918, -29.161926440999899 ], [ -51.468607603999899, -29.156606484 ], [ -51.467252037, -29.154724458 ], [ -51.47390139, -29.149393785 ], [ -51.474081148, -29.145331299 ], [ -51.478221948999902, -29.146766231 ], [ -51.480538840999891, -29.145353498 ], [ -51.478732685, -29.141441753 ], [ -51.4751439, -29.139378876 ], [ -51.47683979, -29.135209086 ], [ -51.473807442999899, -29.133788888 ], [ -51.473554855, -29.132276861 ], [ -51.476517972000011, -29.131461346 ], [ -51.479420564, -29.127532295 ], [ -51.486602262, -29.122201638 ], [ -51.511358889, -29.122073117999907 ], [ -51.51138545, -29.1139297409999 ], [ -51.502106227999903, -29.1142773199999 ], [ -51.503009022, -29.1130377379999 ], [ -51.498518234, -29.111026185999908 ], [ -51.497459493999891, -29.106461203 ], [ -51.501439359, -29.102824949 ], [ -51.500916141999895, -29.097141511 ], [ -51.497897194, -29.09582283799989 ], [ -51.498540474, -29.093239837999889 ], [ -51.496919867, -29.086766177 ], [ -51.493823471, -29.088090867999895 ], [ -51.492862937, -29.08679638 ], [ -51.494614343, -29.084375663999896 ], [ -51.500613207, -29.084987681 ], [ -51.503977851999899, -29.081786993 ], [ -51.501574220999899, -29.078158841999905 ], [ -51.499093682, -29.066277768 ], [ -51.497815070999891, -29.058469149999986 ], [ -51.498493016999895, -29.0539036979999 ], [ -51.517945953, -29.046064787 ], [ -51.520807592, -29.043346168 ], [ -51.522247279999895, -29.039105891 ], [ -51.521184991, -29.030835542 ], [ -51.514969064, -29.025458292999904 ], [ -51.509568944, -29.025113081 ], [ -51.491704496, -29.032511644 ], [ -51.486680941, -29.033073392999899 ], [ -51.483702706, -29.031649968999897 ], [ -51.480199849, -29.027328270999906 ], [ -51.476716049408893, -29.018274117483401 ], [ -51.469669285135595, -29.016137855611799 ], [ -51.465770388999893, -29.0164743039999 ], [ -51.4606534179999, -29.019415768999984 ], [ -51.458147003909509, -29.027640804151186 ], [ -51.450152100648992, -29.038220811860008 ], [ -51.441938588, -29.057400107 ], [ -51.438878208999895, -29.061593851999895 ], [ -51.434232470559401, -29.06351260417631 ], [ -51.422091077999902, -29.059835259 ], [ -51.422333201944191, -29.069138415982998 ], [ -51.426803262, -29.0700454989999 ], [ -51.42603503, -29.073654207999898 ], [ -51.427257831, -29.077876819 ], [ -51.425914077999892, -29.078002560999902 ], [ -51.425669624, -29.087663631999892 ], [ -51.412883538, -29.087462948999903 ], [ -51.411591299, -29.127260357999901 ], [ -51.423207757999897, -29.127163883 ], [ -51.423284673, -29.165037970999897 ], [ -51.45815178, -29.168717893999904 ], [ -51.460728903, -29.163115585 ], [ -51.462567978, -29.162906742 ] ] ] } }
]
}
