{
"type": "FeatureCollection",
"name": "bairros_imigrante",
"crs": { "type": "name", "properties": { "name": "urn:ogc:def:crs:OGC:1.3:CRS84" } },
"features": [
{ "type": "Feature", "properties": { "name": "Esperança", "code_muni": 4310363.0, "name_muni": "Imigrante" }, "geometry": { "type": "Polygon", "coordinates": [ [ [ -51.7793564, -29.350755399999986 ], [ -51.7791871, -29.3509509 ], [ -51.7788805, -29.3511504 ], [ -51.7785739, -29.3513857 ], [ -51.7784733, -29.3515613 ], [ -51.7784184, -29.351828499999989 ], [ -51.7783889, -29.3521434 ], [ -51.7784072, -29.3525423 ], [ -51.7786049, -29.3528918 ], [ -51.7790442, -29.3531032 ], [ -51.7794901, -29.3533374 ], [ -51.7799359, -29.353457400000011 ], [ -51.7803581, -29.3535774 ], [ -51.7804958, -29.353588800000011 ], [ -51.780581, -29.3535316 ], [ -51.7806072, -29.3534116 ], [ -51.780817, -29.3532059 ], [ -51.780994, -29.3530573 ], [ -51.7811448, -29.3529087 ], [ -51.7813087, -29.3528229 ], [ -51.7814595, -29.352840099999987 ], [ -51.7815906, -29.3530172 ], [ -51.7817021, -29.3533258 ], [ -51.781912, -29.3535258 ], [ -51.7820694, -29.3537886 ], [ -51.7823599, -29.3540515 ], [ -51.7830746, -29.3542228 ], [ -51.7836253, -29.3542799 ], [ -51.7837974, -29.3542861 ], [ -51.7838419, -29.3515331 ], [ -51.783844, -29.3514954 ], [ -51.7838437, -29.3514253 ], [ -51.7838571, -29.3505979 ], [ -51.7827681, -29.3505932 ], [ -51.7827241, -29.350592 ], [ -51.782642, -29.3505956 ], [ -51.7804937, -29.3505771 ], [ -51.7804661, -29.3505784 ], [ -51.7803569, -29.3505759 ], [ -51.779425, -29.3505679 ], [ -51.7793564, -29.350755399999986 ] ] ] } }
]
}
