{
"type": "FeatureCollection",
"name": "bairros_estrela",
"crs": { "type": "name", "properties": { "name": "urn:ogc:def:crs:OGC:1.3:CRS84" } },
"features": [
{ "type": "Feature", "properties": { "name": "Barra do Forqueta", "code_muni": 4307807.0, "name_muni": "Estrela" }, "geometry": { "type": "Polygon", "coordinates": [ [ [ -51.9552138, -29.4205872 ], [ -51.955258834447761, -29.420644391809404 ], [ -51.95527084, -29.420340514 ], [ -51.954551732372721, -29.419746948606779 ], [ -51.9552138, -29.4205872 ] ] ] } },
{ "type": "Feature", "properties": { "name": "São José", "code_muni": 4307807.0, "name_muni": "Estrela" }, "geometry": { "type": "Polygon", "coordinates": [ [ [ -51.950882476700322, -29.416718102267474 ], [ -51.949637798, -29.415690597 ], [ -51.949607112660416, -29.415701045000677 ], [ -51.950882476700322, -29.416718102267474 ] ] ] } },
{ "type": "Feature", "properties": { "name": "Hidráulica", "code_muni": 4307807.0, "name_muni": "Estrela" }, "geometry": { "type": "MultiPolygon", "coordinates": [ [ [ [ -51.9434966, -29.4596763 ], [ -51.9448967, -29.461573099999988 ], [ -51.9488395, -29.4670792 ], [ -51.949382402731132, -29.467519508961765 ], [ -51.943704833431433, -29.459587819998397 ], [ -51.9434966, -29.4596763 ] ] ], [ [ [ -51.9507354, -29.4686168 ], [ -51.9537287, -29.4695373 ], [ -51.9557995, -29.4701741 ], [ -51.956090098087238, -29.469813812427684 ], [ -51.949849094291778, -29.467898003667138 ], [ -51.9507354, -29.4686168 ] ] ] ] } },
{ "type": "Feature", "properties": { "name": "Carneiros", "code_muni": 4307807.0, "name_muni": "Estrela" }, "geometry": { "type": "MultiPolygon", "coordinates": [ [ [ [ -51.9190766, -29.4524907 ], [ -51.9202519, -29.453658 ], [ -51.9226576, -29.4540418 ], [ -51.9242002, -29.4539938 ], [ -51.925853, -29.4531463 ], [ -51.926869562845845, -29.452047915688304 ], [ -51.92376383, -29.453966684999987 ], [ -51.919942248, -29.453212917 ], [ -51.919044373090273, -29.451683282167107 ], [ -51.9190766, -29.4524907 ] ] ], [ [ [ -51.936508130639488, -29.449531682109516 ], [ -51.936430539, -29.449423248 ], [ -51.936352571787886, -29.449419785095738 ], [ -51.936508130639488, -29.449531682109516 ] ] ], [ [ [ -51.939314, -29.4540098 ], [ -51.9434966, -29.4596763 ], [ -51.943704833431433, -29.459587819998397 ], [ -51.938192737641543, -29.451885845873139 ], [ -51.939314, -29.4540098 ] ] ], [ [ [ -51.9469225, -29.4271598 ], [ -51.9465184, -29.4272365 ], [ -51.9448968, -29.4275444 ], [ -51.9415984, -29.4285849 ], [ -51.9389511, -29.4298175 ], [ -51.937873274441593, -29.430319370244639 ], [ -51.949748824, -29.427170595999893 ], [ -51.950517789386311, -29.426634557147153 ], [ -51.9469225, -29.4271598 ] ] ], [ [ [ -51.9333397, -29.4324302 ], [ -51.9276261, -29.4353254 ], [ -51.926358218549602, -29.436268008381095 ], [ -51.937611465639634, -29.43044127479833 ], [ -51.9333397, -29.4324302 ] ] ], [ [ [ -51.9244316, -29.437700300000017 ], [ -51.9226916, -29.4400073 ], [ -51.9215229, -29.442472599999984 ], [ -51.920818336963649, -29.445212916557033 ], [ -51.922252852, -29.440932956 ], [ -51.925654810253768, -29.436790945758169 ], [ -51.9244316, -29.437700300000017 ] ] ] ] } },
{ "type": "Feature", "properties": { "name": "Morro Vinte e Cinco", "code_muni": 4307807.0, "name_muni": "Estrela" }, "geometry": { "type": "MultiPolygon", "coordinates": [ [ [ [ -51.9780276, -29.4879668 ], [ -51.977979194440458, -29.488376507111063 ], [ -51.978137402999891, -29.48821916 ], [ -51.978042488242224, -29.487967687031755 ], [ -51.9780276, -29.4879668 ] ] ], [ [ [ -51.9712474, -29.4947833 ], [ -51.970393237659259, -29.49592037749921 ], [ -51.972399960322484, -29.493924936797839 ], [ -51.9712474, -29.4947833 ] ] ] ] } },
{ "type": "Feature", "properties": { "name": "Santo Antônio", "code_muni": 4307807.0, "name_muni": "Estrela" }, "geometry": { "type": "Polygon", "coordinates": [ [ [ -51.9780276, -29.4879668 ], [ -51.978042488242224, -29.487967687031755 ], [ -51.978031067973696, -29.487937429380704 ], [ -51.9780276, -29.4879668 ] ] ] } },
{ "type": "Feature", "properties": { "name": "Conservas", "code_muni": 4307807.0, "name_muni": "Estrela" }, "geometry": { "type": "MultiPolygon", "coordinates": [ [ [ [ -51.9696474, -29.4744815 ], [ -51.969821867006708, -29.474584942185643 ], [ -51.969670393731036, -29.474453170514369 ], [ -51.9696474, -29.4744815 ] ] ], [ [ [ -51.974736538126287, -29.47920784283064 ], [ -51.97454119199989, -29.478690178 ], [ -51.9741141601367, -29.478318733448265 ], [ -51.974736538126287, -29.47920784283064 ] ] ] ] } },
{ "type": "Feature", "properties": { "name": "Centro", "code_muni": 4307807.0, "name_muni": "Estrela" }, "geometry": { "type": "MultiPolygon", "coordinates": [ [ [ [ -51.9557995, -29.4701741 ], [ -51.9569735, -29.4705461 ], [ -51.9587345, -29.471104 ], [ -51.967078497896935, -29.473186040261805 ], [ -51.956090098087238, -29.469813812427684 ], [ -51.9557995, -29.4701741 ] ] ], [ [ [ -51.9696474, -29.4744815 ], [ -51.969670393731036, -29.474453170514369 ], [ -51.968832447999894, -29.473724204 ], [ -51.967874173837778, -29.473430180765337 ], [ -51.9696474, -29.4744815 ] ] ] ] } },
{ "type": "Feature", "properties": { "name": "São Francisco", "code_muni": 4307807.0, "name_muni": "Estrela" }, "geometry": { "type": "Polygon", "coordinates": [ [ [ -51.9453355, -29.5978149 ], [ -51.94428171753129, -29.59702976185384 ], [ -51.944307881, -29.597095506 ], [ -51.945721592554548, -29.598114409109559 ], [ -51.9457291, -29.5981069 ], [ -51.9453355, -29.5978149 ] ] ] } },
{ "type": "Feature", "properties": { "name": "Imigrante", "code_muni": 4307807.0, "name_muni": "Estrela" }, "geometry": { "type": "Polygon", "coordinates": [ [ [ -51.9471574, -29.5991144 ], [ -51.9457291, -29.5981069 ], [ -51.945721592554548, -29.598114409109559 ], [ -51.947181045122193, -29.599166241094633 ], [ -51.9471574, -29.5991144 ] ] ] } },
{ "type": "Feature", "properties": { "name": "Brasília", "code_muni": 4307807.0, "name_muni": "Estrela" }, "geometry": { "type": "Polygon", "coordinates": [ [ [ -51.9516479, -29.6089588 ], [ -51.950413084298631, -29.606251897530484 ], [ -51.951637933272309, -29.608960125053379 ], [ -51.9516479, -29.6089588 ] ] ] } },
{ "type": "Feature", "properties": { "name": "Laranjeiras", "code_muni": 4307807.0, "name_muni": "Estrela" }, "geometry": { "type": "Polygon", "coordinates": [ [ [ -51.9352591, -29.5815538 ], [ -51.934058, -29.581723 ], [ -51.9335259, -29.5818095 ], [ -51.9322976, -29.5820092 ], [ -51.9316189, -29.5821087 ], [ -51.9312566, -29.5821771 ], [ -51.9303721, -29.5823442 ], [ -51.9293473, -29.5825256 ], [ -51.92960554067934, -29.582967931463312 ], [ -51.935253871, -29.581569531 ], [ -51.935510536569105, -29.581935577304705 ], [ -51.9352591, -29.5815538 ] ] ] } },
{ "type": "Feature", "properties": { "name": "São João", "code_muni": 4307807.0, "name_muni": "Estrela" }, "geometry": { "type": "Polygon", "coordinates": [ [ [ -51.9293473, -29.5825256 ], [ -51.9289014, -29.5825908 ], [ -51.9281888, -29.5827682 ], [ -51.9281408, -29.5827789 ], [ -51.9271759, -29.583133 ], [ -51.9263736, -29.5834665 ], [ -51.926037, -29.5835989 ], [ -51.9255964, -29.5837997 ], [ -51.9251807, -29.5840414 ], [ -51.925116810521274, -29.584079043045158 ], [ -51.92960554067934, -29.582967931463312 ], [ -51.9293473, -29.5825256 ] ] ] } },
{ "type": "Feature", "properties": { "name": "São José", "code_muni": 4307807.0, "name_muni": "Estrela" }, "geometry": { "type": "Polygon", "coordinates": [ [ [ -51.9472929, -29.4700128 ], [ -51.9473425, -29.4704695 ], [ -51.9473465, -29.4706236 ], [ -51.9473336, -29.4707212 ], [ -51.9473108, -29.4709178 ], [ -51.9473446, -29.4711916 ], [ -51.9474978, -29.4716118 ], [ -51.9475067, -29.4717778 ], [ -51.9478008, -29.4716779 ], [ -51.948466, -29.471537800000011 ], [ -51.9489059, -29.4716031 ], [ -51.949732, -29.4719114 ], [ -51.9504938, -29.4721542 ], [ -51.9508264, -29.4722663 ], [ -51.9510517, -29.4724718 ], [ -51.9513306, -29.4727894 ], [ -51.9517383, -29.4730509 ], [ -51.9519958, -29.4733405 ], [ -51.9520924, -29.4736861 ], [ -51.9521567, -29.4741531 ], [ -51.9521567, -29.4746294 ], [ -51.9521123, -29.4749438 ], [ -51.9521342, -29.4752381 ], [ -51.952228, -29.4753772 ], [ -51.95239, -29.4754831 ], [ -51.9525959, -29.4755217 ], [ -51.9527531, -29.4754927 ], [ -51.9530905, -29.4753606 ], [ -51.9534549, -29.4752179 ], [ -51.9537267, -29.474977200000012 ], [ -51.9539011, -29.4746948 ], [ -51.9540486, -29.4742373 ], [ -51.9544533, -29.4735836 ], [ -51.9550643, -29.4728267 ], [ -51.9557021, -29.472065 ], [ -51.9561328, -29.4715172 ], [ -51.9569735, -29.4705461 ], [ -51.9557995, -29.4701741 ], [ -51.9537287, -29.4695373 ], [ -51.9507354, -29.4686168 ], [ -51.949849094291778, -29.467898003667138 ], [ -51.949598223999899, -29.4678209859999 ], [ -51.949382402731132, -29.467519508961765 ], [ -51.9488395, -29.4670792 ], [ -51.9472929, -29.4700128 ] ] ] } },
{ "type": "Feature", "properties": { "name": "Boa União", "code_muni": 4307807.0, "name_muni": "Estrela" }, "geometry": { "type": "Polygon", "coordinates": [ [ [ -51.9326151, -29.4922694 ], [ -51.9334116, -29.4920507 ], [ -51.9340871, -29.4918653 ], [ -51.93488, -29.4916631 ], [ -51.93547, -29.4915068 ], [ -51.9366495, -29.4911758 ], [ -51.9367659, -29.4911439 ], [ -51.9380835, -29.4907671 ], [ -51.9385468, -29.4906561 ], [ -51.9408115, -29.4900534 ], [ -51.9415948, -29.489845399999986 ], [ -51.9418024, -29.4897928 ], [ -51.941924, -29.4897587 ], [ -51.9420293, -29.4897292 ], [ -51.9424931, -29.489605 ], [ -51.9434949, -29.4893367 ], [ -51.9435745, -29.4893117 ], [ -51.9436197, -29.4892988 ], [ -51.9441002, -29.48917 ], [ -51.9449042, -29.4889588 ], [ -51.9451404, -29.4888899 ], [ -51.9454381, -29.488803499999985 ], [ -51.9468064, -29.4884224 ], [ -51.9471883, -29.4883236 ], [ -51.9475917, -29.4882256 ], [ -51.948761, -29.4879756 ], [ -51.9494999, -29.487810700000011 ], [ -51.9498356, -29.4877564 ], [ -51.9502197, -29.4876608 ], [ -51.9504649, -29.4876169 ], [ -51.950545, -29.4875993 ], [ -51.9507797, -29.4875477 ], [ -51.9510164, -29.4874956 ], [ -51.9511586, -29.4874686 ], [ -51.9512594, -29.487549 ], [ -51.951663, -29.4879523 ], [ -51.9521873, -29.4884753 ], [ -51.9526144, -29.4888938 ], [ -51.9526237, -29.4889354 ], [ -51.9526973, -29.4890536 ], [ -51.9527659, -29.4891993 ], [ -51.9534552, -29.4881836 ], [ -51.9542599, -29.4869556 ], [ -51.9545737, -29.4862201 ], [ -51.9547212, -29.4857905 ], [ -51.9547574, -29.4854905 ], [ -51.9548097, -29.4850212 ], [ -51.9547775, -29.4840977 ], [ -51.9545066, -29.482949 ], [ -51.9540963, -29.4813356 ], [ -51.9535545, -29.4787905 ], [ -51.9531119, -29.4758694 ], [ -51.9530905, -29.4753606 ], [ -51.9527531, -29.4754927 ], [ -51.9525959, -29.4755217 ], [ -51.95239, -29.4754831 ], [ -51.952228, -29.4753772 ], [ -51.9521342, -29.4752381 ], [ -51.9521123, -29.4749438 ], [ -51.9521567, -29.4746294 ], [ -51.9521567, -29.4741531 ], [ -51.9520924, -29.4736861 ], [ -51.9519958, -29.4733405 ], [ -51.9517383, -29.4730509 ], [ -51.9513306, -29.4727894 ], [ -51.9510517, -29.4724718 ], [ -51.9508264, -29.4722663 ], [ -51.9504938, -29.4721542 ], [ -51.949732, -29.4719114 ], [ -51.9489059, -29.4716031 ], [ -51.948466, -29.471537800000011 ], [ -51.9478008, -29.4716779 ], [ -51.9475067, -29.4717778 ], [ -51.947361, -29.4718273 ], [ -51.9466421, -29.4721729 ], [ -51.9457945, -29.4726493 ], [ -51.9452152, -29.4731443 ], [ -51.9448737, -29.4736826 ], [ -51.9448182, -29.473770099999985 ], [ -51.9444642, -29.4745827 ], [ -51.9440672, -29.4752272 ], [ -51.9435415, -29.4756942 ], [ -51.9430909, -29.4760211 ], [ -51.9424793, -29.4764694 ], [ -51.9419751, -29.4769831 ], [ -51.941149, -29.4777584 ], [ -51.9406983, -29.4779825 ], [ -51.9397867, -29.4791408 ], [ -51.9385207, -29.481737200000012 ], [ -51.9392288, -29.4838199 ], [ -51.9390786, -29.4848752 ], [ -51.9391215, -29.485501 ], [ -51.9332528, -29.487069900000012 ], [ -51.9306779, -29.487779699999987 ], [ -51.9322739, -29.4923624 ], [ -51.9326151, -29.4922694 ] ] ] } },
{ "type": "Feature", "properties": { "name": "Estados", "code_muni": 4307807.0, "name_muni": "Estrela" }, "geometry": { "type": "Polygon", "coordinates": [ [ [ -51.9604138, -29.4929356 ], [ -51.9608785, -29.4927925 ], [ -51.9609278, -29.4927795 ], [ -51.960606, -29.4923044 ], [ -51.960441, -29.491904 ], [ -51.9600709, -29.49105530000001 ], [ -51.9599716, -29.4906654 ], [ -51.9594325, -29.4886646 ], [ -51.9593319, -29.4884732 ], [ -51.9592233, -29.4882922 ], [ -51.959053, -29.4880938 ], [ -51.9587606, -29.4878474 ], [ -51.9577105, -29.4870361 ], [ -51.9574276, -29.4868365 ], [ -51.9569354, -29.4864267 ], [ -51.9566323, -29.4861921 ], [ -51.9565164, -29.4860781 ], [ -51.9556539, -29.4853841 ], [ -51.9552811, -29.485114 ], [ -51.9548097, -29.4850212 ], [ -51.9547574, -29.4854905 ], [ -51.9547212, -29.4857905 ], [ -51.9545737, -29.4862201 ], [ -51.9542599, -29.4869556 ], [ -51.9534552, -29.4881836 ], [ -51.9527659, -29.4891993 ], [ -51.95301, -29.4893521 ], [ -51.9530776, -29.4894937 ], [ -51.9532438, -29.4899368 ], [ -51.9534917, -29.490697800000014 ], [ -51.9535366, -29.490823 ], [ -51.9536239, -29.4910967 ], [ -51.953738, -29.4914007 ], [ -51.9539596, -29.4918354 ], [ -51.9541999, -29.4922187 ], [ -51.9546322, -29.4928422 ], [ -51.9550365, -29.4933779 ], [ -51.9551009, -29.4934688 ], [ -51.9557003, -29.4942591 ], [ -51.956471, -29.4940427 ], [ -51.9572545, -29.4938308 ], [ -51.9575994, -29.4937186 ], [ -51.9582422, -29.4935454 ], [ -51.9584842, -29.4934775 ], [ -51.9589244, -29.4933539 ], [ -51.9599595, -29.49309 ], [ -51.9604138, -29.4929356 ] ] ] } },
{ "type": "Feature", "properties": { "name": "Indústrias", "code_muni": 4307807.0, "name_muni": "Estrela" }, "geometry": { "type": "Polygon", "coordinates": [ [ [ -51.9566323, -29.4861921 ], [ -51.9569354, -29.4864267 ], [ -51.9574276, -29.4868365 ], [ -51.9574209, -29.4865902 ], [ -51.9573652, -29.4864618 ], [ -51.9571225, -29.4862224 ], [ -51.9576491, -29.4860759 ], [ -51.9594021, -29.485588399999987 ], [ -51.9605089, -29.4852742 ], [ -51.9615898, -29.4849712 ], [ -51.9629073, -29.4846135 ], [ -51.9630947, -29.4845511 ], [ -51.9646454, -29.4840814 ], [ -51.9680089, -29.4831078 ], [ -51.9676387, -29.4826717 ], [ -51.9672131, -29.4821837 ], [ -51.9667691, -29.4817021 ], [ -51.966926, -29.4816588 ], [ -51.9730083, -29.4799294 ], [ -51.973307, -29.4798473 ], [ -51.9734135, -29.4798344 ], [ -51.974808791715773, -29.479399312478716 ], [ -51.974736538126287, -29.47920784283064 ], [ -51.9741141601367, -29.478318733448265 ], [ -51.969821867006708, -29.474584942185643 ], [ -51.9696474, -29.4744815 ], [ -51.967874173837778, -29.473430180765337 ], [ -51.967078497896935, -29.473186040261805 ], [ -51.9587345, -29.471104 ], [ -51.9569735, -29.4705461 ], [ -51.9561328, -29.4715172 ], [ -51.9557021, -29.472065 ], [ -51.9550643, -29.4728267 ], [ -51.9544533, -29.4735836 ], [ -51.9540486, -29.4742373 ], [ -51.9539011, -29.4746948 ], [ -51.9537267, -29.474977200000012 ], [ -51.9534549, -29.4752179 ], [ -51.9530905, -29.4753606 ], [ -51.9531119, -29.4758694 ], [ -51.9535545, -29.4787905 ], [ -51.9540963, -29.4813356 ], [ -51.9545066, -29.482949 ], [ -51.9547775, -29.4840977 ], [ -51.9548097, -29.4850212 ], [ -51.9552811, -29.485114 ], [ -51.9556539, -29.4853841 ], [ -51.9565164, -29.4860781 ], [ -51.9566323, -29.4861921 ] ] ] } },
{ "type": "Feature", "properties": { "name": "Moinhos", "code_muni": 4307807.0, "name_muni": "Estrela" }, "geometry": { "type": "Polygon", "coordinates": [ [ [ -51.973307, -29.4798473 ], [ -51.9730083, -29.4799294 ], [ -51.966926, -29.4816588 ], [ -51.9667691, -29.4817021 ], [ -51.9672131, -29.4821837 ], [ -51.9676387, -29.4826717 ], [ -51.9680089, -29.4831078 ], [ -51.9646454, -29.4840814 ], [ -51.9657827, -29.4868552 ], [ -51.9658318, -29.4869233 ], [ -51.9666302, -29.4880319 ], [ -51.9669606, -29.4895357 ], [ -51.9671881, -29.4904787 ], [ -51.9665873, -29.4918328 ], [ -51.9666195, -29.4932149 ], [ -51.9666731, -29.4944476 ], [ -51.9664586, -29.4951013 ], [ -51.9664908, -29.4954561 ], [ -51.9669736, -29.4960818 ], [ -51.9671788, -29.4962156 ], [ -51.969351277027911, -29.49763416171999 ], [ -51.969135063, -29.497171423999891 ], [ -51.970393237659259, -29.49592037749921 ], [ -51.9712474, -29.4947833 ], [ -51.972399960322484, -29.493924936797839 ], [ -51.977979194440458, -29.488376507111063 ], [ -51.9780276, -29.4879668 ], [ -51.978031067973696, -29.487937429380704 ], [ -51.974808791715773, -29.479399312478716 ], [ -51.9734135, -29.4798344 ], [ -51.973307, -29.4798473 ] ] ] } },
{ "type": "Feature", "properties": { "name": "Oriental", "code_muni": 4307807.0, "name_muni": "Estrela" }, "geometry": { "type": "Polygon", "coordinates": [ [ [ -51.9558302, -29.4945037 ], [ -51.9559051, -29.494734900000015 ], [ -51.9560786, -29.4957048 ], [ -51.9561537, -29.4960019 ], [ -51.9561755, -29.4960634 ], [ -51.9562482, -29.4961957 ], [ -51.9564566, -29.4964874 ], [ -51.9568004, -29.4968617 ], [ -51.9579656, -29.4980631 ], [ -51.9581302, -29.4982327 ], [ -51.9582395, -29.4984044 ], [ -51.9582428, -29.4985815 ], [ -51.9581766, -29.4988245 ], [ -51.9581831, -29.4989823 ], [ -51.9582062, -29.499157699999987 ], [ -51.9584015, -29.4990699 ], [ -51.9587889, -29.4989727 ], [ -51.9593468, -29.498589899999988 ], [ -51.9599905, -29.4979736 ], [ -51.960558, -29.4972863 ], [ -51.9610942, -29.4966308 ], [ -51.9613995, -29.4962575 ], [ -51.9614593, -29.4961844 ], [ -51.9618991, -29.4958949 ], [ -51.9621996, -29.4957455 ], [ -51.9624892, -29.4956988 ], [ -51.9627467, -29.4957548 ], [ -51.9629409, -29.4958538 ], [ -51.9636372, -29.4964178 ], [ -51.9637148, -29.4965056 ], [ -51.9639591, -29.496782 ], [ -51.9646672, -29.4972676 ], [ -51.9654407, -29.497684100000011 ], [ -51.9662121, -29.498024 ], [ -51.9671359, -29.4980856 ], [ -51.969430670440907, -29.4978040770098 ], [ -51.969351277027911, -29.49763416171999 ], [ -51.9671788, -29.4962156 ], [ -51.9669736, -29.4960818 ], [ -51.9664908, -29.4954561 ], [ -51.9664586, -29.4951013 ], [ -51.9666731, -29.4944476 ], [ -51.9666195, -29.4932149 ], [ -51.9665873, -29.4918328 ], [ -51.9671881, -29.4904787 ], [ -51.9669606, -29.4895357 ], [ -51.9666302, -29.4880319 ], [ -51.9658318, -29.4869233 ], [ -51.9657827, -29.4868552 ], [ -51.9646454, -29.4840814 ], [ -51.9630947, -29.4845511 ], [ -51.9629073, -29.4846135 ], [ -51.9615898, -29.4849712 ], [ -51.9605089, -29.4852742 ], [ -51.9594021, -29.485588399999987 ], [ -51.9576491, -29.4860759 ], [ -51.9571225, -29.4862224 ], [ -51.9573652, -29.4864618 ], [ -51.9574209, -29.4865902 ], [ -51.9574276, -29.4868365 ], [ -51.9577105, -29.4870361 ], [ -51.9587606, -29.4878474 ], [ -51.959053, -29.4880938 ], [ -51.9592233, -29.4882922 ], [ -51.9593319, -29.4884732 ], [ -51.9594325, -29.4886646 ], [ -51.9599716, -29.4906654 ], [ -51.9600709, -29.49105530000001 ], [ -51.960441, -29.491904 ], [ -51.960606, -29.4923044 ], [ -51.9609278, -29.4927795 ], [ -51.9608785, -29.4927925 ], [ -51.9604138, -29.4929356 ], [ -51.9599595, -29.49309 ], [ -51.9589244, -29.4933539 ], [ -51.9584842, -29.4934775 ], [ -51.9582422, -29.4935454 ], [ -51.9575994, -29.4937186 ], [ -51.9572545, -29.4938308 ], [ -51.956471, -29.4940427 ], [ -51.9557003, -29.4942591 ], [ -51.9558302, -29.4945037 ] ] ] } },
{ "type": "Feature", "properties": { "name": "Centro", "code_muni": 4307807.0, "name_muni": "Estrela" }, "geometry": { "type": "Polygon", "coordinates": [ [ [ -51.9671359, -29.4980856 ], [ -51.9662121, -29.498024 ], [ -51.9654407, -29.497684100000011 ], [ -51.9646672, -29.4972676 ], [ -51.9639591, -29.496782 ], [ -51.9637148, -29.4965056 ], [ -51.9636372, -29.4964178 ], [ -51.9629409, -29.4958538 ], [ -51.9627467, -29.4957548 ], [ -51.9624892, -29.4956988 ], [ -51.9621996, -29.4957455 ], [ -51.9618991, -29.4958949 ], [ -51.9614593, -29.4961844 ], [ -51.9613995, -29.4962575 ], [ -51.9610942, -29.4966308 ], [ -51.960558, -29.4972863 ], [ -51.9599905, -29.4979736 ], [ -51.9593468, -29.498589899999988 ], [ -51.9587889, -29.4989727 ], [ -51.9584015, -29.4990699 ], [ -51.9582062, -29.499157699999987 ], [ -51.9577578, -29.499359299999988 ], [ -51.9575014, -29.499542399999985 ], [ -51.9574038, -29.4998076 ], [ -51.9574571, -29.499957 ], [ -51.9575805, -29.5000924 ], [ -51.9578434, -29.5002511 ], [ -51.9581062, -29.5003632 ], [ -51.9582779, -29.5004939 ], [ -51.9586695, -29.5006433 ], [ -51.9589216, -29.5006246 ], [ -51.9592596, -29.5005639 ], [ -51.9594742, -29.5005079 ], [ -51.959678, -29.5004892 ], [ -51.9598068, -29.50052190000001 ], [ -51.9598604, -29.5005919 ], [ -51.9599784, -29.5007413 ], [ -51.9604505, -29.501353 ], [ -51.9606114, -29.5015164 ], [ -51.9607402, -29.5016004 ], [ -51.9609118, -29.5016238 ], [ -51.9611961, -29.5016191 ], [ -51.9617701, -29.501516400000011 ], [ -51.962092, -29.501395 ], [ -51.9622798, -29.501325 ], [ -51.9624139, -29.5013156 ], [ -51.9625533, -29.5013576 ], [ -51.9627304, -29.501507 ], [ -51.9629986, -29.5017872 ], [ -51.9632561, -29.5022027 ], [ -51.9634116, -29.5023521 ], [ -51.963514600000011, -29.5025133 ], [ -51.9635243, -29.5026369 ], [ -51.9634492, -29.5026976 ], [ -51.9632883, -29.502791 ], [ -51.9631005, -29.5028096 ], [ -51.9629503, -29.5028003 ], [ -51.9628752, -29.502819 ], [ -51.9627786, -29.5029077 ], [ -51.9627411, -29.503015099999988 ], [ -51.9627357, -29.503117799999988 ], [ -51.9627196, -29.5032345 ], [ -51.9626499, -29.5033326 ], [ -51.962489, -29.5033839 ], [ -51.9623294, -29.503380199999985 ], [ -51.96225960000001, -29.5033055 ], [ -51.9621631, -29.5031374 ], [ -51.9620451, -29.503044 ], [ -51.9619324, -29.5030207 ], [ -51.9617487, -29.5029917 ], [ -51.961632, -29.502974 ], [ -51.9615448, -29.5030244 ], [ -51.9615126, -29.5031225 ], [ -51.9614107, -29.5032345 ], [ -51.9628215, -29.5049527 ], [ -51.9631379, -29.504864 ], [ -51.9636912, -29.50459660000001 ], [ -51.9643604, -29.5042142 ], [ -51.964356, -29.504135800000014 ], [ -51.9643566, -29.5040653 ], [ -51.9643624, -29.5039979 ], [ -51.9643754, -29.503877 ], [ -51.9647303, -29.5039946 ], [ -51.9651099, -29.5040873 ], [ -51.96527170000001, -29.5041188 ], [ -51.9658831, -29.5042267 ], [ -51.9660426, -29.5042556 ], [ -51.9667191, -29.5043894 ], [ -51.9668818, -29.5044216 ], [ -51.96695, -29.5044358 ], [ -51.9673039, -29.5045107 ], [ -51.9676683, -29.5045813 ], [ -51.967746, -29.5045229 ], [ -51.9677979, -29.5045008 ], [ -51.9679212, -29.5044749 ], [ -51.967976, -29.504469 ], [ -51.9685828, -29.5044143 ], [ -51.9692611, -29.5043612 ], [ -51.9693698, -29.5043518 ], [ -51.971171, -29.504125 ], [ -51.9713293, -29.504131 ], [ -51.9714848, -29.5041683 ], [ -51.9716511, -29.5041964 ], [ -51.97176910000001, -29.5041964 ], [ -51.9718872, -29.5041777 ], [ -51.9719784, -29.504135699999988 ], [ -51.9720162, -29.5040619 ], [ -51.972985340146337, -29.503588428182191 ], [ -51.971354172, -29.50192049899989 ], [ -51.970792825960864, -29.500719219763845 ], [ -51.9706241, -29.5005249 ], [ -51.9696892, -29.4984679 ], [ -51.969663377101114, -29.498302104809468 ], [ -51.969430670440907, -29.4978040770098 ], [ -51.9671359, -29.4980856 ] ] ] } },
{ "type": "Feature", "properties": { "name": "Pinheiros", "code_muni": 4307807.0, "name_muni": "Estrela" }, "geometry": { "type": "Polygon", "coordinates": [ [ [ -51.9385468, -29.4906561 ], [ -51.9380835, -29.4907671 ], [ -51.9367659, -29.4911439 ], [ -51.9366495, -29.4911758 ], [ -51.93547, -29.4915068 ], [ -51.93488, -29.4916631 ], [ -51.9340871, -29.4918653 ], [ -51.9334116, -29.4920507 ], [ -51.9326151, -29.4922694 ], [ -51.9322739, -29.4923624 ], [ -51.9368887, -29.5055699 ], [ -51.93851, -29.5102096 ], [ -51.9379454, -29.5134387 ], [ -51.9382834, -29.5132543 ], [ -51.9384926, -29.5128365 ], [ -51.9386294, -29.5125774 ], [ -51.9387474, -29.5123627 ], [ -51.938903, -29.5122319 ], [ -51.9393884, -29.5116344 ], [ -51.9395065, -29.5115107 ], [ -51.9395708, -29.5113193 ], [ -51.9397023, -29.5113426 ], [ -51.93978, -29.5112679 ], [ -51.9399732, -29.5113846 ], [ -51.9400804, -29.5115644 ], [ -51.9403218, -29.5117278 ], [ -51.9405445, -29.5119658 ], [ -51.9406974, -29.5122133 ], [ -51.9407698, -29.5123043 ], [ -51.9409334, -29.5124327 ], [ -51.9412056, -29.5115028 ], [ -51.9414818, -29.5107138 ], [ -51.9419485, -29.5090028 ], [ -51.9424582, -29.507585899999988 ], [ -51.9433031, -29.5062833 ], [ -51.9446549, -29.5043528 ], [ -51.9453013, -29.5035801 ], [ -51.9457251, -29.5031599 ], [ -51.9462749, -29.5027374 ], [ -51.9470394, -29.5022682 ], [ -51.9479781, -29.5017546 ], [ -51.9487774, -29.5011243 ], [ -51.9491476, -29.5007321 ], [ -51.9495821, -29.5002279 ], [ -51.9499469, -29.4996606 ], [ -51.9502258, -29.499084 ], [ -51.9504538, -29.4983976 ], [ -51.9505638, -29.4975059 ], [ -51.9507381, -29.4960818 ], [ -51.9508991, -29.495211 ], [ -51.9512665, -29.4936655 ], [ -51.9521141, -29.4903689 ], [ -51.9523689, -29.4898226 ], [ -51.9527659, -29.4891993 ], [ -51.9526973, -29.4890536 ], [ -51.9526237, -29.4889354 ], [ -51.9526144, -29.4888938 ], [ -51.9521873, -29.4884753 ], [ -51.951663, -29.4879523 ], [ -51.9512594, -29.487549 ], [ -51.9511586, -29.4874686 ], [ -51.9510164, -29.4874956 ], [ -51.9507797, -29.4875477 ], [ -51.950545, -29.4875993 ], [ -51.9504649, -29.4876169 ], [ -51.9502197, -29.4876608 ], [ -51.9498356, -29.4877564 ], [ -51.9494999, -29.487810700000011 ], [ -51.948761, -29.4879756 ], [ -51.9475917, -29.4882256 ], [ -51.9471883, -29.4883236 ], [ -51.9468064, -29.4884224 ], [ -51.9454381, -29.488803499999985 ], [ -51.9451404, -29.4888899 ], [ -51.9449042, -29.4889588 ], [ -51.9441002, -29.48917 ], [ -51.9436197, -29.4892988 ], [ -51.9435745, -29.4893117 ], [ -51.9434949, -29.4893367 ], [ -51.9424931, -29.489605 ], [ -51.9420293, -29.4897292 ], [ -51.941924, -29.4897587 ], [ -51.9418024, -29.4897928 ], [ -51.9415948, -29.489845399999986 ], [ -51.9408115, -29.4900534 ], [ -51.9385468, -29.4906561 ] ] ] } },
{ "type": "Feature", "properties": { "name": "Imigrantes", "code_muni": 4307807.0, "name_muni": "Estrela" }, "geometry": { "type": "Polygon", "coordinates": [ [ [ -51.9410085, -29.5124373 ], [ -51.9411077, -29.5126311 ], [ -51.941207, -29.5128085 ], [ -51.9413223, -29.5128132 ], [ -51.9414671, -29.5128412 ], [ -51.9416308, -29.5128645 ], [ -51.9417971, -29.5128108 ], [ -51.9419955, -29.512794499999984 ], [ -51.9421028, -29.5127151 ], [ -51.9422772, -29.5127291 ], [ -51.9425132, -29.512519 ], [ -51.9426849, -29.5123206 ], [ -51.9428565, -29.5118095 ], [ -51.9430148, -29.5115574 ], [ -51.9433876, -29.5112656 ], [ -51.9437022, -29.5113984 ], [ -51.9437987, -29.5114731 ], [ -51.9440669, -29.5114754 ], [ -51.9445095, -29.5115501 ], [ -51.9446329, -29.5114007 ], [ -51.9448528, -29.51134 ], [ -51.9450272, -29.51142170000001 ], [ -51.9450728, -29.5111673 ], [ -51.945054, -29.5109059 ], [ -51.9451586, -29.5108428 ], [ -51.9453544, -29.5108242 ], [ -51.9458265, -29.5109572 ], [ -51.9460679, -29.511762499999985 ], [ -51.9463602, -29.5120776 ], [ -51.9465453, -29.5122947 ], [ -51.9467304, -29.5125328 ], [ -51.9468859, -29.5123928 ], [ -51.9470308, -29.5122364 ], [ -51.9471515, -29.5123041 ], [ -51.947181, -29.5126145 ], [ -51.9472212, -29.513009 ], [ -51.9472829, -29.5132074 ], [ -51.9472212, -29.5133568 ], [ -51.9473339, -29.5138259 ], [ -51.9475377, -29.5142111 ], [ -51.9480044, -29.5145285 ], [ -51.9484363, -29.5147223 ], [ -51.9486911, -29.514874 ], [ -51.9491229, -29.5148996 ], [ -51.9493214, -29.5153151 ], [ -51.9496325, -29.5157049 ], [ -51.949949, -29.5160644 ], [ -51.950177, -29.516314100000013 ], [ -51.9503996, -29.5164262 ], [ -51.9505418, -29.5165779 ], [ -51.9510487, -29.5173108 ], [ -51.9511507, -29.5174578 ], [ -51.951215, -29.5175022 ], [ -51.9510809, -29.5176119 ], [ -51.9509093, -29.517695899999989 ], [ -51.9508342, -29.5177332 ], [ -51.950692, -29.5177122 ], [ -51.9505847, -29.5177496 ], [ -51.9504989, -29.5178663 ], [ -51.9504291, -29.5181044 ], [ -51.9503272, -29.5181931 ], [ -51.9504291, -29.5183798 ], [ -51.9507376, -29.518561799999983 ], [ -51.9509602, -29.518629499999989 ], [ -51.951556, -29.518325 ], [ -51.9517656, -29.5179276 ], [ -51.9519851, -29.5175766 ], [ -51.9521788, -29.517279 ], [ -51.9525011, -29.5166957 ], [ -51.9526039, -29.5164239 ], [ -51.9528906, -29.5161572 ], [ -51.9530685, -29.5159301 ], [ -51.9532761, -29.5158509 ], [ -51.9534244, -29.5156445 ], [ -51.9537131, -29.515376 ], [ -51.9539563, -29.5153399 ], [ -51.954589, -29.515407 ], [ -51.9550022, -29.5152797 ], [ -51.9551544, -29.5152367 ], [ -51.9551564, -29.5151438 ], [ -51.9552572, -29.5150027 ], [ -51.9554293, -29.5148616 ], [ -51.9557456, -29.5145123 ], [ -51.9552652, -29.5140822 ], [ -51.9551208, -29.5139308 ], [ -51.9544011, -29.513510899999989 ], [ -51.9541184, -29.5132804 ], [ -51.9540769, -29.513024 ], [ -51.9539484, -29.5128416 ], [ -51.9536854, -29.5126678 ], [ -51.9534165, -29.512437299999988 ], [ -51.9531714, -29.5121998 ], [ -51.952818, -29.5117395 ], [ -51.9525017, -29.511524900000012 ], [ -51.9521299, -29.5113334 ], [ -51.9517089, -29.51109520000001 ], [ -51.9515938, -29.5109577 ], [ -51.9513939, -29.510694 ], [ -51.9512303, -29.510429 ], [ -51.9512156, -29.5103613 ], [ -51.9512099, -29.5103063 ], [ -51.9515213, -29.5101828 ], [ -51.9520926, -29.5101699 ], [ -51.9525795, -29.5102271 ], [ -51.9529296, -29.510250700000011 ], [ -51.9530289, -29.5102904 ], [ -51.9531576, -29.5102834 ], [ -51.9532515, -29.5102624 ], [ -51.953348, -29.51019 ], [ -51.9535546, -29.510162 ], [ -51.9536994, -29.510001 ], [ -51.9538174, -29.5097652 ], [ -51.9539689, -29.5097427 ], [ -51.9540882, -29.5097918 ], [ -51.9542104, -29.5097838 ], [ -51.9545523, -29.5096275 ], [ -51.9549574, -29.5093941 ], [ -51.9554509, -29.5090976 ], [ -51.9557593, -29.5089716 ], [ -51.9559444, -29.5088619 ], [ -51.9560893, -29.5087031 ], [ -51.9562743, -29.5085094 ], [ -51.95647550000001, -29.5083366 ], [ -51.9567893, -29.5082316 ], [ -51.9571031, -29.5081382 ], [ -51.9570924, -29.5077834 ], [ -51.9569744, -29.5075173 ], [ -51.956835, -29.507315 ], [ -51.9567383, -29.5070715 ], [ -51.9567947, -29.5069454 ], [ -51.9568885, -29.5067517 ], [ -51.9569771, -29.5065882 ], [ -51.9572077, -29.5063548 ], [ -51.9575242, -29.5062078 ], [ -51.957779, -29.5061284 ], [ -51.9578997, -29.50606770000001 ], [ -51.9580875, -29.5059767 ], [ -51.9582136, -29.5058179 ], [ -51.958227, -29.5057105 ], [ -51.9578139, -29.5055168 ], [ -51.9575752, -29.5053861 ], [ -51.957248, -29.5052577 ], [ -51.9570414, -29.505101299999989 ], [ -51.956859, -29.5048795 ], [ -51.9567035, -29.5046064 ], [ -51.9567115, -29.5042656 ], [ -51.9563387, -29.503815 ], [ -51.9563387, -29.5033575 ], [ -51.9565211, -29.5030704 ], [ -51.9566927, -29.503089 ], [ -51.9569422, -29.5031661 ], [ -51.9571192, -29.5030011 ], [ -51.9577576, -29.502777 ], [ -51.9580472, -29.5027256 ], [ -51.9582202, -29.5027219 ], [ -51.959336, -29.50296 ], [ -51.959898, -29.5029731 ], [ -51.9610526, -29.5032681 ], [ -51.9612069, -29.5032625 ], [ -51.9613142, -29.5032579 ], [ -51.9614107, -29.5032345 ], [ -51.9615126, -29.5031225 ], [ -51.9615448, -29.5030244 ], [ -51.961632, -29.502974 ], [ -51.9617487, -29.5029917 ], [ -51.9619324, -29.5030207 ], [ -51.9620451, -29.503044 ], [ -51.9621631, -29.5031374 ], [ -51.96225960000001, -29.5033055 ], [ -51.9623294, -29.503380199999985 ], [ -51.962489, -29.5033839 ], [ -51.9626499, -29.5033326 ], [ -51.9627196, -29.5032345 ], [ -51.9627357, -29.503117799999988 ], [ -51.9627411, -29.503015099999988 ], [ -51.9627786, -29.5029077 ], [ -51.9628752, -29.502819 ], [ -51.9629503, -29.5028003 ], [ -51.9631005, -29.5028096 ], [ -51.9632883, -29.502791 ], [ -51.9634492, -29.5026976 ], [ -51.9635243, -29.5026369 ], [ -51.963514600000011, -29.5025133 ], [ -51.9634116, -29.5023521 ], [ -51.9632561, -29.5022027 ], [ -51.9629986, -29.5017872 ], [ -51.9627304, -29.501507 ], [ -51.9625533, -29.5013576 ], [ -51.9624139, -29.5013156 ], [ -51.9622798, -29.501325 ], [ -51.962092, -29.501395 ], [ -51.9617701, -29.501516400000011 ], [ -51.9611961, -29.5016191 ], [ -51.9609118, -29.5016238 ], [ -51.9607402, -29.5016004 ], [ -51.9606114, -29.5015164 ], [ -51.9604505, -29.501353 ], [ -51.9599784, -29.5007413 ], [ -51.9598604, -29.5005919 ], [ -51.9598068, -29.50052190000001 ], [ -51.959678, -29.5004892 ], [ -51.9594742, -29.5005079 ], [ -51.9592596, -29.5005639 ], [ -51.9589216, -29.5006246 ], [ -51.9586695, -29.5006433 ], [ -51.9582779, -29.5004939 ], [ -51.9581062, -29.5003632 ], [ -51.9578434, -29.5002511 ], [ -51.9575805, -29.5000924 ], [ -51.9574571, -29.499957 ], [ -51.9574038, -29.4998076 ], [ -51.9575014, -29.499542399999985 ], [ -51.9577578, -29.499359299999988 ], [ -51.9582062, -29.499157699999987 ], [ -51.9581831, -29.4989823 ], [ -51.9581766, -29.4988245 ], [ -51.9582428, -29.4985815 ], [ -51.9582395, -29.4984044 ], [ -51.9581302, -29.4982327 ], [ -51.9579656, -29.4980631 ], [ -51.9568004, -29.4968617 ], [ -51.9564566, -29.4964874 ], [ -51.9562482, -29.4961957 ], [ -51.9561755, -29.4960634 ], [ -51.9561537, -29.4960019 ], [ -51.9560786, -29.4957048 ], [ -51.9559051, -29.494734900000015 ], [ -51.9558302, -29.4945037 ], [ -51.9557003, -29.4942591 ], [ -51.9551009, -29.4934688 ], [ -51.9550365, -29.4933779 ], [ -51.9546322, -29.4928422 ], [ -51.9541999, -29.4922187 ], [ -51.9539596, -29.4918354 ], [ -51.953738, -29.4914007 ], [ -51.9536239, -29.4910967 ], [ -51.9535366, -29.490823 ], [ -51.9534917, -29.490697800000014 ], [ -51.9532438, -29.4899368 ], [ -51.9530776, -29.4894937 ], [ -51.95301, -29.4893521 ], [ -51.9527659, -29.4891993 ], [ -51.9523689, -29.4898226 ], [ -51.9521141, -29.4903689 ], [ -51.9512665, -29.4936655 ], [ -51.9508991, -29.495211 ], [ -51.9507381, -29.4960818 ], [ -51.9505638, -29.4975059 ], [ -51.9504538, -29.4983976 ], [ -51.9502258, -29.499084 ], [ -51.9499469, -29.4996606 ], [ -51.9495821, -29.5002279 ], [ -51.9491476, -29.5007321 ], [ -51.9487774, -29.5011243 ], [ -51.9479781, -29.5017546 ], [ -51.9470394, -29.5022682 ], [ -51.9462749, -29.5027374 ], [ -51.9457251, -29.5031599 ], [ -51.9453013, -29.5035801 ], [ -51.9446549, -29.5043528 ], [ -51.9433031, -29.5062833 ], [ -51.9424582, -29.507585899999988 ], [ -51.9419485, -29.5090028 ], [ -51.9414818, -29.5107138 ], [ -51.9412056, -29.5115028 ], [ -51.9409334, -29.5124327 ], [ -51.9410085, -29.5124373 ] ] ] } },
{ "type": "Feature", "properties": { "name": "Alto do Bronze", "code_muni": 4307807.0, "name_muni": "Estrela" }, "geometry": { "type": "Polygon", "coordinates": [ [ [ -51.9547325, -29.5183427 ], [ -51.9553932, -29.5179643 ], [ -51.9560443, -29.5175876 ], [ -51.9577244, -29.5166233 ], [ -51.9583827, -29.5162454 ], [ -51.9588422, -29.5160259 ], [ -51.9590111, -29.5159239 ], [ -51.9603074, -29.5151407 ], [ -51.9603927, -29.5149407 ], [ -51.9604612, -29.5148081 ], [ -51.9605721, -29.5146631 ], [ -51.960669, -29.5145827 ], [ -51.9608084, -29.5145207 ], [ -51.9611129, -29.514457799999988 ], [ -51.9619993, -29.5142007 ], [ -51.9622408, -29.5141205 ], [ -51.9624715, -29.5140108 ], [ -51.9625966, -29.5139392 ], [ -51.9626926, -29.5138709 ], [ -51.9628188, -29.5138813 ], [ -51.9630133, -29.5137926 ], [ -51.9630434, -29.5137479 ], [ -51.9637282, -29.5133482 ], [ -51.96440350000001, -29.5129548 ], [ -51.964942, -29.5126212 ], [ -51.9650154, -29.5125758 ], [ -51.9656806, -29.5122022 ], [ -51.9663968, -29.5117979 ], [ -51.9652704, -29.5103007 ], [ -51.96461990000001, -29.5094608 ], [ -51.9650799, -29.5091729 ], [ -51.9656535, -29.5086396 ], [ -51.9664886, -29.5082681 ], [ -51.9667315, -29.5081775 ], [ -51.9681944, -29.5078445 ], [ -51.9680639, -29.5068447 ], [ -51.9680296, -29.5066193 ], [ -51.9680085, -29.5064721 ], [ -51.9679183, -29.5057783 ], [ -51.9678253, -29.5050636 ], [ -51.9678188, -29.5048951 ], [ -51.9677751, -29.5047388 ], [ -51.9676683, -29.5045813 ], [ -51.9673039, -29.5045107 ], [ -51.96695, -29.5044358 ], [ -51.9668818, -29.5044216 ], [ -51.9667191, -29.5043894 ], [ -51.9660426, -29.5042556 ], [ -51.9658831, -29.5042267 ], [ -51.96527170000001, -29.5041188 ], [ -51.9651099, -29.5040873 ], [ -51.9647303, -29.5039946 ], [ -51.9643754, -29.503877 ], [ -51.9643624, -29.5039979 ], [ -51.9643566, -29.5040653 ], [ -51.964356, -29.504135800000014 ], [ -51.9643604, -29.5042142 ], [ -51.9636912, -29.50459660000001 ], [ -51.9631379, -29.504864 ], [ -51.9628215, -29.5049527 ], [ -51.9614107, -29.5032345 ], [ -51.9613142, -29.5032579 ], [ -51.9612069, -29.5032625 ], [ -51.9610526, -29.5032681 ], [ -51.959898, -29.5029731 ], [ -51.959336, -29.50296 ], [ -51.9582202, -29.5027219 ], [ -51.9580472, -29.5027256 ], [ -51.9577576, -29.502777 ], [ -51.9571192, -29.5030011 ], [ -51.9569422, -29.5031661 ], [ -51.9566927, -29.503089 ], [ -51.9565211, -29.5030704 ], [ -51.9563387, -29.5033575 ], [ -51.9563387, -29.503815 ], [ -51.9567115, -29.5042656 ], [ -51.9567035, -29.5046064 ], [ -51.956859, -29.5048795 ], [ -51.9570414, -29.505101299999989 ], [ -51.957248, -29.5052577 ], [ -51.9575752, -29.5053861 ], [ -51.9578139, -29.5055168 ], [ -51.958227, -29.5057105 ], [ -51.9582136, -29.5058179 ], [ -51.9580875, -29.5059767 ], [ -51.9578997, -29.50606770000001 ], [ -51.957779, -29.5061284 ], [ -51.9575242, -29.5062078 ], [ -51.9572077, -29.5063548 ], [ -51.9569771, -29.5065882 ], [ -51.9568885, -29.5067517 ], [ -51.9567947, -29.5069454 ], [ -51.9567383, -29.5070715 ], [ -51.956835, -29.507315 ], [ -51.9569744, -29.5075173 ], [ -51.9570924, -29.5077834 ], [ -51.9571031, -29.5081382 ], [ -51.9567893, -29.5082316 ], [ -51.95647550000001, -29.5083366 ], [ -51.9562743, -29.5085094 ], [ -51.9560893, -29.5087031 ], [ -51.9559444, -29.5088619 ], [ -51.9557593, -29.5089716 ], [ -51.9554509, -29.5090976 ], [ -51.9549574, -29.5093941 ], [ -51.9545523, -29.5096275 ], [ -51.9542104, -29.5097838 ], [ -51.9540882, -29.5097918 ], [ -51.9539689, -29.5097427 ], [ -51.9538174, -29.5097652 ], [ -51.9536994, -29.510001 ], [ -51.9535546, -29.510162 ], [ -51.953348, -29.51019 ], [ -51.9532515, -29.5102624 ], [ -51.9531576, -29.5102834 ], [ -51.9530289, -29.5102904 ], [ -51.9529296, -29.510250700000011 ], [ -51.9525795, -29.5102271 ], [ -51.9520926, -29.5101699 ], [ -51.9515213, -29.5101828 ], [ -51.9512099, -29.5103063 ], [ -51.9512156, -29.5103613 ], [ -51.9512303, -29.510429 ], [ -51.9513939, -29.510694 ], [ -51.9515938, -29.5109577 ], [ -51.9517089, -29.51109520000001 ], [ -51.9521299, -29.5113334 ], [ -51.9525017, -29.511524900000012 ], [ -51.952818, -29.5117395 ], [ -51.9531714, -29.5121998 ], [ -51.9534165, -29.512437299999988 ], [ -51.9536854, -29.5126678 ], [ -51.9539484, -29.5128416 ], [ -51.9540769, -29.513024 ], [ -51.9541184, -29.5132804 ], [ -51.9544011, -29.513510899999989 ], [ -51.9551208, -29.5139308 ], [ -51.9552652, -29.5140822 ], [ -51.9557456, -29.5145123 ], [ -51.9554293, -29.5148616 ], [ -51.9552572, -29.5150027 ], [ -51.9551564, -29.5151438 ], [ -51.9551544, -29.5152367 ], [ -51.9550022, -29.5152797 ], [ -51.954589, -29.515407 ], [ -51.9539563, -29.5153399 ], [ -51.9537131, -29.515376 ], [ -51.9534244, -29.5156445 ], [ -51.9532761, -29.5158509 ], [ -51.9542277, -29.5187712 ], [ -51.9547325, -29.5183427 ] ] ] } },
{ "type": "Feature", "properties": { "name": "Auxiliadora", "code_muni": 4307807.0, "name_muni": "Estrela" }, "geometry": { "type": "Polygon", "coordinates": [ [ [ -51.9590111, -29.5159239 ], [ -51.9588422, -29.5160259 ], [ -51.9583827, -29.5162454 ], [ -51.9577244, -29.5166233 ], [ -51.9560443, -29.5175876 ], [ -51.9553932, -29.5179643 ], [ -51.9547325, -29.5183427 ], [ -51.9542277, -29.5187712 ], [ -51.9506979, -29.5209559 ], [ -51.9520829, -29.52275980000001 ], [ -51.9527161, -29.5235752 ], [ -51.9530288, -29.5239917 ], [ -51.9573283, -29.5295913 ], [ -51.9669843, -29.5237286 ], [ -51.9657637, -29.5184013 ], [ -51.9656803, -29.5183396 ], [ -51.9646909, -29.5169758 ], [ -51.96466370000001, -29.5169432 ], [ -51.9645809, -29.5168142 ], [ -51.9626926, -29.5138709 ], [ -51.9625966, -29.5139392 ], [ -51.9624715, -29.5140108 ], [ -51.9622408, -29.5141205 ], [ -51.9619993, -29.5142007 ], [ -51.9611129, -29.514457799999988 ], [ -51.9608084, -29.5145207 ], [ -51.960669, -29.5145827 ], [ -51.9605721, -29.5146631 ], [ -51.9604612, -29.5148081 ], [ -51.9603927, -29.5149407 ], [ -51.9603074, -29.5151407 ], [ -51.9590111, -29.5159239 ] ] ] } },
{ "type": "Feature", "properties": { "name": "Cristo Rei", "code_muni": 4307807.0, "name_muni": "Estrela" }, "geometry": { "type": "Polygon", "coordinates": [ [ [ -51.9684863, -29.5228137 ], [ -51.9687653, -29.525185 ], [ -51.9765144, -29.5205606 ], [ -51.9766466, -29.5202268 ], [ -51.9769256, -29.5196438 ], [ -51.9771479, -29.5191791 ], [ -51.9778722, -29.5176726 ], [ -51.9780492, -29.5170904 ], [ -51.9781974, -29.5165178 ], [ -51.9782499, -29.516216699999987 ], [ -51.9782574, -29.5160693 ], [ -51.9782415, -29.5159547 ], [ -51.9770692, -29.516586899999989 ], [ -51.9735984, -29.5101628 ], [ -51.9731667, -29.509598 ], [ -51.9727403, -29.5090497 ], [ -51.9723796, -29.5085443 ], [ -51.9713437, -29.50714 ], [ -51.9699869, -29.5053208 ], [ -51.9692611, -29.5043612 ], [ -51.9685828, -29.5044143 ], [ -51.967976, -29.504469 ], [ -51.9679212, -29.5044749 ], [ -51.9677979, -29.5045008 ], [ -51.967746, -29.5045229 ], [ -51.9676683, -29.5045813 ], [ -51.9677751, -29.5047388 ], [ -51.9678188, -29.5048951 ], [ -51.9678253, -29.5050636 ], [ -51.9679183, -29.5057783 ], [ -51.9680085, -29.5064721 ], [ -51.9680296, -29.5066193 ], [ -51.9680639, -29.5068447 ], [ -51.9681944, -29.5078445 ], [ -51.9667315, -29.5081775 ], [ -51.9664886, -29.5082681 ], [ -51.9656535, -29.5086396 ], [ -51.9650799, -29.5091729 ], [ -51.96461990000001, -29.5094608 ], [ -51.9652704, -29.5103007 ], [ -51.9663968, -29.5117979 ], [ -51.9656806, -29.5122022 ], [ -51.9650154, -29.5125758 ], [ -51.964942, -29.5126212 ], [ -51.96440350000001, -29.5129548 ], [ -51.9637282, -29.5133482 ], [ -51.9630434, -29.5137479 ], [ -51.9630133, -29.5137926 ], [ -51.9628188, -29.5138813 ], [ -51.9626926, -29.5138709 ], [ -51.9645809, -29.5168142 ], [ -51.96466370000001, -29.5169432 ], [ -51.9646909, -29.5169758 ], [ -51.9656803, -29.5183396 ], [ -51.9657637, -29.5184013 ], [ -51.9669843, -29.5237286 ], [ -51.9684863, -29.5228137 ] ] ] } },
{ "type": "Feature", "properties": { "name": "Chacrinha", "code_muni": 4307807.0, "name_muni": "Estrela" }, "geometry": { "type": "Polygon", "coordinates": [ [ [ -51.9699869, -29.5053208 ], [ -51.9713437, -29.50714 ], [ -51.9723796, -29.5085443 ], [ -51.9727403, -29.5090497 ], [ -51.9731667, -29.509598 ], [ -51.9735984, -29.5101628 ], [ -51.9770692, -29.516586899999989 ], [ -51.9782415, -29.5159547 ], [ -51.9782574, -29.5160693 ], [ -51.9782499, -29.516216699999987 ], [ -51.9781974, -29.5165178 ], [ -51.9780492, -29.5170904 ], [ -51.9778722, -29.5176726 ], [ -51.9771479, -29.5191791 ], [ -51.9769256, -29.5196438 ], [ -51.9766466, -29.5202268 ], [ -51.9765144, -29.5205606 ], [ -51.9785912, -29.5193213 ], [ -51.9804931, -29.5161429 ], [ -51.9815839, -29.5136795 ], [ -51.981442618098157, -29.51223507719715 ], [ -51.972985340146337, -29.503588428182191 ], [ -51.9720162, -29.5040619 ], [ -51.9719784, -29.504135699999988 ], [ -51.9718872, -29.5041777 ], [ -51.97176910000001, -29.5041964 ], [ -51.9716511, -29.5041964 ], [ -51.9714848, -29.5041683 ], [ -51.9713293, -29.504131 ], [ -51.971171, -29.504125 ], [ -51.9693698, -29.5043518 ], [ -51.9692611, -29.5043612 ], [ -51.9699869, -29.5053208 ] ] ] } }
]
}
