{
"type": "FeatureCollection",
"name": "bairros_pedro_osorio",
"crs": { "type": "name", "properties": { "name": "urn:ogc:def:crs:OGC:1.3:CRS84" } },
"features": [
{ "type": "Feature", "properties": { "code_muni": 4314209.0, "name_muni": "Pedro Osório", "code_state": 43.0, "abbrev_state": "RS", "name_state": "Rio Grande do Sul", "code_region": 4.0, "name_region": "Sul", "year": 2022.0 }, "geometry": { "type": "Polygon", "coordinates": [ [ [ -52.856211781999903, -32.047053541 ], [ -52.8583131789999, -32.041751447 ], [ -52.868161938, -32.041539023 ], [ -52.88022756, -32.04456379 ], [ -52.884681074999897, -32.044243335 ], [ -52.892790058999893, -32.041086747 ], [ -52.901288708, -32.040221045999893 ], [ -52.90251015, -32.036673298 ], [ -52.906462565, -32.033825233 ], [ -52.911212105999901, -32.034299587 ], [ -52.918443453, -32.032979756 ], [ -52.923065519, -32.031876944 ], [ -52.924613987, -32.029911118 ], [ -52.933896527999892, -32.030220469 ], [ -52.939099558, -32.033093106 ], [ -52.944961567, -32.032227787 ], [ -52.945883802, -32.033458695 ], [ -52.949490857999891, -32.03286411499991 ], [ -52.951496260999896, -32.034022297 ], [ -52.957893374, -32.032039653 ], [ -52.961360816, -32.032827077 ], [ -52.964290908999892, -32.031652638 ], [ -52.966332893, -32.032599998 ], [ -52.970527311999909, -32.03190311 ], [ -52.972125717, -32.0327452659999 ], [ -52.974569426999892, -32.0310309 ], [ -52.973918039, -32.029108787 ], [ -52.9759739469999, -32.02766263599991 ], [ -52.981106025, -32.030550508 ], [ -52.98378235099991, -32.027070298999909 ], [ -52.986769016, -32.027729774 ], [ -52.987640166999896, -32.026404073 ], [ -52.994174520999891, -32.025084031999896 ], [ -52.996528761, -32.025464787 ], [ -52.99983951, -32.0285451089999 ], [ -53.005138804, -32.027719768999901 ], [ -53.008757408999891, -32.030396986 ], [ -53.028064818, -32.021336604999902 ], [ -53.034202034, -32.01484491 ], [ -53.033868524, -32.011974644 ], [ -53.037257111, -32.008015621 ], [ -53.037195618999895, -32.0051707719999 ], [ -53.039999823, -32.004369526999895 ], [ -53.041505698, -32.002403804 ], [ -53.124305353, -32.00264172499989 ], [ -53.123409836, -31.99942714 ], [ -53.1245545149999, -31.996392616 ], [ -53.115334077999897, -31.994119044999898 ], [ -53.114880232, -31.991848376 ], [ -53.112898334, -31.990725542 ], [ -53.11348064, -31.988874015 ], [ -53.110482595999898, -31.985575126999901 ], [ -53.111520846, -31.983724003 ], [ -53.103948891999892, -31.983577928999988 ], [ -53.101117839, -31.98073163 ], [ -53.101411885999894, -31.977545257 ], [ -53.104493767999898, -31.975983915 ], [ -53.099720692999902, -31.972013031 ], [ -53.10507842, -31.968401593 ], [ -53.100091068, -31.960367929 ], [ -53.096570233, -31.958974155 ], [ -53.095340421999893, -31.955774815 ], [ -53.087984424, -31.951349082 ], [ -53.08445782, -31.946679182 ], [ -53.076543687, -31.943206205999989 ], [ -53.0695352, -31.937444834000011 ], [ -53.066996570999898, -31.937015895999895 ], [ -53.063025588999892, -31.932485614 ], [ -53.058427256999899, -31.931934738999896 ], [ -53.052442739, -31.927708004999904 ], [ -53.049958230999898, -31.921618134 ], [ -53.047592063, -31.920369784999895 ], [ -53.045972143, -31.915226253 ], [ -53.03978017, -31.912885479999893 ], [ -53.032626396, -31.912623808 ], [ -53.02883343, -31.909854261 ], [ -53.02478844599991, -31.910709523 ], [ -53.020854554, -31.909986079 ], [ -53.015423255, -31.911989403999897 ], [ -53.001540668, -31.905734532999901 ], [ -52.987699683999899, -31.906201445 ], [ -52.979288857, -31.902140754999902 ], [ -52.97637385799991, -31.902092459999899 ], [ -52.970563264, -31.904758629999897 ], [ -52.961103642, -31.904007754 ], [ -52.956934487, -31.900666255 ], [ -52.950448384, -31.897954488 ], [ -52.948532762, -31.895025711999885 ], [ -52.946393688999898, -31.894787128 ], [ -52.940664951, -31.889482146 ], [ -52.938706404, -31.889936336999899 ], [ -52.938500102, -31.8887141 ], [ -52.934090061999896, -31.888340263 ], [ -52.933864091, -31.88738454 ], [ -52.929322226, -31.886267626999892 ], [ -52.918832139, -31.887397539999892 ], [ -52.914869328999899, -31.890837749 ], [ -52.907866684999895, -31.890884191999895 ], [ -52.902004924, -31.888143746 ], [ -52.897457243, -31.883729042 ], [ -52.892688231, -31.885834691 ], [ -52.888042094999903, -31.884557828 ], [ -52.886744016, -31.88922029 ], [ -52.884291694999902, -31.889740749999898 ], [ -52.878050355, -31.884455623 ], [ -52.873620197, -31.874572852 ], [ -52.869063189, -31.875151012999901 ], [ -52.865930756, -31.872370948 ], [ -52.861463879, -31.871554622 ], [ -52.85696330199989, -31.867138919999896 ], [ -52.854098523999902, -31.8675459839999 ], [ -52.851208788, -31.869962776 ], [ -52.847884985, -31.867840632 ], [ -52.842900488999895, -31.861538090999904 ], [ -52.838605522, -31.860974123999895 ], [ -52.83744383, -31.859232139 ], [ -52.830017846, -31.857169368 ], [ -52.818301897, -31.85992414 ], [ -52.812353161, -31.863908588 ], [ -52.807781646, -31.8592190909999 ], [ -52.801988298, -31.860063705999895 ], [ -52.798921117, -31.863445202 ], [ -52.791236435, -31.863266898999896 ], [ -52.786330491999891, -31.867247389999896 ], [ -52.783133151999891, -31.866959840999986 ], [ -52.779016269, -31.868686005 ], [ -52.77360594, -31.873341062 ], [ -52.769581175, -31.871918007 ], [ -52.766332496, -31.87396776 ], [ -52.755874488, -31.873492556 ], [ -52.747142911, -31.874781991 ], [ -52.744158649, -31.873033837 ], [ -52.741804155, -31.868892312999897 ], [ -52.738204845, -31.867163185 ], [ -52.731742734, -31.869912338999896 ], [ -52.721264516, -31.871555886999897 ], [ -52.707620662999901, -31.869856162 ], [ -52.698711776, -31.878394913 ], [ -52.680431784999897, -31.882313012999905 ], [ -52.673142573, -31.887037058 ], [ -52.667517994, -31.893859312 ], [ -52.665312996999901, -31.899999474 ], [ -52.662760567, -31.900687288 ], [ -52.70272270999989, -31.957055802 ], [ -52.781379592, -32.063538736999902 ], [ -52.782065342999893, -32.077269853 ], [ -52.785503305, -32.081096575999894 ], [ -52.777712204999901, -32.09837734900001 ], [ -52.787157600999898, -32.105603115 ], [ -52.790637649, -32.106230437 ], [ -52.792267616999894, -32.105239884999889 ], [ -52.796137825999892, -32.099743719999907 ], [ -52.797453138, -32.092862486999898 ], [ -52.799309558999902, -32.092113454 ], [ -52.799570371999891, -32.089437385999901 ], [ -52.802681465, -32.086774417 ], [ -52.801092379, -32.083467543 ], [ -52.804873766999897, -32.080036916 ], [ -52.804558395999891, -32.071161404999899 ], [ -52.809772461, -32.070755917999989 ], [ -52.81175853, -32.067086247 ], [ -52.816842225999892, -32.063114825 ], [ -52.818382679, -32.05892402500001 ], [ -52.821728438, -32.058945429999902 ], [ -52.82411562, -32.056598479999899 ], [ -52.838518980999901, -32.053226918 ], [ -52.843391574, -32.053959971 ], [ -52.845668276, -32.052666262999885 ], [ -52.84737675, -32.054233732999897 ], [ -52.850368314, -32.054050786999902 ], [ -52.851730059, -32.052744697999984 ], [ -52.851759606, -32.048244245999989 ], [ -52.856211781999903, -32.047053541 ] ] ] } }
]
}
