{
"type": "FeatureCollection",
"name": "bairros_eugenio_de_castro",
"crs": { "type": "name", "properties": { "name": "urn:ogc:def:crs:OGC:1.3:CRS84" } },
"features": [
{ "type": "Feature", "properties": { "code_muni": 4307831.0, "name_muni": "Eugênio de Castro", "code_state": 43.0, "abbrev_state": "RS", "name_state": "Rio Grande do Sul", "code_region": 4.0, "name_region": "Sul", "year": 2022.0 }, "geometry": { "type": "Polygon", "coordinates": [ [ [ -54.128014024, -28.490119318 ], [ -54.128436043, -28.554694185 ], [ -54.132971142, -28.556698 ], [ -54.139091822999895, -28.551263268 ], [ -54.1406567, -28.555864337999907 ], [ -54.146661176, -28.560576480999902 ], [ -54.149302335999892, -28.557047291999904 ], [ -54.151774151, -28.556137763999988 ], [ -54.152733886, -28.558692548999897 ], [ -54.147452572, -28.562714177 ], [ -54.144990862, -28.562750370999904 ], [ -54.141587578, -28.5596101699999 ], [ -54.138150356, -28.561349099 ], [ -54.136080529, -28.565666026 ], [ -54.138045624, -28.56647363 ], [ -54.146476891, -28.565280743999896 ], [ -54.153172143999903, -28.562954937 ], [ -54.150159402, -28.566783929999893 ], [ -54.151578131999891, -28.5693085149999 ], [ -54.149074791, -28.5710946529999 ], [ -54.152022389, -28.572863993999903 ], [ -54.151457023, -28.577180077 ], [ -54.153999757, -28.577514311 ], [ -54.154712318999891, -28.580565813 ], [ -54.157276915, -28.581881607 ], [ -54.15724572300001, -28.585255646999901 ], [ -54.154202152, -28.585771208 ], [ -54.153591537, -28.589687607 ], [ -54.157489459, -28.588524458999895 ], [ -54.164457630999898, -28.592890436999895 ], [ -54.158710014, -28.595501828999893 ], [ -54.153043628, -28.594848790999905 ], [ -54.15228783, -28.596146619 ], [ -54.154658756999901, -28.599305874 ], [ -54.152579609999989, -28.603543043999899 ], [ -54.148687957999989, -28.605724246 ], [ -54.151541354, -28.608983711999901 ], [ -54.153577228, -28.606603178999904 ], [ -54.155518387, -28.608167093 ], [ -54.159084606, -28.608053224999892 ], [ -54.162421611999896, -28.611567377 ], [ -54.164904221, -28.617303326999895 ], [ -54.167986642999892, -28.618087938 ], [ -54.169784891999903, -28.616240338 ], [ -54.175766982, -28.618583991 ], [ -54.177658848, -28.622602108 ], [ -54.17673382, -28.624278556 ], [ -54.178109795, -28.627606882 ], [ -54.177007682999893, -28.628528276999905 ], [ -54.178335446999903, -28.631255833999905 ], [ -54.177275983, -28.634365455 ], [ -54.183298742, -28.642299148999896 ], [ -54.188902957, -28.642669989999899 ], [ -54.191833152, -28.644361008 ], [ -54.192672866, -28.651299370999901 ], [ -54.197052982999892, -28.660057354999903 ], [ -54.206944215, -28.65551648 ], [ -54.212780747999908, -28.655095780999901 ], [ -54.218312915999896, -28.656401442999893 ], [ -54.229240757, -28.649341582 ], [ -54.23584906, -28.649749083999989 ], [ -54.242397265, -28.647323770999893 ], [ -54.244513215, -28.652363674 ], [ -54.248716741, -28.653783447 ], [ -54.252941173, -28.658536803999905 ], [ -54.258082527999896, -28.659883883 ], [ -54.258955226999895, -28.6630217169999 ], [ -54.26504154, -28.665131443999908 ], [ -54.270466294, -28.664996953999896 ], [ -54.272779850999896, -28.666615384999893 ], [ -54.27624602, -28.672817613999896 ], [ -54.280159947999898, -28.676382089999887 ], [ -54.281293835, -28.676684011 ], [ -54.282665703, -28.661383954 ], [ -54.285362251, -28.661606229 ], [ -54.2857980859999, -28.663101641 ], [ -54.284208620999898, -28.664131585 ], [ -54.288043138, -28.664901484 ], [ -54.300573303, -28.663038561 ], [ -54.303556739, -28.66555798 ], [ -54.30905503, -28.666412362999903 ], [ -54.314486265, -28.663106816 ], [ -54.318821560999908, -28.666287305 ], [ -54.321512367, -28.665693651 ], [ -54.331573798, -28.672828866 ], [ -54.338337657999901, -28.674211671 ], [ -54.336198904, -28.678388627999908 ], [ -54.333534514, -28.680323286 ], [ -54.329973375999899, -28.680524639999899 ], [ -54.328297643, -28.683953184000011 ], [ -54.322748608, -28.686004279 ], [ -54.320131070999892, -28.682107526 ], [ -54.316548296999891, -28.685437981999897 ], [ -54.311834112, -28.686489628999897 ], [ -54.309477425, -28.6902147599999 ], [ -54.313382708999903, -28.694715759 ], [ -54.314864096999891, -28.704640468 ], [ -54.321684005, -28.723259153999894 ], [ -54.327227175, -28.7266275929999 ], [ -54.330386045999894, -28.726377638 ], [ -54.333495032, -28.721007153999889 ], [ -54.335968061, -28.720426922999902 ], [ -54.338560463, -28.716845890999902 ], [ -54.343894691999893, -28.714635905 ], [ -54.343411187, -28.712115576 ], [ -54.350297987, -28.705601601999899 ], [ -54.3548246679999, -28.707041832999906 ], [ -54.35724844899989, -28.706142271 ], [ -54.36065453, -28.708537177 ], [ -54.363984913, -28.706988001 ], [ -54.367013, -28.70747569 ], [ -54.36934546, -28.705448266999987 ], [ -54.369569538, -28.702072877 ], [ -54.371890653, -28.700873989999902 ], [ -54.378994663, -28.701667052999909 ], [ -54.380044681999898, -28.6982644019999 ], [ -54.377916076, -28.6949796329999 ], [ -54.364359933999893, -28.684102462999892 ], [ -54.353899763, -28.671600403 ], [ -54.353313413, -28.668206691 ], [ -54.350052885, -28.666327608999897 ], [ -54.3546162, -28.663176736 ], [ -54.352441448, -28.660155292999892 ], [ -54.353890878, -28.657078375999987 ], [ -54.356731281, -28.658508244 ], [ -54.358214295, -28.661141669 ], [ -54.364361092, -28.661371592 ], [ -54.373422112, -28.666723539 ], [ -54.374568527999891, -28.661484438999892 ], [ -54.378061217, -28.659677567 ], [ -54.378050252, -28.653814983 ], [ -54.372249150999899, -28.647579896 ], [ -54.369416164, -28.641980205 ], [ -54.36531904, -28.64221287 ], [ -54.364240316, -28.636428423 ], [ -54.358746364, -28.635331994999895 ], [ -54.358495149, -28.6312905 ], [ -54.353848483, -28.6297835559999 ], [ -54.352959165999891, -28.627576161 ], [ -54.349364018, -28.625148472 ], [ -54.343412621, -28.623720701 ], [ -54.339595529999897, -28.624437703 ], [ -54.335816495, -28.619548214 ], [ -54.333214235999897, -28.619590923 ], [ -54.325986854999904, -28.613405467999904 ], [ -54.322146222999898, -28.612540764999896 ], [ -54.3202461549999, -28.607192036 ], [ -54.315795755, -28.604870343 ], [ -54.316132272999894, -28.602420181 ], [ -54.312910730999903, -28.599366964999895 ], [ -54.313275731, -28.596340371999908 ], [ -54.311082235, -28.593304105999902 ], [ -54.309582707999894, -28.586864959 ], [ -54.306782658, -28.585160687 ], [ -54.324104857999906, -28.580137979 ], [ -54.333460242999898, -28.58242646 ], [ -54.337325329, -28.574764479999899 ], [ -54.338251876, -28.563345265 ], [ -54.345732045, -28.553073734999906 ], [ -54.34133760200001, -28.550406226999907 ], [ -54.341026526, -28.547382943999899 ], [ -54.337656824, -28.546603048999891 ], [ -54.336676675, -28.542900066999902 ], [ -54.326791022, -28.538029278 ], [ -54.322618909, -28.532470331999907 ], [ -54.322435019999894, -28.529084079 ], [ -54.319368297, -28.528019884999903 ], [ -54.318472482999901, -28.524800636 ], [ -54.31560966, -28.524638712 ], [ -54.311802977, -28.517972170999897 ], [ -54.306627427, -28.514825308999903 ], [ -54.306517189, -28.512003863 ], [ -54.302527939999898, -28.508751568 ], [ -54.295346628999894, -28.5050775569999 ], [ -54.289283984999891, -28.504821948 ], [ -54.286978980999891, -28.503380014 ], [ -54.286546002, -28.501144731999897 ], [ -54.283828576, -28.499821004 ], [ -54.278928608999891, -28.500439979 ], [ -54.274163321999893, -28.504428622 ], [ -54.26862748, -28.497987696999903 ], [ -54.265679143999897, -28.498665919 ], [ -54.260747529, -28.495616192999904 ], [ -54.259032754, -28.496268104 ], [ -54.255991029, -28.492307143999898 ], [ -54.256868363, -28.489947276999903 ], [ -54.272242651999896, -28.484036488999909 ], [ -54.277922286, -28.48516684 ], [ -54.27928401, -28.4793944749999 ], [ -54.274826231, -28.474455776 ], [ -54.283021765999898, -28.474380455999903 ], [ -54.288354769, -28.466171785 ], [ -54.295622943, -28.462784923999898 ], [ -54.297721361, -28.460047723999907 ], [ -54.305445102, -28.459194067999903 ], [ -54.306069599, -28.457464048 ], [ -54.303076405, -28.454741605 ], [ -54.300493280999902, -28.449550815999896 ], [ -54.296346662, -28.451214765 ], [ -54.29321229, -28.450265037999905 ], [ -54.294433593999891, -28.445670804 ], [ -54.293140078, -28.444174630999989 ], [ -54.282689564999899, -28.455904539 ], [ -54.280708273, -28.456262645 ], [ -54.278799721, -28.454416383 ], [ -54.283105209, -28.447158722 ], [ -54.288749116, -28.443042293 ], [ -54.290133604999902, -28.438307358 ], [ -54.295441324, -28.4423619 ], [ -54.302563147999891, -28.438194006999893 ], [ -54.308621608, -28.441082681999909 ], [ -54.308568116999901, -28.438588932999902 ], [ -54.30286359, -28.434895578999907 ], [ -54.302078744, -28.42937219 ], [ -54.295736927, -28.4311576119999 ], [ -54.293296309, -28.436675565 ], [ -54.29078852, -28.436636366 ], [ -54.28661747000001, -28.4335169669999 ], [ -54.284101184999898, -28.436667367 ], [ -54.280410114999896, -28.43839178299989 ], [ -54.276296419999895, -28.437337657999898 ], [ -54.273665219999891, -28.4387460149999 ], [ -54.272915209, -28.440758735 ], [ -54.265695278, -28.439436417 ], [ -54.262320925, -28.4438750589999 ], [ -54.256895726, -28.445773512999899 ], [ -54.246743040999895, -28.44182746 ], [ -54.240805055, -28.441902747 ], [ -54.237201566999893, -28.440663055999899 ], [ -54.236773797999895, -28.441830275 ], [ -54.230316159, -28.443115986 ], [ -54.226695201, -28.447130219 ], [ -54.223142728, -28.44737494 ], [ -54.220953209, -28.451380782999902 ], [ -54.216130478, -28.454706786 ], [ -54.208083479, -28.446719475999888 ], [ -54.207109069999902, -28.443079490999907 ], [ -54.20003971700001, -28.441372164 ], [ -54.19975680200001, -28.445806502999989 ], [ -54.18684172, -28.458031506999905 ], [ -54.178784704, -28.455190606 ], [ -54.175401156, -28.457142704 ], [ -54.172252926999903, -28.461649007999902 ], [ -54.156996811999903, -28.465007714 ], [ -54.157498528, -28.458858113 ], [ -54.152295771, -28.459466617 ], [ -54.150622472, -28.461800394 ], [ -54.141733216, -28.465808192999901 ], [ -54.138977973999893, -28.465877792 ], [ -54.137905625, -28.475611268 ], [ -54.140539563999901, -28.482130074999905 ], [ -54.137846188, -28.48562666 ], [ -54.128014024, -28.490119318 ] ] ] } }
]
}
