{
"type": "FeatureCollection",
"name": "bairros_faxinal_do_soturno",
"crs": { "type": "name", "properties": { "name": "urn:ogc:def:crs:OGC:1.3:CRS84" } },
"features": [
{ "type": "Feature", "properties": { "code_muni": 4308003.0, "name_muni": "Faxinal do Soturno", "code_state": 43.0, "abbrev_state": "RS", "name_state": "Rio Grande do Sul", "code_region": 4.0, "name_region": "Sul", "year": 2022.0 }, "geometry": { "type": "Polygon", "coordinates": [ [ [ -53.428659647, -29.505093469 ], [ -53.418222057, -29.5049706369999 ], [ -53.418087092999897, -29.498091202999902 ], [ -53.407512821999902, -29.4981879649999 ], [ -53.407270421, -29.492528642 ], [ -53.396796498, -29.492666503 ], [ -53.396675664999989, -29.488867932999906 ], [ -53.386532687999903, -29.489075954999986 ], [ -53.38723282, -29.536516366999901 ], [ -53.378647617999903, -29.536794963 ], [ -53.379189864999894, -29.546656925999986 ], [ -53.373548676, -29.5467351 ], [ -53.373722254, -29.55506350699989 ], [ -53.372499849, -29.555174114 ], [ -53.372831468999898, -29.567639527 ], [ -53.3799767, -29.566666294 ], [ -53.380156090999897, -29.576326245 ], [ -53.383216584, -29.576262008999901 ], [ -53.383021196, -29.589382573 ], [ -53.375989005999891, -29.602425137 ], [ -53.404089496, -29.610645459 ], [ -53.410463749, -29.601404557 ], [ -53.413477955, -29.599475625 ], [ -53.416611631, -29.600085742 ], [ -53.420267693, -29.59907243 ], [ -53.422459803, -29.601154178999892 ], [ -53.422291500999989, -29.602971238999903 ], [ -53.424443154, -29.603836708999893 ], [ -53.426166301, -29.603263198 ], [ -53.431697551, -29.596093402 ], [ -53.435357769999897, -29.599284525 ], [ -53.441872445999898, -29.596134767 ], [ -53.449628877, -29.600521747 ], [ -53.451472897, -29.593407038999899 ], [ -53.453522135, -29.5931728159999 ], [ -53.454694878999902, -29.5895041479999 ], [ -53.45980349, -29.589461883 ], [ -53.463724587999899, -29.585604912 ], [ -53.469219122, -29.589094800999895 ], [ -53.477391651999902, -29.612406806 ], [ -53.4871645489999, -29.6140705779999 ], [ -53.488257358999903, -29.615203365999893 ], [ -53.486458888999898, -29.622314247 ], [ -53.483791981, -29.626338231 ], [ -53.487272893999901, -29.625913293999901 ], [ -53.490075619, -29.621544243 ], [ -53.495642642, -29.620998982999893 ], [ -53.500353527999899, -29.617337904999903 ], [ -53.505945649, -29.618785118999902 ], [ -53.509213798, -29.623628176 ], [ -53.510562469, -29.623809074999905 ], [ -53.515071356, -29.621062394 ], [ -53.516378236, -29.612689937 ], [ -53.522735119999894, -29.607835098999896 ], [ -53.524291182999896, -29.608221387999901 ], [ -53.526781608, -29.613906535999902 ], [ -53.529594221, -29.615416788999894 ], [ -53.530376025999892, -29.595984805999908 ], [ -53.536856496, -29.591941630999901 ], [ -53.549726977, -29.574350835 ], [ -53.548469914999892, -29.565077942999896 ], [ -53.549675196, -29.560434184 ], [ -53.5531903, -29.557522199999898 ], [ -53.551772145, -29.551991778999898 ], [ -53.557326380999896, -29.544664215999912 ], [ -53.568399708999891, -29.538443336999904 ], [ -53.564895712, -29.532994658 ], [ -53.558036957999903, -29.528184915999905 ], [ -53.559233938, -29.525903148999902 ], [ -53.5416674579999, -29.512652506999892 ], [ -53.537576842999989, -29.514920785999905 ], [ -53.529527511, -29.515575477 ], [ -53.525487577, -29.520162082999903 ], [ -53.526531519999899, -29.5254650259999 ], [ -53.525279359, -29.527643758 ], [ -53.522369825999903, -29.527309465 ], [ -53.513658075, -29.532512134999909 ], [ -53.516344556, -29.52858136 ], [ -53.518864976, -29.527436658999903 ], [ -53.518936184, -29.525904168 ], [ -53.514733147999891, -29.523193276 ], [ -53.513988726, -29.520963153 ], [ -53.507202384, -29.517142836999895 ], [ -53.50285702, -29.51836531 ], [ -53.494535530999897, -29.515330042999899 ], [ -53.491197472, -29.518779370999901 ], [ -53.492031987, -29.525232951 ], [ -53.477900871, -29.525511122999905 ], [ -53.479961534, -29.520523173 ], [ -53.476250377, -29.514075404 ], [ -53.47185901599989, -29.51755385 ], [ -53.464635857, -29.518289078999896 ], [ -53.453054763999901, -29.513613042 ], [ -53.439410916999989, -29.513991056999892 ], [ -53.439222313999892, -29.512279797 ], [ -53.428939359, -29.512405639 ], [ -53.428659647, -29.505093469 ] ] ] } }
]
}
