{
"type": "FeatureCollection",
"name": "bairros_herveiras",
"crs": { "type": "name", "properties": { "name": "urn:ogc:def:crs:OGC:1.3:CRS84" } },
"features": [
{ "type": "Feature", "properties": { "code_muni": 4309571.0, "name_muni": "Herveiras", "code_state": 43.0, "abbrev_state": "RS", "name_state": "Rio Grande do Sul", "code_region": 4.0, "name_region": "Sul", "year": 2022.0 }, "geometry": { "type": "Polygon", "coordinates": [ [ [ -52.566835024999897, -29.469418543 ], [ -52.571764592, -29.472868552999987 ], [ -52.588232616, -29.475360642999899 ], [ -52.606835191, -29.473755296 ], [ -52.607445168, -29.476351414999986 ], [ -52.612407587, -29.481449214999902 ], [ -52.611595322, -29.484074678999903 ], [ -52.60963443, -29.483890937999892 ], [ -52.607272919, -29.4868366339999 ], [ -52.610152137999897, -29.487967216 ], [ -52.614036719999895, -29.492973419 ], [ -52.628483872999908, -29.495127447 ], [ -52.634919527, -29.494413372999905 ], [ -52.644665320999891, -29.498052603000012 ], [ -52.647903519, -29.4970581319999 ], [ -52.651092914999893, -29.498418308999902 ], [ -52.659192886, -29.498743741999892 ], [ -52.6660039, -29.497403225 ], [ -52.667264611, -29.499733205 ], [ -52.669861951, -29.499150321999892 ], [ -52.670792306, -29.500802238999896 ], [ -52.675834386, -29.500186815999903 ], [ -52.677344734, -29.501184166 ], [ -52.680762501999901, -29.499924572999891 ], [ -52.681636601, -29.498130955 ], [ -52.681839187, -29.49180512 ], [ -52.679204004, -29.489999253999905 ], [ -52.680644515, -29.4897717969999 ], [ -52.681010288, -29.485895727 ], [ -52.682085028, -29.4857990319999 ], [ -52.681654079999895, -29.483561298 ], [ -52.67758035, -29.480506243 ], [ -52.677595643, -29.477739820999904 ], [ -52.673890193, -29.473984721 ], [ -52.674114548, -29.468946322 ], [ -52.682873258, -29.470298847 ], [ -52.681353029, -29.466191205 ], [ -52.68781068, -29.463834815 ], [ -52.689296094, -29.452948165999899 ], [ -52.70172385, -29.451770054 ], [ -52.706992968, -29.445397785999898 ], [ -52.713839060999902, -29.441836904999899 ], [ -52.717402421, -29.4417530969999 ], [ -52.717950658999897, -29.442993293 ], [ -52.719656405, -29.441529423 ], [ -52.718803599, -29.440163625 ], [ -52.722022667, -29.433822402 ], [ -52.724966067, -29.434582178 ], [ -52.727091231, -29.432773122999887 ], [ -52.731574789, -29.433423877999893 ], [ -52.736235736, -29.439229646999895 ], [ -52.739383296, -29.438168879999989 ], [ -52.741353364, -29.439225785 ], [ -52.742328353999902, -29.436222104 ], [ -52.74676532, -29.437497043 ], [ -52.749422879999898, -29.436793152 ], [ -52.751570709, -29.439838823999899 ], [ -52.755095428999901, -29.439280059999902 ], [ -52.756766097, -29.440729948 ], [ -52.769213126, -29.441262303 ], [ -52.769555231, -29.442552713999898 ], [ -52.770971914, -29.439904016999904 ], [ -52.773740731023103, -29.442692430855804 ], [ -52.775179591, -29.438185174999902 ], [ -52.769909220625394, -29.4233188695008 ], [ -52.761849592468899, -29.420075187870097 ], [ -52.759843538272591, -29.4180089343423 ], [ -52.768544112253501, -29.412288227274299 ], [ -52.7571026981175, -29.407443951651299 ], [ -52.756887061, -29.402031560999912 ], [ -52.75265526, -29.402620682 ], [ -52.750978453, -29.399872613 ], [ -52.748758713, -29.401251808 ], [ -52.745501631, -29.401432279999895 ], [ -52.744695642, -29.399607927 ], [ -52.739149515, -29.400765259 ], [ -52.737033127, -29.397018784999894 ], [ -52.734694931, -29.400964804999902 ], [ -52.729821736, -29.399445387999897 ], [ -52.725105224999901, -29.400243796 ], [ -52.724152301999894, -29.397591629 ], [ -52.720327453, -29.398852137999896 ], [ -52.719173560999891, -29.394735762999986 ], [ -52.715391763999889, -29.398558405999907 ], [ -52.710990293, -29.3978177239999 ], [ -52.705445357, -29.400890538999899 ], [ -52.702478948, -29.4013803839999 ], [ -52.696797112999896, -29.398670197999895 ], [ -52.69213082999989, -29.400597303000012 ], [ -52.682005519, -29.398048495999909 ], [ -52.675075083, -29.398563429 ], [ -52.675207059999899, -29.396807536 ], [ -52.672040731, -29.396742659 ], [ -52.668608837, -29.392862068999886 ], [ -52.662791528, -29.393522789 ], [ -52.659772904, -29.395716041 ], [ -52.655854152, -29.391289908 ], [ -52.652229019999893, -29.390248427999907 ], [ -52.64801463, -29.394350687999985 ], [ -52.641622308, -29.397948035 ], [ -52.639682216, -29.401585157999897 ], [ -52.637578123, -29.402442264999902 ], [ -52.6354270799999, -29.406426254999904 ], [ -52.631966986, -29.409194347 ], [ -52.632375291, -29.411946169 ], [ -52.629995137, -29.414003642999901 ], [ -52.630726876, -29.416686629 ], [ -52.628591446, -29.418926997 ], [ -52.626950977, -29.418303029 ], [ -52.627888586, -29.420079789999903 ], [ -52.625746557999896, -29.4223407879999 ], [ -52.623838669, -29.422515937999904 ], [ -52.622926237999899, -29.424835585 ], [ -52.619874095999897, -29.424342161 ], [ -52.619403715, -29.426507598999905 ], [ -52.615981179999892, -29.424749193 ], [ -52.613382727, -29.426289923 ], [ -52.614127418, -29.431256183999903 ], [ -52.611279517, -29.429905942999898 ], [ -52.608237081, -29.436628657 ], [ -52.604598392999897, -29.438757283 ], [ -52.604529322, -29.4413201469999 ], [ -52.602205674999901, -29.442997021999897 ], [ -52.603933534, -29.445839417999899 ], [ -52.601269419999895, -29.446552036999893 ], [ -52.600775085999899, -29.447871031 ], [ -52.603235535999893, -29.448860232999905 ], [ -52.602971276999902, -29.450241182 ], [ -52.600534158999899, -29.450704496 ], [ -52.59996047899989, -29.452394291000012 ], [ -52.596683852, -29.450482669999904 ], [ -52.596809478, -29.454163388 ], [ -52.594683823, -29.455505747 ], [ -52.590459153, -29.45379053100001 ], [ -52.588726017999903, -29.457826805 ], [ -52.584588134999898, -29.460033447999908 ], [ -52.583501305, -29.463460427 ], [ -52.580311405, -29.465681521 ], [ -52.571301790999897, -29.465798016 ], [ -52.570442531, -29.469282339 ], [ -52.566835024999897, -29.469418543 ] ] ] } }
]
}
