{
"type": "FeatureCollection",
"name": "bairros_jacutinga",
"crs": { "type": "name", "properties": { "name": "urn:ogc:def:crs:OGC:1.3:CRS84" } },
"features": [
{ "type": "Feature", "properties": { "code_muni": 4310900.0, "name_muni": "Jacutinga", "code_state": 43.0, "abbrev_state": "RS", "name_state": "Rio Grande do Sul", "code_region": 4.0, "name_region": "Sul", "year": 2022.0 }, "geometry": { "type": "Polygon", "coordinates": [ [ [ -52.519543728, -27.69202567 ], [ -52.517596157, -27.69945009 ], [ -52.514728131, -27.700994667 ], [ -52.511799601, -27.700715118999902 ], [ -52.512634519, -27.694849642 ], [ -52.511061256999902, -27.691391621 ], [ -52.501308491, -27.693135137 ], [ -52.496936284, -27.695161997999893 ], [ -52.498078487, -27.698083176999894 ], [ -52.507536129999892, -27.703535637999899 ], [ -52.507449847, -27.705777656 ], [ -52.503503657, -27.707691107999892 ], [ -52.507912765, -27.714455793999903 ], [ -52.50031722499989, -27.712763257999899 ], [ -52.495523332999895, -27.714865776999893 ], [ -52.490178783, -27.715335406 ], [ -52.491928043, -27.717916793 ], [ -52.494376884, -27.716160643 ], [ -52.493512630999902, -27.719056414 ], [ -52.495250179, -27.722131152 ], [ -52.492589725999899, -27.725032639999895 ], [ -52.490497702, -27.723177423 ], [ -52.491386485, -27.720865683999904 ], [ -52.490324789999903, -27.719754297999899 ], [ -52.488241248999891, -27.72060221 ], [ -52.48590955, -27.718783107 ], [ -52.482796349999902, -27.719417392 ], [ -52.482209508, -27.720829819 ], [ -52.484746351999902, -27.722100801 ], [ -52.48468983, -27.724502387 ], [ -52.481748798999902, -27.723164009999902 ], [ -52.479775391, -27.725570418 ], [ -52.481077617, -27.7270603179999 ], [ -52.478968847, -27.727680356 ], [ -52.479013449, -27.72894646 ], [ -52.474755107, -27.727890392999896 ], [ -52.472297548, -27.729827552 ], [ -52.474055979, -27.734195852 ], [ -52.472171102999894, -27.733313096999989 ], [ -52.472348074, -27.73505245 ], [ -52.470418005999903, -27.73510182 ], [ -52.469246164, -27.737334403 ], [ -52.466984985, -27.738079492999901 ], [ -52.465697964999897, -27.737253716999902 ], [ -52.457591791, -27.742496661 ], [ -52.457323818, -27.744676851999898 ], [ -52.46085698, -27.747997383 ], [ -52.460402590999898, -27.750717887999901 ], [ -52.461537106, -27.750311559999904 ], [ -52.462419907, -27.753725261999904 ], [ -52.467855018, -27.754417911 ], [ -52.473979658, -27.758862409 ], [ -52.477695626, -27.756132373 ], [ -52.482525449, -27.765533056 ], [ -52.487720317, -27.768980701 ], [ -52.4904877929999, -27.769155423 ], [ -52.492238136, -27.767227238 ], [ -52.495407922, -27.767638909 ], [ -52.491377004999897, -27.769146062999901 ], [ -52.48718991, -27.774961818999898 ], [ -52.486661063, -27.779094312 ], [ -52.489100935, -27.779587278999902 ], [ -52.491653127999903, -27.78225179399989 ], [ -52.493272428999902, -27.7880800299999 ], [ -52.493016586, -27.793995627 ], [ -52.496202148, -27.798915931 ], [ -52.494695168, -27.806563149999899 ], [ -52.505490509, -27.815314864 ], [ -52.512154274, -27.824981181999885 ], [ -52.521251396, -27.831728143 ], [ -52.526361482, -27.832658234999894 ], [ -52.525979906000011, -27.839639344 ], [ -52.536464577999894, -27.844686555999896 ], [ -52.541559486, -27.850752749 ], [ -52.5470489799999, -27.853211314 ], [ -52.550229504, -27.85817614 ], [ -52.552237115, -27.858657445999896 ], [ -52.552321667999905, -27.860992431999893 ], [ -52.556748818999893, -27.860394051 ], [ -52.55905562, -27.864042873 ], [ -52.560964936999895, -27.864456103 ], [ -52.561687628999898, -27.869783859999899 ], [ -52.560000889, -27.872842972999901 ], [ -52.560907132, -27.875305873999906 ], [ -52.564224243, -27.876016993 ], [ -52.566667631, -27.878286938 ], [ -52.569340832, -27.878122166 ], [ -52.570893153, -27.881781827999902 ], [ -52.573373397999895, -27.882544981 ], [ -52.575151196, -27.880927617999905 ], [ -52.574661218, -27.877953058999893 ], [ -52.577650954, -27.875813197 ], [ -52.578669936, -27.878224063999902 ], [ -52.580629848999891, -27.8763985689999 ], [ -52.583807120999893, -27.877789370999903 ], [ -52.58533993, -27.881201334 ], [ -52.58890636599989, -27.881105939999905 ], [ -52.590498254, -27.886253966 ], [ -52.59290587, -27.885090809 ], [ -52.593894499, -27.885932011 ], [ -52.595438148, -27.882983468 ], [ -52.597497792, -27.884076163 ], [ -52.599084801999908, -27.881821394999989 ], [ -52.609819805, -27.879142851 ], [ -52.606439252, -27.875784005999904 ], [ -52.600544966, -27.876731219 ], [ -52.599776888, -27.875333987 ], [ -52.607232994, -27.869624352999903 ], [ -52.616389572999893, -27.868759221999891 ], [ -52.619062991, -27.874874301 ], [ -52.620024616, -27.8756833059999 ], [ -52.62333954799989, -27.874706827999905 ], [ -52.624990649, -27.871584412999908 ], [ -52.624832413, -27.865377242 ], [ -52.62637565099989, -27.864189930999903 ], [ -52.6290614179999, -27.866617504 ], [ -52.635091283, -27.879255416 ], [ -52.639103879999901, -27.879498071999901 ], [ -52.647614995, -27.876352669 ], [ -52.648516007999902, -27.873062902999898 ], [ -52.643979545, -27.869482495999897 ], [ -52.644732883, -27.865496573 ], [ -52.6431818, -27.857137384999898 ], [ -52.645535901999892, -27.852689891999894 ], [ -52.640093236, -27.849552499 ], [ -52.631718426, -27.841829537 ], [ -52.622036668, -27.841382259999897 ], [ -52.619229699999892, -27.837521493999908 ], [ -52.613533101, -27.8384243849999 ], [ -52.610714276, -27.837196971 ], [ -52.605229689999895, -27.83906073 ], [ -52.605846444, -27.83782909 ], [ -52.60423581, -27.83802845 ], [ -52.598581441, -27.830181255999896 ], [ -52.593844296, -27.8288050039999 ], [ -52.591472845999903, -27.819693511 ], [ -52.588873698, -27.816289909 ], [ -52.583879683, -27.816539243 ], [ -52.583349982999891, -27.81324426 ], [ -52.577390083999902, -27.806697745999902 ], [ -52.574344926, -27.805562923 ], [ -52.57320743, -27.803216198 ], [ -52.578514551999895, -27.801244476 ], [ -52.595264740999902, -27.801967046999899 ], [ -52.595184957, -27.78678423 ], [ -52.589662382, -27.782884446 ], [ -52.587610884, -27.779255439999908 ], [ -52.579293309, -27.775616294 ], [ -52.582971332999897, -27.772562962999899 ], [ -52.58449409, -27.767401498 ], [ -52.57334205, -27.756750538999896 ], [ -52.574231692999895, -27.743826079 ], [ -52.565789660999897, -27.728470200999901 ], [ -52.566080639999903, -27.724060347 ], [ -52.564326039, -27.719192604999893 ], [ -52.559596713, -27.714912867999892 ], [ -52.56104985799989, -27.706801470999896 ], [ -52.559212374, -27.701794763 ], [ -52.56002324, -27.694170203999906 ], [ -52.561379619, -27.690008702999904 ], [ -52.563626314, -27.689154127999899 ], [ -52.556819985999894, -27.690039777 ], [ -52.551986224, -27.692174576 ], [ -52.549585002999898, -27.687449671 ], [ -52.546902561, -27.686828791 ], [ -52.545468656, -27.691446761999906 ], [ -52.5477815469999, -27.693952192 ], [ -52.546633595999893, -27.694812622 ], [ -52.542399535999898, -27.690468956 ], [ -52.542661997, -27.686966507 ], [ -52.535358545, -27.687723166999902 ], [ -52.525470798999891, -27.681684269 ], [ -52.524238389999894, -27.685807011 ], [ -52.528449096, -27.688499865 ], [ -52.525703184999891, -27.692307890999899 ], [ -52.524343367, -27.701520587999905 ], [ -52.522703916999902, -27.701513037 ], [ -52.522105513, -27.696107673 ], [ -52.519543728, -27.69202567 ] ] ] } }
]
}
