{
"type": "FeatureCollection",
"name": "bairros_derrubadas",
"crs": { "type": "name", "properties": { "name": "urn:ogc:def:crs:OGC:1.3:CRS84" } },
"features": [
{ "type": "Feature", "properties": { "code_muni": 4306320.0, "name_muni": "Derrubadas", "code_state": 43.0, "abbrev_state": "RS", "name_state": "Rio Grande do Sul", "code_region": 4.0, "name_region": "Sul", "year": 2022.0 }, "geometry": { "type": "Polygon", "coordinates": [ [ [ -53.911647887999898, -27.325471561 ], [ -53.932347662, -27.322040245 ], [ -53.935112612, -27.317720594 ], [ -53.936317814999903, -27.309151412999903 ], [ -53.94664319799989, -27.321239638 ], [ -53.953421587, -27.319640201 ], [ -53.952939036, -27.311484532 ], [ -53.937566389, -27.305785806999893 ], [ -53.932204156999902, -27.29881362 ], [ -53.9324611219999, -27.2965224 ], [ -53.94803625, -27.297984722 ], [ -53.958454645, -27.302397621999898 ], [ -53.961543364, -27.301043913999898 ], [ -53.968968751, -27.292559928999896 ], [ -53.975769274999898, -27.2911660689999 ], [ -53.980808351999897, -27.281839915 ], [ -53.989899637999898, -27.282464467999908 ], [ -53.989951259999899, -27.281242538 ], [ -53.982155979, -27.274028379999894 ], [ -53.982523946999891, -27.271854393 ], [ -53.995124018, -27.272392365 ], [ -54.001619038999891, -27.273990701999892 ], [ -54.001317039, -27.272260683999896 ], [ -53.991295690999898, -27.267263479999894 ], [ -53.994688149, -27.263346053 ], [ -53.998057086, -27.262672901999988 ], [ -54.001515896999898, -27.264708867 ], [ -54.012256055, -27.274486528999901 ], [ -54.025485874, -27.279863421 ], [ -54.02885637299989, -27.280115454999905 ], [ -54.030618917, -27.276640600999901 ], [ -54.027559206, -27.270712959 ], [ -54.031139364999895, -27.270479372999901 ], [ -54.042876098, -27.276492086 ], [ -54.049680527, -27.2767966719999 ], [ -54.052786725, -27.273526816 ], [ -54.051654071, -27.265919473999894 ], [ -54.05501758, -27.263977930999896 ], [ -54.047242555, -27.259480903999894 ], [ -54.027776831, -27.254853685999898 ], [ -54.024389745999898, -27.251654309999896 ], [ -54.015909063, -27.233007389 ], [ -54.016485713999899, -27.216313241 ], [ -54.014980405999893, -27.208110409 ], [ -54.012266353, -27.202557677 ], [ -54.008017287, -27.198394644 ], [ -54.001065516, -27.196315243999905 ], [ -53.992129653999896, -27.195938 ], [ -53.967744254, -27.198903081 ], [ -53.963287249, -27.197740493 ], [ -53.9601656, -27.195336289999894 ], [ -53.955582909, -27.183717037999894 ], [ -53.955202722, -27.178481088999899 ], [ -53.960710671, -27.165109774 ], [ -53.959847351999898, -27.16013792 ], [ -53.953099683999895, -27.152939449 ], [ -53.946584532, -27.151259281 ], [ -53.933579989, -27.155862971 ], [ -53.92903656499989, -27.158967833 ], [ -53.916898483, -27.174752369 ], [ -53.910233804, -27.176294346 ], [ -53.905039460999895, -27.175438056 ], [ -53.897746914, -27.170331125 ], [ -53.888278640999893, -27.154491246 ], [ -53.885003238, -27.135403348 ], [ -53.881756772999893, -27.129708788999899 ], [ -53.8751521189999, -27.125878429999901 ], [ -53.869897593, -27.125197488 ], [ -53.864317237, -27.126247549 ], [ -53.858630674, -27.132617906 ], [ -53.847798554999898, -27.156505555 ], [ -53.841596529, -27.165611468 ], [ -53.82964314, -27.172627506 ], [ -53.8196548559999, -27.175653585 ], [ -53.816856895999905, -27.178285238999894 ], [ -53.813103985999909, -27.178921945999893 ], [ -53.806926893, -27.176769304999894 ], [ -53.802321291999895, -27.17740545 ], [ -53.800211154999893, -27.181437412 ], [ -53.802858796999892, -27.1850654839999 ], [ -53.805518978, -27.185635046999899 ], [ -53.807322416, -27.187955083 ], [ -53.807034014, -27.200722832999897 ], [ -53.805316655999903, -27.203351155999897 ], [ -53.803676160999899, -27.203541996 ], [ -53.801744276, -27.198990833 ], [ -53.794386293999892, -27.197478525999902 ], [ -53.79449421, -27.208528509 ], [ -53.793363064999902, -27.211066389999903 ], [ -53.784164207999893, -27.208549983 ], [ -53.779541385, -27.209000338999907 ], [ -53.777482248, -27.212557316999902 ], [ -53.777450318, -27.215927076999897 ], [ -53.779502964999899, -27.216211890999897 ], [ -53.786254726, -27.212730708 ], [ -53.787691799, -27.213439525 ], [ -53.78062163, -27.221263846999893 ], [ -53.788241179999893, -27.222913546 ], [ -53.7848278989999, -27.229814911999895 ], [ -53.788973822999893, -27.2342974439999 ], [ -53.786690522, -27.236188257 ], [ -53.778849099, -27.237036143 ], [ -53.777187405999896, -27.236446907999898 ], [ -53.775369057, -27.23292981 ], [ -53.769973063, -27.232782975 ], [ -53.769372171, -27.240710127999897 ], [ -53.774828687, -27.242078116999902 ], [ -53.775308447, -27.24652171 ], [ -53.772793905, -27.253648003 ], [ -53.767759413, -27.254480836 ], [ -53.763108207999899, -27.2607261909999 ], [ -53.768123446999901, -27.259591171999901 ], [ -53.772865978, -27.2653909369999 ], [ -53.777734112, -27.265156893 ], [ -53.780970411999903, -27.268447852 ], [ -53.781252201, -27.269984279 ], [ -53.777126433, -27.273121936999896 ], [ -53.779361082, -27.274854589 ], [ -53.779304523, -27.277411164999904 ], [ -53.78384226299989, -27.279593174 ], [ -53.780171793, -27.280652356 ], [ -53.780761391999896, -27.284384944 ], [ -53.776948213, -27.284988977999898 ], [ -53.780514458, -27.28719842 ], [ -53.779610549, -27.290208497 ], [ -53.784309877999895, -27.291110158 ], [ -53.785495521, -27.295441066 ], [ -53.78304509, -27.297926259999898 ], [ -53.785967567999897, -27.302125813 ], [ -53.797021786999892, -27.303638291 ], [ -53.80219277, -27.307244535999899 ], [ -53.813070040999897, -27.307414724 ], [ -53.820970300999903, -27.3124626809999 ], [ -53.822433055, -27.318568995 ], [ -53.824310629, -27.319952455 ], [ -53.8294801219999, -27.321377586 ], [ -53.830375766, -27.320381208999894 ], [ -53.833383060999893, -27.321951958999897 ], [ -53.838443949999892, -27.320307286999896 ], [ -53.841644812, -27.322110043 ], [ -53.843912732, -27.320153079 ], [ -53.845816409999898, -27.321425937999901 ], [ -53.848412025, -27.320250485 ], [ -53.851435672, -27.324243007999904 ], [ -53.860742316, -27.321799524 ], [ -53.863877749, -27.323783310999897 ], [ -53.869647807, -27.322976771999897 ], [ -53.876065250999893, -27.324266671 ], [ -53.877987264, -27.326692425 ], [ -53.879622200999989, -27.32483459 ], [ -53.885290313, -27.325101727999904 ], [ -53.8892154279999, -27.323277490999896 ], [ -53.890814866, -27.327781758 ], [ -53.895122046, -27.331623954999888 ], [ -53.900405884, -27.328121586 ], [ -53.903605550999899, -27.332700395 ], [ -53.905873907999897, -27.333121412 ], [ -53.911647887999898, -27.325471561 ] ] ] } }
]
}
