{
"type": "FeatureCollection",
"name": "bairros_sede_nova",
"crs": { "type": "name", "properties": { "name": "urn:ogc:def:crs:OGC:1.3:CRS84" } },
"features": [
{ "type": "Feature", "properties": { "code_muni": 4320230.0, "name_muni": "Sede Nova", "code_state": 43.0, "abbrev_state": "RS", "name_state": "Rio Grande do Sul", "code_region": 4.0, "name_region": "Sul", "year": 2022.0 }, "geometry": { "type": "Polygon", "coordinates": [ [ [ -53.973166288999892, -27.66661155 ], [ -53.982872452, -27.670581895999895 ], [ -53.985941382, -27.664342064 ], [ -53.988026336, -27.663222366 ], [ -53.995177694999903, -27.664127016 ], [ -53.995612454, -27.6652379 ], [ -54.001582159999892, -27.6625848689999 ], [ -54.002454875999902, -27.666207137999901 ], [ -54.004655227999891, -27.664771344 ], [ -54.008175422, -27.667306959 ], [ -54.01141157, -27.6659440879999 ], [ -54.013697174999891, -27.6664239639999 ], [ -54.012844340999898, -27.671343092 ], [ -54.015016628999895, -27.67246818 ], [ -54.0189352579999, -27.666762655 ], [ -54.021763909999891, -27.66588329 ], [ -54.029898113999892, -27.666840948 ], [ -54.031405349999901, -27.668932286 ], [ -54.033665812, -27.668104677 ], [ -54.033787173999897, -27.662434338 ], [ -54.037695808, -27.6583362229999 ], [ -54.03741237, -27.65548696 ], [ -54.029311799, -27.64315913 ], [ -54.033119101999901, -27.640469077 ], [ -54.03553346, -27.633075889999905 ], [ -54.030320788, -27.6310692509999 ], [ -54.031446355, -27.62708844 ], [ -54.021830597, -27.624007629999898 ], [ -54.011949184999899, -27.623320287999892 ], [ -54.008666438, -27.621639328 ], [ -54.006869974, -27.618881638999902 ], [ -54.007273003, -27.616013734 ], [ -54.003971269, -27.613534021 ], [ -54.005336816, -27.6122895399999 ], [ -54.001468922999898, -27.607403936 ], [ -54.020117024999898, -27.600069420999898 ], [ -54.021644105, -27.592716265 ], [ -54.019987782, -27.591178786999901 ], [ -54.009010447, -27.591272882999899 ], [ -54.006377808, -27.587457588999904 ], [ -53.991634594999894, -27.594910583999901 ], [ -53.983623311, -27.590296692 ], [ -53.979525054, -27.591757168 ], [ -53.9760726499999, -27.594378150999898 ], [ -53.977956175, -27.6016591929999 ], [ -53.9748699639999, -27.604971453 ], [ -53.973381619999898, -27.610283718999899 ], [ -53.952958575, -27.606260728999903 ], [ -53.949844578999894, -27.608588783 ], [ -53.943595629999891, -27.605921539 ], [ -53.942528954999894, -27.60008425 ], [ -53.935538967999904, -27.592638013999892 ], [ -53.9318050689999, -27.598288092 ], [ -53.932947898, -27.599537598 ], [ -53.931163383999895, -27.60233873899989 ], [ -53.928593398, -27.600942298999907 ], [ -53.922051307999901, -27.601620107 ], [ -53.909243056, -27.592354394 ], [ -53.899547238, -27.593062435 ], [ -53.895268921, -27.600454606 ], [ -53.892732654, -27.6023901639999 ], [ -53.89647093699989, -27.607290431 ], [ -53.897642194999889, -27.616858737 ], [ -53.900962636, -27.621895733 ], [ -53.90041404, -27.623553982 ], [ -53.891904499, -27.627733921999905 ], [ -53.891394186999889, -27.6314975 ], [ -53.881194225999899, -27.637873724 ], [ -53.881114415999896, -27.642338800999902 ], [ -53.883212922, -27.648154835 ], [ -53.88997280199991, -27.657656453 ], [ -53.889797783999896, -27.661388689 ], [ -53.881492123, -27.659506625999903 ], [ -53.885238358, -27.6668978189999 ], [ -53.881336714, -27.670150431 ], [ -53.890896069, -27.677051795999901 ], [ -53.886510658, -27.680351092 ], [ -53.895185053, -27.687421078999893 ], [ -53.897010515, -27.686649987 ], [ -53.898985126, -27.692318563999905 ], [ -53.902655787999898, -27.69604994 ], [ -53.909097252, -27.690378172999903 ], [ -53.913990861999899, -27.690202621 ], [ -53.916751608, -27.692544251999905 ], [ -53.922877899999897, -27.692611869 ], [ -53.933268853, -27.688285704999906 ], [ -53.933480752, -27.686572133000013 ], [ -53.936840577999902, -27.686042186 ], [ -53.939241503999902, -27.687130662999895 ], [ -53.942623861999898, -27.686138552999989 ], [ -53.942822142, -27.688874739 ], [ -53.944242881, -27.689954599 ], [ -53.948935720999899, -27.68753344 ], [ -53.949697280999899, -27.684803029 ], [ -53.955561057, -27.686263326999899 ], [ -53.958678184, -27.683839518 ], [ -53.960123871, -27.680673386 ], [ -53.965047479, -27.680178391 ], [ -53.965620736999895, -27.678481100999903 ], [ -53.962591529999898, -27.676645715999896 ], [ -53.96305713999989, -27.6756134829999 ], [ -53.973401393999893, -27.670957609 ], [ -53.971680278, -27.667171652 ], [ -53.973166288999892, -27.66661155 ] ] ] } }
]
}
