{
"type": "FeatureCollection",
"name": "bairros_boa_vista_do_incra",
"crs": { "type": "name", "properties": { "name": "urn:ogc:def:crs:OGC:1.3:CRS84" } },
"features": [
{ "type": "Feature", "properties": { "code_muni": 4302238.0, "name_muni": "Boa Vista do Incra", "code_state": 43.0, "abbrev_state": "RS", "name_state": "Rio Grande do Sul", "code_region": 4.0, "name_region": "Sul", "year": 2022.0 }, "geometry": { "type": "Polygon", "coordinates": [ [ [ -53.377159774999903, -28.788472351999896 ], [ -53.372418507, -28.78501512 ], [ -53.373915971, -28.779726170999904 ], [ -53.371390735, -28.777078444 ], [ -53.367795793, -28.777204067999907 ], [ -53.368332054999897, -28.775251673 ], [ -53.3668915, -28.773437857 ], [ -53.364110211000011, -28.773786327 ], [ -53.363737818999901, -28.777337583 ], [ -53.360593621, -28.777083918 ], [ -53.357991639, -28.780433968 ], [ -53.356547539, -28.779027189 ], [ -53.356709792999901, -28.773856452 ], [ -53.352518843, -28.777396493 ], [ -53.34984339399989, -28.77670024 ], [ -53.348548035, -28.777546518999891 ], [ -53.353584574, -28.781099520999899 ], [ -53.349178514, -28.784928481 ], [ -53.347695931, -28.785342931999903 ], [ -53.345184281999899, -28.783425233999907 ], [ -53.341107658999896, -28.783211141 ], [ -53.337372629999891, -28.781288843999988 ], [ -53.33419115, -28.784698533 ], [ -53.329902263, -28.786677938 ], [ -53.330558716, -28.793623399999905 ], [ -53.333006441999906, -28.796244088 ], [ -53.32854843, -28.802508884 ], [ -53.324381329999895, -28.798409806999903 ], [ -53.319535666, -28.799231986999903 ], [ -53.318972588, -28.805823753 ], [ -53.316048326, -28.807469062999907 ], [ -53.314589762, -28.806343808 ], [ -53.313810895, -28.800524706 ], [ -53.309291809999898, -28.802307331 ], [ -53.307838594, -28.804352384 ], [ -53.311671044, -28.8037736859999 ], [ -53.311408339, -28.805422548 ], [ -53.3136128639999, -28.807718440999988 ], [ -53.308582714999893, -28.810840546 ], [ -53.309438638, -28.811838479 ], [ -53.310798357, -28.81087268999989 ], [ -53.310677106999897, -28.816342232 ], [ -53.308328323, -28.818300184999892 ], [ -53.306941133999892, -28.818030153999892 ], [ -53.305893346999902, -28.820503621999901 ], [ -53.3066483919999, -28.82296845 ], [ -53.304862811, -28.822133406 ], [ -53.303900810999892, -28.822934811 ], [ -53.306707366999902, -28.824726735999892 ], [ -53.310053007, -28.821587529999888 ], [ -53.310712617, -28.824195275 ], [ -53.31236145, -28.824915213999901 ], [ -53.308647056, -28.829127136999908 ], [ -53.305784918, -28.828722591 ], [ -53.304935287, -28.826184850999898 ], [ -53.303679062999898, -28.826286382 ], [ -53.302154139, -28.830219456999892 ], [ -53.304086578999893, -28.835986351 ], [ -53.29679278, -28.836167655999891 ], [ -53.29212497, -28.840144902 ], [ -53.301017472999895, -28.839387081 ], [ -53.309911036, -28.840493355 ], [ -53.310308146999894, -28.843405232 ], [ -53.30619687, -28.844149555999902 ], [ -53.308154402999889, -28.846623857999891 ], [ -53.305773684, -28.8465829629999 ], [ -53.305638895999891, -28.847696304999907 ], [ -53.301682047, -28.848990559 ], [ -53.298925278, -28.848274365999906 ], [ -53.29980728, -28.845663757999905 ], [ -53.297439689, -28.845613492999988 ], [ -53.296631528, -28.846903332 ], [ -53.294606234999897, -28.846053283999897 ], [ -53.296238172999892, -28.84801822 ], [ -53.291894748999901, -28.854533617999902 ], [ -53.296086977999892, -28.856735956 ], [ -53.29731038700001, -28.863193447999908 ], [ -53.299738300999906, -28.8626545659999 ], [ -53.300265193, -28.859104671 ], [ -53.305139997, -28.859650937000012 ], [ -53.30467126699989, -28.861171489999897 ], [ -53.307279537999889, -28.866519100999898 ], [ -53.310914620999895, -28.868407748 ], [ -53.310390436, -28.870327512999896 ], [ -53.315678931, -28.870260086 ], [ -53.316331979, -28.871599471 ], [ -53.317698869, -28.871040315 ], [ -53.322119778999898, -28.873303786999898 ], [ -53.326195432, -28.867458107999898 ], [ -53.327665544, -28.867733213 ], [ -53.329180719, -28.864915482999905 ], [ -53.330865138, -28.864883369 ], [ -53.332659632999899, -28.86718222 ], [ -53.331078831999896, -28.867206493 ], [ -53.330827854999903, -28.869942839 ], [ -53.333356464, -28.868801796999897 ], [ -53.336752552, -28.871224135 ], [ -53.338528145999902, -28.869301157999899 ], [ -53.34018572, -28.86961509 ], [ -53.340208070999893, -28.8716102509999 ], [ -53.342173305999893, -28.869061039 ], [ -53.346538097, -28.870035465999901 ], [ -53.346625941, -28.868575257 ], [ -53.348600121999901, -28.868704489 ], [ -53.346953315, -28.867041989 ], [ -53.349142916999902, -28.866630797 ], [ -53.350260867, -28.871651211 ], [ -53.352626917999892, -28.870152479999899 ], [ -53.355306213999896, -28.870644431999903 ], [ -53.353611265, -28.874460984999896 ], [ -53.356913386, -28.874281362 ], [ -53.35673386, -28.875667856 ], [ -53.360837774999901, -28.872891008 ], [ -53.35842876, -28.870965969999901 ], [ -53.359450847999895, -28.868485667 ], [ -53.363805895, -28.869990086 ], [ -53.36285813699989, -28.867681864 ], [ -53.365728877, -28.866491618999905 ], [ -53.36978869, -28.872385372999901 ], [ -53.376940213999895, -28.871881596 ], [ -53.382917319999898, -28.878162119 ], [ -53.384812317, -28.87806907 ], [ -53.386285239, -28.875302346999899 ], [ -53.387494762, -28.877169846 ], [ -53.391039892, -28.877538264 ], [ -53.392706695, -28.876044002999905 ], [ -53.396582049, -28.878846923 ], [ -53.398507148, -28.877530439999902 ], [ -53.39869285, -28.875046953 ], [ -53.401315159, -28.874095301 ], [ -53.403492822, -28.876205861 ], [ -53.406204253999903, -28.876210222999894 ], [ -53.405746735, -28.874137017 ], [ -53.408637913, -28.873573296 ], [ -53.414559803, -28.875892709 ], [ -53.415673291, -28.878157913999893 ], [ -53.414494481, -28.880382998999892 ], [ -53.417442525, -28.885020316999892 ], [ -53.421496087, -28.885594649 ], [ -53.424074527, -28.889732740999893 ], [ -53.424674185999891, -28.894692935 ], [ -53.428704994, -28.895304983999896 ], [ -53.428184495, -28.903916083 ], [ -53.422404661, -28.905359659999903 ], [ -53.415184483, -28.919353719 ], [ -53.412969134, -28.920815606 ], [ -53.404813426, -28.920562311 ], [ -53.392465367999897, -28.922876674999895 ], [ -53.388250418, -28.924968641 ], [ -53.385480249999894, -28.92882922 ], [ -53.386705513, -28.931457561999903 ], [ -53.384045954, -28.937440765 ], [ -53.381117751, -28.937318033999901 ], [ -53.380561163, -28.938295092 ], [ -53.378780696, -28.947629868 ], [ -53.385228936, -28.948047614 ], [ -53.397808019, -28.957862276999894 ], [ -53.397052354, -28.969239962999904 ], [ -53.398163556, -28.97290114 ], [ -53.399910227, -28.971819427 ], [ -53.403789441, -28.973074515 ], [ -53.406180758999902, -28.971376237999902 ], [ -53.419937143, -28.980891460999896 ], [ -53.425931197, -28.976196586999905 ], [ -53.427183602999897, -28.973150745999895 ], [ -53.434287916999892, -28.976977996 ], [ -53.437173984, -28.981670839999904 ], [ -53.440189577999902, -28.9835104379999 ], [ -53.440352560999898, -28.9862254079999 ], [ -53.445419971, -28.988510721 ], [ -53.450230991999909, -28.986506043 ], [ -53.454663624, -28.982772451 ], [ -53.463605335999894, -28.979629988999903 ], [ -53.468427071, -28.980395063999897 ], [ -53.470967347999903, -28.978537753 ], [ -53.471675739, -28.987320398 ], [ -53.478345154999893, -29.009975627 ], [ -53.476789014, -29.011703205999897 ], [ -53.479203651, -29.016067955 ], [ -53.482380732, -29.018813488 ], [ -53.491164934, -29.017002862 ], [ -53.496520705, -29.029037641999889 ], [ -53.49667167, -29.033581229999985 ], [ -53.495181843999902, -29.035710062 ], [ -53.496884182, -29.036244799 ], [ -53.4955024819999, -29.037407679999895 ], [ -53.498297686999898, -29.038212019 ], [ -53.499668690999989, -29.040253336 ], [ -53.502301653, -29.037391742999905 ], [ -53.504197312, -29.038105587 ], [ -53.511270924, -29.03694495 ], [ -53.506782631, -29.034263602999893 ], [ -53.517303044, -29.026352367 ], [ -53.519986148, -29.028594085999892 ], [ -53.521234565, -29.028248673999904 ], [ -53.523274479999891, -29.024208383 ], [ -53.522210263, -29.021304071 ], [ -53.525928216, -29.01641303 ], [ -53.529567875999902, -29.006796578 ], [ -53.535431633, -29.00641044 ], [ -53.538860803, -29.010509398 ], [ -53.54391585, -29.010724715 ], [ -53.545672753, -29.008713374 ], [ -53.544659442999901, -29.007581527 ], [ -53.539869729, -29.0081682369999 ], [ -53.541074479, -29.00368035 ], [ -53.543923266, -29.000565278 ], [ -53.543336473999901, -28.998995298 ], [ -53.533350302, -29.00225051199989 ], [ -53.5313505129999, -28.999820434 ], [ -53.533615959, -28.993899020999898 ], [ -53.525213354, -28.992023791999902 ], [ -53.521681244, -28.989525018999892 ], [ -53.520258720999891, -28.984376489999896 ], [ -53.525532136, -28.98438006 ], [ -53.52415439899989, -28.973274994 ], [ -53.52670911, -28.966923872999903 ], [ -53.528908235, -28.967040702 ], [ -53.535882391, -28.973397093 ], [ -53.542114963, -28.975227093999905 ], [ -53.545752092, -28.975031080999905 ], [ -53.556514168, -28.970292489 ], [ -53.556975285, -28.967674248 ], [ -53.552993564, -28.968750072999988 ], [ -53.549987183, -28.971394926999888 ], [ -53.546741476, -28.968288791 ], [ -53.547255671, -28.965685793 ], [ -53.549188926999896, -28.962654759 ], [ -53.552040443, -28.962443003 ], [ -53.552594018, -28.959168308999899 ], [ -53.558581408, -28.963173415 ], [ -53.566457514, -28.963525631 ], [ -53.56704695, -28.960424934999899 ], [ -53.564941164999901, -28.958153798999895 ], [ -53.568228522, -28.954335233999892 ], [ -53.567564467, -28.950263182999908 ], [ -53.565934884999898, -28.949521703999896 ], [ -53.563010569, -28.950729356999897 ], [ -53.560988467, -28.948963082 ], [ -53.562681553999901, -28.947490850999895 ], [ -53.565010851, -28.947753962 ], [ -53.565521382, -28.944849018 ], [ -53.564413381, -28.943964987 ], [ -53.567669725, -28.942382008 ], [ -53.566203908, -28.9408907329999 ], [ -53.572428939, -28.940835981 ], [ -53.57111953, -28.938243317999898 ], [ -53.571932128, -28.936376835 ], [ -53.569949161999901, -28.935526578 ], [ -53.569848182, -28.926820021 ], [ -53.56743905, -28.928280483 ], [ -53.564986808999898, -28.927777981 ], [ -53.566150987, -28.931635746 ], [ -53.563381724, -28.931865951 ], [ -53.563246159999899, -28.935120648999895 ], [ -53.561504027999902, -28.934526731999899 ], [ -53.56093509, -28.931865059999989 ], [ -53.562492227999897, -28.927735393 ], [ -53.557676458999893, -28.924346977 ], [ -53.55525698, -28.924638548 ], [ -53.556448960999901, -28.921302168999897 ], [ -53.553324141, -28.920735415 ], [ -53.556222391999903, -28.918510679000011 ], [ -53.558495197, -28.918912745999908 ], [ -53.559150352, -28.916533356999899 ], [ -53.553981608, -28.911797427 ], [ -53.556010091, -28.910693712 ], [ -53.555609323999896, -28.907955308999902 ], [ -53.552936100999901, -28.907435226 ], [ -53.551079962999893, -28.905159760999894 ], [ -53.548710172, -28.906301722 ], [ -53.546996153, -28.904724976999905 ], [ -53.549317035999898, -28.903780175999898 ], [ -53.550392998999889, -28.899399359 ], [ -53.553403083, -28.898541005 ], [ -53.556590158999896, -28.900083703999893 ], [ -53.5618411459999, -28.897381477999897 ], [ -53.553822259999897, -28.896234186 ], [ -53.551711548, -28.8940790139999 ], [ -53.54952258, -28.89529055 ], [ -53.546993082, -28.889500315 ], [ -53.547460402, -28.887392032 ], [ -53.543899768999893, -28.88671942 ], [ -53.545902675, -28.885363965 ], [ -53.545841763999903, -28.883432104 ], [ -53.548722997, -28.883729563 ], [ -53.54711378, -28.880318971999898 ], [ -53.547944549, -28.878326014 ], [ -53.545804405, -28.876468816999907 ], [ -53.547703686, -28.875525421 ], [ -53.546196435999903, -28.872616007 ], [ -53.547983292, -28.8693505869999 ], [ -53.551473067, -28.867124083 ], [ -53.54999158, -28.866463735 ], [ -53.551849569999902, -28.863767064999909 ], [ -53.550621712999892, -28.861578526 ], [ -53.553600716999902, -28.86079962 ], [ -53.550902777, -28.858165525999894 ], [ -53.555310052, -28.857745425 ], [ -53.550612795999903, -28.855449063 ], [ -53.552848906999905, -28.855542855999893 ], [ -53.55259255, -28.848997202 ], [ -53.555315045, -28.847673689 ], [ -53.553915124, -28.842450314 ], [ -53.55632328, -28.841722026999896 ], [ -53.557489098, -28.837609325 ], [ -53.561741422999901, -28.832875612999896 ], [ -53.562529610999903, -28.827261393999905 ], [ -53.565829455, -28.825931155999985 ], [ -53.570855257999895, -28.816808099 ], [ -53.572914658999906, -28.817024203 ], [ -53.571529541, -28.815609862 ], [ -53.572182313, -28.813613758 ], [ -53.573958284999897, -28.813972132999901 ], [ -53.575950190999897, -28.811332568999905 ], [ -53.577755801, -28.811434114 ], [ -53.578323358, -28.808421594 ], [ -53.580716459, -28.806834414 ], [ -53.578396378, -28.803004068 ], [ -53.581642285, -28.802017474 ], [ -53.581189889, -28.796458779 ], [ -53.5834233429999, -28.79467611 ], [ -53.583458151999899, -28.792938740999904 ], [ -53.585624159, -28.792593648 ], [ -53.58459017, -28.788781668999906 ], [ -53.585709933, -28.786374454999901 ], [ -53.583967344, -28.7863775 ], [ -53.584332435, -28.782250028 ], [ -53.580955076, -28.777755192 ], [ -53.577907019, -28.762243638 ], [ -53.573326111, -28.761148616 ], [ -53.569277686, -28.758045245999892 ], [ -53.567618803999899, -28.7543749179999 ], [ -53.564419562999902, -28.752511967 ], [ -53.563174655999902, -28.750158370999891 ], [ -53.562250092999896, -28.74689611 ], [ -53.564390585, -28.743069372 ], [ -53.564616801999897, -28.732076263999904 ], [ -53.559953301999897, -28.735623922999896 ], [ -53.552963978, -28.738004138999905 ], [ -53.547468937, -28.743386791 ], [ -53.544295636, -28.754037024999899 ], [ -53.53672983, -28.765017997 ], [ -53.530076715, -28.765277606 ], [ -53.516390242999897, -28.773410347999985 ], [ -53.513752804, -28.773621515999899 ], [ -53.509823583, -28.768870781 ], [ -53.503799893, -28.7658434149999 ], [ -53.498307558, -28.766356970999894 ], [ -53.493342385999902, -28.762127740999986 ], [ -53.491120786999893, -28.756513901999888 ], [ -53.487408285, -28.758019291 ], [ -53.484397107999889, -28.755349709 ], [ -53.48112227, -28.755205880999902 ], [ -53.478028184, -28.751306026999885 ], [ -53.476486560999895, -28.746278905999901 ], [ -53.472130006, -28.744217174 ], [ -53.473126333, -28.741678167 ], [ -53.469470331, -28.741357886999904 ], [ -53.46810416599989, -28.739157976999891 ], [ -53.463999344999891, -28.737273311 ], [ -53.458847192, -28.739598624999893 ], [ -53.4601722519999, -28.740703787 ], [ -53.458212832999891, -28.742438325 ], [ -53.458313098, -28.745350012999904 ], [ -53.456702483, -28.741827507 ], [ -53.454895271999902, -28.741719194 ], [ -53.454577625999903, -28.744438859 ], [ -53.456502316999902, -28.744882559 ], [ -53.454217669999899, -28.746881878 ], [ -53.457221585999903, -28.747135048 ], [ -53.457013872999902, -28.747987622 ], [ -53.454701933, -28.749923795 ], [ -53.452256051999903, -28.749243661 ], [ -53.449281825999897, -28.750786370999901 ], [ -53.449540841, -28.754023312 ], [ -53.446494714, -28.755224955999893 ], [ -53.443775507999895, -28.753451672 ], [ -53.443559149, -28.743225728 ], [ -53.44060970999989, -28.745485699 ], [ -53.437006587, -28.745919216999908 ], [ -53.437122334, -28.74941474 ], [ -53.434700075, -28.751178922 ], [ -53.436313073999898, -28.754329137 ], [ -53.433969422, -28.755930045999904 ], [ -53.431826138, -28.754973627 ], [ -53.429428196999893, -28.758099326 ], [ -53.428490556, -28.754251649 ], [ -53.42403508, -28.754691997 ], [ -53.420467113, -28.752097444 ], [ -53.41919003999989, -28.749328835000011 ], [ -53.415956782, -28.751613232 ], [ -53.408651151, -28.750929562 ], [ -53.405018168, -28.754658352 ], [ -53.405103841, -28.756083587 ], [ -53.411119286, -28.759197789 ], [ -53.409677297, -28.758794748999904 ], [ -53.40949502, -28.760605450999893 ], [ -53.405528045, -28.763515932 ], [ -53.406455029, -28.772054508999901 ], [ -53.405162435, -28.772121341999899 ], [ -53.4054615269999, -28.773226571 ], [ -53.403357566, -28.773936358999901 ], [ -53.402414929, -28.776003921 ], [ -53.405396201, -28.777570628 ], [ -53.404918871999897, -28.779105984 ], [ -53.399664164999891, -28.780934793 ], [ -53.395363180999901, -28.777298577 ], [ -53.393368983, -28.780880087999904 ], [ -53.3906464189999, -28.777479959999894 ], [ -53.388870093, -28.779614032 ], [ -53.384618160999892, -28.779236352999902 ], [ -53.383284193, -28.781028447 ], [ -53.385461963, -28.785842375 ], [ -53.383652218, -28.790772923 ], [ -53.382398260999899, -28.790018582999902 ], [ -53.382357087999893, -28.786523487 ], [ -53.381524492, -28.788306291 ], [ -53.379291441, -28.787142165 ], [ -53.377159774999903, -28.788472351999896 ] ] ] } }
]
}
