{
"type": "FeatureCollection",
"name": "bairros_ibiaca",
"crs": { "type": "name", "properties": { "name": "urn:ogc:def:crs:OGC:1.3:CRS84" } },
"features": [
{ "type": "Feature", "properties": { "code_muni": 4309803.0, "name_muni": "Ibiaçá", "code_state": 43.0, "abbrev_state": "RS", "name_state": "Rio Grande do Sul", "code_region": 4.0, "name_region": "Sul", "year": 2022.0 }, "geometry": { "type": "Polygon", "coordinates": [ [ [ -51.886327767, -28.116351936999905 ], [ -51.892199221999903, -28.114912346 ], [ -51.890748996, -28.116433073999897 ], [ -51.891511566, -28.120643534 ], [ -51.893621357, -28.11976164 ], [ -51.893980338999903, -28.121045454 ], [ -51.896240962, -28.12160504 ], [ -51.8995206069999, -28.120455524 ], [ -51.89656239, -28.116912726999892 ], [ -51.90033794, -28.115767037 ], [ -51.909091152, -28.118527528 ], [ -51.918641618, -28.112715506 ], [ -51.911202278, -28.1135662 ], [ -51.908148959999899, -28.106789503 ], [ -51.908852811, -28.102791661 ], [ -51.911019124999903, -28.099822485999901 ], [ -51.917194469, -28.095711141 ], [ -51.917522241, -28.092645766 ], [ -51.916992924999896, -28.088534245999899 ], [ -51.908321577, -28.083631485 ], [ -51.907750313999891, -28.081127538 ], [ -51.913892902, -28.081076020999902 ], [ -51.915288664999892, -28.079119157 ], [ -51.910824814, -28.074627762999988 ], [ -51.91083896, -28.071049608999893 ], [ -51.906158041, -28.069217437 ], [ -51.905875314, -28.066693390999905 ], [ -51.906763822, -28.065222208 ], [ -51.908768247999895, -28.06731989 ], [ -51.910439369999899, -28.066795613999897 ], [ -51.9130149, -28.062930337999909 ], [ -51.917183194, -28.063886769 ], [ -51.921627413, -28.054631113 ], [ -51.925566027999892, -28.053492218999985 ], [ -51.925747851, -28.050901252 ], [ -51.924212958999895, -28.048844573999897 ], [ -51.914725571, -28.048101802 ], [ -51.91091413, -28.053132676 ], [ -51.908696659, -28.053402198 ], [ -51.90442237, -28.049461687 ], [ -51.902907547, -28.044067611999893 ], [ -51.904292878, -28.04359448 ], [ -51.907893666999897, -28.045938228999894 ], [ -51.912266531999897, -28.045023058 ], [ -51.916380852, -28.038938121999895 ], [ -51.918687792, -28.039355814 ], [ -51.920844957, -28.042273651999903 ], [ -51.922427141999897, -28.042091759 ], [ -51.921826196, -28.035438638999899 ], [ -51.91999786, -28.033011664999901 ], [ -51.9166569819999, -28.033278466999906 ], [ -51.912820257, -28.037179221 ], [ -51.910620557999898, -28.036573668999903 ], [ -51.910816165999989, -28.027860917999902 ], [ -51.908593238, -28.025116125999901 ], [ -51.915522151999895, -28.022942880999903 ], [ -51.924605976999899, -28.017752518 ], [ -51.929973048, -28.022395203 ], [ -51.942351011, -28.013232272 ], [ -51.941652433999899, -28.011974465 ], [ -51.931784899, -28.010815775 ], [ -51.928866527, -28.009251922 ], [ -51.934941072999891, -28.005577754999909 ], [ -51.9326252769999, -27.99099739 ], [ -51.929388649, -27.990641321999899 ], [ -51.930536797999892, -27.992672728999899 ], [ -51.929339205, -27.994260515 ], [ -51.929864424, -27.996437833999895 ], [ -51.9266386319999, -28.000677755 ], [ -51.917017846, -28.003495006 ], [ -51.913394806, -27.997811644 ], [ -51.910013394, -27.9986539659999 ], [ -51.909675838999902, -28.003645557 ], [ -51.907022444999896, -28.007733141999896 ], [ -51.905201141, -28.004341247 ], [ -51.897438947, -28.001842954 ], [ -51.896705346, -28.007405581999901 ], [ -51.890970352999894, -28.008464252 ], [ -51.888650715, -28.007057075 ], [ -51.882129393, -28.006849132 ], [ -51.87842504, -28.008175185 ], [ -51.876629502999897, -28.0073457559999 ], [ -51.874364517999901, -28.009671690999902 ], [ -51.87036103, -28.0104281549999 ], [ -51.866423267, -28.010210663999899 ], [ -51.865399733999894, -28.008793133 ], [ -51.862257032999899, -28.010408926 ], [ -51.853640874, -28.00902475 ], [ -51.852272101, -28.009420861 ], [ -51.850995998, -28.012725087 ], [ -51.847715936, -28.012702952 ], [ -51.84354251, -28.014638385999891 ], [ -51.842616033999903, -28.014050471 ], [ -51.84023975, -28.016245179999903 ], [ -51.836388743, -28.016389187999899 ], [ -51.834515392999897, -28.019778888 ], [ -51.831329366, -28.021461890999891 ], [ -51.82094973999989, -28.023040398 ], [ -51.817444816, -28.022197461 ], [ -51.816191182, -28.023834097 ], [ -51.808669922, -28.026395481 ], [ -51.807984023, -28.031718978999898 ], [ -51.803002579999891, -28.039908760999893 ], [ -51.798260592, -28.038795095999902 ], [ -51.790050671, -28.032986967999889 ], [ -51.78006062, -28.030128455 ], [ -51.776195918, -28.027504047 ], [ -51.770382368, -28.041639670999899 ], [ -51.76883917, -28.058908754 ], [ -51.761959309, -28.068493243 ], [ -51.751479328999899, -28.077320098 ], [ -51.749488178, -28.08182879 ], [ -51.732110249, -28.103831323999895 ], [ -51.729642340999895, -28.11018038899989 ], [ -51.721472251, -28.11930976 ], [ -51.713046484999893, -28.125505448999899 ], [ -51.703615911, -28.138040240999899 ], [ -51.693760251, -28.123605766 ], [ -51.696243604, -28.100840852 ], [ -51.691743198, -28.091554931 ], [ -51.681270103, -28.082827414999905 ], [ -51.666810354999903, -28.07503658 ], [ -51.653238443, -28.060520093 ], [ -51.6338866729999, -28.04763681399989 ], [ -51.631186966, -28.0473512639999 ], [ -51.623790336999896, -28.05115161 ], [ -51.613630788, -28.063325486999908 ], [ -51.624032878, -28.071348011999895 ], [ -51.625249951999898, -28.075263042 ], [ -51.627815492, -28.077844651 ], [ -51.632145296, -28.078423495 ], [ -51.629786203, -28.079858139 ], [ -51.622979234, -28.078714047999899 ], [ -51.621676959, -28.080021595999895 ], [ -51.623782366999897, -28.084671879 ], [ -51.628796796, -28.089620266999908 ], [ -51.628552243999891, -28.090990111999893 ], [ -51.621384799999895, -28.092061545 ], [ -51.611311669, -28.090377872 ], [ -51.603014193, -28.096711110999905 ], [ -51.604936037, -28.098959148999899 ], [ -51.613028793, -28.097161610999901 ], [ -51.615892174, -28.098517482 ], [ -51.617723229, -28.103265539999892 ], [ -51.614691288, -28.110231618999901 ], [ -51.61701571, -28.113714355999903 ], [ -51.619633925, -28.109763085999898 ], [ -51.6224734749999, -28.114727971 ], [ -51.626127805, -28.116049901999894 ], [ -51.631846385, -28.112832974999904 ], [ -51.634891287, -28.1127222709999 ], [ -51.631644069999901, -28.120104327 ], [ -51.622234023, -28.130293095999896 ], [ -51.622854218, -28.132190095999899 ], [ -51.625580721999896, -28.131423656 ], [ -51.628262108999898, -28.127748386 ], [ -51.631583532, -28.125990683999902 ], [ -51.633720511999989, -28.128581702 ], [ -51.633136564, -28.132517138 ], [ -51.634586675, -28.134889357 ], [ -51.636944999, -28.135001342 ], [ -51.638216278999892, -28.13281109 ], [ -51.640831778999903, -28.133633933999903 ], [ -51.653975483, -28.13259597 ], [ -51.656553318, -28.133220784999903 ], [ -51.656259865, -28.135143336999896 ], [ -51.659224026999894, -28.136821801999897 ], [ -51.661706015999989, -28.135056123 ], [ -51.663512812, -28.136927914 ], [ -51.666751868999896, -28.135570999 ], [ -51.670683254, -28.1375755 ], [ -51.673626994, -28.134843316999898 ], [ -51.677778734, -28.134801958 ], [ -51.689523173999902, -28.138680791999896 ], [ -51.693841627, -28.141803097 ], [ -51.694149302, -28.145315740999898 ], [ -51.696267834, -28.147367614 ], [ -51.693748512999896, -28.149965703 ], [ -51.703563105999891, -28.1562351819999 ], [ -51.704627822, -28.160915205 ], [ -51.698899098, -28.170729641 ], [ -51.693198794, -28.17593815 ], [ -51.691286986, -28.182762721 ], [ -51.693920995, -28.186296265 ], [ -51.692402043999898, -28.190455782 ], [ -51.699076692999895, -28.194928902 ], [ -51.710253209, -28.197134519 ], [ -51.7191922499999, -28.196009089 ], [ -51.722279226999895, -28.194204004 ], [ -51.724572566999903, -28.189406613 ], [ -51.73169963, -28.184370790999896 ], [ -51.731691559, -28.18914977399989 ], [ -51.734163674999898, -28.1908051529999 ], [ -51.73769565899989, -28.203509593 ], [ -51.737404997999903, -28.204365096999897 ], [ -51.735765732999894, -28.202748375999892 ], [ -51.731999056999896, -28.202730053 ], [ -51.727918099, -28.207144027 ], [ -51.729129905, -28.207755330999898 ], [ -51.72863296, -28.210096479 ], [ -51.732481629999903, -28.210510855999896 ], [ -51.735541727999902, -28.213868397999896 ], [ -51.738945018, -28.214433718999899 ], [ -51.743989908999893, -28.213798901 ], [ -51.749363075, -28.2100879229999 ], [ -51.75264292, -28.213735680999893 ], [ -51.75568487999989, -28.214520471 ], [ -51.759606589, -28.210944642999905 ], [ -51.772747129, -28.2043507 ], [ -51.776948483999902, -28.2035059799999 ], [ -51.780900022, -28.205592445 ], [ -51.791427518, -28.192897661 ], [ -51.788268199, -28.184432635999897 ], [ -51.791703486, -28.182763495 ], [ -51.791232648999895, -28.178961313999892 ], [ -51.795741762, -28.173242375 ], [ -51.7968095969999, -28.166112310999896 ], [ -51.800088734, -28.165468667999988 ], [ -51.802078841, -28.162868634999906 ], [ -51.811225169, -28.159965075999896 ], [ -51.811682041, -28.157270799999903 ], [ -51.813468755, -28.15609568 ], [ -51.814637454, -28.158087368999897 ], [ -51.816226830999902, -28.157866043999906 ], [ -51.820226884, -28.153068165 ], [ -51.825624306, -28.152490268999902 ], [ -51.828480418, -28.147828074 ], [ -51.830174958, -28.14751955 ], [ -51.830630658, -28.149389734999904 ], [ -51.833189594, -28.149965696 ], [ -51.833305552, -28.152121575 ], [ -51.834995447, -28.152799445 ], [ -51.838035218, -28.151570614 ], [ -51.842094979, -28.152283962999896 ], [ -51.842787142, -28.150301473 ], [ -51.845526188, -28.148637243999907 ], [ -51.847186791999903, -28.150639648 ], [ -51.848908977999898, -28.150037708 ], [ -51.849197986, -28.151826354 ], [ -51.856656017, -28.148209553999905 ], [ -51.862116059999892, -28.143036723 ], [ -51.865817546, -28.14415107 ], [ -51.866878196, -28.143397131 ], [ -51.864884359, -28.139952950999898 ], [ -51.866372003, -28.13740188 ], [ -51.872793440999899, -28.141587507999898 ], [ -51.876638326, -28.141783137999901 ], [ -51.880378623999903, -28.137957136999905 ], [ -51.876490082, -28.135547530999897 ], [ -51.878589890999891, -28.131688225999895 ], [ -51.876838051999989, -28.128057768 ], [ -51.881183437999894, -28.121875394 ], [ -51.884959763, -28.120006399 ], [ -51.884340043, -28.119122299 ], [ -51.886327767, -28.116351936999905 ] ] ] } }
]
}
