{
"type": "FeatureCollection",
"name": "bairros_carazinho",
"crs": { "type": "name", "properties": { "name": "urn:ogc:def:crs:OGC:1.3:CRS84" } },
"features": [
{ "type": "Feature", "properties": { "code_muni": 4304705.0, "name_muni": "Carazinho", "code_state": 43.0, "abbrev_state": "RS", "name_state": "Rio Grande do Sul", "code_region": 4.0, "name_region": "Sul", "year": 2022.0 }, "geometry": { "type": "Polygon", "coordinates": [ [ [ -52.790345309, -28.228974986 ], [ -52.786224999, -28.2336747149999 ], [ -52.786549964, -28.229910027 ], [ -52.7850263079999, -28.226776873999899 ], [ -52.782438850999903, -28.226721691 ], [ -52.782254909, -28.230038786 ], [ -52.776062181, -28.227380818 ], [ -52.778560732, -28.234333842 ], [ -52.776994155999901, -28.234545374999986 ], [ -52.776125028, -28.231804633 ], [ -52.767476669, -28.239806127999891 ], [ -52.763049789, -28.241292996 ], [ -52.762381465, -28.240232261 ], [ -52.761127590999898, -28.240673722999905 ], [ -52.76264205, -28.236004652 ], [ -52.761293139, -28.234756908999895 ], [ -52.759901307999897, -28.23610582 ], [ -52.757890204, -28.235566256 ], [ -52.75703793799989, -28.233892379999901 ], [ -52.758589184999899, -28.233438654999901 ], [ -52.7570900549999, -28.23105047 ], [ -52.755526544, -28.230946235 ], [ -52.75537939, -28.229180388 ], [ -52.753815879999891, -28.231724925 ], [ -52.751927404, -28.231479668 ], [ -52.7503455, -28.232889894 ], [ -52.746004458999899, -28.228781845999904 ], [ -52.747708992, -28.227764032 ], [ -52.747991037, -28.225483145999899 ], [ -52.744888542, -28.22272401 ], [ -52.741074802, -28.222503279 ], [ -52.738465886, -28.224213942999896 ], [ -52.735598007, -28.223342894 ], [ -52.734946454, -28.220486044 ], [ -52.732040164, -28.21912487 ], [ -52.730488916999903, -28.214725581 ], [ -52.72833679, -28.216656976 ], [ -52.724950717, -28.217322233999901 ], [ -52.725839772, -28.212849368 ], [ -52.722079682999897, -28.212372650999988 ], [ -52.721488001, -28.210674249 ], [ -52.719427846, -28.210054976 ], [ -52.721549315999901, -28.204579624 ], [ -52.713103293, -28.210401401 ], [ -52.710828539, -28.204607215 ], [ -52.712379787, -28.204141228 ], [ -52.712110004, -28.203086625 ], [ -52.708032613999897, -28.204570427 ], [ -52.705463552, -28.203558744 ], [ -52.706013846, -28.201886401 ], [ -52.7034631779999, -28.199160987 ], [ -52.704057925, -28.197307767 ], [ -52.702174049, -28.199015366 ], [ -52.699759803999896, -28.199085877 ], [ -52.698840092, -28.197246452999899 ], [ -52.696902565999899, -28.197786017999903 ], [ -52.695737596999891, -28.196792729 ], [ -52.693248243, -28.198368501999902 ], [ -52.690470713, -28.195382504 ], [ -52.691408818999896, -28.193414319999896 ], [ -52.688635956, -28.193215721999891 ], [ -52.686770404999891, -28.194717244999904 ], [ -52.686862376, -28.191663800999901 ], [ -52.68514558, -28.191320441999899 ], [ -52.684247328, -28.189290943999897 ], [ -52.680194464, -28.187758091 ], [ -52.67714102, -28.188199552999905 ], [ -52.676184518999889, -28.185728593 ], [ -52.673781005, -28.185998374999908 ], [ -52.674240860999902, -28.182975588 ], [ -52.672039561, -28.182019931 ], [ -52.671671799, -28.178508853 ], [ -52.667776817999894, -28.177717900999905 ], [ -52.668334777, -28.170308088 ], [ -52.666409513, -28.171134295999899 ], [ -52.666354329999891, -28.173488758 ], [ -52.664502642999899, -28.17353781 ], [ -52.664048919, -28.175898404 ], [ -52.661338833999899, -28.173209778999897 ], [ -52.659486573, -28.173211158999891 ], [ -52.661487679999901, -28.170733082 ], [ -52.658803494, -28.170049035 ], [ -52.658429478, -28.173039632 ], [ -52.655127712, -28.170908966 ], [ -52.657124486, -28.168544439 ], [ -52.652264497, -28.170262846 ], [ -52.650088395999894, -28.1683112979999 ], [ -52.648344043, -28.16978662 ], [ -52.646738544999891, -28.167643063 ], [ -52.644864017, -28.168076981999903 ], [ -52.64442142099989, -28.165768535 ], [ -52.641425518999903, -28.168061609999906 ], [ -52.639639638999896, -28.166462805 ], [ -52.63782586, -28.168250548999904 ], [ -52.636194326999899, -28.168033589999904 ], [ -52.634291595, -28.171977908 ], [ -52.632937769, -28.16930931 ], [ -52.630926557, -28.171110070999902 ], [ -52.631287953, -28.173930567 ], [ -52.636102626, -28.180522267 ], [ -52.6342999519999, -28.187660561 ], [ -52.637705707999892, -28.191280736 ], [ -52.617459831, -28.204074827999897 ], [ -52.611715685999989, -28.198559315999905 ], [ -52.607541355, -28.205639733999902 ], [ -52.605864392999891, -28.216483245999903 ], [ -52.603473794, -28.220050488 ], [ -52.605304754, -28.224504329999899 ], [ -52.602311051, -28.22711178 ], [ -52.603610464, -28.229197378 ], [ -52.604202663, -28.228083805 ], [ -52.607003014999989, -28.227889508 ], [ -52.608132434, -28.233817562999892 ], [ -52.61155637, -28.233240677 ], [ -52.614106221, -28.231230291 ], [ -52.615088726999893, -28.232628713999897 ], [ -52.614255711999903, -28.237718555 ], [ -52.617594585999896, -28.2343411589999 ], [ -52.626777342, -28.239900045 ], [ -52.628396873, -28.250543219 ], [ -52.6360157, -28.251172478999894 ], [ -52.640462094, -28.255823365 ], [ -52.6470113, -28.258063528 ], [ -52.647958236, -28.260717229 ], [ -52.646562398999897, -28.264715470999899 ], [ -52.648981466999892, -28.266133292999896 ], [ -52.650967685, -28.262351064 ], [ -52.654632094, -28.264591243 ], [ -52.657463951999901, -28.26130081 ], [ -52.660904473999899, -28.261646718 ], [ -52.663584356999891, -28.265205948999899 ], [ -52.665659105, -28.265237046 ], [ -52.67088183, -28.261357954999902 ], [ -52.677123513, -28.268768724 ], [ -52.673464778, -28.270218278999899 ], [ -52.699481896999899, -28.281520321999903 ], [ -52.704930466, -28.287163027 ], [ -52.708600632, -28.287481964999987 ], [ -52.708045741, -28.301352586999897 ], [ -52.709435033, -28.3093240389999 ], [ -52.711560775, -28.312471143 ], [ -52.711802299999896, -28.317389510999902 ], [ -52.715448723999891, -28.320449852 ], [ -52.717803342, -28.33684511 ], [ -52.721258459, -28.338744183 ], [ -52.72024263, -28.342061967999886 ], [ -52.724582238000011, -28.343878131999901 ], [ -52.724789015999896, -28.350475138 ], [ -52.7348735099999, -28.3502622889999 ], [ -52.758245891999898, -28.343728552999902 ], [ -52.759800557999895, -28.349413958999897 ], [ -52.774091149999904, -28.368131295999888 ], [ -52.774262156, -28.370827721 ], [ -52.777950798999896, -28.368109102999902 ], [ -52.780528591999897, -28.372947257 ], [ -52.785788011, -28.373567099 ], [ -52.789374236999905, -28.37230342 ], [ -52.793549748, -28.367821266999989 ], [ -52.798531407, -28.367090253999905 ], [ -52.801681813, -28.37080531 ], [ -52.804270925, -28.370550159999908 ], [ -52.808489451, -28.372746983999896 ], [ -52.809450716999905, -28.377662508 ], [ -52.811613049999892, -28.378911989999896 ], [ -52.814191583, -28.378155836 ], [ -52.816580036999909, -28.382662388 ], [ -52.818197544, -28.382636724 ], [ -52.82013402, -28.380250006 ], [ -52.822054206, -28.382283958999899 ], [ -52.826393181999897, -28.383809136 ], [ -52.830851207, -28.384445614999908 ], [ -52.834193634, -28.382787102 ], [ -52.837597552, -28.386333006 ], [ -52.8423673839999, -28.384487970999899 ], [ -52.907460317999906, -28.37780114 ], [ -52.922682373, -28.372797616 ], [ -52.925509927999897, -28.374873407999896 ], [ -52.929046209, -28.374964389 ], [ -52.930805184, -28.380756087 ], [ -52.937665217999893, -28.381520682 ], [ -52.943153277, -28.375954389999897 ], [ -52.942190957, -28.3701531 ], [ -52.942778162, -28.368630406 ], [ -52.945051748, -28.368869351999894 ], [ -52.946343703, -28.366379707 ], [ -52.943898105999892, -28.366211576 ], [ -52.944558098999892, -28.36313074 ], [ -52.947077071, -28.363903589 ], [ -52.950532171, -28.356033845 ], [ -52.951318802999893, -28.351298782 ], [ -52.948266175, -28.344673837 ], [ -52.949944548, -28.342600036 ], [ -52.947380495999909, -28.3386141309999 ], [ -52.954982533, -28.333875834 ], [ -52.965626460999893, -28.335737628999894 ], [ -52.967243302, -28.337468923999893 ], [ -52.9769746589999, -28.340342716 ], [ -52.98201062, -28.3462537939999 ], [ -52.999904791999903, -28.3559308439999 ], [ -53.001022114, -28.356030624 ], [ -53.002591736999889, -28.352688295 ], [ -53.001731627, -28.367929956 ], [ -53.006517626999901, -28.364876452 ], [ -53.010659306, -28.367363694999892 ], [ -53.011811232, -28.370215225 ], [ -53.019622550999898, -28.369438090999889 ], [ -53.024532026, -28.371521976999901 ], [ -53.028015674999899, -28.376582401 ], [ -53.038728923999898, -28.374921806 ], [ -53.039419006999893, -28.373510156999899 ], [ -53.036866889999899, -28.371081611 ], [ -53.038555937999902, -28.366729162 ], [ -53.034612997, -28.365744277 ], [ -53.035225773, -28.362947473 ], [ -53.032883021, -28.362133116999907 ], [ -53.032855949999899, -28.359952699 ], [ -53.030658253, -28.359662683 ], [ -53.03064081, -28.352879225 ], [ -53.027583036, -28.354608315 ], [ -53.024718908999901, -28.354197233 ], [ -53.024760736, -28.351752890999894 ], [ -53.023467642, -28.350891267999891 ], [ -53.022736251, -28.345907543 ], [ -53.023343452999903, -28.3434944219999 ], [ -53.02537254, -28.34241194 ], [ -53.024187723999901, -28.341282559 ], [ -53.025342655, -28.339854036 ], [ -53.026412732, -28.327604731999898 ], [ -53.019819067, -28.320567588 ], [ -53.022120172, -28.3163509839999 ], [ -53.025439247999891, -28.314746687 ], [ -53.032437057, -28.318101279 ], [ -53.034579532999899, -28.317477657 ], [ -53.03601379299991, -28.311303850999899 ], [ -53.037622491, -28.310851187 ], [ -53.04111209, -28.305972697999895 ], [ -53.043216195, -28.305023373 ], [ -53.046081060999896, -28.305684230999901 ], [ -53.054036373, -28.30287713 ], [ -53.053323145, -28.298840754 ], [ -53.057541423, -28.298605220999903 ], [ -53.05933786299989, -28.295306094999901 ], [ -53.062025129999896, -28.2937370719999 ], [ -53.064789918, -28.29736854 ], [ -53.068123086, -28.298231304999899 ], [ -53.073872388, -28.291219499 ], [ -53.077456643999902, -28.282151165 ], [ -53.081502741999891, -28.283913804999901 ], [ -53.089006812, -28.279780248 ], [ -53.090939669, -28.280290213999894 ], [ -53.09203624, -28.277491719 ], [ -53.096813109, -28.280039528 ], [ -53.098361427, -28.277643770999902 ], [ -53.099691782, -28.279761832 ], [ -53.10207042199989, -28.278768920999894 ], [ -53.101667831, -28.281305527 ], [ -53.103917163999903, -28.281710355 ], [ -53.107780248, -28.28542535 ], [ -53.107742386, -28.289350398999904 ], [ -53.113136293, -28.288432773999897 ], [ -53.112482913999898, -28.29061814499989 ], [ -53.113650364, -28.291098296 ], [ -53.115530227, -28.289404418999908 ], [ -53.118058140999899, -28.289540572 ], [ -53.115499509, -28.294931694999903 ], [ -53.1183571299999, -28.298551119 ], [ -53.119731331, -28.297739048 ], [ -53.119981507, -28.294716251 ], [ -53.125009916, -28.293296805 ], [ -53.124013820999899, -28.290443754 ], [ -53.12695437699989, -28.288504651 ], [ -53.125221506999893, -28.2876165559999 ], [ -53.126572251, -28.283864528 ], [ -53.130760395, -28.287556273999897 ], [ -53.135045853999891, -28.286180441999907 ], [ -53.130891995999903, -28.285912267999887 ], [ -53.13293259999989, -28.279393677 ], [ -53.125498615, -28.280401052999899 ], [ -53.130461134, -28.267547346999894 ], [ -53.120815207, -28.264583919 ], [ -53.124219558999989, -28.263301989 ], [ -53.126621125, -28.26512732 ], [ -53.129620590999899, -28.262743696 ], [ -53.12957707399989, -28.260573445 ], [ -53.126015997, -28.259098057 ], [ -53.121092532, -28.2624590409999 ], [ -53.117425048, -28.262153898999909 ], [ -53.119314951, -28.257643888 ], [ -53.123011063, -28.257919387 ], [ -53.120642085999989, -28.251031533999896 ], [ -53.115831145999891, -28.252019173 ], [ -53.113804667999901, -28.251103777 ], [ -53.114176347999901, -28.253602781 ], [ -53.112675243999902, -28.254710964 ], [ -53.104973049, -28.256532969 ], [ -53.103639689, -28.258160956 ], [ -53.100619055, -28.257791934999897 ], [ -53.097423169, -28.26153424599989 ], [ -53.094241263, -28.261426578999899 ], [ -53.089203837, -28.264034950999889 ], [ -53.084890136, -28.260399763999903 ], [ -53.080666785999902, -28.268121010999899 ], [ -53.078624111, -28.266481367 ], [ -53.078444222, -28.264526743 ], [ -53.073253713, -28.261912964 ], [ -53.0730145429999, -28.259636723 ], [ -53.065492914999894, -28.249281606 ], [ -53.063571043, -28.242044892 ], [ -53.061235704, -28.241912487 ], [ -53.0603655789999, -28.243764282 ], [ -53.058664555, -28.241365179 ], [ -53.056330231999901, -28.241235404 ], [ -53.054673707999903, -28.242818269999898 ], [ -53.052311607999989, -28.242715302 ], [ -53.049445114, -28.245486117999988 ], [ -53.047339284, -28.245435370999903 ], [ -53.042365477, -28.237797229 ], [ -53.038380097, -28.236017062 ], [ -53.037495453, -28.228661875999904 ], [ -53.035189206, -28.224876858999899 ], [ -53.027228615, -28.227194343999905 ], [ -53.024236343, -28.226294225999904 ], [ -53.022547017, -28.216017085 ], [ -53.019350537, -28.213087110999901 ], [ -53.018202553, -28.208844541 ], [ -53.008311201, -28.204783400999897 ], [ -53.006586652, -28.2025838019999 ], [ -53.00193754, -28.201621547999896 ], [ -52.985303803, -28.186108429999898 ], [ -52.981510812, -28.188612021 ], [ -52.9794216129999, -28.18832398 ], [ -52.974371773, -28.1815237819999 ], [ -52.963786501999891, -28.186910893999901 ], [ -52.954912814999901, -28.183863285 ], [ -52.9552236339999, -28.182376024999897 ], [ -52.962442118, -28.180056157 ], [ -52.963511213999901, -28.177648897 ], [ -52.959934045, -28.171957694 ], [ -52.956970603999892, -28.175722443 ], [ -52.948161287999902, -28.173612826999889 ], [ -52.945200244, -28.177996350999898 ], [ -52.945364108, -28.18037112 ], [ -52.941552735, -28.180901042999892 ], [ -52.940428987, -28.182448425 ], [ -52.940267691, -28.185814901999905 ], [ -52.938314461999902, -28.188786143999902 ], [ -52.935594922, -28.186999487 ], [ -52.934860790999892, -28.184059735999902 ], [ -52.931741106999894, -28.184783169 ], [ -52.928926863999898, -28.187995483 ], [ -52.92862339899991, -28.186415478 ], [ -52.922080644999895, -28.182244136 ], [ -52.921863637999891, -28.180745972999905 ], [ -52.918184024, -28.182668871 ], [ -52.916186204, -28.185713622 ], [ -52.913714018, -28.184399137 ], [ -52.914422515, -28.181244599 ], [ -52.912235922, -28.178256142 ], [ -52.908748229, -28.179139593999896 ], [ -52.906710597, -28.176872839999898 ], [ -52.904497083, -28.177617434 ], [ -52.903230095, -28.188901928 ], [ -52.898531845, -28.190513277 ], [ -52.893899076, -28.193993670999905 ], [ -52.892657372, -28.2017294 ], [ -52.887195256, -28.2040332619999 ], [ -52.881529709999896, -28.209962283 ], [ -52.877216573999902, -28.207141054 ], [ -52.8772130629999, -28.209605457999903 ], [ -52.8730843, -28.214180836 ], [ -52.873931335999892, -28.217513848 ], [ -52.882227338, -28.223131512999899 ], [ -52.88094239, -28.230915925 ], [ -52.882583532999895, -28.234445263999898 ], [ -52.880637215, -28.239756169 ], [ -52.882446686, -28.245776282999891 ], [ -52.879688410999989, -28.248815608 ], [ -52.876013654, -28.249569977 ], [ -52.876414613, -28.250445634 ], [ -52.873033419, -28.252302030999896 ], [ -52.870842557999893, -28.256576956999908 ], [ -52.868962888999896, -28.256036315999907 ], [ -52.86998719, -28.253128757 ], [ -52.868589891999903, -28.253430276 ], [ -52.864405765, -28.26013619 ], [ -52.863069337, -28.258629174 ], [ -52.864346336, -28.256801032999892 ], [ -52.863250337, -28.252999826 ], [ -52.867345911, -28.251759859999897 ], [ -52.866231172, -28.24683433 ], [ -52.862797917, -28.245695165 ], [ -52.860588833999891, -28.247694176 ], [ -52.857972589, -28.24772919 ], [ -52.855500041, -28.250816716 ], [ -52.852877618, -28.247898565 ], [ -52.850548687, -28.248413129 ], [ -52.847810066, -28.246842747 ], [ -52.847353515, -28.244760151 ], [ -52.843544736999895, -28.243505464999902 ], [ -52.840262464, -28.240215190999905 ], [ -52.83749256, -28.223137639 ], [ -52.833433038, -28.218037936 ], [ -52.832525480999905, -28.2087507009999 ], [ -52.827427039, -28.2002612809999 ], [ -52.8275708789999, -28.198375034 ], [ -52.824981664999896, -28.195699804 ], [ -52.814401910999898, -28.196027834999899 ], [ -52.810260141, -28.198066529999899 ], [ -52.80923926, -28.193066362 ], [ -52.807914874999895, -28.193017310999895 ], [ -52.806529176, -28.201932386 ], [ -52.802583610999903, -28.208891541 ], [ -52.801815651, -28.219521879 ], [ -52.798096949, -28.225095333999896 ], [ -52.790345309, -28.228974986 ] ] ] } }
]
}
