{
"type": "FeatureCollection",
"name": "bairros_sao_jose_do_inhacora",
"crs": { "type": "name", "properties": { "name": "urn:ogc:def:crs:OGC:1.3:CRS84" } },
"features": [
{ "type": "Feature", "properties": { "code_muni": 4318499.0, "name_muni": "São José do Inhacorá", "code_state": 43.0, "abbrev_state": "RS", "name_state": "Rio Grande do Sul", "code_region": 4.0, "name_region": "Sul", "year": 2022.0 }, "geometry": { "type": "Polygon", "coordinates": [ [ [ -54.11038268, -27.755067983999901 ], [ -54.125939311, -27.750951608 ], [ -54.131398085999891, -27.759145304999898 ], [ -54.136822596999892, -27.758902094999904 ], [ -54.140587472999989, -27.756333175 ], [ -54.138247266999898, -27.745940432999902 ], [ -54.143049364, -27.741744559 ], [ -54.148599718, -27.739645723 ], [ -54.149608842, -27.740545161999901 ], [ -54.147416882, -27.744248558 ], [ -54.147363006, -27.749539741 ], [ -54.145637275999903, -27.750913275999899 ], [ -54.147134162, -27.7592324149999 ], [ -54.152209415, -27.764205873 ], [ -54.160216151, -27.769046667999902 ], [ -54.168557708, -27.769880525 ], [ -54.16817644799989, -27.7616539059999 ], [ -54.17327223, -27.7628083389999 ], [ -54.175605925, -27.7620534 ], [ -54.181446644999902, -27.755500142 ], [ -54.181007357999896, -27.750454523 ], [ -54.177320838, -27.746085058999899 ], [ -54.180211314, -27.746516584999899 ], [ -54.182466256999909, -27.744381781999898 ], [ -54.188962593, -27.742322666 ], [ -54.189835543999891, -27.739276184999902 ], [ -54.197572607, -27.730952452999905 ], [ -54.184723804, -27.721068975 ], [ -54.181855031999909, -27.721499739 ], [ -54.179188971, -27.720347425999897 ], [ -54.176970398, -27.714974554 ], [ -54.172620379, -27.710596411 ], [ -54.169061337, -27.703773504 ], [ -54.168678911, -27.6915578539999 ], [ -54.16658425899989, -27.69187635 ], [ -54.159458247, -27.684882506999898 ], [ -54.155806522, -27.684265594999896 ], [ -54.14636371599989, -27.686562991999903 ], [ -54.149890093, -27.6949924809999 ], [ -54.140369534999891, -27.695151032999895 ], [ -54.139784382, -27.698966791 ], [ -54.140273265, -27.702156570999893 ], [ -54.1422215589999, -27.702274721999988 ], [ -54.157775472, -27.693775827 ], [ -54.164529203, -27.702091741999897 ], [ -54.163151995, -27.707212389999896 ], [ -54.166926826999891, -27.710372804999988 ], [ -54.160030976, -27.713733639999894 ], [ -54.158579341999904, -27.713329067 ], [ -54.156295427, -27.708803487999898 ], [ -54.148956043999895, -27.707747916 ], [ -54.143895255, -27.705051334 ], [ -54.139104593999903, -27.705778331 ], [ -54.138974227999903, -27.713402986999899 ], [ -54.131262660999894, -27.715089524999897 ], [ -54.130355971, -27.713849285 ], [ -54.13330388899989, -27.699662868 ], [ -54.129350625, -27.696667971 ], [ -54.123238686, -27.700072758 ], [ -54.121390071, -27.699741556999989 ], [ -54.113713737999902, -27.692478638 ], [ -54.110814559999909, -27.691849709999893 ], [ -54.108364029, -27.696640957999904 ], [ -54.113418946, -27.702518003 ], [ -54.111645497, -27.708289346999898 ], [ -54.105275175, -27.714798255999902 ], [ -54.090712927, -27.711284244 ], [ -54.093146428, -27.720064577999899 ], [ -54.092540401999898, -27.725445997 ], [ -54.0873833059999, -27.728012212999893 ], [ -54.08267662, -27.727255267 ], [ -54.081534448, -27.725404302999891 ], [ -54.077185388, -27.724676132 ], [ -54.071599611, -27.71828232 ], [ -54.066837136999901, -27.719880772999907 ], [ -54.067757921, -27.72331316 ], [ -54.064766547, -27.726029121 ], [ -54.068987590999903, -27.72957367 ], [ -54.075019665999903, -27.730684718 ], [ -54.071002979999903, -27.733205129999895 ], [ -54.068525783, -27.743279695 ], [ -54.066510792, -27.7448856419999 ], [ -54.064615601, -27.740090102 ], [ -54.061839652999893, -27.738669122 ], [ -54.058734637, -27.744676031 ], [ -54.060986025, -27.749873458 ], [ -54.058530138, -27.768004811 ], [ -54.070370098, -27.770995958 ], [ -54.072522911, -27.775656539 ], [ -54.079251730999893, -27.783647048 ], [ -54.085036972999895, -27.7845627529999 ], [ -54.086179231, -27.787279334999901 ], [ -54.087330463999891, -27.786665618 ], [ -54.087810019, -27.787878749999905 ], [ -54.089771447, -27.787957988999906 ], [ -54.091574572999903, -27.781889072 ], [ -54.095064209, -27.780287293999894 ], [ -54.098908111999897, -27.781504006999985 ], [ -54.103732529, -27.786370745999896 ], [ -54.110016647999892, -27.77731088 ], [ -54.108535941999904, -27.772256286999898 ], [ -54.105656269, -27.770487004 ], [ -54.106988948, -27.769217323 ], [ -54.115534328, -27.768007782 ], [ -54.119851148999899, -27.772270778999903 ], [ -54.122712641, -27.77326292 ], [ -54.125758328, -27.768725393999894 ], [ -54.119125234, -27.762327017 ], [ -54.119563834, -27.758572194999896 ], [ -54.112529493999901, -27.762334575 ], [ -54.106779445, -27.758002325999904 ], [ -54.11038268, -27.755067983999901 ] ] ] } }
]
}
