{
"type": "FeatureCollection",
"name": "bairros_quinze_de_novembro",
"crs": { "type": "name", "properties": { "name": "urn:ogc:def:crs:OGC:1.3:CRS84" } },
"features": [
{ "type": "Feature", "properties": { "name": "Três Palmeiras", "code_muni": 4315354.0, "name_muni": "Quinze de Novembro" }, "geometry": { "type": "Polygon", "coordinates": [ [ [ -53.0980952, -28.7317755 ], [ -53.0922292, -28.7317073 ], [ -53.092071, -28.739447299999988 ], [ -53.09213, -28.7393485 ], [ -53.0922212, -28.739278 ], [ -53.0924572, -28.7392168 ], [ -53.0925752, -28.7392074 ], [ -53.0928059, -28.7392027 ], [ -53.0932941, -28.7392357 ], [ -53.0936213, -28.7391933 ], [ -53.0939914, -28.7391792 ], [ -53.0940987, -28.7389958 ], [ -53.0943187, -28.7390804 ], [ -53.094426, -28.7390851 ], [ -53.0948712, -28.7391698 ], [ -53.0951019, -28.7393862 ], [ -53.0953916, -28.7395696 ], [ -53.0956437, -28.739771900000012 ], [ -53.0957402, -28.7398236 ], [ -53.0961962, -28.73996 ], [ -53.0966629, -28.7400165 ], [ -53.0978431, -28.74004 ], [ -53.0980952, -28.7317755 ] ] ] } },
{ "type": "Feature", "properties": { "name": "Centro", "code_muni": 4315354.0, "name_muni": "Quinze de Novembro" }, "geometry": { "type": "Polygon", "coordinates": [ [ [ -53.0932678, -28.7450943 ], [ -53.0933369, -28.7450973 ], [ -53.0944824, -28.7451233 ], [ -53.0945322, -28.7451118 ], [ -53.09460330000001, -28.7452145 ], [ -53.0947458, -28.7451415 ], [ -53.0951106, -28.744831 ], [ -53.095411, -28.7447417 ], [ -53.0958563, -28.7443983 ], [ -53.096103, -28.744436 ], [ -53.0965697, -28.7443419 ], [ -53.0972778, -28.7440456 ], [ -53.0974602, -28.7439186 ], [ -53.0975782, -28.7438951 ], [ -53.0980181, -28.7440644 ], [ -53.0980718, -28.7443043 ], [ -53.0980074, -28.7446053 ], [ -53.0980074, -28.7452355 ], [ -53.0980718, -28.7456306 ], [ -53.09812, -28.7457023 ], [ -53.0985116, -28.7449674 ], [ -53.0985224, -28.7444501 ], [ -53.0987691, -28.7441773 ], [ -53.0990266, -28.7436411 ], [ -53.0995416, -28.7430861 ], [ -53.1000888, -28.7422489 ], [ -53.1004106, -28.7417127 ], [ -53.1010457, -28.74115 ], [ -53.1009062, -28.7409619 ], [ -53.1007238, -28.7408396 ], [ -53.1005092, -28.7407831 ], [ -53.1002839, -28.7407737 ], [ -53.0994632, -28.740675 ], [ -53.0986585, -28.740341 ], [ -53.098304400000011, -28.7401529 ], [ -53.0980899, -28.7400823 ], [ -53.0978431, -28.74004 ], [ -53.0966629, -28.7400165 ], [ -53.0961962, -28.73996 ], [ -53.0957402, -28.7398236 ], [ -53.0956437, -28.739771900000012 ], [ -53.0953916, -28.7395696 ], [ -53.0951019, -28.7393862 ], [ -53.0948712, -28.7391698 ], [ -53.094426, -28.7390851 ], [ -53.0943187, -28.7390804 ], [ -53.0940987, -28.7389958 ], [ -53.0939914, -28.7391792 ], [ -53.0936213, -28.7391933 ], [ -53.0932941, -28.7392357 ], [ -53.0928059, -28.7392027 ], [ -53.0925752, -28.7392074 ], [ -53.0924572, -28.7392168 ], [ -53.0922212, -28.739278 ], [ -53.09213, -28.7393485 ], [ -53.092071, -28.739447299999988 ], [ -53.0919889, -28.7404343 ], [ -53.0919798, -28.7407247 ], [ -53.091979, -28.7411978 ], [ -53.0919474, -28.7417888 ], [ -53.091947, -28.7418368 ], [ -53.0919476, -28.7423876 ], [ -53.0919298, -28.7433779 ], [ -53.0919202, -28.744035 ], [ -53.0919028, -28.7441163 ], [ -53.0918847, -28.7444018 ], [ -53.0918826, -28.7451282 ], [ -53.0932678, -28.7450943 ] ] ] } },
{ "type": "Feature", "properties": { "name": "Bela Vista", "code_muni": 4315354.0, "name_muni": "Quinze de Novembro" }, "geometry": { "type": "Polygon", "coordinates": [ [ [ -53.0978196, -28.7459928 ], [ -53.0977338, -28.746275 ], [ -53.097589, -28.746449 ], [ -53.0977284, -28.746924 ], [ -53.0976943, -28.7471007 ], [ -53.10402460000001, -28.7455509 ], [ -53.1040791, -28.7436865 ], [ -53.1056034, -28.7411835 ], [ -53.1052708, -28.7401676 ], [ -53.1043803, -28.7402522 ], [ -53.1030177, -28.7406661 ], [ -53.101387, -28.7405721 ], [ -53.1010457, -28.74115 ], [ -53.1004106, -28.7417127 ], [ -53.1000888, -28.7422489 ], [ -53.0995416, -28.7430861 ], [ -53.0990266, -28.7436411 ], [ -53.0987691, -28.7441773 ], [ -53.0985224, -28.7444501 ], [ -53.0985116, -28.7449674 ], [ -53.09812, -28.7457023 ], [ -53.0978196, -28.7459928 ] ] ] } },
{ "type": "Feature", "properties": { "name": "Colina", "code_muni": 4315354.0, "name_muni": "Quinze de Novembro" }, "geometry": { "type": "Polygon", "coordinates": [ [ [ -53.0944824, -28.7451233 ], [ -53.0933369, -28.7450973 ], [ -53.0932678, -28.7450943 ], [ -53.0918826, -28.7451282 ], [ -53.0915453, -28.7451903 ], [ -53.0915606, -28.7456059 ], [ -53.0914641, -28.748395 ], [ -53.0905683, -28.7483385 ], [ -53.089946, -28.7490393 ], [ -53.0913488, -28.7491639 ], [ -53.0911664, -28.7518635 ], [ -53.0958008, -28.7520455 ], [ -53.0959997, -28.7472685 ], [ -53.0976943, -28.7471007 ], [ -53.0977284, -28.746924 ], [ -53.097589, -28.746449 ], [ -53.0977338, -28.746275 ], [ -53.0978196, -28.7459928 ], [ -53.09812, -28.7457023 ], [ -53.0980718, -28.7456306 ], [ -53.0980074, -28.7452355 ], [ -53.0980074, -28.7446053 ], [ -53.0980718, -28.7443043 ], [ -53.0980181, -28.7440644 ], [ -53.0975782, -28.7438951 ], [ -53.0974602, -28.7439186 ], [ -53.0972778, -28.7440456 ], [ -53.0965697, -28.7443419 ], [ -53.096103, -28.744436 ], [ -53.0958563, -28.7443983 ], [ -53.095411, -28.7447417 ], [ -53.0951106, -28.744831 ], [ -53.0947458, -28.7451415 ], [ -53.09460330000001, -28.7452145 ], [ -53.0945322, -28.7451118 ], [ -53.0944824, -28.7451233 ] ] ] } },
{ "type": "Feature", "properties": { "name": "Princesa", "code_muni": 4315354.0, "name_muni": "Quinze de Novembro" }, "geometry": { "type": "Polygon", "coordinates": [ [ [ -53.0919028, -28.7441163 ], [ -53.0919202, -28.744035 ], [ -53.0919298, -28.7433779 ], [ -53.0919476, -28.7423876 ], [ -53.091947, -28.7418368 ], [ -53.0919474, -28.7417888 ], [ -53.091979, -28.7411978 ], [ -53.0919798, -28.7407247 ], [ -53.0919889, -28.7404343 ], [ -53.092071, -28.739447299999988 ], [ -53.082028, -28.7401425 ], [ -53.0819705, -28.7411384 ], [ -53.0819638, -28.7421995 ], [ -53.0818454, -28.7446016 ], [ -53.0818328, -28.7452181 ], [ -53.0818337, -28.7455148 ], [ -53.0915606, -28.7456059 ], [ -53.0915453, -28.7451903 ], [ -53.0918826, -28.7451282 ], [ -53.0918847, -28.7444018 ], [ -53.0919028, -28.7441163 ] ] ] } }
]
}
