{
"type": "FeatureCollection",
"name": "bairros_sao_jose_do_hortencio",
"crs": { "type": "name", "properties": { "name": "urn:ogc:def:crs:OGC:1.3:CRS84" } },
"features": [
{ "type": "Feature", "properties": { "code_muni": 4318481.0, "name_muni": "São José do Hortêncio", "code_state": 43.0, "abbrev_state": "RS", "name_state": "Rio Grande do Sul", "code_region": 4.0, "name_region": "Sul", "year": 2022.0 }, "geometry": { "type": "Polygon", "coordinates": [ [ [ -51.24349691, -29.496105561 ], [ -51.238454591999989, -29.499388340999896 ], [ -51.226056013999894, -29.50117863899991 ], [ -51.222372601, -29.482763796 ], [ -51.205831856, -29.485020677 ], [ -51.177808517, -29.494106938 ], [ -51.185523465, -29.496750480999903 ], [ -51.18701655, -29.497869183 ], [ -51.186621586999898, -29.499173158 ], [ -51.18982979, -29.500437704 ], [ -51.194149495, -29.498612632999908 ], [ -51.196800212, -29.499193401999896 ], [ -51.201055168, -29.504598499999897 ], [ -51.199175098, -29.508842743999896 ], [ -51.199956696999898, -29.510915429 ], [ -51.203304774999893, -29.5111388629999 ], [ -51.205746244, -29.509219408 ], [ -51.208223814999897, -29.509247344999888 ], [ -51.21045097, -29.514297649 ], [ -51.213893503, -29.5131557129999 ], [ -51.217119416999893, -29.515013920999902 ], [ -51.219783547, -29.520810615999899 ], [ -51.221273833999902, -29.518935152 ], [ -51.22327706, -29.519635563 ], [ -51.223314506, -29.521405683 ], [ -51.225472368999895, -29.521713095999893 ], [ -51.225499769999892, -29.516880982999989 ], [ -51.226469564999896, -29.516620401 ], [ -51.233557143, -29.521057942 ], [ -51.234654441, -29.525112556999897 ], [ -51.236854042999894, -29.526689115999886 ], [ -51.23314636, -29.528020854 ], [ -51.231663587, -29.530025394999893 ], [ -51.232014807, -29.540421985 ], [ -51.227239348, -29.538015818 ], [ -51.222311288999897, -29.538962581 ], [ -51.220347192, -29.543645711999904 ], [ -51.222805300999902, -29.5442959649999 ], [ -51.223501187, -29.546820024999899 ], [ -51.230145283, -29.549964297 ], [ -51.230729928, -29.551908468 ], [ -51.233204486, -29.552006115 ], [ -51.235573901999899, -29.549699314999895 ], [ -51.237852413, -29.554045238999901 ], [ -51.237107548, -29.556203083999893 ], [ -51.240565585999903, -29.55605829 ], [ -51.247175322, -29.561589873999885 ], [ -51.249391402, -29.562013174 ], [ -51.255194188, -29.557665449999899 ], [ -51.260186006, -29.558806151999903 ], [ -51.262182966999902, -29.560109720999893 ], [ -51.25994242, -29.56559887 ], [ -51.263891649, -29.566996763 ], [ -51.259439867, -29.569113695999899 ], [ -51.260237167999897, -29.570772588999905 ], [ -51.259260524, -29.571739658999899 ], [ -51.251983556, -29.573620245 ], [ -51.251073378999898, -29.57615019 ], [ -51.248428670999893, -29.577387202999912 ], [ -51.248649084, -29.5798483 ], [ -51.244981535, -29.581747194999906 ], [ -51.246299233999892, -29.585023196999892 ], [ -51.249099142, -29.583410774999901 ], [ -51.253676782999896, -29.587778539999903 ], [ -51.255088702, -29.587358386999892 ], [ -51.25410701, -29.585933026 ], [ -51.25810325, -29.585041170999908 ], [ -51.257509904, -29.586927608999897 ], [ -51.255482177, -29.586473277 ], [ -51.256305106, -29.5887505379999 ], [ -51.257244526, -29.587472487999904 ], [ -51.259851768, -29.588508545 ], [ -51.260217019, -29.58607216 ], [ -51.262784784, -29.585856801 ], [ -51.267573243, -29.590167181 ], [ -51.268355540999892, -29.589079695 ], [ -51.269734281, -29.590261917 ], [ -51.273572133999899, -29.586477439 ], [ -51.272118328, -29.581718466 ], [ -51.273293173999903, -29.580149972 ], [ -51.276698576999898, -29.581763673999902 ], [ -51.275911860999898, -29.583701085 ], [ -51.277033678999892, -29.584487701999905 ], [ -51.286092325, -29.581659169 ], [ -51.292480901, -29.584028569999905 ], [ -51.294503378999892, -29.580391478 ], [ -51.295936514999902, -29.582599103999897 ], [ -51.299108103, -29.583795192 ], [ -51.303045876999903, -29.579906016999903 ], [ -51.30195442, -29.571125224 ], [ -51.304804404, -29.563175280999889 ], [ -51.307127983, -29.561750414999892 ], [ -51.305200918, -29.557985642999888 ], [ -51.307235942, -29.557018963 ], [ -51.306979720999898, -29.544109960999911 ], [ -51.308436872, -29.540224544999905 ], [ -51.294974028999896, -29.532234204 ], [ -51.299697677, -29.525170764999899 ], [ -51.30253685, -29.524429304 ], [ -51.302759883, -29.52266671 ], [ -51.299595606, -29.521735211 ], [ -51.290145653, -29.525230522 ], [ -51.281207643, -29.51609573 ], [ -51.275937336, -29.508219117 ], [ -51.2652940299999, -29.502975574999905 ], [ -51.262885428999894, -29.503549958999905 ], [ -51.261651054, -29.501621137 ], [ -51.254006685, -29.501488688999899 ], [ -51.252432734, -29.496751251 ], [ -51.24349691, -29.496105561 ] ] ] } }
]
}
