{
"type": "FeatureCollection",
"name": "bairros_paulo_bento",
"crs": { "type": "name", "properties": { "name": "urn:ogc:def:crs:OGC:1.3:CRS84" } },
"features": [
{ "type": "Feature", "properties": { "code_muni": 4314134.0, "name_muni": "Paulo Bento", "code_state": 43.0, "abbrev_state": "RS", "name_state": "Rio Grande do Sul", "code_region": 4.0, "name_region": "Sul", "year": 2022.0 }, "geometry": { "type": "Polygon", "coordinates": [ [ [ -52.393551379, -27.662086412999901 ], [ -52.321594975, -27.660935176 ], [ -52.321205813999903, -27.705527221999901 ], [ -52.318710758999899, -27.706556177 ], [ -52.317408735, -27.704701803 ], [ -52.31485364, -27.7049540259999 ], [ -52.306925969, -27.69945057 ], [ -52.315546245, -27.707514217 ], [ -52.320415023999892, -27.717586813 ], [ -52.320470246, -27.721283168 ], [ -52.327554071999892, -27.733169749 ], [ -52.330017471, -27.745741119999895 ], [ -52.332819919, -27.750350153999904 ], [ -52.33984692, -27.747951507 ], [ -52.341751857, -27.752740063 ], [ -52.349070766999894, -27.755788364 ], [ -52.349744433999895, -27.754301294999895 ], [ -52.351859088, -27.755530474 ], [ -52.353073703, -27.754400328 ], [ -52.356033054, -27.754767334 ], [ -52.356881047999899, -27.754014245 ], [ -52.355861201, -27.752860942 ], [ -52.3593846159999, -27.751497422999893 ], [ -52.362453925999894, -27.755100614 ], [ -52.365486373, -27.754132355 ], [ -52.364536817, -27.755897479999902 ], [ -52.366054358, -27.756044573999894 ], [ -52.368958366999891, -27.751853131 ], [ -52.376310138999898, -27.759828231 ], [ -52.376445582, -27.761881718 ], [ -52.380424393999903, -27.764264345 ], [ -52.381011704999892, -27.767526142 ], [ -52.386880496999893, -27.772986564 ], [ -52.391675606, -27.776347146 ], [ -52.398422984, -27.777806432 ], [ -52.400528898999902, -27.772968359999901 ], [ -52.399480310999891, -27.770769236 ], [ -52.404874709, -27.772482714 ], [ -52.40937782399989, -27.771667818 ], [ -52.412028423, -27.773168611 ], [ -52.414104067, -27.769061897 ], [ -52.421988671999898, -27.766585231 ], [ -52.42480871, -27.762626444 ], [ -52.4235996909999, -27.761138193 ], [ -52.418343927, -27.760942413 ], [ -52.418945935, -27.756788737 ], [ -52.419776328999895, -27.7551459909999 ], [ -52.424948639, -27.755264686 ], [ -52.427289031, -27.756965729999909 ], [ -52.42892453799989, -27.755914227999895 ], [ -52.428302667, -27.754685048999896 ], [ -52.43167206, -27.751650378 ], [ -52.430923143, -27.749281735 ], [ -52.427004187, -27.748768133999896 ], [ -52.426844775999903, -27.746268230999902 ], [ -52.430395475, -27.743602048 ], [ -52.433097048, -27.738375124 ], [ -52.436423938, -27.739820551 ], [ -52.445751475999892, -27.736200758999896 ], [ -52.449214731, -27.737846460999897 ], [ -52.450607024, -27.735781323 ], [ -52.454344078, -27.736259014 ], [ -52.459275358, -27.732717114 ], [ -52.461092912, -27.733188979 ], [ -52.463960511, -27.737099341 ], [ -52.466984985, -27.738079492999901 ], [ -52.469246164, -27.737334403 ], [ -52.470418005999903, -27.73510182 ], [ -52.472348074, -27.73505245 ], [ -52.472171102999894, -27.733313096999989 ], [ -52.474055979, -27.734195852 ], [ -52.472272978, -27.729897569999892 ], [ -52.474565161, -27.727936531 ], [ -52.479013449, -27.72894646 ], [ -52.478968847, -27.727680356 ], [ -52.481077617, -27.7270603179999 ], [ -52.479775391, -27.725570418 ], [ -52.481748798999902, -27.723164009999902 ], [ -52.48468983, -27.724502387 ], [ -52.484746351999902, -27.722100801 ], [ -52.482209508, -27.720829819 ], [ -52.481817524, -27.71773818 ], [ -52.479577817999903, -27.718021467 ], [ -52.47826759, -27.682223823 ], [ -52.457960269, -27.68283263 ], [ -52.457929893, -27.673724358 ], [ -52.447932674, -27.674049620999902 ], [ -52.44725597, -27.662753935 ], [ -52.409493102999903, -27.663077354999903 ], [ -52.408704211, -27.661274024 ], [ -52.40351952, -27.661774769 ], [ -52.395590653999896, -27.658388886999905 ], [ -52.39360563199989, -27.659196065999907 ], [ -52.393551379, -27.662086412999901 ] ] ] } }
]
}
