{
"type": "FeatureCollection",
"name": "bairros_ipiranga_do_sul",
"crs": { "type": "name", "properties": { "name": "urn:ogc:def:crs:OGC:1.3:CRS84" } },
"features": [
{ "type": "Feature", "properties": { "code_muni": 4310462.0, "name_muni": "Ipiranga do Sul", "code_state": 43.0, "abbrev_state": "RS", "name_state": "Rio Grande do Sul", "code_region": 4.0, "name_region": "Sul", "year": 2022.0 }, "geometry": { "type": "Polygon", "coordinates": [ [ [ -52.410935547999891, -27.990226709999902 ], [ -52.414874319, -27.988123169999891 ], [ -52.41884125699989, -27.989024985 ], [ -52.419066110999893, -27.985250156999893 ], [ -52.423206652, -27.987351028 ], [ -52.426468231999891, -27.983202263999896 ], [ -52.430046108999903, -27.986393544999896 ], [ -52.432723509, -27.984027882 ], [ -52.436467454, -27.989956306 ], [ -52.437972118999902, -27.988896194999899 ], [ -52.437401344, -27.987728607 ], [ -52.438954774, -27.987726393999893 ], [ -52.440031667, -27.982833447 ], [ -52.441812792999897, -27.983393135 ], [ -52.441477878999891, -27.981728424 ], [ -52.44313971, -27.981958348 ], [ -52.442759361, -27.980200200999899 ], [ -52.444519315, -27.9806748079999 ], [ -52.444386242999897, -27.979251462 ], [ -52.448425417999893, -27.985326362999984 ], [ -52.450135789999891, -27.984441651999905 ], [ -52.450564447, -27.981905928999897 ], [ -52.452701167, -27.981201009 ], [ -52.452091036999903, -27.979577429999896 ], [ -52.454253121, -27.974879692999899 ], [ -52.455761776, -27.97700865 ], [ -52.457606353, -27.9753223989999 ], [ -52.458732229, -27.976209233 ], [ -52.458763696999895, -27.974782325 ], [ -52.463147794999898, -27.975216589999892 ], [ -52.465815155, -27.97320109 ], [ -52.469305075, -27.975913139999907 ], [ -52.467980934, -27.977325669 ], [ -52.469965333999895, -27.977603067 ], [ -52.473135003, -27.971168663 ], [ -52.470982692, -27.969471203999902 ], [ -52.476106064, -27.970666593 ], [ -52.475793283, -27.966885650999899 ], [ -52.474254362, -27.965661467 ], [ -52.476907743, -27.959035373999892 ], [ -52.48202142, -27.958786913 ], [ -52.48632099, -27.960285887999898 ], [ -52.490060907, -27.959430176999895 ], [ -52.491151197, -27.957621498 ], [ -52.492824812, -27.960495285 ], [ -52.494941099999899, -27.960332585999907 ], [ -52.4945239259999, -27.954286907 ], [ -52.496697403, -27.949179849 ], [ -52.499666391999902, -27.947599097 ], [ -52.500685071, -27.949335199 ], [ -52.504457118999895, -27.949061351999902 ], [ -52.503017623999902, -27.947991037 ], [ -52.504224291, -27.94663551 ], [ -52.501635039, -27.946996209 ], [ -52.504922725, -27.943811083 ], [ -52.507547339, -27.943532801999901 ], [ -52.512962936999898, -27.946703086999907 ], [ -52.513948871, -27.945946857 ], [ -52.515193912, -27.948014606 ], [ -52.515842025, -27.946174781 ], [ -52.517726043, -27.946104853 ], [ -52.517040172, -27.9449832459999 ], [ -52.511874242, -27.944279736999896 ], [ -52.512502364999897, -27.942862845 ], [ -52.514501191, -27.943755949 ], [ -52.522572619999892, -27.943279751 ], [ -52.524117831999895, -27.942059309999902 ], [ -52.523392558, -27.94076605 ], [ -52.521216736, -27.940873822 ], [ -52.523678006999894, -27.939484442 ], [ -52.525263997, -27.940018930999898 ], [ -52.527133981, -27.937554747 ], [ -52.524661059, -27.935416791 ], [ -52.522237654, -27.935288629999899 ], [ -52.521908513, -27.932055481 ], [ -52.518912752999896, -27.928873306 ], [ -52.519903086999896, -27.924512923999902 ], [ -52.516119429, -27.921405023 ], [ -52.512845501999898, -27.921000152 ], [ -52.512041584, -27.924760508 ], [ -52.513795058, -27.925479955999897 ], [ -52.512099839, -27.926318826999907 ], [ -52.508964267, -27.921311815 ], [ -52.506038412999899, -27.920892379999898 ], [ -52.504721124, -27.919146188 ], [ -52.495276542999903, -27.920573433999891 ], [ -52.489238418999904, -27.912985729 ], [ -52.48618586, -27.911354591 ], [ -52.478752530999898, -27.909816661 ], [ -52.474709639, -27.911552657999902 ], [ -52.466801530999902, -27.907984542999898 ], [ -52.462981463999903, -27.909443828999891 ], [ -52.460563056999902, -27.907476389999903 ], [ -52.458813323999898, -27.901409018 ], [ -52.454541780999897, -27.899843416 ], [ -52.452403825, -27.896895716999897 ], [ -52.451902832, -27.8913848 ], [ -52.449106596, -27.8865263389999 ], [ -52.441111105999894, -27.880445979999902 ], [ -52.436715771, -27.881229509 ], [ -52.434397224999898, -27.879382828 ], [ -52.429206710999892, -27.863381654 ], [ -52.426987197999892, -27.862018487999901 ], [ -52.422932654, -27.862880661 ], [ -52.411211761999894, -27.857567812 ], [ -52.374882710999898, -27.872635031 ], [ -52.370400496999906, -27.872741840999904 ], [ -52.365720982, -27.881255354 ], [ -52.356809708999897, -27.877629193 ], [ -52.357113023, -27.881353370999893 ], [ -52.355580636, -27.884902301 ], [ -52.359320576, -27.887782376 ], [ -52.360453612999891, -27.891858339 ], [ -52.357026173, -27.899144982999907 ], [ -52.354294376, -27.89614425799989 ], [ -52.350407139, -27.898078067 ], [ -52.349499161, -27.901616335 ], [ -52.352382924, -27.912486787 ], [ -52.36632547100001, -27.912690652 ], [ -52.367347611999897, -27.921068605 ], [ -52.371777199999897, -27.927996472 ], [ -52.370122680999891, -27.932760218999899 ], [ -52.367930851, -27.931412588999901 ], [ -52.352964716, -27.945544621999904 ], [ -52.339426037, -27.946565673 ], [ -52.3414442979999, -27.951952443 ], [ -52.337826268999891, -27.956862575999896 ], [ -52.334093437999989, -27.972863235 ], [ -52.334800462, -27.976532743 ], [ -52.337483337, -27.978438058999895 ], [ -52.338542302, -27.977063331 ], [ -52.342007329999902, -27.977018514999902 ], [ -52.34203772099989, -27.982208995999894 ], [ -52.345342005, -27.98151712 ], [ -52.347477392, -27.983612335 ], [ -52.350192976999892, -27.981591608 ], [ -52.352528472, -27.981563657 ], [ -52.357560588999903, -27.986857253 ], [ -52.360248560999899, -27.987460384 ], [ -52.362348041, -27.984962042999893 ], [ -52.364612582999889, -27.984453093999896 ], [ -52.363454095, -27.982539363999894 ], [ -52.36603439399989, -27.978883788 ], [ -52.368675014, -27.978570491 ], [ -52.370257131999892, -27.980235689 ], [ -52.372505941, -27.977041573999905 ], [ -52.375564354999902, -27.978623121999902 ], [ -52.378432658999891, -27.982385608999902 ], [ -52.381138972, -27.98312207 ], [ -52.38620271, -27.983181554999895 ], [ -52.38741971, -27.981941809 ], [ -52.389981905999896, -27.983076068999896 ], [ -52.392877601, -27.980850887 ], [ -52.401042737999894, -27.983392704 ], [ -52.400555870999902, -27.985867116 ], [ -52.404163231, -27.989358012 ], [ -52.404424961, -27.991398153 ], [ -52.410935547999891, -27.990226709999902 ] ] ] } }
]
}
