{
"type": "FeatureCollection",
"name": "bairros_sao_pedro_da_serra",
"crs": { "type": "name", "properties": { "name": "urn:ogc:def:crs:OGC:1.3:CRS84" } },
"features": [
{ "type": "Feature", "properties": { "name": "Estação São Salvador", "code_muni": 4319356.0, "name_muni": "São Pedro da Serra" }, "geometry": { "type": "Polygon", "coordinates": [ [ [ -51.5101491, -29.4314743 ], [ -51.510082, -29.4313516 ], [ -51.509803132273959, -29.430864076946467 ], [ -51.510106549999904, -29.431543170999891 ], [ -51.510359013340782, -29.431554358200355 ], [ -51.5101491, -29.4314743 ] ] ] } }
]
}
