{
"type": "FeatureCollection",
"name": "bairros_vale_do_sol",
"crs": { "type": "name", "properties": { "name": "urn:ogc:def:crs:OGC:1.3:CRS84" } },
"features": [
{ "type": "Feature", "properties": { "code_muni": 4322533.0, "name_muni": "Vale do Sol", "code_state": 43.0, "abbrev_state": "RS", "name_state": "Rio Grande do Sul", "code_region": 4.0, "name_region": "Sul", "year": 2022.0 }, "geometry": { "type": "Polygon", "coordinates": [ [ [ -52.674582825999892, -29.710584314999899 ], [ -52.681710252, -29.709602792999906 ], [ -52.687124282999896, -29.713446845 ], [ -52.691926236, -29.713193084 ], [ -52.69969083, -29.702867445 ], [ -52.704030718, -29.699844901999903 ], [ -52.702691007999903, -29.69786899 ], [ -52.710992274, -29.697849892 ], [ -52.715055294, -29.689418444999902 ], [ -52.709558289, -29.685048837 ], [ -52.710978526, -29.681198381999891 ], [ -52.709168658999893, -29.67737512 ], [ -52.709744531, -29.672407855 ], [ -52.706926451, -29.667625813 ], [ -52.707484641, -29.665094756 ], [ -52.709315776, -29.662781756 ], [ -52.722047523999898, -29.655511143999902 ], [ -52.733989640999901, -29.654735393 ], [ -52.741559395, -29.6500456059999 ], [ -52.743284487, -29.639969080999904 ], [ -52.741236387999891, -29.633584887 ], [ -52.73772274, -29.628978172 ], [ -52.737923023999898, -29.624094640999896 ], [ -52.740139192999898, -29.620261291 ], [ -52.73848207799989, -29.617181322 ], [ -52.733766554999896, -29.613540886 ], [ -52.750446031, -29.611242717 ], [ -52.758583567, -29.608076234999899 ], [ -52.764478627999893, -29.602756854999893 ], [ -52.772056043, -29.580365260999908 ], [ -52.74218465, -29.577504957 ], [ -52.748456496, -29.576368092999903 ], [ -52.75112387, -29.573486806999899 ], [ -52.743496116, -29.550189861 ], [ -52.736334514, -29.547329213999905 ], [ -52.74423003, -29.528713571 ], [ -52.747371551, -29.511112576999899 ], [ -52.746319692, -29.509336442999892 ], [ -52.750693656, -29.503738851 ], [ -52.756756197, -29.504408149 ], [ -52.7615273279999, -29.502211042999903 ], [ -52.769030648999902, -29.501603243 ], [ -52.772845404, -29.495464786999896 ], [ -52.798204211, -29.4955049 ], [ -52.796979443578898, -29.489826736908899 ], [ -52.793427683016091, -29.485949191728196 ], [ -52.791190368999899, -29.479758606 ], [ -52.786715457545696, -29.475033636459202 ], [ -52.780553878902303, -29.463677209614804 ], [ -52.779201164510496, -29.449498496460706 ], [ -52.772727965797799, -29.448715905150305 ], [ -52.770659941701496, -29.447295909152604 ], [ -52.773740731023103, -29.442692430855804 ], [ -52.771324799, -29.439980456999898 ], [ -52.769555231, -29.442552713999898 ], [ -52.769213126, -29.441262303 ], [ -52.756766097, -29.440729948 ], [ -52.755095428999901, -29.439280059999902 ], [ -52.751570709, -29.439838823999899 ], [ -52.749422879999898, -29.436793152 ], [ -52.74676532, -29.437497043 ], [ -52.742328353999902, -29.436222104 ], [ -52.741353364, -29.439225785 ], [ -52.739383296, -29.438168879999989 ], [ -52.736235736, -29.439229646999895 ], [ -52.731574789, -29.433423877999893 ], [ -52.727091231, -29.432773122999887 ], [ -52.724966067, -29.434582178 ], [ -52.722022667, -29.433822402 ], [ -52.718803599, -29.440163625 ], [ -52.719656405, -29.441529423 ], [ -52.717950658999897, -29.442993293 ], [ -52.717402421, -29.4417530969999 ], [ -52.713839060999902, -29.441836904999899 ], [ -52.706992968, -29.445397785999898 ], [ -52.70172385, -29.451770054 ], [ -52.689296094, -29.452948165999899 ], [ -52.68781068, -29.463834815 ], [ -52.681353029, -29.466191205 ], [ -52.682873258, -29.470298847 ], [ -52.674114548, -29.468946322 ], [ -52.673890193, -29.473984721 ], [ -52.677595643, -29.477739820999904 ], [ -52.67758035, -29.480506243 ], [ -52.681654079999895, -29.483561298 ], [ -52.682085028, -29.4857990319999 ], [ -52.681010288, -29.485895727 ], [ -52.680644515, -29.4897717969999 ], [ -52.679204004, -29.489999253999905 ], [ -52.681839187, -29.49180512 ], [ -52.681636601, -29.498130955 ], [ -52.679710024, -29.501632523999902 ], [ -52.681326912, -29.501098316 ], [ -52.682688362, -29.505874594 ], [ -52.677050831, -29.508241527999896 ], [ -52.679305864, -29.510918649 ], [ -52.678250943, -29.51240646 ], [ -52.68014268799989, -29.515028539999904 ], [ -52.682151207999901, -29.514855422 ], [ -52.683555673999898, -29.517598910999904 ], [ -52.682743048, -29.51981169 ], [ -52.680782889999897, -29.519668678999903 ], [ -52.681048456, -29.523053064999903 ], [ -52.679186676, -29.523908661 ], [ -52.682067248, -29.526586537 ], [ -52.676881309, -29.529041798 ], [ -52.669458151999891, -29.528524815 ], [ -52.668841529, -29.534646182 ], [ -52.657979008, -29.531888589999902 ], [ -52.653922604999899, -29.52603396599989 ], [ -52.648969881, -29.522146478 ], [ -52.6431649049999, -29.520698238000012 ], [ -52.640119289, -29.521579082 ], [ -52.635868918, -29.529365181999893 ], [ -52.63339396, -29.530901179999901 ], [ -52.627064515, -29.526710986 ], [ -52.620017050999898, -29.524308988 ], [ -52.616886442999892, -29.524816775 ], [ -52.616093693, -29.5355354349999 ], [ -52.62142691, -29.538406076999895 ], [ -52.623815291, -29.545117553999905 ], [ -52.615470576, -29.548100479 ], [ -52.611364204, -29.548223607999905 ], [ -52.619302187, -29.553842041999886 ], [ -52.622385354999899, -29.606370828 ], [ -52.614261578, -29.6535599269999 ], [ -52.626868357, -29.653485406999906 ], [ -52.624847224, -29.656122696 ], [ -52.621513466, -29.655927522999885 ], [ -52.618306762, -29.658681364 ], [ -52.622456069999892, -29.663089371999888 ], [ -52.621575545, -29.664103101 ], [ -52.622885525, -29.665460711 ], [ -52.621714356, -29.666196307999904 ], [ -52.623138643999894, -29.670236782 ], [ -52.621599691, -29.670135097999893 ], [ -52.622811673999898, -29.672776152999987 ], [ -52.620389773999889, -29.674990658999892 ], [ -52.619287643999897, -29.674142119 ], [ -52.618679361, -29.675258782999901 ], [ -52.613819037, -29.676042401 ], [ -52.611075153999892, -29.67971281 ], [ -52.60653767, -29.679692241999895 ], [ -52.605978960999899, -29.683642565 ], [ -52.59918461, -29.688323582 ], [ -52.599788312, -29.689198592 ], [ -52.597483476, -29.692143610999903 ], [ -52.5987021239999, -29.693010702 ], [ -52.595300503, -29.695900778999899 ], [ -52.599464392, -29.6986211 ], [ -52.599395472, -29.700236759999896 ], [ -52.601766712, -29.699595227 ], [ -52.603206632, -29.70061164 ], [ -52.603768902, -29.703368676 ], [ -52.602402358999896, -29.704438471999893 ], [ -52.606154283, -29.709114296999896 ], [ -52.602239134999891, -29.725544473 ], [ -52.598722591, -29.729786386999908 ], [ -52.6000127249999, -29.732014439999908 ], [ -52.59928946, -29.737941034 ], [ -52.603183078, -29.738958136999901 ], [ -52.605766243999895, -29.737111015 ], [ -52.610518596, -29.737405423 ], [ -52.61227931699991, -29.733411794999899 ], [ -52.615845285, -29.733367944999902 ], [ -52.616604605, -29.729786818 ], [ -52.618953274, -29.731288816 ], [ -52.619583361, -29.729209958 ], [ -52.621798457, -29.728537589 ], [ -52.620342904, -29.726280051999886 ], [ -52.623251874999895, -29.72641406 ], [ -52.624483975, -29.724673369999895 ], [ -52.631497216, -29.726353409999891 ], [ -52.635203662, -29.723395201999899 ], [ -52.641983172, -29.722327471 ], [ -52.642701361, -29.7204974439999 ], [ -52.645452035999902, -29.722017530999889 ], [ -52.64969242, -29.720900854 ], [ -52.656641146, -29.7132331729999 ], [ -52.660643614, -29.712249925 ], [ -52.665040787999892, -29.7082993 ], [ -52.671886101, -29.708253555999899 ], [ -52.674582825999892, -29.710584314999899 ] ] ] } }
]
}
