{
"type": "FeatureCollection",
"name": "bairros_sananduva",
"crs": { "type": "name", "properties": { "name": "urn:ogc:def:crs:OGC:1.3:CRS84" } },
"features": [
{ "type": "Feature", "properties": { "code_muni": 4316600.0, "name_muni": "Sananduva", "code_state": 43.0, "abbrev_state": "RS", "name_state": "Rio Grande do Sul", "code_region": 4.0, "name_region": "Sul", "year": 2022.0 }, "geometry": { "type": "Polygon", "coordinates": [ [ [ -51.852272101, -28.009420861 ], [ -51.862257032999899, -28.010408926 ], [ -51.865399733999894, -28.008793133 ], [ -51.866423267, -28.010210663999899 ], [ -51.870651828, -28.0104153199999 ], [ -51.874364517999901, -28.009671690999902 ], [ -51.876059273, -28.007467962 ], [ -51.87842504, -28.008175185 ], [ -51.882129393, -28.006849132 ], [ -51.888650715, -28.007057075 ], [ -51.89124716, -28.008416392999898 ], [ -51.89694014, -28.007210394 ], [ -51.897438947, -28.001842954 ], [ -51.905201141, -28.004341247 ], [ -51.907022444999896, -28.007733141999896 ], [ -51.910003152999892, -28.002644680999904 ], [ -51.909471762, -27.999173707 ], [ -51.911168228999898, -27.997983212999902 ], [ -51.913627506999902, -27.997973424999895 ], [ -51.91578956, -28.002864508 ], [ -51.917520606, -28.0035134939999 ], [ -51.9266386319999, -28.000677755 ], [ -51.929864424, -27.996437833999895 ], [ -51.929339205, -27.994260515 ], [ -51.930536797999892, -27.992672728999899 ], [ -51.929388649, -27.990641321999899 ], [ -51.920251633, -27.99068811 ], [ -51.914554118999895, -27.987617043999897 ], [ -51.909370396, -27.990548461999897 ], [ -51.908018811, -27.988093337 ], [ -51.90838344799991, -27.984478126999907 ], [ -51.915450657, -27.982236467999897 ], [ -51.922023221, -27.977675948999895 ], [ -51.91934273, -27.976179565999896 ], [ -51.912567138999989, -27.979140279 ], [ -51.911520553999893, -27.978163735999896 ], [ -51.912223039, -27.975735296 ], [ -51.927268603999899, -27.966735736 ], [ -51.927072214, -27.965098283 ], [ -51.922655764999895, -27.963712031999904 ], [ -51.911439249, -27.964707764 ], [ -51.90792984, -27.963629770999894 ], [ -51.911681014999893, -27.959648308999899 ], [ -51.909696924999892, -27.95242357 ], [ -51.914575419, -27.946924744999897 ], [ -51.915776257999894, -27.939538087999903 ], [ -51.918447471, -27.936806508 ], [ -51.910747638, -27.933902655999908 ], [ -51.910643525999902, -27.932342354999903 ], [ -51.917000003999902, -27.932165283 ], [ -51.924260194999903, -27.934041955999895 ], [ -51.928372996999897, -27.93386572 ], [ -51.930772038, -27.932327703999896 ], [ -51.929454672, -27.929684768 ], [ -51.92230927, -27.926120582 ], [ -51.920291913, -27.923540076999895 ], [ -51.925102054, -27.9180605029999 ], [ -51.922175175999904, -27.915759496 ], [ -51.922059353, -27.914005980999896 ], [ -51.92490025, -27.911283109 ], [ -51.925556434, -27.905168095 ], [ -51.929355015999896, -27.906603527 ], [ -51.93185677, -27.909191168999904 ], [ -51.935208108, -27.909312667999899 ], [ -51.939444164, -27.905692078999891 ], [ -51.940437139, -27.902022939999895 ], [ -51.932668292999892, -27.903807288999893 ], [ -51.917608147, -27.899428537999892 ], [ -51.917607852999893, -27.897799442 ], [ -51.926139287999895, -27.892825135 ], [ -51.928608756999893, -27.897035124 ], [ -51.930741822, -27.89747217 ], [ -51.931211996999899, -27.89470362 ], [ -51.928299817, -27.88984206 ], [ -51.933796734999902, -27.890612787 ], [ -51.938740982, -27.886702162999899 ], [ -51.938060613999895, -27.884116836 ], [ -51.930391228, -27.885008184 ], [ -51.925425597, -27.883250483 ], [ -51.919376384, -27.8700697969999 ], [ -51.935489238999899, -27.870569998999898 ], [ -51.937280847999894, -27.869670229999901 ], [ -51.935606317, -27.865847145 ], [ -51.927218195, -27.859068694 ], [ -51.929567807999902, -27.855823765 ], [ -51.935947021999894, -27.851316950999895 ], [ -51.937346506, -27.846665275 ], [ -51.93545419, -27.841520118999899 ], [ -51.933338316999894, -27.841024231999892 ], [ -51.930736528999894, -27.843400281 ], [ -51.927129604999898, -27.8526276179999 ], [ -51.924358368, -27.854720699 ], [ -51.923205063999902, -27.854135286 ], [ -51.9247539469999, -27.851584867999989 ], [ -51.919898597, -27.844933356 ], [ -51.933729168, -27.835894174 ], [ -51.940360402999893, -27.834430299 ], [ -51.941685389, -27.825575199 ], [ -51.944484339, -27.819953202 ], [ -51.946439127, -27.819828577 ], [ -51.948706344999891, -27.827302753 ], [ -51.954049262999895, -27.823675121 ], [ -51.961693071999896, -27.813363835 ], [ -51.956117497, -27.811244601999892 ], [ -51.939301131, -27.815723432 ], [ -51.938569416999897, -27.814586744999897 ], [ -51.939174304999902, -27.811204921999895 ], [ -51.943247748, -27.808343835 ], [ -51.945318159, -27.800156833999903 ], [ -51.952761124999896, -27.791034625999892 ], [ -51.952147017, -27.789038273999903 ], [ -51.939741459999894, -27.790777154 ], [ -51.933981194, -27.8001132169999 ], [ -51.921848267, -27.814264987999891 ], [ -51.919862591, -27.812412055 ], [ -51.9155956, -27.798682531999894 ], [ -51.911948372, -27.798343334 ], [ -51.908404499, -27.800716273 ], [ -51.902581112, -27.809626872 ], [ -51.897920789, -27.808854262999901 ], [ -51.894804184999892, -27.810669543999904 ], [ -51.895482483, -27.817078093 ], [ -51.89237234, -27.816389328 ], [ -51.889651021, -27.819111651 ], [ -51.88425929999989, -27.819030085999902 ], [ -51.882315516999903, -27.823100984 ], [ -51.877090192, -27.822805193 ], [ -51.878233666, -27.828211546 ], [ -51.875966945999899, -27.829659658 ], [ -51.87321443, -27.828267852999897 ], [ -51.870006578, -27.831065248 ], [ -51.867550921, -27.829861924999907 ], [ -51.862552229, -27.832543077 ], [ -51.858536698, -27.832607155999902 ], [ -51.856225826999903, -27.834578324999903 ], [ -51.856593976999903, -27.840020581 ], [ -51.854938155, -27.843985448999899 ], [ -51.848041076999898, -27.851585043999901 ], [ -51.841509356, -27.851354980999901 ], [ -51.833847078, -27.855997637 ], [ -51.827879391, -27.857056638 ], [ -51.821413059, -27.862325336 ], [ -51.818773806, -27.861458304999896 ], [ -51.812259294999897, -27.864084686999902 ], [ -51.810384718, -27.866300969 ], [ -51.799913122, -27.867160006999896 ], [ -51.793709545, -27.86242014 ], [ -51.779938624, -27.855011254 ], [ -51.771102685, -27.854682150999984 ], [ -51.769264802999899, -27.852594101 ], [ -51.765245135, -27.854006560999895 ], [ -51.763423829, -27.849583434 ], [ -51.764918050999896, -27.846933206 ], [ -51.764320958, -27.845400965999904 ], [ -51.763032806, -27.847122726999896 ], [ -51.757782193, -27.848638891999894 ], [ -51.748964999999899, -27.8543050819999 ], [ -51.749240734999894, -27.856351548 ], [ -51.753696383, -27.858065435 ], [ -51.755775018999898, -27.861003035999893 ], [ -51.748644084, -27.87244321 ], [ -51.752961977, -27.878030173 ], [ -51.752826668999901, -27.879762496999902 ], [ -51.742367935999908, -27.882115504 ], [ -51.735214067, -27.890513874 ], [ -51.73059318299989, -27.890464979999898 ], [ -51.730988748999899, -27.892149173999901 ], [ -51.737240508999903, -27.894326447 ], [ -51.739901565, -27.900066113 ], [ -51.739873412999891, -27.902251158999896 ], [ -51.731245853, -27.910449184 ], [ -51.730998665999898, -27.913821226 ], [ -51.733756926, -27.918606504 ], [ -51.737262020999893, -27.919305397999899 ], [ -51.738422866999905, -27.920745973 ], [ -51.736594456, -27.922670551 ], [ -51.729582872, -27.925269274000012 ], [ -51.722231543, -27.924912553 ], [ -51.720782547999896, -27.926365129 ], [ -51.722950841999896, -27.928553085 ], [ -51.733422333, -27.933179687999903 ], [ -51.737739404, -27.938776160999989 ], [ -51.73395506, -27.940324899 ], [ -51.726426085, -27.938308508 ], [ -51.720094737999894, -27.9448929079999 ], [ -51.711324315999896, -27.946513524 ], [ -51.710377401, -27.960271737 ], [ -51.712215221999891, -27.968314458 ], [ -51.691631682, -27.96672437 ], [ -51.695420629999902, -27.977130624 ], [ -51.6967313439999, -27.985630082999894 ], [ -51.691946820999902, -27.991639037 ], [ -51.686003598, -27.99479257 ], [ -51.684469846999903, -27.993814304 ], [ -51.681894827, -27.983339851 ], [ -51.680077045, -27.982768049 ], [ -51.671505845999896, -27.983080593 ], [ -51.669165897, -27.984288380999892 ], [ -51.668139875, -27.9910978509999 ], [ -51.662439338999903, -27.989900755999901 ], [ -51.656457151, -27.990307702999903 ], [ -51.655078196, -27.988675143 ], [ -51.64691658999989, -27.992057003999896 ], [ -51.644072917, -28.000692216999898 ], [ -51.6459448479999, -28.003735836 ], [ -51.655413811, -28.004730942 ], [ -51.658265535999902, -28.003162333 ], [ -51.660339109999896, -27.998119667 ], [ -51.663338596999893, -27.997984841999902 ], [ -51.664351121, -28.000399408 ], [ -51.660814558, -28.009056612999899 ], [ -51.654776862999903, -28.010051463 ], [ -51.650955403, -28.0129942209999 ], [ -51.65168682, -28.013921277999895 ], [ -51.6674312439999, -28.01454999 ], [ -51.669012091999903, -28.015330821 ], [ -51.670584381, -28.0197219799999 ], [ -51.674665515999891, -28.022143333 ], [ -51.676275859, -28.024919693 ], [ -51.67546440599989, -28.026094742999899 ], [ -51.670719225, -28.026258862 ], [ -51.668158288, -28.024415170999905 ], [ -51.658105517, -28.026906846 ], [ -51.655912599, -28.021043842 ], [ -51.653901135999902, -28.019438357999899 ], [ -51.65068561, -28.0177383239999 ], [ -51.645914892, -28.017921909999895 ], [ -51.645728683, -28.021010562999905 ], [ -51.650438505999894, -28.025790218999898 ], [ -51.654267064999907, -28.035014783 ], [ -51.652817505, -28.035909113999896 ], [ -51.646862605, -28.032325829999898 ], [ -51.64021123, -28.037602673 ], [ -51.639342568, -28.04492586 ], [ -51.6338866729999, -28.04763681399989 ], [ -51.653238443, -28.060520093 ], [ -51.666810354999903, -28.07503658 ], [ -51.681270103, -28.082827414999905 ], [ -51.691743198, -28.091554931 ], [ -51.696243604, -28.100840852 ], [ -51.693760251, -28.123605766 ], [ -51.703615911, -28.138040240999899 ], [ -51.713046484999893, -28.125505448999899 ], [ -51.721472251, -28.11930976 ], [ -51.729642340999895, -28.11018038899989 ], [ -51.732110249, -28.103831323999895 ], [ -51.749488178, -28.08182879 ], [ -51.751479328999899, -28.077320098 ], [ -51.761959309, -28.068493243 ], [ -51.76883917, -28.058908754 ], [ -51.770382368, -28.041639670999899 ], [ -51.776195918, -28.027504047 ], [ -51.78006062, -28.030128455 ], [ -51.790050671, -28.032986967999889 ], [ -51.798260592, -28.038795095999902 ], [ -51.803002579999891, -28.039908760999893 ], [ -51.807984023, -28.031718978999898 ], [ -51.80933484, -28.025773120999901 ], [ -51.816191182, -28.023834097 ], [ -51.817444816, -28.022197461 ], [ -51.82094973999989, -28.023040398 ], [ -51.831329366, -28.021461890999891 ], [ -51.834515392999897, -28.019778888 ], [ -51.836388743, -28.016389187999899 ], [ -51.84023975, -28.016245179999903 ], [ -51.842616033999903, -28.014050471 ], [ -51.84354251, -28.014638385999891 ], [ -51.847715936, -28.012702952 ], [ -51.850995998, -28.012725087 ], [ -51.852272101, -28.009420861 ] ] ] } }
]
}
