{
"type": "FeatureCollection",
"name": "bairros_sao_lourenco_do_sul",
"crs": { "type": "name", "properties": { "name": "urn:ogc:def:crs:OGC:1.3:CRS84" } },
"features": [
{ "type": "Feature", "properties": { "code_muni": 4318804.0, "name_muni": "São Lourenço do Sul", "code_state": 43.0, "abbrev_state": "RS", "name_state": "Rio Grande do Sul", "code_region": 4.0, "name_region": "Sul", "year": 2022.0 }, "geometry": { "type": "Polygon", "coordinates": [ [ [ -51.960130675, -31.3527830529999 ], [ -51.963285011, -31.367071049999893 ], [ -51.960679221, -31.372990444 ], [ -51.951779246999898, -31.375467962 ], [ -51.947822979, -31.374687944 ], [ -51.948606501, -31.375499326999904 ], [ -51.956291049999898, -31.376329742999896 ], [ -51.962258628, -31.379016884 ], [ -51.967269114, -31.377924223000011 ], [ -51.975865504, -31.380425149 ], [ -51.980635811, -31.383721911 ], [ -51.987068120999901, -31.394544510999911 ], [ -51.993691157999891, -31.4135684889999 ], [ -51.994972178999895, -31.423359686 ], [ -51.996689975, -31.425436886999901 ], [ -52.003512699999902, -31.452930868999896 ], [ -52.00833076, -31.493233625 ], [ -52.007677682999898, -31.500250858 ], [ -52.01637753499989, -31.503556126 ], [ -52.022009889999907, -31.502466629 ], [ -52.029076813999893, -31.505903598 ], [ -52.032965899, -31.505607266 ], [ -52.033881594, -31.515021897999901 ], [ -52.032562233, -31.518991404 ], [ -52.03372884399991, -31.520805408999898 ], [ -52.041365715, -31.518966842999895 ], [ -52.04771949, -31.522253955999901 ], [ -52.048438663999896, -31.521293849999907 ], [ -52.045614008, -31.519142691 ], [ -52.046245731999903, -31.516667394 ], [ -52.049342866, -31.515534375999898 ], [ -52.047736667, -31.513024941 ], [ -52.049511881999891, -31.512467736 ], [ -52.05225962, -31.514311978 ], [ -52.053995183, -31.513229345999896 ], [ -52.051064244, -31.51102980699989 ], [ -52.055028708999892, -31.510709612 ], [ -52.056668064999897, -31.508369479 ], [ -52.058080628, -31.508540589999892 ], [ -52.0582650489999, -31.504510294999896 ], [ -52.063820464999893, -31.501972429 ], [ -52.063280367999901, -31.500747927 ], [ -52.069126075, -31.495388418999902 ], [ -52.067015775999899, -31.492759806 ], [ -52.067890148999901, -31.490425087999899 ], [ -52.071515731, -31.489798993 ], [ -52.075323763, -31.48493954 ], [ -52.087343715, -31.482129719999897 ], [ -52.101116593, -31.472069205 ], [ -52.107007913, -31.463247915 ], [ -52.105024585, -31.460200703999892 ], [ -52.107605953, -31.45810641 ], [ -52.107020642, -31.452155751 ], [ -52.114316545, -31.449436585999898 ], [ -52.118819286, -31.444836602999896 ], [ -52.119405688, -31.442290763999903 ], [ -52.11830643, -31.440912196999903 ], [ -52.123609391999899, -31.429013869999896 ], [ -52.130868485999898, -31.426972124 ], [ -52.139148757, -31.426949226 ], [ -52.157461779, -31.414693837 ], [ -52.160701409999902, -31.413826942 ], [ -52.16385845699989, -31.415036272999892 ], [ -52.168340473999891, -31.411233029999892 ], [ -52.165073811, -31.405878974 ], [ -52.161637245999898, -31.403054351 ], [ -52.176487927, -31.390976282999894 ], [ -52.181407662, -31.383140952 ], [ -52.188621291999894, -31.38299324 ], [ -52.195644848, -31.379257284999902 ], [ -52.197537363, -31.379752773 ], [ -52.205669070999903, -31.377532252 ], [ -52.223020374, -31.381696177 ], [ -52.221805061999902, -31.386599049 ], [ -52.227607037, -31.389177076 ], [ -52.229612250999899, -31.392706999 ], [ -52.23817865, -31.388680698 ], [ -52.247212544999989, -31.3891633439999 ], [ -52.265107446999892, -31.392738467 ], [ -52.277365131, -31.3904969979999 ], [ -52.280697022, -31.388496604 ], [ -52.279357988999898, -31.387255017 ], [ -52.280639393999891, -31.386119801999907 ], [ -52.288882477999891, -31.383762916 ], [ -52.293490085, -31.375900854 ], [ -52.293027529, -31.368049702999901 ], [ -52.301185668999892, -31.364055116 ], [ -52.308162421, -31.365295187 ], [ -52.315180247999898, -31.360530804999897 ], [ -52.318363486, -31.362344456999896 ], [ -52.323423851, -31.362821859 ], [ -52.329983292999891, -31.358839671999899 ], [ -52.338119268, -31.359791114 ], [ -52.356374431999896, -31.355700573 ], [ -52.359539449, -31.357025145 ], [ -52.362445888, -31.354292116 ], [ -52.372530184, -31.354347344 ], [ -52.377232814, -31.356731585 ], [ -52.381515096, -31.352435644 ], [ -52.38558856, -31.351664553 ], [ -52.391234034999989, -31.355355050999897 ], [ -52.399596232, -31.357052086 ], [ -52.410603826999896, -31.350788255999891 ], [ -52.412086621999897, -31.348675769999897 ], [ -52.408440057999897, -31.346337452999894 ], [ -52.409990362, -31.3428344229999 ], [ -52.414311599, -31.340409856 ], [ -52.415807644, -31.34119121 ], [ -52.420206282, -31.337642907 ], [ -52.421805579, -31.337905148999905 ], [ -52.423753459999901, -31.333837813999899 ], [ -52.42226368, -31.329409026999901 ], [ -52.425806463, -31.327169260999884 ], [ -52.423239077999902, -31.324225987 ], [ -52.423437755999899, -31.319618643 ], [ -52.427884177, -31.315833461999901 ], [ -52.424117865, -31.310011539 ], [ -52.425962732, -31.308367707999885 ], [ -52.426746313, -31.304710751 ], [ -52.429319114, -31.305847793999895 ], [ -52.432022839999902, -31.305109818999902 ], [ -52.429956811, -31.302046550999897 ], [ -52.433513865, -31.301281995999897 ], [ -52.431890654, -31.298820221 ], [ -52.440130418, -31.288432107999895 ], [ -52.438617808999894, -31.286590368 ], [ -52.440984538, -31.283698285 ], [ -52.439720657, -31.281424924 ], [ -52.442782588999897, -31.278525909999896 ], [ -52.442580598999896, -31.277141054 ], [ -52.444934611, -31.276345342999893 ], [ -52.449765078, -31.271048994 ], [ -52.45393485999989, -31.272682726 ], [ -52.45899081200001, -31.27194718 ], [ -52.460505499, -31.270244751 ], [ -52.459946422, -31.257727766999899 ], [ -52.466479121, -31.253794760999892 ], [ -52.467239181, -31.250423069 ], [ -52.475305063999897, -31.244979347 ], [ -52.470084794999899, -31.239204588 ], [ -52.473565972, -31.231630432 ], [ -52.4692853, -31.225179636999901 ], [ -52.469925723999893, -31.221392567 ], [ -52.464635809, -31.221126642999902 ], [ -52.462363931, -31.214741067 ], [ -52.460749963999902, -31.214598226 ], [ -52.459542138, -31.217758031 ], [ -52.456969574, -31.213562791999895 ], [ -52.448600816999893, -31.214069055 ], [ -52.444312061999895, -31.210310971999899 ], [ -52.443635448999892, -31.203948872999902 ], [ -52.436090236, -31.202348731 ], [ -52.428222467999895, -31.192282861 ], [ -52.427474311, -31.189428622 ], [ -52.423107799, -31.190347319 ], [ -52.42075556, -31.18913355 ], [ -52.42230258099989, -31.188602438 ], [ -52.422237282, -31.185581594 ], [ -52.425846669999899, -31.182280191 ], [ -52.425312883999901, -31.180744251 ], [ -52.424400804, -31.179372311999899 ], [ -52.418443302999897, -31.179777209 ], [ -52.419327758999898, -31.177566096 ], [ -52.414873298, -31.174409227999892 ], [ -52.415825713999901, -31.171268342 ], [ -52.409581848999892, -31.167242504999901 ], [ -52.409174085, -31.164337361 ], [ -52.411639528, -31.161991612999898 ], [ -52.405885015, -31.157414344 ], [ -52.408959937, -31.152044412999899 ], [ -52.404199554999892, -31.148143059999907 ], [ -52.394480244, -31.146090694 ], [ -52.390101215, -31.147600623 ], [ -52.385961885, -31.133964514999896 ], [ -52.382210594999897, -31.133485522999909 ], [ -52.381060547999894, -31.134948182999899 ], [ -52.375884845, -31.135902955999899 ], [ -52.36487862, -31.135679894 ], [ -52.367073702, -31.132852726 ], [ -52.370077723, -31.132198198 ], [ -52.370771614, -31.129578309 ], [ -52.367103351, -31.129469657999891 ], [ -52.365231799, -31.128173531999899 ], [ -52.366865135, -31.125318493 ], [ -52.366169543, -31.122710771 ], [ -52.362880557, -31.122817827999899 ], [ -52.357016846, -31.119793522999892 ], [ -52.354908947, -31.109180755999905 ], [ -52.343277079, -31.104111748 ], [ -52.3370657789999, -31.107235763999903 ], [ -52.331487145, -31.102875786 ], [ -52.330326651999897, -31.100539615999896 ], [ -52.324825250999893, -31.101791148 ], [ -52.31003184, -31.096504943 ], [ -52.298729366, -31.087813036999897 ], [ -52.295145283, -31.090360975 ], [ -52.292299989, -31.086874098 ], [ -52.289126348, -31.088620225999893 ], [ -52.28216637100001, -31.083384980999902 ], [ -52.278381088999893, -31.074927419999895 ], [ -52.274011985999898, -31.071268318 ], [ -52.275118329999898, -31.067745515 ], [ -52.2734998829999, -31.064231355999894 ], [ -52.273684579, -31.058241637 ], [ -52.277327619999895, -31.050757011 ], [ -52.276810633, -31.0457236899999 ], [ -52.27890210399989, -31.041342878 ], [ -52.27370603, -31.035116258 ], [ -52.271310891, -31.026033215000012 ], [ -52.266378881, -31.02154755 ], [ -52.268013265, -31.014231832999897 ], [ -52.259912742, -31.011192213 ], [ -52.259077094, -30.994418069999899 ], [ -52.256252896, -30.993500761999901 ], [ -52.255476345, -30.990256552999902 ], [ -52.249903721999893, -30.986528146999898 ], [ -52.231837637, -30.983358684999892 ], [ -52.222783482, -30.984291336999895 ], [ -52.216301428999898, -30.987040749999903 ], [ -52.213695758, -30.990273615 ], [ -52.2105141279999, -30.991031248 ], [ -52.209961901, -30.992678316 ], [ -52.207052728999898, -30.9940907 ], [ -52.191099717, -30.997571805 ], [ -52.187354104999891, -30.997230745 ], [ -52.184672265, -30.999110201999887 ], [ -52.178981475999898, -30.998794753 ], [ -52.176207895999902, -30.999541045999901 ], [ -52.175039828, -31.001377633999905 ], [ -52.172989795, -31.000585781 ], [ -52.167523636999903, -31.003633796 ], [ -52.158898723999989, -31.002747380999896 ], [ -52.152439183, -31.004762516999989 ], [ -52.147163385999903, -31.003553465 ], [ -52.141957535999893, -31.006033306999896 ], [ -52.136105418999904, -31.006027446 ], [ -52.134051152, -31.00180833 ], [ -52.131783751999905, -31.002459073 ], [ -52.124256459, -31.000624076 ], [ -52.121235235, -30.997685614 ], [ -52.116302517999898, -30.999251328 ], [ -52.110764616, -30.998041494999896 ], [ -52.104077662999899, -31.000239332 ], [ -52.098093213, -30.999583277999896 ], [ -52.090142456, -31.003429958000012 ], [ -52.098364470999989, -31.0042239439999 ], [ -52.109571777, -31.007172078999901 ], [ -52.114301929, -31.0106551649999 ], [ -52.1167157, -31.017701321999908 ], [ -52.133188181, -31.025983035 ], [ -52.140377515, -31.026236465 ], [ -52.141519731, -31.032739975 ], [ -52.143996167999894, -31.034361746999895 ], [ -52.151320664, -31.035894283999898 ], [ -52.155744472, -31.040960383 ], [ -52.147439577999897, -31.050156355999903 ], [ -52.143911733, -31.049725139 ], [ -52.140372962999905, -31.046517243 ], [ -52.139541655999899, -31.048694662999896 ], [ -52.136512898, -31.049055845999899 ], [ -52.131981883, -31.0555702519999 ], [ -52.125000483, -31.058974013999894 ], [ -52.120288888999895, -31.069327585999897 ], [ -52.114510482999897, -31.072504793999897 ], [ -52.113647811, -31.075908802 ], [ -52.116409114, -31.086073663 ], [ -52.113776351999896, -31.091844059 ], [ -52.123204826999903, -31.094527168 ], [ -52.127361418, -31.103702185 ], [ -52.12616782, -31.107627161 ], [ -52.118425652, -31.111226775 ], [ -52.107101899, -31.11014577 ], [ -52.095386402, -31.13194249 ], [ -52.088860779999891, -31.140137073999895 ], [ -52.090044588, -31.14511851799989 ], [ -52.088731002, -31.146814081999896 ], [ -52.066101058999905, -31.157821564999903 ], [ -52.060035888, -31.15947154 ], [ -52.059492688, -31.162961939 ], [ -52.056537222, -31.164058924999896 ], [ -52.05606654799989, -31.160344051 ], [ -52.049500152, -31.157922923999902 ], [ -52.049172537999901, -31.156096541 ], [ -52.045858522999893, -31.15637092 ], [ -52.039057035, -31.154134160999902 ], [ -52.03817996, -31.152360705 ], [ -52.030957547999897, -31.149552659999987 ], [ -52.029461243, -31.168027028 ], [ -52.026176190999891, -31.18093936299989 ], [ -52.0222798409999, -31.175315279 ], [ -52.025962222, -31.165109685999894 ], [ -52.02501052400001, -31.160266561 ], [ -52.018617924999894, -31.158906026999901 ], [ -52.018615257, -31.156766284 ], [ -52.024899214999898, -31.153851147999898 ], [ -52.021740903, -31.149963301 ], [ -52.022099214, -31.145336829 ], [ -52.017340947, -31.1430049689999 ], [ -52.014661788, -31.137845738999903 ], [ -52.014640187999895, -31.131987138999893 ], [ -52.016808671, -31.129729333999901 ], [ -52.018285662, -31.124057880999892 ], [ -52.014973353, -31.119011552 ], [ -52.0174483549999, -31.112384339999899 ], [ -52.016194702999897, -31.109999919 ], [ -52.0112506299999, -31.107667719999903 ], [ -52.008178887, -31.103795334 ], [ -52.005533385, -31.102612902 ], [ -51.999060428999897, -31.101929228 ], [ -51.996713773, -31.09995236 ], [ -51.987288831999898, -31.0999201129999 ], [ -51.979218026999895, -31.103367260999985 ], [ -51.964369956, -31.103704476 ], [ -51.95834361, -31.106702852999891 ], [ -51.949499364, -31.106741037999893 ], [ -51.944548359, -31.105249285 ], [ -51.942399582, -31.107026474999895 ], [ -51.937992468999902, -31.106519662 ], [ -51.938110648, -31.109491657 ], [ -51.930354633, -31.111403359 ], [ -51.932890766999897, -31.110248430999892 ], [ -51.932291752, -31.103735081 ], [ -51.937496122, -31.101642695999892 ], [ -51.944987192, -31.102155423999893 ], [ -51.947385526999909, -31.096518481 ], [ -51.95634337, -31.094313679 ], [ -51.947872087999897, -31.075885943999896 ], [ -51.934488852999898, -31.065913542 ], [ -51.933771965999895, -31.058744562 ], [ -51.93170997, -31.05582707 ], [ -51.932238348999903, -31.052812215999893 ], [ -51.9246062409999, -31.045847808 ], [ -51.923518467999898, -31.042190252 ], [ -51.917131921, -31.046551549999901 ], [ -51.91178608, -31.043391379999903 ], [ -51.902229129, -31.043178723 ], [ -51.900824641, -31.041007213999904 ], [ -51.901536275, -31.036651094 ], [ -51.897112846, -31.035754994999898 ], [ -51.884935965, -31.037555982999894 ], [ -51.881361835999897, -31.036775147999897 ], [ -51.880247532999903, -31.037134654999893 ], [ -51.881274039999894, -31.039366894 ], [ -51.875800077, -31.043648203000011 ], [ -51.876376533, -31.045762168 ], [ -51.881153083, -31.048230067 ], [ -51.880708442, -31.050610371999898 ], [ -51.876924598, -31.0521279 ], [ -51.871050341999897, -31.051896794 ], [ -51.869827449, -31.054815125999895 ], [ -51.870484758, -31.055930506 ], [ -51.874913950999897, -31.056787054 ], [ -51.875796083999901, -31.060566911 ], [ -51.872344286, -31.061457690999898 ], [ -51.86659533999989, -31.060563911 ], [ -51.865444932999893, -31.061867618999894 ], [ -51.865515436, -31.067202086999899 ], [ -51.860133559, -31.07245886 ], [ -51.864519318, -31.078053262000012 ], [ -51.868437128, -31.07655368 ], [ -51.870813035, -31.077359321 ], [ -51.869819275999902, -31.081077577 ], [ -51.865418066, -31.083234618999896 ], [ -51.868087884, -31.086890801 ], [ -51.871898856, -31.088693025999898 ], [ -51.871832023, -31.09117328 ], [ -51.867346373, -31.094040384 ], [ -51.858161587, -31.090986664999907 ], [ -51.855432043, -31.096018505 ], [ -51.856987697, -31.100408351999903 ], [ -51.855818058999901, -31.104171331 ], [ -51.851836046999892, -31.103526197999894 ], [ -51.848393464, -31.097977767 ], [ -51.841993681, -31.097266732 ], [ -51.838083, -31.099735759999898 ], [ -51.840195143, -31.106232341999895 ], [ -51.838910116, -31.107882459999896 ], [ -51.835518486, -31.108015818 ], [ -51.831597625, -31.104218041 ], [ -51.82904536, -31.103637718999899 ], [ -51.827010317, -31.105850333 ], [ -51.830854492, -31.111216711999905 ], [ -51.830461769, -31.112486829 ], [ -51.829395037, -31.113333548 ], [ -51.826841183999896, -31.112306837999888 ], [ -51.825822930999898, -31.108358517999893 ], [ -51.822567212, -31.108920301 ], [ -51.819844019, -31.119665091999902 ], [ -51.818156289999891, -31.121017847 ], [ -51.812485951, -31.121589862999912 ], [ -51.806886956, -31.125620604999895 ], [ -51.800119767, -31.123630799 ], [ -51.794765288999905, -31.124724952999905 ], [ -51.789504898, -31.123610603 ], [ -51.791557675, -31.140190665 ], [ -51.801130160999897, -31.1447822599999 ], [ -51.808958995999902, -31.146601668999899 ], [ -51.812905585999893, -31.149403369 ], [ -51.820387134, -31.159086563999892 ], [ -51.820725836, -31.167521657999899 ], [ -51.818001135, -31.172285729999896 ], [ -51.813020015999896, -31.173321067 ], [ -51.810658692999901, -31.171754489 ], [ -51.809562667, -31.168549497 ], [ -51.8062801519999, -31.167084386999903 ], [ -51.80232855, -31.167157678 ], [ -51.79812056, -31.168381447999892 ], [ -51.789774416999897, -31.176388266999908 ], [ -51.79462941, -31.184747499 ], [ -51.794198576, -31.186764261999901 ], [ -51.788652361999908, -31.190529867999885 ], [ -51.787478369, -31.200752095 ], [ -51.784190463999906, -31.20551649 ], [ -51.784509181, -31.209896622 ], [ -51.788332537, -31.211892743999986 ], [ -51.788661019, -31.213968502999908 ], [ -51.77965751499989, -31.216516522999896 ], [ -51.780027307, -31.218119663 ], [ -51.784950308, -31.220054612 ], [ -51.784095110999893, -31.222650064999989 ], [ -51.785924260999899, -31.224608304999901 ], [ -51.785911725999902, -31.2264960709999 ], [ -51.782931146999907, -31.227991014999901 ], [ -51.7802871069999, -31.233361417 ], [ -51.782953711999902, -31.235788559999904 ], [ -51.786401581999897, -31.242670447 ], [ -51.785507332999892, -31.247829410999895 ], [ -51.789383593, -31.247394796999984 ], [ -51.787379749, -31.245658094 ], [ -51.789886091, -31.245116037999896 ], [ -51.793714305, -31.248998297999901 ], [ -51.792473657999899, -31.250421394999901 ], [ -51.789607573, -31.249047698 ], [ -51.789466757999897, -31.251710446999901 ], [ -51.791671531, -31.252175689 ], [ -51.788696930999897, -31.253607729999903 ], [ -51.788645318, -31.254830330999898 ], [ -51.789900265, -31.255592129 ], [ -51.793243033, -31.254450388999892 ], [ -51.796142458, -31.256702754999893 ], [ -51.798402704999894, -31.255011270999908 ], [ -51.79971928, -31.255700098 ], [ -51.799466122, -31.266199581 ], [ -51.808119385999902, -31.277842996999901 ], [ -51.811742104, -31.285749678999892 ], [ -51.822954465999899, -31.295840757000011 ], [ -51.826776189, -31.302847003 ], [ -51.833930500999891, -31.306396671 ], [ -51.843935267999896, -31.32324855 ], [ -51.857737798999899, -31.331836654 ], [ -51.855248576, -31.33635731 ], [ -51.860240603, -31.331626829 ], [ -51.8596822599999, -31.326115817999906 ], [ -51.858684751999895, -31.327704079999897 ], [ -51.858081028, -31.326752718 ], [ -51.857477237, -31.316063814999897 ], [ -51.860094628999903, -31.312209718 ], [ -51.866690592999902, -31.307659811999901 ], [ -51.872471156999893, -31.300328943 ], [ -51.870229545, -31.297373230999895 ], [ -51.867122664, -31.296599493 ], [ -51.866796848, -31.295067625999906 ], [ -51.871142093999893, -31.294773624 ], [ -51.871426497, -31.293431299 ], [ -51.876132841999897, -31.298530356999898 ], [ -51.876446810999902, -31.30190855 ], [ -51.874144009, -31.304009137 ], [ -51.875633587, -31.305749578 ], [ -51.875039640999894, -31.309039723 ], [ -51.882848312, -31.314764172 ], [ -51.882073248, -31.316108351 ], [ -51.883090666, -31.316799542 ], [ -51.878827391, -31.324452570999906 ], [ -51.884305996, -31.322689184 ], [ -51.885310876999903, -31.320044117999895 ], [ -51.892087954, -31.315682513 ], [ -51.902431527, -31.31354635 ], [ -51.906297595, -31.313904255999898 ], [ -51.9130443, -31.310044123 ], [ -51.919462762, -31.310765857 ], [ -51.93056104, -31.31893459 ], [ -51.931830719999901, -31.321081116 ], [ -51.930370087, -31.328380731 ], [ -51.921445718, -31.327869630999892 ], [ -51.922988952, -31.331862718 ], [ -51.932729492, -31.335148594 ], [ -51.938999926999898, -31.335175456999899 ], [ -51.944606787999902, -31.338943139 ], [ -51.94864382, -31.339322374999902 ], [ -51.953500245, -31.343652039999899 ], [ -51.960130675, -31.3527830529999 ] ] ] } }
]
}
