{
"type": "FeatureCollection",
"name": "bairros_santiago",
"crs": { "type": "name", "properties": { "name": "urn:ogc:def:crs:OGC:1.3:CRS84" } },
"features": [
{ "type": "Feature", "properties": { "name": "Eletrecitários", "code_muni": 4317400.0, "name_muni": "Santiago" }, "geometry": { "type": "Polygon", "coordinates": [ [ [ -54.8657882, -29.1682836 ], [ -54.8660821, -29.1681731 ], [ -54.8677652, -29.167811 ], [ -54.8679752, -29.1677548 ], [ -54.8682112, -29.1677004 ], [ -54.868303, -29.1676792 ], [ -54.8695769, -29.1673854 ], [ -54.8673175, -29.1601627 ], [ -54.8659733, -29.1597417 ], [ -54.8657953, -29.1596773 ], [ -54.8654884, -29.1596344 ], [ -54.8652244, -29.1596505 ], [ -54.8649543, -29.1597095 ], [ -54.8646412, -29.1598274 ], [ -54.8643895, -29.159999 ], [ -54.8641685, -29.160202699999989 ], [ -54.8640978, -29.1603352 ], [ -54.863659, -29.1611569 ], [ -54.8635178, -29.161382100000012 ], [ -54.8633459, -29.1615965 ], [ -54.8631003, -29.1617573 ], [ -54.8627381, -29.161934200000015 ], [ -54.8623928, -29.1620572 ], [ -54.8657882, -29.1682836 ] ] ] } },
{ "type": "Feature", "properties": { "name": "Jardim das Palmeiras", "code_muni": 4317400.0, "name_muni": "Santiago" }, "geometry": { "type": "Polygon", "coordinates": [ [ [ -54.8725455, -29.1999259 ], [ -54.8728877, -29.1996957 ], [ -54.8732791, -29.1992187 ], [ -54.8736942, -29.1986475 ], [ -54.8724437, -29.1977925 ], [ -54.8713526, -29.197017099999986 ], [ -54.870194, -29.1960043 ], [ -54.8695464, -29.1964842 ], [ -54.8689698, -29.196922099999988 ], [ -54.8684294, -29.1973324 ], [ -54.8695816, -29.1984471 ], [ -54.8707235, -29.1994518 ], [ -54.8713159, -29.1999251 ], [ -54.8719902, -29.2005873 ], [ -54.8725455, -29.1999259 ] ] ] } },
{ "type": "Feature", "properties": { "name": "Jardim das Paineiras", "code_muni": 4317400.0, "name_muni": "Santiago" }, "geometry": { "type": "Polygon", "coordinates": [ [ [ -54.8711824, -29.2015485 ], [ -54.871261, -29.201455 ], [ -54.8719902, -29.2005873 ], [ -54.8713159, -29.1999251 ], [ -54.8707235, -29.1994518 ], [ -54.8695816, -29.1984471 ], [ -54.8684294, -29.1973324 ], [ -54.8677373, -29.1978655 ], [ -54.8675759, -29.1979798 ], [ -54.8673945, -29.1981157 ], [ -54.8669662, -29.198491 ], [ -54.8669148, -29.1985558 ], [ -54.866815, -29.198791700000012 ], [ -54.866472, -29.1996914 ], [ -54.8667247, -29.199784 ], [ -54.8668553, -29.1998649 ], [ -54.86706, -29.2000664 ], [ -54.8678536, -29.2008665 ], [ -54.8679572, -29.2009812 ], [ -54.8680473, -29.2011422 ], [ -54.8680996, -29.2012665 ], [ -54.8681299, -29.2014231 ], [ -54.8681485, -29.201602 ], [ -54.8681686, -29.2017798 ], [ -54.86822, -29.2018849 ], [ -54.8683026, -29.2019853 ], [ -54.8685814, -29.2021982 ], [ -54.8699072, -29.2030659 ], [ -54.8711824, -29.2015485 ] ] ] } },
{ "type": "Feature", "properties": { "name": "Gaspar Dutra", "code_muni": 4317400.0, "name_muni": "Santiago" }, "geometry": { "type": "Polygon", "coordinates": [ [ [ -54.860688, -29.1760428 ], [ -54.8610302, -29.1759337 ], [ -54.8612967, -29.1758388 ], [ -54.8615675, -29.175732 ], [ -54.862123, -29.1754324 ], [ -54.8627452, -29.1749308 ], [ -54.8623838, -29.1745309 ], [ -54.8621633, -29.1743028 ], [ -54.8620905, -29.1741471 ], [ -54.8618952, -29.1734147 ], [ -54.8615545, -29.1734894 ], [ -54.8601176, -29.1703861 ], [ -54.8591012, -29.1709765 ], [ -54.8570424, -29.1720998 ], [ -54.8563562, -29.1724742 ], [ -54.8552444, -29.1730808 ], [ -54.8544581, -29.1735659 ], [ -54.8537536, -29.1741527 ], [ -54.8525536, -29.17513 ], [ -54.8523687, -29.1752806 ], [ -54.8518731, -29.1756872 ], [ -54.8511514, -29.1763381 ], [ -54.8508753, -29.1766761 ], [ -54.8507023, -29.1767681 ], [ -54.8513138, -29.1776721 ], [ -54.8522164, -29.178880500000012 ], [ -54.8521523, -29.1789819 ], [ -54.85306580000001, -29.180101099999987 ], [ -54.8540736, -29.1811506 ], [ -54.854452, -29.180831800000011 ], [ -54.855618, -29.1799114 ], [ -54.8567307, -29.1789713 ], [ -54.8575169, -29.1783295 ], [ -54.8604703, -29.1760944 ], [ -54.8605084, -29.1760656 ], [ -54.860688, -29.1760428 ] ] ] } },
{ "type": "Feature", "properties": { "name": "Centro", "code_muni": 4317400.0, "name_muni": "Santiago" }, "geometry": { "type": "Polygon", "coordinates": [ [ [ -54.8658001, -29.1994337 ], [ -54.866472, -29.1996914 ], [ -54.866815, -29.198791700000012 ], [ -54.8669148, -29.1985558 ], [ -54.8669662, -29.198491 ], [ -54.8673945, -29.1981157 ], [ -54.8675759, -29.1979798 ], [ -54.8677373, -29.1978655 ], [ -54.8684294, -29.1973324 ], [ -54.8689698, -29.196922099999988 ], [ -54.8695464, -29.1964842 ], [ -54.870194, -29.1960043 ], [ -54.8713526, -29.197017099999986 ], [ -54.8724437, -29.1977925 ], [ -54.8736942, -29.1986475 ], [ -54.8744661, -29.1976995 ], [ -54.8752232, -29.1967354 ], [ -54.8758735, -29.1959326 ], [ -54.8760146, -29.1957578 ], [ -54.8764102, -29.1952824 ], [ -54.8769852, -29.1946088 ], [ -54.8770868, -29.194452 ], [ -54.8769875, -29.1944619 ], [ -54.8768096, -29.1945023 ], [ -54.8764971, -29.1946387 ], [ -54.8757504, -29.1951844 ], [ -54.8754319, -29.1953744 ], [ -54.8751427, -29.195449599999989 ], [ -54.8747868, -29.1954875 ], [ -54.8743787, -29.1954193 ], [ -54.873962, -29.195245 ], [ -54.8736581, -29.1950555 ], [ -54.8734237, -29.1947903 ], [ -54.8732848, -29.194411299999988 ], [ -54.8732588, -29.1940779 ], [ -54.8733977, -29.193608 ], [ -54.8735713, -29.193176 ], [ -54.8736513, -29.1927128 ], [ -54.8736495, -29.1924332 ], [ -54.8733195, -29.1906132 ], [ -54.872993, -29.1888129 ], [ -54.8729351, -29.1886721 ], [ -54.8728947, -29.1884699 ], [ -54.8727726, -29.187863 ], [ -54.8727118, -29.1874613 ], [ -54.8728388, -29.1853138 ], [ -54.8725443, -29.1850842 ], [ -54.8720126, -29.1846394 ], [ -54.8716621, -29.1843462 ], [ -54.8708451, -29.1836627 ], [ -54.8702478, -29.1831184 ], [ -54.8697324, -29.1826802 ], [ -54.8693035, -29.1830229 ], [ -54.8685552, -29.1836096 ], [ -54.8679162, -29.1841084 ], [ -54.8671012, -29.1847808 ], [ -54.8665723, -29.1851953 ], [ -54.8659601, -29.1856869 ], [ -54.865517, -29.1860234 ], [ -54.8647722, -29.1866155 ], [ -54.86381020000001, -29.1855771 ], [ -54.8628653, -29.1845659 ], [ -54.8618487, -29.1835224 ], [ -54.8613587, -29.1829986 ], [ -54.8608212, -29.1824 ], [ -54.8605747, -29.1821117 ], [ -54.8604146, -29.1819389 ], [ -54.8602027, -29.1817445 ], [ -54.8603428, -29.1786638 ], [ -54.8605084, -29.1760656 ], [ -54.8604703, -29.1760944 ], [ -54.8575169, -29.1783295 ], [ -54.8567307, -29.1789713 ], [ -54.855618, -29.1799114 ], [ -54.854452, -29.180831800000011 ], [ -54.8554136, -29.1817409 ], [ -54.8565696, -29.182823899999988 ], [ -54.8576245, -29.1837687 ], [ -54.8568663, -29.1842917 ], [ -54.8571685, -29.1846538 ], [ -54.8575312, -29.1850625 ], [ -54.8579554, -29.1854339 ], [ -54.8587315, -29.1861319 ], [ -54.8598015, -29.1871022 ], [ -54.8607623, -29.1880248 ], [ -54.8598666, -29.188723499999988 ], [ -54.8596045, -29.188927899999985 ], [ -54.8585811, -29.189747 ], [ -54.8595926, -29.190693 ], [ -54.8601446, -29.1912256 ], [ -54.860593, -29.1916628 ], [ -54.8594978, -29.192544299999987 ], [ -54.85857140000001, -29.1932495 ], [ -54.859077, -29.1937828 ], [ -54.8595134, -29.194243100000012 ], [ -54.8603784, -29.1951554 ], [ -54.8612027, -29.1960071 ], [ -54.8624184, -29.1972924 ], [ -54.8634283, -29.1983285 ], [ -54.863714, -29.1985971 ], [ -54.863885, -29.1986891 ], [ -54.8641736, -29.1987998 ], [ -54.8657357, -29.199409699999986 ], [ -54.8658001, -29.1994337 ] ] ] } },
{ "type": "Feature", "properties": { "name": "Irmã Dulce", "code_muni": 4317400.0, "name_muni": "Santiago" }, "geometry": { "type": "Polygon", "coordinates": [ [ [ -54.8686331, -29.1817344 ], [ -54.8680173, -29.1812042 ], [ -54.8677539, -29.1810221 ], [ -54.8675098, -29.1807544 ], [ -54.8669663, -29.1812102 ], [ -54.8664748, -29.1816091 ], [ -54.8674787, -29.1826594 ], [ -54.8677943, -29.1830381 ], [ -54.8679761, -29.1831936 ], [ -54.8682134, -29.1833648 ], [ -54.8685552, -29.1836096 ], [ -54.8693035, -29.1830229 ], [ -54.8697324, -29.1826802 ], [ -54.8686331, -29.1817344 ] ] ] } },
{ "type": "Feature", "properties": { "name": "Santiago Pompeo", "code_muni": 4317400.0, "name_muni": "Santiago" }, "geometry": { "type": "Polygon", "coordinates": [ [ [ -54.865517, -29.1860234 ], [ -54.8659601, -29.1856869 ], [ -54.8665723, -29.1851953 ], [ -54.8671012, -29.1847808 ], [ -54.8679162, -29.1841084 ], [ -54.8685552, -29.1836096 ], [ -54.8682134, -29.1833648 ], [ -54.8679761, -29.1831936 ], [ -54.8677943, -29.1830381 ], [ -54.8674787, -29.1826594 ], [ -54.8664748, -29.1816091 ], [ -54.8669663, -29.1812102 ], [ -54.8675098, -29.1807544 ], [ -54.8673881, -29.1806285 ], [ -54.8665137, -29.1797123 ], [ -54.8655574, -29.178730899999987 ], [ -54.8650926, -29.1782541 ], [ -54.8647115, -29.177986400000016 ], [ -54.8644803, -29.1778464 ], [ -54.8639704, -29.1782474 ], [ -54.863419, -29.178664 ], [ -54.8634547, -29.1786945 ], [ -54.8635186, -29.1787754 ], [ -54.8620426, -29.1790106 ], [ -54.8620936, -29.1796624 ], [ -54.8621268, -29.1802026 ], [ -54.8621716, -29.181057799999987 ], [ -54.8621745, -29.1812755 ], [ -54.8620947, -29.1814389 ], [ -54.8612612, -29.1820491 ], [ -54.8608212, -29.1824 ], [ -54.8613587, -29.1829986 ], [ -54.8618487, -29.1835224 ], [ -54.8628653, -29.1845659 ], [ -54.86381020000001, -29.1855771 ], [ -54.8647722, -29.1866155 ], [ -54.865517, -29.1860234 ] ] ] } },
{ "type": "Feature", "properties": { "name": "João Goulart", "code_muni": 4317400.0, "name_muni": "Santiago" }, "geometry": { "type": "Polygon", "coordinates": [ [ [ -54.8604146, -29.1819389 ], [ -54.8605747, -29.1821117 ], [ -54.8608212, -29.1824 ], [ -54.8612612, -29.1820491 ], [ -54.8620947, -29.1814389 ], [ -54.8621745, -29.1812755 ], [ -54.8621716, -29.181057799999987 ], [ -54.8621268, -29.1802026 ], [ -54.8620936, -29.1796624 ], [ -54.8620426, -29.1790106 ], [ -54.8619835, -29.1784801 ], [ -54.8619345, -29.1779084 ], [ -54.8618718, -29.1770295 ], [ -54.8618066, -29.1764302 ], [ -54.8617659, -29.1762975 ], [ -54.8615675, -29.175732 ], [ -54.8612967, -29.1758388 ], [ -54.8610302, -29.1759337 ], [ -54.860688, -29.1760428 ], [ -54.8605084, -29.1760656 ], [ -54.8603428, -29.1786638 ], [ -54.8602027, -29.1817445 ], [ -54.8604146, -29.1819389 ] ] ] } },
{ "type": "Feature", "properties": { "name": "Daer", "code_muni": 4317400.0, "name_muni": "Santiago" }, "geometry": { "type": "Polygon", "coordinates": [ [ [ -54.8635186, -29.1787754 ], [ -54.8634547, -29.1786945 ], [ -54.863419, -29.178664 ], [ -54.8639704, -29.1782474 ], [ -54.8644803, -29.1778464 ], [ -54.8641015, -29.1775829 ], [ -54.8637171, -29.1773789 ], [ -54.8633583, -29.1771275 ], [ -54.8631693, -29.176933500000011 ], [ -54.8630793, -29.1767962 ], [ -54.8628245, -29.1763852 ], [ -54.8624772, -29.1758759 ], [ -54.862123, -29.1754324 ], [ -54.8615675, -29.175732 ], [ -54.8617659, -29.1762975 ], [ -54.8618066, -29.1764302 ], [ -54.8618718, -29.1770295 ], [ -54.8619345, -29.1779084 ], [ -54.8619835, -29.1784801 ], [ -54.8620426, -29.1790106 ], [ -54.8635186, -29.1787754 ] ] ] } },
{ "type": "Feature", "properties": { "name": "Nei Pereira", "code_muni": 4317400.0, "name_muni": "Santiago" }, "geometry": { "type": "Polygon", "coordinates": [ [ [ -54.8647115, -29.177986400000016 ], [ -54.8650926, -29.1782541 ], [ -54.8655574, -29.178730899999987 ], [ -54.8665137, -29.1797123 ], [ -54.8673881, -29.1806285 ], [ -54.8675098, -29.1807544 ], [ -54.8677539, -29.1810221 ], [ -54.8680173, -29.1812042 ], [ -54.8686331, -29.1817344 ], [ -54.8697324, -29.1826802 ], [ -54.8702478, -29.1831184 ], [ -54.8708451, -29.1836627 ], [ -54.8716621, -29.1843462 ], [ -54.8720126, -29.1846394 ], [ -54.8725443, -29.1850842 ], [ -54.8728388, -29.1853138 ], [ -54.8728594, -29.1850434 ], [ -54.8728247, -29.1845886 ], [ -54.8727379, -29.1842097 ], [ -54.8726424, -29.1838989 ], [ -54.8725166, -29.1834909 ], [ -54.8724601, -29.1833077 ], [ -54.8722951, -29.1826407 ], [ -54.8722777, -29.1822162 ], [ -54.8723298, -29.1818448 ], [ -54.8723953, -29.1816425 ], [ -54.8724427, -29.1814961 ], [ -54.8726858, -29.1810641 ], [ -54.8729636, -29.1807002 ], [ -54.8742138, -29.1794884 ], [ -54.874535, -29.1791767 ], [ -54.8747347, -29.1788583 ], [ -54.8748302, -29.1785475 ], [ -54.8748302, -29.1782746 ], [ -54.8747694, -29.1780472 ], [ -54.8746565, -29.1777743 ], [ -54.8745003, -29.1775394 ], [ -54.874179, -29.1772437 ], [ -54.8738665, -29.1771073 ], [ -54.873554, -29.1770391 ], [ -54.8734689, -29.177662699999988 ], [ -54.8651219, -29.1773442 ], [ -54.8648855, -29.177519900000011 ], [ -54.8644803, -29.1778464 ], [ -54.8647115, -29.177986400000016 ] ] ] } },
{ "type": "Feature", "properties": { "name": "Vila Nova", "code_muni": 4317400.0, "name_muni": "Santiago" }, "geometry": { "type": "Polygon", "coordinates": [ [ [ -54.88194330000001, -29.1804467 ], [ -54.8817882, -29.1803058 ], [ -54.8816041, -29.1800835 ], [ -54.881218, -29.1796064 ], [ -54.8808698, -29.1791323 ], [ -54.8813342, -29.1788611 ], [ -54.8805747, -29.1780133 ], [ -54.8800433, -29.177758 ], [ -54.8799303, -29.1777663 ], [ -54.8798138, -29.1779007 ], [ -54.8788884, -29.1776948 ], [ -54.8788194, -29.1776792 ], [ -54.8790264, -29.1770866 ], [ -54.8797506, -29.172969500000011 ], [ -54.8795575, -29.1729508 ], [ -54.8718864, -29.1718126 ], [ -54.8711407, -29.1754051 ], [ -54.871325, -29.1757845 ], [ -54.8711591, -29.1767097 ], [ -54.8711058, -29.1768957 ], [ -54.8730765, -29.1770087 ], [ -54.873554, -29.1770391 ], [ -54.8738665, -29.1771073 ], [ -54.874179, -29.1772437 ], [ -54.8745003, -29.1775394 ], [ -54.8746565, -29.1777743 ], [ -54.8747694, -29.1780472 ], [ -54.8748302, -29.1782746 ], [ -54.8748302, -29.1785475 ], [ -54.8747347, -29.1788583 ], [ -54.874535, -29.1791767 ], [ -54.8742138, -29.1794884 ], [ -54.8729636, -29.1807002 ], [ -54.8726858, -29.1810641 ], [ -54.8724427, -29.1814961 ], [ -54.8723953, -29.1816425 ], [ -54.8723298, -29.1818448 ], [ -54.8722777, -29.1822162 ], [ -54.8722951, -29.1826407 ], [ -54.8724601, -29.1833077 ], [ -54.8725166, -29.1834909 ], [ -54.8726424, -29.1838989 ], [ -54.8727379, -29.1842097 ], [ -54.8728247, -29.1845886 ], [ -54.8728594, -29.1850434 ], [ -54.8728388, -29.1853138 ], [ -54.8727118, -29.1874613 ], [ -54.8727726, -29.187863 ], [ -54.8728947, -29.1884699 ], [ -54.8729351, -29.1886721 ], [ -54.872993, -29.1888129 ], [ -54.8729295, -29.1884623 ], [ -54.8728915, -29.1880609 ], [ -54.8729349, -29.1877957 ], [ -54.8730738, -29.1875228 ], [ -54.8732995, -29.1871817 ], [ -54.8735513, -29.1869316 ], [ -54.8739159, -29.1866512 ], [ -54.8742324, -29.1864524 ], [ -54.8744108, -29.1863404 ], [ -54.8754526, -29.1857871 ], [ -54.8757564, -29.1855976 ], [ -54.8760169, -29.1853551 ], [ -54.87626, -29.184998799999985 ], [ -54.8763482, -29.1848071 ], [ -54.8764857, -29.1844986 ], [ -54.8765465, -29.184203 ], [ -54.8765812, -29.1836118 ], [ -54.8766246, -29.1829448 ], [ -54.8767375, -29.1825354 ], [ -54.8769285, -29.1822247 ], [ -54.8771976, -29.1819215 ], [ -54.877326600000011, -29.1817962 ], [ -54.8776664, -29.1815577 ], [ -54.8780658, -29.1813606 ], [ -54.8784651, -29.1812393 ], [ -54.8820037, -29.1805078 ], [ -54.88194330000001, -29.1804467 ] ] ] } },
{ "type": "Feature", "properties": { "name": "Jardim dos Eucaliptos", "code_muni": 4317400.0, "name_muni": "Santiago" }, "geometry": { "type": "Polygon", "coordinates": [ [ [ -54.8615545, -29.1734894 ], [ -54.8618952, -29.1734147 ], [ -54.8620905, -29.1741471 ], [ -54.8621633, -29.1743028 ], [ -54.8623838, -29.1745309 ], [ -54.8627452, -29.1749308 ], [ -54.862123, -29.1754324 ], [ -54.8624772, -29.1758759 ], [ -54.8628245, -29.1763852 ], [ -54.8630793, -29.1767962 ], [ -54.8631693, -29.176933500000011 ], [ -54.8633583, -29.1771275 ], [ -54.8637171, -29.1773789 ], [ -54.8641015, -29.1775829 ], [ -54.8644803, -29.1778464 ], [ -54.8648855, -29.177519900000011 ], [ -54.8651219, -29.1773442 ], [ -54.8734689, -29.177662699999988 ], [ -54.873554, -29.1770391 ], [ -54.8730765, -29.1770087 ], [ -54.8711058, -29.1768957 ], [ -54.8684491, -29.1767434 ], [ -54.8679369, -29.1767131 ], [ -54.8675462, -29.1766146 ], [ -54.8671816, -29.1764478 ], [ -54.8667909, -29.1761901 ], [ -54.8664784, -29.1758793 ], [ -54.86627, -29.175606399999989 ], [ -54.8661311, -29.1753032 ], [ -54.866105, -29.1748939 ], [ -54.8660964, -29.1736583 ], [ -54.8660443, -29.1732792 ], [ -54.8659314, -29.1730139 ], [ -54.8657751, -29.172741 ], [ -54.8656285, -29.172581 ], [ -54.8655668, -29.1725136 ], [ -54.8654192, -29.1723696 ], [ -54.8647594, -29.1717707 ], [ -54.8646031, -29.171497800000015 ], [ -54.8645337, -29.171209799999986 ], [ -54.864525, -29.1708459 ], [ -54.8645684, -29.1705806 ], [ -54.8646584, -29.1703657 ], [ -54.8647456, -29.1701359 ], [ -54.8657882, -29.1682836 ], [ -54.8655678, -29.1682853 ], [ -54.8637871, -29.1687079 ], [ -54.8629655, -29.1689702 ], [ -54.8625729, -29.1691241 ], [ -54.8608712, -29.1699403 ], [ -54.8605715, -29.1701183 ], [ -54.8601176, -29.1703861 ], [ -54.8615545, -29.1734894 ] ] ] } },
{ "type": "Feature", "properties": { "name": "Carlos Humberto", "code_muni": 4317400.0, "name_muni": "Santiago" }, "geometry": { "type": "Polygon", "coordinates": [ [ [ -54.8711407, -29.1754051 ], [ -54.8718864, -29.1718126 ], [ -54.8717086, -29.1717911 ], [ -54.8719702, -29.1712236 ], [ -54.8713153, -29.1711332 ], [ -54.8700954, -29.1709827 ], [ -54.8703608, -29.1696172 ], [ -54.8704539, -29.1691045 ], [ -54.87059330000001, -29.1682829 ], [ -54.8707333, -29.1675783 ], [ -54.8707443, -29.1671162 ], [ -54.8695769, -29.1673854 ], [ -54.868303, -29.1676792 ], [ -54.8682112, -29.1677004 ], [ -54.8679752, -29.1677548 ], [ -54.8677652, -29.167811 ], [ -54.8660821, -29.1681731 ], [ -54.8657882, -29.1682836 ], [ -54.8647456, -29.1701359 ], [ -54.8646584, -29.1703657 ], [ -54.8645684, -29.1705806 ], [ -54.864525, -29.1708459 ], [ -54.8645337, -29.171209799999986 ], [ -54.8646031, -29.171497800000015 ], [ -54.8647594, -29.1717707 ], [ -54.8654192, -29.1723696 ], [ -54.8655668, -29.1725136 ], [ -54.8656285, -29.172581 ], [ -54.8657751, -29.172741 ], [ -54.8659314, -29.1730139 ], [ -54.8660443, -29.1732792 ], [ -54.8660964, -29.1736583 ], [ -54.866105, -29.1748939 ], [ -54.8661311, -29.1753032 ], [ -54.86627, -29.175606399999989 ], [ -54.8664784, -29.1758793 ], [ -54.8667909, -29.1761901 ], [ -54.8671816, -29.1764478 ], [ -54.8675462, -29.1766146 ], [ -54.8679369, -29.1767131 ], [ -54.8684491, -29.1767434 ], [ -54.8711058, -29.1768957 ], [ -54.8711591, -29.1767097 ], [ -54.871325, -29.1757845 ], [ -54.8711407, -29.1754051 ] ] ] } },
{ "type": "Feature", "properties": { "name": "Vila Rica", "code_muni": 4317400.0, "name_muni": "Santiago" }, "geometry": { "type": "Polygon", "coordinates": [ [ [ -54.8717086, -29.1717911 ], [ -54.8718864, -29.1718126 ], [ -54.8795575, -29.1729508 ], [ -54.8797506, -29.172969500000011 ], [ -54.8801905, -29.170056 ], [ -54.8804937, -29.168306 ], [ -54.8807806, -29.166472699999982 ], [ -54.8807752, -29.1659574 ], [ -54.8807162, -29.1654796 ], [ -54.8804587, -29.1646364 ], [ -54.8792571, -29.1618398 ], [ -54.8789448, -29.161538 ], [ -54.8788125, -29.1617329 ], [ -54.8786683, -29.1619677 ], [ -54.8784184, -29.1623331 ], [ -54.8781472, -29.162666699999985 ], [ -54.8772377, -29.163674 ], [ -54.8770341, -29.1638701 ], [ -54.8763393, -29.164539200000011 ], [ -54.8756677, -29.165093 ], [ -54.8748195, -29.165638699999988 ], [ -54.8747551, -29.1656785 ], [ -54.87353, -29.166296 ], [ -54.8727755, -29.1665859 ], [ -54.8710129, -29.1670542 ], [ -54.8707443, -29.1671162 ], [ -54.8707333, -29.1675783 ], [ -54.87059330000001, -29.1682829 ], [ -54.8704539, -29.1691045 ], [ -54.8703608, -29.1696172 ], [ -54.8700954, -29.1709827 ], [ -54.8713153, -29.1711332 ], [ -54.8719702, -29.1712236 ], [ -54.8717086, -29.1717911 ] ] ] } },
{ "type": "Feature", "properties": { "name": "Vila Itú", "code_muni": 4317400.0, "name_muni": "Santiago" }, "geometry": { "type": "Polygon", "coordinates": [ [ [ -54.8820037, -29.1805078 ], [ -54.8784651, -29.1812393 ], [ -54.8780658, -29.1813606 ], [ -54.8776664, -29.1815577 ], [ -54.877326600000011, -29.1817962 ], [ -54.8771976, -29.1819215 ], [ -54.8769285, -29.1822247 ], [ -54.8767375, -29.1825354 ], [ -54.8766246, -29.1829448 ], [ -54.8765812, -29.1836118 ], [ -54.8765465, -29.184203 ], [ -54.8764857, -29.1844986 ], [ -54.8763482, -29.1848071 ], [ -54.87626, -29.184998799999985 ], [ -54.8760169, -29.1853551 ], [ -54.8757564, -29.1855976 ], [ -54.8754526, -29.1857871 ], [ -54.8744108, -29.1863404 ], [ -54.8742324, -29.1864524 ], [ -54.8739159, -29.1866512 ], [ -54.8735513, -29.1869316 ], [ -54.8732995, -29.1871817 ], [ -54.8730738, -29.1875228 ], [ -54.8729349, -29.1877957 ], [ -54.8728915, -29.1880609 ], [ -54.8729295, -29.1884623 ], [ -54.872993, -29.1888129 ], [ -54.8733195, -29.1906132 ], [ -54.8736495, -29.1924332 ], [ -54.8736513, -29.1927128 ], [ -54.8735713, -29.193176 ], [ -54.8733977, -29.193608 ], [ -54.8732588, -29.1940779 ], [ -54.8732848, -29.194411299999988 ], [ -54.8734237, -29.1947903 ], [ -54.8736581, -29.1950555 ], [ -54.873962, -29.195245 ], [ -54.8743787, -29.1954193 ], [ -54.8747868, -29.1954875 ], [ -54.8751427, -29.195449599999989 ], [ -54.8754319, -29.1953744 ], [ -54.8753974, -29.1953136 ], [ -54.8752334, -29.1949101 ], [ -54.8752273, -29.1947918 ], [ -54.87548790000001, -29.1943876 ], [ -54.8756031, -29.1941947 ], [ -54.875979, -29.193447 ], [ -54.8762453, -29.1930429 ], [ -54.8763494, -29.192922899999985 ], [ -54.8767168, -29.192477 ], [ -54.8767452, -29.1924389 ], [ -54.8769192, -29.1922149 ], [ -54.8772182, -29.1918163 ], [ -54.8781001, -29.1909704 ], [ -54.8790255, -29.1901091 ], [ -54.8780214, -29.1893425 ], [ -54.8800686, -29.1876302 ], [ -54.8814726, -29.1873108 ], [ -54.8835862, -29.1863554 ], [ -54.883157, -29.1811474 ], [ -54.8825168, -29.1804017 ], [ -54.8820037, -29.1805078 ] ] ] } },
{ "type": "Feature", "properties": { "name": "Vista Alegre", "code_muni": 4317400.0, "name_muni": "Santiago" }, "geometry": { "type": "Polygon", "coordinates": [ [ [ -54.881218, -29.1796064 ], [ -54.8816041, -29.1800835 ], [ -54.8817882, -29.1803058 ], [ -54.88194330000001, -29.1804467 ], [ -54.8820037, -29.1805078 ], [ -54.8825168, -29.1804017 ], [ -54.88436870000001, -29.1800189 ], [ -54.8846899, -29.1798749 ], [ -54.8849764, -29.1796627 ], [ -54.88523690000001, -29.179405 ], [ -54.8854279, -29.1791018 ], [ -54.8859922, -29.1777222 ], [ -54.8864091, -29.1765957 ], [ -54.8864265, -29.1765437 ], [ -54.8864357, -29.1765199 ], [ -54.8875809, -29.1736213 ], [ -54.8878067, -29.1731285 ], [ -54.88804970000001, -29.1727268 ], [ -54.8881524, -29.1725996 ], [ -54.888062, -29.172538299999989 ], [ -54.88796450000001, -29.1724424 ], [ -54.8878979, -29.1723657 ], [ -54.8878274, -29.1721931 ], [ -54.8877655, -29.1719636 ], [ -54.8877185, -29.1718407 ], [ -54.8870303, -29.1698001 ], [ -54.8861556, -29.1696811 ], [ -54.8821431, -29.1684787 ], [ -54.8805647, -29.1683106 ], [ -54.8804937, -29.168306 ], [ -54.8801905, -29.170056 ], [ -54.8797506, -29.172969500000011 ], [ -54.8790264, -29.1770866 ], [ -54.8788194, -29.1776792 ], [ -54.8788884, -29.1776948 ], [ -54.8798138, -29.1779007 ], [ -54.8799303, -29.1777663 ], [ -54.8800433, -29.177758 ], [ -54.8805747, -29.1780133 ], [ -54.8813342, -29.1788611 ], [ -54.8808698, -29.1791323 ], [ -54.881218, -29.1796064 ] ] ] } },
{ "type": "Feature", "properties": { "name": "Missões", "code_muni": 4317400.0, "name_muni": "Santiago" }, "geometry": { "type": "Polygon", "coordinates": [ [ [ -54.8906803, -29.1707331 ], [ -54.8885967, -29.172135499999989 ], [ -54.8883189, -29.1723932 ], [ -54.8881524, -29.1725996 ], [ -54.88804970000001, -29.1727268 ], [ -54.8878067, -29.1731285 ], [ -54.8875809, -29.1736213 ], [ -54.8864357, -29.1765199 ], [ -54.8864265, -29.1765437 ], [ -54.8892993, -29.175829 ], [ -54.8911607, -29.175632300000011 ], [ -54.890922, -29.170614 ], [ -54.8906803, -29.1707331 ] ] ] } },
{ "type": "Feature", "properties": { "name": "Guabiroba", "code_muni": 4317400.0, "name_muni": "Santiago" }, "geometry": { "type": "Polygon", "coordinates": [ [ [ -54.8813734, -29.1579089 ], [ -54.8812724, -29.1580596 ], [ -54.880742, -29.1588507 ], [ -54.8798928, -29.1601173 ], [ -54.8796129, -29.1605261 ], [ -54.8793804, -29.1609321 ], [ -54.8793375, -29.1610071 ], [ -54.8792727, -29.1610905 ], [ -54.8790857, -29.1613435 ], [ -54.8789448, -29.161538 ], [ -54.8792571, -29.1618398 ], [ -54.8804587, -29.1646364 ], [ -54.8807162, -29.1654796 ], [ -54.8807752, -29.1659574 ], [ -54.8807806, -29.166472699999982 ], [ -54.8804937, -29.168306 ], [ -54.8805647, -29.1683106 ], [ -54.8821431, -29.1684787 ], [ -54.8861556, -29.1696811 ], [ -54.8870303, -29.1698001 ], [ -54.8877185, -29.1718407 ], [ -54.8877655, -29.1719636 ], [ -54.8878274, -29.1721931 ], [ -54.8878979, -29.1723657 ], [ -54.88796450000001, -29.1724424 ], [ -54.888062, -29.172538299999989 ], [ -54.8881524, -29.1725996 ], [ -54.8883189, -29.1723932 ], [ -54.8885967, -29.172135499999989 ], [ -54.8906803, -29.1707331 ], [ -54.890922, -29.170614 ], [ -54.8917294, -29.1683697 ], [ -54.8888111, -29.165147 ], [ -54.8885966, -29.1625612 ], [ -54.8862577, -29.1592446 ], [ -54.8825144, -29.1562072 ], [ -54.8813734, -29.1579089 ] ] ] } },
{ "type": "Feature", "properties": { "name": "Atalaia", "code_muni": 4317400.0, "name_muni": "Santiago" }, "geometry": { "type": "Polygon", "coordinates": [ [ [ -54.8837954, -29.153459 ], [ -54.8837042, -29.1534075 ], [ -54.8836559, -29.153452 ], [ -54.8789379, -29.15649 ], [ -54.8762557, -29.1540891 ], [ -54.8756361, -29.1541664 ], [ -54.8764837, -29.1577315 ], [ -54.8768914, -29.1589354 ], [ -54.8768914, -29.1609123 ], [ -54.8773044, -29.1617789 ], [ -54.8778248, -29.1625238 ], [ -54.8781472, -29.162666699999985 ], [ -54.8784184, -29.1623331 ], [ -54.8786683, -29.1619677 ], [ -54.8788125, -29.1617329 ], [ -54.8789448, -29.161538 ], [ -54.8790857, -29.1613435 ], [ -54.8792727, -29.1610905 ], [ -54.8793375, -29.1610071 ], [ -54.8793804, -29.1609321 ], [ -54.8796129, -29.1605261 ], [ -54.8798928, -29.1601173 ], [ -54.880742, -29.1588507 ], [ -54.8812724, -29.1580596 ], [ -54.8813734, -29.1579089 ], [ -54.8825144, -29.1562072 ], [ -54.8833118, -29.1550178 ], [ -54.8841817, -29.1537002 ], [ -54.8837954, -29.153459 ] ] ] } },
{ "type": "Feature", "properties": { "name": "Ana Martins Bonato", "code_muni": 4317400.0, "name_muni": "Santiago" }, "geometry": { "type": "Polygon", "coordinates": [ [ [ -54.853878, -29.1633482 ], [ -54.8472262, -29.1568461 ], [ -54.8456524, -29.1621633 ], [ -54.8460614, -29.1630936 ], [ -54.8468334, -29.1647328 ], [ -54.8468538, -29.1647761 ], [ -54.8473412, -29.165902 ], [ -54.8474193, -29.1661776 ], [ -54.8490232, -29.1697703 ], [ -54.8492508, -29.1703364 ], [ -54.8493163, -29.17032360000001 ], [ -54.8502705, -29.1701661 ], [ -54.8505322, -29.169800499999987 ], [ -54.8506901, -29.1695829 ], [ -54.8511837, -29.1688956 ], [ -54.8517067, -29.1681612 ], [ -54.8517162, -29.167995 ], [ -54.8525316, -29.1667022 ], [ -54.8525586, -29.1665898 ], [ -54.8528358, -29.1661756 ], [ -54.8531636, -29.1656832 ], [ -54.8534972, -29.1651607 ], [ -54.8538458, -29.1646224 ], [ -54.853878, -29.1633482 ] ] ] } },
{ "type": "Feature", "properties": { "name": "Monsenhor Assis", "code_muni": 4317400.0, "name_muni": "Santiago" }, "geometry": { "type": "Polygon", "coordinates": [ [ [ -54.8508753, -29.1766761 ], [ -54.8511514, -29.1763381 ], [ -54.8518731, -29.1756872 ], [ -54.8523687, -29.1752806 ], [ -54.8525536, -29.17513 ], [ -54.8537536, -29.1741527 ], [ -54.8544581, -29.1735659 ], [ -54.8552444, -29.1730808 ], [ -54.8563562, -29.1724742 ], [ -54.8570424, -29.1720998 ], [ -54.8591012, -29.1709765 ], [ -54.8601176, -29.1703861 ], [ -54.8605715, -29.1701183 ], [ -54.8608712, -29.1699403 ], [ -54.8538458, -29.1646224 ], [ -54.8534972, -29.1651607 ], [ -54.8531636, -29.1656832 ], [ -54.8528358, -29.1661756 ], [ -54.8525586, -29.1665898 ], [ -54.8525316, -29.1667022 ], [ -54.8517162, -29.167995 ], [ -54.8517067, -29.1681612 ], [ -54.8511837, -29.1688956 ], [ -54.8506901, -29.1695829 ], [ -54.8505322, -29.169800499999987 ], [ -54.8502705, -29.1701661 ], [ -54.8493163, -29.17032360000001 ], [ -54.8492508, -29.1703364 ], [ -54.8491961, -29.1703482 ], [ -54.8445332, -29.1710772 ], [ -54.8445118, -29.1767541 ], [ -54.8454452, -29.1770351 ], [ -54.8479772, -29.1763887 ], [ -54.8481266, -29.1763116 ], [ -54.8482505, -29.1764372 ], [ -54.849212, -29.1773283 ], [ -54.8492481, -29.1773773 ], [ -54.8493086, -29.1774594 ], [ -54.8493745, -29.1777004 ], [ -54.8499511, -29.1772199 ], [ -54.8503114, -29.1769952 ], [ -54.8507023, -29.1767681 ], [ -54.8508753, -29.1766761 ] ] ] } },
{ "type": "Feature", "properties": { "name": "São Jorge", "code_muni": 4317400.0, "name_muni": "Santiago" }, "geometry": { "type": "Polygon", "coordinates": [ [ [ -54.8540736, -29.1811506 ], [ -54.85306580000001, -29.180101099999987 ], [ -54.8521523, -29.1789819 ], [ -54.8522164, -29.178880500000012 ], [ -54.8513138, -29.1776721 ], [ -54.8507023, -29.1767681 ], [ -54.8503114, -29.1769952 ], [ -54.8499511, -29.1772199 ], [ -54.8493745, -29.1777004 ], [ -54.8492714, -29.1778127 ], [ -54.8490857, -29.1780664 ], [ -54.8489303, -29.1784074 ], [ -54.8488382, -29.1787708 ], [ -54.8488006, -29.1791375 ], [ -54.8488375, -29.1802237 ], [ -54.8489278, -29.1812891 ], [ -54.8489465, -29.1816311 ], [ -54.8489648, -29.1818674 ], [ -54.8489661, -29.1818887 ], [ -54.8489855, -29.1821476 ], [ -54.8491518, -29.1848297 ], [ -54.8493939, -29.1884194 ], [ -54.8494159, -29.188694399999989 ], [ -54.8494357, -29.1889412 ], [ -54.85150620000001, -29.1883563 ], [ -54.8519961, -29.1880277 ], [ -54.8529939, -29.1873696 ], [ -54.8539866, -29.1867302 ], [ -54.8548451, -29.186166 ], [ -54.8558991, -29.1854634 ], [ -54.8571685, -29.1846538 ], [ -54.8568663, -29.1842917 ], [ -54.8576245, -29.1837687 ], [ -54.8565696, -29.182823899999988 ], [ -54.8554136, -29.1817409 ], [ -54.854452, -29.180831800000011 ], [ -54.8540736, -29.1811506 ] ] ] } },
{ "type": "Feature", "properties": { "name": "Lulu Genro", "code_muni": 4317400.0, "name_muni": "Santiago" }, "geometry": { "type": "Polygon", "coordinates": [ [ [ -54.8558991, -29.1854634 ], [ -54.8548451, -29.186166 ], [ -54.8539866, -29.1867302 ], [ -54.8529939, -29.1873696 ], [ -54.8519961, -29.1880277 ], [ -54.85150620000001, -29.1883563 ], [ -54.8494357, -29.1889412 ], [ -54.8513138, -29.1942231 ], [ -54.8530626, -29.1943823 ], [ -54.8535725, -29.1937742 ], [ -54.8539641, -29.1934093 ], [ -54.8546754, -29.192831 ], [ -54.8557859, -29.191974699999989 ], [ -54.8566797, -29.191269 ], [ -54.8575967, -29.1905279 ], [ -54.8585811, -29.189747 ], [ -54.8596045, -29.188927899999985 ], [ -54.8598666, -29.188723499999988 ], [ -54.8607623, -29.1880248 ], [ -54.8598015, -29.1871022 ], [ -54.8587315, -29.1861319 ], [ -54.8579554, -29.1854339 ], [ -54.8575312, -29.1850625 ], [ -54.8571685, -29.1846538 ], [ -54.8558991, -29.1854634 ] ] ] } },
{ "type": "Feature", "properties": { "name": "Riachuelo", "code_muni": 4317400.0, "name_muni": "Santiago" }, "geometry": { "type": "Polygon", "coordinates": [ [ [ -54.8560519, -29.1967884 ], [ -54.8569544, -29.196178 ], [ -54.85857080000001, -29.194953500000018 ], [ -54.8595134, -29.194243100000012 ], [ -54.859077, -29.1937828 ], [ -54.85857140000001, -29.1932495 ], [ -54.8594978, -29.192544299999987 ], [ -54.860593, -29.1916628 ], [ -54.8601446, -29.1912256 ], [ -54.8595926, -29.190693 ], [ -54.8585811, -29.189747 ], [ -54.8575967, -29.1905279 ], [ -54.8566797, -29.191269 ], [ -54.8557859, -29.191974699999989 ], [ -54.8546754, -29.192831 ], [ -54.8539641, -29.1934093 ], [ -54.8535725, -29.1937742 ], [ -54.8530626, -29.1943823 ], [ -54.8534744, -29.1949855 ], [ -54.8533931, -29.1951062 ], [ -54.8533849, -29.195255299999989 ], [ -54.8536858, -29.1961283 ], [ -54.8538077, -29.19640510000001 ], [ -54.8547428, -29.1976047 ], [ -54.8548047, -29.1977038 ], [ -54.8560519, -29.1967884 ] ] ] } },
{ "type": "Feature", "properties": { "name": "São Vicente", "code_muni": 4317400.0, "name_muni": "Santiago" }, "geometry": { "type": "Polygon", "coordinates": [ [ [ -54.8757504, -29.1951844 ], [ -54.8764971, -29.1946387 ], [ -54.8768096, -29.1945023 ], [ -54.8769875, -29.1944619 ], [ -54.8770868, -29.194452 ], [ -54.8772914, -29.1944316 ], [ -54.877439, -29.194420199999989 ], [ -54.8777038, -29.1944695 ], [ -54.8779686, -29.1945491 ], [ -54.878216, -29.1946514 ], [ -54.8784157, -29.1947916 ], [ -54.8786067, -29.1949924 ], [ -54.8788107, -29.195307 ], [ -54.8797433, -29.196992 ], [ -54.8851311, -29.1917598 ], [ -54.8800686, -29.1876302 ], [ -54.8780214, -29.1893425 ], [ -54.8790255, -29.1901091 ], [ -54.8781001, -29.1909704 ], [ -54.8772182, -29.1918163 ], [ -54.8769192, -29.1922149 ], [ -54.8767452, -29.1924389 ], [ -54.8767168, -29.192477 ], [ -54.8763494, -29.192922899999985 ], [ -54.8762453, -29.1930429 ], [ -54.875979, -29.193447 ], [ -54.8756031, -29.1941947 ], [ -54.87548790000001, -29.1943876 ], [ -54.8752273, -29.1947918 ], [ -54.8752334, -29.1949101 ], [ -54.8753974, -29.1953136 ], [ -54.8754319, -29.1953744 ], [ -54.8757504, -29.1951844 ] ] ] } },
{ "type": "Feature", "properties": { "name": "Belizário", "code_muni": 4317400.0, "name_muni": "Santiago" }, "geometry": { "type": "Polygon", "coordinates": [ [ [ -54.8788107, -29.195307 ], [ -54.8786067, -29.1949924 ], [ -54.8784157, -29.1947916 ], [ -54.878216, -29.1946514 ], [ -54.8779686, -29.1945491 ], [ -54.8777038, -29.1944695 ], [ -54.877439, -29.194420199999989 ], [ -54.8772914, -29.1944316 ], [ -54.8770868, -29.194452 ], [ -54.8769852, -29.1946088 ], [ -54.8764102, -29.1952824 ], [ -54.8760146, -29.1957578 ], [ -54.8758735, -29.1959326 ], [ -54.8752232, -29.1967354 ], [ -54.8744661, -29.1976995 ], [ -54.8755427, -29.198394700000012 ], [ -54.8766345, -29.1990734 ], [ -54.8777564, -29.1997797 ], [ -54.8788353, -29.2005112 ], [ -54.8798151, -29.2011338 ], [ -54.8808869, -29.2018047 ], [ -54.8820946, -29.2025766 ], [ -54.8824955, -29.202835 ], [ -54.8826683, -29.202943 ], [ -54.8828158, -29.2030908 ], [ -54.883338, -29.2027483 ], [ -54.8838844, -29.2023999 ], [ -54.8840685, -29.2021802 ], [ -54.8842036, -29.2018587 ], [ -54.8842465, -29.2014461 ], [ -54.8841729, -29.2010656 ], [ -54.8840255, -29.2007816 ], [ -54.8837186, -29.2004922 ], [ -54.8812323, -29.1987078 ], [ -54.8806492, -29.1983219 ], [ -54.8803913, -29.1980701 ], [ -54.8798699, -29.1972206 ], [ -54.8797433, -29.196992 ], [ -54.8788107, -29.195307 ] ] ] } },
{ "type": "Feature", "properties": { "name": "João Evangelista", "code_muni": 4317400.0, "name_muni": "Santiago" }, "geometry": { "type": "Polygon", "coordinates": [ [ [ -54.8732791, -29.1992187 ], [ -54.8728877, -29.1996957 ], [ -54.8725455, -29.1999259 ], [ -54.8727205, -29.2005238 ], [ -54.8727554, -29.2011209 ], [ -54.872978, -29.2015259 ], [ -54.873265, -29.2018139 ], [ -54.87334280000001, -29.2019778 ], [ -54.8734608, -29.2023688 ], [ -54.8735762, -29.2025702 ], [ -54.8737881, -29.2028488 ], [ -54.87389, -29.2029612 ], [ -54.8740402, -29.2030829 ], [ -54.8741743, -29.2031227 ], [ -54.8743728, -29.203101600000014 ], [ -54.8744801, -29.2031368 ], [ -54.8745284, -29.2031859 ], [ -54.874641, -29.2034364 ], [ -54.8747724, -29.2036261 ], [ -54.8748294, -29.2037404 ], [ -54.8748927, -29.203769199999989 ], [ -54.8750155, -29.2035281 ], [ -54.8752487, -29.2032762 ], [ -54.8754759, -29.2031101 ], [ -54.8757521, -29.2029976 ], [ -54.876102, -29.2029387 ], [ -54.8763415, -29.2029172 ], [ -54.8767835, -29.2029762 ], [ -54.8770413, -29.203078 ], [ -54.8772623, -29.203222699999987 ], [ -54.8779314, -29.2039943 ], [ -54.8783059, -29.2043158 ], [ -54.8786251, -29.204524799999987 ], [ -54.8788523, -29.2046373 ], [ -54.879104, -29.2047391 ], [ -54.8793864, -29.204808799999988 ], [ -54.8796872, -29.2048195 ], [ -54.8799511, -29.2047981 ], [ -54.8802064, -29.2047418 ], [ -54.8803873, -29.2046618 ], [ -54.881042, -29.204254 ], [ -54.8828158, -29.2030908 ], [ -54.8826683, -29.202943 ], [ -54.8824955, -29.202835 ], [ -54.8820946, -29.2025766 ], [ -54.8808869, -29.2018047 ], [ -54.8798151, -29.2011338 ], [ -54.8788353, -29.2005112 ], [ -54.8777564, -29.1997797 ], [ -54.8766345, -29.1990734 ], [ -54.8755427, -29.198394700000012 ], [ -54.8744661, -29.1976995 ], [ -54.8736942, -29.1986475 ], [ -54.8732791, -29.1992187 ] ] ] } },
{ "type": "Feature", "properties": { "name": "Maria Alice Gomes", "code_muni": 4317400.0, "name_muni": "Santiago" }, "geometry": { "type": "Polygon", "coordinates": [ [ [ -54.8628218, -29.2041338 ], [ -54.8635467, -29.203715099999989 ], [ -54.8640369, -29.203437 ], [ -54.8644406, -29.2032175 ], [ -54.8646692, -29.2030414 ], [ -54.8647626, -29.202921100000012 ], [ -54.8648255, -29.202798 ], [ -54.8649648, -29.2023469 ], [ -54.8652048, -29.2014692 ], [ -54.865369200000011, -29.2008219 ], [ -54.8657357, -29.199409699999986 ], [ -54.8641736, -29.1987998 ], [ -54.863885, -29.1986891 ], [ -54.863714, -29.1985971 ], [ -54.8634283, -29.1983285 ], [ -54.8624184, -29.1972924 ], [ -54.8612027, -29.1960071 ], [ -54.8603528, -29.19662150000001 ], [ -54.8598949, -29.1969547 ], [ -54.8594669, -29.1972498 ], [ -54.8586454, -29.1978658 ], [ -54.8566129, -29.1994146 ], [ -54.8577182, -29.199891399999988 ], [ -54.8586812, -29.200291399999987 ], [ -54.8588414, -29.2004047 ], [ -54.8589989, -29.200537 ], [ -54.8592062, -29.200760600000013 ], [ -54.859681, -29.2013946 ], [ -54.8604487, -29.2024136 ], [ -54.860873, -29.2029816 ], [ -54.8615166, -29.2038382 ], [ -54.8620709, -29.204545899999985 ], [ -54.8628218, -29.2041338 ] ] ] } },
{ "type": "Feature", "properties": { "name": "Céu Aberto", "code_muni": 4317400.0, "name_muni": "Santiago" }, "geometry": { "type": "Polygon", "coordinates": [ [ [ -54.8491598, -29.2018465 ], [ -54.8443428, -29.2137715 ], [ -54.8439069, -29.2148229 ], [ -54.8433745, -29.2164929 ], [ -54.843986, -29.2161324 ], [ -54.8454776, -29.2151425 ], [ -54.8455387, -29.2150499 ], [ -54.8503161, -29.2046188 ], [ -54.8542066, -29.2014917 ], [ -54.8542742, -29.2012645 ], [ -54.8544124, -29.2010942 ], [ -54.8545563, -29.2009844 ], [ -54.8554586, -29.2002956 ], [ -54.8556335, -29.2001622 ], [ -54.8560522, -29.1998426 ], [ -54.8566129, -29.1994146 ], [ -54.8586454, -29.1978658 ], [ -54.8594669, -29.1972498 ], [ -54.8598949, -29.1969547 ], [ -54.8603528, -29.19662150000001 ], [ -54.8612027, -29.1960071 ], [ -54.8603784, -29.1951554 ], [ -54.8595134, -29.194243100000012 ], [ -54.85857080000001, -29.194953500000018 ], [ -54.8569544, -29.196178 ], [ -54.8560519, -29.1967884 ], [ -54.8548047, -29.1977038 ], [ -54.8491598, -29.2018465 ] ] ] } },
{ "type": "Feature", "properties": { "name": "Zamperetti", "code_muni": 4317400.0, "name_muni": "Santiago" }, "geometry": { "type": "Polygon", "coordinates": [ [ [ -54.8560522, -29.1998426 ], [ -54.8556335, -29.2001622 ], [ -54.8554586, -29.2002956 ], [ -54.8545563, -29.2009844 ], [ -54.8544124, -29.2010942 ], [ -54.8542742, -29.2012645 ], [ -54.8542066, -29.2014917 ], [ -54.8503161, -29.2046188 ], [ -54.8455387, -29.2150499 ], [ -54.8456703, -29.2149591 ], [ -54.8461086, -29.2146647 ], [ -54.8471435, -29.2139694 ], [ -54.8480563, -29.2133562 ], [ -54.8485393, -29.2130317 ], [ -54.8487086, -29.2129179 ], [ -54.8497449, -29.2122217 ], [ -54.8500156, -29.2120398 ], [ -54.8503952, -29.211799100000015 ], [ -54.8507227, -29.2116088 ], [ -54.8507607, -29.2115867 ], [ -54.8510458, -29.211421 ], [ -54.8512293, -29.2113239 ], [ -54.8514906, -29.2111808 ], [ -54.851553, -29.2111466 ], [ -54.8520808, -29.21085750000001 ], [ -54.852317, -29.2107263 ], [ -54.8531991, -29.2102175 ], [ -54.853867, -29.2098323 ], [ -54.8548429, -29.2092942 ], [ -54.8556706, -29.2088212 ], [ -54.8563486, -29.2084337 ], [ -54.8565696, -29.2082962 ], [ -54.8571261, -29.207925 ], [ -54.8574714, -29.2076844 ], [ -54.8582892, -29.2071145 ], [ -54.8588088, -29.2067469 ], [ -54.8595622, -29.2062502 ], [ -54.8601831, -29.2058221 ], [ -54.8608091, -29.2053904 ], [ -54.8614186, -29.204982500000011 ], [ -54.8620709, -29.204545899999985 ], [ -54.8615166, -29.2038382 ], [ -54.860873, -29.2029816 ], [ -54.8604487, -29.2024136 ], [ -54.859681, -29.2013946 ], [ -54.8592062, -29.200760600000013 ], [ -54.8589989, -29.200537 ], [ -54.8588414, -29.2004047 ], [ -54.8586812, -29.200291399999987 ], [ -54.8577182, -29.199891399999988 ], [ -54.8566129, -29.1994146 ], [ -54.8560522, -29.1998426 ] ] ] } },
{ "type": "Feature", "properties": { "name": "Castilhos", "code_muni": 4317400.0, "name_muni": "Santiago" }, "geometry": { "type": "Polygon", "coordinates": [ [ [ -54.8652616, -29.2015057 ], [ -54.8653647, -29.2016034 ], [ -54.8654452, -29.2017368 ], [ -54.8661511, -29.2035686 ], [ -54.8657713, -29.2041622 ], [ -54.8665554, -29.204586 ], [ -54.8667359, -29.204695199999989 ], [ -54.8669961, -29.2049223 ], [ -54.8672755, -29.2052458 ], [ -54.8674142, -29.2054186 ], [ -54.8677353, -29.2058664 ], [ -54.867848, -29.206021 ], [ -54.8681575, -29.2064375 ], [ -54.8681637, -29.2064779 ], [ -54.8681529, -29.2065332 ], [ -54.8710825, -29.2100936 ], [ -54.8710935, -29.2099735 ], [ -54.8714329, -29.2086811 ], [ -54.8719847, -29.2067666 ], [ -54.8719907, -29.2067005 ], [ -54.8719695, -29.2066414 ], [ -54.8719055, -29.2065943 ], [ -54.8702539, -29.2061511 ], [ -54.8696109, -29.2059786 ], [ -54.8695494, -29.205950600000012 ], [ -54.869498, -29.2059006 ], [ -54.8694575, -29.2058337 ], [ -54.8688702, -29.204695600000012 ], [ -54.8684927, -29.2038724 ], [ -54.8687676, -29.2037 ], [ -54.8696061, -29.2032331 ], [ -54.8699072, -29.2030659 ], [ -54.8685814, -29.2021982 ], [ -54.8683026, -29.2019853 ], [ -54.86822, -29.2018849 ], [ -54.8681686, -29.2017798 ], [ -54.8681485, -29.201602 ], [ -54.8681299, -29.2014231 ], [ -54.8680996, -29.2012665 ], [ -54.8680473, -29.2011422 ], [ -54.8679572, -29.2009812 ], [ -54.8678536, -29.2008665 ], [ -54.86706, -29.2000664 ], [ -54.8668553, -29.1998649 ], [ -54.8667247, -29.199784 ], [ -54.866472, -29.1996914 ], [ -54.8658001, -29.1994337 ], [ -54.8657357, -29.199409699999986 ], [ -54.865369200000011, -29.2008219 ], [ -54.8652048, -29.2014692 ], [ -54.8652616, -29.2015057 ] ] ] } },
{ "type": "Feature", "properties": { "name": "Alto da Boa Vista", "code_muni": 4317400.0, "name_muni": "Santiago" }, "geometry": { "type": "Polygon", "coordinates": [ [ [ -54.8614186, -29.204982500000011 ], [ -54.8608091, -29.2053904 ], [ -54.8601831, -29.2058221 ], [ -54.8595622, -29.2062502 ], [ -54.8588088, -29.2067469 ], [ -54.8582892, -29.2071145 ], [ -54.8574714, -29.2076844 ], [ -54.8571261, -29.207925 ], [ -54.8565696, -29.2082962 ], [ -54.8563486, -29.2084337 ], [ -54.8556706, -29.2088212 ], [ -54.8548429, -29.2092942 ], [ -54.853867, -29.2098323 ], [ -54.8531991, -29.2102175 ], [ -54.852317, -29.2107263 ], [ -54.8520808, -29.21085750000001 ], [ -54.851553, -29.2111466 ], [ -54.8514906, -29.2111808 ], [ -54.8512293, -29.2113239 ], [ -54.8510458, -29.211421 ], [ -54.8507607, -29.2115867 ], [ -54.8507227, -29.2116088 ], [ -54.8503952, -29.211799100000015 ], [ -54.8500156, -29.2120398 ], [ -54.8497449, -29.2122217 ], [ -54.8487086, -29.2129179 ], [ -54.8485393, -29.2130317 ], [ -54.8480563, -29.2133562 ], [ -54.8471435, -29.2139694 ], [ -54.8461086, -29.2146647 ], [ -54.8456703, -29.2149591 ], [ -54.8455387, -29.2150499 ], [ -54.8454776, -29.2151425 ], [ -54.843986, -29.2161324 ], [ -54.8433745, -29.2164929 ], [ -54.8427008, -29.2178093 ], [ -54.8422229, -29.218957 ], [ -54.8682797, -29.2119959 ], [ -54.8684761, -29.211862 ], [ -54.8693295, -29.2115565 ], [ -54.8696548, -29.2114387 ], [ -54.8698881, -29.2112511 ], [ -54.8701102, -29.2110146 ], [ -54.8704048, -29.2106503 ], [ -54.8706136, -29.2104145 ], [ -54.8709144, -29.2101734 ], [ -54.8710825, -29.2100936 ], [ -54.8681529, -29.2065332 ], [ -54.8681637, -29.2064779 ], [ -54.8681575, -29.2064375 ], [ -54.867848, -29.206021 ], [ -54.8677353, -29.2058664 ], [ -54.8674142, -29.2054186 ], [ -54.8672755, -29.2052458 ], [ -54.8669961, -29.2049223 ], [ -54.8667359, -29.204695199999989 ], [ -54.8665554, -29.204586 ], [ -54.8657713, -29.2041622 ], [ -54.8661511, -29.2035686 ], [ -54.8654452, -29.2017368 ], [ -54.8653647, -29.2016034 ], [ -54.8652616, -29.2015057 ], [ -54.8652048, -29.2014692 ], [ -54.8649648, -29.2023469 ], [ -54.8648255, -29.202798 ], [ -54.8647626, -29.202921100000012 ], [ -54.8646692, -29.2030414 ], [ -54.8644406, -29.2032175 ], [ -54.8640369, -29.203437 ], [ -54.8635467, -29.203715099999989 ], [ -54.8628218, -29.2041338 ], [ -54.8620709, -29.204545899999985 ], [ -54.8614186, -29.204982500000011 ] ] ] } }
]
}
