{
"type": "FeatureCollection",
"name": "bairros_vicente_dutra",
"crs": { "type": "name", "properties": { "name": "urn:ogc:def:crs:OGC:1.3:CRS84" } },
"features": [
{ "type": "Feature", "properties": { "name": "Nossa Senhora dos Navegantes", "code_muni": 4323101.0, "name_muni": "Vicente Dutra" }, "geometry": { "type": "Polygon", "coordinates": [ [ [ -53.412101, -27.1657193 ], [ -53.4123499, -27.1651299 ], [ -53.4126888, -27.1646453 ], [ -53.4130786, -27.164076 ], [ -53.4132576, -27.1638612 ], [ -53.4139003, -27.1630587 ], [ -53.4147072, -27.1623588 ], [ -53.4138692, -27.1617598 ], [ -53.4135237, -27.1616158 ], [ -53.413446, -27.1617602 ], [ -53.4133494, -27.1619106 ], [ -53.4129846, -27.1624201 ], [ -53.4121397, -27.1634784 ], [ -53.4113418, -27.1645201 ], [ -53.410367, -27.1657687 ], [ -53.4108554, -27.1663491 ], [ -53.4122473, -27.1679124 ], [ -53.412101, -27.1657193 ] ] ] } },
{ "type": "Feature", "properties": { "name": "Centro", "code_muni": 4323101.0, "name_muni": "Vicente Dutra" }, "geometry": { "type": "Polygon", "coordinates": [ [ [ -53.4086005, -27.1655356 ], [ -53.4086407, -27.165499799999985 ], [ -53.4087909, -27.1653018 ], [ -53.4088365, -27.165254 ], [ -53.408866, -27.1652063 ], [ -53.4089814, -27.165056 ], [ -53.4090109, -27.1650083 ], [ -53.4090538, -27.1649056 ], [ -53.4090645, -27.1647839 ], [ -53.4090377, -27.1646598 ], [ -53.4089975, -27.1646145 ], [ -53.408925, -27.1644785 ], [ -53.4089143, -27.1644188 ], [ -53.4089143, -27.1643138 ], [ -53.4089223, -27.1642565 ], [ -53.4089411, -27.1641993 ], [ -53.4090323, -27.1640489 ], [ -53.4092013, -27.1639129 ], [ -53.409263, -27.1638843 ], [ -53.4094132, -27.163858 ], [ -53.4094802, -27.1638556 ], [ -53.4095419, -27.1638437 ], [ -53.4096036, -27.1638389 ], [ -53.4097404, -27.1638389 ], [ -53.4098048, -27.1638222 ], [ -53.4098638, -27.1638031 ], [ -53.409955, -27.1637268 ], [ -53.4101079, -27.1636337 ], [ -53.4101454, -27.1635836 ], [ -53.4102956, -27.1634476 ], [ -53.4103359, -27.1633807 ], [ -53.4103734, -27.163259 ], [ -53.4104163, -27.163154 ], [ -53.4104512, -27.1630371 ], [ -53.4104673, -27.1629202 ], [ -53.41047, -27.1628629 ], [ -53.4104834, -27.162808 ], [ -53.4106095, -27.1626076 ], [ -53.410647, -27.1625598 ], [ -53.410706, -27.1625216 ], [ -53.4109421, -27.1623355 ], [ -53.4109984, -27.1622997 ], [ -53.4110896, -27.1622186 ], [ -53.4111405, -27.1621852 ], [ -53.4112505, -27.1620587 ], [ -53.4112827, -27.162011 ], [ -53.4112961, -27.1619608 ], [ -53.4114624, -27.1617103 ], [ -53.4115321, -27.161622 ], [ -53.4115482, -27.1615695 ], [ -53.4115777, -27.1615122 ], [ -53.4115751, -27.1612783 ], [ -53.4115643, -27.1612282 ], [ -53.411567, -27.1610588 ], [ -53.4112049, -27.1607939 ], [ -53.4111486, -27.1607676 ], [ -53.4110923, -27.1607294 ], [ -53.4110279, -27.1606936 ], [ -53.4109742, -27.1606722 ], [ -53.4108374, -27.1605839 ], [ -53.4107972, -27.1605528 ], [ -53.4105907, -27.1604359 ], [ -53.4105531, -27.160393 ], [ -53.4105075, -27.1602999 ], [ -53.4104405, -27.1602092 ], [ -53.4099405, -27.1601367 ], [ -53.409666, -27.1600872 ], [ -53.4094708, -27.1600293 ], [ -53.4092432, -27.1599498 ], [ -53.4090318, -27.1598959 ], [ -53.4094268, -27.1586067 ], [ -53.409176, -27.158564 ], [ -53.4089807, -27.158584399999988 ], [ -53.4088507, -27.1586519 ], [ -53.4085824, -27.1588947 ], [ -53.4083652, -27.1590361 ], [ -53.4083236, -27.1591635 ], [ -53.4074002, -27.1619871 ], [ -53.4067618, -27.1628748 ], [ -53.4038235, -27.164358 ], [ -53.4022339, -27.165255 ], [ -53.3996379, -27.1665093 ], [ -53.3998528, -27.166922 ], [ -53.3999437, -27.1670855 ], [ -53.3997534, -27.167277 ], [ -53.3996507, -27.1673574 ], [ -53.3985248, -27.167922 ], [ -53.3978763, -27.1684155 ], [ -53.3976599, -27.168646099999989 ], [ -53.3973894, -27.1690508 ], [ -53.3974931, -27.1691223 ], [ -53.3976164, -27.1691603 ], [ -53.3978081, -27.1691931 ], [ -53.3987743, -27.1693138 ], [ -53.3988937, -27.1693173 ], [ -53.3989785, -27.1693183 ], [ -53.4003554, -27.1694299 ], [ -53.4017475, -27.16956230000001 ], [ -53.4029558, -27.1696948 ], [ -53.4034185, -27.1697389 ], [ -53.4038544, -27.169789 ], [ -53.4043217, -27.170036 ], [ -53.4044773, -27.1701476 ], [ -53.4048287, -27.1704397 ], [ -53.4050485, -27.1707284 ], [ -53.4055066, -27.1714498 ], [ -53.4062509, -27.1729484 ], [ -53.4065259, -27.1717947 ], [ -53.406831, -27.1706397 ], [ -53.4070808, -27.1694499 ], [ -53.4071608, -27.169377 ], [ -53.4059877, -27.1684031 ], [ -53.4039901, -27.1667559 ], [ -53.4057174, -27.1659494 ], [ -53.4062539, -27.1658444 ], [ -53.4066026, -27.1658372 ], [ -53.4069137, -27.1657728 ], [ -53.4071819, -27.1656391 ], [ -53.4077304, -27.1650652 ], [ -53.4078139, -27.1649408 ], [ -53.4078574, -27.1650443 ], [ -53.4079635, -27.1651119 ], [ -53.4084259, -27.165582 ], [ -53.4085656, -27.1655786 ], [ -53.4086005, -27.1655356 ] ] ] } },
{ "type": "Feature", "properties": { "name": "Águas do Prado", "code_muni": 4323101.0, "name_muni": "Vicente Dutra" }, "geometry": { "type": "Polygon", "coordinates": [ [ [ -53.3997534, -27.167277 ], [ -53.3999437, -27.1670855 ], [ -53.3998528, -27.166922 ], [ -53.3996379, -27.1665093 ], [ -53.3986227, -27.1662527 ], [ -53.3952967, -27.1671118 ], [ -53.3952753, -27.1679518 ], [ -53.395278, -27.1680854 ], [ -53.3952565, -27.1702068 ], [ -53.3951626, -27.1706626 ], [ -53.3973406, -27.1707938 ], [ -53.3990009, -27.170937 ], [ -53.4012003, -27.1711207 ], [ -53.4022356, -27.170622 ], [ -53.4030081, -27.1703356 ], [ -53.4036384, -27.1703428 ], [ -53.4040273, -27.1705623 ], [ -53.4039844, -27.1706459 ], [ -53.4043476, -27.1708572 ], [ -53.4043889, -27.1709184 ], [ -53.4048287, -27.1704397 ], [ -53.4044773, -27.1701476 ], [ -53.4043217, -27.170036 ], [ -53.4038544, -27.169789 ], [ -53.4034185, -27.1697389 ], [ -53.4029558, -27.1696948 ], [ -53.4017475, -27.16956230000001 ], [ -53.4003554, -27.1694299 ], [ -53.3989785, -27.1693183 ], [ -53.3988937, -27.1693173 ], [ -53.3987743, -27.1693138 ], [ -53.3978081, -27.1691931 ], [ -53.3976164, -27.1691603 ], [ -53.3974931, -27.1691223 ], [ -53.3973894, -27.1690508 ], [ -53.3976599, -27.168646099999989 ], [ -53.3978763, -27.1684155 ], [ -53.3985248, -27.167922 ], [ -53.3996507, -27.1673574 ], [ -53.3997534, -27.167277 ] ] ] } },
{ "type": "Feature", "properties": { "name": "Jateí", "code_muni": 4323101.0, "name_muni": "Vicente Dutra" }, "geometry": { "type": "Polygon", "coordinates": [ [ [ -53.4032214, -27.1769237 ], [ -53.4042147, -27.1770801 ], [ -53.4043526, -27.1770636 ], [ -53.4044741, -27.1769796 ], [ -53.4052179, -27.1758262 ], [ -53.4055166, -27.1754087 ], [ -53.4055984, -27.1752273 ], [ -53.4057185, -27.175011199999986 ], [ -53.4058768, -27.1743884 ], [ -53.4062509, -27.1729484 ], [ -53.4055066, -27.1714498 ], [ -53.4050485, -27.1707284 ], [ -53.4048287, -27.1704397 ], [ -53.4043889, -27.1709184 ], [ -53.4044343, -27.1709758 ], [ -53.404486, -27.1710432 ], [ -53.4045758, -27.1711744 ], [ -53.4047596, -27.1715168 ], [ -53.4048454, -27.1718318 ], [ -53.4048347, -27.1720609 ], [ -53.4045396, -27.172604899999989 ], [ -53.4026353, -27.1765993 ], [ -53.4032589, -27.1767461 ], [ -53.4032214, -27.1769237 ] ] ] } },
{ "type": "Feature", "properties": { "name": "Figueiras", "code_muni": 4323101.0, "name_muni": "Vicente Dutra" }, "geometry": { "type": "Polygon", "coordinates": [ [ [ -53.4035593, -27.16035 ], [ -53.408398, -27.1589396 ], [ -53.4083652, -27.1590361 ], [ -53.4085824, -27.1588947 ], [ -53.4088507, -27.1586519 ], [ -53.4089807, -27.158584399999988 ], [ -53.409176, -27.158564 ], [ -53.4094268, -27.1586067 ], [ -53.4090318, -27.1598959 ], [ -53.4092432, -27.1599498 ], [ -53.4094708, -27.1600293 ], [ -53.409666, -27.1600872 ], [ -53.4099405, -27.1601367 ], [ -53.4099953, -27.1599358 ], [ -53.410061, -27.1596971 ], [ -53.4101214, -27.1595528 ], [ -53.4102434, -27.1594442 ], [ -53.4103882, -27.1593774 ], [ -53.4107691, -27.1592079 ], [ -53.4108796, -27.159117 ], [ -53.4109318, -27.1590537 ], [ -53.4111393, -27.1588965 ], [ -53.4118259, -27.1583858 ], [ -53.4119587, -27.1582474 ], [ -53.4120506, -27.158101 ], [ -53.4120475, -27.1578453 ], [ -53.4119612, -27.1576168 ], [ -53.4113156, -27.156991 ], [ -53.4105348, -27.1560425 ], [ -53.4097156, -27.1550871 ], [ -53.4096365, -27.1549845 ], [ -53.4095657, -27.1550344 ], [ -53.4094829, -27.1550555 ], [ -53.4089975, -27.1553562 ], [ -53.4089492, -27.1553944 ], [ -53.4086783, -27.1555352 ], [ -53.4085871, -27.1556068 ], [ -53.4084396, -27.1556927 ], [ -53.408115, -27.1559266 ], [ -53.40729420000001, -27.1563968 ], [ -53.4071843, -27.1564445 ], [ -53.4070126, -27.1565949 ], [ -53.4069053, -27.156645 ], [ -53.4063877, -27.1569409 ], [ -53.4063313, -27.1569648 ], [ -53.406275, -27.1570053 ], [ -53.4061677, -27.1570555 ], [ -53.4058324, -27.1573084 ], [ -53.4057037, -27.1573562 ], [ -53.4055964, -27.1574158 ], [ -53.4055374, -27.1574325 ], [ -53.4053872, -27.1575161 ], [ -53.4052316, -27.1576235 ], [ -53.405068, -27.1577189 ], [ -53.4049768, -27.1578024 ], [ -53.4040595, -27.1583466 ], [ -53.40393610000001, -27.1584707 ], [ -53.4037966, -27.158578 ], [ -53.4037645, -27.1586234 ], [ -53.4034587, -27.1586807 ], [ -53.4031636, -27.1586854 ], [ -53.4025575, -27.1587165 ], [ -53.4024824, -27.1587308 ], [ -53.4023804, -27.1587976 ], [ -53.4022544, -27.1588358 ], [ -53.4022141, -27.1588716 ], [ -53.4021632, -27.1588883 ], [ -53.4019888, -27.1589169 ], [ -53.4018574, -27.1589551 ], [ -53.4016375, -27.158979 ], [ -53.40144440000001, -27.1589814 ], [ -53.4012941, -27.1589694 ], [ -53.4010957, -27.1589694 ], [ -53.4008167, -27.1589289 ], [ -53.4005619, -27.1589122 ], [ -53.4003406, -27.1589969 ], [ -53.4002494, -27.1590494 ], [ -53.4001368, -27.1590637 ], [ -53.4000134, -27.159058899999987 ], [ -53.3999115, -27.159016 ], [ -53.3997076, -27.1588919 ], [ -53.3996164, -27.1588203 ], [ -53.3995038, -27.1588107 ], [ -53.3992624, -27.1588203 ], [ -53.4035593, -27.16035 ] ] ] } },
{ "type": "Feature", "properties": { "name": "Uruguai", "code_muni": 4323101.0, "name_muni": "Vicente Dutra" }, "geometry": { "type": "Polygon", "coordinates": [ [ [ -53.3995038, -27.1588107 ], [ -53.3996164, -27.1588203 ], [ -53.3997076, -27.1588919 ], [ -53.3999115, -27.159016 ], [ -53.4000134, -27.159058899999987 ], [ -53.4001368, -27.1590637 ], [ -53.4002494, -27.1590494 ], [ -53.4003406, -27.1589969 ], [ -53.4005619, -27.1589122 ], [ -53.4008167, -27.1589289 ], [ -53.4010957, -27.1589694 ], [ -53.4012941, -27.1589694 ], [ -53.40144440000001, -27.1589814 ], [ -53.4016375, -27.158979 ], [ -53.4018574, -27.1589551 ], [ -53.4019888, -27.1589169 ], [ -53.4021632, -27.1588883 ], [ -53.4022141, -27.1588716 ], [ -53.4022544, -27.1588358 ], [ -53.4023804, -27.1587976 ], [ -53.4024824, -27.1587308 ], [ -53.4025575, -27.1587165 ], [ -53.4031636, -27.1586854 ], [ -53.4034587, -27.1586807 ], [ -53.4037645, -27.1586234 ], [ -53.4037966, -27.158578 ], [ -53.40393610000001, -27.1584707 ], [ -53.4040595, -27.1583466 ], [ -53.4049768, -27.1578024 ], [ -53.405068, -27.1577189 ], [ -53.4052316, -27.1576235 ], [ -53.4053872, -27.1575161 ], [ -53.4055374, -27.1574325 ], [ -53.4055964, -27.1574158 ], [ -53.4057037, -27.1573562 ], [ -53.4058324, -27.1573084 ], [ -53.4061677, -27.1570555 ], [ -53.406275, -27.1570053 ], [ -53.4063313, -27.1569648 ], [ -53.4063877, -27.1569409 ], [ -53.4069053, -27.156645 ], [ -53.4070126, -27.1565949 ], [ -53.4071843, -27.1564445 ], [ -53.40729420000001, -27.1563968 ], [ -53.408115, -27.1559266 ], [ -53.4084396, -27.1556927 ], [ -53.4085871, -27.1556068 ], [ -53.4086783, -27.1555352 ], [ -53.4089492, -27.1553944 ], [ -53.4089975, -27.1553562 ], [ -53.4094829, -27.1550555 ], [ -53.4095657, -27.1550344 ], [ -53.4096365, -27.1549845 ], [ -53.4095883, -27.1549178 ], [ -53.4095331, -27.1547687 ], [ -53.4095814, -27.154487 ], [ -53.4096511, -27.1541768 ], [ -53.4097208, -27.1538618 ], [ -53.4097638, -27.153246 ], [ -53.40987350000001, -27.1525923 ], [ -53.4098919, -27.1520625 ], [ -53.4099442, -27.151852 ], [ -53.4100803, -27.1514417 ], [ -53.4104516, -27.1502783 ], [ -53.4100227, -27.1502018 ], [ -53.4075444, -27.1530228 ], [ -53.4064876, -27.1542542 ], [ -53.4053396, -27.1549225 ], [ -53.4028183, -27.1565406 ], [ -53.4010373, -27.1577052 ], [ -53.3992624, -27.1588203 ], [ -53.3995038, -27.1588107 ] ] ] } }
]
}
