{
"type": "FeatureCollection",
"name": "bairros_vila_langaro",
"crs": { "type": "name", "properties": { "name": "urn:ogc:def:crs:OGC:1.3:CRS84" } },
"features": [
{ "type": "Feature", "properties": { "code_muni": 4323358.0, "name_muni": "Vila Lângaro", "code_state": 43.0, "abbrev_state": "RS", "name_state": "Rio Grande do Sul", "code_region": 4.0, "name_region": "Sul", "year": 2022.0 }, "geometry": { "type": "Polygon", "coordinates": [ [ [ -52.176115476999897, -28.136597751999904 ], [ -52.182664933999895, -28.132176041 ], [ -52.182092323999903, -28.129913207999898 ], [ -52.179081455999892, -28.126400189 ], [ -52.17591064, -28.124829900999902 ], [ -52.173887279, -28.126252641999908 ], [ -52.173246395, -28.124846761 ], [ -52.177067404999896, -28.122341062 ], [ -52.177177505, -28.116495132999905 ], [ -52.183400042999892, -28.111342798 ], [ -52.188293191, -28.111009677 ], [ -52.188717132, -28.107707268999906 ], [ -52.186911963999904, -28.107140360999896 ], [ -52.184961949, -28.109193017999903 ], [ -52.178596635, -28.107869176 ], [ -52.176876856, -28.10412157 ], [ -52.172466653, -28.104499517 ], [ -52.17204661999989, -28.103521460999989 ], [ -52.174994366, -28.100132723999899 ], [ -52.176171305, -28.095411449 ], [ -52.180726786, -28.09593018 ], [ -52.183768199, -28.09480585099989 ], [ -52.187091472, -28.089925209999901 ], [ -52.183385285999989, -28.089504541999908 ], [ -52.180819186999898, -28.085985736999898 ], [ -52.171832590999898, -28.08780947 ], [ -52.1705863729999, -28.086589466 ], [ -52.172524719, -28.079147701999897 ], [ -52.164583837999892, -28.073594902 ], [ -52.158121616, -28.077847456 ], [ -52.154920288, -28.077267725 ], [ -52.153923565, -28.073970699 ], [ -52.157832970999891, -28.070733256 ], [ -52.155422792, -28.068343722999902 ], [ -52.156632932, -28.066768672999988 ], [ -52.158571338999906, -28.066753181 ], [ -52.156979793999902, -28.060274615 ], [ -52.160482983999898, -28.057437564999901 ], [ -52.151114134999901, -28.056809313 ], [ -52.149638153, -28.0581678419999 ], [ -52.149125217999895, -28.052479526999903 ], [ -52.143708003, -28.052022142999899 ], [ -52.145681317, -28.046756193 ], [ -52.138528177, -28.047116829999894 ], [ -52.137329727, -28.043408316 ], [ -52.139009201, -28.038202527 ], [ -52.1395457839999, -28.0315496159999 ], [ -52.138485150999898, -28.030358018999909 ], [ -52.131714437, -28.031250341 ], [ -52.124196331, -28.024092677999899 ], [ -52.121640524, -28.026498842 ], [ -52.112792654, -28.021879837 ], [ -52.108175839, -28.030121006999899 ], [ -52.105276569999894, -28.027487573 ], [ -52.102401662, -28.029444232999897 ], [ -52.102540464, -28.031561541 ], [ -52.105157833, -28.034554688 ], [ -52.104419574, -28.037446518 ], [ -52.098348431, -28.038192561 ], [ -52.090285068, -28.037012683999897 ], [ -52.08795339999989, -28.03979656 ], [ -52.088432643, -28.044216204999895 ], [ -52.094528441, -28.046480302 ], [ -52.09865756499989, -28.051033483 ], [ -52.09078297, -28.051091163 ], [ -52.084623421999893, -28.055339913 ], [ -52.086896629, -28.05938674 ], [ -52.08226516, -28.063886662999902 ], [ -52.08878299, -28.067077957 ], [ -52.085995837, -28.0697444699999 ], [ -52.086521777, -28.070781971 ], [ -52.090754636, -28.072203925999904 ], [ -52.093963129, -28.06935463 ], [ -52.09575947, -28.074628749999899 ], [ -52.09309309, -28.080363239 ], [ -52.09940712199991, -28.082487687 ], [ -52.100102601999893, -28.083789091 ], [ -52.095704035, -28.086593144999899 ], [ -52.090294284, -28.083673747 ], [ -52.087159157, -28.083788863999899 ], [ -52.084572398, -28.085972802 ], [ -52.089774113, -28.086960890999904 ], [ -52.08886001, -28.090539329 ], [ -52.092850942, -28.092335846 ], [ -52.094675424999899, -28.094822049 ], [ -52.094167612, -28.097528442999899 ], [ -52.090182802999891, -28.096064006999903 ], [ -52.089301543, -28.098588372999899 ], [ -52.083699563, -28.095123882999907 ], [ -52.084156934, -28.101858827999887 ], [ -52.091964285999893, -28.102935534 ], [ -52.090236413999897, -28.106482807 ], [ -52.085717734, -28.10446144 ], [ -52.084616452, -28.105839773 ], [ -52.089088201, -28.108673290999899 ], [ -52.089561154, -28.113859578999893 ], [ -52.096774868999901, -28.11160002 ], [ -52.103084764999899, -28.115799976999902 ], [ -52.102964131, -28.117101809 ], [ -52.098281375999896, -28.117649478 ], [ -52.089780346999895, -28.121590683 ], [ -52.086725519, -28.116491095 ], [ -52.083372413999911, -28.117728738 ], [ -52.082824840999891, -28.119414273 ], [ -52.091080119, -28.123945776 ], [ -52.092115952, -28.126534523 ], [ -52.096315615, -28.129263952 ], [ -52.096601306, -28.135139309999893 ], [ -52.103291718, -28.140991131 ], [ -52.101264462, -28.1411910429999 ], [ -52.103979879, -28.144555899 ], [ -52.100362147999903, -28.148181855 ], [ -52.100171074999892, -28.151588881 ], [ -52.101373356000011, -28.152505996999896 ], [ -52.105224181, -28.151459251999903 ], [ -52.108778943999894, -28.156732244 ], [ -52.113498888, -28.1555047649999 ], [ -52.112148281, -28.160028039999901 ], [ -52.115929887999989, -28.16067176 ], [ -52.1130346899999, -28.165110281 ], [ -52.111523159999898, -28.165023303999899 ], [ -52.111011881, -28.160531682999899 ], [ -52.10712283, -28.161312284 ], [ -52.102418962999899, -28.159444923 ], [ -52.102983232, -28.163096758999906 ], [ -52.099785504, -28.1651029719999 ], [ -52.106489516999901, -28.172205388999902 ], [ -52.1220576119999, -28.178038472 ], [ -52.124400709, -28.182870215 ], [ -52.146808182, -28.18491096 ], [ -52.155083375999908, -28.189966999 ], [ -52.155702200999897, -28.183133196 ], [ -52.168419813999897, -28.189106512 ], [ -52.1670575529999, -28.206982627999896 ], [ -52.157136991, -28.209685868999902 ], [ -52.151217591, -28.224013377999896 ], [ -52.147413759999893, -28.226871974999899 ], [ -52.143801746999898, -28.227200223 ], [ -52.1365452329999, -28.239484048999902 ], [ -52.141096218, -28.242905126 ], [ -52.143961611, -28.242814397 ], [ -52.144955718999896, -28.241341921 ], [ -52.15300434999989, -28.240701806999901 ], [ -52.155003127, -28.237647572 ], [ -52.157929899, -28.237782191999905 ], [ -52.157914014, -28.239120754999899 ], [ -52.159387007, -28.239485822999907 ], [ -52.162673606999903, -28.236252654999902 ], [ -52.169431281999898, -28.233950970999988 ], [ -52.173297034, -28.236313895 ], [ -52.17390975699989, -28.2385361 ], [ -52.172849326999902, -28.238610418 ], [ -52.174650974, -28.239562471999896 ], [ -52.180957753, -28.233308241 ], [ -52.179523651, -28.229456222 ], [ -52.181057828, -28.228005413999902 ], [ -52.184314157, -28.227783363 ], [ -52.188749633, -28.224792754 ], [ -52.19127947, -28.225112241 ], [ -52.194316871, -28.222493506 ], [ -52.193525681, -28.216188504999899 ], [ -52.198979677999894, -28.213496592999899 ], [ -52.199543112999898, -28.211453837 ], [ -52.197967038999899, -28.211147460999896 ], [ -52.19720403, -28.208848458 ], [ -52.199444306, -28.203464719999896 ], [ -52.203856893, -28.203946040999902 ], [ -52.203684725, -28.202200863 ], [ -52.206196019999901, -28.201948052 ], [ -52.206951698999902, -28.198971904 ], [ -52.209824356, -28.198402649999899 ], [ -52.209817839, -28.196244991 ], [ -52.212673961, -28.192855387999895 ], [ -52.216638969, -28.192665668 ], [ -52.2159523179999, -28.190896440999893 ], [ -52.217298597, -28.189906916 ], [ -52.215360607, -28.189529589999893 ], [ -52.21537129, -28.187394727 ], [ -52.208913429999903, -28.187641201 ], [ -52.20862844, -28.185980895999901 ], [ -52.206858956, -28.187993714 ], [ -52.207065207, -28.184216671999906 ], [ -52.204969349999892, -28.184463966 ], [ -52.205382727999989, -28.185945441999895 ], [ -52.204037938999903, -28.186989191999896 ], [ -52.201519848, -28.182220974 ], [ -52.204895838, -28.180173302999897 ], [ -52.202645921999903, -28.174048087999896 ], [ -52.201184559, -28.175254353999904 ], [ -52.193912993, -28.175299679 ], [ -52.190428020999903, -28.173360192 ], [ -52.191338559, -28.169904564 ], [ -52.188007587999891, -28.166876422 ], [ -52.187795191, -28.164070804999902 ], [ -52.186117317, -28.163569591999902 ], [ -52.186769672, -28.158518377 ], [ -52.185175613, -28.157219008 ], [ -52.18783483499989, -28.155431963999888 ], [ -52.189218567999895, -28.152046644999903 ], [ -52.189413652, -28.146745795 ], [ -52.184862447999897, -28.148681941999897 ], [ -52.18211504899989, -28.14749897 ], [ -52.180065216999893, -28.148117668999898 ], [ -52.17858244, -28.146693414 ], [ -52.174728528999907, -28.146525779999898 ], [ -52.174600456, -28.14807387 ], [ -52.171485198, -28.147095976999907 ], [ -52.175533695999903, -28.14359387 ], [ -52.176115476999897, -28.136597751999904 ] ] ] } }
]
}
