{
"type": "FeatureCollection",
"name": "bairros_erebango",
"crs": { "type": "name", "properties": { "name": "urn:ogc:def:crs:OGC:1.3:CRS84" } },
"features": [
{ "type": "Feature", "properties": { "code_muni": 4306973.0, "name_muni": "Erebango", "code_state": 43.0, "abbrev_state": "RS", "name_state": "Rio Grande do Sul", "code_region": 4.0, "name_region": "Sul", "year": 2022.0 }, "geometry": { "type": "Polygon", "coordinates": [ [ [ -52.269726233, -27.821102317999905 ], [ -52.259349132, -27.828926184 ], [ -52.267075362, -27.835803498 ], [ -52.261738435, -27.840622773 ], [ -52.2687404059999, -27.847112646 ], [ -52.264077745, -27.851134041 ], [ -52.265948899, -27.852727328 ], [ -52.259450623, -27.8583032 ], [ -52.299404152, -27.89469509 ], [ -52.296802812999893, -27.896638703 ], [ -52.301789977999903, -27.900953891 ], [ -52.303086771, -27.899873737999897 ], [ -52.309376325, -27.905385613 ], [ -52.314765936, -27.894015823 ], [ -52.329541853, -27.894961563 ], [ -52.331024181, -27.893814818999896 ], [ -52.334756152999894, -27.894007895999895 ], [ -52.337959961, -27.891340952 ], [ -52.340293441, -27.892516616 ], [ -52.342950479, -27.89072529 ], [ -52.345087867, -27.894043875 ], [ -52.348073668, -27.895482554 ], [ -52.3501219, -27.895051483 ], [ -52.350407139, -27.898078067 ], [ -52.354294376, -27.89614425799989 ], [ -52.357026173, -27.899144982999907 ], [ -52.360451353, -27.891603899 ], [ -52.359320576, -27.887782376 ], [ -52.355580636, -27.884902301 ], [ -52.357113023, -27.881353370999893 ], [ -52.356809708999897, -27.877629193 ], [ -52.365720982, -27.881255354 ], [ -52.370400496999906, -27.872741840999904 ], [ -52.374882710999898, -27.872635031 ], [ -52.408993704999894, -27.857993072999896 ], [ -52.408701428, -27.852762517 ], [ -52.404892558, -27.84910337 ], [ -52.404420693, -27.845765362 ], [ -52.400867142, -27.844687646 ], [ -52.400067593, -27.849783495999898 ], [ -52.395997758, -27.848038760999895 ], [ -52.396404086, -27.851590309 ], [ -52.393092292999896, -27.850410646999897 ], [ -52.388655452, -27.851819688 ], [ -52.38869914299989, -27.850491475999899 ], [ -52.386860495, -27.850118176 ], [ -52.386599781, -27.835745695999897 ], [ -52.383602564999897, -27.832302829 ], [ -52.380369416, -27.831420266999892 ], [ -52.376611973, -27.827156005999896 ], [ -52.366086399, -27.829450157999904 ], [ -52.364563032, -27.827476044 ], [ -52.367959294999899, -27.8262403109999 ], [ -52.379697663999892, -27.816488435999904 ], [ -52.379940878, -27.813530541 ], [ -52.37779709599991, -27.811299377 ], [ -52.365391707999898, -27.807635142 ], [ -52.366682055, -27.806085561 ], [ -52.36657574, -27.797074978999891 ], [ -52.368008811, -27.795161305 ], [ -52.366284465, -27.790955298 ], [ -52.363738725, -27.790570816 ], [ -52.356063637, -27.798968263999903 ], [ -52.354898539, -27.797465287 ], [ -52.350089593999897, -27.796527383 ], [ -52.349209945, -27.798746896 ], [ -52.347913772, -27.789332898999891 ], [ -52.343291243, -27.780472323 ], [ -52.325674952, -27.769636906 ], [ -52.323312713999897, -27.761903563 ], [ -52.327868249999909, -27.748863196999906 ], [ -52.324879618999901, -27.750749594999895 ], [ -52.31723883, -27.748581860999899 ], [ -52.31490752, -27.749649635 ], [ -52.303788283, -27.745868072999901 ], [ -52.299782894, -27.747213676999905 ], [ -52.297729226999905, -27.753248329 ], [ -52.295047273, -27.749650817 ], [ -52.292951702, -27.7554250439999 ], [ -52.290763254, -27.753426777999898 ], [ -52.288127048, -27.753339149999888 ], [ -52.284173199, -27.756219514999898 ], [ -52.282825198, -27.762990706 ], [ -52.284651905, -27.767420466 ], [ -52.281959264, -27.770322694999898 ], [ -52.28318604, -27.775355783999899 ], [ -52.277090732, -27.782067858999895 ], [ -52.262914468, -27.782042933 ], [ -52.263254382, -27.785364447999896 ], [ -52.236658675999891, -27.784678377 ], [ -52.23603616, -27.791638836999901 ], [ -52.23946346, -27.795991000999901 ], [ -52.239562174999904, -27.798677467999902 ], [ -52.244423534, -27.802489275 ], [ -52.247636872, -27.799090861 ], [ -52.252115525, -27.799819801999902 ], [ -52.252611695, -27.80477732 ], [ -52.258142156, -27.807010665 ], [ -52.258816717999892, -27.810967827 ], [ -52.260595824999903, -27.812730001 ], [ -52.260993059, -27.819701374 ], [ -52.263017925, -27.820037188999898 ], [ -52.266628398, -27.818335584 ], [ -52.269726233, -27.821102317999905 ] ] ] } }
]
}
