{
"type": "FeatureCollection",
"name": "bairros_saldanha_marinho",
"crs": { "type": "name", "properties": { "name": "urn:ogc:def:crs:OGC:1.3:CRS84" } },
"features": [
{ "type": "Feature", "properties": { "code_muni": 4316436.0, "name_muni": "Saldanha Marinho", "code_state": 43.0, "abbrev_state": "RS", "name_state": "Rio Grande do Sul", "code_region": 4.0, "name_region": "Sul", "year": 2022.0 }, "geometry": { "type": "Polygon", "coordinates": [ [ [ -53.054328499, -28.393796375 ], [ -53.054024899999895, -28.397026684 ], [ -53.057620695, -28.396857226999895 ], [ -53.055882298, -28.398968830999909 ], [ -53.056823032999901, -28.401418565 ], [ -53.05479823, -28.400864648 ], [ -53.053832094, -28.402367965999897 ], [ -53.054391451999905, -28.405454781999907 ], [ -53.052844396, -28.407852497 ], [ -53.056566168, -28.410139251000011 ], [ -53.055281039, -28.41075649 ], [ -53.055411189, -28.4135737 ], [ -53.053676561, -28.4137926729999 ], [ -53.05324867, -28.416575576 ], [ -53.056301881, -28.418416884 ], [ -53.052562995, -28.421530052 ], [ -53.050057674999891, -28.420887762999897 ], [ -53.048328566999892, -28.423173155 ], [ -53.047794817999893, -28.425905437 ], [ -53.050401365, -28.428195876 ], [ -53.048574335, -28.43114773 ], [ -53.051462429, -28.431725953999894 ], [ -53.05280091, -28.433387003999901 ], [ -53.046976735, -28.435311716999905 ], [ -53.04829552199989, -28.436966702999893 ], [ -53.050377757, -28.436164572999903 ], [ -53.054892321, -28.438013758999897 ], [ -53.050407800999899, -28.440401258 ], [ -53.053675380999906, -28.447824603999905 ], [ -53.055233964, -28.448256231 ], [ -53.057722935, -28.446692328 ], [ -53.059629792, -28.447897673999904 ], [ -53.05843533199991, -28.450168043 ], [ -53.059881929, -28.449031472999902 ], [ -53.061477188, -28.450544221 ], [ -53.060568628999903, -28.452614524999902 ], [ -53.063045632, -28.452001028 ], [ -53.063705517999892, -28.453439658 ], [ -53.061664585, -28.454779201999909 ], [ -53.061447003, -28.459301563999905 ], [ -53.064948068, -28.461193518999899 ], [ -53.066073295, -28.464093353 ], [ -53.066944006999989, -28.463513317 ], [ -53.066059627, -28.465111285 ], [ -53.068948628, -28.465482215 ], [ -53.067875705999903, -28.466929741999895 ], [ -53.069281191999906, -28.467279604999895 ], [ -53.067586836, -28.467712816 ], [ -53.070202244, -28.468934444 ], [ -53.072285205, -28.467527194999892 ], [ -53.070494374, -28.46928644 ], [ -53.071707008, -28.471516536 ], [ -53.07034569599989, -28.471590289999902 ], [ -53.070477855, -28.473478513 ], [ -53.068752636999896, -28.474952958999896 ], [ -53.069571842, -28.476026821999902 ], [ -53.073785465999897, -28.475298381999892 ], [ -53.07276906, -28.480200115999903 ], [ -53.074499308, -28.483100518 ], [ -53.073006032, -28.485036486999896 ], [ -53.073742374999895, -28.490527372 ], [ -53.077549003999899, -28.4905510839999 ], [ -53.082079586, -28.494066682 ], [ -53.084035993, -28.497758964 ], [ -53.087069216, -28.499371122 ], [ -53.089055286, -28.494085777999906 ], [ -53.095134218999895, -28.494510326999897 ], [ -53.098880435999902, -28.486875020999907 ], [ -53.102340085, -28.486922454 ], [ -53.102808469, -28.4893778809999 ], [ -53.106825095, -28.487130465999897 ], [ -53.115378, -28.485890007 ], [ -53.117496364, -28.48346143 ], [ -53.1223409, -28.484838168 ], [ -53.130879268999905, -28.484075972 ], [ -53.136742538999989, -28.481483739999895 ], [ -53.137707390999893, -28.479727818 ], [ -53.134985087, -28.472784089 ], [ -53.136856032, -28.470899113 ], [ -53.132559981, -28.458863278 ], [ -53.134405014, -28.455887678 ], [ -53.141365317, -28.456108566999902 ], [ -53.142741727, -28.453833426999893 ], [ -53.152088261, -28.452300831999899 ], [ -53.154113718, -28.454061275 ], [ -53.155597313, -28.450621465 ], [ -53.159086494, -28.452091170999893 ], [ -53.164471448, -28.449846724999901 ], [ -53.162423784999902, -28.4452713979999 ], [ -53.166568573999903, -28.442727353 ], [ -53.166807422, -28.437451723 ], [ -53.165706741, -28.437018896 ], [ -53.161784511999898, -28.441350397 ], [ -53.158670678, -28.441724598999905 ], [ -53.159901149999889, -28.436974529999897 ], [ -53.1575563869999, -28.433788939 ], [ -53.159506914, -28.430948803 ], [ -53.161755964999905, -28.43150904 ], [ -53.163125426, -28.42436448 ], [ -53.165648802, -28.421345666 ], [ -53.168831119999894, -28.420972643 ], [ -53.170097045, -28.423160224 ], [ -53.171207494, -28.422775406 ], [ -53.171362024, -28.416299917999901 ], [ -53.164614091, -28.41481147 ], [ -53.163188417, -28.412848422 ], [ -53.163950192999899, -28.4107165459999 ], [ -53.169962735, -28.407007125 ], [ -53.170376597, -28.40484151 ], [ -53.16895712, -28.401825615999901 ], [ -53.161007884, -28.402944423 ], [ -53.159506789, -28.400997112 ], [ -53.163138948, -28.399534346999907 ], [ -53.1643012709999, -28.395890925999897 ], [ -53.162574331, -28.393601207 ], [ -53.158322815, -28.394954572999897 ], [ -53.155542017999899, -28.392526523 ], [ -53.155468974, -28.390928163999892 ], [ -53.157429228, -28.389496677 ], [ -53.163791541, -28.391928667999906 ], [ -53.165096585999891, -28.391282529 ], [ -53.164293014, -28.387446590999989 ], [ -53.167314505, -28.385719203 ], [ -53.162899951999989, -28.382935743 ], [ -53.165413639, -28.382459423999887 ], [ -53.168529452, -28.3779057849999 ], [ -53.163633817999894, -28.376269803 ], [ -53.163148953, -28.365510913 ], [ -53.156123696999892, -28.360165899 ], [ -53.157157740999892, -28.3593034109999 ], [ -53.155958429999899, -28.354751275 ], [ -53.150756311, -28.351152321 ], [ -53.146015675999891, -28.35212875 ], [ -53.144698101999893, -28.347383594999901 ], [ -53.141314063, -28.349385216 ], [ -53.137264022999894, -28.346946099 ], [ -53.142387503, -28.339049283999898 ], [ -53.140141668, -28.33804085 ], [ -53.136859838, -28.339032470999907 ], [ -53.132803032, -28.344267859 ], [ -53.130284338, -28.343573321999898 ], [ -53.128763875999894, -28.340791861 ], [ -53.12656205, -28.342892692 ], [ -53.122789414, -28.341890432 ], [ -53.125638484, -28.338473796999899 ], [ -53.129589288, -28.337000395 ], [ -53.128003397, -28.331878027999899 ], [ -53.125510108, -28.332105684999895 ], [ -53.122020850999895, -28.336625284 ], [ -53.118344718999893, -28.335577509 ], [ -53.120971419999897, -28.332286751 ], [ -53.118921724, -28.329053346 ], [ -53.115414277999896, -28.328482079 ], [ -53.118625843, -28.327216227 ], [ -53.121008482, -28.321460696 ], [ -53.113666201999891, -28.3246902449999 ], [ -53.114620881, -28.321959869 ], [ -53.112758454999891, -28.315498375999905 ], [ -53.115118859999903, -28.316129042999901 ], [ -53.115774514999892, -28.314032814 ], [ -53.113575728999891, -28.308918037 ], [ -53.113866319999893, -28.306334024 ], [ -53.117869149999898, -28.306956343 ], [ -53.120713845999902, -28.303973745 ], [ -53.123855909, -28.303625816 ], [ -53.122205823999899, -28.302314146 ], [ -53.116525099999897, -28.303406249 ], [ -53.111528796, -28.301871554999902 ], [ -53.116837816, -28.301342076 ], [ -53.119834238, -28.297870541 ], [ -53.117322183999896, -28.298140052999894 ], [ -53.115586677999893, -28.295752232 ], [ -53.118058140999899, -28.289540572 ], [ -53.115530227, -28.289404418999908 ], [ -53.113650364, -28.291098296 ], [ -53.112482913999898, -28.29061814499989 ], [ -53.113136293, -28.288432773999897 ], [ -53.107742386, -28.289350398999904 ], [ -53.107780248, -28.28542535 ], [ -53.103917163999903, -28.281710355 ], [ -53.101667831, -28.281305527 ], [ -53.101655944999898, -28.278560577 ], [ -53.099691782, -28.279761832 ], [ -53.098361427, -28.277643770999902 ], [ -53.096813109, -28.280039528 ], [ -53.09203624, -28.277491719 ], [ -53.090939669, -28.280290213999894 ], [ -53.089006812, -28.279780248 ], [ -53.081502741999891, -28.283913804999901 ], [ -53.077456643999902, -28.282151165 ], [ -53.073872388, -28.291219499 ], [ -53.068123086, -28.298231304999899 ], [ -53.064789918, -28.29736854 ], [ -53.063239148, -28.294160147 ], [ -53.061407946, -28.29392753 ], [ -53.057541423, -28.298605220999903 ], [ -53.053323145, -28.298840754 ], [ -53.054036373, -28.30287713 ], [ -53.046081060999896, -28.305684230999901 ], [ -53.043216195, -28.305023373 ], [ -53.039667955, -28.306981698999888 ], [ -53.037622491, -28.310851187 ], [ -53.03589198, -28.311524099999897 ], [ -53.034579532999899, -28.317477657 ], [ -53.032437057, -28.318101279 ], [ -53.025439247999891, -28.314746687 ], [ -53.021533153, -28.317094298 ], [ -53.019819067, -28.320567588 ], [ -53.026412732, -28.327604731999898 ], [ -53.025342655, -28.339854036 ], [ -53.024187723999901, -28.341282559 ], [ -53.02537254, -28.34241194 ], [ -53.023343452999903, -28.3434944219999 ], [ -53.022736251, -28.345907543 ], [ -53.023467642, -28.350891267999891 ], [ -53.024760736, -28.351752890999894 ], [ -53.024718908999901, -28.354197233 ], [ -53.027583036, -28.354608315 ], [ -53.03064081, -28.352879225 ], [ -53.030658253, -28.359662683 ], [ -53.032855949999899, -28.359952699 ], [ -53.032883021, -28.362133116999907 ], [ -53.035225773, -28.362947473 ], [ -53.034612997, -28.365744277 ], [ -53.038555937999902, -28.366729162 ], [ -53.036866889999899, -28.371081611 ], [ -53.038478961, -28.371803660999905 ], [ -53.039248712, -28.374591182 ], [ -53.028015674999899, -28.376582401 ], [ -53.024532026, -28.371521976999901 ], [ -53.019622550999898, -28.369438090999889 ], [ -53.011811232, -28.370215225 ], [ -53.010659306, -28.367363694999892 ], [ -53.005834084999897, -28.36483039 ], [ -53.001731627, -28.367929956 ], [ -52.999139946, -28.365360477 ], [ -52.990157374, -28.371432872999897 ], [ -52.998709539999894, -28.374748656 ], [ -53.008529506999899, -28.384501709999892 ], [ -53.0266188149999, -28.388625492 ], [ -53.035080227, -28.385474684 ], [ -53.040003009, -28.385230356 ], [ -53.044433958999896, -28.388866258999897 ], [ -53.049173692999894, -28.390311528 ], [ -53.054328499, -28.393796375 ] ] ] } }
]
}
