{
"type": "FeatureCollection",
"name": "bairros_agua_santa",
"crs": { "type": "name", "properties": { "name": "urn:ogc:def:crs:OGC:1.3:CRS84" } },
"features": [
{ "type": "Feature", "properties": { "code_muni": 4300059.0, "name_muni": "Água Santa", "code_state": 43.0, "abbrev_state": "RS", "name_state": "Rio Grande do Sul", "code_region": 4.0, "name_region": "Sul", "year": 2022.0 }, "geometry": { "type": "Polygon", "coordinates": [ [ [ -51.981656995, -28.236387994 ], [ -51.9806578399999, -28.242084598 ], [ -51.969459131999898, -28.259469785 ], [ -51.970746033999895, -28.2732809399999 ], [ -51.968162323999898, -28.278290115999905 ], [ -51.971699315, -28.28979814 ], [ -51.979615856, -28.288908574999898 ], [ -51.994840938, -28.290370856 ], [ -52.029710415999901, -28.306941279999904 ], [ -52.04068203500001, -28.305759327 ], [ -52.05058179, -28.302896921 ], [ -52.092231732, -28.307089211999902 ], [ -52.097431151, -28.287158287 ], [ -52.096478808, -28.2838478799999 ], [ -52.098513459999907, -28.279923389 ], [ -52.102062756999906, -28.277307517999905 ], [ -52.110518047, -28.281741321 ], [ -52.1161577, -28.279185852 ], [ -52.114685503, -28.276276505999896 ], [ -52.115058008999895, -28.273318334 ], [ -52.12583296, -28.263222900999907 ], [ -52.129732362, -28.254517625999895 ], [ -52.128539959, -28.253438043 ], [ -52.129038396999896, -28.247673536 ], [ -52.127080276999891, -28.246997107 ], [ -52.128220675, -28.245515461 ], [ -52.124780116, -28.242062398 ], [ -52.125339322999892, -28.239807835 ], [ -52.1281365, -28.238436511 ], [ -52.128294276, -28.236309621 ], [ -52.129135017999893, -28.236725822 ], [ -52.130139215, -28.242091388999896 ], [ -52.13711992399989, -28.248930718999905 ], [ -52.1430601879999, -28.244052843 ], [ -52.143961611, -28.242814397 ], [ -52.141096218, -28.242905126 ], [ -52.1365452329999, -28.239484048999902 ], [ -52.143801746999898, -28.227200223 ], [ -52.147413759999893, -28.226871974999899 ], [ -52.151217591, -28.224013377999896 ], [ -52.157136991, -28.209685868999902 ], [ -52.1670575529999, -28.206982627999896 ], [ -52.168419813999897, -28.189106512 ], [ -52.155702200999897, -28.183133196 ], [ -52.155083375999908, -28.189966999 ], [ -52.146808182, -28.18491096 ], [ -52.124400709, -28.182870215 ], [ -52.1220576119999, -28.178038472 ], [ -52.107827291, -28.173079791 ], [ -52.104164626999903, -28.1702763 ], [ -52.099785504, -28.1651029719999 ], [ -52.102983232, -28.163096758999906 ], [ -52.102418962999899, -28.159444923 ], [ -52.10712283, -28.161312284 ], [ -52.111011881, -28.160531682999899 ], [ -52.111523159999898, -28.165023303999899 ], [ -52.1130346899999, -28.165110281 ], [ -52.115929887999989, -28.16067176 ], [ -52.112148281, -28.160028039999901 ], [ -52.113498888, -28.1555047649999 ], [ -52.108778943999894, -28.156732244 ], [ -52.105224181, -28.151459251999903 ], [ -52.101373356000011, -28.152505996999896 ], [ -52.100171074999892, -28.151588881 ], [ -52.100362147999903, -28.148181855 ], [ -52.103979879, -28.144555899 ], [ -52.101264462, -28.1411910429999 ], [ -52.103291718, -28.140991131 ], [ -52.096601306, -28.135139309999893 ], [ -52.096315615, -28.129263952 ], [ -52.092115952, -28.126534523 ], [ -52.091080119, -28.123945776 ], [ -52.082824840999891, -28.119414273 ], [ -52.083372413999911, -28.117728738 ], [ -52.078793697, -28.119223215 ], [ -52.076339851999897, -28.122127011 ], [ -52.043149805, -28.117516354 ], [ -52.041467033999893, -28.121698586 ], [ -52.038371186999896, -28.122432556 ], [ -52.03561214, -28.129177505 ], [ -52.027188855, -28.128708624 ], [ -52.022097040999903, -28.13230032 ], [ -51.99242835, -28.130107035 ], [ -51.990428019, -28.128138009999908 ], [ -51.987286922, -28.130954523 ], [ -51.987859855, -28.134130915999901 ], [ -51.983724333999902, -28.139997563 ], [ -51.975425449999904, -28.135337854999896 ], [ -51.974667519, -28.140788143 ], [ -51.969691462, -28.147994082 ], [ -51.970806389, -28.150982384 ], [ -51.972951426, -28.151459799 ], [ -51.972840634, -28.153651335999896 ], [ -51.975184511, -28.154148407 ], [ -51.967760991, -28.164501265999906 ], [ -51.964528058, -28.16545273 ], [ -51.961915904, -28.16865459 ], [ -51.967906834, -28.174121699999905 ], [ -51.966762371, -28.177225719 ], [ -51.970860451, -28.179987439999891 ], [ -51.972487985, -28.184386146 ], [ -51.974261849999898, -28.184615411 ], [ -51.969766525999901, -28.189161816 ], [ -51.975885156999894, -28.194193883 ], [ -51.968886568999892, -28.197491050999897 ], [ -51.960589523, -28.206577970999902 ], [ -51.963045028999893, -28.207779445 ], [ -51.963155626999892, -28.209723149 ], [ -51.967384673, -28.208932261 ], [ -51.969993041999892, -28.210887785999898 ], [ -51.97248173, -28.222809020999893 ], [ -51.970903435, -28.2300222769999 ], [ -51.97247341, -28.233966495999901 ], [ -51.971874116, -28.239771988 ], [ -51.973511984, -28.241463714 ], [ -51.977876039, -28.241673675 ], [ -51.979900334, -28.236292378 ], [ -51.981656995, -28.236387994 ] ] ] } }
]
}
