{
"type": "FeatureCollection",
"name": "bairros_tres_coroas",
"crs": { "type": "name", "properties": { "name": "urn:ogc:def:crs:OGC:1.3:CRS84" } },
"features": [
{ "type": "Feature", "properties": { "name": "Garibaldi", "code_muni": 4321709.0, "name_muni": "Três Coroas" }, "geometry": { "type": "MultiPolygon", "coordinates": [ [ [ [ -50.7968402, -29.532249 ], [ -50.7901597, -29.5327465 ], [ -50.7870376, -29.5321864 ], [ -50.7826205, -29.5327092 ], [ -50.7799699, -29.5329102 ], [ -50.7793735, -29.5333235 ], [ -50.777053061410648, -29.534484133806014 ], [ -50.7803670549999, -29.535534147 ], [ -50.788692190999896, -29.535355202999895 ], [ -50.7968469085598, -29.532322873098497 ], [ -50.7968402, -29.532249 ] ] ], [ [ [ -50.7739758, -29.5358768 ], [ -50.7732484, -29.5361864 ], [ -50.7729158, -29.5363194 ], [ -50.7727629, -29.5363847 ], [ -50.7726391, -29.5364533 ], [ -50.7724598, -29.5365784 ], [ -50.7722881, -29.5367161 ], [ -50.7719958, -29.5369868 ], [ -50.7717705, -29.5372318 ], [ -50.7715591, -29.5374753 ], [ -50.7713392, -29.5378323 ], [ -50.77133649384853, -29.537848475785204 ], [ -50.776564069751714, -29.534714834598919 ], [ -50.7739758, -29.5358768 ] ] ], [ [ [ -50.7713038, -29.5380439 ], [ -50.7713226, -29.5382376 ], [ -50.7713896, -29.5384453 ], [ -50.7715199, -29.5386239 ], [ -50.7717276, -29.5388537 ], [ -50.7719073, -29.539059 ], [ -50.7720763, -29.5392247 ], [ -50.77222960000001, -29.5393679 ], [ -50.7722989, -29.5394394 ], [ -50.7723981, -29.5395211 ], [ -50.7724974, -29.5395841 ], [ -50.7726449, -29.5396424 ], [ -50.7729319, -29.5397311 ], [ -50.7733803, -29.5398905 ], [ -50.773383523075566, -29.539892039688137 ], [ -50.771335226262373, -29.537856052669454 ], [ -50.7713038, -29.5380439 ] ] ] ] } },
{ "type": "Feature", "properties": { "name": "Rothmann", "code_muni": 4321709.0, "name_muni": "Três Coroas" }, "geometry": { "type": "MultiPolygon", "coordinates": [ [ [ [ -50.770346739092311, -29.539443905744392 ], [ -50.774222806, -29.540726246 ], [ -50.773467237790449, -29.539975248887487 ], [ -50.770346739092311, -29.539443905744392 ] ] ], [ [ [ -50.756, -29.537 ], [ -50.7525444, -29.537 ], [ -50.752639180663664, -29.537598329489811 ], [ -50.76523737331577, -29.538573738018442 ], [ -50.756, -29.537 ] ] ] ] } },
{ "type": "Feature", "properties": { "name": "Centro", "code_muni": 4321709.0, "name_muni": "Três Coroas" }, "geometry": { "type": "Polygon", "coordinates": [ [ [ -50.7880704, -29.5132862 ], [ -50.7884067, -29.5132569 ], [ -50.7882701, -29.512568 ], [ -50.7880985, -29.5125742 ], [ -50.7880783, -29.5125747 ], [ -50.7880468, -29.5122187 ], [ -50.7880146, -29.511840599999989 ], [ -50.7880367, -29.5118015 ], [ -50.7880817, -29.5117864 ], [ -50.7884263, -29.5117776 ], [ -50.7884981, -29.5117671 ], [ -50.7887004, -29.5117016 ], [ -50.7887101, -29.5116951 ], [ -50.7886201, -29.5116195 ], [ -50.7885289, -29.5115494 ], [ -50.7883331, -29.5115191 ], [ -50.7878155, -29.5116055 ], [ -50.7869947, -29.5117268 ], [ -50.7868874, -29.5117268 ], [ -50.7864744, -29.5116428 ], [ -50.7861418, -29.5116288 ], [ -50.7859755, -29.5116755 ], [ -50.7857931, -29.5117735 ], [ -50.7856063, -29.5118241 ], [ -50.7855061, -29.5108393 ], [ -50.7854182, -29.5107663 ], [ -50.7853746, -29.510708 ], [ -50.7852433, -29.5103229 ], [ -50.7852258, -29.510271499999988 ], [ -50.7852218, -29.5102201 ], [ -50.7852432, -29.5101793 ], [ -50.7852995, -29.5101174 ], [ -50.7852995, -29.509493 ], [ -50.7852821, -29.5092946 ], [ -50.7851279, -29.5085289 ], [ -50.7847846, -29.5074365 ], [ -50.7845244, -29.506288600000012 ], [ -50.7836155, -29.5063578 ], [ -50.7838129, -29.5059381 ], [ -50.7831705, -29.5057183 ], [ -50.7830786, -29.5056868 ], [ -50.7823448, -29.5055321 ], [ -50.7822732, -29.5052364 ], [ -50.78216, -29.504852599999989 ], [ -50.7820235, -29.504536 ], [ -50.7817179, -29.5040896 ], [ -50.781464, -29.504089 ], [ -50.7810729, -29.5040945 ], [ -50.7808989, -29.504062 ], [ -50.7807639, -29.5040143 ], [ -50.7806084, -29.5038836 ], [ -50.780434, -29.5035638 ], [ -50.7802023, -29.503278 ], [ -50.7800758, -29.5032013 ], [ -50.7799029, -29.5031599 ], [ -50.7787179, -29.5032377 ], [ -50.7778149, -29.5032895 ], [ -50.77802, -29.5035895 ], [ -50.7782815, -29.50397 ], [ -50.7784385, -29.5042524 ], [ -50.7785431, -29.5045209 ], [ -50.7786021, -29.5047578 ], [ -50.7786235, -29.5049644 ], [ -50.7786208, -29.5052352 ], [ -50.7785873, -29.5055189 ], [ -50.7784787, -29.5060639 ], [ -50.7783231, -29.5066988 ], [ -50.7781957, -29.5070606 ], [ -50.77807640000001, -29.507342 ], [ -50.7779275, -29.50764770000001 ], [ -50.7777491, -29.5079465 ], [ -50.7776902, -29.5080322 ], [ -50.7775003, -29.5083083 ], [ -50.7771798, -29.5086818 ], [ -50.7768546, -29.5090016 ], [ -50.776522, -29.5092817 ], [ -50.7760929, -29.509594499999988 ], [ -50.7756302, -29.509877 ], [ -50.7751662, -29.5101046 ], [ -50.7749952, -29.5101748 ], [ -50.7748618, -29.5102296 ], [ -50.7746995, -29.5102913 ], [ -50.7745287, -29.510352499999989 ], [ -50.773827, -29.5105625 ], [ -50.7735595, -29.5106426 ], [ -50.77321, -29.510744899999985 ], [ -50.7731805, -29.5107535 ], [ -50.7725859, -29.510927499999987 ], [ -50.7724563, -29.5109701 ], [ -50.7722063, -29.5110523 ], [ -50.7720176, -29.5111278 ], [ -50.7719877, -29.5111398 ], [ -50.7717396, -29.511244799999986 ], [ -50.7714519, -29.5114015 ], [ -50.771222, -29.5115518 ], [ -50.7710007, -29.511730299999986 ], [ -50.770833, -29.5118961 ], [ -50.7706761, -29.5120793 ], [ -50.7705072, -29.5123407 ], [ -50.7704186, -29.5125111 ], [ -50.7703395, -29.5126792 ], [ -50.7702295, -29.5130702 ], [ -50.770196, -29.5132942 ], [ -50.7701826, -29.51353 ], [ -50.7701826, -29.5137401 ], [ -50.7701974, -29.5139069 ], [ -50.7701873, -29.5141515 ], [ -50.7701605, -29.5143586 ], [ -50.7700885, -29.5145939 ], [ -50.7700988, -29.5146929 ], [ -50.7700337, -29.514735 ], [ -50.769964, -29.5147875 ], [ -50.7699292, -29.51485 ], [ -50.7699018, -29.5149045 ], [ -50.7698487, -29.5149153 ], [ -50.7698835, -29.5155269 ], [ -50.7700237, -29.5163432 ], [ -50.7701243, -29.5167704 ], [ -50.7703637, -29.517355 ], [ -50.7705407, -29.517755899999987 ], [ -50.7708136, -29.5182052 ], [ -50.7709014, -29.5182828 ], [ -50.770992, -29.518294 ], [ -50.7711106, -29.5182928 ], [ -50.7712072, -29.518378 ], [ -50.7712729, -29.5184223 ], [ -50.7715156, -29.518605499999989 ], [ -50.7716525, -29.5187315 ], [ -50.7718389, -29.518921700000014 ], [ -50.7721862, -29.5193711 ], [ -50.7725148, -29.5198309 ], [ -50.7729252, -29.5204902 ], [ -50.7732926, -29.521243 ], [ -50.7735501, -29.5218953 ], [ -50.7735997, -29.5220377 ], [ -50.773754, -29.5225091 ], [ -50.7739015, -29.5230179 ], [ -50.7739498, -29.5232595 ], [ -50.7740571, -29.5238488 ], [ -50.7741188, -29.5244591 ], [ -50.7741268, -29.524568799999987 ], [ -50.7742542, -29.526807 ], [ -50.7742717, -29.5271792 ], [ -50.7743092, -29.5274442 ], [ -50.7743494, -29.5279109 ], [ -50.7743521, -29.5280883 ], [ -50.7743658, -29.528264 ], [ -50.7744178, -29.5287861 ], [ -50.7744031, -29.5291303 ], [ -50.7744121, -29.529238899999985 ], [ -50.7744407, -29.5299506 ], [ -50.7744675, -29.5304512 ], [ -50.774462, -29.5309145 ], [ -50.7744152, -29.5313859 ], [ -50.7743333, -29.5317208 ], [ -50.7742515, -29.5319811 ], [ -50.7741563, -29.5322448 ], [ -50.7740624, -29.5325143 ], [ -50.7739866, -29.5327082 ], [ -50.7738707, -29.5330043 ], [ -50.7736601, -29.533341700000012 ], [ -50.7734184, -29.5337615 ], [ -50.7732902, -29.5339541 ], [ -50.7731714, -29.5341017 ], [ -50.7729146, -29.534405199999984 ], [ -50.7726537, -29.5346832 ], [ -50.7722519, -29.5351479 ], [ -50.7719692, -29.5355611 ], [ -50.771759, -29.5358812 ], [ -50.7716176, -29.536126899999989 ], [ -50.7714625, -29.5364222 ], [ -50.7714432, -29.5364512 ], [ -50.7713514, -29.5366455 ], [ -50.7726391, -29.5364533 ], [ -50.7727629, -29.5363847 ], [ -50.7729158, -29.5363194 ], [ -50.7732484, -29.5361864 ], [ -50.7739758, -29.5358768 ], [ -50.776564069751714, -29.534714834598919 ], [ -50.776984917999989, -29.534462542 ], [ -50.777034821519536, -29.53447835434924 ], [ -50.7775501, -29.5341822 ], [ -50.7779121, -29.5337989 ], [ -50.7779823, -29.5335727 ], [ -50.7779162, -29.5333357 ], [ -50.777371, -29.5328723 ], [ -50.776748, -29.5321586 ], [ -50.7756648, -29.531352 ], [ -50.7751517, -29.5307221 ], [ -50.7750158, -29.530506100000014 ], [ -50.7749048, -29.5302227 ], [ -50.7748756, -29.5300245 ], [ -50.7749621, -29.5298112 ], [ -50.7753575, -29.5291702 ], [ -50.7763351, -29.5277476 ], [ -50.7764322, -29.5272014 ], [ -50.7763092, -29.5267892 ], [ -50.7760513, -29.5262399 ], [ -50.7756763, -29.5256782 ], [ -50.7756651, -29.525306300000011 ], [ -50.7757509, -29.5249282 ], [ -50.7763785, -29.5242701 ], [ -50.7767438, -29.5239138 ], [ -50.7768989, -29.5233318 ], [ -50.776996, -29.52272820000001 ], [ -50.7770008, -29.5221602 ], [ -50.7768603, -29.521892 ], [ -50.7764535, -29.5216561 ], [ -50.7785498, -29.5215592 ], [ -50.7793357, -29.5215201 ], [ -50.7794619, -29.5215198 ], [ -50.7868982, -29.5214693 ], [ -50.7866407, -29.5163064 ], [ -50.7882285, -29.5161571 ], [ -50.788372, -29.5161039 ], [ -50.7883318, -29.5157824 ], [ -50.7882676, -29.5154245 ], [ -50.7881979, -29.51471 ], [ -50.7881422, -29.5140347 ], [ -50.7880704, -29.5132862 ] ] ] } },
{ "type": "Feature", "properties": { "name": "Águas Brancas", "code_muni": 4321709.0, "name_muni": "Três Coroas" }, "geometry": { "type": "Polygon", "coordinates": [ [ [ -50.7743494, -29.5279109 ], [ -50.7743092, -29.5274442 ], [ -50.7742717, -29.5271792 ], [ -50.7742542, -29.526807 ], [ -50.7741268, -29.524568799999987 ], [ -50.7741188, -29.5244591 ], [ -50.7740571, -29.5238488 ], [ -50.7739498, -29.5232595 ], [ -50.7739015, -29.5230179 ], [ -50.773754, -29.5225091 ], [ -50.7735997, -29.5220377 ], [ -50.7735501, -29.5218953 ], [ -50.7732926, -29.521243 ], [ -50.7729252, -29.5204902 ], [ -50.7725148, -29.5198309 ], [ -50.7721862, -29.5193711 ], [ -50.7718389, -29.518921700000014 ], [ -50.7716525, -29.5187315 ], [ -50.7715156, -29.518605499999989 ], [ -50.7712729, -29.5184223 ], [ -50.7712072, -29.518378 ], [ -50.7711106, -29.5182928 ], [ -50.770992, -29.518294 ], [ -50.7709014, -29.5182828 ], [ -50.7708136, -29.5182052 ], [ -50.7705407, -29.517755899999987 ], [ -50.7703637, -29.517355 ], [ -50.7701243, -29.5167704 ], [ -50.7700237, -29.5163432 ], [ -50.7698835, -29.5155269 ], [ -50.7698487, -29.5149153 ], [ -50.7699018, -29.5149045 ], [ -50.7699292, -29.51485 ], [ -50.769964, -29.5147875 ], [ -50.7700337, -29.514735 ], [ -50.7700988, -29.5146929 ], [ -50.7700885, -29.5145939 ], [ -50.7701605, -29.5143586 ], [ -50.7701873, -29.5141515 ], [ -50.7701974, -29.5139069 ], [ -50.7701826, -29.5137401 ], [ -50.7701826, -29.51353 ], [ -50.770196, -29.5132942 ], [ -50.7702295, -29.5130702 ], [ -50.7703395, -29.5126792 ], [ -50.7704186, -29.5125111 ], [ -50.7705072, -29.5123407 ], [ -50.7706761, -29.5120793 ], [ -50.770833, -29.5118961 ], [ -50.7710007, -29.511730299999986 ], [ -50.771222, -29.5115518 ], [ -50.7714519, -29.5114015 ], [ -50.7717396, -29.511244799999986 ], [ -50.7719877, -29.5111398 ], [ -50.7720176, -29.5111278 ], [ -50.7722063, -29.5110523 ], [ -50.7724563, -29.5109701 ], [ -50.7725859, -29.510927499999987 ], [ -50.7731805, -29.5107535 ], [ -50.77321, -29.510744899999985 ], [ -50.7735595, -29.5106426 ], [ -50.773827, -29.5105625 ], [ -50.7745287, -29.510352499999989 ], [ -50.7746995, -29.5102913 ], [ -50.7748618, -29.5102296 ], [ -50.7749952, -29.5101748 ], [ -50.7751662, -29.5101046 ], [ -50.7756302, -29.509877 ], [ -50.7760929, -29.509594499999988 ], [ -50.776522, -29.5092817 ], [ -50.7768546, -29.5090016 ], [ -50.7771798, -29.5086818 ], [ -50.7775003, -29.5083083 ], [ -50.7776902, -29.5080322 ], [ -50.7777491, -29.5079465 ], [ -50.7657409, -29.5079127 ], [ -50.7655585, -29.5194714 ], [ -50.7604838, -29.5194341 ], [ -50.7604623, -29.5215253 ], [ -50.7709873, -29.5216374 ], [ -50.7709122, -29.5280136 ], [ -50.7743521, -29.5280883 ], [ -50.7743494, -29.5279109 ] ] ] } },
{ "type": "Feature", "properties": { "name": "Vila Nova", "code_muni": 4321709.0, "name_muni": "Três Coroas" }, "geometry": { "type": "Polygon", "coordinates": [ [ [ -50.7764535, -29.5216561 ], [ -50.7768603, -29.521892 ], [ -50.7770008, -29.5221602 ], [ -50.776996, -29.52272820000001 ], [ -50.7768989, -29.5233318 ], [ -50.7767438, -29.5239138 ], [ -50.7763785, -29.5242701 ], [ -50.7757509, -29.5249282 ], [ -50.7756651, -29.525306300000011 ], [ -50.7756763, -29.5256782 ], [ -50.7760513, -29.5262399 ], [ -50.7763092, -29.5267892 ], [ -50.7764322, -29.5272014 ], [ -50.7763351, -29.5277476 ], [ -50.7753575, -29.5291702 ], [ -50.7749621, -29.5298112 ], [ -50.7748756, -29.5300245 ], [ -50.7749048, -29.5302227 ], [ -50.7750158, -29.530506100000014 ], [ -50.7751517, -29.5307221 ], [ -50.7756648, -29.531352 ], [ -50.776748, -29.5321586 ], [ -50.777371, -29.5328723 ], [ -50.7798144, -29.5329233 ], [ -50.7799699, -29.5329102 ], [ -50.7802509, -29.5328865 ], [ -50.7808972, -29.5328321 ], [ -50.781568, -29.5327831 ], [ -50.7822273, -29.5327358 ], [ -50.7826205, -29.5327092 ], [ -50.7870376, -29.5321864 ], [ -50.7901597, -29.5327465 ], [ -50.7903528, -29.5212453 ], [ -50.7868982, -29.5214693 ], [ -50.7794619, -29.5215198 ], [ -50.7793357, -29.5215201 ], [ -50.7785498, -29.5215592 ], [ -50.7764535, -29.5216561 ] ] ] } },
{ "type": "Feature", "properties": { "name": "Encosta da Serra", "code_muni": 4321709.0, "name_muni": "Três Coroas" }, "geometry": { "type": "Polygon", "coordinates": [ [ [ -50.7856063, -29.5118241 ], [ -50.7857931, -29.5117735 ], [ -50.7859755, -29.5116755 ], [ -50.7861418, -29.5116288 ], [ -50.7864744, -29.5116428 ], [ -50.7868874, -29.5117268 ], [ -50.7869947, -29.5117268 ], [ -50.7878155, -29.5116055 ], [ -50.7883331, -29.5115191 ], [ -50.7885289, -29.5115494 ], [ -50.7886201, -29.5116195 ], [ -50.7887101, -29.5116951 ], [ -50.7890922, -29.5120163 ], [ -50.7893068, -29.5121517 ], [ -50.7901597, -29.5121283 ], [ -50.7902885, -29.5121003 ], [ -50.7904923, -29.5120023 ], [ -50.7907981, -29.5119136 ], [ -50.7914633, -29.5119743 ], [ -50.7918871, -29.5122056 ], [ -50.7924986, -29.5123944 ], [ -50.7928634, -29.5124178 ], [ -50.7932818, -29.5123757 ], [ -50.7934642, -29.5123151 ], [ -50.7936841, -29.5122917 ], [ -50.7938826, -29.5121003 ], [ -50.7940167, -29.5119042 ], [ -50.7942875, -29.511544199999989 ], [ -50.7945433, -29.5111876 ], [ -50.7947136, -29.511019599999987 ], [ -50.794934, -29.5108258 ], [ -50.7954007, -29.5108352 ], [ -50.7954973, -29.5108959 ], [ -50.7956046, -29.5110079 ], [ -50.7958031, -29.5114841 ], [ -50.7959372, -29.5116568 ], [ -50.7960928, -29.5119042 ], [ -50.7968062, -29.5125205 ], [ -50.797053, -29.5128846 ], [ -50.7971495, -29.51309 ], [ -50.7977665, -29.5131367 ], [ -50.7979006, -29.512964 ], [ -50.7981044, -29.5126045 ], [ -50.7982439, -29.512259 ], [ -50.7985228, -29.5121096 ], [ -50.7988125, -29.5119929 ], [ -50.7992685, -29.5116288 ], [ -50.7997835, -29.5112553 ], [ -50.8010436, -29.5110176 ], [ -50.8015742, -29.5109939 ], [ -50.8016289, -29.5109771 ], [ -50.8015001, -29.5061853 ], [ -50.7851279, -29.5085289 ], [ -50.7852821, -29.5092946 ], [ -50.7852995, -29.509493 ], [ -50.7852995, -29.5101174 ], [ -50.7852432, -29.5101793 ], [ -50.7852218, -29.5102201 ], [ -50.7852258, -29.510271499999988 ], [ -50.7852433, -29.5103229 ], [ -50.7853746, -29.510708 ], [ -50.7854182, -29.5107663 ], [ -50.7855061, -29.5108393 ], [ -50.7856063, -29.5118241 ] ] ] } },
{ "type": "Feature", "properties": { "name": "Linha 28", "code_muni": 4321709.0, "name_muni": "Três Coroas" }, "geometry": { "type": "Polygon", "coordinates": [ [ [ -50.8050943, -29.5111246 ], [ -50.8048904, -29.5110312 ], [ -50.8044076, -29.5109565 ], [ -50.8039892, -29.5110592 ], [ -50.8022833, -29.5109939 ], [ -50.8016289, -29.5109771 ], [ -50.8015742, -29.5109939 ], [ -50.8010436, -29.5110176 ], [ -50.7997835, -29.5112553 ], [ -50.7992685, -29.5116288 ], [ -50.7988125, -29.5119929 ], [ -50.7985228, -29.5121096 ], [ -50.7982439, -29.512259 ], [ -50.7981044, -29.5126045 ], [ -50.7979006, -29.512964 ], [ -50.7977665, -29.5131367 ], [ -50.7971495, -29.51309 ], [ -50.797053, -29.5128846 ], [ -50.7968062, -29.5125205 ], [ -50.7960928, -29.5119042 ], [ -50.7959372, -29.5116568 ], [ -50.7958031, -29.5114841 ], [ -50.7956046, -29.5110079 ], [ -50.7954973, -29.5108959 ], [ -50.7954007, -29.5108352 ], [ -50.794934, -29.5108258 ], [ -50.7947136, -29.511019599999987 ], [ -50.7945433, -29.5111876 ], [ -50.7942875, -29.511544199999989 ], [ -50.7940167, -29.5119042 ], [ -50.7938826, -29.5121003 ], [ -50.7936841, -29.5122917 ], [ -50.7934642, -29.5123151 ], [ -50.7932818, -29.5123757 ], [ -50.7928634, -29.5124178 ], [ -50.7924986, -29.5123944 ], [ -50.7918871, -29.5122056 ], [ -50.7914633, -29.5119743 ], [ -50.7907981, -29.5119136 ], [ -50.7904923, -29.5120023 ], [ -50.7902885, -29.5121003 ], [ -50.7901597, -29.5121283 ], [ -50.7893068, -29.5121517 ], [ -50.7890922, -29.5120163 ], [ -50.7887101, -29.5116951 ], [ -50.7887004, -29.5117016 ], [ -50.7884981, -29.5117671 ], [ -50.7884263, -29.5117776 ], [ -50.7880817, -29.5117864 ], [ -50.7880367, -29.5118015 ], [ -50.7880146, -29.511840599999989 ], [ -50.7880468, -29.5122187 ], [ -50.7880783, -29.5125747 ], [ -50.7880985, -29.5125742 ], [ -50.7882701, -29.512568 ], [ -50.7884067, -29.5132569 ], [ -50.7880704, -29.5132862 ], [ -50.7881422, -29.5140347 ], [ -50.7881979, -29.51471 ], [ -50.7882676, -29.5154245 ], [ -50.7883318, -29.5157824 ], [ -50.788372, -29.5161039 ], [ -50.7882285, -29.5161571 ], [ -50.8060169, -29.5168946 ], [ -50.8062101, -29.5111433 ], [ -50.8050943, -29.5111246 ] ] ] } },
{ "type": "Feature", "properties": { "name": "Sander", "code_muni": 4321709.0, "name_muni": "Três Coroas" }, "geometry": { "type": "Polygon", "coordinates": [ [ [ -50.7769431, -29.4986451 ], [ -50.7768731, -29.4988372 ], [ -50.77682380000001, -29.499046 ], [ -50.7767895, -29.4992579 ], [ -50.7767808, -29.4995345 ], [ -50.77682380000001, -29.4998404 ], [ -50.7769002, -29.5001264 ], [ -50.7770634, -29.500610900000012 ], [ -50.777199, -29.5011382 ], [ -50.7772031, -29.5011826 ], [ -50.777261, -29.5018119 ], [ -50.7773334, -29.502097800000016 ], [ -50.7773977, -29.5023289 ], [ -50.7774755, -29.502539 ], [ -50.7775279, -29.5027164 ], [ -50.7775775, -29.502909 ], [ -50.7778149, -29.5032895 ], [ -50.7787179, -29.5032377 ], [ -50.7799029, -29.5031599 ], [ -50.7800758, -29.5032013 ], [ -50.7802023, -29.503278 ], [ -50.780434, -29.5035638 ], [ -50.7806084, -29.5038836 ], [ -50.7807639, -29.5040143 ], [ -50.7808989, -29.504062 ], [ -50.7810729, -29.5040945 ], [ -50.781464, -29.504089 ], [ -50.7817179, -29.5040896 ], [ -50.7820235, -29.504536 ], [ -50.78216, -29.504852599999989 ], [ -50.7822732, -29.5052364 ], [ -50.7823448, -29.5055321 ], [ -50.7830786, -29.5056868 ], [ -50.7831705, -29.5057183 ], [ -50.7838129, -29.5059381 ], [ -50.7836155, -29.5063578 ], [ -50.7845244, -29.506288600000012 ], [ -50.7847846, -29.5074365 ], [ -50.7908034, -29.5070723 ], [ -50.7943761, -29.5000505 ], [ -50.7958889, -29.497081 ], [ -50.8011461, -29.4917954 ], [ -50.7986489, -29.4898074 ], [ -50.7988784, -29.489603400000011 ], [ -50.7989211, -29.4895654 ], [ -50.7990593, -29.4894432 ], [ -50.7993224, -29.4891782 ], [ -50.7995258, -29.4889897 ], [ -50.7995555, -29.4889599 ], [ -50.799633300000011, -29.4888829 ], [ -50.7997151, -29.4888 ], [ -50.7998116, -29.488690299999984 ], [ -50.7999122, -29.4885747 ], [ -50.8000021, -29.488437 ], [ -50.8001067, -29.488251400000014 ], [ -50.8001643, -29.4881323 ], [ -50.8001925, -29.4880739 ], [ -50.8002086, -29.4880132 ], [ -50.800222, -29.487912800000014 ], [ -50.8002234, -29.487782100000011 ], [ -50.800226, -29.4875859 ], [ -50.800226, -29.4873256 ], [ -50.8002435, -29.4870921 ], [ -50.8002824, -29.4867174 ], [ -50.8002847, -29.4867007 ], [ -50.8002985, -29.4865995 ], [ -50.8003226, -29.4864839 ], [ -50.8003756, -29.4863276 ], [ -50.8004285, -29.4861769 ], [ -50.7998948, -29.4864337 ], [ -50.7990593, -29.4866643 ], [ -50.798897, -29.4867034 ], [ -50.7984504, -29.4868108 ], [ -50.7975921, -29.4870092 ], [ -50.7970167, -29.4871867 ], [ -50.7963396, -29.4873793 ], [ -50.7954826, -29.4876396 ], [ -50.7952011, -29.4877409 ], [ -50.7943708, -29.4880634 ], [ -50.79388, -29.488249 ], [ -50.7931705, -29.4884731 ], [ -50.7928915, -29.4885607 ], [ -50.7926072, -29.4886622 ], [ -50.7923752, -29.4887872 ], [ -50.7920976, -29.488924899999986 ], [ -50.7917771, -29.489121 ], [ -50.7915477, -29.4892938 ], [ -50.7914292, -29.489402 ], [ -50.7912473, -29.4895681 ], [ -50.7908691, -29.4899335 ], [ -50.7904481, -29.490306 ], [ -50.790381, -29.4903794 ], [ -50.790212, -29.4905277 ], [ -50.7898244, -29.490817199999984 ], [ -50.7895053, -29.4910239 ], [ -50.78914850000001, -29.4912187 ], [ -50.7889205, -29.491332 ], [ -50.7886283, -29.4914604 ], [ -50.787875, -29.4917462 ], [ -50.78748, -29.4918899 ], [ -50.7871029, -29.4920206 ], [ -50.7868772, -29.4921018 ], [ -50.786735, -29.4921548 ], [ -50.7865723, -29.4922188 ], [ -50.7860199, -29.4924217 ], [ -50.7859267, -29.4924572 ], [ -50.7853103, -29.4926779 ], [ -50.7848315, -29.4928565 ], [ -50.7846116, -29.4929429 ], [ -50.7842588, -29.493092300000011 ], [ -50.7838029, -29.4933116 ], [ -50.7834237, -29.4935111 ], [ -50.7830532, -29.4937309 ], [ -50.7827294, -29.493941 ], [ -50.782171, -29.4943344 ], [ -50.7815552, -29.4948304 ], [ -50.7808934, -29.4953063 ], [ -50.7797014, -29.4962113 ], [ -50.7791805, -29.4966031 ], [ -50.7789783, -29.496753899999987 ], [ -50.778704, -29.4969584 ], [ -50.7781687, -29.497339600000011 ], [ -50.7776485, -29.4977592 ], [ -50.7773584, -29.4980238 ], [ -50.7772286, -29.4981757 ], [ -50.7771162, -29.4983335 ], [ -50.777019, -29.4984974 ], [ -50.7769431, -29.4986451 ] ] ] } },
{ "type": "Feature", "properties": { "name": "Moreira", "code_muni": 4321709.0, "name_muni": "Três Coroas" }, "geometry": { "type": "Polygon", "coordinates": [ [ [ -50.8011461, -29.4917954 ], [ -50.8091712, -29.4834837 ], [ -50.8072159, -29.4807554 ], [ -50.8065346, -29.4814173 ], [ -50.8061135, -29.4818259 ], [ -50.8058756, -29.4820461 ], [ -50.8056065, -29.4822952 ], [ -50.8049172, -29.4829 ], [ -50.8046799, -29.4831148 ], [ -50.8045028, -29.4832805 ], [ -50.8033226, -29.4844176 ], [ -50.8029351, -29.4847398 ], [ -50.8022779, -29.4852056 ], [ -50.8013727, -29.4857812 ], [ -50.8011289, -29.4858842 ], [ -50.8004285, -29.4861769 ], [ -50.8003756, -29.4863276 ], [ -50.8003226, -29.4864839 ], [ -50.8002985, -29.4865995 ], [ -50.8002847, -29.4867007 ], [ -50.8002824, -29.4867174 ], [ -50.8002435, -29.4870921 ], [ -50.800226, -29.4873256 ], [ -50.800226, -29.4875859 ], [ -50.8002234, -29.487782100000011 ], [ -50.800222, -29.487912800000014 ], [ -50.8002086, -29.4880132 ], [ -50.8001925, -29.4880739 ], [ -50.8001643, -29.4881323 ], [ -50.8001067, -29.488251400000014 ], [ -50.8000021, -29.488437 ], [ -50.7999122, -29.4885747 ], [ -50.7998116, -29.488690299999984 ], [ -50.7997151, -29.4888 ], [ -50.799633300000011, -29.4888829 ], [ -50.7995555, -29.4889599 ], [ -50.7995258, -29.4889897 ], [ -50.7993224, -29.4891782 ], [ -50.7990593, -29.4894432 ], [ -50.7989211, -29.4895654 ], [ -50.7988784, -29.489603400000011 ], [ -50.7986489, -29.4898074 ], [ -50.8011461, -29.4917954 ] ] ] } },
{ "type": "Feature", "properties": { "name": "Quilombo", "code_muni": 4321709.0, "name_muni": "Três Coroas" }, "geometry": { "type": "Polygon", "coordinates": [ [ [ -50.7858939, -29.487672 ], [ -50.7860257, -29.4882279 ], [ -50.7863306, -29.4887974 ], [ -50.7864148, -29.4888383 ], [ -50.7864979, -29.4888572 ], [ -50.7867079, -29.4889093 ], [ -50.7868876, -29.4889166 ], [ -50.7870633, -29.488959799999986 ], [ -50.7870944, -29.4889943 ], [ -50.7871369, -29.4891035 ], [ -50.787241, -29.4892615 ], [ -50.7872678, -29.4894517 ], [ -50.7872611, -29.4895186 ], [ -50.7872234, -29.4895849 ], [ -50.7871599, -29.4896234 ], [ -50.7871124, -29.4896244 ], [ -50.7868648, -29.4895926 ], [ -50.7868, -29.4896082 ], [ -50.7866049, -29.4895883 ], [ -50.7863253, -29.4895931 ], [ -50.7862355, -29.489607 ], [ -50.7860753, -29.4896957 ], [ -50.7859155, -29.4898261 ], [ -50.7858619, -29.4899541 ], [ -50.7858644, -29.4900556 ], [ -50.7858466, -29.4901186 ], [ -50.7858875, -29.4907471 ], [ -50.7858682, -29.4908415 ], [ -50.7860645, -29.4913 ], [ -50.786136, -29.4915572 ], [ -50.7862917, -29.4918242 ], [ -50.7863714, -29.4918805 ], [ -50.7865607, -29.4919552 ], [ -50.7866666, -29.4920277 ], [ -50.786735, -29.4921548 ], [ -50.7868772, -29.4921018 ], [ -50.7871029, -29.4920206 ], [ -50.78748, -29.4918899 ], [ -50.787875, -29.4917462 ], [ -50.7886283, -29.4914604 ], [ -50.7889205, -29.491332 ], [ -50.78914850000001, -29.4912187 ], [ -50.7895053, -29.4910239 ], [ -50.7898244, -29.490817199999984 ], [ -50.790212, -29.4905277 ], [ -50.790381, -29.4903794 ], [ -50.7904481, -29.490306 ], [ -50.7908691, -29.4899335 ], [ -50.7912473, -29.4895681 ], [ -50.7914292, -29.489402 ], [ -50.7915477, -29.4892938 ], [ -50.7917771, -29.489121 ], [ -50.7920976, -29.488924899999986 ], [ -50.7923752, -29.4887872 ], [ -50.7926072, -29.4886622 ], [ -50.7928915, -29.4885607 ], [ -50.7931705, -29.4884731 ], [ -50.79388, -29.488249 ], [ -50.7943708, -29.4880634 ], [ -50.7952011, -29.4877409 ], [ -50.7954826, -29.4876396 ], [ -50.7963396, -29.4873793 ], [ -50.7970167, -29.4871867 ], [ -50.7975921, -29.4870092 ], [ -50.7984504, -29.4868108 ], [ -50.798897, -29.4867034 ], [ -50.7990593, -29.4866643 ], [ -50.7998948, -29.4864337 ], [ -50.8004285, -29.4861769 ], [ -50.8011289, -29.4858842 ], [ -50.7976592, -29.4820828 ], [ -50.7947946, -29.483847899999986 ], [ -50.7965863, -29.485996 ], [ -50.7934749, -29.4869579 ], [ -50.7912755, -29.483791899999989 ], [ -50.7941401, -29.4822509 ], [ -50.7918227, -29.4786924 ], [ -50.7882321, -29.4802906 ], [ -50.7880399, -29.4808785 ], [ -50.7882009, -29.4812051 ], [ -50.7882848, -29.4815317 ], [ -50.7882817, -29.4817802 ], [ -50.7882634, -29.4818726 ], [ -50.7881923, -29.4819808 ], [ -50.787776, -29.482190399999986 ], [ -50.7878146, -29.4825339 ], [ -50.7878602, -29.4830048 ], [ -50.7877862, -29.483452399999987 ], [ -50.787977, -29.4842116 ], [ -50.7879227, -29.484469 ], [ -50.7877301, -29.4847997 ], [ -50.7874364, -29.4850196 ], [ -50.7866083, -29.4853263 ], [ -50.7863496, -29.485617900000015 ], [ -50.7860282, -29.4860691 ], [ -50.7857072, -29.4864279 ], [ -50.7854551, -29.4865867 ], [ -50.7853667, -29.4867259 ], [ -50.785472, -29.4870952 ], [ -50.785711, -29.4874973 ], [ -50.7858939, -29.487672 ] ] ] } },
{ "type": "Feature", "properties": { "name": "Linha Café Baixa", "code_muni": 4321709.0, "name_muni": "Três Coroas" }, "geometry": { "type": "Polygon", "coordinates": [ [ [ -50.7827294, -29.493941 ], [ -50.7830532, -29.4937309 ], [ -50.7834237, -29.4935111 ], [ -50.7838029, -29.4933116 ], [ -50.7842588, -29.493092300000011 ], [ -50.7846116, -29.4929429 ], [ -50.7848315, -29.4928565 ], [ -50.7853103, -29.4926779 ], [ -50.7859267, -29.4924572 ], [ -50.7860199, -29.4924217 ], [ -50.7865723, -29.4922188 ], [ -50.786735, -29.4921548 ], [ -50.7866666, -29.4920277 ], [ -50.7865607, -29.4919552 ], [ -50.7863714, -29.4918805 ], [ -50.7862917, -29.4918242 ], [ -50.786136, -29.4915572 ], [ -50.7860645, -29.4913 ], [ -50.7858682, -29.4908415 ], [ -50.7858875, -29.4907471 ], [ -50.7858466, -29.4901186 ], [ -50.7858644, -29.4900556 ], [ -50.7858619, -29.4899541 ], [ -50.7859155, -29.4898261 ], [ -50.7860753, -29.4896957 ], [ -50.7862355, -29.489607 ], [ -50.7863253, -29.4895931 ], [ -50.7866049, -29.4895883 ], [ -50.7868, -29.4896082 ], [ -50.7868648, -29.4895926 ], [ -50.7871124, -29.4896244 ], [ -50.7871599, -29.4896234 ], [ -50.7872234, -29.4895849 ], [ -50.7872611, -29.4895186 ], [ -50.7872678, -29.4894517 ], [ -50.787241, -29.4892615 ], [ -50.7871369, -29.4891035 ], [ -50.7870944, -29.4889943 ], [ -50.7870633, -29.488959799999986 ], [ -50.7868876, -29.4889166 ], [ -50.7867079, -29.4889093 ], [ -50.7864979, -29.4888572 ], [ -50.7864148, -29.4888383 ], [ -50.7863306, -29.4887974 ], [ -50.7860257, -29.4882279 ], [ -50.7858939, -29.487672 ], [ -50.785711, -29.4874973 ], [ -50.7785726, -29.488751 ], [ -50.7766628, -29.4890125 ], [ -50.7748604, -29.4885268 ], [ -50.7738519, -29.4866777 ], [ -50.7724571, -29.4813916 ], [ -50.772543, -29.4753207 ], [ -50.7598829, -29.4752086 ], [ -50.7597542, -29.4857811 ], [ -50.7619, -29.4860426 ], [ -50.763402, -29.4869579 ], [ -50.7688523, -29.4949332 ], [ -50.7691634, -29.4951573 ], [ -50.7701933, -29.495316 ], [ -50.7710409, -29.4953067 ], [ -50.7714594, -29.4953441 ], [ -50.7718563, -29.4955495 ], [ -50.7719636, -29.4959137 ], [ -50.7719421, -29.4961378 ], [ -50.7716739, -29.4965767 ], [ -50.7713842, -29.4972397 ], [ -50.7713735, -29.4975012 ], [ -50.7714808, -29.4977813 ], [ -50.7725322, -29.4989206 ], [ -50.7747967, -29.5002097 ], [ -50.776223, -29.5010216 ], [ -50.777199, -29.5011382 ], [ -50.7770634, -29.500610900000012 ], [ -50.7769002, -29.5001264 ], [ -50.77682380000001, -29.4998404 ], [ -50.7767808, -29.4995345 ], [ -50.7767895, -29.4992579 ], [ -50.77682380000001, -29.499046 ], [ -50.7768731, -29.4988372 ], [ -50.7769431, -29.4986451 ], [ -50.777019, -29.4984974 ], [ -50.7771162, -29.4983335 ], [ -50.7772286, -29.4981757 ], [ -50.7773584, -29.4980238 ], [ -50.7776485, -29.4977592 ], [ -50.7781687, -29.497339600000011 ], [ -50.778704, -29.4969584 ], [ -50.7789783, -29.496753899999987 ], [ -50.7791805, -29.4966031 ], [ -50.7797014, -29.4962113 ], [ -50.7808934, -29.4953063 ], [ -50.7815552, -29.4948304 ], [ -50.782171, -29.4943344 ], [ -50.7827294, -29.493941 ] ] ] } }
]
}
