{
"type": "FeatureCollection",
"name": "bairros_doutor_mauricio_cardoso",
"crs": { "type": "name", "properties": { "name": "urn:ogc:def:crs:OGC:1.3:CRS84" } },
"features": [
{ "type": "Feature", "properties": { "code_muni": 4306734.0, "name_muni": "Doutor Maurício Cardoso", "code_state": 43.0, "abbrev_state": "RS", "name_state": "Rio Grande do Sul", "code_region": 4.0, "name_region": "Sul", "year": 2022.0 }, "geometry": { "type": "Polygon", "coordinates": [ [ [ -54.298635617999892, -27.517115178 ], [ -54.300971527999899, -27.520825838999901 ], [ -54.298710808999893, -27.525748875 ], [ -54.294981322, -27.528198215 ], [ -54.313281263, -27.5289358049999 ], [ -54.312084723999902, -27.5346107 ], [ -54.332184782999896, -27.534935097 ], [ -54.333631719, -27.538379925 ], [ -54.329710468, -27.541203868 ], [ -54.329261722999895, -27.546015935 ], [ -54.339194485, -27.556727571 ], [ -54.349132418, -27.564419519 ], [ -54.350808526, -27.563002928999893 ], [ -54.353742888999903, -27.563851567 ], [ -54.355902745, -27.562594015999895 ], [ -54.355986785, -27.552429343 ], [ -54.36905995099989, -27.555686450999897 ], [ -54.370799123, -27.548402064 ], [ -54.373580848999893, -27.54735434 ], [ -54.375914079, -27.547690165999903 ], [ -54.379681423, -27.55394573 ], [ -54.379553202, -27.564445797 ], [ -54.380845773, -27.564864525 ], [ -54.3795698489999, -27.568865733999903 ], [ -54.38190642, -27.571450865 ], [ -54.38752611, -27.573835784 ], [ -54.391231118, -27.573350441999896 ], [ -54.39654179, -27.571729647 ], [ -54.399804195999899, -27.568321322 ], [ -54.405998920999899, -27.565190108 ], [ -54.411209459, -27.566416871999895 ], [ -54.412706269, -27.563152710999905 ], [ -54.416088854, -27.562106222999901 ], [ -54.415709563, -27.557652197 ], [ -54.417659848, -27.550817825 ], [ -54.419972902, -27.550813959 ], [ -54.422367779999902, -27.549277888999899 ], [ -54.4226393, -27.547489900999903 ], [ -54.425027451999895, -27.546867052 ], [ -54.424444503, -27.544173492 ], [ -54.425487042, -27.543076051999904 ], [ -54.429448537, -27.542917891999895 ], [ -54.431946652, -27.539374176 ], [ -54.441588533999898, -27.532331977 ], [ -54.449352959999899, -27.536846765 ], [ -54.452935538, -27.534405947 ], [ -54.4537356599999, -27.532256366 ], [ -54.447465381, -27.523607625999897 ], [ -54.449837466, -27.521287417999897 ], [ -54.454373071, -27.520233042 ], [ -54.456513959999896, -27.522203888 ], [ -54.455107031, -27.525032107 ], [ -54.45741008999989, -27.527330532 ], [ -54.460545459999892, -27.528159576 ], [ -54.456640708999892, -27.531179811 ], [ -54.456606069, -27.532809282999903 ], [ -54.458948745, -27.533870307 ], [ -54.463661164, -27.52866223 ], [ -54.47004608, -27.528852405 ], [ -54.472651261, -27.527022685 ], [ -54.473411020999897, -27.523674403 ], [ -54.467612144, -27.522608026999897 ], [ -54.471329539, -27.517821400999896 ], [ -54.47210596, -27.512993773999892 ], [ -54.469124181, -27.509693731 ], [ -54.46522891, -27.509992503 ], [ -54.46916565, -27.504027080999904 ], [ -54.475223066, -27.502634459 ], [ -54.471239387, -27.4984406999999 ], [ -54.475537475, -27.499107498999901 ], [ -54.477182281, -27.498224165 ], [ -54.478425616, -27.492325383 ], [ -54.4721723769999, -27.486174887999894 ], [ -54.474621323, -27.481232073999902 ], [ -54.456176759999892, -27.478138332999904 ], [ -54.44950628, -27.475424523 ], [ -54.44328439, -27.46833584 ], [ -54.442632685, -27.464921854999901 ], [ -54.443991142999892, -27.459961662999902 ], [ -54.4480042389999, -27.455984132 ], [ -54.460366421999893, -27.448601617 ], [ -54.469924488999901, -27.438028155 ], [ -54.472056602999899, -27.4344595009999 ], [ -54.472025043, -27.430511028999891 ], [ -54.469925062, -27.425836751 ], [ -54.465811878999894, -27.423591772 ], [ -54.456645931, -27.422159655 ], [ -54.444846159, -27.425085188 ], [ -54.439119884, -27.424748646999898 ], [ -54.430426705999892, -27.419557991 ], [ -54.419436742999899, -27.40933633 ], [ -54.411404279, -27.405285992 ], [ -54.398758387, -27.411612998999896 ], [ -54.392338176999893, -27.418105215 ], [ -54.384516521, -27.428136587 ], [ -54.369768459999896, -27.452582859 ], [ -54.363024472999896, -27.459849754999901 ], [ -54.357214442, -27.464942676 ], [ -54.3515506379999, -27.467048411999905 ], [ -54.346123761999898, -27.466979575 ], [ -54.340389648, -27.463356013 ], [ -54.3350660629999, -27.451294629999893 ], [ -54.335138465999904, -27.446484106 ], [ -54.34037227999989, -27.4310024279999 ], [ -54.342832043, -27.412807138999899 ], [ -54.341542000999894, -27.404351697 ], [ -54.335433363999989, -27.402900291 ], [ -54.328799586999892, -27.406654338999907 ], [ -54.310641823, -27.42196232 ], [ -54.301484278, -27.433501736 ], [ -54.294224815999897, -27.445910098 ], [ -54.289048014999899, -27.448027888999903 ], [ -54.283930985, -27.447818074999898 ], [ -54.285074503, -27.447919962999897 ], [ -54.285271623, -27.451391354999895 ], [ -54.287467697999901, -27.455180939999899 ], [ -54.284497418999891, -27.459522249 ], [ -54.278457174, -27.458802192999897 ], [ -54.265415906, -27.448963486 ], [ -54.259240548, -27.446115167 ], [ -54.240861955, -27.450870457999901 ], [ -54.238999808999893, -27.453058059999897 ], [ -54.240328475, -27.454990665 ], [ -54.250726296, -27.453719038 ], [ -54.256402915, -27.455970256999898 ], [ -54.263125203999898, -27.456248736 ], [ -54.26441708, -27.4576088929999 ], [ -54.257859681999904, -27.459608373 ], [ -54.260785582, -27.4673061139999 ], [ -54.25963245, -27.469120594999904 ], [ -54.242724703, -27.467095641999904 ], [ -54.231895767, -27.469172754999896 ], [ -54.230473393999908, -27.472085392999901 ], [ -54.230480284999892, -27.478308211999892 ], [ -54.242676563, -27.481223225999905 ], [ -54.244538795, -27.483702142 ], [ -54.241767229999894, -27.485304885999899 ], [ -54.231605937, -27.484946911999895 ], [ -54.234015493, -27.489960418999893 ], [ -54.233181262, -27.497222639 ], [ -54.234605157, -27.500297538 ], [ -54.261453656, -27.499008988999897 ], [ -54.264768134, -27.4979083979999 ], [ -54.268658409999901, -27.502164150999903 ], [ -54.269146142999901, -27.505496254 ], [ -54.267013447, -27.507647559 ], [ -54.271065681, -27.514072873 ], [ -54.273636994, -27.513875074999898 ], [ -54.276955997999906, -27.511391798 ], [ -54.285791937999896, -27.518092297999896 ], [ -54.29661945, -27.520859984 ], [ -54.298635617999892, -27.517115178 ] ] ] } }
]
}
