{
"type": "FeatureCollection",
"name": "bairros_santo_angelo",
"crs": { "type": "name", "properties": { "name": "urn:ogc:def:crs:OGC:1.3:CRS84" } },
"features": [
{ "type": "Feature", "properties": { "code_muni": 4317509.0, "name_muni": "Santo Ângelo", "code_state": 43.0, "abbrev_state": "RS", "name_state": "Rio Grande do Sul", "code_region": 4.0, "name_region": "Sul", "year": 2022.0 }, "geometry": { "type": "Polygon", "coordinates": [ [ [ -54.256070560999902, -28.324602937999899 ], [ -54.264156004, -28.326586812999899 ], [ -54.265425600999897, -28.328443084 ], [ -54.265189606, -28.340307955999901 ], [ -54.259931506, -28.346233755 ], [ -54.261534996, -28.351499184 ], [ -54.263530224, -28.353084658999904 ], [ -54.272881824, -28.354448869999899 ], [ -54.280644063999894, -28.357321695999897 ], [ -54.284472531999903, -28.355851999 ], [ -54.291126267, -28.344335160999904 ], [ -54.299392081999891, -28.340365850999902 ], [ -54.303842754, -28.327188624 ], [ -54.301588260999893, -28.324305061 ], [ -54.290997991, -28.3206188089999 ], [ -54.290041040999895, -28.31802743 ], [ -54.29221934, -28.313026448999896 ], [ -54.297374917999903, -28.311728662999908 ], [ -54.310894538999889, -28.314065257 ], [ -54.312666206999893, -28.316755262 ], [ -54.311597827999897, -28.330374925999894 ], [ -54.312709226, -28.332112217 ], [ -54.315522167, -28.332865157 ], [ -54.321107892, -28.33299112 ], [ -54.329232695, -28.330352815 ], [ -54.330111449, -28.326772476 ], [ -54.327049303, -28.321517897 ], [ -54.327456651, -28.319221206999892 ], [ -54.336088795, -28.318075733999898 ], [ -54.34226008, -28.321009235 ], [ -54.343912616999901, -28.323184802999901 ], [ -54.346370786, -28.346075805999888 ], [ -54.350057165, -28.349031958999905 ], [ -54.352203485, -28.354094883 ], [ -54.357469109, -28.350736207999898 ], [ -54.369120773, -28.34923628 ], [ -54.372518269999901, -28.336774298 ], [ -54.375275740999903, -28.335848186 ], [ -54.377618706, -28.335672087 ], [ -54.382513305, -28.338632474999901 ], [ -54.390092729999893, -28.348903678999903 ], [ -54.394043599, -28.348500719999898 ], [ -54.395405722, -28.346702082 ], [ -54.398143605, -28.330384837999908 ], [ -54.391747274999901, -28.324759381 ], [ -54.388845822, -28.317947085 ], [ -54.389421849, -28.316524296999901 ], [ -54.394553093999903, -28.314131962 ], [ -54.400144317999896, -28.315923023 ], [ -54.403887773999891, -28.32194577 ], [ -54.410305225999899, -28.327372083999904 ], [ -54.415175141, -28.335653206 ], [ -54.419042477999895, -28.338021678 ], [ -54.42365297, -28.336404936999898 ], [ -54.432867111, -28.31874757 ], [ -54.434472146, -28.320519122 ], [ -54.433064976, -28.335867387 ], [ -54.445297213999901, -28.340092323 ], [ -54.462509363, -28.336708249 ], [ -54.46382053299989, -28.333808292999894 ], [ -54.460073805, -28.323647446999903 ], [ -54.466164966, -28.318584673 ], [ -54.483525904, -28.329387159 ], [ -54.484388104999901, -28.328145232999905 ], [ -54.480740311, -28.322686539 ], [ -54.478417556, -28.315887684 ], [ -54.47648929199989, -28.312661454 ], [ -54.472770952, -28.310173178 ], [ -54.468616384, -28.310238032 ], [ -54.461783404, -28.315040854999893 ], [ -54.458110645, -28.314086856 ], [ -54.458745098999898, -28.302260835 ], [ -54.461938265, -28.294713052 ], [ -54.464040097, -28.292770464999908 ], [ -54.474332179, -28.289072620999903 ], [ -54.484594697, -28.289582494999898 ], [ -54.489857706999892, -28.291776188 ], [ -54.491966513, -28.298788586999901 ], [ -54.488041689999896, -28.308664017 ], [ -54.487290537, -28.314317860999896 ], [ -54.489887575, -28.316103257 ], [ -54.496108144999901, -28.317130174999892 ], [ -54.500729027, -28.312509728 ], [ -54.504556309, -28.303140503999892 ], [ -54.506581517, -28.289666035 ], [ -54.502821105999899, -28.27993587 ], [ -54.505949346, -28.276481098 ], [ -54.509499682999902, -28.27545190099989 ], [ -54.513238199999897, -28.276270742 ], [ -54.519435244, -28.281493358 ], [ -54.520450905, -28.284723372 ], [ -54.517599778, -28.301372785999902 ], [ -54.509943553, -28.309350928 ], [ -54.507742612, -28.313289583 ], [ -54.508236209, -28.317170373 ], [ -54.518715363999902, -28.318025137999896 ], [ -54.526240347999895, -28.304934552 ], [ -54.536308131999895, -28.303664631999904 ], [ -54.540205732999901, -28.301225673 ], [ -54.541141890999896, -28.294018852 ], [ -54.532996205, -28.283514629 ], [ -54.532838002999902, -28.277739563 ], [ -54.530129248, -28.27846112 ], [ -54.527044405, -28.276505116999907 ], [ -54.527891457, -28.273203900999906 ], [ -54.52649945, -28.269322115 ], [ -54.519088387999901, -28.265033805 ], [ -54.512998374999903, -28.264080498999895 ], [ -54.499057365999903, -28.256433566999892 ], [ -54.496402460999903, -28.252652606 ], [ -54.487353143, -28.245976503 ], [ -54.485447398, -28.240152015 ], [ -54.481532302999902, -28.239302328 ], [ -54.4803718269999, -28.237316093999894 ], [ -54.481101571999901, -28.235250599 ], [ -54.478766433, -28.232555036 ], [ -54.467385043, -28.2298604879999 ], [ -54.462707614, -28.226753763 ], [ -54.459583264999893, -28.2272571949999 ], [ -54.450977499, -28.225600723 ], [ -54.451208697, -28.194260202999899 ], [ -54.410625507, -28.193103945 ], [ -54.412339620999902, -28.135006412999903 ], [ -54.407198238, -28.135772005 ], [ -54.406335784, -28.138194297 ], [ -54.403806324, -28.139429831 ], [ -54.406994835, -28.143646168 ], [ -54.402540067, -28.148289213999895 ], [ -54.394099275, -28.151323944 ], [ -54.394447092, -28.154834836 ], [ -54.396714867, -28.157988267 ], [ -54.391142554999895, -28.161072230999896 ], [ -54.387961737, -28.159368642999901 ], [ -54.385236025, -28.159626282 ], [ -54.381304986, -28.160225603 ], [ -54.378574551, -28.162913112999895 ], [ -54.374914778999909, -28.159589046999894 ], [ -54.375405301999898, -28.158063657 ], [ -54.37755383, -28.158130841999895 ], [ -54.377960999, -28.156076001 ], [ -54.374633116, -28.151213422999898 ], [ -54.368507209, -28.154751858999894 ], [ -54.366907883, -28.159867891 ], [ -54.364007305, -28.158113365 ], [ -54.355602642999898, -28.15969919 ], [ -54.354728296, -28.16101165 ], [ -54.351870130999892, -28.1590988469999 ], [ -54.34920111, -28.160220965999905 ], [ -54.346726442, -28.156899429 ], [ -54.343538463, -28.156200929 ], [ -54.3359872199999, -28.161489312999894 ], [ -54.330449968, -28.161693176 ], [ -54.327447873, -28.159856906999899 ], [ -54.324549614, -28.160682225 ], [ -54.324819512, -28.158011563999896 ], [ -54.319494881, -28.161189491999899 ], [ -54.315136706, -28.16001662 ], [ -54.3141908979999, -28.162480374 ], [ -54.312679519, -28.160595235999899 ], [ -54.308184819, -28.160777767999903 ], [ -54.303858074999894, -28.158786946 ], [ -54.29905952, -28.161351128 ], [ -54.296309547, -28.160286927999895 ], [ -54.293962806, -28.162944864999893 ], [ -54.290726757999899, -28.163612284 ], [ -54.288135689999898, -28.161423267 ], [ -54.283144170999897, -28.161653846 ], [ -54.280987543, -28.165504965 ], [ -54.271939209, -28.164515313 ], [ -54.269091878, -28.162310201 ], [ -54.267008286, -28.164206486999884 ], [ -54.263398153, -28.164792779999988 ], [ -54.2579049, -28.160114665999988 ], [ -54.252972708999891, -28.164359455 ], [ -54.247709347, -28.161150420999892 ], [ -54.248903181999893, -28.156539993 ], [ -54.240081271, -28.156169534 ], [ -54.240123352, -28.153126757999896 ], [ -54.238239756, -28.150315636 ], [ -54.233406131, -28.149928728 ], [ -54.229981465, -28.1476001529999 ], [ -54.225677546, -28.149723306999896 ], [ -54.221567912999902, -28.142943476 ], [ -54.214696508, -28.143507551 ], [ -54.213976335, -28.141748200999899 ], [ -54.212309315, -28.141459335 ], [ -54.202535021, -28.145472425 ], [ -54.195827798, -28.140734929 ], [ -54.188209988, -28.141749913999899 ], [ -54.184428259, -28.138838668999899 ], [ -54.180187385999901, -28.138205448 ], [ -54.175076562, -28.150307129999906 ], [ -54.177752496, -28.1555075119999 ], [ -54.17135695, -28.153128054 ], [ -54.163246048, -28.158010623999896 ], [ -54.159520739, -28.158750423999894 ], [ -54.151783475999892, -28.157789194 ], [ -54.14813342, -28.162951898 ], [ -54.145124477, -28.164319464 ], [ -54.141910293, -28.169936317999898 ], [ -54.139496420999897, -28.171040561 ], [ -54.13077436399989, -28.183102672 ], [ -54.126800112, -28.185243157999903 ], [ -54.130721776, -28.192615213999904 ], [ -54.127190151, -28.199862536 ], [ -54.123405291, -28.203437463999901 ], [ -54.121921758, -28.209285956 ], [ -54.119045946999989, -28.210923528 ], [ -54.118449569999896, -28.214191415 ], [ -54.115830641999892, -28.216158951999898 ], [ -54.11013267700001, -28.2296581209999 ], [ -54.107045348, -28.231402081999899 ], [ -54.10800624, -28.234564017 ], [ -54.10663225, -28.236055754999892 ], [ -54.107011675, -28.241562413999898 ], [ -54.114572455, -28.24277805 ], [ -54.116266841, -28.244544294 ], [ -54.117643686, -28.250320764 ], [ -54.113467616, -28.253084534 ], [ -54.107174314, -28.254421458 ], [ -54.103358817999897, -28.2574418 ], [ -54.104176228, -28.258595264 ], [ -54.107451092, -28.258082909999896 ], [ -54.108736920999903, -28.259829712999903 ], [ -54.104482274, -28.268324882999899 ], [ -54.103980253, -28.2740271 ], [ -54.101212441, -28.276664888 ], [ -54.104646367, -28.277716223 ], [ -54.111639757, -28.272939161 ], [ -54.113760035, -28.273195479 ], [ -54.116423553999894, -28.277179733 ], [ -54.116440344, -28.281371043 ], [ -54.11954956599989, -28.284390260999899 ], [ -54.122187465, -28.282464159 ], [ -54.122783047, -28.278278617999895 ], [ -54.124619965, -28.276670807 ], [ -54.125145586, -28.279883524999896 ], [ -54.129905623999896, -28.285687376999896 ], [ -54.127999818, -28.294533803 ], [ -54.128944127999908, -28.298173807 ], [ -54.123585143, -28.301159149999901 ], [ -54.123559206, -28.305182649999907 ], [ -54.128475408, -28.30601096 ], [ -54.128562942, -28.308432722 ], [ -54.134097149, -28.305969461 ], [ -54.135949801, -28.307677537 ], [ -54.135974669999896, -28.313603988999905 ], [ -54.134393245, -28.313610067000013 ], [ -54.134453365999896, -28.3160129 ], [ -54.133386956, -28.31530652299989 ], [ -54.13176043, -28.317622566999894 ], [ -54.130293487999893, -28.317071751999897 ], [ -54.133050253, -28.321680874 ], [ -54.131233896, -28.324778508 ], [ -54.137422082999898, -28.323564205 ], [ -54.138135765999898, -28.321895087 ], [ -54.145578246, -28.330646206 ], [ -54.143777934999903, -28.336625474999895 ], [ -54.15591311, -28.339550223999908 ], [ -54.160293864, -28.329558592999895 ], [ -54.164034097, -28.329641471999892 ], [ -54.166091534, -28.331532595999892 ], [ -54.172307541999906, -28.333039681999896 ], [ -54.18141063, -28.3294192 ], [ -54.185703819, -28.332573088999908 ], [ -54.186456563, -28.338010025999903 ], [ -54.188308070999902, -28.33993743 ], [ -54.209477115, -28.338876612 ], [ -54.218282987999899, -28.341521620999988 ], [ -54.223364448, -28.338806588 ], [ -54.225626421999898, -28.338965575 ], [ -54.231970141, -28.344882789999904 ], [ -54.233098632, -28.349263789 ], [ -54.227890913, -28.356844294 ], [ -54.216984893, -28.361784799 ], [ -54.217509273, -28.364763335 ], [ -54.225291292, -28.365304439999896 ], [ -54.2333614779999, -28.36229535 ], [ -54.240955758, -28.358243371999905 ], [ -54.245211463, -28.350352148999896 ], [ -54.250439027, -28.349346755999896 ], [ -54.251951446, -28.347898568999899 ], [ -54.250521987, -28.338537373 ], [ -54.236955813, -28.337689074 ], [ -54.2298997669999, -28.332357844999901 ], [ -54.229418842, -28.329094343999905 ], [ -54.232225456, -28.322845717999908 ], [ -54.235374722999893, -28.322781168999896 ], [ -54.241385771, -28.327658445999901 ], [ -54.247203869, -28.320745518 ], [ -54.24964901, -28.319992575 ], [ -54.256070560999902, -28.324602937999899 ] ] ] } }
]
}
