{
"type": "FeatureCollection",
"name": "bairros_feliz",
"crs": { "type": "name", "properties": { "name": "urn:ogc:def:crs:OGC:1.3:CRS84" } },
"features": [
{ "type": "Feature", "properties": { "name": "Krindges", "code_muni": 4308102.0, "name_muni": "Feliz" }, "geometry": { "type": "MultiPolygon", "coordinates": [ [ [ [ -51.2561755, -29.4040168 ], [ -51.2563221, -29.4047157 ], [ -51.256574197807041, -29.405322915225415 ], [ -51.256258874101071, -29.404013020110252 ], [ -51.2561755, -29.4040168 ] ] ], [ [ [ -51.2637192, -29.4150113 ], [ -51.2636198, -29.41539370000001 ], [ -51.263499, -29.4170392 ], [ -51.2635766, -29.4174976 ], [ -51.263862, -29.417985 ], [ -51.2643616, -29.4181513 ], [ -51.26438416430809, -29.418155870319385 ], [ -51.263772101264593, -29.414978023086647 ], [ -51.2637192, -29.4150113 ] ] ], [ [ [ -51.2654789, -29.418377599999989 ], [ -51.2661991, -29.418294 ], [ -51.266195689088818, -29.417958568344289 ], [ -51.265260062200014, -29.418333277007651 ], [ -51.2654789, -29.418377599999989 ] ] ] ] } },
{ "type": "Feature", "properties": { "name": "Imigrante", "code_muni": 4308102.0, "name_muni": "Feliz" }, "geometry": { "type": "MultiPolygon", "coordinates": [ [ [ [ -51.2661991, -29.418294 ], [ -51.2663283, -29.418279 ], [ -51.26949, -29.4169725 ], [ -51.2703567, -29.4165283 ], [ -51.270578111154734, -29.416203330707766 ], [ -51.266195689088818, -29.417958568344289 ], [ -51.2661991, -29.418294 ] ] ], [ [ [ -51.2814444, -29.4137971 ], [ -51.281398893960883, -29.413516485948726 ], [ -51.281221259590524, -29.414534507781315 ], [ -51.2814444, -29.4137971 ] ] ] ] } },
{ "type": "Feature", "properties": { "name": "Centro", "code_muni": 4308102.0, "name_muni": "Feliz" }, "geometry": { "type": "Polygon", "coordinates": [ [ [ -51.2561755, -29.4040168 ], [ -51.256258874101071, -29.404013020110252 ], [ -51.256207392981977, -29.403799157599728 ], [ -51.2561755, -29.4040168 ] ] ] } },
{ "type": "Feature", "properties": { "name": "Vila Nova", "code_muni": 4308102.0, "name_muni": "Feliz" }, "geometry": { "type": "MultiPolygon", "coordinates": [ [ [ [ -51.228180264089765, -29.388666346517375 ], [ -51.227884511999903, -29.388518904 ], [ -51.226505130180797, -29.389701168514257 ], [ -51.228180264089765, -29.388666346517375 ] ] ], [ [ [ -51.2320312, -29.3917587 ], [ -51.2316603, -29.3918413 ], [ -51.2315654, -29.3920668 ], [ -51.2316171, -29.3924125 ], [ -51.2312548, -29.3930138 ], [ -51.2308839, -29.3934572 ], [ -51.2306165, -29.3943365 ], [ -51.230666114457684, -29.394588330171075 ], [ -51.232555701, -29.392507330999898 ], [ -51.232476391208017, -29.391962780044167 ], [ -51.2320312, -29.3917587 ] ] ], [ [ [ -51.2306769, -29.3959148 ], [ -51.23108350082461, -29.396620556340388 ], [ -51.230725682982133, -29.39544270460706 ], [ -51.2306769, -29.3959148 ] ] ] ] } }
]
}
