{
"type": "FeatureCollection",
"name": "bairros_serafina_correa",
"crs": { "type": "name", "properties": { "name": "urn:ogc:def:crs:OGC:1.3:CRS84" } },
"features": [
{ "type": "Feature", "properties": { "name": "Planalto", "code_muni": 4320404.0, "name_muni": "Serafina Corrêa" }, "geometry": { "type": "Polygon", "coordinates": [ [ [ -51.9541205, -28.7098592 ], [ -51.9540668, -28.7026526 ], [ -51.9526939, -28.7027563 ], [ -51.9520624, -28.7028039 ], [ -51.942783, -28.7035045 ], [ -51.9428265, -28.7037904 ], [ -51.9428413, -28.7039461 ], [ -51.9428345, -28.7042497 ], [ -51.9427906, -28.704707 ], [ -51.942682, -28.7051754 ], [ -51.942467, -28.7056594 ], [ -51.9422028, -28.706098 ], [ -51.9418979, -28.7065009 ], [ -51.9413631, -28.7071176 ], [ -51.9410279, -28.70751 ], [ -51.9408809, -28.7076964 ], [ -51.9407562, -28.7078461 ], [ -51.940138, -28.7086046 ], [ -51.9396649, -28.7093939 ], [ -51.9396189, -28.7094846 ], [ -51.9392659, -28.710076199999985 ], [ -51.9390618, -28.7104937 ], [ -51.9389739, -28.7107684 ], [ -51.9389418, -28.7110006 ], [ -51.9391543, -28.7110002 ], [ -51.9480382, -28.710983 ], [ -51.9490944, -28.7109809 ], [ -51.9527265, -28.7109739 ], [ -51.9541311, -28.7109712 ], [ -51.9541205, -28.7098592 ] ] ] } },
{ "type": "Feature", "properties": { "name": "Gramadinho", "code_muni": 4320404.0, "name_muni": "Serafina Corrêa" }, "geometry": { "type": "Polygon", "coordinates": [ [ [ -51.9124298, -28.729721 ], [ -51.9122887, -28.7313507 ], [ -51.9171649, -28.731359499999989 ], [ -51.919952, -28.7313645 ], [ -51.9253547, -28.7313742 ], [ -51.9332743, -28.7313884 ], [ -51.9334031, -28.7277757 ], [ -51.939724, -28.7277383 ], [ -51.9446647, -28.7277091 ], [ -51.9446772, -28.726567 ], [ -51.9447095, -28.7236244 ], [ -51.9447172, -28.7229186 ], [ -51.9447219, -28.7224881 ], [ -51.9338536, -28.7212979 ], [ -51.9337946, -28.7221165 ], [ -51.9296804, -28.7214264 ], [ -51.9297966, -28.7211316 ], [ -51.9299725, -28.7204982 ], [ -51.9300328, -28.7203394 ], [ -51.9302335, -28.7199012 ], [ -51.9304137, -28.7196643 ], [ -51.9305559, -28.7195243 ], [ -51.9307884, -28.7193787 ], [ -51.931091, -28.7192091 ], [ -51.9324337, -28.7186852 ], [ -51.9322946, -28.7184817 ], [ -51.9322101, -28.7185412 ], [ -51.9320257, -28.7185759 ], [ -51.9317601, -28.7186329 ], [ -51.9316503, -28.7186819 ], [ -51.9315039, -28.7187492 ], [ -51.9313646, -28.7188112 ], [ -51.9312198, -28.7188464 ], [ -51.9308972, -28.7188365 ], [ -51.9305231, -28.7187991 ], [ -51.9302583, -28.7188051 ], [ -51.9297837, -28.7188144 ], [ -51.9291808, -28.7187975 ], [ -51.9291382, -28.7188648 ], [ -51.9280032, -28.7187471 ], [ -51.9278202, -28.7187367 ], [ -51.9275526, -28.7187224 ], [ -51.9271198, -28.7186837 ], [ -51.9262703, -28.7186136 ], [ -51.9236446, -28.718367599999986 ], [ -51.9233477, -28.7183512 ], [ -51.9230342, -28.7183318 ], [ -51.922752, -28.7183146 ], [ -51.9163623, -28.7180028 ], [ -51.9162663, -28.7179981 ], [ -51.9154937, -28.7179604 ], [ -51.9134568, -28.717861 ], [ -51.9124298, -28.729721 ] ] ] } },
{ "type": "Feature", "properties": { "name": "Santin", "code_muni": 4320404.0, "name_muni": "Serafina Corrêa" }, "geometry": { "type": "Polygon", "coordinates": [ [ [ -51.9447707, -28.7224881 ], [ -51.9506079, -28.722488099999989 ], [ -51.9510279, -28.7224881 ], [ -51.9541526, -28.7224881 ], [ -51.9541407, -28.7161294 ], [ -51.9541361, -28.7136616 ], [ -51.9541311, -28.7109712 ], [ -51.9527265, -28.7109739 ], [ -51.9490944, -28.7109809 ], [ -51.9480382, -28.710983 ], [ -51.9391543, -28.7110002 ], [ -51.9389418, -28.7110006 ], [ -51.9389203, -28.7111806 ], [ -51.9388828, -28.7120886 ], [ -51.938853, -28.712409 ], [ -51.9388144, -28.7126626 ], [ -51.9387684, -28.7128703 ], [ -51.9386713, -28.713121 ], [ -51.9384506, -28.7134932 ], [ -51.9382196, -28.7138035 ], [ -51.93765, -28.7144863 ], [ -51.9370064, -28.7152519 ], [ -51.9367115, -28.7156452 ], [ -51.9365712, -28.7158078 ], [ -51.9361858, -28.716222900000012 ], [ -51.9355287, -28.7168733 ], [ -51.9349037, -28.7173744 ], [ -51.9346006, -28.7175925 ], [ -51.9344497, -28.7176972 ], [ -51.9342788, -28.7178178 ], [ -51.9341068, -28.7179237 ], [ -51.9340251, -28.7187356 ], [ -51.934038, -28.7187845 ], [ -51.9340085, -28.7191721 ], [ -51.9339589, -28.7196161 ], [ -51.9339304, -28.7197141 ], [ -51.9338848, -28.7197685 ], [ -51.9338095, -28.7198301 ], [ -51.9336717, -28.7199199 ], [ -51.9335552, -28.7200119 ], [ -51.9334667, -28.720133 ], [ -51.9334164, -28.7202612 ], [ -51.9333956, -28.7203841 ], [ -51.9334402, -28.7204987 ], [ -51.9335359, -28.7205308 ], [ -51.9337206, -28.720523 ], [ -51.933884, -28.7205195 ], [ -51.9338753, -28.7207034 ], [ -51.933866, -28.7208805 ], [ -51.9338536, -28.7212979 ], [ -51.9447219, -28.7224881 ], [ -51.9447707, -28.7224881 ] ] ] } },
{ "type": "Feature", "properties": { "name": "Aparecida", "code_muni": 4320404.0, "name_muni": "Serafina Corrêa" }, "geometry": { "type": "Polygon", "coordinates": [ [ [ -51.954062, -28.7010642 ], [ -51.9540595, -28.7002569 ], [ -51.9540453, -28.6955568 ], [ -51.9525647, -28.695538 ], [ -51.9526016, -28.6937064 ], [ -51.9527161, -28.688020500000015 ], [ -51.9527793, -28.684884 ], [ -51.9517471, -28.6848773 ], [ -51.9398217, -28.6847995 ], [ -51.9362005, -28.6847759 ], [ -51.9296909, -28.6847335 ], [ -51.9296756, -28.6944636 ], [ -51.9296733, -28.6959522 ], [ -51.9317937, -28.6961027 ], [ -51.9315297, -28.7024241 ], [ -51.9315245, -28.7027182 ], [ -51.9314374, -28.7038736 ], [ -51.9314148, -28.704678 ], [ -51.9313943, -28.7053719 ], [ -51.9313393, -28.7068328 ], [ -51.9326511, -28.7069103 ], [ -51.9326964, -28.7069133 ], [ -51.9326735, -28.7073066 ], [ -51.9327086, -28.7073086 ], [ -51.934405, -28.7073931 ], [ -51.9347133, -28.7074042 ], [ -51.9365459, -28.7075563 ], [ -51.9376463, -28.7075036 ], [ -51.9378662, -28.7041206 ], [ -51.9424033, -28.7035521 ], [ -51.942783, -28.7035045 ], [ -51.9520624, -28.7028039 ], [ -51.9526939, -28.7027563 ], [ -51.9540668, -28.7026526 ], [ -51.954062, -28.7010642 ] ] ] } },
{ "type": "Feature", "properties": { "name": "Centro", "code_muni": 4320404.0, "name_muni": "Serafina Corrêa" }, "geometry": { "type": "Polygon", "coordinates": [ [ [ -51.9410279, -28.70751 ], [ -51.9413631, -28.7071176 ], [ -51.9418979, -28.7065009 ], [ -51.9422028, -28.706098 ], [ -51.942467, -28.7056594 ], [ -51.942682, -28.7051754 ], [ -51.9427906, -28.704707 ], [ -51.9428345, -28.7042497 ], [ -51.9428413, -28.7039461 ], [ -51.9428265, -28.7037904 ], [ -51.942783, -28.7035045 ], [ -51.9424033, -28.7035521 ], [ -51.9378662, -28.7041206 ], [ -51.9376463, -28.7075036 ], [ -51.9365459, -28.7075563 ], [ -51.9347133, -28.7074042 ], [ -51.934405, -28.7073931 ], [ -51.9327086, -28.7073086 ], [ -51.9326735, -28.7073066 ], [ -51.9326964, -28.7069133 ], [ -51.9326511, -28.7069103 ], [ -51.9313393, -28.7068328 ], [ -51.9313943, -28.7053719 ], [ -51.9314148, -28.704678 ], [ -51.9314374, -28.7038736 ], [ -51.9315245, -28.7027182 ], [ -51.9315297, -28.7024241 ], [ -51.9317937, -28.6961027 ], [ -51.9296733, -28.6959522 ], [ -51.9296694, -28.6984366 ], [ -51.9240904, -28.6983802 ], [ -51.9239617, -28.7027279 ], [ -51.9186831, -28.7026714 ], [ -51.9186763, -28.7092265 ], [ -51.9186723, -28.7130413 ], [ -51.916909, -28.713051 ], [ -51.9147786, -28.7130626 ], [ -51.9142196, -28.7130657 ], [ -51.9139436, -28.7130672 ], [ -51.9135547, -28.7167298 ], [ -51.9134568, -28.717861 ], [ -51.9154937, -28.7179604 ], [ -51.9162663, -28.7179981 ], [ -51.9163623, -28.7180028 ], [ -51.922752, -28.7183146 ], [ -51.9230342, -28.7183318 ], [ -51.9233477, -28.7183512 ], [ -51.9236446, -28.718367599999986 ], [ -51.9262703, -28.7186136 ], [ -51.9271198, -28.7186837 ], [ -51.9275526, -28.7187224 ], [ -51.9278202, -28.7187367 ], [ -51.9280032, -28.7187471 ], [ -51.9291382, -28.7188648 ], [ -51.9291808, -28.7187975 ], [ -51.9297837, -28.7188144 ], [ -51.9302583, -28.7188051 ], [ -51.9305231, -28.7187991 ], [ -51.9308972, -28.7188365 ], [ -51.9312198, -28.7188464 ], [ -51.9313646, -28.7188112 ], [ -51.9315039, -28.7187492 ], [ -51.9316503, -28.7186819 ], [ -51.9317601, -28.7186329 ], [ -51.9320257, -28.7185759 ], [ -51.9322101, -28.7185412 ], [ -51.9322946, -28.7184817 ], [ -51.9324337, -28.7186852 ], [ -51.931091, -28.7192091 ], [ -51.9307884, -28.7193787 ], [ -51.9305559, -28.7195243 ], [ -51.9304137, -28.7196643 ], [ -51.9302335, -28.7199012 ], [ -51.9300328, -28.7203394 ], [ -51.9299725, -28.7204982 ], [ -51.9297966, -28.7211316 ], [ -51.9296804, -28.7214264 ], [ -51.9337946, -28.7221165 ], [ -51.9338536, -28.7212979 ], [ -51.933866, -28.7208805 ], [ -51.9338753, -28.7207034 ], [ -51.933884, -28.7205195 ], [ -51.9337206, -28.720523 ], [ -51.9335359, -28.7205308 ], [ -51.9334402, -28.7204987 ], [ -51.9333956, -28.7203841 ], [ -51.9334164, -28.7202612 ], [ -51.9334667, -28.720133 ], [ -51.9335552, -28.7200119 ], [ -51.9336717, -28.7199199 ], [ -51.9338095, -28.7198301 ], [ -51.9338848, -28.7197685 ], [ -51.9339304, -28.7197141 ], [ -51.9339589, -28.7196161 ], [ -51.9340085, -28.7191721 ], [ -51.934038, -28.7187845 ], [ -51.9340251, -28.7187356 ], [ -51.9341068, -28.7179237 ], [ -51.9342788, -28.7178178 ], [ -51.9344497, -28.7176972 ], [ -51.9346006, -28.7175925 ], [ -51.9349037, -28.7173744 ], [ -51.9355287, -28.7168733 ], [ -51.9361858, -28.716222900000012 ], [ -51.9365712, -28.7158078 ], [ -51.9367115, -28.7156452 ], [ -51.9370064, -28.7152519 ], [ -51.93765, -28.7144863 ], [ -51.9382196, -28.7138035 ], [ -51.9384506, -28.7134932 ], [ -51.9386713, -28.713121 ], [ -51.9387684, -28.7128703 ], [ -51.9388144, -28.7126626 ], [ -51.938853, -28.712409 ], [ -51.9388828, -28.7120886 ], [ -51.9389203, -28.7111806 ], [ -51.9389418, -28.7110006 ], [ -51.9389739, -28.7107684 ], [ -51.9390618, -28.7104937 ], [ -51.9392659, -28.710076199999985 ], [ -51.9396189, -28.7094846 ], [ -51.9396649, -28.7093939 ], [ -51.940138, -28.7086046 ], [ -51.9407562, -28.7078461 ], [ -51.9408809, -28.7076964 ], [ -51.9410279, -28.70751 ] ] ] } }
]
}
