{
"type": "FeatureCollection",
"name": "bairros_nova_candelaria",
"crs": { "type": "name", "properties": { "name": "urn:ogc:def:crs:OGC:1.3:CRS84" } },
"features": [
{ "type": "Feature", "properties": { "code_muni": 4313011.0, "name_muni": "Nova Candelária", "code_state": 43.0, "abbrev_state": "RS", "name_state": "Rio Grande do Sul", "code_region": 4.0, "name_region": "Sul", "year": 2022.0 }, "geometry": { "type": "Polygon", "coordinates": [ [ [ -54.118668042, -27.635351070999903 ], [ -54.135294223999892, -27.626956746 ], [ -54.138296951, -27.629934417999888 ], [ -54.140169293, -27.628238377999903 ], [ -54.140660436, -27.629310503999907 ], [ -54.14075629, -27.626647469 ], [ -54.143523536, -27.62574763 ], [ -54.142373925999898, -27.624500538999897 ], [ -54.144315714999898, -27.618894404999896 ], [ -54.145947444999891, -27.618878745 ], [ -54.14991402, -27.622372401 ], [ -54.153362262, -27.622710648 ], [ -54.159084278, -27.618783221999902 ], [ -54.163180827, -27.614010177999898 ], [ -54.16832657, -27.611626788 ], [ -54.184092647999897, -27.617117041 ], [ -54.188850032999895, -27.614768102 ], [ -54.196708016999892, -27.604310626 ], [ -54.202173215, -27.608134698 ], [ -54.203482357, -27.605569656999908 ], [ -54.196831727, -27.601823882 ], [ -54.195666654, -27.597407877 ], [ -54.200073263, -27.591014065 ], [ -54.204780537, -27.572267966 ], [ -54.210446178, -27.568199603 ], [ -54.203496449999896, -27.566539685999899 ], [ -54.197387643, -27.568255978 ], [ -54.193676319, -27.567372776999893 ], [ -54.193619945, -27.565835004999901 ], [ -54.19637916499989, -27.56430976 ], [ -54.198582835, -27.560533093999901 ], [ -54.198896856, -27.558911459999905 ], [ -54.196714011, -27.557159387 ], [ -54.193470741999903, -27.560297982 ], [ -54.188993937, -27.561673229999894 ], [ -54.184272356999898, -27.557231853 ], [ -54.178723051, -27.556169015 ], [ -54.175321967999899, -27.559908274 ], [ -54.165898131999903, -27.561183679999893 ], [ -54.165334505, -27.563869763999897 ], [ -54.167643763999891, -27.570175939 ], [ -54.160334331999898, -27.575135852999892 ], [ -54.156749668, -27.573672034 ], [ -54.157253711, -27.568626772 ], [ -54.151406488, -27.567517232999894 ], [ -54.153923483, -27.564074279 ], [ -54.151981387, -27.560856777 ], [ -54.152541519, -27.555312503 ], [ -54.151519073, -27.553701669 ], [ -54.149522412, -27.557868615 ], [ -54.146307174999897, -27.560636933999895 ], [ -54.145437453999897, -27.565540169 ], [ -54.141891047999898, -27.560760721 ], [ -54.140910401, -27.562905283 ], [ -54.137751431, -27.564016147 ], [ -54.137151226999897, -27.558824985999895 ], [ -54.135344402, -27.558045571 ], [ -54.129650163, -27.560667239999901 ], [ -54.12880311299989, -27.557710616 ], [ -54.126232171, -27.557307221 ], [ -54.122737685999894, -27.559155916 ], [ -54.121394645, -27.561458732999899 ], [ -54.113080348, -27.560349194 ], [ -54.103759575, -27.556410249 ], [ -54.097667577, -27.556616375 ], [ -54.092709274, -27.552822364 ], [ -54.084847489, -27.551015537999902 ], [ -54.077454319, -27.553353783 ], [ -54.074607199999903, -27.551324727 ], [ -54.070761655999895, -27.550764322 ], [ -54.061714644999896, -27.558601951 ], [ -54.062251431999989, -27.562109318999898 ], [ -54.066852234999892, -27.565028368 ], [ -54.066080335, -27.567163707 ], [ -54.071959228, -27.576001908 ], [ -54.075892587999903, -27.576632842 ], [ -54.0758615519999, -27.57906873 ], [ -54.079381176, -27.580989593 ], [ -54.086408051, -27.578898243 ], [ -54.085231628, -27.584685995 ], [ -54.08868247, -27.588724 ], [ -54.090958147, -27.587862128 ], [ -54.089501142999893, -27.590920409 ], [ -54.086372401999895, -27.592609761999896 ], [ -54.086037718999897, -27.5965093639999 ], [ -54.087769012, -27.6004920079999 ], [ -54.086460476999903, -27.601964949 ], [ -54.082922399, -27.603270129 ], [ -54.078099516, -27.600946161999989 ], [ -54.073107238, -27.603373399 ], [ -54.074792993, -27.610399857999894 ], [ -54.0714856869999, -27.610634752 ], [ -54.070084936999898, -27.607032262999986 ], [ -54.061240397999903, -27.614366432999898 ], [ -54.057771798, -27.61379016 ], [ -54.053495163, -27.619386898999903 ], [ -54.054415164, -27.632017144 ], [ -54.051750684999902, -27.634658917 ], [ -54.050951262, -27.632204276 ], [ -54.049458119999898, -27.631923185999902 ], [ -54.045087528, -27.634573181 ], [ -54.047718339, -27.637662819 ], [ -54.043755679, -27.642426467 ], [ -54.04880903, -27.646436889 ], [ -54.046341078, -27.652434512999889 ], [ -54.062584289, -27.653593432 ], [ -54.061461199, -27.646379732 ], [ -54.065939842, -27.638307211 ], [ -54.082855335, -27.629506519999904 ], [ -54.0849388, -27.626940674 ], [ -54.096097087, -27.628792442 ], [ -54.098903285999903, -27.636359157999902 ], [ -54.107588097, -27.64304737 ], [ -54.113194231, -27.635494357 ], [ -54.118668042, -27.635351070999903 ] ] ] } }
]
}
