{
"type": "FeatureCollection",
"name": "bairros_cacapava_do_sul",
"crs": { "type": "name", "properties": { "name": "urn:ogc:def:crs:OGC:1.3:CRS84" } },
"features": [
{ "type": "Feature", "properties": { "code_muni": 4302808.0, "name_muni": "Caçapava do Sul", "code_state": 43.0, "abbrev_state": "RS", "name_state": "Rio Grande do Sul", "code_region": 4.0, "name_region": "Sul", "year": 2022.0 }, "geometry": { "type": "Polygon", "coordinates": [ [ [ -53.482213054999903, -30.959343396999902 ], [ -53.483423695999896, -30.956875097 ], [ -53.49670626599989, -30.961465210999989 ], [ -53.503628834, -30.950141834 ], [ -53.502182325, -30.93988287699991 ], [ -53.506813939, -30.93904287 ], [ -53.509301051, -30.942773793 ], [ -53.512246858, -30.944210928 ], [ -53.514393786, -30.942641492999893 ], [ -53.515457576999893, -30.937753287 ], [ -53.518628205, -30.9341979 ], [ -53.521839922, -30.935164084999894 ], [ -53.52322921, -30.941127526999903 ], [ -53.528391876999898, -30.945272001 ], [ -53.526182112999891, -30.950490741 ], [ -53.527293846, -30.953404511 ], [ -53.533243179999893, -30.952633314 ], [ -53.542228219, -30.953672027 ], [ -53.545119176, -30.951617660000011 ], [ -53.546151118, -30.948509545 ], [ -53.543795557999893, -30.946714481999894 ], [ -53.536699433, -30.947758963 ], [ -53.533405973, -30.946699948999903 ], [ -53.531758629, -30.943082568 ], [ -53.536805430999891, -30.938366386 ], [ -53.539374758999891, -30.937629648 ], [ -53.547217773999897, -30.940687021 ], [ -53.553375813999892, -30.940285423 ], [ -53.557250877999898, -30.942299289999902 ], [ -53.55877866, -30.9413962429999 ], [ -53.560905594, -30.937609853999987 ], [ -53.560271233, -30.936062646 ], [ -53.553597155, -30.933637865 ], [ -53.546428185, -30.933495663 ], [ -53.542730811, -30.930543164 ], [ -53.542843123, -30.927389417 ], [ -53.548885527, -30.925588682 ], [ -53.552356397, -30.925953407999902 ], [ -53.55496528, -30.92674441 ], [ -53.559391873, -30.931585943999899 ], [ -53.563611556999895, -30.93162641 ], [ -53.566266434999903, -30.929699739999904 ], [ -53.562673675, -30.92181985400001 ], [ -53.56597000499989, -30.915637199999892 ], [ -53.573844715999897, -30.908024673999901 ], [ -53.577454024, -30.909137809 ], [ -53.580350333, -30.919277163999904 ], [ -53.586356957, -30.923562787 ], [ -53.590091117, -30.924764362 ], [ -53.600629096, -30.920218076 ], [ -53.601549927, -30.918915777999896 ], [ -53.59800919, -30.910006063 ], [ -53.590545616999989, -30.909188927999907 ], [ -53.589439778, -30.907992126 ], [ -53.594670070999904, -30.902800683999896 ], [ -53.595187669, -30.899860999999895 ], [ -53.590005442999903, -30.899464054 ], [ -53.588021554, -30.896696840999905 ], [ -53.588832840999899, -30.895560240999895 ], [ -53.592603661999902, -30.89551263800001 ], [ -53.602905415, -30.896711804999892 ], [ -53.607869482, -30.899541976 ], [ -53.609885398, -30.897661158999892 ], [ -53.609085073, -30.895899009999898 ], [ -53.605540579, -30.894316128 ], [ -53.597840087, -30.884643196 ], [ -53.601139256, -30.878681483 ], [ -53.602263256, -30.871637866999905 ], [ -53.60203125, -30.867555745999898 ], [ -53.599450485, -30.861803145 ], [ -53.600612417, -30.8576946539999 ], [ -53.605353142999903, -30.8550700229999 ], [ -53.606719268999903, -30.855666773999893 ], [ -53.607977374, -30.860975978999893 ], [ -53.610076757999892, -30.863587208 ], [ -53.612398798999898, -30.864162420999904 ], [ -53.61490516899989, -30.864145547 ], [ -53.617281506, -30.862381124 ], [ -53.620430492, -30.86272322 ], [ -53.625121451, -30.866902186999901 ], [ -53.647214506, -30.869196652 ], [ -53.652402908999903, -30.872709432 ], [ -53.660400598, -30.871454370999984 ], [ -53.659623478, -30.866475250999905 ], [ -53.652604198999896, -30.864157480999896 ], [ -53.651837982, -30.862364106 ], [ -53.652271142, -30.840547430999894 ], [ -53.657740922999892, -30.838625458 ], [ -53.663506942, -30.842812201999898 ], [ -53.672397267999891, -30.842348828 ], [ -53.672810002999896, -30.839937988 ], [ -53.680126774, -30.835698932999897 ], [ -53.688446101, -30.824734017 ], [ -53.69102386, -30.825924487999902 ], [ -53.687168186999891, -30.815926717 ], [ -53.684331076, -30.813927362999898 ], [ -53.684455242, -30.812708187999888 ], [ -53.68598438, -30.811990318 ], [ -53.690537803, -30.814204808999907 ], [ -53.701119862, -30.8159497239999 ], [ -53.702215205999892, -30.812527423999892 ], [ -53.705762589, -30.808583042999903 ], [ -53.707142744999899, -30.801095206 ], [ -53.713488658, -30.798225745999989 ], [ -53.718874684999903, -30.792957323999893 ], [ -53.722194284, -30.786713722999899 ], [ -53.7250484099999, -30.787868935999889 ], [ -53.732795726999903, -30.783587171 ], [ -53.737400538, -30.784862967 ], [ -53.735155848, -30.782791951 ], [ -53.73677164, -30.779479538 ], [ -53.739926919, -30.775855405 ], [ -53.74527957, -30.772715384 ], [ -53.747263472, -30.772640792999901 ], [ -53.748517132, -30.776204279 ], [ -53.750578245, -30.777407001 ], [ -53.757660746999903, -30.775013924999897 ], [ -53.760829563, -30.776098585999897 ], [ -53.762936102, -30.778860732999902 ], [ -53.763057475, -30.784323392 ], [ -53.768386167, -30.788883543999901 ], [ -53.768483827999894, -30.797833225 ], [ -53.772353863, -30.799687344999903 ], [ -53.779085874, -30.797517088999893 ], [ -53.785474151, -30.799905453 ], [ -53.79210531199989, -30.793000728 ], [ -53.805188423999894, -30.787906778 ], [ -53.806269421, -30.781300431 ], [ -53.804316609, -30.775757482 ], [ -53.806563663, -30.768427673000012 ], [ -53.80353866, -30.765322984 ], [ -53.805736962, -30.762933312 ], [ -53.810056517, -30.762652875999901 ], [ -53.813924616999898, -30.760308794 ], [ -53.815553069, -30.7531222389999 ], [ -53.820905582, -30.751430383 ], [ -53.821468924, -30.748936244999985 ], [ -53.820612238, -30.746855066 ], [ -53.816274888, -30.744244038 ], [ -53.817705256999901, -30.738866559 ], [ -53.814507087, -30.738146744999902 ], [ -53.808901775, -30.733321056 ], [ -53.808411405, -30.731537988999904 ], [ -53.803894961, -30.729181545 ], [ -53.807432295999895, -30.722450729999903 ], [ -53.813416255999989, -30.717886341999897 ], [ -53.812475031, -30.710086308 ], [ -53.811461510999898, -30.708942909 ], [ -53.805581128, -30.711544622 ], [ -53.797257461999898, -30.705693255 ], [ -53.801017439, -30.701157502999894 ], [ -53.797353109, -30.698886914999893 ], [ -53.796344684, -30.695954738999902 ], [ -53.797469446, -30.694661224999908 ], [ -53.797029268999893, -30.689533563999898 ], [ -53.802691752, -30.686787575 ], [ -53.803035848, -30.684887579 ], [ -53.801288389, -30.683032205 ], [ -53.797866418999895, -30.68547947 ], [ -53.796388055, -30.684739323 ], [ -53.79410300099989, -30.676115282999898 ], [ -53.797256488999899, -30.677192724 ], [ -53.798070321999901, -30.676264026 ], [ -53.797436322, -30.671529324999902 ], [ -53.794707068, -30.67125444 ], [ -53.799781137, -30.662907991999905 ], [ -53.7988300069999, -30.660161721 ], [ -53.800978718999893, -30.655908462999896 ], [ -53.797986174999899, -30.652002669 ], [ -53.800299472999903, -30.648814942999891 ], [ -53.79834876, -30.647209065 ], [ -53.797573513, -30.643254360999897 ], [ -53.788329542, -30.641852351999905 ], [ -53.787501633, -30.638811234999903 ], [ -53.791512226, -30.638497515 ], [ -53.793397491, -30.636895851 ], [ -53.79563649499989, -30.639177862999901 ], [ -53.798444951, -30.638554449 ], [ -53.799126137, -30.635523851999899 ], [ -53.803732525, -30.632972788 ], [ -53.796074424, -30.628828899 ], [ -53.79778636399989, -30.627688724999892 ], [ -53.800314038, -30.629028508 ], [ -53.802083529999905, -30.627262371 ], [ -53.792671562, -30.623639666 ], [ -53.793578372, -30.631294662999899 ], [ -53.792150542999899, -30.63219981 ], [ -53.78893931399989, -30.62910706 ], [ -53.786537021999891, -30.630115192999899 ], [ -53.78521266, -30.628545319999901 ], [ -53.779091314, -30.629775329 ], [ -53.779508061999891, -30.627686079999901 ], [ -53.783086222999898, -30.627921208 ], [ -53.782734278, -30.623914795 ], [ -53.778549214, -30.624606793999902 ], [ -53.774833102999899, -30.622293973999898 ], [ -53.774338292, -30.620683029 ], [ -53.78252514, -30.620422764 ], [ -53.782537018, -30.618841559 ], [ -53.777484027, -30.616973969 ], [ -53.777369359, -30.615582871999901 ], [ -53.787012988, -30.607097555999896 ], [ -53.7805455929999, -30.606547405 ], [ -53.775559078999891, -30.607799911 ], [ -53.773011951999891, -30.606686919 ], [ -53.774096889, -30.599322069 ], [ -53.76897466, -30.597684941999894 ], [ -53.767739849, -30.593408102 ], [ -53.764254189, -30.592542215 ], [ -53.762784157999896, -30.587351157999901 ], [ -53.758320133, -30.588433481 ], [ -53.758356587, -30.585926849999986 ], [ -53.755380094, -30.582555872999897 ], [ -53.753590222999897, -30.582886242 ], [ -53.751676331999896, -30.580739418 ], [ -53.753811887, -30.577681132 ], [ -53.738217937999899, -30.569952905 ], [ -53.73745013, -30.565911227999901 ], [ -53.740429491, -30.565433721 ], [ -53.740405231999894, -30.55535994 ], [ -53.7387548089999, -30.55477123 ], [ -53.738412964, -30.549323253999901 ], [ -53.736197107, -30.548984135 ], [ -53.738766571, -30.545318998 ], [ -53.738940864999989, -30.541718483999905 ], [ -53.74292588, -30.540163208 ], [ -53.744708612999894, -30.535502364 ], [ -53.748365905999897, -30.535227146999905 ], [ -53.748973565, -30.533146454 ], [ -53.742048183999891, -30.526056565 ], [ -53.74235698, -30.523149055 ], [ -53.745828501999895, -30.518813533 ], [ -53.743914689, -30.515587758 ], [ -53.745186463, -30.513713138999893 ], [ -53.742273079, -30.511904264 ], [ -53.733138786, -30.49883268 ], [ -53.726337272, -30.492299638 ], [ -53.72644127, -30.488261483 ], [ -53.720610936, -30.485241763 ], [ -53.713383442999898, -30.484654193 ], [ -53.711774938, -30.483023391 ], [ -53.712763566, -30.471942354 ], [ -53.716296405, -30.463157102000011 ], [ -53.716039887, -30.456459869 ], [ -53.720386608999902, -30.457315362 ], [ -53.720589839, -30.455058914999899 ], [ -53.717792356, -30.451366291999907 ], [ -53.710154137, -30.451449674999903 ], [ -53.712246325, -30.448093335 ], [ -53.719630265, -30.449094427 ], [ -53.719866203, -30.448142388 ], [ -53.713893249, -30.436375939999895 ], [ -53.713140444, -30.431806388 ], [ -53.714127644, -30.429893534 ], [ -53.71885284, -30.429756765 ], [ -53.721387510999897, -30.422431356999894 ], [ -53.717441354, -30.419636486999906 ], [ -53.711837785999897, -30.423805176 ], [ -53.708009446999895, -30.419965725999898 ], [ -53.712434201, -30.414932260999901 ], [ -53.715012863, -30.41434708 ], [ -53.716657811999902, -30.411280125 ], [ -53.715781068999902, -30.408199566 ], [ -53.716904220999901, -30.406315844999909 ], [ -53.713400776, -30.4029237569999 ], [ -53.715146991, -30.401846033 ], [ -53.715898168, -30.396869315999897 ], [ -53.712098292999897, -30.394979341999896 ], [ -53.705611093, -30.400984188999885 ], [ -53.705084494999902, -30.404460356999891 ], [ -53.707278626999901, -30.407462763999902 ], [ -53.702570599, -30.409150662999902 ], [ -53.700893327, -30.415517916999899 ], [ -53.694904339999894, -30.416959947 ], [ -53.692437890999891, -30.419869538999894 ], [ -53.692577139, -30.42226477 ], [ -53.6559506259999, -30.432311336999895 ], [ -53.647885964, -30.425736571 ], [ -53.644413541999903, -30.418274566 ], [ -53.643413931999902, -30.411235075 ], [ -53.634637996, -30.403244050999895 ], [ -53.634351838, -30.394299568999902 ], [ -53.625752962, -30.386028802999896 ], [ -53.618985273, -30.38400131 ], [ -53.614043513, -30.377814167999901 ], [ -53.547703757, -30.363015499 ], [ -53.550170153999893, -30.365513627999988 ], [ -53.547417309, -30.3793611749999 ], [ -53.550632531, -30.3829181629999 ], [ -53.546901808, -30.388490664 ], [ -53.546743449, -30.392817161 ], [ -53.5428421, -30.394230579999892 ], [ -53.539184188, -30.3982922 ], [ -53.537590861999902, -30.398105261 ], [ -53.537425331, -30.395250651 ], [ -53.535175734999903, -30.39588401 ], [ -53.535093322, -30.397905165999902 ], [ -53.533623717, -30.398182262999988 ], [ -53.53388021699989, -30.402018607999903 ], [ -53.527590008999901, -30.403213749 ], [ -53.524606859, -30.401839058 ], [ -53.522493139999895, -30.398879909 ], [ -53.516580556999898, -30.39715423 ], [ -53.511594853, -30.386530525999898 ], [ -53.501197225999903, -30.379583501 ], [ -53.499857716, -30.376821775999897 ], [ -53.501105336, -30.370635004000011 ], [ -53.493979192, -30.365785348 ], [ -53.492030813, -30.357727155 ], [ -53.485769934, -30.351969358 ], [ -53.483030675999892, -30.347538594 ], [ -53.482719059, -30.343308626999896 ], [ -53.474044673, -30.337969165999905 ], [ -53.466979039, -30.330304840999904 ], [ -53.466060357999901, -30.328472669999904 ], [ -53.468466287, -30.3214078039999 ], [ -53.460681333, -30.31894225 ], [ -53.460758509999899, -30.315671785999896 ], [ -53.46259656, -30.313993443 ], [ -53.468294817, -30.313687479 ], [ -53.469617778, -30.312253197 ], [ -53.469223139999897, -30.310047919999906 ], [ -53.465772499, -30.30793213 ], [ -53.463095914999897, -30.304211997 ], [ -53.462499829, -30.301043396 ], [ -53.473259561, -30.298499192999891 ], [ -53.471349784, -30.293676404999893 ], [ -53.481576084, -30.296107714 ], [ -53.484135422999891, -30.2953086959999 ], [ -53.48539104, -30.290354217 ], [ -53.483969854999891, -30.2876190449999 ], [ -53.484933643, -30.284789525999894 ], [ -53.483707435, -30.283741033999902 ], [ -53.480235139999891, -30.284270324 ], [ -53.47654692, -30.287090744999897 ], [ -53.473073148, -30.285727355999903 ], [ -53.471370787999895, -30.279290741 ], [ -53.47318467, -30.278471781 ], [ -53.4719861889999, -30.274805563999987 ], [ -53.472816799, -30.270099344 ], [ -53.469524338, -30.268766359 ], [ -53.4665092239999, -30.262282851 ], [ -53.458211758999902, -30.260900235999909 ], [ -53.457000776, -30.25756668 ], [ -53.451127981999896, -30.250780483 ], [ -53.442146845, -30.243533409999898 ], [ -53.436009618999897, -30.238802974 ], [ -53.419806491, -30.230318865999902 ], [ -53.419119694999893, -30.221679643 ], [ -53.416553783, -30.218547167999901 ], [ -53.414196381, -30.211453786999986 ], [ -53.406809821, -30.209682331 ], [ -53.399764633, -30.212286044999885 ], [ -53.39488077, -30.211290286999898 ], [ -53.390142948999902, -30.213070619999886 ], [ -53.385308401, -30.209831350999899 ], [ -53.383891197, -30.210081782 ], [ -53.383116279, -30.206934513 ], [ -53.384596723999898, -30.204024255 ], [ -53.382517628999892, -30.200346764 ], [ -53.37892658, -30.1993276329999 ], [ -53.378914386, -30.1977959019999 ], [ -53.376974101, -30.197690178999892 ], [ -53.369073829999898, -30.19238266 ], [ -53.366296804999898, -30.187877985999904 ], [ -53.362722924, -30.187513383999899 ], [ -53.361737832, -30.185367137 ], [ -53.359438908, -30.186326532 ], [ -53.352583545, -30.180450327999896 ], [ -53.3509813209999, -30.170960099 ], [ -53.340805288999896, -30.169937866999899 ], [ -53.34028462, -30.164248749 ], [ -53.342794252, -30.162305702 ], [ -53.339500964, -30.158464487999897 ], [ -53.334400049, -30.156882686 ], [ -53.332612196, -30.157851427 ], [ -53.330483488, -30.153029064999902 ], [ -53.330762752999895, -30.148411101 ], [ -53.322959646999905, -30.147282317 ], [ -53.318344629, -30.142178101999907 ], [ -53.312316623, -30.143792902 ], [ -53.311158843, -30.140874122 ], [ -53.303309177999893, -30.138804901 ], [ -53.303085885, -30.141484599 ], [ -53.308297232, -30.151155936999903 ], [ -53.30755812599989, -30.15710554 ], [ -53.304085406, -30.164400043999894 ], [ -53.306915314, -30.172722839999899 ], [ -53.314654409999903, -30.18216368 ], [ -53.315155064, -30.185890825999891 ], [ -53.319703217, -30.190262334 ], [ -53.3231628, -30.201105627999901 ], [ -53.328497468, -30.205890415999903 ], [ -53.327821916999902, -30.212378031999904 ], [ -53.329897425, -30.214788983999899 ], [ -53.329888457, -30.218870664 ], [ -53.331874485, -30.223021157999895 ], [ -53.33504434, -30.225867873 ], [ -53.339475341, -30.227340755999904 ], [ -53.342088545, -30.232868058 ], [ -53.34724129499989, -30.236489349 ], [ -53.347580439999902, -30.243183253 ], [ -53.35184692, -30.248497579999903 ], [ -53.350814112, -30.25292417 ], [ -53.348432133999893, -30.254403409 ], [ -53.344797598, -30.261728745 ], [ -53.345825013, -30.266010423 ], [ -53.342865953999897, -30.275589629 ], [ -53.342723641, -30.294913119999901 ], [ -53.338457876999897, -30.301043465 ], [ -53.335453351, -30.301215865999897 ], [ -53.334910960999899, -30.30579541 ], [ -53.33314589, -30.307450667999905 ], [ -53.336545062, -30.318791083 ], [ -53.329802496999896, -30.322403602999902 ], [ -53.324332416999894, -30.327349225 ], [ -53.321343284, -30.326224263 ], [ -53.317265565999897, -30.326739748 ], [ -53.280704977, -30.345543028 ], [ -53.276646526, -30.342875026999895 ], [ -53.270913262, -30.345483389 ], [ -53.268045107, -30.345299591 ], [ -53.255469593, -30.336665767999904 ], [ -53.24040071, -30.333266922999886 ], [ -53.236286053, -30.328933137999989 ], [ -53.234441359999899, -30.329726951999902 ], [ -53.227437381999891, -30.326848939999898 ], [ -53.223095066, -30.326565247 ], [ -53.219031032, -30.322665096 ], [ -53.218462875999897, -30.311843847 ], [ -53.22024308399989, -30.307874775 ], [ -53.2164520709999, -30.297727903 ], [ -53.214318809, -30.297608677 ], [ -53.212657518, -30.299179928999894 ], [ -53.209065671, -30.296863545 ], [ -53.20705203099989, -30.2973844529999 ], [ -53.206055539, -30.300039356999903 ], [ -53.204105278, -30.300297214999901 ], [ -53.203010336, -30.307397523 ], [ -53.200044687999892, -30.309511788 ], [ -53.199267414, -30.313170108999905 ], [ -53.192964241, -30.31055163 ], [ -53.184396477, -30.314148948 ], [ -53.180501029, -30.312847362 ], [ -53.182186863, -30.31755107 ], [ -53.184378244, -30.31810776 ], [ -53.179410023999893, -30.324366406 ], [ -53.178937415999897, -30.327794681999904 ], [ -53.181780889, -30.329116803 ], [ -53.184683344999897, -30.332993718999905 ], [ -53.188342763, -30.333384497999898 ], [ -53.188940413, -30.33443183 ], [ -53.187243684, -30.336264101 ], [ -53.188875556, -30.339397886 ], [ -53.187985222999899, -30.340921264 ], [ -53.184021972, -30.341768837 ], [ -53.180061647999899, -30.344752258 ], [ -53.17417146, -30.343059110999899 ], [ -53.172463201, -30.349424588 ], [ -53.169938534, -30.349709855 ], [ -53.169946244999899, -30.352000093 ], [ -53.177353390999897, -30.358546751999899 ], [ -53.177137951, -30.361791707999885 ], [ -53.174539561, -30.363758832 ], [ -53.174809131000011, -30.368945246 ], [ -53.170492531, -30.373791438 ], [ -53.17958778, -30.379974343 ], [ -53.176584701, -30.383496711 ], [ -53.178821221, -30.389029224999909 ], [ -53.176802059999901, -30.394305844 ], [ -53.182826059, -30.395922163 ], [ -53.192134592999892, -30.395749146999904 ], [ -53.198621832999898, -30.399425069 ], [ -53.199618662, -30.404541014999893 ], [ -53.189267555, -30.409125177 ], [ -53.188695845, -30.411306266999905 ], [ -53.190671016, -30.414987851 ], [ -53.197269553999909, -30.415640133999901 ], [ -53.195495827999899, -30.417947354 ], [ -53.197084956, -30.418228636 ], [ -53.198406726, -30.428807268 ], [ -53.208817971, -30.431810386999896 ], [ -53.210673944999897, -30.434018889 ], [ -53.209861154999892, -30.436830909 ], [ -53.212951027, -30.438763614 ], [ -53.212425639999893, -30.441311293 ], [ -53.213707037999903, -30.443408043 ], [ -53.21574584, -30.444017431 ], [ -53.21658612399991, -30.447128052 ], [ -53.212769070666198, -30.452530767852902 ], [ -53.213422051260693, -30.456443975119498 ], [ -53.217749467874995, -30.457682587036704 ], [ -53.218378524603395, -30.461467804468597 ], [ -53.217502921145794, -30.462724105081794 ], [ -53.214841713494302, -30.462739328437298 ], [ -53.213927993571197, -30.464576831238709 ], [ -53.227749113159803, -30.467181887488504 ], [ -53.231440234482292, -30.46926509600549 ], [ -53.231542262701794, -30.473652734483597 ], [ -53.229093585480001, -30.4767271847731 ], [ -53.229014477990901, -30.479853664236195 ], [ -53.224140647978601, -30.484710272234398 ], [ -53.225449067849802, -30.4877992444295 ], [ -53.222828149213903, -30.489650271037991 ], [ -53.223434420345299, -30.492670794239302 ], [ -53.218264990654902, -30.497921846503797 ], [ -53.222373125470995, -30.503030869632401 ], [ -53.221080969459891, -30.506138518959112 ], [ -53.216609642467795, -30.509999327126099 ], [ -53.215625860760298, -30.519823903876311 ], [ -53.218473245686198, -30.522707360745592 ], [ -53.2228843473656, -30.524201257165998 ], [ -53.226440851823092, -30.523252051986699 ], [ -53.230672323461199, -30.519991834332195 ], [ -53.2334093790815, -30.520714525187792 ], [ -53.235970287342695, -30.526353284679004 ], [ -53.2412281414883, -30.527961929576097 ], [ -53.2439486835477, -30.532186833213398 ], [ -53.227246049061598, -30.5424552325618 ], [ -53.231678904873199, -30.550074954117299 ], [ -53.234172924448302, -30.558741819443291 ], [ -53.231753121018201, -30.564723121489891 ], [ -53.227804404889696, -30.567283938475502 ], [ -53.227531118721792, -30.5703171657285 ], [ -53.2367399109826, -30.573311643437798 ], [ -53.243704026234795, -30.5690793012587 ], [ -53.246700126923201, -30.570396930846794 ], [ -53.247043749890103, -30.572657090754994 ], [ -53.249720777563802, -30.574528967913601 ], [ -53.246982930524503, -30.5771262062812 ], [ -53.247451862762198, -30.580272221848098 ], [ -53.246241127913592, -30.582408012536003 ], [ -53.24212088399559, -30.583971503705911 ], [ -53.244289044938398, -30.586748780097498 ], [ -53.244006241337203, -30.589134482272001 ], [ -53.238575407831398, -30.592185291598799 ], [ -53.240146642383891, -30.597236113490005 ], [ -53.234949274723398, -30.598829569832102 ], [ -53.233513502594093, -30.6008091950407 ], [ -53.234062340988899, -30.602386935479004 ], [ -53.239588888127798, -30.605262333272492 ], [ -53.239118814998001, -30.608314367534891 ], [ -53.235807042196399, -30.609275443163693 ], [ -53.233038084356302, -30.605992681394792 ], [ -53.231361204028403, -30.605894787840494 ], [ -53.232412653315102, -30.613945626257699 ], [ -53.230884879377491, -30.614216986288806 ], [ -53.2292854981091, -30.610161315247602 ], [ -53.227386151753002, -30.609800194188285 ], [ -53.226202785982103, -30.615682815227299 ], [ -53.221659129359502, -30.618539605319398 ], [ -53.215428606204192, -30.616433997975697 ], [ -53.214534389754903, -30.612530701829805 ], [ -53.21293546170169, -30.612280529413301 ], [ -53.208599517510109, -30.616825531264201 ], [ -53.218470526420909, -30.623096294230105 ], [ -53.219414508570807, -30.625902216566605 ], [ -53.215833961004002, -30.628219151768203 ], [ -53.2090147342157, -30.628774120377802 ], [ -53.200573297727694, -30.631789669841599 ], [ -53.2000085272226, -30.633378743115802 ], [ -53.203552521680791, -30.636755043096901 ], [ -53.202532239505103, -30.639353361704398 ], [ -53.187978043892599, -30.641585146169596 ], [ -53.189656278444794, -30.6431925985049 ], [ -53.196480280365691, -30.643296470525797 ], [ -53.197512451198094, -30.644450946521701 ], [ -53.191751257845702, -30.647396161068993 ], [ -53.190824208340999, -30.6507952980676 ], [ -53.187231605546501, -30.651594195584892 ], [ -53.189907948050603, -30.662615795311201 ], [ -53.188316307856397, -30.666887376687004 ], [ -53.192206983886592, -30.670084260837598 ], [ -53.190526919234799, -30.676661254809996 ], [ -53.192567483586295, -30.6781848761925 ], [ -53.199073099926302, -30.677829668129903 ], [ -53.200762670159293, -30.679207429264096 ], [ -53.198852421788892, -30.681830684500504 ], [ -53.180415313619399, -30.693753686291494 ], [ -53.181256473048698, -30.695385245529394 ], [ -53.188091845775297, -30.696563559118204 ], [ -53.195873197835695, -30.695556880704785 ], [ -53.193138841604693, -30.699365934160895 ], [ -53.189221654600701, -30.699156526722597 ], [ -53.189990300286098, -30.705224114244004 ], [ -53.183770178523403, -30.708570802096901 ], [ -53.182487095689893, -30.711663735319291 ], [ -53.184617485078796, -30.714068411646601 ], [ -53.193503591178398, -30.715091421946099 ], [ -53.189268571220502, -30.719506729430297 ], [ -53.190690511130896, -30.723132629634794 ], [ -53.193376907448091, -30.7231389339759 ], [ -53.199226525255703, -30.7203229551709 ], [ -53.201443938517599, -30.723166141500599 ], [ -53.200729585758793, -30.7275583473673 ], [ -53.205181929634598, -30.7251925864723 ], [ -53.207589839147992, -30.727287667160599 ], [ -53.212741863143599, -30.728213137329899 ], [ -53.208000951966994, -30.734484471770092 ], [ -53.212340552152199, -30.738177468126299 ], [ -53.215884332244897, -30.746809480452992 ], [ -53.216870605012495, -30.753400078188495 ], [ -53.214830040663294, -30.762378986454795 ], [ -53.216098591499495, -30.768581876963591 ], [ -53.222750650155092, -30.769860486207495 ], [ -53.222692639159995, -30.770866614404195 ], [ -53.225594017617304, -30.771316658314184 ], [ -53.226728029008299, -30.772906063451504 ], [ -53.228924742232294, -30.772242449389591 ], [ -53.234747142657099, -30.777158881226399 ], [ -53.237407490641992, -30.781322189853498 ], [ -53.241664047409294, -30.780450212083107 ], [ -53.244965775192, -30.782838619899298 ], [ -53.248716462209892, -30.782183177257387 ], [ -53.250937195616999, -30.783899940144405 ], [ -53.257064606977195, -30.7838238007133 ], [ -53.259295764239894, -30.786048273112598 ], [ -53.2689968213732, -30.782458139673302 ], [ -53.2727922710652, -30.782450912672498 ], [ -53.2751389200711, -30.778683095623098 ], [ -53.281831971143994, -30.775561032165292 ], [ -53.288327767662793, -30.766602954662311 ], [ -53.291451530759595, -30.770024435247905 ], [ -53.292616353739902, -30.7694525177535 ], [ -53.296100114959103, -30.773070125797105 ], [ -53.301235900866502, -30.775280322048307 ], [ -53.304313656084993, -30.780654043682805 ], [ -53.306766433472696, -30.780550711597705 ], [ -53.308039619297993, -30.778751114434804 ], [ -53.30909684391689, -30.780161856645904 ], [ -53.3200653452094, -30.776696946321003 ], [ -53.321528872103094, -30.779161280285201 ], [ -53.32275846503839, -30.779109913672208 ], [ -53.3255171280179, -30.776174620457994 ], [ -53.325956742590407, -30.777110047754405 ], [ -53.3279691311307, -30.776152795827301 ], [ -53.329288696077995, -30.777159474240602 ], [ -53.330781283879993, -30.775627350512501 ], [ -53.3329071849437, -30.776758356096504 ], [ -53.332584045569, -30.7781722607976 ], [ -53.3356501554426, -30.778771094958596 ], [ -53.337396538434497, -30.777581190873303 ], [ -53.344825893143202, -30.781138149606399 ], [ -53.34743259426979, -30.778206818130993 ], [ -53.348176313353591, -30.782575884502101 ], [ -53.349874164327993, -30.783055004751596 ], [ -53.349818296442194, -30.780050593370497 ], [ -53.353502967932997, -30.780446483322397 ], [ -53.354332277002399, -30.778115269529302 ], [ -53.357252768038201, -30.777674748535105 ], [ -53.358713919977795, -30.774998991385001 ], [ -53.360413679203091, -30.776603420460599 ], [ -53.362339607173091, -30.775430448161199 ], [ -53.365028054226698, -30.779286026583193 ], [ -53.366232688545203, -30.777528476299899 ], [ -53.3690725082947, -30.777266858725604 ], [ -53.369917973225007, -30.781384393047301 ], [ -53.373340654369301, -30.779766295205299 ], [ -53.374545483115995, -30.777156275266105 ], [ -53.3847146292769, -30.780935147745399 ], [ -53.389750708791198, -30.779807559027706 ], [ -53.388505873557804, -30.784723166103412 ], [ -53.389409440982703, -30.788068800603003 ], [ -53.392029248004597, -30.7880560878775 ], [ -53.392939953889098, -30.7913953686048 ], [ -53.396742846547291, -30.791812209331212 ], [ -53.3959742008619, -30.793411137384386 ], [ -53.392493476394002, -30.794905157097805 ], [ -53.39360300143619, -30.799255745143096 ], [ -53.395105848778591, -30.799340948792199 ], [ -53.396078067771491, -30.797020542142203 ], [ -53.404282463069798, -30.795974498231399 ], [ -53.405549640742699, -30.800109934384 ], [ -53.413593680997394, -30.805176605634301 ], [ -53.409074762220591, -30.807291807830705 ], [ -53.407698766829597, -30.810402920424998 ], [ -53.415296783021894, -30.811785725695504 ], [ -53.413115543499295, -30.816613722590493 ], [ -53.420017288554995, -30.817784984888892 ], [ -53.419478624527002, -30.819180709124705 ], [ -53.408761875686693, -30.824514170957201 ], [ -53.409522034277003, -30.827510838757604 ], [ -53.415026280651297, -30.827824347398305 ], [ -53.414356888152, -30.830583608655598 ], [ -53.4155991392281, -30.832494232505791 ], [ -53.412495097777196, -30.834392393054301 ], [ -53.411744580527802, -30.836906807124294 ], [ -53.40830017769219, -30.837325573995294 ], [ -53.411441816868297, -30.8410155346794 ], [ -53.410557572316002, -30.843518626950601 ], [ -53.411754703402195, -30.844851795660208 ], [ -53.417125553537304, -30.84517326062771 ], [ -53.418216490515192, -30.844362060215897 ], [ -53.417418780988498, -30.841959202230996 ], [ -53.421321833254297, -30.842261947111801 ], [ -53.423248182111593, -30.840496466120999 ], [ -53.425744472501499, -30.841197059881694 ], [ -53.424841522776291, -30.844171607542997 ], [ -53.425766578615594, -30.852429091285401 ], [ -53.424149869266692, -30.852916028935301 ], [ -53.422118124805301, -30.850336239193705 ], [ -53.417813479055397, -30.855487812223295 ], [ -53.419651687442396, -30.8609654521557 ], [ -53.42272588062081, -30.857550563592696 ], [ -53.424724993897108, -30.857786459865594 ], [ -53.425440160697896, -30.859438526897506 ], [ -53.424056961032399, -30.860259405138599 ], [ -53.421540054301495, -30.867479281371498 ], [ -53.423540663001894, -30.8710641201064 ], [ -53.421947322337502, -30.872733981934001 ], [ -53.423088222733895, -30.8744075163909 ], [ -53.418175679227794, -30.876074555824498 ], [ -53.423059429909394, -30.878680951667103 ], [ -53.423802535427001, -30.880408204365903 ], [ -53.426141532314801, -30.879096291538797 ], [ -53.427987392818196, -30.8796876300805 ], [ -53.432469832510307, -30.885054314324801 ], [ -53.427439841383595, -30.889645158996998 ], [ -53.423141052483103, -30.890437578153492 ], [ -53.42467487668759, -30.891781374803497 ], [ -53.429822767, -30.892082757 ], [ -53.4319222810757, -30.895962406135205 ], [ -53.424904440177194, -30.895871005858005 ], [ -53.4254230836166, -30.899163116345001 ], [ -53.419750314719501, -30.906264280288102 ], [ -53.4193694093739, -30.909393145627099 ], [ -53.412740148999902, -30.913118348999905 ], [ -53.413897295970791, -30.916988721307 ], [ -53.421311346448391, -30.915965463309099 ], [ -53.421392969022001, -30.919903327389093 ], [ -53.418862669226598, -30.921189308048902 ], [ -53.412009773945698, -30.921294312088698 ], [ -53.408360564697702, -30.923243476162703 ], [ -53.408517007964697, -30.925630936453889 ], [ -53.413356546418193, -30.930280022234694 ], [ -53.409147457325098, -30.933379979577992 ], [ -53.412560301202994, -30.936110934868392 ], [ -53.413031331474102, -30.943519883934592 ], [ -53.416793196880199, -30.944426234601298 ], [ -53.419163652468491, -30.9484733538984 ], [ -53.422482970480296, -30.950360875923501 ], [ -53.421085183899493, -30.951836884137698 ], [ -53.4173033379681, -30.9518028747319 ], [ -53.4216429381556, -30.954578042249896 ], [ -53.419830236823401, -30.955645937593793 ], [ -53.416073472828103, -30.954175881025094 ], [ -53.416592541385697, -30.957887157439906 ], [ -53.4118286738601, -30.961279595674192 ], [ -53.417580581127496, -30.964778298390005 ], [ -53.427824697999903, -30.955769648999901 ], [ -53.432598834, -30.953724335999905 ], [ -53.433375920999893, -30.950798221999907 ], [ -53.435738637, -30.949796573 ], [ -53.438974175999896, -30.950753189999901 ], [ -53.439919018, -30.952400634999893 ], [ -53.442996685, -30.959664683 ], [ -53.443145342, -30.964168739999902 ], [ -53.452453385999902, -30.968241111999898 ], [ -53.45466692, -30.966639597 ], [ -53.454470386, -30.959967069 ], [ -53.455951259, -30.957590367 ], [ -53.463075692, -30.957202556999988 ], [ -53.463821427, -30.956168412 ], [ -53.463988074, -30.954439167 ], [ -53.460682844, -30.949800226 ], [ -53.456259555, -30.946953185 ], [ -53.460969737, -30.944554783999905 ], [ -53.463519351999892, -30.944485116 ], [ -53.47002048, -30.948584234 ], [ -53.476476549, -30.949915663 ], [ -53.477507327999902, -30.951850006 ], [ -53.475423602, -30.95396205 ], [ -53.470335457, -30.9556081019999 ], [ -53.475024558, -30.966645432 ], [ -53.47985124, -30.968529275 ], [ -53.482050559999898, -30.96734393 ], [ -53.483600677, -30.9617192699999 ], [ -53.482213054999903, -30.959343396999902 ] ] ] } }
]
}
